{"type":"FeatureCollection","features":[{"type":"Feature","geometry":{"type":"Point","coordinates":[-76.3246,4.877,91.129]},"properties":{"id":"us6000tjm4","magnitude":5,"depth_km":91.129,"place":"10 km WSW of San José del Palmar, Colombia","time":"2026-08-10T13:18:09.581Z"}},{"type":"Feature","geometry":{"type":"Point","coordinates":[-76.3671,4.9924,97.87]},"properties":{"id":"us6000tjms","magnitude":4.3,"depth_km":97.87,"place":"18 km NW of San José del Palmar, Colombia","time":"2026-08-10T15:01:31.472Z"}},{"type":"Feature","geometry":{"type":"Point","coordinates":[-76.33,4.9121,101.646]},"properties":{"id":"us6000tjzx","magnitude":4.1,"depth_km":101.646,"place":"10 km W of San José del Palmar, Colombia","time":"2026-08-11T15:43:41.168Z"}},{"type":"Feature","geometry":{"type":"Point","coordinates":[-73.7019,6.2416,116.733]},"properties":{"id":"us6000tkql","magnitude":4.5,"depth_km":116.733,"place":"12 km ENE of Landázuri, Colombia","time":"2026-08-11T22:29:34.063Z"}},{"type":"Feature","geometry":{"type":"Point","coordinates":[-76.2213,4.8948,103.362]},"properties":{"id":"us6000tkha","magnitude":4.3,"depth_km":103.362,"place":"1 km E of San José del Palmar, Colombia","time":"2026-08-13T14:42:32.286Z"}},{"type":"Feature","geometry":{"type":"Point","coordinates":[-76.414,4.9268,96.66]},"properties":{"id":"us6000tkl4","magnitude":4.3,"depth_km":96.66,"place":"20 km W of San José del Palmar, Colombia","time":"2026-08-14T03:21:46.170Z"}},{"type":"Feature","geometry":{"type":"Point","coordinates":[-77.5719,5.8735,10]},"properties":{"id":"us6000tluk","magnitude":4.3,"depth_km":10,"place":"37 km WNW of Nuquí, Colombia","time":"2026-08-19T10:07:16.276Z"}},{"type":"Feature","geometry":{"type":"Point","coordinates":[-76.8266,4.4825,78.299]},"properties":{"id":"us6000tn1x","magnitude":4.4,"depth_km":78.299,"place":"27 km SW of Sipí, Colombia","time":"2026-08-24T02:41:00.522Z"}},{"type":"Feature","geometry":{"type":"Point","coordinates":[-76.7599,4.3503,73.956]},"properties":{"id":"us6000tn7y","magnitude":4.4,"depth_km":73.956,"place":"35 km SSW of Sipí, Colombia","time":"2026-08-24T18:55:28.009Z"}},{"type":"Feature","geometry":{"type":"Point","coordinates":[-76.7491,4.5126,61.381]},"properties":{"id":"us7000tc9s","magnitude":4.7,"depth_km":61.381,"place":"19 km SW of Sipí, Colombia","time":"2026-08-27T15:25:29.013Z"}},{"type":"Feature","geometry":{"type":"Point","coordinates":[-76.6859,4.5588,63.685]},"properties":{"id":"us7000tca5","magnitude":4.5,"depth_km":63.685,"place":"11 km SSW of Sipí, Colombia","time":"2026-08-27T16:21:22.850Z"}},{"type":"Feature","geometry":{"type":"Point","coordinates":[-76.7395,4.5132,60.635]},"properties":{"id":"us7000tcth","magnitude":4.5,"depth_km":60.635,"place":"18 km SW of Sipí, Colombia","time":"2026-08-29T10:50:23.751Z"}},{"type":"Feature","geometry":{"type":"Point","coordinates":[-76.1637,2.4078,10]},"properties":{"id":"us7000tcwh","magnitude":4.5,"depth_km":10,"place":"19 km SSW of Inzá, Colombia","time":"2026-08-30T04:37:56.698Z"}},{"type":"Feature","geometry":{"type":"Point","coordinates":[-74.4786,7.718,83.04]},"properties":{"id":"us7000tfwa","magnitude":4.2,"depth_km":83.04,"place":"33 km ESE of San Carlos, Colombia","time":"2026-09-01T17:05:06.078Z"}},{"type":"Feature","geometry":{"type":"Point","coordinates":[-76.7157,4.3985,71.437]},"properties":{"id":"us7000tdu1","magnitude":4.5,"depth_km":71.437,"place":"29 km SSW of Sipí, Colombia","time":"2026-09-03T05:17:15.307Z"}},{"type":"Feature","geometry":{"type":"Point","coordinates":[-76.795,4.5418,61.61]},"properties":{"id":"us7000tes0","magnitude":4.4,"depth_km":61.61,"place":"20 km SW of Sipí, Colombia","time":"2026-09-06T22:15:38.764Z"}},{"type":"Feature","geometry":{"type":"Point","coordinates":[-76.7929,4.5226,67.08]},"properties":{"id":"us7000tfql","magnitude":4.4,"depth_km":67.08,"place":"21 km SW of Sipí, Colombia","time":"2026-09-08T02:01:34.461Z"}},{"type":"Feature","geometry":{"type":"Point","coordinates":[-76.8003,4.4626,68.328]},"properties":{"id":"us7000tgpu","magnitude":4.7,"depth_km":68.328,"place":"27 km SW of Sipí, Colombia","time":"2026-09-11T16:42:31.376Z"}},{"type":"Feature","geometry":{"type":"Point","coordinates":[-76.8685,4.4611,68.129]},"properties":{"id":"us7000tgyx","magnitude":4.7,"depth_km":68.129,"place":"32 km SW of Sipí, Colombia","time":"2026-09-12T11:16:11.650Z"}},{"type":"Feature","geometry":{"type":"Point","coordinates":[-76.7002,4.5649,76.094]},"properties":{"id":"us7000thdw","magnitude":4.5,"depth_km":76.094,"place":"11 km SSW of Sipí, Colombia","time":"2026-09-14T14:57:11.569Z"}},{"type":"Feature","geometry":{"type":"Point","coordinates":[-76.7177,4.5034,63.624]},"properties":{"id":"us7000thge","magnitude":4.9,"depth_km":63.624,"place":"18 km SSW of Sipí, Colombia","time":"2026-09-14T20:02:04.673Z"}},{"type":"Feature","geometry":{"type":"Point","coordinates":[-76.6921,4.5069,71.459]},"properties":{"id":"us7000tica","magnitude":4.4,"depth_km":71.459,"place":"17 km SSW of Sipí, Colombia","time":"2026-09-14T20:04:50.939Z"}},{"type":"Feature","geometry":{"type":"Point","coordinates":[-76.7695,4.4474,74.903]},"properties":{"id":"us7000thgj","magnitude":4.6,"depth_km":74.903,"place":"26 km SSW of Sipí, Colombia","time":"2026-09-14T20:08:07.031Z"}},{"type":"Feature","geometry":{"type":"Point","coordinates":[-76.8767,4.5502,50.363]},"properties":{"id":"us7000thh2","magnitude":4.9,"depth_km":50.363,"place":"28 km WSW of Sipí, Colombia","time":"2026-09-14T21:13:16.278Z"}},{"type":"Feature","geometry":{"type":"Point","coordinates":[-76.7671,4.474,69.61]},"properties":{"id":"us7000thht","magnitude":4.6,"depth_km":69.61,"place":"24 km SW of Sipí, Colombia","time":"2026-09-14T22:39:04.026Z"}},{"type":"Feature","geometry":{"type":"Point","coordinates":[-76.7822,4.495,71.01]},"properties":{"id":"us7000thse","magnitude":4.6,"depth_km":71.01,"place":"23 km SW of Sipí, Colombia","time":"2026-09-16T06:18:06.190Z"}},{"type":"Feature","geometry":{"type":"Point","coordinates":[-77.8115,6.0969,10]},"properties":{"id":"us7000thsp","magnitude":4.8,"depth_km":10,"place":"47 km WSW of Bahía Solano, Colombia","time":"2026-09-16T07:02:13.029Z"}},{"type":"Feature","geometry":{"type":"Point","coordinates":[-76.8399,4.5496,66.069]},"properties":{"id":"us7000thxc","magnitude":4.9,"depth_km":66.069,"place":"24 km WSW of Sipí, Colombia","time":"2026-09-16T20:12:52.374Z"}},{"type":"Feature","geometry":{"type":"Point","coordinates":[-76.8006,4.46,51.459]},"properties":{"id":"us7000thxm","magnitude":4.7,"depth_km":51.459,"place":"27 km SW of Sipí, Colombia","time":"2026-09-16T20:55:00.902Z"}},{"type":"Feature","geometry":{"type":"Point","coordinates":[-76.7654,4.5449,58.798]},"properties":{"id":"us7000thyk","magnitude":4.4,"depth_km":58.798,"place":"18 km SW of Sipí, Colombia","time":"2026-09-17T01:12:49.502Z"}},{"type":"Feature","geometry":{"type":"Point","coordinates":[-76.8219,4.5211,57.808]},"properties":{"id":"us7000ti5y","magnitude":4.7,"depth_km":57.808,"place":"24 km SW of Sipí, Colombia","time":"2026-09-17T21:10:25.572Z"}},{"type":"Feature","geometry":{"type":"Point","coordinates":[-76.7931,4.3224,68.374]},"properties":{"id":"us7000ti7x","magnitude":4.7,"depth_km":68.374,"place":"40 km SSW of Sipí, Colombia","time":"2026-09-18T06:17:03.598Z"}},{"type":"Feature","geometry":{"type":"Point","coordinates":[-77.8028,7.0558,10]},"properties":{"id":"us7000ti8q","magnitude":4.4,"depth_km":10,"place":"6 km SW of Juradó, Colombia","time":"2026-09-18T08:45:21.545Z"}},{"type":"Feature","geometry":{"type":"Point","coordinates":[-76.7978,4.5042,72.587]},"properties":{"id":"us7000tie4","magnitude":4.5,"depth_km":72.587,"place":"23 km SW of Sipí, Colombia","time":"2026-09-18T18:41:22.677Z"}},{"type":"Feature","geometry":{"type":"Point","coordinates":[-76.7636,4.415,74.036]},"properties":{"id":"us7000tihg","magnitude":4.3,"depth_km":74.036,"place":"29 km SSW of Sipí, Colombia","time":"2026-09-19T05:01:48.911Z"}},{"type":"Feature","geometry":{"type":"Point","coordinates":[-76.8729,4.5179,58.204]},"properties":{"id":"us7000tijs","magnitude":4.8,"depth_km":58.204,"place":"29 km WSW of Sipí, Colombia","time":"2026-09-19T13:44:35.732Z"}},{"type":"Feature","geometry":{"type":"Point","coordinates":[-76.628,4.436,80.206]},"properties":{"id":"us7000timg","magnitude":4.2,"depth_km":80.206,"place":"24 km S of Sipí, Colombia","time":"2026-09-19T23:20:15.368Z"}},{"type":"Feature","geometry":{"type":"Point","coordinates":[-75.7087,3.8585,10]},"properties":{"id":"us7000tiz7","magnitude":4.3,"depth_km":10,"place":"20 km SW of Roncesvalles, Colombia","time":"2026-09-21T16:23:20.333Z"}},{"type":"Feature","geometry":{"type":"Point","coordinates":[-75.5116,3.8759,10]},"properties":{"id":"us7000tizt","magnitude":4.5,"depth_km":10,"place":"5 km SW of San Antonio, Colombia","time":"2026-09-21T18:48:44.774Z"}},{"type":"Feature","geometry":{"type":"Point","coordinates":[-75.6103,3.9838,11.768]},"properties":{"id":"us7000tj1f","magnitude":4.3,"depth_km":11.768,"place":"3 km SSW of Roncesvalles, Colombia","time":"2026-09-21T22:58:22.094Z"}},{"type":"Feature","geometry":{"type":"Point","coordinates":[-75.6132,3.7466,19.711]},"properties":{"id":"us7000tj1k","magnitude":4.3,"depth_km":19.711,"place":"14 km W of Chaparral, Colombia","time":"2026-09-21T23:15:35.218Z"}},{"type":"Feature","geometry":{"type":"Point","coordinates":[-75.7321,3.8183,10]},"properties":{"id":"us7000tj4x","magnitude":4.1,"depth_km":10,"place":"25 km SSW of Roncesvalles, Colombia","time":"2026-09-22T10:38:42.183Z"}},{"type":"Feature","geometry":{"type":"Point","coordinates":[-75.7814,3.948,10]},"properties":{"id":"us6000twzi","magnitude":4.4,"depth_km":10,"place":"20 km WSW of Roncesvalles, Colombia","time":"2026-09-22T22:12:26.733Z"}},{"type":"Feature","geometry":{"type":"Point","coordinates":[-75.7375,3.7019,9.967]},"properties":{"id":"us6000tx0s","magnitude":4.4,"depth_km":9.967,"place":"21 km NNW of Rioblanco, Colombia","time":"2026-09-23T04:36:36.514Z"}},{"type":"Feature","geometry":{"type":"Point","coordinates":[-75.6673,3.8429,10]},"properties":{"id":"us6000tx0t","magnitude":4.3,"depth_km":10,"place":"19 km SSW of Roncesvalles, Colombia","time":"2026-09-23T04:46:40.685Z"}},{"type":"Feature","geometry":{"type":"Point","coordinates":[-75.7321,3.9146,10]},"properties":{"id":"us6000tx28","magnitude":4.2,"depth_km":10,"place":"17 km SW of Roncesvalles, Colombia","time":"2026-09-23T09:04:13.285Z"}},{"type":"Feature","geometry":{"type":"Point","coordinates":[-75.7529,3.6948,10]},"properties":{"id":"us6000txdb","magnitude":4.6,"depth_km":10,"place":"21 km NNW of Rioblanco, Colombia","time":"2026-09-24T16:46:31.662Z"}}]}
