{"type":"FeatureCollection","features":[{"type":"Feature","geometry":{"type":"Point","coordinates":[-75.4914175,5.0587763]},"properties":{"tipo":"centro_acopio","nombre":"Coliseo de la Universidad de Caldas","pcode":"CO17001","direccion":"Cra. 27, detrás de la Normal Superior de Caldas, sector del Estadio Palogrande","horario":"","necesita":"productos de aseo, alimentos no perecederos, pañales de adulto y de niño, agua, ropa en muy buen estado","telefono":"","como_llegar":"https://www.google.com/maps/dir/?api=1&destination=5.0587763,-75.4914175","fuente":"La Patria","fuente_url":"https://www.lapatria.com/manizales/universidad-de-caldas-habilita-centro-de-acopio-en-manizales-para-damnificados-del-sismo","observado":"2026-08-11T12:00:00-05:00"}},{"type":"Feature","geometry":{"type":"Point","coordinates":[-75.4912065,5.0559074]},"properties":{"tipo":"centro_acopio","nombre":"Coliseo Menor Ramón Marín Vargas","pcode":"CO17001","direccion":"","horario":"","necesita":"colchonetas, almohadas, cobijas y toallas (nuevas), ropa nueva con etiqueta (no ropa interior), arroz, fríjol, lenteja, aceite, sal, azúcar y enlatados, jabón, champú, crema y cepillo dental, papel higiénico, pañales y crema para bebé, alimento para perros, gatos, gallinas y patos, caminadores, sillas de ruedas y bastones","telefono":"","como_llegar":"https://www.google.com/maps/dir/?api=1&destination=5.0559074,-75.4912065","fuente":"La Patria","fuente_url":"https://www.lapatria.com/manizales/ayudas-para-damnificados-en-manizales-por-el-terremoto-que-donar-y-donde-llevarlo","observado":"2026-08-11T12:00:00-05:00"}},{"type":"Feature","geometry":{"type":"Point","coordinates":[-75.520176,5.044427]},"properties":{"tipo":"centro_acopio","nombre":"Cruz Roja Colombiana — Seccional Caldas","pcode":"CO17001","direccion":"Avenida Kevin Ángel, carrera 21 # 69-350","horario":"Desde el martes 11 de agosto","necesita":"alimentos no perecederos, kits de aseo, elementos de hogar, insumos para mascotas, todo nuevo, sellado y en perfecto estado","telefono":"","como_llegar":"https://www.google.com/maps/dir/?api=1&destination=5.044427,-75.520176","fuente":"La Patria","fuente_url":"https://www.lapatria.com/manizales/ayudas-para-damnificados-en-manizales-por-el-terremoto-que-donar-y-donde-llevarlo","observado":"2026-08-11T12:00:00-05:00"}}]}
