{"type":"Topology","bbox":[-75.7501533051535,6.08207851487383,-75.70122437813654,6.120320804360354],"transform":{"scale":[0.000004893382039899918,0.000003824611409793377],"translate":[-75.7501533051535,6.08207851487383]},"objects":{"municipios":{"type":"GeometryCollection","geometries":[{"type":"Polygon","arcs":[[0]]},{"type":"Polygon","arcs":[[1,2]]},{"type":"Polygon","arcs":[[-2,3]]},{"type":"Polygon","arcs":[[4]]},{"type":"Polygon","arcs":[[5]]}]}},"arcs":[[[692,9886],[37,-38],[26,-82],[67,-83],[24,-62],[-23,-72],[-131,67],[20,20],[-65,68],[-27,-17],[52,-157],[-46,-50],[-45,67],[28,68],[-12,63],[-50,-24],[-6,-92],[-37,-22],[-50,50],[110,222],[-138,13],[-116,48],[-126,-66],[136,-8],[59,-45],[-38,-53],[-12,-136],[-89,28],[-80,-11],[-44,-79],[-81,57],[-35,134],[30,21],[55,-110],[26,19],[-21,150],[72,74],[150,70],[112,81],[122,-66],[146,-47]],[[7698,8626],[101,-227],[92,12],[18,-72],[77,-97],[20,-68],[84,-131],[44,-111],[61,-49],[-7,-145],[136,-67],[16,-294],[-35,-364],[8,-201],[34,-124],[-43,-184],[-62,-84],[-68,-214]],[[8174,6206],[-14,65],[9,119],[-18,22],[-100,-118],[32,-158],[34,-81],[-14,-30],[-222,-80],[55,-171],[-15,-32],[-89,-41],[-108,21],[-12,76],[-117,288],[-221,231],[-37,111],[-53,90],[31,157],[-28,-2],[-34,117],[-4,74],[42,20],[-103,137],[15,40],[-38,50],[-32,-29],[-129,115],[17,122],[67,-27],[-97,96],[-39,78],[-43,18],[66,84],[57,112],[66,23],[-14,84],[49,49],[93,154],[-9,68],[52,103],[131,178],[60,22],[-13,94],[21,33],[130,84],[47,72],[53,-18]],[[7698,8626],[66,-75],[31,-84],[49,-61],[82,44],[89,-12],[31,-156],[-13,-46],[60,-143],[37,-21],[159,22],[19,-96],[67,-32],[103,-124],[124,95],[0,82],[65,62],[90,-22],[63,-96],[43,-212],[42,-65],[-30,-60],[-10,-123],[11,-72],[-67,-288],[-83,-47],[-79,-172],[21,-100],[64,-110],[-51,-112],[-35,-127],[-61,-38],[-121,-207],[-69,-34],[-24,-171],[-69,18],[-128,163]],[[9928,477],[-36,-94],[-53,-61],[-10,31],[-69,-17],[-38,-41],[-33,-103],[-46,-72],[-120,-58],[-66,-60],[-176,48],[15,95],[-26,46],[-51,1],[-2,49],[51,94],[3,103],[-22,81],[50,177],[10,259],[39,128],[102,113],[-28,83],[127,73],[84,73],[46,-64],[-4,-134],[25,-146],[121,-236],[-16,-53],[44,-111],[150,-91],[-71,-113]],[[8222,4806],[74,-145],[-31,-25],[66,-82],[152,7],[-13,-125],[84,0],[-48,-81],[87,-119],[-143,-171],[-72,4],[-57,-84],[-55,16],[15,63],[53,58],[-10,147],[-53,-19],[-57,153],[11,77],[-55,-12],[-6,58],[53,14],[-30,84],[12,49],[-81,122],[-72,5],[-42,-53],[-32,17],[31,147],[-29,26],[59,126],[20,104],[53,22],[58,-74],[-36,-136],[44,-78],[41,-8],[9,-87]]]}
