{"type":"Topology","bbox":[-75.02643201224521,6.481374254588024,-74.82249392170974,6.518731232995354],"transform":{"scale":[0.000020395848638411172,0.0000037360714478778086],"translate":[-75.02643201224521,6.481374254588024]},"objects":{"municipios":{"type":"GeometryCollection","geometries":[{"type":"Polygon","arcs":[[0,1,2]],"properties":{"codigo":"05670100000000000102","sector":"056701000000000001","pcode":"CO05670","area_m2":75030}},{"type":"Polygon","arcs":[[3,-3,4,5]],"properties":{"codigo":"05670100000000000103","sector":"056701000000000001","pcode":"CO05670","area_m2":71974}},{"type":"Polygon","arcs":[[6,7]],"properties":{"codigo":"05670200301003000102","sector":"056702003010030001","pcode":"CO05670","area_m2":186660}},{"type":"Polygon","arcs":[[8,-5,-2,9,10]],"properties":{"codigo":"05670100000000000101","sector":"056701000000000001","pcode":"CO05670","area_m2":186982}},{"type":"Polygon","arcs":[[11,-11,12]],"properties":{"codigo":"05670100000000000201","sector":"056701000000000002","pcode":"CO05670","area_m2":177080}},{"type":"Polygon","arcs":[[13,-6,-9,-12]],"properties":{"codigo":"05670100000000000202","sector":"056701000000000002","pcode":"CO05670","area_m2":158319}},{"type":"Polygon","arcs":[[14]],"properties":{"codigo":"05670200302001000101","sector":"056702003020010001","pcode":"CO05670","area_m2":37497}},{"type":"Polygon","arcs":[[15,16]],"properties":{"codigo":"05670200203002000101","sector":"056702002030020001","pcode":"CO05670","area_m2":148856}},{"type":"Polygon","arcs":[[-16,17]],"properties":{"codigo":"05670200203002000102","sector":"056702002030020001","pcode":"CO05670","area_m2":100763}},{"type":"Polygon","arcs":[[-7,18]],"properties":{"codigo":"05670200301003000101","sector":"056702003010030001","pcode":"CO05670","area_m2":150203}}]}},"arcs":[[[220,331],[-21,97],[3,62],[-5,96],[1,91],[-14,35],[-5,129],[-25,147],[-36,-27],[1,-89],[-15,-65],[-15,37],[-35,9],[-5,50],[-37,117],[0,41]],[[12,1061],[51,-48],[32,-9],[25,176],[52,96],[94,-124]],[[266,1152],[-22,-485],[-30,44],[8,-161],[-8,-116],[6,-103]],[[339,99],[-13,6],[-13,63],[-26,-46],[7,166],[-9,48],[0,198],[-14,30],[-11,-33],[-21,45],[-10,-48],[-5,-107],[3,-62],[14,-28],[5,-81],[-9,-40],[-17,121]],[[266,1152],[86,-114]],[[352,1038],[-31,-650],[29,-44],[-11,-245]],[[9755,3437],[7,45],[32,91],[-9,87],[31,10],[13,86]],[[9829,3756],[28,-48],[31,-119],[23,-105],[45,-370],[16,-140],[16,-211],[11,-101],[-2,-88],[-13,-108],[-22,-96],[8,-136],[-3,-112],[-18,87],[-29,-67],[-16,-9],[-4,154],[4,56],[-22,-17],[-13,78],[-15,-63],[-15,-15],[-8,53],[9,61],[-13,96],[6,22],[-7,178],[-1,198],[8,19],[-2,140],[-22,227],[-15,-45],[-7,64],[-14,-59],[-10,48],[16,69],[-9,72],[-15,-32]],[[360,1218],[-8,-180]],[[12,1061],[2,84],[50,-42],[9,126],[9,39],[5,100],[20,68],[9,91],[20,22],[2,108],[17,79],[12,-27],[27,-11],[39,64],[20,-61],[14,48],[30,27],[-1,39],[15,58],[15,135],[-11,102],[47,-38],[4,-73],[-27,-81],[7,-47],[4,48],[16,-67],[18,-29],[26,51],[18,2],[23,91],[9,-45],[2,124],[6,128],[-14,32],[-4,65],[20,46],[-1,68],[19,21]],[[488,2406],[1,-125],[-20,-399],[-7,-73],[-47,-196],[1,82],[-32,38],[-25,-513],[1,-2]],[[581,1425],[-39,3],[-12,-110],[-14,-303],[-156,203]],[[488,2406],[-3,114],[16,-73],[13,1],[14,58],[1,-59],[13,-41],[5,-60],[11,-8],[30,-100],[-3,-136],[11,6],[-4,-156],[4,-57],[-8,-325],[-11,-60],[4,-85]],[[581,1425],[11,-199],[-14,-102],[-22,39],[-9,-46],[2,-75],[-11,22],[-4,64],[-11,-129],[-7,8],[-7,-163],[29,-45],[3,-23],[-11,-119],[-9,-44],[-2,-108],[-10,-14],[-15,-88],[-16,-13],[-24,15],[-13,-45],[0,-49],[-15,-61],[-19,136],[-10,-17],[-10,-94],[11,-107],[-3,-73],[-18,-33],[1,-62],[-34,68],[-5,31]],[[5209,910],[44,-27],[35,26],[23,-95],[20,-59],[15,-11],[55,52],[50,-5],[20,21],[36,-36],[25,36],[48,-15],[-7,-63],[-38,11],[-13,-77],[-56,27],[-8,-26],[-16,30],[-40,-17],[-28,-45],[-15,13],[-34,-16],[-24,58],[-5,84],[-11,51],[-15,8],[-18,-31],[-34,30],[-17,-3],[-14,-39],[10,81],[-18,-2],[13,49],[17,-10]],[[6030,9838],[-6,-89],[-10,-240],[-23,33],[-19,1],[0,-90]],[[5972,9453],[-33,-28],[-7,-98],[-10,-9],[-3,85],[-24,-20],[-3,80],[-32,-29],[2,-62],[-54,-47],[-23,35],[-29,-21],[-26,-56],[-16,-82],[13,-72],[-18,-90],[-17,38],[-13,-56],[-16,-29],[-15,6],[4,145],[18,138],[36,81],[20,76],[32,204],[32,151],[39,163],[35,43],[62,-3],[35,-71],[40,-35],[29,-52]],[[6030,9838],[19,-17],[44,-88],[25,-88],[14,-9],[17,116],[25,67],[24,2],[35,-97],[12,-96],[-10,-34],[-13,-174],[-21,-55],[-23,-26],[0,-149],[-4,-64],[0,-179],[-11,-51],[-10,-112],[8,-122],[-16,-53],[-20,77],[8,52],[-4,105],[6,147],[-10,7],[4,116],[11,-8],[9,261],[-13,109],[-24,1],[-26,-73],[-22,21],[-5,-98],[-8,-35],[-14,11],[-9,47],[3,66],[-19,-10],[-40,48]],[[9755,3437],[-17,171],[-44,57],[-14,46],[-10,-56],[13,-94],[-40,-151],[-11,91],[7,27],[-27,228],[23,88],[-12,115],[-60,-171],[-29,-23],[-7,180],[20,13],[-8,187],[-26,-14],[-3,102],[18,11],[1,76],[13,65],[0,89],[-9,63],[-19,-7],[-3,108],[40,36],[2,-133],[7,-51],[39,-133],[43,-72],[76,-100],[25,-74],[12,-101],[23,-125],[35,-104],[16,-25]]]}
