{"type":"Topology","bbox":[-75.95972423316636,6.2972952843795085,-75.84900632802521,6.369937151372638],"transform":{"scale":[0.000011072897803894744,0.000007264913190632032],"translate":[-75.95972423316636,6.2972952843795085]},"objects":{"municipios":{"type":"GeometryCollection","geometries":[{"type":"Polygon","arcs":[[0]]},{"type":"Polygon","arcs":[[1]]},{"type":"Polygon","arcs":[[2,3]]},{"type":"Polygon","arcs":[[-4,4]]},{"type":"Polygon","arcs":[[5]]}]}},"arcs":[[[9827,9242],[-4,-51],[-96,9],[13,86],[11,105],[5,81],[-8,63],[-32,90],[-19,71],[-1,40],[7,38],[25,50],[27,27],[62,38],[52,38],[29,28],[33,44],[68,-96],[-40,-58],[-77,-180],[-42,-277],[-13,-146]],[[209,755],[25,-16],[1,-31],[34,-3],[4,22],[18,2],[23,-15],[22,3],[29,-33],[22,15],[9,-65],[24,-11],[-5,-65],[17,-63],[-21,-8],[-47,62],[-1,38],[-79,36],[-17,-19],[-44,25],[-30,9],[-23,22],[-29,-25],[-19,2],[-7,21],[-14,-11],[-6,20],[-42,-61],[-6,-37],[-17,4],[-3,-26],[-27,7],[10,35],[-3,21],[13,13],[0,28],[24,33],[0,34],[16,-24],[29,37],[23,14],[10,-10],[17,22],[5,-17],[25,16],[19,-34],[21,33]],[[9734,821],[9,-2],[-8,-77],[-27,-4],[1,-48],[30,-47],[25,-20],[-1,-30],[-28,13],[-37,6],[18,-52],[-6,-13],[-27,-8],[-8,8],[-43,-3],[-31,82],[-12,-37],[38,-75],[1,-25],[-17,-36],[-61,-44],[-2,-33],[16,-60],[18,-26],[-2,-47],[-43,-27],[-26,-25],[-13,-28],[-6,-46],[-18,-50],[15,-9],[36,21],[3,-11],[-39,-24],[-11,-33],[-23,-10],[10,61],[20,52],[2,47],[18,44],[28,17],[39,38],[0,25],[-14,29],[-18,74],[-14,20],[-35,-9],[-5,68],[-12,35],[-29,-17],[-48,-52],[-51,-20],[-19,176],[48,22],[5,60],[-41,1],[-6,56],[-35,51],[-17,37],[-35,32],[-17,25],[-7,-11],[-42,-20],[5,42],[44,34],[30,31],[14,-2]],[[9273,947],[35,14],[20,-11],[27,-93],[72,-18],[8,-11],[84,-14],[2,13],[66,-18],[121,-28],[3,38],[23,2]],[[9273,947],[0,8],[49,24],[12,-25],[33,-25],[44,-2],[33,37],[11,20],[28,24],[21,42],[35,19],[34,37],[21,-6],[15,11],[17,-36],[12,10],[12,49],[26,39],[20,-31],[-32,-52],[-14,-41],[-11,-77],[3,-57],[14,-18],[46,-16],[13,13],[-5,-42],[24,-31]],[[4262,4265],[45,-50],[8,13],[26,-11],[28,-63],[12,12],[14,-63],[-16,-16],[19,-20],[36,-110],[17,-25],[-9,-22],[22,-41],[9,-33],[9,7],[9,-39],[-9,-24],[-20,43],[-5,32],[-30,18],[4,23],[-22,54],[-11,54],[-7,-5],[-25,82],[-26,59],[-29,46],[-12,-15],[-10,16],[-30,-44],[-19,62],[10,15],[-10,38],[-11,-10],[-24,37],[6,23],[29,-14],[22,-29]]]}