{"type":"Topology","bbox":[-75.955640453596,6.6754946684179135,-75.94716415133104,6.695989841382157],"transform":{"scale":[8.477149979964759e-7,0.0000020497222686511955],"translate":[-75.955640453596,6.6754946684179135]},"objects":{"municipios":{"type":"GeometryCollection","geometries":[{"type":"Polygon","arcs":[[0]]},{"type":"Polygon","arcs":[[1]]}]}},"arcs":[[[6138,5835],[-189,-432],[-1124,-844],[634,-41],[141,-466],[691,-155],[55,-194],[-361,-439],[257,-186],[102,-582],[-678,-129],[-62,-337],[-513,-221],[-31,-259],[627,75],[293,-188],[393,-25],[-15,-200],[679,-53],[-209,-151],[1291,49],[336,-60],[-217,-173],[106,-426],[-383,-285],[-454,2],[-686,-100],[-373,112],[-754,-76],[-562,0],[-1259,179],[-178,-93],[-805,459],[-499,479],[-526,327],[-605,531],[35,622],[158,167],[-220,614],[-1100,166],[-49,122],[1077,240],[-166,269],[398,96],[637,458],[619,364],[467,139],[1052,151],[835,69],[477,119],[440,305],[218,1]],[[7844,9873],[837,-401],[1318,-38],[-370,-533],[-680,-135],[-308,2],[-458,195],[-464,-39],[-190,-249],[-706,8],[-88,188],[-519,106],[-449,225],[139,-423],[-334,-1],[-34,358],[256,89],[311,-106],[442,190],[496,43],[186,382],[412,176],[203,-37]]]}