{"type":"Topology","bbox":[-75.84303923614738,5.951336875703759,-75.69571104722996,5.976050591807845],"transform":{"scale":[0.000014734292320973415,0.0000024716187722858746],"translate":[-75.84303923614738,5.951336875703759]},"objects":{"municipios":{"type":"GeometryCollection","geometries":[{"type":"Polygon","arcs":[[0,1,2,3]],"properties":{"codigo":"05861200101002000101","sector":"058612001010020001","pcode":"CO05861","area_m2":61731}},{"type":"Polygon","arcs":[[-3,4]],"properties":{"codigo":"05861200101002000102","sector":"058612001010020001","pcode":"CO05861","area_m2":311601}},{"type":"Polygon","arcs":[[5,6,7]],"properties":{"codigo":"05861100000000000103","sector":"058611000000000001","pcode":"CO05861","area_m2":360064}},{"type":"Polygon","arcs":[[8,9,10]],"properties":{"codigo":"05861100000000000101","sector":"058611000000000001","pcode":"CO05861","area_m2":413836}},{"type":"Polygon","arcs":[[11,-10,12,-7]],"properties":{"codigo":"05861100000000000102","sector":"058611000000000001","pcode":"CO05861","area_m2":142897}},{"type":"Polygon","arcs":[[13]],"properties":{"codigo":"05861200204008000101","sector":"058612002040080001","pcode":"CO05861","area_m2":82302}},{"type":"Polygon","arcs":[[-8,-13,-9,14]],"properties":{"codigo":"05861100000000000104","sector":"058611000000000001","pcode":"CO05861","area_m2":369817}},{"type":"Polygon","arcs":[[-1,15]],"properties":{"codigo":"05861200101002000103","sector":"058612001010020001","pcode":"CO05861","area_m2":18698}},{"type":"Polygon","arcs":[[16]],"properties":{"codigo":"05861200104006000101","sector":"058612001040060001","pcode":"CO05861","area_m2":118923}}]}},"arcs":[[[492,8198],[-37,-361],[44,-167],[-16,-167]],[[483,7503],[6,-89],[-37,103],[-31,-95],[23,-53],[-11,-171]],[[433,7198],[-78,161],[11,216],[-16,70],[-18,-187],[-12,49],[37,340],[16,283],[66,690],[33,318]],[[472,9138],[18,-61],[-13,-169],[-44,-359],[28,-126],[-11,-90],[42,-135]],[[433,7198],[46,32],[1,-197],[11,-61],[35,14],[-80,-122],[-6,-448],[-67,373],[16,120],[41,123],[34,-156],[13,151],[0,173],[-11,42],[-55,-140],[-51,90],[-32,-235],[-17,227],[-35,-224],[-2,-155],[-24,-203],[-13,-20],[-43,-486],[-16,-58],[11,-77],[-4,-153],[-21,-282],[-17,-39],[-11,-339],[-60,-262],[-1,-244],[-31,-96],[-14,167],[0,235],[-30,140],[126,1706],[73,936],[72,872],[87,1096],[42,-112],[41,-318],[31,-130]],[[7629,3489],[64,58],[75,-196],[11,-190],[-53,40],[-75,-108],[-44,114],[-37,-280],[15,-114],[27,-730],[-12,-142],[23,-95],[-2,-184],[32,-186],[-53,20],[-46,108],[-33,-24],[-36,206],[-23,-236],[32,-302],[18,-12],[-11,-166],[-28,99],[4,109],[-33,249],[-11,253],[-68,243],[-22,126],[0,153],[-25,208],[-7,276],[-26,289],[-59,408],[-38,494]],[[7188,3977],[14,39],[56,-110],[63,209],[-3,175],[21,31],[14,-107],[113,342]],[[7466,4556],[89,-1043],[18,-155],[31,-135],[25,266]],[[7132,8098],[8,-390],[39,-420],[21,-103],[13,-355],[33,-357],[6,-190],[22,-350],[93,277],[47,-551]],[[7414,5659],[-126,-374],[-68,-222],[35,-409],[-65,-40],[-47,-65],[-14,-88]],[[7129,4461],[-62,542],[-68,530],[0,226],[-21,385],[6,282],[-22,288],[-46,470],[-6,169],[-45,610],[39,-63],[26,82],[29,-67],[84,145],[24,-167],[4,242],[61,-37]],[[7188,3977],[-29,252],[-21,75],[-9,157]],[[7414,5659],[33,-405],[15,-23],[8,-299],[-4,-376]],[[7735,910],[54,-60],[20,56],[27,-178],[19,-26],[62,-296],[-34,-101],[-10,118],[-40,75],[-53,296],[-13,-48],[48,-303],[9,-336],[-9,-107],[-39,113],[-33,179],[-27,-30],[-85,64],[35,152],[23,220],[-21,37],[-37,-250],[-26,-42],[-17,130],[5,232],[90,553],[31,21],[22,-138],[-10,-155],[9,-176]],[[7132,8098],[-2,414],[-21,533],[30,127],[22,-78],[52,-93],[29,98],[49,10],[12,43],[25,-229],[-18,-149],[-3,-456],[11,-355],[14,-118],[31,-64],[31,-219],[32,-125],[19,56],[27,-84],[8,-151],[-15,-333],[2,-113],[-18,-91],[-24,-406],[24,-222],[-1,-111],[32,-276],[47,-181],[22,17],[28,-161],[-37,-231],[-24,-98],[11,-116],[-26,-88],[-20,-192],[24,-98],[20,-317],[20,-14],[30,-270],[31,-51],[-6,-114],[40,-143],[-11,-160]],[[492,8198],[25,207],[37,-119],[14,-103],[-14,-150],[-11,37],[-40,-347],[12,-61],[-18,-166],[-14,7]],[[9660,9626],[8,-98],[14,93],[56,-164],[15,-140],[15,-276],[57,-371],[10,-131],[42,-191],[106,-263],[16,-114],[-30,-61],[-30,-136],[-27,85],[-8,303],[-48,146],[-8,-92],[7,-294],[-32,72],[-44,-23],[-20,104],[-51,-175],[-16,166],[-29,175],[40,303],[-21,110],[18,109],[-9,82],[-31,30],[-46,141],[23,194],[-6,204],[-41,488],[23,97],[10,-321],[37,-52]]]}
