{"type":"Topology","bbox":[-75.91485870562468,7.015716720375693,-75.904213781399,7.068012571691603],"transform":{"scale":[0.0000010645988824569649,0.00000523010814240526],"translate":[-75.91485870562468,7.015716720375693]},"objects":{"municipios":{"type":"GeometryCollection","geometries":[{"type":"Polygon","arcs":[[0,1]],"properties":{"codigo":"05543100000000000101","sector":"055431000000000001","pcode":"CO05543","area_m2":128401}},{"type":"MultiPolygon","arcs":[[[-1,2]],[[3]]],"properties":{"codigo":"05543100000000000102","sector":"055431000000000001","pcode":"CO05543","area_m2":386392}},{"type":"Polygon","arcs":[[4]],"properties":{"codigo":"05543200201003000101","sector":"055432002010030001","pcode":"CO05543","area_m2":128666}}]}},"arcs":[[[6237,927],[-83,67],[-295,3],[-749,66],[-798,62],[209,103],[630,-57],[384,188],[-226,74],[-431,32],[-467,59],[-199,61],[-159,23]],[[4053,1608],[573,110],[-28,19],[469,136],[281,-39],[159,8],[301,-46],[129,-37],[167,-12],[385,1],[765,-103],[254,-118],[135,-93],[139,17],[199,98],[14,44],[-94,116],[74,-19],[136,-102],[-22,-49],[-232,-114],[-109,-29],[-170,32],[-127,-13],[69,-107],[-80,-81],[-587,-41],[-7,-63],[-442,-115],[-23,-77],[-144,-4]],[[6237,927],[43,-57],[-134,0],[-198,-62],[114,-120],[-96,-7],[266,-157],[172,-51],[-269,-17],[-29,-34],[-322,-78],[-380,-6],[-387,-87],[-71,-74],[15,-66],[-110,-2],[-754,-107],[-306,8],[-142,48],[-527,79],[-389,19],[-120,31],[-112,91],[-237,50],[-84,125],[-117,60],[200,55],[-57,39],[-295,32],[-238,70],[-15,42],[214,16],[-14,74],[-92,54],[-439,98],[-294,30],[-530,12],[-119,33],[353,125],[278,36],[356,66],[612,16],[530,1],[-6,25],[-198,-1],[-4,41],[192,3],[155,36],[67,44],[188,42],[-163,73],[201,47],[47,44],[-298,50],[-451,-2],[-317,51],[-55,38],[-293,-39],[-253,70],[192,10],[419,49],[107,-16],[1001,-46],[4,-70],[284,3],[16,-68],[341,-69],[364,-19]],[[894,1810],[-352,-61],[-509,-40],[-33,13],[740,80],[154,8]],[[9256,9979],[644,-145],[99,-173],[-154,15],[-203,-499],[-37,-55],[-1073,24],[4,-21],[-488,7],[-42,65],[-607,14],[-221,-94],[-130,88],[-267,-20],[-114,55],[69,39],[28,111],[-177,125],[776,3],[32,87],[274,12],[624,-129],[0,23],[-562,156],[-93,204],[600,-61],[51,-23],[539,159],[124,-26],[222,79],[82,-20]]]}
