{"type":"Topology","bbox":[-75.7414828273935,5.82896423405392,-75.6509936142674,5.969937152575731],"transform":{"scale":[0.000009049826295238606,0.00001409870172235335],"translate":[-75.7414828273935,5.82896423405392]},"objects":{"municipios":{"type":"GeometryCollection","geometries":[{"type":"Polygon","arcs":[[0,1,2]],"properties":{"codigo":"05282100000000000103","sector":"052821000000000001","pcode":"CO05282","area_m2":99447}},{"type":"Polygon","arcs":[[3,-1,4,5]],"properties":{"codigo":"05282100000000000105","sector":"052821000000000001","pcode":"CO05282","area_m2":516280}},{"type":"Polygon","arcs":[[6]],"properties":{"codigo":"05282200102002000101","sector":"052822001020020001","pcode":"CO05282","area_m2":95713}},{"type":"Polygon","arcs":[[7]],"properties":{"codigo":"05282200204004000101","sector":"052822002040040001","pcode":"CO05282","area_m2":110591}},{"type":"Polygon","arcs":[[8,9,-5]],"properties":{"codigo":"05282100000000000101","sector":"052821000000000001","pcode":"CO05282","area_m2":669947}},{"type":"Polygon","arcs":[[10,11,-9,-3]],"properties":{"codigo":"05282100000000000102","sector":"052821000000000001","pcode":"CO05282","area_m2":672273}},{"type":"Polygon","arcs":[[-11,-2,-4,12]],"properties":{"codigo":"05282100000000000104","sector":"052821000000000001","pcode":"CO05282","area_m2":201860}},{"type":"Polygon","arcs":[[13]],"properties":{"codigo":"05282200201003000101","sector":"052822002010030001","pcode":"CO05282","area_m2":73491}},{"type":"MultiPolygon","arcs":[[[14]],[[15]]],"properties":{"codigo":"05282200204005000101","sector":"052822002040050001","pcode":"CO05282","area_m2":59044}},{"type":"Polygon","arcs":[[16]],"properties":{"codigo":"05282200302008000101","sector":"052822003020080001","pcode":"CO05282","area_m2":110311}}]}},"arcs":[[[7598,7008],[134,55],[44,-39]],[[7776,7024],[87,-83],[125,-108],[42,-44],[5,-40],[52,-28]],[[8087,6721],[-132,-50],[-192,190],[-109,101],[-56,46]],[[7810,7180],[-56,-73],[64,-47],[-42,-36]],[[7598,7008],[-46,42],[-49,17],[-44,35],[51,21],[-120,79],[-43,53],[-62,42],[-53,13],[-75,34],[-41,4],[-49,24],[-39,8],[-67,-3],[-256,30],[-59,-2],[-108,22],[-74,-5],[-87,20],[-104,14],[-94,33],[-35,1],[-108,-16],[-93,-22],[5,-24]],[[5948,7428],[-31,10],[-28,31],[12,46],[-11,38],[48,14],[-3,18],[34,-2],[22,57],[31,24],[115,55],[16,-16],[62,15],[52,-1],[105,-25],[-60,-52],[15,-41],[-64,-47],[58,-35],[16,6],[30,-26],[56,-18],[64,-8],[5,11],[65,-18],[28,22],[8,27],[63,14],[26,35],[-47,19],[37,19],[42,-1],[42,-39],[93,-30],[-68,-71],[82,-12],[82,-32],[55,-3],[15,-12],[67,-7],[34,19],[14,39],[-22,28],[30,34],[-10,43],[-22,28],[35,19],[0,22],[86,1],[-12,39],[-104,-1],[-48,20],[60,100],[61,77],[55,-21],[25,19],[58,-1],[78,-31],[-25,-47],[-35,-2],[6,-51],[20,-26],[-58,-70],[25,-12],[-28,-12],[-3,-31],[88,-30],[-48,-52],[-6,-38],[114,-8],[-49,-25],[-17,-27],[-30,-10],[-40,-39],[41,-18],[119,-70],[34,-13],[13,-38],[67,-30],[42,27],[25,-58],[30,-7],[40,11],[31,49],[44,4],[10,-24]],[[7121,9980],[14,-25],[116,-58],[18,-28],[-58,-34],[-3,-18],[39,-8],[-39,-72],[-35,0],[-10,-53],[-44,-10],[-56,-35],[-12,111],[-26,45],[-41,0],[18,71],[-7,26],[-35,-9],[0,29],[-30,5],[40,57],[63,-9],[23,13],[65,2]],[[3447,273],[64,-25],[20,17],[200,-79],[7,20],[53,-20],[92,-8],[-8,-43],[-40,0],[0,-14],[142,-26],[-5,-12],[98,-18],[133,-16],[6,-49],[-62,6],[-259,43],[-172,15],[-151,4],[20,64],[-39,9],[12,12],[-30,25],[-111,41],[30,54]],[[7598,7008],[-61,-26],[50,-42],[-69,-8],[-22,-24],[-41,13],[23,-26],[-1,-25],[-113,42],[35,-50],[-36,13],[-37,-23]],[[7326,6852],[-34,24],[-98,8],[-13,13],[42,76],[-83,36],[-95,52],[-97,2],[-53,17],[-64,7],[-20,48],[-39,34],[-68,15],[-105,-6],[-62,16],[-39,35],[-49,18],[-217,-1],[-83,-35],[-96,48],[-80,10],[-33,56],[-30,31],[54,45],[-16,27]],[[8087,6721],[45,-39],[106,-103],[25,-52],[54,-48]],[[8317,6479],[67,-33],[49,-55],[71,-136],[-27,-18],[-148,-51],[-13,17],[-136,-41],[-47,68],[-2,36],[-31,40],[-37,-29],[10,-31],[-69,4],[-29,26],[12,34],[-14,42],[-83,20],[-104,-4],[-46,26],[-67,9],[-70,62],[-23,84],[-19,14],[-88,17],[-47,28],[-24,44],[-107,43],[49,74],[-60,22],[35,32],[7,29]],[[7810,7180],[161,-85],[19,-38],[47,-36],[49,-52],[72,-10],[44,-53],[-8,-39],[-46,-19],[-33,8],[-1,-85],[63,-14],[62,-49],[104,-4],[35,-18],[58,-80],[14,-32],[-12,-23],[-116,-36],[-5,-36]],[[43,7049],[28,-32],[68,-13],[11,-19],[51,-1],[93,-31],[-6,-18],[77,3],[31,-7],[74,10],[21,-9],[68,8],[39,-8],[-5,25],[63,-6],[47,14],[18,-10],[-23,-27],[-93,-7],[-31,-14],[17,-28],[-47,-7],[-15,12],[-71,-20],[-27,26],[-56,5],[-26,14],[4,-43],[-19,-16],[-62,-21],[-30,36],[-21,1],[-41,-32],[-30,1],[-9,44],[54,19],[76,14],[-87,35],[-130,-7],[-54,39],[21,32],[-2,30],[24,8]],[[5903,2537],[35,-28],[70,-35],[-8,-30],[41,-47],[-8,-31],[22,-20],[-41,6],[-9,-28],[-63,3],[-81,-8],[-4,-23],[59,-24],[-108,12],[10,44],[37,35],[27,2],[-3,28],[-28,11],[-10,35],[11,29],[27,17],[-67,31],[60,5],[4,21],[27,-5]],[[6101,2445],[-47,-8],[3,23],[-38,48],[14,15],[33,-16],[35,-62]],[[9296,4548],[77,-1],[9,-94],[95,-42],[-4,-27],[63,-15],[-7,-80],[79,-12],[49,-16],[100,-1],[58,-14],[-10,-23],[34,-50],[49,-12],[19,19],[88,-40],[-18,-22],[-64,27],[-34,-20],[-39,16],[-40,66],[-28,3],[-36,-23],[-23,2],[-34,47],[-64,10],[-73,25],[-95,-8],[-54,50],[-5,-10],[-69,21],[-13,17],[-104,65],[-31,3],[8,24],[46,13],[-35,33],[42,23],[1,42],[63,4]]]}
