{"type":"Topology","bbox":[-75.82688073038497,6.8050326674543875,-75.74573506007846,6.934241549559665],"transform":{"scale":[0.000008115378568508038,0.00001292218042857065],"translate":[-75.82688073038497,6.8050326674543875]},"objects":{"municipios":{"type":"GeometryCollection","geometries":[{"type":"Polygon","arcs":[[0]],"properties":{"codigo":"05628200105002000101","sector":"056282001050020001","pcode":"CO05628","area_m2":55257}},{"type":"Polygon","arcs":[[1]],"properties":{"codigo":"05628200201004000101","sector":"056282002010040001","pcode":"CO05628","area_m2":19815}},{"type":"Polygon","arcs":[[2,3]],"properties":{"codigo":"05628100000000000101","sector":"056281000000000001","pcode":"CO05628","area_m2":346287}},{"type":"Polygon","arcs":[[4,-3]],"properties":{"codigo":"05628100000000000102","sector":"056281000000000001","pcode":"CO05628","area_m2":240782}},{"type":"Polygon","arcs":[[5]],"properties":{"codigo":"05628200206001000101","sector":"056282002060010001","pcode":"CO05628","area_m2":65493}},{"type":"Polygon","arcs":[[6]],"properties":{"codigo":"05628200103007000101","sector":"056282001030070001","pcode":"CO05628","area_m2":15729}}]}},"arcs":[[[8868,9692],[-16,0],[17,-40],[-39,-3],[-13,10],[-43,6],[-3,18],[-43,-2],[32,30],[-2,28],[-24,23],[-12,45],[12,5],[-27,11],[-4,28],[59,35],[38,27],[24,4],[16,25],[37,13],[12,18],[50,26],[40,-4],[-29,-34],[19,-4],[-43,-78],[-43,-51],[-26,-42],[-3,-49],[14,-45]],[[9963,7881],[36,-6],[-19,-15],[14,-10],[-34,-44],[0,-22],[-33,-19],[-21,-32],[3,-12],[-21,-24],[31,-28],[-22,-12],[12,-10],[-15,-7],[14,-10],[-26,-12],[-2,25],[-18,-11],[-40,27],[38,24],[4,21],[-12,27],[7,39],[14,9],[10,26],[17,0],[-2,18],[21,19],[28,43],[16,-4]],[[1425,3326],[-51,-10],[-46,8],[1,65],[-8,83],[-62,1],[2,-23],[-52,-4],[-56,-20],[-82,-23],[-26,6],[-64,-28]],[[981,3381],[-27,51],[7,38],[-28,22],[-9,20],[41,23],[15,38],[-18,34],[-21,66],[11,27],[45,20],[15,63],[11,28],[-18,33],[5,8],[80,68],[31,82],[-16,14],[11,30],[63,32],[22,36],[42,-7],[32,2],[37,-5],[-20,-28],[12,-16],[80,-31],[-2,-16],[-25,-14],[15,-21],[-12,-26],[36,-68],[-17,-49],[-29,-23],[6,-52],[-17,-19],[28,-22],[-4,-26],[10,-30],[68,-45],[-3,-16],[41,0],[33,-42],[-16,-22],[8,-14],[-15,-20],[8,-15],[-14,-47],[26,-4],[-41,-27],[-28,-49],[21,-35],[-9,-7],[-27,6]],[[1425,3326],[2,-50],[40,-30],[35,-16],[34,-41],[30,5],[35,-14],[36,-28],[65,-6],[41,-12],[-12,-17],[7,-27],[-9,-8],[-63,13],[-20,14],[-31,0],[-12,-11],[-11,-34],[-88,-73],[-29,-7],[44,-40],[47,-9],[12,-19],[-35,-2],[-74,15],[-66,-9],[-64,14],[-39,26],[-17,17],[-68,44],[-1,29],[-29,33],[-26,20],[-9,19],[3,51],[8,25],[-34,32],[-62,28],[-35,26],[-32,55],[-4,27],[-13,15]],[[448,252],[-45,-21],[14,-9],[-47,-20],[40,-14],[-17,-41],[26,2],[58,-39],[-56,-33],[9,-8],[-22,-14],[-37,24],[13,20],[-18,22],[-44,22],[-14,-13],[-24,5],[-4,-56],[16,-37],[24,-29],[-50,-5],[-3,14],[-21,-5],[-12,-17],[-44,54],[-17,15],[0,33],[-27,4],[-27,44],[-34,6],[7,-16],[-1,-41],[23,2],[30,-28],[-35,-22],[13,-11],[-27,-16],[4,-17],[-16,-6],[-24,23],[2,28],[-33,8],[-28,18],[14,8],[14,30],[18,16],[-22,2],[22,22],[-36,10],[-2,16],[26,23],[18,1],[37,-17],[75,-22],[11,15],[36,-11],[32,10],[68,-16],[16,27],[-19,16],[71,41],[10,-4],[33,17],[26,-10]],[[2564,7085],[10,-25],[-23,-15],[21,-25],[-19,-15],[2,-27],[12,-28],[24,2],[69,-56],[-18,-12],[-25,7],[-56,2],[-2,17],[-36,24],[2,22],[-20,20],[16,7],[-8,39],[-15,6],[-2,19],[16,15],[-9,19],[54,9],[7,-5]]]}
