{"type":"Topology","bbox":[-75.14805477922812,5.728021778475168,-75.13542813397385,5.73685251760587],"transform":{"scale":[0.000001262790804507677,8.831622292931385e-7],"translate":[-75.14805477922812,5.728021778475168]},"objects":{"municipios":{"type":"GeometryCollection","geometries":[{"type":"Polygon","arcs":[[0,1,2,3,4,5,6]],"properties":{"codigo":"05055100000000000102","sector":"050551000000000001","pcode":"CO05055","area_m2":73208}},{"type":"Polygon","arcs":[[7,-1,8]],"properties":{"codigo":"05055100000000000103","sector":"050551000000000001","pcode":"CO05055","area_m2":355288}},{"type":"Polygon","arcs":[[-6,9,-4,10,-2,-8,11]],"properties":{"codigo":"05055100000000000101","sector":"050551000000000001","pcode":"CO05055","area_m2":134685}}]}},"arcs":[[[5248,5488],[-132,-1718],[-92,-902],[-636,131],[-95,-914]],[[4293,2085],[-613,145]],[[3680,2230],[-233,57]],[[3447,2287],[-117,21]],[[3330,2308],[-171,26]],[[3159,2334],[-85,20],[176,1812],[616,-151],[189,1923],[14,577],[49,111]],[[4118,6626],[62,74],[494,30],[10,-415],[-208,-3],[-87,-173],[52,-382],[178,-375],[629,106]],[[4187,1055],[106,1030]],[[5248,5488],[540,157],[199,-113],[154,-3],[28,321],[323,105],[97,-119],[174,135],[-84,527],[-106,53],[221,432],[170,51],[80,267],[-105,108],[295,119],[-6,158],[132,24],[16,897],[98,106],[598,-656],[267,448],[201,-248],[122,447],[132,47],[187,437],[582,792],[94,19],[127,-339],[-75,-262],[32,-274],[205,142],[53,-160],[-152,-182],[-199,-89],[-214,-248],[-136,-396],[-20,-363],[49,-379],[-244,50],[-194,196],[-154,-334],[-97,-62],[-116,107],[-199,-162],[-282,-3],[-43,-90],[69,-645],[-101,-282],[-33,-349],[168,-249],[38,-193],[261,-125],[607,-710],[-114,-384],[-30,-366],[71,-391],[-3,-249],[-106,-611],[-267,-861],[-59,-443],[-113,-318],[-720,-807],[-94,-151],[-286,185],[-24,270],[-144,221],[-180,-171],[-185,-74],[-420,-267],[-195,-181],[-268,398],[-345,120],[-259,-40],[-447,147],[-80,-266],[-86,-4],[28,-226],[-223,232],[-142,72],[-129,622]],[[3159,2334],[171,-26]],[[3447,2287],[233,-57]],[[4187,1055],[-195,30],[42,311],[-125,334],[-216,-3],[-183,-373],[-109,142],[-278,63],[-44,-131],[-287,228],[-370,410],[-161,419],[-29,377],[-89,173],[-94,-181],[-271,307],[-77,-171],[-307,-150],[-454,439],[-154,500],[-4,158],[-181,107],[-3,180],[-254,54],[3,327],[-96,181],[-251,103],[42,207],[217,-108],[215,243],[296,110],[342,20],[221,-74],[132,-175],[108,-7],[290,165],[418,52],[171,118],[335,73],[213,-70],[42,295],[-215,153],[40,135],[192,-97],[128,26],[118,232],[266,-39],[234,175],[119,217],[194,86]]]}
