{"type":"Topology","bbox":[-74.76717990290547,6.046919411189249,-74.55812880520898,6.239559138841266],"transform":{"scale":[0.00002090720048969776,0.000019265899355137268],"translate":[-74.76717990290547,6.046919411189249]},"objects":{"municipios":{"type":"GeometryCollection","geometries":[{"type":"Polygon","arcs":[[0,1,2,3]],"properties":{"codigo":"05585100000000000102","sector":"055851000000000001","pcode":"CO05585","area_m2":195410}},{"type":"Polygon","arcs":[[4,5,6,-2]],"properties":{"codigo":"05585100000000000101","sector":"055851000000000001","pcode":"CO05585","area_m2":65585}},{"type":"Polygon","arcs":[[-7,7,8,-3]],"properties":{"codigo":"05585100000000000104","sector":"055851000000000001","pcode":"CO05585","area_m2":96599}},{"type":"Polygon","arcs":[[-6,9,10,-8]],"properties":{"codigo":"05585100000000000105","sector":"055851000000000001","pcode":"CO05585","area_m2":221403}},{"type":"Polygon","arcs":[[11]],"properties":{"codigo":"05585200106001000101","sector":"055852001060010001","pcode":"CO05585","area_m2":21972}},{"type":"Polygon","arcs":[[12]],"properties":{"codigo":"05585200202006000101","sector":"055852002020060001","pcode":"CO05585","area_m2":202061}},{"type":"MultiPolygon","arcs":[[[13]],[[14]],[[15]],[[16]]],"properties":{"codigo":"05585200102009000101","sector":"055852001020090001","pcode":"CO05585","area_m2":12826}},{"type":"Polygon","arcs":[[-10,-5,-1,17]],"properties":{"codigo":"05585100000000000103","sector":"055851000000000001","pcode":"CO05585","area_m2":295094}},{"type":"Polygon","arcs":[[18]],"properties":{"codigo":"05585200304002000101","sector":"055852003040020001","pcode":"CO05585","area_m2":25890}},{"type":"Polygon","arcs":[[19,20]],"properties":{"codigo":"05585200201003000104","sector":"055852002010030001","pcode":"CO05585","area_m2":73199}},{"type":"Polygon","arcs":[[21,-21,22,23,24]],"properties":{"codigo":"05585200201003000101","sector":"055852002010030001","pcode":"CO05585","area_m2":198496}},{"type":"Polygon","arcs":[[25,-25,26]],"properties":{"codigo":"05585200201003000102","sector":"055852002010030001","pcode":"CO05585","area_m2":670295}},{"type":"Polygon","arcs":[[-27,-24,27]],"properties":{"codigo":"05585200201003000103","sector":"055852002010030001","pcode":"CO05585","area_m2":710288}},{"type":"Polygon","arcs":[[28]],"properties":{"codigo":"05585200102004000101","sector":"055852001020040001","pcode":"CO05585","area_m2":45945}},{"type":"Polygon","arcs":[[29]],"properties":{"codigo":"05585200407008000101","sector":"055852004070080001","pcode":"CO05585","area_m2":5174}}]}},"arcs":[[[9009,7341],[-138,26],[-7,-55]],[[8864,7312],[-59,9]],[[8805,7321],[12,80],[11,64],[-11,7]],[[8817,7472],[15,4],[-6,30],[-19,26],[8,5],[46,-1],[24,3],[128,6],[8,-39],[6,-62],[-18,-103]],[[8864,7312],[22,-3],[-12,-106],[-17,-52],[-22,-30],[-30,-12]],[[8805,7109],[14,100],[-29,4]],[[8790,7213],[15,108]],[[8790,7213],[-107,17],[-54,-6]],[[8629,7224],[-9,46],[65,2],[7,40],[45,-9],[15,111],[56,-10],[9,68]],[[8805,7109],[-49,-49],[-12,12],[-65,-80]],[[8679,6992],[-27,33],[-32,60],[-49,4],[-43,-7],[-11,14],[6,29],[-14,56],[79,31],[41,12]],[[44,5582],[15,-16],[-6,-9],[11,-12],[-5,-26],[-44,7],[-2,10],[13,37],[-5,22],[-21,3],[10,60],[16,9],[18,-85]],[[8552,8366],[12,-109],[-90,-68],[-31,-20],[-35,-13],[-35,-7],[-60,-3],[-18,4],[10,88],[17,-4],[-8,26],[7,25],[-21,9],[10,44],[20,1],[78,-7],[25,7],[25,-3],[68,7],[-1,21],[27,2]],[[2988,8383],[8,-24],[28,-43],[-12,-13],[-4,18],[-33,59],[-35,-3],[-20,-7],[-11,-22],[3,22],[10,10],[50,10],[16,-7]],[[2872,8343],[3,-9],[-37,7],[-17,25],[9,12],[4,-24],[38,-11]],[[2861,8298],[-6,26],[10,-1],[-4,-25]],[[2828,8407],[-7,-3],[-15,20],[11,1],[11,-18]],[[9009,7341],[-62,-176],[-43,-151],[-41,-115],[-129,42],[-57,10],[-12,10],[14,31]],[[552,1795],[10,7],[13,-12],[19,-34],[27,-21],[22,-42],[-22,-3],[-14,24],[-28,21],[-12,-13],[-8,6],[-9,41],[-66,36],[7,12],[61,-22]],[[9154,9162],[26,7],[22,14],[31,0],[56,24],[17,-1],[48,-16],[49,10],[23,22],[-24,6],[-36,21],[-4,18],[31,38],[-10,7],[-9,33],[-15,-12],[-17,-28],[-30,-15],[-23,15],[5,27],[33,22],[38,40],[17,13],[19,-12]],[[9401,9395],[6,-57],[-4,-24],[21,-14],[16,-43],[18,-18],[-39,-42],[-23,-12],[-30,-6],[-68,18],[-14,0],[-33,-19],[-64,-15],[-33,-1]],[[8709,8894],[-7,9],[165,14],[0,5],[62,7],[10,6],[41,-5],[33,4],[13,19],[35,0],[31,21],[14,25],[24,-7],[14,-14],[36,0],[50,6],[11,20],[15,-7],[41,29],[7,18],[-12,5],[19,50],[24,-8],[16,3],[38,34],[21,38],[-10,10],[-49,-7],[-57,17],[-19,-2],[-20,-12],[1,-19],[-21,-4],[-3,10],[-37,-4],[-41,-9],[0,16]],[[9401,9395],[12,-1],[-1,19],[12,-16],[53,6],[6,-43],[43,-9],[3,8],[35,-1],[13,21],[33,69],[16,52],[32,67],[14,19],[13,37],[-1,31],[16,25],[1,30]],[[9701,9709],[3,-33],[-16,-73],[-45,-96],[-39,-89]],[[9604,9418],[-20,-44],[-26,-47],[-29,-42],[-42,-48],[-108,-134],[-41,-54],[-39,-35],[-33,-23],[-46,-25],[-42,-15],[-87,-13],[-69,-6],[-131,-17],[-182,-21]],[[9737,9409],[-45,-89],[-57,-60],[-86,-127],[-129,-226],[-93,-118],[-74,-38],[-52,2],[-156,85],[-49,32],[4,19],[-3,28],[-25,-2],[-11,8],[-5,-24],[-25,7],[-5,-9],[-26,9],[-190,-18],[-1,6]],[[9604,9418],[6,-10],[19,-1],[31,51],[77,-49]],[[9701,9709],[-7,52],[-21,96],[5,1],[-18,80],[258,51],[41,10],[33,-111],[6,-59],[1,-86],[-14,-77],[-22,-51],[-40,-34],[-91,-62],[-40,-40],[-44,-51],[-11,-19]],[[3196,7249],[-15,-2],[-20,-33],[15,-21],[-13,-8],[-22,-46],[39,-15],[-23,-62],[-25,-3],[11,34],[13,1],[0,28],[-11,6],[-13,-16],[-27,2],[0,19],[-29,17],[-55,-40],[-63,-21],[-22,9],[-1,21],[33,-15],[54,20],[-6,9],[45,27],[35,25],[22,-25],[12,4],[11,20],[10,-3],[-4,25],[-15,6],[8,21],[16,-10],[48,80],[3,-19],[-15,-20],[4,-15]],[[8757,0],[-13,1],[-6,15],[17,20],[20,-10],[1,-15],[-19,-11]]]}
