{"type":"Topology","bbox":[-75.47177848171174,6.355081147216772,-75.4233191682485,6.410949939929679],"transform":{"scale":[0.000004846415987922843,0.000005587438015092221],"translate":[-75.47177848171174,6.355081147216772]},"objects":{"municipios":{"type":"GeometryCollection","geometries":[{"type":"Polygon","arcs":[[0,1,2]]},{"type":"Polygon","arcs":[[3]]},{"type":"Polygon","arcs":[[4,5,6]]},{"type":"Polygon","arcs":[[7,8]]},{"type":"Polygon","arcs":[[9]]},{"type":"Polygon","arcs":[[-8,10]]},{"type":"Polygon","arcs":[[11,12,-6,13,14]]},{"type":"Polygon","arcs":[[15]]},{"type":"Polygon","arcs":[[16]]},{"type":"Polygon","arcs":[[17]]},{"type":"Polygon","arcs":[[18,19]]},{"type":"Polygon","arcs":[[20]]},{"type":"Polygon","arcs":[[21]]},{"type":"Polygon","arcs":[[22,-12,23,-2,24,25]]},{"type":"Polygon","arcs":[[26,27,28,-25,-1,29]]},{"type":"Polygon","arcs":[[-23,30,31,32,-19,33,-7,-13]]},{"type":"Polygon","arcs":[[-30,-3,-24,-15,34]]},{"type":"Polygon","arcs":[[35,36]]},{"type":"Polygon","arcs":[[37,38,-37,39,-28]]},{"type":"Polygon","arcs":[[40]]},{"type":"Polygon","arcs":[[41,-32,42]]},{"type":"Polygon","arcs":[[-31,-26,-29,-40,-36,-39,43,-43]]}]}},"arcs":[[[6256,4427],[-388,-118],[-223,-140],[-231,-165],[-144,-65]],[[5270,3939],[-85,89]],[[5185,4028],[271,191],[-14,39],[38,192],[62,102],[548,-59],[166,-66]],[[3438,6698],[-32,-81],[113,-99],[-71,-122],[55,-103],[65,-35],[92,-175],[-46,-19],[-35,79],[-140,-87],[-81,59],[-75,-27],[-92,15],[-121,108],[-127,-34],[114,104],[57,-22],[-52,229],[-97,88],[-17,84],[144,32],[158,-5],[148,95],[40,-84]],[[4075,3467],[-13,39],[34,146],[-13,109],[-50,79],[57,89],[29,107]],[[4119,4036],[81,67],[173,36],[6,-15]],[[4379,4124],[-108,-30],[107,-65],[164,-171],[-99,-67],[41,-55],[-409,-269]],[[7429,2441],[91,-15],[-1,-140],[-23,-92],[-59,-13],[22,-61],[-69,-34],[64,-31],[22,-77]],[[7476,1978],[36,-89],[-50,-93],[106,-24],[-32,-118],[-2,-90],[125,3],[4,-162],[55,-65],[-99,-43],[-75,43],[-22,-96],[-68,-14],[-42,177],[-31,21],[-127,172],[-81,35],[-41,93],[2,117],[-47,112],[41,54],[-209,89],[-97,96],[27,83],[-8,81],[99,36],[29,77],[-43,119],[112,42],[68,-43],[-6,-51],[117,-23],[26,-38],[186,-38]],[[4417,5],[-112,-5],[-48,27],[-12,115],[-116,-37],[-59,88],[-135,1],[-103,117],[-70,33],[-34,84],[19,143],[-111,-58],[-113,-33],[-157,43],[-150,-26],[-134,94],[-28,136],[-163,181],[129,92],[44,143],[182,60],[191,79],[110,60],[29,-56],[118,85],[41,6],[-20,-69],[87,-229],[100,-85],[10,-101],[-81,-32],[60,-80],[30,-88],[-52,-71],[39,-148],[46,3],[1,88],[117,0],[24,-77],[168,42],[22,113],[234,9],[94,41],[21,-234],[-22,-165],[-82,35],[-125,-14],[60,-101],[-5,-201],[-44,-8]],[[7429,2441],[-37,83],[-148,110],[-93,139],[-35,93],[28,115],[90,-6],[34,-47],[-11,-78],[142,-1],[118,38],[58,-127],[61,-13],[114,49],[72,-74],[-19,-73],[118,20],[82,41],[-41,-114],[79,-5],[-49,-119],[79,-7],[18,-35],[-111,-159],[-131,29],[-40,-18],[113,-168],[16,-71],[-66,-12],[-89,84],[-135,-45],[-170,-92]],[[4974,4255],[-430,-298]],[[4544,3957],[-165,167]],[[4119,4036],[39,153],[68,73],[1,111],[-118,74],[11,37]],[[4120,4484],[100,9],[28,59],[-28,82],[41,62],[142,40],[51,-6],[231,-165],[289,-310]],[[6464,8601],[74,31],[189,-263],[0,-77],[107,2],[72,-49],[-48,-112],[47,-71],[72,-30],[72,-82],[131,-42],[319,39],[55,-52],[81,-13],[119,-98],[-126,-96],[-280,-141],[-804,-442],[-115,-49],[-33,52],[-170,122],[-68,71],[-183,110],[-67,69],[-46,98],[-164,183],[-26,78],[48,41],[245,50],[-20,101],[-67,-5],[-51,38],[87,47],[-144,37],[-22,-37],[-75,-3],[-25,53],[75,30],[48,103],[230,-40],[63,55],[152,-8],[45,219],[-6,100],[70,-21],[103,51],[36,-49]],[[9093,9922],[53,-41],[29,-165],[167,-126],[53,-56],[55,1],[92,-67],[90,-157],[-110,-92],[-418,-376],[-176,-148],[-140,50],[-155,153],[-34,78],[-84,100],[-97,11],[74,71],[221,-7],[65,100],[-33,99],[-168,80],[40,45],[-7,59],[-104,154],[105,101],[206,21],[-5,91],[30,66],[133,32],[69,-71],[49,-6]],[[9810,6505],[5,-43],[-108,-4],[-28,-64],[5,-134],[-185,-77],[4,-27],[-224,-113],[-44,-46],[50,-56],[40,-146],[-54,-51],[-77,12],[-100,-49],[40,-37],[-134,-125],[-72,39],[-162,199],[-168,-65],[-99,148],[162,52],[-330,234],[193,119],[74,0],[172,-51],[194,119],[-93,122],[238,132],[68,-111],[66,159],[162,149],[-19,187],[178,67],[211,115],[56,4],[-45,-89],[77,-111],[61,-15],[75,-82],[-77,-122],[67,-127],[-192,-18],[13,-94]],[[3531,2582],[-30,-106],[-68,-111]],[[3433,2365],[-86,-61],[-156,-26],[-89,-126],[-17,79],[58,50],[-99,102],[262,161],[-25,39],[80,49],[170,-50]],[[8382,9076],[-72,-69],[-87,45],[-99,-44],[51,-67],[-39,-79],[-89,7],[-60,-62],[2,-50],[-69,-142],[-3,-117],[-73,51],[-72,-58],[-133,-43],[81,-95],[46,-5],[3,-61],[-53,-88],[-69,2],[-187,-131],[-73,40],[-75,-47],[-111,82],[-202,-8],[74,24],[170,-3],[81,-26],[81,66],[102,-19],[43,42],[89,24],[17,36],[-59,128],[55,58],[-64,78],[83,74],[-47,14],[-11,87],[159,-48],[47,98],[114,65],[23,91],[67,33],[31,121],[54,43],[121,23],[118,-20],[35,-50]],[[1165,7317],[-3,-149],[-63,-21],[-10,-101],[77,-21],[-281,-117],[-157,-157],[0,-114],[-73,-60],[-19,-106],[-161,-87],[-45,-144],[38,-109],[47,-49],[2,-62],[-72,-82],[66,-201],[146,112],[35,65],[147,-55],[105,-241],[74,68],[58,-104],[103,24],[81,-33],[65,18],[40,-48],[22,-100],[118,-216],[-357,-127],[-521,-30],[-420,-55],[-207,880],[86,51],[92,-28],[-40,88],[37,46],[95,20],[-26,195],[4,142],[39,104],[-34,46],[81,37],[65,67],[67,143],[-1,113],[50,143],[67,35],[-20,93],[66,93],[66,-149],[35,-19],[103,31],[18,-26],[170,63],[67,67],[0,52],[93,67],[-15,-52]],[[5159,3208],[-57,176],[-266,284],[-292,289]],[[4974,4255],[211,-227]],[[5270,3939],[159,-168]],[[5429,3771],[-50,-37],[-35,-108],[-55,-54],[-21,-69],[29,-127],[-15,-114],[-58,12],[-65,-66]],[[6969,4491],[5,-34],[242,-402],[-284,-160],[-79,-12]],[[6853,3883],[-17,63],[60,77],[54,21],[-46,143],[-193,309],[-194,-131],[-75,-20],[-10,-64],[-63,-116],[-78,-69],[54,-82],[-118,-83],[-100,-8],[-78,33],[-98,-32],[-104,16],[-192,-11]],[[5655,3929],[-86,-20],[-140,-138]],[[6256,4427],[85,6],[344,128],[56,-3],[228,-67]],[[5159,3208],[-8,-86],[-50,-79]],[[5101,3043],[-56,-44],[10,-60],[-77,-141],[-99,9],[-62,-92],[26,-45],[-86,-61]],[[4757,2609],[-23,1],[-38,-120],[-192,-145],[-47,-73],[-68,-28],[45,-50],[-11,-73],[-78,-55],[-110,23],[-69,-158],[21,-86],[-90,-29],[-11,-51],[-94,17],[-44,-88],[-4,-126],[-141,122],[-11,-84],[-131,-68],[-20,57],[35,244],[22,403],[-120,5],[-32,113],[-113,5]],[[3531,2582],[-123,146],[-47,128],[93,36],[65,-111],[54,9],[128,-258],[110,-58],[147,-2],[95,125],[-45,164],[-21,211],[-27,405],[115,90]],[[4120,4484],[-26,287],[-20,116],[-132,372],[-13,107],[36,101],[67,76],[99,39],[326,39],[260,118],[236,37],[74,-4],[246,-75],[430,-7],[291,-29],[194,-38],[75,39],[38,72],[62,213],[45,523],[34,171],[52,54],[336,27],[152,70],[108,-155],[145,52],[30,-77],[128,-186],[54,-183],[158,-85],[112,-104],[355,-416],[-52,-46],[-34,-175],[-70,-118],[-87,-211],[-79,-102],[-391,-291],[-143,-45],[-190,-144],[-57,-15]],[[6216,3524],[-63,-44],[46,-51],[-66,-45],[-98,115],[-79,-28],[-70,61],[-57,-49],[58,-50],[-110,-96],[-154,137],[10,93],[50,42],[-33,123],[117,64]],[[5767,3796],[178,-210],[134,90],[137,-152]],[[6853,3883],[33,-74],[-16,-108],[91,-252],[55,8],[74,-105],[-57,-103],[20,-130],[-49,-20],[47,-198],[3,-136],[-101,-19],[-105,142],[-193,82],[-41,119],[-9,140],[-162,198],[-82,-135],[-90,74],[-32,-41]],[[6239,3325],[-44,40],[91,86],[-70,73]],[[5767,3796],[-112,133]],[[1859,6600],[168,-4],[55,-22],[-94,-18],[91,-56],[-193,-42],[40,-95],[64,11],[-114,-96],[-131,7],[-51,-51],[87,-60],[54,-105],[73,-7],[101,-181],[61,10],[111,-226],[-59,-34],[29,-35],[-27,-63],[46,-86],[355,82],[18,88],[62,70],[127,15],[54,-94],[64,10],[36,-236],[-163,-125],[-237,-5],[-237,5],[-58,66],[-189,99],[-139,153],[-59,152],[-58,-3],[-48,76],[-116,124],[-31,106],[22,165],[-36,82],[-7,104],[119,39],[22,33],[-32,129],[112,23],[108,-5]],[[5695,2803],[55,-37],[-230,-156],[-169,-82],[36,-84],[-288,-15],[-235,-155],[-99,91],[-37,111],[29,133]],[[5101,3043],[85,-73],[-44,-145],[65,-131],[73,22],[-47,105],[94,-61],[58,62],[83,-56],[54,61],[119,15],[54,-39]],[[6239,3325],[-129,-100],[-109,-125],[-42,-8],[-137,-136],[-127,-153]]]}
