{"type":"Topology","bbox":[-75.32943755817325,7.577603375609093,-74.78306778827795,8.04919094450414],"transform":{"scale":[0.00005464244123365406,0.00004716347323682839],"translate":[-75.32943755817325,7.577603375609093]},"objects":{"municipios":{"type":"GeometryCollection","geometries":[{"type":"Polygon","arcs":[[0,1,2,3,4,5,6]],"properties":{"codigo":"05154100000000000305","sector":"051541000000000003","pcode":"CO05154","area_m2":113591}},{"type":"Polygon","arcs":[[7,8,9]],"properties":{"codigo":"05154100000000000101","sector":"051541000000000001","pcode":"CO05154","area_m2":66611}},{"type":"Polygon","arcs":[[10,11,12,13]],"properties":{"codigo":"05154100000000000207","sector":"051541000000000002","pcode":"CO05154","area_m2":74168}},{"type":"Polygon","arcs":[[14,15,16,17]],"properties":{"codigo":"05154100000000000405","sector":"051541000000000004","pcode":"CO05154","area_m2":38611}},{"type":"Polygon","arcs":[[-4,18,19,20,21]],"properties":{"codigo":"05154100000000000307","sector":"051541000000000003","pcode":"CO05154","area_m2":67662}},{"type":"Polygon","arcs":[[22,23,24,25,26,-20,27]],"properties":{"codigo":"05154100000000000401","sector":"051541000000000004","pcode":"CO05154","area_m2":103624}},{"type":"Polygon","arcs":[[-28,-19,-3,28,29]],"properties":{"codigo":"05154100000000000402","sector":"051541000000000004","pcode":"CO05154","area_m2":80237}},{"type":"Polygon","arcs":[[30,31,-24,32]],"properties":{"codigo":"05154100000000000403","sector":"051541000000000004","pcode":"CO05154","area_m2":88861}},{"type":"Polygon","arcs":[[33,-16,34,35]],"properties":{"codigo":"05154100000000000410","sector":"051541000000000004","pcode":"CO05154","area_m2":37055}},{"type":"Polygon","arcs":[[36,37,-36,38,-33,-23,-30,39]],"properties":{"codigo":"05154100000000000404","sector":"051541000000000004","pcode":"CO05154","area_m2":104138}},{"type":"Polygon","arcs":[[-17,-34,-38,40,41]],"properties":{"codigo":"05154100000000000406","sector":"051541000000000004","pcode":"CO05154","area_m2":80026}},{"type":"Polygon","arcs":[[42,43,44,-15,45]],"properties":{"codigo":"05154100000000000407","sector":"051541000000000004","pcode":"CO05154","area_m2":504775}},{"type":"Polygon","arcs":[[46,-41,-37,47]],"properties":{"codigo":"05154100000000000409","sector":"051541000000000004","pcode":"CO05154","area_m2":59142}},{"type":"Polygon","arcs":[[-44,48,49,50]],"properties":{"codigo":"05154100000000000411","sector":"051541000000000004","pcode":"CO05154","area_m2":104773}},{"type":"Polygon","arcs":[[-50,51]],"properties":{"codigo":"05154100000000000412","sector":"051541000000000004","pcode":"CO05154","area_m2":99282}},{"type":"Polygon","arcs":[[52,-25,-32,53,54,55,56]],"properties":{"codigo":"05154100000000000501","sector":"051541000000000005","pcode":"CO05154","area_m2":72367}},{"type":"Polygon","arcs":[[-26,-53,57]],"properties":{"codigo":"05154100000000000502","sector":"051541000000000005","pcode":"CO05154","area_m2":34314}},{"type":"Polygon","arcs":[[58,59]],"properties":{"codigo":"05154100000000000504","sector":"051541000000000005","pcode":"CO05154","area_m2":44468}},{"type":"Polygon","arcs":[[-57,60,61,-59,62,-21,-27,-58]],"properties":{"codigo":"05154100000000000509","sector":"051541000000000005","pcode":"CO05154","area_m2":65683}},{"type":"Polygon","arcs":[[63]],"properties":{"codigo":"05154200405031000101","sector":"051542004050310001","pcode":"CO05154","area_m2":23611}},{"type":"Polygon","arcs":[[64,65,66,67,68,69]],"properties":{"codigo":"05154100000000000602","sector":"051541000000000006","pcode":"CO05154","area_m2":145557}},{"type":"Polygon","arcs":[[-66,70]],"properties":{"codigo":"05154100000000000604","sector":"051541000000000006","pcode":"CO05154","area_m2":56961}},{"type":"Polygon","arcs":[[71]],"properties":{"codigo":"05154201205007000101","sector":"051542012050070001","pcode":"CO05154","area_m2":27680}},{"type":"Polygon","arcs":[[72,73,74,75]],"properties":{"codigo":"05154100000000000606","sector":"051541000000000006","pcode":"CO05154","area_m2":93971}},{"type":"Polygon","arcs":[[76,77,78,-74,79]],"properties":{"codigo":"05154100000000000607","sector":"051541000000000006","pcode":"CO05154","area_m2":69349}},{"type":"Polygon","arcs":[[80,81,82,83,84]],"properties":{"codigo":"05154100000000000205","sector":"051541000000000002","pcode":"CO05154","area_m2":136300}},{"type":"Polygon","arcs":[[-77,85]],"properties":{"codigo":"05154100000000000608","sector":"051541000000000006","pcode":"CO05154","area_m2":45745}},{"type":"Polygon","arcs":[[86]],"properties":{"codigo":"05154200402027000101","sector":"051542004020270001","pcode":"CO05154","area_m2":42521}},{"type":"Polygon","arcs":[[-83,87,88,89]],"properties":{"codigo":"05154100000000000204","sector":"051541000000000002","pcode":"CO05154","area_m2":172687}},{"type":"Polygon","arcs":[[90,91,92,93,-9,94]],"properties":{"codigo":"05154100000000000105","sector":"051541000000000001","pcode":"CO05154","area_m2":271245}},{"type":"Polygon","arcs":[[95,96,97,-88,-82,98]],"properties":{"codigo":"05154100000000000203","sector":"051541000000000002","pcode":"CO05154","area_m2":75877}},{"type":"Polygon","arcs":[[99,-92,100,101,102,103,104,-11,105]],"properties":{"codigo":"05154100000000000201","sector":"051541000000000002","pcode":"CO05154","area_m2":191198}},{"type":"Polygon","arcs":[[106,-101,-91,107,-98,108]],"properties":{"codigo":"05154100000000000202","sector":"051541000000000002","pcode":"CO05154","area_m2":100138}},{"type":"Polygon","arcs":[[-106,-14,109,110,111]],"properties":{"codigo":"05154100000000000206","sector":"051541000000000002","pcode":"CO05154","area_m2":94832}},{"type":"Polygon","arcs":[[112,-84,-90,113,-10,-94,114,-111,115,116]],"properties":{"codigo":"05154100000000000102","sector":"051541000000000001","pcode":"CO05154","area_m2":953303}},{"type":"Polygon","arcs":[[-89,-108,-95,-8,-114]],"properties":{"codigo":"05154100000000000103","sector":"051541000000000001","pcode":"CO05154","area_m2":166993}},{"type":"Polygon","arcs":[[-100,-112,-115,-93]],"properties":{"codigo":"05154100000000000104","sector":"051541000000000001","pcode":"CO05154","area_m2":67692}},{"type":"Polygon","arcs":[[-104,117,118,119,-116,-110,-13,120]],"properties":{"codigo":"05154100000000000208","sector":"051541000000000002","pcode":"CO05154","area_m2":1307780}},{"type":"Polygon","arcs":[[-121,-12,-105]],"properties":{"codigo":"05154100000000000209","sector":"051541000000000002","pcode":"CO05154","area_m2":65596}},{"type":"Polygon","arcs":[[-6,121,-102,-107,122]],"properties":{"codigo":"05154100000000000301","sector":"051541000000000003","pcode":"CO05154","area_m2":44491}},{"type":"Polygon","arcs":[[123,-1,124,-96,125]],"properties":{"codigo":"05154100000000000302","sector":"051541000000000003","pcode":"CO05154","area_m2":73271}},{"type":"Polygon","arcs":[[126,-126,-99,-81,127]],"properties":{"codigo":"05154100000000000303","sector":"051541000000000003","pcode":"CO05154","area_m2":112966}},{"type":"Polygon","arcs":[[128,-48,-40,-29,-2,-124,-127]],"properties":{"codigo":"05154100000000000304","sector":"051541000000000003","pcode":"CO05154","area_m2":70485}},{"type":"Polygon","arcs":[[-5,-22,-63,-60,-62,129,-118,-103,-122]],"properties":{"codigo":"05154100000000000306","sector":"051541000000000003","pcode":"CO05154","area_m2":222858}},{"type":"Polygon","arcs":[[-125,-7,-123,-109,-97]],"properties":{"codigo":"05154100000000000308","sector":"051541000000000003","pcode":"CO05154","area_m2":81258}},{"type":"Polygon","arcs":[[-61,-56,130,131,132,-130]],"properties":{"codigo":"05154100000000000506","sector":"051541000000000005","pcode":"CO05154","area_m2":227951}},{"type":"Polygon","arcs":[[-68,133,134]],"properties":{"codigo":"05154100000000000609","sector":"051541000000000006","pcode":"CO05154","area_m2":157744}},{"type":"Polygon","arcs":[[-35,-45,-51,-52,-49,-43,135,136,137,-31,-39]],"properties":{"codigo":"05154100000000000408","sector":"051541000000000004","pcode":"CO05154","area_m2":2305011}},{"type":"Polygon","arcs":[[138,139,140,-54,-138,141]],"properties":{"codigo":"05154100000000000503","sector":"051541000000000005","pcode":"CO05154","area_m2":2460926}},{"type":"Polygon","arcs":[[142]],"properties":{"codigo":"05154200601026000101","sector":"051542006010260001","pcode":"CO05154","area_m2":32843}},{"type":"Polygon","arcs":[[-76,143,144]],"properties":{"codigo":"05154100000000000605","sector":"051541000000000006","pcode":"CO05154","area_m2":108513}},{"type":"Polygon","arcs":[[145,-140,146,-132]],"properties":{"codigo":"05154100000000000507","sector":"051541000000000005","pcode":"CO05154","area_m2":196213}},{"type":"Polygon","arcs":[[-133,-147,-139,147,-119]],"properties":{"codigo":"05154100000000000508","sector":"051541000000000005","pcode":"CO05154","area_m2":859770}},{"type":"Polygon","arcs":[[-141,-146,-131,-55]],"properties":{"codigo":"05154100000000000510","sector":"051541000000000005","pcode":"CO05154","area_m2":113708}},{"type":"Polygon","arcs":[[-71,-65,148,149,-144,-75,-79,150,-136,-46,-18,-42,-47,-129,-128,-85,-113,151,-134,-67]],"properties":{"codigo":"05154100000000000601","sector":"051541000000000006","pcode":"CO05154","area_m2":4197542}},{"type":"Polygon","arcs":[[152,-149,-70]],"properties":{"codigo":"05154100000000000603","sector":"051541000000000006","pcode":"CO05154","area_m2":70664}},{"type":"Polygon","arcs":[[153,154]],"properties":{"codigo":"05154200905003000101","sector":"051542009050030001","pcode":"CO05154","area_m2":158078}},{"type":"Polygon","arcs":[[-154,155,156,157]],"properties":{"codigo":"05154200905003000102","sector":"051542009050030001","pcode":"CO05154","area_m2":114829}},{"type":"Polygon","arcs":[[158,-157]],"properties":{"codigo":"05154200905003000103","sector":"051542009050030001","pcode":"CO05154","area_m2":142992}},{"type":"Polygon","arcs":[[159,160]],"properties":{"codigo":"05154200701006000101","sector":"051542007010060001","pcode":"CO05154","area_m2":35972}},{"type":"Polygon","arcs":[[-160,161]],"properties":{"codigo":"05154200701006000102","sector":"051542007010060001","pcode":"CO05154","area_m2":99473}},{"type":"Polygon","arcs":[[162]],"properties":{"codigo":"05154200703008000101","sector":"051542007030080001","pcode":"CO05154","area_m2":48821}},{"type":"Polygon","arcs":[[163]],"properties":{"codigo":"05154200704009000101","sector":"051542007040090001","pcode":"CO05154","area_m2":108004}},{"type":"Polygon","arcs":[[164]],"properties":{"codigo":"05154200904020000101","sector":"051542009040200001","pcode":"CO05154","area_m2":36442}},{"type":"Polygon","arcs":[[165]],"properties":{"codigo":"05154200403022000101","sector":"051542004030220001","pcode":"CO05154","area_m2":59520}},{"type":"Polygon","arcs":[[166]],"properties":{"codigo":"05154201006024000101","sector":"051542010060240001","pcode":"CO05154","area_m2":72425}},{"type":"Polygon","arcs":[[167]],"properties":{"codigo":"05154200304032000101","sector":"051542003040320001","pcode":"CO05154","area_m2":13089}},{"type":"Polygon","arcs":[[168]],"properties":{"codigo":"05154200701033000101","sector":"051542007010330001","pcode":"CO05154","area_m2":43506}},{"type":"Polygon","arcs":[[169]],"properties":{"codigo":"05154200105012000101","sector":"051542001050120001","pcode":"CO05154","area_m2":35196}},{"type":"MultiPolygon","arcs":[[[170]],[[171]]],"properties":{"codigo":"05154201105023000101","sector":"051542011050230001","pcode":"CO05154","area_m2":51483}}]}},"arcs":[[[2431,8643],[21,-13]],[[2452,8630],[-2,-24],[0,-20]],[[2450,8586],[-53,-4]],[[2397,8582],[-6,26]],[[2391,8608],[0,18],[-4,20]],[[2387,8646],[0,4]],[[2387,8650],[22,1],[12,-1],[0,-5],[10,-2]],[[2383,8853],[-16,1]],[[2367,8854],[-16,3]],[[2351,8857],[6,50],[-2,1],[1,14],[6,3],[0,-4],[28,-4],[-3,-27],[-4,-37]],[[2278,8830],[-4,-40]],[[2274,8790],[-59,7]],[[2215,8797],[4,40]],[[2219,8837],[19,-2],[40,-5]],[[2559,8509],[-28,-9],[-57,-15]],[[2474,8485],[-4,13]],[[2470,8498],[71,20],[13,7]],[[2554,8525],[5,-16]],[[2397,8582],[-8,0]],[[2389,8582],[-58,-4]],[[2331,8578],[3,34]],[[2334,8612],[45,10],[2,-16],[10,2]],[[2396,8548],[3,-16]],[[2399,8532],[-72,-6]],[[2327,8526],[1,18]],[[2328,8544],[2,26]],[[2330,8570],[1,8]],[[2389,8582],[7,-34]],[[2450,8586],[18,2]],[[2468,8588],[0,-36],[-14,1],[-58,-5]],[[2406,8493],[-6,-1],[-11,1],[-5,-4],[-14,5],[-5,-7],[-28,6],[-12,9]],[[2325,8502],[2,24]],[[2399,8532],[7,-39]],[[2464,8518],[6,-20]],[[2474,8485],[-23,-7],[-11,50]],[[2440,8528],[6,6],[14,1],[4,-17]],[[2488,8586],[6,-3],[-9,-36],[-2,-12]],[[2483,8535],[1,-11],[-20,-6]],[[2440,8528],[-12,1],[-2,-7],[-4,-4],[-6,-2],[-3,-4],[-1,-14],[-6,-5]],[[2468,8588],[13,0],[7,-2]],[[2483,8535],[42,11],[17,7]],[[2542,8553],[12,-28]],[[2608,8318],[-21,6],[-53,19],[-1,13],[-12,3]],[[2521,8359],[-3,4],[-3,15],[-6,35],[-7,5]],[[2502,8418],[-5,4],[-8,16],[-2,20],[-5,8],[-3,-1],[-5,20]],[[2559,8509],[10,-27],[40,-77],[12,-49],[-4,-16],[-9,-22]],[[2532,8586],[4,-17],[6,-16]],[[2488,8586],[2,3],[4,-3],[10,-3],[4,-5],[10,0],[14,8]],[[2521,8359],[-2,-1],[1,-10],[-37,13]],[[2483,8361],[-16,6],[-26,23]],[[2441,8390],[16,-1],[1,23],[2,10],[15,-1],[0,-6],[10,-1],[13,1],[0,-7],[4,10]],[[2483,8361],[-2,-24],[2,-13],[-1,-26],[-22,3],[-5,-2],[-9,28],[-1,14],[-18,3],[10,48],[4,-2]],[[2275,8573],[-2,-19],[22,-2],[15,-1],[11,-1],[0,-7],[7,1]],[[2325,8502],[-13,2]],[[2312,8504],[-7,1],[1,15],[-8,-1],[-10,-3]],[[2288,8516],[-1,7],[-21,2],[0,12],[4,37]],[[2270,8574],[5,-1]],[[2275,8573],[34,-3],[14,-3],[7,3]],[[2335,8627],[-7,-2],[-2,-30],[-32,3],[0,4],[-17,2],[-1,6]],[[2276,8610],[13,9],[10,9],[10,4],[26,0],[0,-5]],[[2270,8574],[-4,1],[1,11],[-5,17]],[[2262,8603],[6,1],[8,6]],[[2335,8627],[-1,-15]],[[5876,9982],[-10,5],[-17,3],[4,9],[24,-14],[1,2],[17,-1],[26,-3],[7,-2],[-6,-18],[-19,8],[-17,8],[-9,5],[-1,-2]],[[2727,8302],[-3,10],[-11,-7]],[[2713,8305],[-7,23],[-6,5],[-7,-2],[-6,5]],[[2687,8336],[13,9],[12,6],[-5,13],[28,19],[26,20],[5,2]],[[2766,8405],[12,-16],[-10,-10],[4,-6]],[[2772,8373],[-11,-14],[8,-14],[1,-22]],[[2770,8323],[0,-4],[-20,7],[-3,-10],[-12,1],[1,-4],[9,-3],[-3,-9],[-15,1]],[[2713,8305],[-14,-9],[-52,17],[5,19],[14,6],[17,-5],[4,3]],[[5761,38],[10,10],[7,-3],[2,5],[6,-2],[-3,-9],[3,-1],[-6,-18],[-6,-20],[-15,6],[4,13],[-5,4],[5,14],[-2,1]],[[2868,8234],[-1,-17],[-2,-11],[-5,0],[1,-7],[-11,0]],[[2850,8199],[-32,-3],[-50,-2]],[[2768,8194],[-6,-1],[-6,19]],[[2756,8212],[51,2],[-1,18],[41,2],[21,0]],[[2818,8167],[-9,0],[0,-5]],[[2809,8162],[-22,-3],[-9,0]],[[2778,8159],[-5,9],[-5,26]],[[2850,8199],[2,-10],[-14,-11],[-16,-7],[-2,10],[-4,8],[0,-16],[2,-6]],[[2534,8678],[-13,3],[-46,6]],[[2475,8687],[5,27]],[[2480,8714],[3,28],[19,2],[24,8],[8,5]],[[2534,8757],[24,-3]],[[2558,8754],[-9,-22],[-15,-54]],[[2818,8167],[3,-2],[17,5],[4,-1],[7,-7],[1,-6],[4,0],[3,-17],[-22,-7],[-2,8],[-21,-5],[-6,-7],[-3,19],[7,5],[-1,10]],[[3533,9219],[3,-12],[-8,-2],[4,-19],[-4,-1],[-1,5],[-5,-1],[-2,8],[-21,-11],[-13,37],[26,8],[-5,-10],[3,0],[-2,-7],[2,-5],[9,-10],[3,3],[-3,13],[-4,-1],[0,5],[4,9],[12,3],[2,-12]],[[2480,8714],[-43,15]],[[2437,8729],[3,20],[9,30],[38,16],[-4,16]],[[2483,8811],[12,6],[3,-16],[21,7],[6,-14],[4,-4],[6,-17],[-2,-8],[1,-8]],[[2419,8736],[-57,15],[-1,-5]],[[2361,8746],[-23,4],[1,32],[-14,1],[-3,6],[-3,-1],[-10,8],[-9,4],[1,15]],[[2301,8815],[18,0],[28,1],[3,41]],[[2350,8857],[1,0]],[[2367,8854],[7,-5],[5,-7],[1,-15],[5,-1],[20,1],[26,-7],[1,-4],[-4,0],[-5,-33],[0,-15],[-3,-17],[-1,-15]],[[2472,8671],[-21,6],[-9,5]],[[2442,8682],[-16,6],[-11,2],[4,18]],[[2419,8708],[1,5],[14,8],[3,8]],[[2475,8687],[-3,-16]],[[2301,8833],[-2,-17],[2,-1]],[[2361,8746],[-14,-59]],[[2347,8687],[-6,-25]],[[2341,8662],[-1,-3]],[[2340,8659],[-5,3],[1,3],[-19,11],[4,25],[-4,11],[6,3],[1,8],[-7,3],[0,14],[-6,7],[-10,1],[-1,-3]],[[2300,8745],[-13,1],[-7,8],[1,22],[2,6],[-4,7],[-5,1]],[[2278,8830],[16,-3],[-1,6],[8,0]],[[2379,8697],[-32,-10]],[[2419,8736],[18,-7]],[[2419,8708],[-6,-1],[-34,-10]],[[2219,8837],[2,38]],[[2221,8875],[83,-11]],[[2304,8864],[-3,-31]],[[2560,8765],[-2,-11]],[[2483,8811],[-14,26],[-4,4],[-11,2],[-24,1],[-11,3],[-20,3],[-16,3]],[[2350,8857],[-46,7]],[[2221,8875],[-22,3],[-64,9],[-35,5]],[[2100,8892],[-40,5],[0,4],[11,9],[4,9],[8,5],[5,-2],[9,1],[9,3],[19,1],[10,8],[12,1],[10,-1],[12,-6],[0,-4],[11,-10],[4,0],[9,7],[12,-4],[5,5],[7,-5],[9,3],[8,-2],[14,12],[7,9],[14,2],[7,-3],[4,-11],[-3,-14],[3,-9],[11,-4],[9,2],[4,-5],[3,0],[9,6],[9,12],[9,21],[9,-2],[6,-6],[12,-2],[23,9],[2,8],[6,3],[1,12],[-6,18],[9,6],[4,-2],[9,11],[7,4],[6,10],[7,7],[5,8],[8,-12],[5,-10],[5,-16],[10,-10],[3,-6],[9,-6],[4,-12],[-1,-18],[2,-11],[8,-23],[11,-26],[9,-23],[7,-14],[17,-40],[2,2],[5,-6],[5,-13],[17,-13],[0,1]],[[2340,8659],[-1,-6],[-26,-2],[-18,-1],[-9,-8],[-2,-6],[-5,-3],[-19,6],[-5,12],[-9,-4],[-6,-5],[-5,1],[-6,-3],[-7,0],[0,-9],[-5,0],[-22,5],[-5,0],[-19,4],[1,-18]],[[2172,8622],[-16,13],[-33,32],[-14,10],[-9,13],[-3,1],[-11,-4],[-10,3],[-11,1],[-5,-1],[-9,0]],[[2051,8690],[-10,0],[13,14],[8,3],[15,-5],[11,-1],[0,41],[-7,22],[1,4],[10,11],[4,11],[1,21],[3,81]],[[2215,8797],[1,-4],[26,-3],[-1,-17],[3,-12],[23,8],[7,-49],[0,-6],[13,-3],[0,9],[13,25]],[[2387,8646],[-10,4],[-10,1],[-1,11],[-15,-3],[-10,3]],[[2379,8697],[6,-27],[-4,-3],[6,-17]],[[2476,8617],[-24,13]],[[2431,8643],[3,22],[8,17]],[[2472,8671],[-2,-10],[24,-7],[-10,-28],[-8,-9]],[[2528,8609],[-20,-9],[-5,0],[-18,16],[-9,1]],[[2534,8678],[-8,-41],[0,-19],[2,-9]],[[2528,8609],[4,-23]],[[2262,8603],[-33,-8],[-38,12],[-19,15]],[[2288,8516],[-7,-1],[-1,-4],[-8,-2]],[[2272,8509],[-4,5],[-10,0],[0,6],[-14,4],[-17,1],[0,-18]],[[2227,8507],[-6,0],[1,14],[0,15],[2,24],[-8,-4],[-7,-18],[-19,-23],[-13,14],[0,7],[-8,9],[2,5],[4,5],[-8,9],[19,22],[-13,15],[-1,3],[0,18]],[[2766,8405],[4,2]],[[2770,8407],[47,18],[2,3],[24,-1],[8,-2],[8,-5],[28,-9],[-1,-8],[6,-3],[-26,-12],[-15,-8],[-14,0],[-8,3],[-1,-9],[-6,-9],[-8,-4],[-6,-1],[-5,4],[-8,0],[-9,8],[-10,0],[-4,1]],[[2608,8318],[-10,-23],[-24,-30],[-12,-17],[-34,-35],[-35,-39],[-22,-21],[-16,-12],[-16,-8],[-27,0],[-23,7],[-14,7],[-22,1],[-13,-1],[-17,-2]],[[2323,8145],[-10,-1],[-22,-10],[-6,-9],[-3,-9],[-3,-34],[-4,-12],[-5,-12],[-15,-18],[-15,-5],[-15,0]],[[2225,8035],[3,21],[2,11],[7,14],[17,27],[8,12],[14,13],[9,7],[11,15],[1,5],[4,35],[4,49],[3,43],[6,74],[3,27],[2,35],[6,79]],[[2050,8503],[6,-3],[25,-22],[31,-24],[21,-18],[13,-9],[17,-6]],[[2163,8421],[0,-13],[2,-2],[8,6],[11,3],[5,5],[37,2],[10,-4],[8,5],[18,1],[0,7],[6,4],[4,-2]],[[2272,8433],[11,2],[4,7],[10,7],[5,-2],[2,5],[10,0],[3,25],[1,18],[-6,0],[0,9]],[[2225,8035],[-27,13],[-12,2],[0,3],[-11,6],[-6,1],[-7,-6],[-17,-6],[-10,14],[-8,0],[-14,-3],[-23,-24],[-6,-2],[-17,5],[0,11],[9,9],[4,11],[1,11],[-3,14],[9,2],[5,6],[-8,27],[-6,16],[4,4],[3,15],[9,5],[9,11],[2,5],[-2,10],[3,2],[16,1],[5,3],[6,14],[6,10],[6,5],[0,13],[-4,7],[-5,3],[-3,6],[-1,7],[4,14],[4,6],[-6,8],[2,3],[13,5],[8,9],[5,4],[3,9],[-3,3],[-18,45],[-7,10],[-6,4],[-12,5],[-24,-3],[-35,2],[-7,3],[-6,7],[-2,13],[0,15],[-6,14],[-10,-19],[-10,6],[-2,-5],[-11,2],[-21,26],[-30,10],[14,49],[5,-2],[4,9],[19,-17],[5,6],[18,-22],[3,-1],[22,3],[5,16]],[[4323,9165],[-16,-8],[-11,-1],[-12,-3],[-5,-9],[-1,4],[-10,-7],[3,6],[-3,5],[0,12],[11,-1],[6,3],[22,6],[30,15],[5,-10],[-6,-2],[-13,-10]],[[2756,8212],[-7,30],[-7,11],[29,1]],[[2771,8254],[10,0],[1,-6],[9,0],[17,2],[1,3],[15,5],[12,1],[11,0],[13,-3],[-2,-3],[1,-13],[10,0],[-1,-6]],[[2272,8509],[-1,-7],[-17,2],[-2,-21],[6,-1],[-2,-23],[23,-2],[-2,-18],[-5,0],[0,-6]],[[2163,8421],[3,42],[2,5],[16,-1],[56,-6],[1,23],[-11,1],[1,22],[-4,0]],[[2050,8503],[7,24],[6,26],[-2,25],[12,49],[4,5],[2,11],[-5,23],[-25,-2],[0,11],[4,0],[0,6],[4,0],[-6,6],[0,3]],[[2727,8302],[3,-7],[13,-1],[27,-8]],[[2770,8286],[1,-32]],[[2778,8159],[-4,0],[12,-39],[-23,-15],[-4,9],[-15,-5],[-8,-1],[-27,-1],[-31,1],[-69,-2],[-102,-32],[-33,11],[-5,4],[-9,-16],[-16,-11],[-11,0],[-6,5],[-9,10],[-27,8],[-5,-31],[-22,-5],[-6,-2],[-9,-7],[-10,-1],[-4,2],[-8,27],[-4,8],[-3,13],[-2,22],[-1,23],[2,6],[4,2],[0,3]],[[2560,8765],[74,82],[24,-20],[12,-13],[12,-15],[11,-24],[2,-9],[4,-24],[-7,-18],[-12,-25],[-19,-30],[-18,-25],[18,-19],[7,-11],[0,-2],[21,-29],[52,-59],[38,-44],[-34,-39],[25,-34]],[[2770,8323],[22,-8],[1,5],[11,-5],[-1,-5],[7,-2],[-2,-9],[8,-3],[-27,-14],[-4,0],[-15,4]],[[9941,3121],[-1,32],[7,1],[0,39],[-9,10],[-3,-3],[-3,4]],[[9932,3204],[5,6],[-3,1],[9,20],[0,11],[2,1],[3,15],[6,-2],[1,-7],[-6,-14],[-3,-15],[-3,-2],[1,-8],[-3,-4],[6,-8],[2,4],[6,4],[2,-6],[10,5],[-1,8],[15,11],[14,-34],[3,-16],[1,-14],[-5,-16],[-8,-19],[-18,-12],[-10,-4],[-9,13],[-8,-1]],[[9941,3121],[-14,-1],[-3,-12],[-12,2],[-3,5],[2,10],[0,8],[-10,-2]],[[9901,3131],[-2,28],[-1,27],[-2,6],[-6,14]],[[9890,3206],[13,0],[0,-5],[8,3],[2,-16],[5,7],[14,9]],[[9901,3131],[0,-4],[-9,0],[-4,8],[-12,-6],[-5,-6],[-13,-1],[0,3],[-28,-9],[0,-2],[-25,-10],[0,-8],[-5,-1],[-2,6],[-15,-7],[-2,5],[7,3],[4,6],[-1,5],[6,0],[12,4],[3,4],[10,5],[-6,9],[2,2],[-6,5],[-3,-3],[-5,6],[11,17],[10,4],[2,-10],[-8,-4],[-2,-4],[2,-6],[7,-7],[3,-8],[6,1],[15,7],[0,4],[-6,0],[0,4],[11,1],[0,12],[4,-4],[7,6],[7,3],[-1,6],[-13,-1],[-12,-7],[-10,2],[2,14],[3,13],[-2,7],[12,11],[2,-11],[3,-6],[12,-9],[4,0],[1,-5],[10,1],[0,5],[11,1],[-1,8],[-9,0],[-11,7],[-1,3],[11,7],[6,-1]],[[6912,9745],[-23,-5],[-9,-6],[-16,-12],[-15,-18]],[[6849,9704],[-3,3],[7,9],[-3,4],[5,-1],[12,9],[-12,20],[3,4],[8,5],[-1,3],[13,5],[3,-6],[6,3],[4,-14],[14,4],[1,-5],[5,2],[1,-4]],[[6912,9745],[25,6],[4,-19],[-26,-11],[-21,-10],[-16,-13],[-21,-23],[-9,-12],[-18,20],[19,21]],[[5635,9205],[1,-1],[10,-2],[3,-5],[-6,4],[-6,-1],[-1,-13],[-3,8],[0,5],[-3,1],[-3,-19],[2,-8],[-2,-7],[6,-1],[3,5],[7,-4],[3,3],[13,-5],[-13,-29],[-5,-1],[-6,-6],[-6,-12],[-3,1],[0,18],[3,8],[-5,3],[-3,-6],[-7,3],[2,13],[6,22],[1,18],[2,6],[9,5],[1,-3]],[[6486,9013],[-7,-2],[-1,-6],[-3,-1],[6,-12],[5,1],[10,-8],[-4,-4],[4,0],[-2,-10],[5,-13],[3,3],[6,0],[4,-3],[3,-7],[-5,-7],[-10,-4],[-9,19],[-5,-1],[-1,7],[-3,0],[-2,10],[2,0],[-6,12],[-5,-2],[-3,9],[-10,-1],[-7,1],[-2,14],[-10,0],[0,-3],[-29,-1],[0,26],[37,3],[21,3],[22,6],[7,-19],[-3,-6],[-8,-2],[0,-2]],[[8014,2260],[-4,-5],[-3,1],[-7,-10],[2,-2],[-5,-5],[-2,2],[-9,-9],[-7,1],[-8,-8],[-5,3],[5,3],[-3,5],[3,3],[-6,8],[6,12],[0,6],[12,1],[5,-6],[7,-2],[3,5],[2,10],[4,0],[9,-5],[-2,-5],[3,-3]],[[4417,9497],[-8,-8],[-7,-10],[3,-3],[-11,-16],[-18,-28],[2,-2],[-8,-9],[3,-2],[-3,-6],[-6,1],[-3,-4],[4,-4],[1,-12],[-17,0],[-7,5],[-1,5],[3,6],[12,12],[14,21],[-1,2],[11,16],[12,22],[-4,10],[7,4],[4,-2],[6,6],[5,-5],[13,14],[11,13],[3,-3],[-20,-23]],[[4735,4644],[8,-8],[5,2],[2,-10],[-1,-3],[-7,-2],[1,-4],[-5,-5],[4,-15],[5,-6],[5,-1],[6,3],[10,0],[2,5],[6,0],[3,13],[4,-3],[-3,-11],[0,-9],[10,-8],[-2,-4],[-15,8],[-1,-8],[-6,-2],[2,-13],[-3,-5],[-6,3],[-1,-4],[-6,4],[-10,3],[-6,19],[-6,8],[-3,12],[-11,7],[3,7],[3,0],[3,18],[-2,8],[7,3],[5,-2]],[[3023,7904],[-10,-30],[-12,6],[11,30],[11,-6]],[[6759,9843],[7,-3],[7,3],[3,-6],[-7,-4],[-3,-8],[-11,-9],[1,-5],[7,3],[8,7],[3,-6],[5,8],[14,8],[5,2],[5,-7],[-5,-9],[-8,-4],[-6,-12],[-6,0],[-2,4],[-25,-15],[-4,8],[6,11],[-3,13],[0,22],[9,-1]],[[25,7300],[7,-7],[13,0],[3,5],[6,-3],[15,2],[2,3],[0,9],[8,1],[0,-4],[12,0],[0,-10],[13,-4],[-1,-4],[-12,1],[0,-10],[-9,0],[0,16],[-9,0],[0,-6],[-4,3],[-8,0],[-5,-2],[-8,1],[-13,-2],[-3,-5],[-12,-4],[-3,2],[9,6],[-5,6],[-3,-4],[-2,7],[-7,-7],[-9,12],[12,13],[2,-4],[11,-11]],[[7287,4898],[-5,-9],[5,-6],[3,4],[7,-5],[-6,-8],[-2,3],[-14,-9],[-3,0],[-12,9],[-6,7],[1,1],[-8,9],[4,2],[11,14],[-4,4],[12,-3],[11,-6],[8,-5],[-2,-2]],[[7330,4822],[3,-12],[-18,1],[-5,-3],[-6,3],[-2,8],[4,5],[6,1],[0,-3],[16,4],[2,-4]]]}
