{"type":"Topology","bbox":[-75.52016528400583,6.047517009620063,-75.45044963197302,6.140935452454267],"transform":{"scale":[0.000006972262429524169,0.000009342778561276502],"translate":[-75.52016528400583,6.047517009620063]},"objects":{"municipios":{"type":"GeometryCollection","geometries":[{"type":"Polygon","arcs":[[0]],"properties":{"codigo":"05607200202004000101","sector":"056072002020040001","pcode":"CO05607","area_m2":67359}},{"type":"MultiPolygon","arcs":[[[1]],[[2]]],"properties":{"codigo":"05607200102013000101","sector":"056072001020130001","pcode":"CO05607","area_m2":10231}},{"type":"Polygon","arcs":[[3,4,5,6,7,8,9,10]],"properties":{"codigo":"05607100000000000101","sector":"056071000000000001","pcode":"CO05607","area_m2":204893}},{"type":"Polygon","arcs":[[11]],"properties":{"codigo":"05607200204005000101","sector":"056072002040050001","pcode":"CO05607","area_m2":56495}},{"type":"Polygon","arcs":[[12,13,-10,14]],"properties":{"codigo":"05607100000000000102","sector":"056071000000000001","pcode":"CO05607","area_m2":373957}},{"type":"Polygon","arcs":[[15,16,-4]],"properties":{"codigo":"05607100000000000103","sector":"056071000000000001","pcode":"CO05607","area_m2":161011}},{"type":"Polygon","arcs":[[-14,17,-16,-11]],"properties":{"codigo":"05607100000000000104","sector":"056071000000000001","pcode":"CO05607","area_m2":157299}},{"type":"Polygon","arcs":[[18,-6]],"properties":{"codigo":"05607100000000000105","sector":"056071000000000001","pcode":"CO05607","area_m2":206293}},{"type":"Polygon","arcs":[[-15,-9,19,20]],"properties":{"codigo":"05607100000000000106","sector":"056071000000000001","pcode":"CO05607","area_m2":493892}},{"type":"Polygon","arcs":[[-20,-8,21]],"properties":{"codigo":"05607100000000000107","sector":"056071000000000001","pcode":"CO05607","area_m2":332664}},{"type":"Polygon","arcs":[[22]],"properties":{"codigo":"05607200102003000101","sector":"056072001020030001","pcode":"CO05607","area_m2":19312}},{"type":"Polygon","arcs":[[23]],"properties":{"codigo":"05607200102007000101","sector":"056072001020070001","pcode":"CO05607","area_m2":272183}},{"type":"Polygon","arcs":[[24]],"properties":{"codigo":"05607200204009000101","sector":"056072002040090001","pcode":"CO05607","area_m2":18469}}]}},"arcs":[[[5880,4446],[10,-142],[-40,-4],[-31,30],[-59,8],[-39,34],[-59,-52],[-130,39],[-48,36],[4,38],[55,24],[-12,53],[71,60],[57,75],[75,-9],[75,-117],[71,-73]],[[1179,9747],[125,7],[21,-35],[-214,-1],[25,46],[43,-17]],[[1358,9631],[-33,-11],[31,112],[38,-8],[-36,-93]],[[2171,975],[125,13],[-36,128],[91,12],[-16,67],[-11,179],[-69,46],[-24,45]],[[2231,1465],[-7,6]],[[2224,1471],[100,56],[71,28],[39,113],[74,38],[65,139],[170,233],[19,84]],[[2762,2162],[53,11]],[[2815,2173],[37,0]],[[2852,2173],[-32,-137],[-37,-109],[-67,-30],[-15,-39],[31,-40]],[[2732,1818],[-251,-429],[-2,-11],[53,-262],[39,-165],[-9,-15]],[[2562,936],[-42,-37],[-10,-57],[-39,-18],[-51,55],[-88,-22],[-5,16],[-132,-15],[-24,117]],[[9961,788],[34,-2],[4,-34],[-80,-19],[-52,-140],[-16,-154],[-64,-56],[-136,37],[-52,37],[-37,-5],[-44,57],[151,52],[58,46],[99,47],[36,49],[-42,37],[-3,33],[103,35],[41,-20]],[[3091,921],[-118,-23],[-93,36],[19,-39],[14,-97],[35,-52],[32,-4],[13,-53],[-99,-44],[-4,-30],[70,-83],[36,-23],[37,19],[90,5],[-10,-41],[-69,-23],[34,-68],[-4,-31],[-63,-33],[-44,-54],[-86,-4],[-44,21],[-61,-16],[-81,-44],[-8,-43],[30,-28],[12,-80],[59,-4],[6,-42],[-71,12],[-90,-49],[-92,-2],[-66,62],[-77,51],[47,33],[19,-26],[62,24],[44,-47],[70,-6],[61,67],[-34,-8],[-37,47],[47,80],[11,52],[91,4],[-4,27],[39,25],[-33,28],[-19,84],[-31,60],[37,6],[3,46],[35,28],[-106,36],[-62,35],[1,38],[81,-30],[25,25],[-53,7],[-30,29]],[[2662,781],[14,42],[-26,38],[3,41],[43,33],[-94,-15],[-40,16]],[[2732,1818],[52,-54],[7,-79],[55,-10],[26,-64],[45,-40],[89,-22],[0,-46],[-97,12],[-70,-20],[-70,-88],[-3,-56],[-31,-38],[22,-40],[62,-30],[-14,-48],[11,-65],[44,-29],[73,-13],[76,25],[33,-50],[-7,-56],[56,-86]],[[2171,975],[-126,-19],[-115,-59],[-130,-131],[-133,-54]],[[1667,712],[-117,-51],[-74,84],[51,18],[50,53],[99,63],[26,52],[52,29],[4,72],[65,12],[70,-12],[25,20],[21,81],[65,21],[84,57],[113,185],[30,69]],[[2662,781],[-90,0],[27,-28],[-7,-37],[-58,3],[-22,-60],[-31,4],[0,78],[-60,48],[-98,19],[-36,-47],[26,-103],[-15,-38],[-55,61],[-17,62],[-129,-45],[73,-89],[-86,-8],[-36,-22],[-25,-63],[-61,22],[-53,88],[-37,-20],[-34,44],[-99,-39],[-72,101]],[[2224,1471],[-101,-15],[-87,-52],[-64,-22],[-75,87],[5,47],[160,93],[25,63],[-59,53],[-53,19],[12,47],[-25,36],[55,29],[42,-15],[49,30],[105,15],[13,25],[142,43],[81,62],[93,15],[22,37],[36,2],[69,74],[93,18]],[[2852,2173],[63,201]],[[2915,2374],[57,-35],[90,-37],[69,-13],[40,-32],[134,-9],[32,-29],[3,-47],[-37,-11],[-42,-51],[-1,-52],[-45,-33],[79,-11],[-11,-58],[23,-38],[-31,-49],[16,-46],[-9,-48],[76,-59],[94,-26],[-7,-27],[-88,4],[-49,-78],[-54,-50],[30,-14],[-15,-38],[44,-78],[-49,-60],[20,-25],[-50,-5],[18,-53],[-92,-100],[65,-83],[-22,-19],[-25,-75],[46,4],[57,-32],[77,19],[15,-50],[76,-34],[-17,-44],[-139,-67],[-78,100],[-91,56],[-33,-20]],[[2815,2173],[36,187],[-116,3],[11,79],[90,88],[138,42],[33,20],[-53,48],[99,118],[-90,20],[42,79],[-39,33],[-15,45],[-40,36],[-7,62],[69,86],[-34,29],[1,45],[-47,4],[-32,-31],[-60,-11],[-37,76],[-36,27],[71,31],[-4,68],[34,23],[-85,66],[39,20],[-34,48],[20,50],[-29,9],[-16,46],[60,52],[10,-28],[147,-180],[-15,-127],[4,-75],[38,-23],[307,-48],[98,101],[3,70],[74,-58],[51,45],[21,-46],[-10,-39],[79,-50],[-15,-44],[60,-76],[-80,-61],[-67,31],[-139,-83],[-42,-144],[-64,-58],[63,-36],[45,-55],[-13,-39],[30,-92],[-58,-9],[-229,41],[-86,-81],[-67,-92],[-14,-41]],[[45,9974],[51,-37],[28,13],[89,-12],[14,-16],[87,5],[42,33],[46,-3],[74,-152],[-68,70],[-45,-2],[21,51],[-55,-21],[-101,1],[-56,-23],[-130,3],[-13,62],[-28,30],[44,-2]],[[3151,8050],[-30,-97],[23,-25],[-18,-129],[33,-66],[-47,-227],[-68,-24],[-97,-77],[-77,-73],[14,-102],[70,-119],[-74,-22],[-5,-20],[-93,-35],[-25,9],[-56,-33],[-53,-51],[-97,11],[-52,27],[22,35],[117,40],[92,47],[-18,64],[36,27],[0,166],[-124,-2],[15,110],[26,80],[63,66],[27,116],[-35,36],[12,41],[57,40],[17,72],[-17,37],[-78,38],[-2,56],[95,-19],[116,-51],[85,45],[23,30],[36,93],[30,14],[57,-128]],[[7439,2721],[-4,-51],[55,-74],[-54,-60],[-77,35],[-54,66],[39,44],[-22,41],[86,10],[26,48],[5,-59]]]}
