{"type":"Topology","bbox":[-75.63014325344432,5.609395910453163,-75.62014875761344,5.6199664289608355],"transform":{"scale":[9.99549538041912e-7,0.000001057157566523929],"translate":[-75.63014325344432,5.609395910453163]},"objects":{"municipios":{"type":"GeometryCollection","geometries":[{"type":"Polygon","arcs":[[0,1,2]],"properties":{"codigo":"05856100000000000104","sector":"058561000000000001","pcode":"CO05856","area_m2":71893}},{"type":"Polygon","arcs":[[3,4,5,-2]],"properties":{"codigo":"05856100000000000103","sector":"058561000000000001","pcode":"CO05856","area_m2":120918}},{"type":"Polygon","arcs":[[6,-3,-6,7]],"properties":{"codigo":"05856100000000000101","sector":"058561000000000001","pcode":"CO05856","area_m2":198298}},{"type":"Polygon","arcs":[[8,-4,-1,-7]],"properties":{"codigo":"05856100000000000102","sector":"058561000000000001","pcode":"CO05856","area_m2":281053}}]}},"arcs":[[[6608,4320],[-708,-476],[-691,1047]],[[5209,4891],[-395,643],[-665,953],[-388,525],[-185,165]],[[3576,7177],[223,247],[453,301],[399,-614],[559,310],[286,-355],[553,-809],[423,-532],[285,-439],[410,-569],[-559,-397]],[[5209,4891],[-1021,-652],[-677,-639],[-570,-565]],[[2941,3035],[-176,404],[-288,496],[-2,99],[219,236],[-93,158],[-76,333],[124,26],[-292,298],[-125,246],[-312,62],[-104,93],[-116,264],[83,298],[-65,180],[-527,481],[59,144],[313,312],[226,59],[223,209],[369,468],[128,-76]],[[2509,7825],[541,-257],[526,-391]],[[9534,5536],[-404,112],[-305,-94],[-269,-21],[-418,-355],[-114,-234],[-172,-148],[-133,-275],[-186,-117],[-376,-101],[-59,-295],[-230,-57],[-260,369]],[[2509,7825],[315,411],[-118,138],[241,293],[222,-127],[83,56],[362,-139],[139,374],[466,112],[658,470],[929,586],[102,-529],[101,-755],[-47,-105],[-248,-114],[618,-719],[445,-104],[177,86],[373,-510],[556,346],[341,298],[-169,182],[479,86],[113,175],[234,-120],[-243,-300],[410,-467],[433,-91],[232,-214],[262,-481],[20,-447],[-135,-338],[-326,-342]],[[9534,5536],[-199,-156],[139,-395],[18,-243],[-168,-68],[-35,-155],[-140,-132],[-18,-176],[-162,-431],[45,-231],[146,-163],[-86,-199],[-184,-187],[-165,-383],[102,-131],[29,-425],[262,-312],[-149,-211],[18,-360],[-56,-164],[35,-216],[-74,-191],[-244,-138],[-107,-245],[-235,-224],[-176,180],[-281,74],[-292,-101],[-375,427],[-560,71],[-150,99],[-393,-197],[-126,23],[-70,189],[113,256],[-1,226],[-150,288],[-139,62],[-437,-29],[-625,433],[-290,75],[-359,151],[-552,179],[-716,-264],[-258,-166],[-158,32],[-588,-266],[-256,-42],[-469,47],[-210,-16],[-29,-155],[-744,173],[13,368],[136,237],[591,222],[251,-11],[340,-203],[307,-90],[274,63],[531,470],[483,230]]]}
