{"type":"Topology","bbox":[-75.67798738394112,6.9080061894579705,-75.67006824241219,6.927193424207652],"transform":{"scale":[7.919933522282369e-7,0.000001918915366504804],"translate":[-75.67798738394112,6.9080061894579705]},"objects":{"municipios":{"type":"GeometryCollection","geometries":[{"type":"Polygon","arcs":[[0,1,2]]},{"type":"Polygon","arcs":[[-2,3,4]]},{"type":"Polygon","arcs":[[-3,-5,5]]}]}},"arcs":[[[5052,94],[-549,1],[-629,190],[-428,88],[-278,-51],[-331,-193],[-469,-102],[-588,-27],[-278,51],[-430,191],[-1072,72],[198,188],[181,526],[-167,328],[-61,267]],[[151,1623],[489,-179],[416,-226],[146,100],[25,356],[183,275],[80,444],[-347,612],[1325,-140]],[[2468,2865],[573,-44],[-136,-219],[497,-47],[-294,-464],[19,-254],[-319,-363],[-64,-295],[186,3],[-259,-180],[425,-111],[488,-244],[233,-54],[457,-232],[778,-267]],[[151,1623],[50,317],[884,491],[-260,369],[-65,189],[-280,267],[401,222],[381,270],[154,243],[-60,176],[105,311],[357,165],[296,59],[443,-16],[160,313]],[[2717,4999],[150,-128],[718,-216],[85,-189],[-85,-237],[44,-467],[-634,54],[-527,-951]],[[2717,4999],[178,274],[-156,108],[-115,348],[365,393],[-75,397],[131,318],[-224,277],[562,-72],[-222,301],[364,215],[154,256],[367,232],[257,74],[515,281],[122,267],[431,104],[648,26],[295,190],[89,487],[298,235],[-136,85],[101,204],[363,-60],[218,-158],[118,-399],[217,-97],[-33,-199],[241,-194],[219,-36],[76,-249],[-246,-28],[111,-171],[502,-225],[210,-39],[223,-165],[250,-77],[804,-89],[60,-80],[-413,-131],[-68,-159],[-349,-177],[-1518,154],[-522,-239],[-1029,-591],[-172,-65],[201,-95],[283,-6],[418,-113],[304,-154],[304,-300],[55,-139],[-217,-228],[-130,-282],[-482,-295],[-503,-98],[315,-33],[139,-124],[-693,-232],[-447,-40],[-76,-160],[248,-10],[905,-228],[75,-140],[-17,-282],[164,-198],[-142,-185],[61,-241],[-256,-220],[-414,-163],[-773,-188],[-1231,-262],[-434,-213],[167,-541],[864,-270],[780,-279],[340,-299],[-20,-303],[-287,-11],[-377,-99]]]}
