{"type":"Topology","bbox":[-75.71963928840086,5.600281954745556,-75.67977759657498,5.73535289582501],"transform":{"scale":[0.00000398656783937161,0.000013508444952440661],"translate":[-75.71963928840086,5.600281954745556]},"objects":{"municipios":{"type":"GeometryCollection","geometries":[{"type":"Polygon","arcs":[[0,1,2]],"properties":{"codigo":"05789100000000000101","sector":"057891000000000001","pcode":"CO05789","area_m2":300234}},{"type":"Polygon","arcs":[[3,4,5,-1]],"properties":{"codigo":"05789100000000000102","sector":"057891000000000001","pcode":"CO05789","area_m2":89856}},{"type":"Polygon","arcs":[[6,7,8,9,10]],"properties":{"codigo":"05789100000000000106","sector":"057891000000000001","pcode":"CO05789","area_m2":50632}},{"type":"Polygon","arcs":[[11,12,13,14]],"properties":{"codigo":"05789100000000000302","sector":"057891000000000003","pcode":"CO05789","area_m2":84765}},{"type":"Polygon","arcs":[[15]],"properties":{"codigo":"05789200303002000101","sector":"057892003030020001","pcode":"CO05789","area_m2":88806}},{"type":"Polygon","arcs":[[-11,16,-5,17]],"properties":{"codigo":"05789100000000000103","sector":"057891000000000001","pcode":"CO05789","area_m2":98707}},{"type":"Polygon","arcs":[[-17,18,19,-2,-6]],"properties":{"codigo":"05789100000000000104","sector":"057891000000000001","pcode":"CO05789","area_m2":104134}},{"type":"Polygon","arcs":[[-10,20,21,-19]],"properties":{"codigo":"05789100000000000105","sector":"057891000000000001","pcode":"CO05789","area_m2":57992}},{"type":"Polygon","arcs":[[-9,22,-13,23,24,-21]],"properties":{"codigo":"05789100000000000201","sector":"057891000000000002","pcode":"CO05789","area_m2":169123}},{"type":"Polygon","arcs":[[-14,-23,-8,25]],"properties":{"codigo":"05789100000000000301","sector":"057891000000000003","pcode":"CO05789","area_m2":84413}},{"type":"Polygon","arcs":[[-12,26,-24]],"properties":{"codigo":"05789100000000000401","sector":"057891000000000004","pcode":"CO05789","area_m2":200959}},{"type":"Polygon","arcs":[[27]],"properties":{"codigo":"05789200102001000101","sector":"057892001020010001","pcode":"CO05789","area_m2":291163}},{"type":"Polygon","arcs":[[28]],"properties":{"codigo":"05789200302008000101","sector":"057892003020080001","pcode":"CO05789","area_m2":30649}}]}},"arcs":[[[1812,4972],[-108,2],[-58,17],[-109,2],[-92,-16],[-256,-18],[-124,17],[-69,-3],[-118,7],[-135,21],[-171,38]],[[572,5039],[-34,3]],[[538,5042],[-58,15],[43,27],[49,0],[111,81],[73,72],[-9,38],[-54,38],[-46,72],[732,23],[90,8],[17,-62],[279,1],[2,-65],[-12,-12],[11,-104],[16,-35],[30,-167]],[[1812,4972],[173,-8],[55,2]],[[2040,4966],[-58,-42],[-10,-28],[-767,-6]],[[1205,4890],[-331,-4],[-110,1],[-246,28],[-46,50],[100,74]],[[2334,4861],[-11,-20]],[[2323,4841],[-64,-14],[-47,-35],[-158,-47],[-4,-47],[-334,-8],[-244,-2],[-222,-5]],[[1250,4683],[-9,32]],[[1241,4715],[-11,54]],[[1230,4769],[521,10],[16,-67],[71,16],[20,21],[79,26],[95,3],[114,61],[78,22],[110,0]],[[2083,4415],[-159,37],[-91,6],[-197,-22],[-64,-13],[-131,3]],[[1441,4426],[32,26],[-7,39],[-159,-3],[-29,98]],[[1278,4586],[697,10],[75,8],[28,15],[106,-8]],[[2184,4611],[-31,-64],[75,-16],[-112,-58],[8,-42],[-41,-16]],[[9148,334],[171,-12],[99,-26],[43,-40],[45,4],[15,-28],[52,-25],[-14,-28],[116,-8],[119,-19],[21,-16],[77,-17],[107,-43],[-24,-9],[-128,-8],[-25,-37],[-67,-22],[-64,11],[42,14],[12,32],[-241,-12],[-45,-23],[-17,28],[-67,54],[-27,34],[-139,-11],[-27,33],[-59,5],[-31,35],[-76,41],[6,18],[70,26],[69,-5],[-69,45],[56,9]],[[1230,4769],[-25,121]],[[2040,4966],[152,-4],[64,-20],[74,0],[65,20],[73,-7],[-66,-75],[-68,-19]],[[1230,4769],[-929,-12],[-137,12],[-33,11]],[[131,4780],[-88,17],[76,33],[83,-15],[60,35],[-54,28],[98,18],[-14,18],[46,33],[-21,15],[60,18],[-6,22],[45,25],[122,15]],[[1241,4715],[-53,-34],[-184,10],[-2,-17],[-138,-34],[-145,0],[-50,15],[-115,11],[-17,27],[-169,50],[-68,-11]],[[300,4732],[-190,10],[-104,-3],[0,19],[125,22]],[[1250,4683],[28,-97]],[[1441,4426],[-124,-11],[-75,6],[-91,23],[-62,5],[-87,-16],[-206,-1],[-69,41],[-58,8],[-169,-10],[-76,10]],[[424,4481],[-40,25],[13,35],[-149,4],[-217,34],[128,108],[125,24],[16,21]],[[2323,4841],[-12,-43],[107,-10],[-4,-42],[-63,-67],[-147,-25],[-20,-43]],[[2083,4415],[129,-49],[-25,-11],[66,-14],[131,25],[34,31],[104,-25],[-37,-26],[-134,-26],[71,-75],[-57,-38],[-126,22],[-99,4],[-84,-23],[-154,-19],[-75,-2],[-211,-50],[78,-23],[-72,-5],[108,-47],[-45,-14],[-65,32],[-85,-7],[-68,18],[-81,6],[29,-23],[-48,-7],[-62,20],[65,29],[60,2],[2,32],[-41,3],[31,20],[-7,27],[-122,-7],[-3,67],[78,1],[34,29],[30,49],[-164,10],[-48,23],[-100,30],[-56,6],[-188,-17],[-156,5],[-91,-8],[-73,55],[-132,36]],[[5848,9994],[63,-9],[119,2],[159,-19],[180,-33],[155,-11],[16,-21],[136,8],[81,-26],[211,-20],[-70,-50],[111,-17],[-34,-43],[-64,-31],[-160,0],[-179,-80],[-26,11],[-172,30],[-138,-27],[-61,11],[-146,-63],[-50,-4],[-124,20],[-49,-1],[-61,16],[-105,63],[-213,28],[-169,40],[80,38],[-111,17],[104,32],[22,53],[91,-12],[92,54],[-72,26],[20,11],[275,12],[89,-5]],[[7692,2720],[101,37],[53,7],[139,52],[111,-33],[20,-19],[113,-11],[-46,-24],[-119,8],[-76,-6],[-17,-13],[101,-8],[150,2],[43,-15],[-37,-11],[-65,4],[-39,-56],[-145,16],[-94,-8],[-64,-27],[-39,10],[50,29],[190,20],[-76,20],[-101,8],[-21,15],[-132,3]]]}
