{"type":"Topology","bbox":[-75.82230783212572,6.476423331481352,-75.72914043357616,6.60060578252861],"transform":{"scale":[0.00000931767162211757,0.000012419487053431099],"translate":[-75.82230783212572,6.476423331481352]},"objects":{"municipios":{"type":"GeometryCollection","geometries":[{"type":"Polygon","arcs":[[0,1,2]],"properties":{"codigo":"05761100000000000101","sector":"057611000000000001","pcode":"CO05761","area_m2":1708185}},{"type":"Polygon","arcs":[[3]],"properties":{"codigo":"05761200205005000101","sector":"057612002050050001","pcode":"CO05761","area_m2":52208}},{"type":"Polygon","arcs":[[4]],"properties":{"codigo":"05761200203011000101","sector":"057612002030110001","pcode":"CO05761","area_m2":60358}},{"type":"Polygon","arcs":[[5]],"properties":{"codigo":"05761200101012000101","sector":"057612001010120001","pcode":"CO05761","area_m2":57179}},{"type":"Polygon","arcs":[[6,7,-2]],"properties":{"codigo":"05761100000000000102","sector":"057611000000000001","pcode":"CO05761","area_m2":1858948}},{"type":"Polygon","arcs":[[8,-7,-1]],"properties":{"codigo":"05761100000000000103","sector":"057611000000000001","pcode":"CO05761","area_m2":387212}},{"type":"Polygon","arcs":[[9]],"properties":{"codigo":"05761200203001000101","sector":"057612002030010001","pcode":"CO05761","area_m2":110063}},{"type":"Polygon","arcs":[[10]],"properties":{"codigo":"05761200102003000101","sector":"057612001020030001","pcode":"CO05761","area_m2":37572}}]}},"arcs":[[[9384,1932],[0,19],[-55,8],[-52,-12],[-38,-57],[-45,-8],[-125,43],[-106,22],[-50,45],[-122,-25],[-124,70],[-101,42],[-167,85],[-53,-108],[-66,18],[-167,28],[-8,-28],[19,-51]],[[8124,2023],[-119,11],[-117,-2],[-123,9],[-117,15],[-134,34],[-227,44]],[[7287,2134],[-72,29],[16,29],[5,78],[32,89],[41,79],[34,40],[53,-12],[53,10],[51,102],[69,-18],[34,5],[44,48],[18,97],[-6,34],[22,30],[73,29],[33,-7],[72,31],[81,-19],[102,28],[43,-15],[55,16],[3,31],[53,58],[28,62],[-29,27],[11,22],[-21,40],[47,28],[-6,24],[41,43],[31,-54],[53,-21],[27,-28],[-11,-23],[51,-14],[26,-81],[26,-20],[-11,-25],[31,-23],[119,-20],[-51,-53],[-51,-29],[72,8],[95,50],[4,-46],[46,-40],[12,-29],[28,0],[-25,-68],[-84,-109],[13,-60],[91,-86],[47,-21],[33,-41],[17,-52],[-8,-44],[-99,-36],[-29,-23],[-54,6],[35,-22],[56,-64],[43,69],[-10,36],[81,33],[59,-100],[-1,-13],[130,55],[43,-3],[119,37],[-12,-73],[35,-13],[38,10],[25,26],[29,-16],[22,-40],[-26,-25],[24,-30],[16,-56],[30,-24],[10,21],[33,-15],[-61,-51]],[[240,248],[17,-19],[-18,-65],[-39,-46],[-50,-118],[-87,57],[-63,15],[28,126],[165,36],[28,27],[19,-13]],[[7469,3123],[44,-24],[-63,-43],[-96,-79],[32,-27],[-62,-48],[-24,17],[-84,-44],[-48,64],[36,29],[-33,22],[32,19],[-17,19],[54,3],[58,48],[128,85],[43,-41]],[[9779,8567],[-6,-13],[75,-7],[50,-19],[-5,-31],[24,-18],[-14,-55],[96,-31],[-82,-74],[-27,27],[-79,14],[-110,84],[4,57],[42,85],[32,-19]],[[8124,2023],[171,-36],[116,-17],[202,-22],[-6,-26],[102,-11],[-35,-95],[-35,-16],[-29,-61],[44,-25],[8,-52],[60,-126],[43,-30]],[[8765,1506],[54,-11],[-41,-22],[-11,-51],[-32,-13],[-27,-35],[-41,-23],[-157,4],[-34,-6],[-82,11],[-32,-26],[-82,26],[-190,41],[-136,19],[-12,-22],[-58,10],[-15,25],[-47,18],[-39,-45],[-119,-115],[-60,-50],[-134,-66],[-16,-15],[8,-64],[35,-88],[-114,-18],[-19,54],[-36,-11],[-54,-74],[60,-28],[-30,-31],[15,-50],[-22,-22],[-101,17],[-118,12],[-47,-13],[-54,81],[11,50],[71,32],[50,5],[-59,28],[-110,155],[-38,20],[9,31],[35,27],[-15,70],[-20,38],[-105,124],[-10,64],[-28,25],[56,16],[33,29],[92,-9],[51,10],[109,2],[-68,43],[38,43],[31,-19],[42,1],[57,-39],[57,-1],[-30,134],[29,29],[62,8],[19,55],[-85,78],[47,75],[4,43],[-25,42]],[[9384,1932],[-83,-60],[10,-26],[-112,-20],[-37,-47],[10,-151],[-57,-15],[-103,6],[-77,20],[-18,-77],[-57,-41],[-95,-15]],[[5713,3427],[0,-16],[121,-12],[54,-33],[42,-58],[56,-38],[129,25],[4,-13],[-116,-35],[-49,-23],[-52,12],[-18,38],[-48,-27],[-69,-5],[-14,38],[-72,-17],[14,-44],[-46,3],[-13,38],[-71,-23],[-47,87],[-16,61],[-33,11],[86,8],[-10,51],[91,9],[-9,33],[68,14],[18,-84]],[[9088,9992],[-22,-32],[-61,-32],[34,-14],[-15,-17],[-43,5],[-52,-48],[-23,-65],[19,-50],[-12,-15],[-22,54],[-10,-27],[-87,-37],[-40,-56],[-68,9],[15,29],[57,16],[73,79],[-18,9],[28,39],[59,55],[21,34],[25,-1],[24,33],[78,35],[40,-3]]]}
