{"type":"Topology","bbox":[-75.336925223256,6.27323930986071,-75.25160618522284,6.31203904754446],"transform":{"scale":[0.000008532757079024157,0.000003880361804555511],"translate":[-75.336925223256,6.27323930986071]},"objects":{"municipios":{"type":"GeometryCollection","geometries":[{"type":"Polygon","arcs":[[0,1]]},{"type":"Polygon","arcs":[[-1,2]]},{"type":"Polygon","arcs":[[3]]}]}},"arcs":[[[133,1744],[20,6],[65,110],[102,106],[101,81],[-20,105],[28,124],[104,105],[85,66],[19,-133],[71,11],[30,41],[44,-12],[58,-66],[26,18],[16,77],[42,78]],[[924,2461],[18,-25],[17,-155],[26,0],[25,122],[45,32],[42,-36],[20,-74],[27,-16],[-5,-187],[-69,-20],[-42,31],[-15,-38],[-79,-17],[-53,26],[-35,-68],[-43,-19],[20,-50],[9,-157],[27,-181],[85,38],[69,-101],[61,-184],[34,-37],[-18,-141],[-46,-152],[44,-55],[35,-171],[-22,-100],[12,-100],[-12,-166],[-54,27],[-34,-106],[20,-278],[-76,-62],[-20,-41],[-32,94],[9,251],[39,158],[-73,15],[-12,86],[27,49],[-60,146],[-47,-76],[-28,32],[-28,165],[29,39],[-16,58],[-59,14],[-125,296],[-96,-70],[-47,140],[-87,-277],[5,-126],[-38,-62],[-31,-131],[-4,-104],[-37,106],[-57,35],[-41,80],[-128,123],[27,256],[55,262],[16,-11],[35,196]],[[133,1744],[-26,144],[31,29],[-53,282],[-41,55],[-2,92],[23,58],[46,241],[56,-63],[-34,516],[-18,93],[-41,80],[1,106],[26,40],[53,-16],[-57,99],[7,113],[-10,61],[-63,84],[-8,61],[36,99],[18,214],[12,33],[68,-18],[73,-123],[20,40],[-9,219],[-29,44],[-31,-49],[-49,38],[-2,72],[39,109],[52,204],[-15,149],[57,1],[62,101],[24,-38],[-70,-127],[74,-48],[-4,-60],[29,-196],[93,-63],[114,-26],[18,-58],[-25,-63],[12,-152],[-101,-76],[-52,-129],[-17,-140],[30,-76],[9,-121],[-47,-101],[23,-335],[-3,-38],[44,-105],[35,5],[56,-97],[58,16],[80,-166],[6,53],[43,101],[40,17],[65,-78],[57,-168],[-2,-45],[49,-66],[-39,-111]],[[9886,9999],[64,-14],[13,-140],[23,7],[10,-129],[-92,15],[11,-57],[-71,-53],[-57,12],[3,50],[47,17],[-5,121],[22,33],[5,130],[27,8]]]}