{"type":"Topology","bbox":[-74.46666794475112,6.732237943010713,-73.89155293601902,7.1346819245717565],"transform":{"scale":[0.000057517252598469646,0.000040248422998404226],"translate":[-74.46666794475112,6.732237943010713]},"objects":{"municipios":{"type":"GeometryCollection","geometries":[{"type":"Polygon","arcs":[[0]],"properties":{"codigo":"05893200201014000101","sector":"058932002010140001","pcode":"CO05893","area_m2":15998}},{"type":"MultiPolygon","arcs":[[[1]],[[2]]],"properties":{"codigo":"05893200901015000101","sector":"058932009010150001","pcode":"CO05893","area_m2":8792}},{"type":"Polygon","arcs":[[3]],"properties":{"codigo":"05893200202019000101","sector":"058932002020190001","pcode":"CO05893","area_m2":21448}},{"type":"Polygon","arcs":[[4,5,6,7,8]],"properties":{"codigo":"05893100000000000103","sector":"058931000000000001","pcode":"CO05893","area_m2":175955}},{"type":"Polygon","arcs":[[9,10,11,-6,12]],"properties":{"codigo":"05893100000000000104","sector":"058931000000000001","pcode":"CO05893","area_m2":158052}},{"type":"Polygon","arcs":[[13]],"properties":{"codigo":"05893200201017000101","sector":"058932002010170001","pcode":"CO05893","area_m2":30913}},{"type":"Polygon","arcs":[[14]],"properties":{"codigo":"05893200201018000101","sector":"058932002010180001","pcode":"CO05893","area_m2":18475}},{"type":"Polygon","arcs":[[15,16,17]],"properties":{"codigo":"05893200201003000102","sector":"058932002010030001","pcode":"CO05893","area_m2":59342}},{"type":"Polygon","arcs":[[-16,18,19]],"properties":{"codigo":"05893200201003000103","sector":"058932002010030001","pcode":"CO05893","area_m2":86319}},{"type":"Polygon","arcs":[[-9,20]],"properties":{"codigo":"05893100000000000102","sector":"058931000000000001","pcode":"CO05893","area_m2":73513}},{"type":"Polygon","arcs":[[-7,-12,21,22,23]],"properties":{"codigo":"05893100000000000105","sector":"058931000000000001","pcode":"CO05893","area_m2":1487796}},{"type":"Polygon","arcs":[[24,-5,-21,-8,-24,25,26,27,28,29]],"properties":{"codigo":"05893100000000000106","sector":"058931000000000001","pcode":"CO05893","area_m2":304777}},{"type":"Polygon","arcs":[[-23,30,31,-26]],"properties":{"codigo":"05893100000000000108","sector":"058931000000000001","pcode":"CO05893","area_m2":525128}},{"type":"Polygon","arcs":[[32,-29]],"properties":{"codigo":"05893100000000000110","sector":"058931000000000001","pcode":"CO05893","area_m2":78321}},{"type":"Polygon","arcs":[[-27,-32,33]],"properties":{"codigo":"05893100000000000112","sector":"058931000000000001","pcode":"CO05893","area_m2":50159}},{"type":"Polygon","arcs":[[-19,-18,34]],"properties":{"codigo":"05893200201003000101","sector":"058932002010030001","pcode":"CO05893","area_m2":260547}},{"type":"Polygon","arcs":[[35]],"properties":{"codigo":"05893200904005000101","sector":"058932009040050001","pcode":"CO05893","area_m2":36267}},{"type":"Polygon","arcs":[[36]],"properties":{"codigo":"05893200802008000101","sector":"058932008020080001","pcode":"CO05893","area_m2":35269}},{"type":"Polygon","arcs":[[37]],"properties":{"codigo":"05893201001002000101","sector":"058932010010020001","pcode":"CO05893","area_m2":39792}},{"type":"Polygon","arcs":[[38]],"properties":{"codigo":"05893201202021000101","sector":"058932012020210001","pcode":"CO05893","area_m2":18237}},{"type":"MultiPolygon","arcs":[[[39]],[[40]]],"properties":{"codigo":"05893201501001000101","sector":"058932015010010001","pcode":"CO05893","area_m2":15128}},{"type":"Polygon","arcs":[[41]],"properties":{"codigo":"05893201402009000101","sector":"058932014020090001","pcode":"CO05893","area_m2":16339}},{"type":"Polygon","arcs":[[42,-13,-25,43]],"properties":{"codigo":"05893100000000000101","sector":"058931000000000001","pcode":"CO05893","area_m2":119898}},{"type":"Polygon","arcs":[[-10,-43,44]],"properties":{"codigo":"05893100000000000111","sector":"058931000000000001","pcode":"CO05893","area_m2":48984}}]}},"arcs":[[[9815,8629],[-15,-10],[-13,7],[2,12],[-5,7],[5,9],[6,-9],[21,-8],[-1,-8]],[[4683,7662],[0,-5],[-18,-16],[-10,9],[10,11],[8,-8],[10,9]],[[4675,7666],[-22,11],[3,2],[19,-13]],[[9373,7326],[0,-39],[-19,0],[-9,11],[24,-3],[1,12],[-29,5],[1,5],[15,-2],[2,11],[-3,11],[17,-1],[0,-10]],[[9688,6842],[18,6]],[[9706,6848],[8,-49]],[[9714,6799],[-14,2],[-13,-4],[-14,-39],[-6,-9],[-19,-6],[-8,51]],[[9640,6794],[-14,85],[-2,23],[20,4]],[[9644,6906],[11,-75],[33,11]],[[9733,6848],[12,-5],[41,-49]],[[9786,6794],[12,-18],[2,-10],[7,-9],[-17,2],[-48,1]],[[9742,6760],[-20,0],[-2,3],[-6,36]],[[9706,6848],[27,0]],[[9886,8540],[14,-9],[2,-14],[6,-17],[9,-7],[-4,-16],[-20,10],[1,13],[-7,11],[3,10],[-19,18],[6,11],[9,-10]],[[9999,8319],[-25,-20],[-4,3],[7,12],[14,13],[-3,14],[-8,20],[6,3],[7,-14],[6,-31]],[[9074,8795],[0,-27]],[[9074,8768],[-7,-19],[-12,-24],[-13,0],[-2,36],[-4,32],[0,32]],[[9036,8825],[4,0],[2,-32],[21,-1],[11,3]],[[9074,8795],[10,9],[4,14],[-11,6],[-12,1],[2,19],[-7,15],[-14,8]],[[9046,8867],[-8,7],[2,10],[9,12],[9,-5],[33,-35],[7,-11],[-8,-19],[14,0],[9,7],[-3,-13],[4,-3],[-5,-12],[-13,-14],[-14,-7],[-4,5],[0,-21],[-4,0]],[[9644,6906],[33,10],[11,-74]],[[9742,6760],[7,-6],[9,-19],[0,-34],[11,-48],[0,-60],[-17,-72],[-4,-11],[-17,12],[-6,-12],[-8,0],[-10,31],[-3,-4],[-19,4],[-12,-4],[-32,-37],[-21,11],[-20,4],[4,8],[21,-2],[4,14],[-19,11],[9,32],[-5,18],[7,4],[-1,12],[-7,17],[0,9],[-7,2],[-2,-11],[-9,2],[-7,-36],[-19,4],[3,16],[-19,1],[-10,15],[-4,0],[-4,18],[-10,0],[-6,-5],[-17,6],[-16,-12],[0,-11],[-12,2],[1,15],[-8,-1],[-8,10],[-4,15],[1,18],[-11,7],[-17,31],[20,-1]],[[9448,6723],[7,1],[17,11],[6,-1],[6,-19],[19,-15],[13,2],[11,-9],[18,-10],[23,7],[3,26],[7,22],[1,13],[11,23],[5,20],[9,4],[4,13]],[[9608,6811],[23,-7],[9,-10]],[[9703,6989],[2,-19],[5,1],[6,-21],[-16,-18],[-5,-10],[11,-74]],[[9608,6811],[-11,16],[-18,-12],[-1,7],[14,12],[-6,8]],[[9586,6842],[-4,13],[7,31],[-5,2],[5,18],[5,-3],[3,13]],[[9597,6916],[5,23],[23,-5],[0,47]],[[9625,6981],[8,-1],[-4,-20],[15,-4],[5,-34],[8,6],[11,2],[1,15],[-4,54]],[[9665,6999],[26,-16],[12,6]],[[9448,6723],[-1,19],[-9,29],[8,5],[11,-2],[3,8],[6,-4],[8,8],[8,-3],[-7,16],[6,16],[25,19],[9,24],[-1,32],[40,-26]],[[9554,6864],[24,-14],[8,-8]],[[9625,6981],[0,42],[40,-24]],[[9554,6864],[18,62],[25,-10]],[[9036,8825],[-18,2],[-19,9],[-9,-7],[-3,-10],[-8,0],[3,11],[-13,6],[-15,16],[-8,0],[-8,14],[-4,23],[18,11],[11,14],[9,18],[13,11],[3,-10],[27,16],[-10,16],[3,5],[12,-7],[17,-17],[0,-7],[-18,-10],[0,-19],[-12,1],[-10,-8],[-9,-16],[9,-5],[1,-17],[4,-9],[24,-14],[-1,10],[15,-3],[0,-14],[6,0],[0,32]],[[4389,6762],[-2,-12],[-3,12],[-27,-42],[12,-11],[-8,-9],[-12,12],[0,-12],[-7,-1],[-3,17],[20,32],[2,-4],[16,29],[10,3],[6,-8],[-4,-6]],[[7012,9998],[16,-20],[8,-5],[8,-17],[8,8],[5,13],[8,-17],[-1,-12],[3,-11],[-4,-4],[-8,12],[-9,2],[-6,-8],[-6,16],[-13,5],[-15,31],[6,7]],[[8865,5467],[5,-4],[1,-10],[-12,-8],[7,-33],[-9,-7],[-4,19],[-6,8],[6,13],[-8,5],[-9,-9],[-7,12],[5,16],[11,7],[3,-12],[23,17],[-6,-14]],[[6,1691],[13,-2],[8,5],[12,-13],[10,0],[3,8],[10,-9],[-9,-7],[6,-11],[-12,5],[-19,21],[-11,-5],[-7,-17],[0,14],[-10,7],[6,4]],[[4368,3121],[-3,-13],[-4,2],[-14,-38],[-3,2],[19,47],[6,25],[-3,1],[2,23],[7,-6],[-5,-18],[3,-3],[-5,-22]],[[4410,3165],[-20,4],[0,4],[20,-3],[0,-5]],[[4399,35],[16,-27],[-2,-6],[-7,8],[-7,-4],[-5,4],[-3,21],[4,2],[-10,20],[2,4],[12,-22]],[[9734,6882],[-1,-34]],[[9703,6989],[31,-1],[0,-106]],[[9734,6882],[3,-4],[10,7],[14,-9],[16,-16],[-15,-29],[25,-34],[-1,-3]]]}
