{"type":"Topology","bbox":[-75.66696729241113,6.044325848031417,-75.61777507705943,6.113012064062055],"transform":{"scale":[0.000004919713506520179,0.000006869308533917132],"translate":[-75.66696729241113,6.044325848031417]},"objects":{"municipios":{"type":"GeometryCollection","geometries":[{"type":"MultiPolygon","arcs":[[[0]],[[1]]]},{"type":"Polygon","arcs":[[2]]},{"type":"Polygon","arcs":[[3]]},{"type":"Polygon","arcs":[[4]]},{"type":"Polygon","arcs":[[5,6,7,8,9]]},{"type":"Polygon","arcs":[[10]]},{"type":"Polygon","arcs":[[11,12]]},{"type":"Polygon","arcs":[[13]]},{"type":"Polygon","arcs":[[14]]},{"type":"Polygon","arcs":[[15]]},{"type":"Polygon","arcs":[[16]]},{"type":"Polygon","arcs":[[17,18]]},{"type":"Polygon","arcs":[[19,20,-10,21]]},{"type":"Polygon","arcs":[[22,-7,23,-20,24]]},{"type":"Polygon","arcs":[[25,26,27,28,29,30]]},{"type":"Polygon","arcs":[[31,32,33,34,-28,35]]},{"type":"Polygon","arcs":[[36,37,38,39,40,41]]},{"type":"Polygon","arcs":[[42,43,44,-37]]},{"type":"Polygon","arcs":[[45,46,47,48]]},{"type":"Polygon","arcs":[[49,-31,50,51,52,-8,-23]]},{"type":"Polygon","arcs":[[53,54,55,56]]},{"type":"Polygon","arcs":[[-52,57]]},{"type":"Polygon","arcs":[[58,59,60,61,62,63]]},{"type":"Polygon","arcs":[[64,65,66,67,68,69,-56]]},{"type":"Polygon","arcs":[[-62,70,-32,71,72]]},{"type":"Polygon","arcs":[[73,74,-65,-55,75]]},{"type":"Polygon","arcs":[[-64,76]]},{"type":"Polygon","arcs":[[-61,77,-48,78,-33,-71]]},{"type":"Polygon","arcs":[[-67,79,-40,80,-18,81,82,-47,83]]},{"type":"Polygon","arcs":[[84,85,-29,-35]]},{"type":"Polygon","arcs":[[-85,-34,-79,-83,86]]},{"type":"Polygon","arcs":[[87,88]]},{"type":"Polygon","arcs":[[-88,89,90,-69,91,92,93]]},{"type":"Polygon","arcs":[[-75,94,-41,-80,-66]]},{"type":"Polygon","arcs":[[-36,-27,95,-72]]},{"type":"Polygon","arcs":[[96,97,-43,-42,-95,-74,98,99]]},{"type":"Polygon","arcs":[[100,-93,101,-49,-78,-60]]},{"type":"Polygon","arcs":[[-38,-45,102]]},{"type":"Polygon","arcs":[[103,104,-13,105,-97]]},{"type":"Polygon","arcs":[[-104,-100,106,-57,-70,-91,107]]},{"type":"Polygon","arcs":[[-107,-99,-76,-54]]},{"type":"Polygon","arcs":[[-68,-84,-46,-102,-92]]}]}},"arcs":[[[9727,939],[-14,-75],[47,-26],[7,-34],[121,-173],[58,6],[53,-34],[-125,-2],[-56,24],[-59,69],[-80,5],[-33,-38],[-7,-79],[13,-86],[23,-43],[-29,-15],[12,-82],[-55,-4],[-21,82],[-117,-1],[-4,85],[29,57],[34,16],[-13,76],[48,31],[44,-17],[69,117],[-2,69],[-60,55],[-99,16],[49,50],[55,-2],[112,-47]],[[9650,829],[-23,-8],[-98,68],[75,13],[46,-73]],[[1053,1916],[170,-152],[141,-37],[90,-3],[100,-33],[70,15],[62,56],[19,51],[-19,34],[76,16],[24,-49],[52,-18],[-18,-58],[-93,-87],[-127,-45],[-143,8],[-156,20],[-229,91],[-49,38],[-38,57],[-148,-13],[-23,-11],[-91,-122],[-84,-152],[-10,-43],[38,-120],[81,-188],[73,-143],[33,-182],[-7,-60],[-32,-60],[-108,-133],[-87,-54],[-74,-19],[-275,-14],[-213,8],[-4,52],[-54,35],[37,40],[103,-35],[186,20],[109,-21],[79,3],[153,76],[78,93],[1,87],[-72,207],[-78,196],[-70,64],[-60,111],[-1,39],[120,280],[47,60],[98,71],[137,30],[186,-6]],[[3920,7234],[24,-82],[61,9],[12,-72],[124,-37],[24,-28],[-55,-38],[-85,-1],[-176,79],[-117,33],[-122,-57],[-66,98],[83,24],[23,55],[65,-2],[205,19]],[[9032,8915],[34,-5],[58,-49],[29,58],[56,-92],[-68,-11],[4,-72],[37,12],[17,-52],[96,-46],[41,3],[73,-57],[-5,-68],[75,-26],[-5,-37],[-86,-10],[-86,-79],[-135,65],[-98,-30],[-129,3],[-115,63],[-53,74],[38,17],[91,-46],[97,-20],[116,33],[66,38],[-24,41],[-76,35],[9,38],[-62,-12],[-112,60],[74,16],[-33,20],[11,94],[-25,33],[28,20],[62,-11]],[[5422,9440],[-41,-131],[213,-64],[-41,-56]],[[5553,9189],[2,-22],[82,-8],[257,-40]],[[5894,9119],[-83,-86],[-79,-22]],[[5732,9011],[-163,-15],[-31,-24],[-253,-14],[-40,35],[16,33],[-63,32],[7,31],[75,-10],[14,66],[-80,30],[-154,22],[20,148],[-35,168],[163,23]],[[5208,9536],[114,19],[58,-40],[60,-17],[-18,-58]],[[9088,6494],[50,20],[122,-15],[40,-48],[127,23],[198,-8],[-19,-79],[-78,8],[-32,-29],[-75,15],[18,-37],[130,-24],[60,9],[9,-39],[-142,-7],[40,-52],[-74,35],[-87,74],[-44,-38],[-57,76],[-237,64],[-30,23],[0,63],[81,-34]],[[6317,3468],[190,-90],[-36,-57],[-73,-60],[-92,-9],[-14,86],[-38,-31],[-35,40],[-117,29],[-91,-58],[-156,-129],[-57,-24],[-178,-7],[-31,21],[128,26],[113,68],[-41,22],[20,63],[51,89],[84,52],[76,-24],[53,17],[66,68]],[[6139,3560],[57,-27],[2,-62],[-30,-29],[47,-27],[102,53]],[[4336,2681],[0,-32],[-46,-44],[48,-17],[-82,-73],[-10,-79],[-119,69],[-94,-11],[-111,-54],[-80,-61],[-42,-72],[20,-10],[136,25],[12,-16],[-105,-17],[-86,-46],[-35,-46],[-17,-68],[-86,14],[-73,-99],[65,-22],[-70,-4],[-6,-89],[-63,-104],[-144,4],[-64,-21],[-66,17],[33,71],[-102,36],[-61,-3],[-31,-37],[-129,-80],[-84,-37],[-47,22],[-211,-36],[-192,-38],[-178,-5],[-108,51],[38,-5],[29,36],[50,-48],[79,-8],[164,23],[165,32],[195,26],[84,25],[131,77],[49,44],[96,-2],[33,62],[50,-66],[59,-11],[12,-85],[123,24],[40,33],[11,72],[-19,78],[29,11],[72,114],[-38,43],[34,17],[30,-35],[62,41],[-5,38],[65,8],[81,106],[64,46],[134,50],[-6,54],[29,-4],[11,61],[71,55],[40,-14],[100,60],[-7,49],[96,19],[10,-61],[-33,-53]],[[8266,1359],[30,-13],[111,14],[256,9],[34,-40],[-163,-13],[-76,8],[-70,-13],[59,-65],[161,-13],[29,-48],[-86,12],[-45,-27],[52,-78],[29,-101],[95,-113],[-4,-34],[110,-60],[69,-150],[205,-6],[-20,-70],[-287,-32],[-5,-45],[-77,-10],[-8,-124],[-97,-72],[-18,13],[-93,-71],[-55,-64],[-84,-153],[-10,5],[67,151],[42,59],[114,77],[81,74],[12,167],[-120,279],[-7,100],[53,63],[-11,94],[-45,75],[-68,54],[-92,29],[-113,54],[16,19],[-63,76],[15,44],[77,-61]],[[5611,3154],[-72,-5],[-99,-93],[-73,-135],[-31,-29],[-139,-84],[-65,-68],[-65,-92],[-28,-90],[5,-85],[-44,-70],[20,-29],[-20,-78],[69,-55],[55,39],[43,-9],[74,-106],[59,-1],[161,-35],[98,119],[116,90],[31,42],[60,26],[82,96],[50,3],[33,72],[132,-25],[37,88],[1,102],[-72,20],[73,71],[-13,62],[33,107],[47,-14],[-24,-32],[3,-146],[-37,-250],[-1,-98],[57,-66],[16,-49],[5,-133],[-9,-68],[-88,-77],[-122,-31],[-55,-37],[-11,-112],[59,-52],[33,-57],[90,-108],[82,-123],[54,-145],[-69,-75],[-35,-11],[-32,-99],[-20,4],[16,110],[96,104],[-118,206],[14,8],[-100,95],[-58,105],[-37,42],[-40,-16],[-132,-6],[-24,58],[-98,25],[-75,3],[-57,93],[4,-85],[37,-77],[83,-121],[19,-65],[-34,-64],[-35,43],[-77,17],[-86,69],[-106,140],[-57,27],[-74,-32],[-117,9],[63,39],[29,-6],[35,38],[-8,42],[-47,18],[-22,53],[13,44],[-36,21],[-16,55],[-65,28],[-32,61],[53,186],[-16,105],[56,75],[72,67],[-65,40],[93,15],[115,99],[56,25],[19,76],[56,22],[40,72],[53,53],[131,40],[25,-25]],[[5010,8957],[50,-71],[107,-17],[59,-23],[106,13],[-6,-77],[72,-27],[-26,-42],[-65,-15],[-90,1],[-10,-108],[26,-51],[55,-4],[44,32],[52,-80],[-50,-56],[-94,-11],[-88,49],[-103,-10],[-132,38],[-75,-1],[-40,-29],[-10,28],[-111,60],[-41,-17],[-44,51],[-30,-11],[-68,45],[-192,1],[53,69],[153,50],[1,-16],[83,-46],[101,23],[30,30],[74,16],[104,-36],[32,37],[20,126],[-32,58],[44,29],[41,-8]],[[4875,6246],[37,-73],[55,30]],[[4967,6203],[-32,-39],[-80,-44],[-94,-4],[6,32],[-46,28],[-165,-5],[8,34],[62,65],[-89,-12],[-17,-43],[-58,-69],[-16,20],[-75,-34],[-36,65],[40,39],[-169,21],[-37,34],[6,89],[-40,1],[-74,-34],[-81,-73],[-52,-20],[-113,-80],[-11,-24],[-50,18],[36,37],[102,62],[-15,11],[40,69],[56,18],[60,46],[35,58],[1,49],[31,74],[-63,5],[3,29],[80,-5],[-15,-119],[54,-28],[153,-23],[86,2],[-67,-82],[66,-12],[11,26],[74,-35],[-26,-46],[111,1],[89,-14],[80,71],[47,69],[-25,0],[10,83],[25,-17],[6,-95],[76,-156]],[[5684,9748],[6,-66]],[[5690,9682],[-107,-90],[3,-18],[136,-64],[-32,-49],[-156,18],[9,-48],[38,-3],[-36,-42],[-49,53],[-74,1]],[[5208,9536],[-35,5],[33,44],[-122,-10],[-66,44],[-31,90],[24,13],[-46,75],[-79,30],[37,17],[99,-33],[16,53],[59,14],[85,-23],[193,-12],[193,-58],[54,-32],[62,-5]],[[6348,8940],[-101,-6],[-43,-81],[-2,50],[-31,57],[45,70],[-155,71],[-167,18]],[[5553,9189],[81,17],[96,60],[79,9],[133,-33],[34,-21],[126,-36],[-7,108],[-178,38],[-19,12],[-4,86],[37,84],[-55,46],[-40,58],[-46,28],[34,41],[-134,-4]],[[5684,9748],[65,23],[194,-19],[162,48],[62,-23],[3,51],[148,143],[49,20],[107,8],[2,-96],[80,-145],[-80,-65],[-48,-57],[-3,-56],[54,-114],[56,-87],[-21,-66],[-82,-91],[-93,-134],[-25,-74],[34,-74]],[[6262,8442],[44,-183],[26,-37],[27,-140]],[[6359,8082],[-113,-3],[-22,-49],[-159,-198],[3,-54]],[[6068,7778],[-128,-28]],[[5940,7750],[-177,44],[-63,60],[-5,38],[-47,20]],[[5648,7912],[-104,38],[-155,117],[17,91],[300,84],[145,-24],[28,145],[-48,122],[-122,-31],[-8,11]],[[5701,8465],[136,94],[119,-7],[56,-18],[76,8],[47,-97],[34,62],[37,-72],[56,7]],[[6214,7532],[-38,-37],[-79,-30],[-61,-67],[0,-39],[-36,-30]],[[6000,7329],[-91,-53],[-8,-106],[-58,-27],[-48,-77],[-180,-93]],[[5615,6973],[-31,35]],[[5584,7008],[-4,73],[52,112],[88,147],[110,212],[110,198]],[[6068,7778],[25,-100],[121,-146]],[[6186,5516],[-114,27],[-56,-16],[-87,-57],[-81,28],[-92,-10]],[[5756,5488],[-88,16],[112,88]],[[5780,5592],[148,75],[48,-41],[79,19],[138,-20],[35,-60],[135,65],[5,40],[-59,-22],[-32,43],[17,55],[-27,17],[-124,-10],[-13,27],[-81,-16],[-79,25],[11,21]],[[5981,5810],[90,17],[30,42],[8,84]],[[6109,5953],[42,-69],[49,-42],[61,-21]],[[6261,5821],[148,-61],[29,-74],[-28,-62],[-34,-25],[-190,-83]],[[6186,5516],[-300,-119],[-36,-68],[23,-66]],[[5873,5263],[-42,31],[-106,-25],[-10,70],[-92,50],[-8,51]],[[5615,5440],[141,48]],[[6658,6865],[-46,1],[-10,-129],[-572,-11],[-184,-11]],[[5846,6715],[-169,183]],[[5677,6898],[155,56],[443,13],[333,17],[145,-5]],[[6753,6979],[-60,-50],[-35,-64]],[[6348,8940],[33,-72],[-8,-49],[-70,-156],[-21,-73],[-43,-72],[23,-76]],[[5701,8465],[13,65]],[[5714,8530],[-29,56]],[[5685,8586],[-28,42],[-53,-9],[7,48],[-68,2],[2,78],[33,37],[9,96],[-122,-19],[-28,17],[200,48],[28,-17],[94,51],[-27,51]],[[6729,5720],[69,33],[43,-54],[214,81],[-39,56],[-80,-30],[-78,105],[-171,-53]],[[6687,5858],[-15,106],[-16,260]],[[6656,6224],[128,2],[6,13],[136,39]],[[6926,6278],[45,-73],[-20,-75],[90,-24],[184,-77],[4,-69],[25,-45],[62,-38],[-67,-118],[-90,-44],[-144,-40],[-86,17],[-83,-4],[-117,32]],[[5714,8530],[-76,-22],[-34,36],[81,42]],[[8221,7640],[-77,-81],[123,-85],[97,-106],[28,-108],[-149,0],[25,-80]],[[8268,7180],[-86,3],[-27,31],[-104,7],[-77,30],[-123,-46],[-125,-6],[-152,-41],[-73,-2],[-46,-52],[-189,-30],[-362,31]],[[6904,7105],[-78,143]],[[6826,7248],[-41,86],[-314,167]],[[6471,7501],[63,13],[92,-4],[84,26],[209,10],[198,-13],[178,24],[-4,49],[82,17],[82,34],[37,-13],[102,41],[91,-22],[54,13],[55,121],[33,32],[103,49],[169,40],[56,65],[133,10],[47,28]],[[8335,8021],[67,-52],[5,-57],[146,-76],[-65,-44],[-58,14],[-66,-15],[-143,-151]],[[6656,6224],[-3,36],[-321,-13]],[[6332,6247],[-78,-5]],[[6254,6242],[-83,116],[-66,50]],[[6105,6408],[71,21],[-27,60],[630,10],[4,60],[53,-1]],[[6836,6558],[40,-84],[24,-88]],[[6900,6386],[26,-108]],[[6826,7248],[-60,-27],[-507,-20],[-238,-6],[-82,18],[79,95],[-18,21]],[[6214,7532],[9,-14],[148,46]],[[6371,7564],[100,-63]],[[6481,5779],[-83,72]],[[6398,5851],[-41,63],[-25,333]],[[6687,5858],[-206,-79]],[[8335,8021],[61,55],[145,-3],[74,-40],[66,3],[129,94],[2,56],[42,9],[135,-29],[41,-23],[54,36],[55,75],[86,37],[76,55],[90,-51],[32,-66],[59,-24],[24,-66],[-65,-11],[9,-22],[-128,-32],[20,-29],[-93,-26],[8,-43],[-31,-45],[13,-38],[63,-7],[38,-73],[151,65],[49,2],[41,-48],[59,-109],[-214,-192],[69,-22],[-34,-29],[-46,26],[-52,-21],[-75,-78],[-110,-13],[-41,27],[-32,-36],[-114,30],[-108,51],[-79,2],[23,33],[74,28],[-37,25],[-83,-23],[-56,1],[-202,51],[-302,57]],[[6904,7105],[-4,-46],[-89,-61],[-58,-19]],[[5677,6898],[-62,75]],[[6254,6242],[-71,-19],[33,-31],[47,8],[-22,-63],[-108,-116],[-24,-68]],[[5981,5810],[6,92],[-79,68],[15,63],[37,14],[-14,48],[16,46],[-16,55],[-52,58],[43,59],[-73,8],[-62,94],[-170,-73],[35,-126],[-49,16],[-126,-14],[-9,70],[-242,-83],[-85,24],[-125,12],[-5,-31],[-59,-7]],[[4875,6246],[66,26],[38,-35],[48,-3],[27,33],[107,35]],[[5161,6302],[88,35],[107,62],[75,55],[86,44],[53,44],[-8,68],[39,103],[-109,117],[185,68]],[[5846,6715],[171,-213],[88,-94]],[[5584,7008],[-98,-42],[-160,-20],[-47,-22],[-74,-67],[-175,-17],[-96,49]],[[4934,6889],[1,35],[-51,171],[-105,78],[49,19],[80,-31],[25,68],[127,-51],[255,-25],[-45,70],[85,119],[-2,59],[-81,29],[24,60],[-36,6],[12,36],[57,56],[-40,11],[59,55],[59,-37],[27,43],[112,44],[8,66],[54,22],[41,67],[-1,53]],[[5161,6302],[-37,53],[-58,203],[13,52],[-81,-14],[-13,60],[-161,56],[-31,-19],[-63,32],[-73,-70],[-32,56],[-174,-21],[-74,-19],[-60,9],[-136,-11],[-70,-32],[14,68],[115,4],[-7,81],[13,56],[50,25],[66,63],[17,105],[267,-66],[48,-61],[82,19],[121,-55],[37,13]],[[7866,6222],[-1,55],[26,97],[44,3],[31,180],[58,-3],[9,92]],[[8033,6646],[264,-58],[-13,-78],[28,-68],[59,0],[249,-50],[58,-21],[16,-63],[-5,-64],[54,-26],[-9,-59],[37,-70],[-14,-38],[-1,-119],[-40,14],[-129,-23],[15,-22],[-57,-22],[-80,4],[-109,-113],[-48,-32],[-97,30],[-106,11],[-47,25],[25,50],[141,16],[75,75],[3,21],[-78,39],[48,50],[-10,27],[27,74],[-41,76],[-36,17],[-114,-11],[-57,-17],[-41,40],[-68,-1],[-66,-38]],[[7866,6222],[-29,-27],[-39,-106],[-53,-7],[-18,-38],[-48,-4],[-59,26],[-6,30],[-111,53],[-75,23],[-54,-30],[-2,-49],[91,-98],[-12,-62],[-52,-23]],[[7399,5910],[-221,460],[-223,20],[-55,-4]],[[6836,6558],[-14,96]],[[6822,6654],[157,5],[293,-61],[100,-35],[70,5],[264,61],[51,40]],[[7757,6669],[74,17],[68,-28],[129,4],[5,-16]],[[6398,5851],[-27,-15],[-110,-15]],[[6359,8082],[17,-104],[51,-52],[15,-71],[-18,-55],[-80,-105],[-12,-48],[39,-83]],[[6494,4790],[-84,5]],[[6410,4795],[-13,120],[-23,-3],[-51,77],[-40,104],[-103,12],[25,28],[-60,32],[-77,-39],[-31,65],[-127,21],[-83,-90],[-59,44],[105,97]],[[6481,5779],[56,-158],[59,-136]],[[6596,5485],[18,-263],[-32,-83],[-144,-173],[5,-47],[33,-29],[-3,-71],[21,-29]],[[8268,7180],[117,30],[85,-51],[22,-62],[-144,11],[26,-47],[-58,-17],[53,-35],[89,-15],[-108,-51],[-93,-87],[-81,-33],[-152,-1],[-179,-15],[-110,0],[-104,-14],[-102,17],[39,-49],[189,-92]],[[6822,6654],[-175,180],[11,31]],[[5615,5440],[-157,-32],[3,-39],[-117,18],[18,32],[-105,16],[-27,-30],[-33,116],[50,8],[93,88],[29,44],[89,45],[64,10],[-9,85],[292,51],[18,-32],[97,-9],[8,-39],[-92,-86],[-11,-27],[-65,-28],[20,-39]],[[6494,4790],[64,-43],[-1,-50],[-82,-47],[-6,-35]],[[6469,4615],[97,-112],[-21,-74],[4,-74],[85,-119],[0,-65],[68,-2],[-8,-132],[39,2],[34,-33],[-15,-70],[-101,-6],[-38,-118],[6,-75],[-56,-39],[2,-73],[-51,-51],[-197,-106]],[[6139,3560],[148,183],[63,13],[-1,42],[-57,83],[-35,87],[59,20],[61,-10],[22,46],[79,21],[-34,47],[-49,14],[-147,-36],[41,39],[-10,29],[-144,-78],[-53,-5],[54,59],[-41,33],[43,67],[-44,64],[51,15],[32,-31],[-15,66],[-120,-53],[-197,-10],[-70,101],[25,18],[2,62],[110,-3],[54,43],[130,64],[26,25],[149,3],[73,-71],[143,-78],[-17,76],[-70,49],[-55,71],[-1,38],[66,132]],[[6596,5485],[243,57],[2,17],[-110,138],[-2,23]],[[7399,5910],[37,-87],[-21,-108],[-91,-117],[-17,-51],[20,-64],[107,-119],[17,-40],[-17,-94],[-185,-366],[-51,-65],[-229,-208],[-62,68],[-71,-17],[-97,10],[-53,-14],[-174,-8],[-43,-15]]]}