{"type":"Topology","bbox":[-75.71089199294477,6.019054350454985,-75.68999267030642,6.083765248690947],"transform":{"scale":[0.000002090141277962067,0.000006471736997295917],"translate":[-75.71089199294477,6.019054350454985]},"objects":{"municipios":{"type":"GeometryCollection","geometries":[{"type":"Polygon","arcs":[[0,1]]},{"type":"Polygon","arcs":[[2]]},{"type":"Polygon","arcs":[[3]]},{"type":"Polygon","arcs":[[4]]},{"type":"Polygon","arcs":[[-1,5]]},{"type":"Polygon","arcs":[[6]]},{"type":"Polygon","arcs":[[7,8]]},{"type":"Polygon","arcs":[[9,10,11,12]]},{"type":"Polygon","arcs":[[13,14,15,16]]},{"type":"Polygon","arcs":[[17,18,19,-10,20]]},{"type":"Polygon","arcs":[[-19,21,22,23,-14,24]]},{"type":"Polygon","arcs":[[-12,25,-16,26]]},{"type":"Polygon","arcs":[[-20,-25,-17,-26,-11]]},{"type":"Polygon","arcs":[[27,-22,-18,28]]},{"type":"Polygon","arcs":[[-23,-28,29,-8,30]]}]}},"arcs":[[[5799,8232],[71,-41]],[[5870,8191],[209,-133],[534,-102],[314,50],[-179,58],[92,119],[136,25],[153,2],[321,-45],[146,17],[48,-36],[-204,-20],[-172,-35],[-126,-114],[121,-77],[-174,-10],[-201,-34],[-259,-21],[117,-45],[51,-77],[159,17],[134,-106],[-364,-127],[-311,-98],[2,-67],[-167,-8],[-86,68],[-72,-25],[-271,-8],[-9,-19],[-534,-14],[-140,-32],[257,-145],[42,-37],[-373,200],[-67,-11],[-94,-67],[-114,30],[-123,-2],[-22,28],[249,17],[-250,175],[-150,18],[-318,-11],[-382,-102],[-135,58],[-331,117],[282,84],[24,41],[189,68],[33,42],[139,3],[84,45],[135,21],[52,42],[743,105],[95,73],[140,29],[44,54],[93,17],[-50,30],[141,44],[217,4],[111,-32]],[[1064,7406],[200,-42],[7,-44],[-80,-2],[-33,-83],[103,-131],[93,-25],[-162,0],[-118,-47],[62,-6],[198,41],[252,-38],[-372,-172],[-241,-75],[-182,-93],[-19,-39],[164,-17],[120,38],[-48,-91],[70,-36],[241,-11],[188,-47],[-36,-35],[-242,53],[-69,-59],[-95,-1],[2,-36],[-101,0],[-85,-74],[-166,-4],[-127,48],[-170,7],[69,114],[131,4],[77,48],[-45,52],[35,75],[-304,-48],[-241,-55],[-44,-67],[-49,51],[286,82],[238,43],[28,37],[-266,95],[151,94],[15,49],[89,21],[18,76],[324,29],[96,38],[-138,11],[142,16],[-57,34],[56,45],[-149,71],[120,56],[78,1],[-106,52],[92,-3]],[[2223,6173],[98,-24],[100,-71],[123,-44],[-101,-26],[-96,10],[-14,-41],[-143,-45],[99,-20],[-78,-37],[43,-86],[77,-34],[-149,-122],[-282,-49],[-95,18],[28,50],[-234,98],[-231,-40],[-91,90],[509,265],[-186,44],[-9,22],[202,71],[45,93],[93,13],[8,-57],[284,-78]],[[9786,4726],[213,-174],[-679,85],[-146,-61],[-84,11],[-106,70],[-137,-7],[-235,22],[-662,-128],[-154,14],[-80,68],[-84,4],[-141,-64],[-287,8],[-135,-22],[-205,-69],[-171,4],[298,66],[244,88],[298,46],[94,29],[-68,40],[-154,25],[444,50],[308,67],[562,135],[259,-73],[108,-56],[194,-40],[340,-39],[166,-99]],[[5799,8232],[-40,36],[75,46],[56,111],[-173,43],[-48,-36],[-338,-1],[-234,-40],[-92,27],[-128,-42],[-263,-42],[36,-111],[205,-13],[-18,-59],[-239,-57],[-107,20],[-118,-26],[29,-40],[-130,-62],[-114,27],[68,115],[-161,82],[299,-6],[-55,45],[148,-9],[129,17],[-133,75],[-169,33],[-7,76],[51,3],[-78,97],[-76,-5],[-144,54],[-213,-25],[5,-40],[-135,33],[-234,-17],[-251,25],[249,13],[217,71],[-4,48],[-305,90],[218,71],[251,5],[175,-20],[50,75],[-292,142],[-234,33],[-144,-3],[-123,23],[-31,56],[91,12],[-30,40],[378,22],[-223,112],[-121,-14],[-158,102],[214,72],[169,112],[380,76],[166,125],[40,72],[241,64],[14,34],[94,-28],[289,15],[50,-128],[139,-104],[192,-66],[93,-69],[-93,-112],[-121,73],[-36,-24],[-28,-115],[110,-65],[94,-11],[167,-87],[64,12],[109,-116],[123,-6],[-255,-96],[88,-60],[-9,-47],[220,1],[99,-86],[-122,-90],[143,-33],[100,13],[178,-12],[65,22],[99,122],[133,-16],[92,-52],[-96,-84],[73,-80],[-92,-63],[59,-42],[267,-36],[-63,-12],[-473,-208],[-219,-68],[-53,-50]],[[8560,5788],[-73,-73],[229,-32],[233,99],[157,-55],[-160,-62],[-6,-59],[211,23],[0,-55],[-201,-56],[-47,-39],[13,-71],[105,-93],[-206,21],[-23,177],[-299,-65],[-232,-9],[-134,-92],[-231,53],[7,81],[-125,59],[-89,-20],[-74,-131],[-197,38],[-122,60],[-142,-29],[-68,49],[-197,9],[107,37],[22,153],[298,12],[200,41],[73,-28],[116,2],[-30,-47],[143,-18],[136,74],[155,-30],[10,24],[171,13],[-67,45],[-118,24],[49,48],[161,62],[62,-8],[4,-66],[179,-66]],[[4623,1008],[128,-11],[217,9],[92,54],[171,44],[80,51],[3,153]],[[5314,1308],[425,26],[394,43],[175,29],[187,119],[61,103],[29,209],[143,79],[287,52],[-38,52],[2,93],[81,50],[198,-89],[111,60],[-143,23],[40,26],[341,-32],[-430,90],[143,64],[94,10],[475,-126],[119,-72],[-411,-25],[-286,-49],[49,-19],[124,24],[84,-12],[-88,-68],[171,-30],[-143,-84],[-173,-28],[-163,6],[-483,-7],[49,-69],[220,-113],[40,-66],[275,-23],[297,-85],[464,9],[34,-36],[-285,-16],[-177,-60],[-300,10],[7,53],[-123,44],[-192,-82],[-366,-33],[5,-53],[158,-101],[388,-23],[243,-92],[295,-25],[49,-28],[-234,-25],[-155,7],[-52,53],[-308,32],[29,-77],[-75,-18],[-99,25],[-181,-19],[-360,83],[-128,17],[95,-87],[-92,-30],[-473,-14],[1,-65],[-159,2],[-152,46],[74,-117],[-203,-47],[84,-38],[-76,-95],[233,9],[135,-10],[-88,-119],[-2,-171],[-243,-20],[33,-56],[-37,-41],[341,20],[22,-46],[-416,-40],[81,-101],[-177,-48],[-80,-42],[-106,-4],[-199,133],[-17,55],[-230,29],[-37,-27],[-376,76],[-200,-10],[11,66],[-98,74],[-177,-18],[171,67],[376,49],[30,-18],[410,41],[145,69],[218,48],[-123,125],[-97,63],[-162,-25],[-427,-15],[-90,97],[188,26],[63,54],[207,0],[35,49]],[[5040,3729],[-114,-61],[57,-30],[261,1],[191,-21],[229,-92],[5,-31],[-239,-56],[-94,-102],[-114,-36]],[[5222,3301],[-190,-16],[-256,26],[-1174,100]],[[3602,3411],[209,241],[-729,55],[168,218],[-13,71],[-352,160]],[[2885,4156],[138,6],[97,-26],[198,23],[67,44],[183,19],[9,-126],[326,50],[189,4],[248,-18],[88,25],[218,-31],[126,14],[46,90],[-28,116],[71,43],[89,-1],[167,-52],[186,-36],[177,2],[374,-50],[189,-13],[40,85],[127,30],[67,74],[133,-10],[153,42],[220,-23],[-134,-56],[-101,7],[-112,-93],[-29,-113],[45,-41],[173,-41],[151,-59],[20,-54],[-97,-36],[-178,-4],[-314,29],[-413,-37],[-281,-46],[-381,30],[-181,-17],[-45,-75],[107,-44],[27,-58]],[[3284,3034],[-222,-243],[-109,-136],[-108,-80],[-16,-98],[343,-36],[-58,-38],[-127,15],[-169,-134],[-146,17]],[[2672,2301],[24,27],[-563,25],[-36,177],[36,0],[7,125],[185,50],[-227,-12],[-205,36],[-81,75],[61,11],[-1,57],[88,13],[69,-44],[186,10],[316,-13],[184,11],[16,240],[-166,3],[-34,-37],[-356,11],[-4,-111],[-264,-29]],[[1907,2926],[-120,85],[-17,64],[192,270],[326,20],[300,48]],[[2588,3413],[-116,-59],[332,-137],[222,-23],[-94,-124],[352,-36]],[[4813,2321],[51,132],[-26,110],[-46,32],[-451,37],[-145,20]],[[4196,2652],[129,143]],[[4325,2795],[371,-38],[-8,-51],[254,-20],[40,76],[-114,27],[-164,128],[129,74],[6,62],[157,64],[-11,30],[395,-38],[-9,38],[-149,154]],[[5040,3729],[306,-12],[232,-55],[230,-73],[151,-23],[253,-117],[16,-56],[-56,-46],[34,-49],[195,-72],[327,-230],[-227,28],[-272,-231],[-29,-55],[225,-18],[166,-38],[314,-173],[76,-100],[-49,-78],[219,32],[195,10],[-484,-61],[-380,-30],[-84,4],[-266,-48],[-161,91],[-134,48],[-72,131],[-73,34],[-179,-76],[-64,-117],[-297,-45],[-268,28],[-71,-11]],[[4196,2652],[-365,67],[-357,36],[-122,-141],[281,-214],[225,-99],[89,-69],[-19,-163],[78,-54],[242,-116],[272,-83],[156,-176],[28,-61],[-62,-123]],[[4642,1456],[-190,-7],[-75,-47],[-193,-37],[-79,114],[56,35]],[[4161,1514],[167,37],[23,40],[-225,70],[-66,123],[-65,15],[10,64],[-180,112],[-241,-17],[-45,20],[-555,97],[-190,-97],[46,-48],[133,-35],[-113,-65],[-124,-27],[-237,45],[53,78],[-64,9],[44,106],[-63,22],[112,182],[91,56]],[[3284,3034],[393,-34],[761,-86],[-113,-119]],[[3602,3411],[-889,81],[-274,30],[-45,-58],[194,-51]],[[1907,2926],[-77,-13],[-201,107],[-34,92],[-72,44],[-256,-40],[-125,19],[108,69],[8,88],[98,17],[162,74],[-121,-2],[-60,40],[141,109],[321,55],[131,53],[96,66],[-101,9],[13,76],[138,113],[38,-9],[4,92],[66,56],[-48,111],[109,20],[289,-51],[261,3],[90,32]],[[5172,1361],[-530,95]],[[4813,2321],[36,-122],[264,-151],[207,-83],[157,-25],[382,-4],[-54,-74],[-115,-16],[-192,4],[-159,29],[-143,-4],[-69,-64],[227,-74],[-183,-134],[145,-44],[-143,-69],[89,-76],[-90,-53]],[[5172,1361],[142,-53]],[[4623,1008],[89,124],[-81,31],[-240,-12],[-291,14],[-45,-52],[-349,16],[-94,-25],[-67,-152],[300,-92],[-148,-73],[84,-41],[-188,-11],[-61,44],[-274,-13],[72,86],[-77,11],[-193,114],[-185,39],[-152,59],[64,48],[-136,-17],[-141,99],[-99,-32],[-173,4],[121,29],[-14,54],[-75,38],[196,36],[-108,82],[9,42],[-295,84],[-296,-16],[-155,-51],[-70,66],[331,25],[317,58],[272,165],[198,-32],[-100,-204],[241,-66],[221,-78],[115,-90],[249,16],[99,62],[-42,57],[619,122],[90,-62]]]}
