{"type":"Topology","bbox":[-75.91449852043456,6.005472635392849,-75.8397196962191,6.122517182488697],"transform":{"scale":[0.000007478630284574158,0.000011705625272112065],"translate":[-75.91449852043456,6.005472635392849]},"objects":{"municipios":{"type":"GeometryCollection","geometries":[{"type":"Polygon","arcs":[[0]]},{"type":"Polygon","arcs":[[1,2,3,4]]},{"type":"Polygon","arcs":[[-4,5,6]]},{"type":"Polygon","arcs":[[-3,7,8,9,-6]]},{"type":"Polygon","arcs":[[-9,10,11]]},{"type":"Polygon","arcs":[[12]]},{"type":"Polygon","arcs":[[13]]},{"type":"MultiPolygon","arcs":[[[-8,-2,14,-11]],[[15]]]}]}},"arcs":[[[674,2921],[42,0],[9,-14],[-17,-10],[17,-25],[6,-25],[28,-11],[-55,-26],[25,-29],[-30,-10],[-6,-41],[-32,1],[-9,-12],[-5,-47],[-20,-5],[2,37],[-7,35],[-14,19],[-4,25],[21,8],[-21,13],[1,33],[-21,13],[-12,18],[80,37],[3,13],[19,3]],[[997,3264],[2,4],[-65,30],[55,47],[7,10],[58,48]],[[1054,3403],[61,46],[61,-36],[25,-9]],[[1201,3404],[14,-8],[12,-21]],[[1227,3375],[19,-40],[4,-40],[33,-33],[21,12],[100,-60],[27,-33],[25,-7],[38,11],[79,-90],[-54,-13],[-14,-15],[-11,4],[1,-32],[85,-8],[79,-20],[30,-23],[-20,-4],[-49,-51],[20,-20],[5,-39],[34,-33],[36,-19],[50,-18],[-18,-16],[-47,-31],[23,-29],[52,-25],[52,-11],[-2,-19],[14,-32],[-7,-1],[-26,31],[-81,22],[1,22],[-21,-6],[-29,17],[-30,33],[-24,6],[-65,31],[-28,32],[2,36],[26,34],[-24,26],[17,17],[-65,32],[-24,0],[-1,12],[-19,11],[-16,45],[5,37],[-37,-17],[-17,-24],[-22,-13],[-45,31],[-23,-3],[-5,25],[11,10],[-7,19],[6,18],[77,45],[-86,59],[-19,24],[-26,12],[-37,-13],[-37,22],[-67,0],[-28,-42],[-71,33]],[[1201,3404],[61,57],[-305,141],[-100,45],[-41,21],[-8,27],[-12,10],[-4,39],[-16,18],[-30,-5],[-46,20],[-21,21],[-15,30]],[[664,3828],[-1,10],[44,20],[15,2],[44,-14],[25,27],[18,26],[21,-1],[108,-38],[-51,-50],[10,-9],[-19,-35],[50,-21],[26,26],[18,-5],[77,0],[-50,-64],[33,-5],[32,4],[79,18],[58,-12],[27,-30],[15,-10],[14,6],[32,-32],[68,24],[61,1],[27,-25],[-5,-5],[59,-17],[2,-24],[-19,1],[-42,-30],[-14,-19],[-11,-35],[-13,-21],[40,-20],[40,-62],[49,-39],[-157,-71],[-19,-6],[-54,3],[-11,8],[-23,43],[-31,30],[-9,-2]],[[1054,3403],[-134,65],[-172,81],[-19,36],[-27,30]],[[702,3615],[-14,13],[-34,-3],[-35,-25],[-31,-8],[-10,5],[-15,30],[-18,12],[-40,8],[-12,14],[-7,32],[-25,63],[-12,4],[-57,-13],[-10,3]],[[382,3750],[12,9],[69,12],[18,26],[25,-7],[45,4],[38,11],[-2,-22],[13,-12],[19,0],[-22,-18],[32,-9],[8,10],[24,-8],[-9,-9],[20,-8],[34,31],[-25,14],[-10,17],[-44,17],[31,7],[6,13]],[[702,3615],[-20,-3],[-40,-61],[-21,-20],[-12,-21],[-32,-6],[-17,-15]],[[560,3489],[-25,-15],[-20,10],[-16,-1],[-9,-14],[-24,-2],[-11,-18],[-39,-9],[-72,0],[-50,-32],[-11,-44],[-13,-10],[0,-13],[-15,-18],[-1,-19],[-18,-9],[-17,-33],[3,-11],[-37,30],[-56,2],[-43,-4],[7,-20],[-17,5],[-4,15],[13,8],[7,66],[-43,22],[0,11],[32,31],[-43,8],[22,35],[-34,12],[27,42],[-8,11],[-42,2],[0,43],[52,57],[14,-4],[4,16],[70,46],[52,39],[17,16],[-5,18],[-14,7],[-1,35],[28,-4],[8,21],[0,25],[-6,11],[25,18],[14,4],[18,-18],[-7,-26],[17,-11],[76,-18],[-14,-16],[-33,9],[-29,-25],[33,-8],[34,0],[26,-12]],[[1758,9986],[-25,-42],[9,0],[54,20],[21,-46],[38,19],[30,7],[72,-4],[11,7],[11,-12],[24,11],[6,-11],[51,-13],[0,-6],[-33,-11],[22,-24],[-13,-5],[-15,9],[1,14],[-25,0],[-13,9],[8,22],[-65,6],[-51,-5],[3,-19],[-28,-7],[5,-13],[56,-6],[-15,-16],[52,-18],[-3,-17],[-35,-16],[-35,13],[-15,-5],[0,-13],[-35,-10],[-13,-12],[-17,22],[18,-5],[39,13],[-26,5],[-15,15],[24,8],[-3,10],[-33,-1],[-18,-10],[-45,5],[-15,-9],[-24,19],[14,9],[-55,31],[-46,46],[63,-3],[31,14],[-5,23],[19,-4],[30,19],[9,-13]],[[9863,2],[-38,16],[-49,31],[-29,24],[-27,32],[-16,35],[-8,38],[36,19],[-19,10],[-21,26],[-4,44],[172,10],[97,-97],[42,-21],[-130,-87],[47,-11],[-8,-20],[35,-5],[-1,-31],[-64,-5],[-15,-8]],[[997,3264],[-17,-5],[-47,8],[-12,10],[-45,18],[-20,3],[-56,-30],[-36,-25],[-21,4],[13,24],[-14,4],[-10,28],[-25,2],[-86,-23],[-41,-31],[-19,-29],[-31,-19],[-28,1],[-19,-21],[-46,-12],[-7,-31],[-22,-11],[1,-50],[24,-11],[6,-19],[-6,-11],[12,-26],[31,-7],[18,-19],[42,-32],[0,-31],[-36,-20],[-22,11],[-37,-30],[-54,21],[-26,1],[-20,-16],[-30,-7],[-32,2],[-28,-20],[-32,18],[-8,27],[-13,5],[43,13],[32,17],[13,-1],[8,-16],[32,-8],[6,20],[20,16],[-25,27],[15,16],[32,-4],[4,-16],[27,16],[-10,21],[-15,2],[2,29],[16,19],[-31,-2],[-32,8],[-15,23],[51,35],[-40,13],[-22,23],[42,9],[35,42],[-39,-9],[37,21],[10,12],[49,22],[51,53],[37,46],[56,57],[2,19],[26,18],[-55,33]],[[254,3101],[-17,-18],[16,-19],[-24,-8],[-30,0],[-3,-13],[-61,28],[11,29],[44,9],[12,-16],[29,0],[18,26],[5,-18]]]}
