{"type":"Topology","bbox":[-75.62299794557231,6.807055183707504,-75.35195298543152,7.192638378515758],"transform":{"scale":[0.000027107206734751923,0.00003856217569839519],"translate":[-75.62299794557231,6.807055183707504]},"objects":{"municipios":{"type":"GeometryCollection","geometries":[{"type":"Polygon","arcs":[[0,1,2]],"properties":{"codigo":"05887100000000000205","sector":"058871000000000002","pcode":"CO05887","area_m2":118308}},{"type":"Polygon","arcs":[[3,4,5]],"properties":{"codigo":"05887100000000000101","sector":"058871000000000001","pcode":"CO05887","area_m2":144466}},{"type":"Polygon","arcs":[[6,7,8,9,10]],"properties":{"codigo":"05887100000000000203","sector":"058871000000000002","pcode":"CO05887","area_m2":162932}},{"type":"Polygon","arcs":[[11,12,-1,13,14]],"properties":{"codigo":"05887100000000000301","sector":"058871000000000003","pcode":"CO05887","area_m2":101654}},{"type":"Polygon","arcs":[[15,16,17,-12,18]],"properties":{"codigo":"05887100000000000302","sector":"058871000000000003","pcode":"CO05887","area_m2":176383}},{"type":"Polygon","arcs":[[19,20,-17]],"properties":{"codigo":"05887100000000000303","sector":"058871000000000003","pcode":"CO05887","area_m2":128264}},{"type":"Polygon","arcs":[[-21,21,22,23,-13,-18]],"properties":{"codigo":"05887100000000000104","sector":"058871000000000001","pcode":"CO05887","area_m2":205080}},{"type":"Polygon","arcs":[[24,-2,-24,25,26,-8]],"properties":{"codigo":"05887100000000000103","sector":"058871000000000001","pcode":"CO05887","area_m2":297077}},{"type":"Polygon","arcs":[[-22,27,28]],"properties":{"codigo":"05887100000000000105","sector":"058871000000000001","pcode":"CO05887","area_m2":250393}},{"type":"Polygon","arcs":[[29,30,-4,31]],"properties":{"codigo":"05887100000000000201","sector":"058871000000000002","pcode":"CO05887","area_m2":176097}},{"type":"Polygon","arcs":[[-10,32,-30,33]],"properties":{"codigo":"05887100000000000202","sector":"058871000000000002","pcode":"CO05887","area_m2":160428}},{"type":"Polygon","arcs":[[-14,-3,-25,-7,34]],"properties":{"codigo":"05887100000000000204","sector":"058871000000000002","pcode":"CO05887","area_m2":187035}},{"type":"Polygon","arcs":[[-31,-33,-9,-27,35,-5]],"properties":{"codigo":"05887100000000000102","sector":"058871000000000001","pcode":"CO05887","area_m2":300473}},{"type":"Polygon","arcs":[[-28,-20,-16,36]],"properties":{"codigo":"05887100000000000304","sector":"058871000000000003","pcode":"CO05887","area_m2":145817}},{"type":"Polygon","arcs":[[37]],"properties":{"codigo":"05887200301003000101","sector":"058872003010030001","pcode":"CO05887","area_m2":125442}},{"type":"Polygon","arcs":[[38]],"properties":{"codigo":"05887200801004000101","sector":"058872008010040001","pcode":"CO05887","area_m2":61360}},{"type":"Polygon","arcs":[[39]],"properties":{"codigo":"05887200701006000101","sector":"058872007010060001","pcode":"CO05887","area_m2":72443}},{"type":"MultiPolygon","arcs":[[[40]],[[41]],[[42]],[[43]]],"properties":{"codigo":"05887200503007000101","sector":"058872005030070001","pcode":"CO05887","area_m2":163726}},{"type":"Polygon","arcs":[[44]],"properties":{"codigo":"05887200801009000101","sector":"058872008010090001","pcode":"CO05887","area_m2":42004}},{"type":"Polygon","arcs":[[45]],"properties":{"codigo":"05887200701021000101","sector":"058872007010210001","pcode":"CO05887","area_m2":15985}},{"type":"Polygon","arcs":[[46]],"properties":{"codigo":"05887200203022000101","sector":"058872002030220001","pcode":"CO05887","area_m2":25300}}]}},"arcs":[[[7716,4136],[-30,-25],[-36,-33],[-25,-24],[-42,-39],[-21,11],[-39,-35]],[[7523,3991],[-24,12]],[[7499,4003],[20,19],[58,49],[20,19],[82,69],[17,-12],[20,-11]],[[7384,4260],[6,-10],[-12,-9],[-1,-9]],[[7377,4232],[-23,-1],[-18,-8],[-22,-3],[-11,3],[-23,21]],[[7280,4244],[-16,-1],[-46,-27],[-17,-2],[-33,14],[-5,15],[24,38],[6,16],[-1,42],[-6,12],[19,-11],[11,-3],[14,2],[1,-9],[16,-5],[8,-13],[1,-22],[5,-9],[15,-4],[4,-6],[-4,-16],[19,-9],[10,-11],[13,-1],[21,14],[9,11],[22,-2],[14,3]],[[7645,4196],[-30,-30],[-24,-20],[19,-10],[-18,-17],[-19,9],[-8,-1],[-38,-26],[-44,-33],[-25,-16]],[[7458,4052],[2,10],[16,17],[-11,12],[-1,12],[-8,5]],[[7456,4108],[-29,4],[-3,12]],[[7424,4124],[26,-14],[8,0],[10,9],[66,68],[19,17],[27,20],[24,-15],[19,18]],[[7623,4227],[22,-31]],[[7771,4151],[-12,-16],[-26,-15],[-21,-21],[-50,-41],[-94,-88]],[[7568,3970],[-45,21]],[[7716,4136],[33,27],[9,9]],[[7758,4172],[18,-12],[-5,-9]],[[7824,4062],[-32,-23]],[[7792,4039],[-18,14],[11,15],[14,15],[-12,10],[-8,-6],[7,-4],[-8,-7],[-10,5],[-18,-11],[-36,-31],[-42,-43],[-24,13],[-34,-30]],[[7614,3979],[-20,-20],[-26,11]],[[7771,4151],[10,-7],[23,-7],[2,-16],[11,-8],[-4,-20],[9,-10],[2,-21]],[[7792,4039],[-16,-13],[-16,-24],[-32,-26],[-30,-28],[-16,-11]],[[7682,3937],[-38,23],[-21,16],[-9,3]],[[7682,3937],[3,-22],[6,-10],[17,-13],[-27,-20],[-38,20],[-10,-9],[-5,3],[-30,10],[-18,-5],[-10,-10],[-5,-29],[-6,-19],[-11,-17],[2,-9]],[[7550,3807],[-23,5],[-2,7],[3,19],[-48,28],[10,13],[20,-7],[7,2],[-3,10],[8,6],[19,4],[11,8],[16,3],[21,-3],[15,5],[-22,10],[7,10],[-23,8],[-15,1],[-30,14],[-10,-9],[7,-7],[-10,0],[-32,16]],[[7476,3950],[47,41]],[[7458,4052],[14,-19],[-7,-7],[3,-9],[10,-3],[21,-11]],[[7476,3950],[-14,-11],[-29,17],[-9,-5],[-23,-3],[-35,1],[-11,11],[-12,-6],[-26,7],[-63,1],[-9,-4],[-9,7],[-70,22],[-14,1],[-46,-1],[8,15],[46,-2],[56,-16],[17,1],[5,-7],[19,-11],[38,-1],[27,18],[2,10],[-5,9],[25,16],[-2,11],[6,5],[-4,8],[-17,12],[-5,0],[-5,22],[-7,1]],[[7310,4078],[-4,8],[13,9],[12,-10],[27,-13],[22,3],[17,-10],[23,17],[19,17],[17,9]],[[7682,3937],[24,-14],[24,-17],[7,-10]],[[7737,3896],[10,-15],[14,-12],[-26,-11],[-5,-5],[-28,11],[4,-8],[-6,-21],[6,-13],[-7,-17],[-8,-6],[-7,-29],[13,-24],[-143,38],[-4,23]],[[7518,4265],[-16,-25],[-29,-16],[-22,-33],[-3,-9],[-21,-15],[-4,-7],[-18,3]],[[7405,4163],[-3,6],[4,20],[-9,23],[-8,15],[-12,5]],[[7384,4260],[-1,7],[8,10],[-7,4],[4,11],[10,5],[16,15],[9,-8],[10,3],[16,-4],[12,4],[-2,15],[-4,5],[14,12],[9,-19],[8,4],[2,-12],[8,-12],[17,-8],[12,-16],[2,-10],[-9,-1]],[[7424,4124],[-10,23],[-9,16]],[[7518,4265],[4,-11],[26,-9],[7,7],[6,-5],[12,8],[5,-3],[22,-1],[14,-7],[9,-17]],[[7645,4196],[25,-10],[9,8],[21,-19],[20,-14],[22,19],[16,-8]],[[7310,4078],[-19,-10],[-7,-8],[-19,-12],[-11,7],[-11,16],[-17,4],[-12,-14],[-9,9],[-4,15],[-8,6],[2,6],[21,7],[21,-4],[20,1],[17,9],[-13,25],[-16,8],[11,8],[6,-3],[8,9],[13,5],[13,-6],[9,9],[-15,23],[3,16],[-12,8],[-3,17],[2,15]],[[7824,4062],[5,-12],[35,-26],[5,-9],[15,-10],[-8,-7],[24,0],[11,-6],[-30,2],[-22,9],[-4,-5],[-13,5],[-14,-16],[-41,-3],[-7,-10],[4,-22],[-7,-21],[8,-10],[-6,-16],[-21,2],[-21,-11]],[[9916,6908],[11,4],[2,-20],[18,4],[4,-3],[29,-2],[-1,-7],[20,-11],[-2,-4],[-19,5],[-15,-1],[2,-16],[-7,-9],[8,-12],[-9,-6],[-3,-11],[19,-9],[-3,-4],[-28,12],[-5,9],[-12,4],[1,-7],[-42,-16],[-6,2],[-17,-4],[-5,-8],[-2,10],[-16,-3],[-1,4],[30,4],[-20,18],[-37,1],[-7,7],[2,8],[18,1],[15,-4],[12,-10],[-6,19],[14,1],[-11,10],[16,15],[3,-7],[21,-1],[-4,17],[-6,8],[3,7],[15,4],[8,-6],[-2,11],[15,-4]],[[9763,9999],[5,-2],[-3,-11],[-13,-8],[-2,-7],[18,2],[2,-6],[-22,-10],[-13,-20],[18,-12],[0,-10],[-14,-9],[0,-7],[27,1],[6,-12],[31,-20],[-4,-2],[-29,18],[2,-7],[-10,-2],[-9,9],[-67,34],[-12,17],[22,7],[-4,9],[13,4],[5,9],[-7,8],[-9,2],[10,6],[10,-2],[1,-14],[24,1],[-5,2],[18,20],[1,10],[10,2]],[[417,5105],[36,-10],[6,-7],[6,-17],[37,-32],[-13,1],[-13,10],[-27,8],[-24,-2],[-12,8],[-21,22],[-9,6],[-20,-5],[7,29],[-26,12],[3,3],[22,4],[-14,7],[-14,16],[29,11],[20,-25],[-4,-10],[16,-13],[3,-9],[12,-7]],[[5003,281],[10,-18],[12,-9],[34,17],[9,-14],[-6,-9],[14,-16],[5,-12],[-4,-10],[8,-10],[-45,-9],[-23,-6],[-6,4],[13,5],[-4,4],[9,9],[-16,8],[5,8],[-11,3],[3,8],[-33,15],[5,11],[11,3],[-18,13],[-7,1],[-27,16],[0,9],[18,12],[21,10],[13,-21],[10,-22]],[[4918,1],[-9,-1],[-6,16],[-20,2],[-5,13],[12,3],[-7,4],[16,5],[-39,35],[-13,8],[22,23],[10,2],[-3,13],[-15,8],[1,14],[28,-13],[46,-28],[-24,-12],[-13,-15],[-2,-10],[23,-67],[-2,0]],[[5220,251],[-75,-35],[-4,3],[17,9],[18,12],[16,4],[21,10],[10,9],[5,-9],[-8,-3]],[[4952,363],[8,-3],[17,-24],[4,-8],[-31,9],[-11,8],[13,18]],[[9817,9716],[-16,-9],[-19,-6],[28,5],[1,-2],[50,15],[26,-8],[25,0],[9,-8],[-6,-5],[-13,2],[-18,-3],[-8,5],[-26,3],[-21,-4],[-14,-9],[-65,-11],[-7,-11],[13,-5],[-4,-4],[-23,-3],[-17,-10],[-16,-3],[-9,9],[25,2],[20,15],[2,10],[30,13],[4,11],[24,3],[16,7],[2,6],[-6,9],[4,11],[11,-3],[-6,-7],[4,-15]],[[57,5899],[4,-16],[-9,-6],[-34,20],[-10,-4],[-4,7],[28,21],[18,-11],[7,-11]],[[7033,4541],[17,-9],[3,-6],[-7,-16],[-33,18],[-26,4],[-17,-8],[0,10],[-13,2],[8,7],[10,-2],[11,12],[24,11],[0,-11],[23,-12]]]}
