{"type":"Topology","bbox":[-74.81567423272645,7.434738175094589,-74.6690119106625,7.825608309007692],"transform":{"scale":[0.000014667698976292253,0.00003909092248355869],"translate":[-74.81567423272645,7.434738175094589]},"objects":{"municipios":{"type":"GeometryCollection","geometries":[{"type":"Polygon","arcs":[[0,1,2,3]],"properties":{"codigo":"05250100000000000102","sector":"052501000000000001","pcode":"CO05250","area_m2":57474}},{"type":"Polygon","arcs":[[4,-1,5]],"properties":{"codigo":"05250100000000000103","sector":"052501000000000001","pcode":"CO05250","area_m2":90039}},{"type":"Polygon","arcs":[[6,7,8]],"properties":{"codigo":"05250100000000000206","sector":"052501000000000002","pcode":"CO05250","area_m2":98552}},{"type":"Polygon","arcs":[[9,10,11,12,13,14,15,16,17,-2,-5,18,19]],"properties":{"codigo":"05250100000000000201","sector":"052501000000000002","pcode":"CO05250","area_m2":754168}},{"type":"Polygon","arcs":[[20,21,-12,22,23]],"properties":{"codigo":"05250100000000000202","sector":"052501000000000002","pcode":"CO05250","area_m2":183670}},{"type":"Polygon","arcs":[[24,25,-23,-11,26]],"properties":{"codigo":"05250100000000000203","sector":"052501000000000002","pcode":"CO05250","area_m2":254699}},{"type":"Polygon","arcs":[[27,-27,-10,28,29,30]],"properties":{"codigo":"05250100000000000204","sector":"052501000000000002","pcode":"CO05250","area_m2":148514}},{"type":"Polygon","arcs":[[31,32,-21,33,34]],"properties":{"codigo":"05250100000000000301","sector":"052501000000000003","pcode":"CO05250","area_m2":140674}},{"type":"Polygon","arcs":[[-33,35,36,37,-13,-22]],"properties":{"codigo":"05250100000000000302","sector":"052501000000000003","pcode":"CO05250","area_m2":144663}},{"type":"Polygon","arcs":[[38,39,-14,-38]],"properties":{"codigo":"05250100000000000303","sector":"052501000000000003","pcode":"CO05250","area_m2":86384}},{"type":"Polygon","arcs":[[-40,40,41,-15]],"properties":{"codigo":"05250100000000000305","sector":"052501000000000003","pcode":"CO05250","area_m2":887493}},{"type":"Polygon","arcs":[[42,43,44]],"properties":{"codigo":"05250201103002000102","sector":"052502011030020001","pcode":"CO05250","area_m2":258597}},{"type":"Polygon","arcs":[[45]],"properties":{"codigo":"05250200905010000101","sector":"052502009050100001","pcode":"CO05250","area_m2":31959}},{"type":"Polygon","arcs":[[46]],"properties":{"codigo":"05250200602011000101","sector":"052502006020110001","pcode":"CO05250","area_m2":68272}},{"type":"Polygon","arcs":[[47]],"properties":{"codigo":"05250201401013000101","sector":"052502014010130001","pcode":"CO05250","area_m2":50746}},{"type":"Polygon","arcs":[[-17,48,49,50]],"properties":{"codigo":"05250100000000000101","sector":"052501000000000001","pcode":"CO05250","area_m2":283952}},{"type":"Polygon","arcs":[[51,52,-9,53,-29,-20,54,55]],"properties":{"codigo":"05250100000000000104","sector":"052501000000000001","pcode":"CO05250","area_m2":271282}},{"type":"Polygon","arcs":[[-19,-6,-4,56,57,-55]],"properties":{"codigo":"05250100000000000105","sector":"052501000000000001","pcode":"CO05250","area_m2":177725}},{"type":"Polygon","arcs":[[-18,-51,58,-57,-3]],"properties":{"codigo":"05250100000000000106","sector":"052501000000000001","pcode":"CO05250","area_m2":141759}},{"type":"Polygon","arcs":[[59,60,61,-7,-53]],"properties":{"codigo":"05250100000000000207","sector":"052501000000000002","pcode":"CO05250","area_m2":137881}},{"type":"Polygon","arcs":[[-16,-42,62,63,64,65,66,-49]],"properties":{"codigo":"05250100000000000107","sector":"052501000000000001","pcode":"CO05250","area_m2":1367687}},{"type":"Polygon","arcs":[[-62,67,68,-30,-54,-8]],"properties":{"codigo":"05250100000000000205","sector":"052501000000000002","pcode":"CO05250","area_m2":97951}},{"type":"Polygon","arcs":[[-31,-69,69]],"properties":{"codigo":"05250100000000000208","sector":"052501000000000002","pcode":"CO05250","area_m2":73734}},{"type":"Polygon","arcs":[[70,71,72]],"properties":{"codigo":"05250201103002000105","sector":"052502011030020001","pcode":"CO05250","area_m2":80379}},{"type":"Polygon","arcs":[[73,74,-63,-41,-39,-37]],"properties":{"codigo":"05250100000000000304","sector":"052501000000000003","pcode":"CO05250","area_m2":150120}},{"type":"Polygon","arcs":[[75,-25,-28,-70,-68,-61,76]],"properties":{"codigo":"05250100000000000401","sector":"052501000000000004","pcode":"CO05250","area_m2":621678}},{"type":"Polygon","arcs":[[-77,-60,-52,77,78]],"properties":{"codigo":"05250100000000000402","sector":"052501000000000004","pcode":"CO05250","area_m2":946730}},{"type":"Polygon","arcs":[[79,80,-45,81]],"properties":{"codigo":"05250201103002000103","sector":"052502011030020001","pcode":"CO05250","area_m2":291121}},{"type":"Polygon","arcs":[[82,-34,-24,-26,-76,-79,83]],"properties":{"codigo":"05250100000000000403","sector":"052501000000000004","pcode":"CO05250","area_m2":1688120}},{"type":"Polygon","arcs":[[84,85,86,-35,-83]],"properties":{"codigo":"05250100000000000404","sector":"052501000000000004","pcode":"CO05250","area_m2":970506}},{"type":"Polygon","arcs":[[87,88,89,-74,-36,-32,-87]],"properties":{"codigo":"05250100000000000405","sector":"052501000000000004","pcode":"CO05250","area_m2":493500}},{"type":"Polygon","arcs":[[90,-88,-86,91]],"properties":{"codigo":"05250100000000000501","sector":"052501000000000005","pcode":"CO05250","area_m2":268470}},{"type":"Polygon","arcs":[[-91,92,93,-89]],"properties":{"codigo":"05250100000000000502","sector":"052501000000000005","pcode":"CO05250","area_m2":111405}},{"type":"Polygon","arcs":[[-72,-80,94]],"properties":{"codigo":"05250201103002000104","sector":"052502011030020001","pcode":"CO05250","area_m2":195685}},{"type":"Polygon","arcs":[[95,96,97,98]],"properties":{"codigo":"05250201401004000101","sector":"052502014010040001","pcode":"CO05250","area_m2":101029}},{"type":"Polygon","arcs":[[99,-66,100,-64,-75,-90,-94]],"properties":{"codigo":"05250100000000000503","sector":"052501000000000005","pcode":"CO05250","area_m2":324693}},{"type":"Polygon","arcs":[[-101,-65]],"properties":{"codigo":"05250100000000000504","sector":"052501000000000005","pcode":"CO05250","area_m2":62317}},{"type":"Polygon","arcs":[[101,-43,-81,-71]],"properties":{"codigo":"05250201103002000101","sector":"052502011030020001","pcode":"CO05250","area_m2":267049}},{"type":"Polygon","arcs":[[102]],"properties":{"codigo":"05250201401007000101","sector":"052502014010070001","pcode":"CO05250","area_m2":88922}},{"type":"Polygon","arcs":[[103,104,-99,105]],"properties":{"codigo":"05250201401004000102","sector":"052502014010040001","pcode":"CO05250","area_m2":140297}},{"type":"Polygon","arcs":[[106,107,-96,-105,108]],"properties":{"codigo":"05250201401004000103","sector":"052502014010040001","pcode":"CO05250","area_m2":75079}},{"type":"Polygon","arcs":[[109]],"properties":{"codigo":"05250201201005000101","sector":"052502012010050001","pcode":"CO05250","area_m2":79639}},{"type":"MultiPolygon","arcs":[[[110]],[[111]]],"properties":{"codigo":"05250201205006000101","sector":"052502012050060001","pcode":"CO05250","area_m2":28057}},{"type":"Polygon","arcs":[[-97,-108,112]],"properties":{"codigo":"05250201401004000104","sector":"052502014010040001","pcode":"CO05250","area_m2":338422}},{"type":"Polygon","arcs":[[-109,-104,113]],"properties":{"codigo":"05250201401004000105","sector":"052502014010040001","pcode":"CO05250","area_m2":106784}},{"type":"Polygon","arcs":[[114]],"properties":{"codigo":"05250200601008000101","sector":"052502006010080001","pcode":"CO05250","area_m2":62942}},{"type":"Polygon","arcs":[[115]],"properties":{"codigo":"05250200905009000101","sector":"052502009050090001","pcode":"CO05250","area_m2":35152}},{"type":"Polygon","arcs":[[116]],"properties":{"codigo":"05250201303012000101","sector":"052502013030120001","pcode":"CO05250","area_m2":84603}}]}},"arcs":[[[275,4264],[-12,-18],[49,-10],[-3,-3],[76,-17],[-2,-20],[9,-4]],[[392,4192],[-12,-6]],[[380,4186],[-56,16],[-13,-3],[-73,18],[-15,-9],[-34,14]],[[189,4222],[-32,9],[29,27],[27,-5],[23,15],[39,-4]],[[440,4310],[-9,-43],[-8,-33],[0,-21],[-11,-13],[-20,-8]],[[275,4264],[9,14],[57,30],[12,11],[45,-8],[42,-1]],[[1035,4565],[-9,-21],[2,-6],[20,-15],[-39,-11],[33,-9],[-1,-6]],[[1041,4497],[-120,7],[-1,-4],[-49,2],[-67,-1],[-36,-4]],[[768,4497],[-19,13],[27,5],[38,31],[65,12],[136,8],[20,-1]],[[472,4351],[33,-14],[14,-10],[4,-10]],[[523,4317],[1,-19],[-24,-81],[-1,-17],[48,-5],[67,-12],[73,-9],[18,-11]],[[705,4163],[34,-23],[35,6],[76,10],[66,11],[15,3],[82,10],[52,9],[17,1],[62,-2]],[[1144,4188],[-3,-8],[-25,3],[-45,-3],[16,-8],[-22,-13],[39,-12],[10,-8]],[[1114,4139],[-58,-8],[6,-5],[-37,-9]],[[1025,4117],[-29,18],[-40,14],[-18,20],[-24,-12],[8,-15],[-24,-4],[12,-9],[-24,-11],[6,-7],[-16,-4],[7,-7],[-29,-4],[9,-7],[-36,6],[-42,5],[-26,6],[-4,4],[7,11],[-31,-17],[-51,-18],[-9,-6],[2,-17],[-24,-15],[22,0],[-2,-6],[-18,-4],[20,-6],[12,-12],[5,-14],[-3,-47],[-8,-70],[-58,8]],[[619,3897],[-40,7],[19,13],[20,-2],[4,14],[-5,12],[-9,6],[-48,19],[-21,3],[-64,1],[-43,-3],[-17,-3],[-18,0],[-18,8],[-4,14],[-2,45],[2,13]],[[375,4044],[-1,15],[-5,7],[-27,20],[-32,10]],[[310,4096],[2,3],[29,14],[25,16],[9,14],[-6,15],[3,13],[8,15]],[[440,4310],[8,43]],[[448,4353],[24,-2]],[[1396,4191],[-25,-6],[-28,-3],[-61,-2]],[[1282,4180],[-45,1],[-93,7]],[[705,4163],[65,15],[38,10],[-5,17],[37,-1],[-10,23],[68,14],[63,13],[-29,18],[17,14],[24,-2],[-8,10]],[[965,4294],[27,-2],[-3,-10],[8,-5],[52,-17],[-60,-20],[15,-7],[14,-16],[23,3],[12,-16],[38,-1],[1,-3],[26,1],[4,-6],[34,0],[1,3],[68,10],[46,5],[16,-26],[32,0],[74,8],[3,-4]],[[602,4299],[-38,2],[4,-7],[36,-22],[8,-3],[54,-7],[61,7],[23,7],[32,-1],[45,-5],[38,1],[38,18],[61,17]],[[964,4306],[-6,-5],[7,-7]],[[523,4317],[20,0],[20,-4],[42,-6],[-3,-8]],[[718,4321],[-4,-17],[-83,1],[-2,-11],[-28,1],[1,4]],[[472,4351],[11,14],[9,23],[65,27]],[[557,4415],[53,-3],[66,4]],[[676,4416],[11,-13],[26,-2],[45,0],[14,-13],[-69,-4],[2,-7],[-34,-2],[8,-6],[-33,-10],[68,-26],[24,2],[4,-10],[-21,0],[-41,5],[0,-7],[38,-2]],[[1388,4080],[-56,21]],[[1332,4101],[-11,3],[30,9],[35,-3],[11,9],[-1,17],[-79,-3],[-34,-2],[-3,20],[5,23],[-3,6]],[[1396,4191],[20,0],[42,10],[23,11],[27,7],[56,21]],[[1564,4240],[7,-7],[-18,-18],[-1,-20],[-23,-15],[17,-14],[0,-4],[-36,-9],[-15,-8],[-30,-7],[14,-16],[-18,-9],[-6,-13],[-31,-10],[-26,-2],[-10,-8]],[[1332,4101],[-27,-14],[0,-15],[38,-6],[-19,-5]],[[1324,4061],[-25,5],[-16,-13],[-38,-6]],[[1245,4047],[-20,22],[-5,0],[-21,22],[-39,37],[-31,14],[-15,-3]],[[1245,4047],[-110,-14]],[[1135,4033],[-17,18],[-35,27],[-30,18],[-28,21]],[[1135,4033],[12,-15],[-40,-5],[30,-12],[13,1],[-1,-13],[23,-22],[23,-12],[-15,-29],[3,-20],[-39,-15],[-30,-6],[-8,-25]],[[1106,3860],[-30,-9],[-28,-3],[-39,-14],[-30,-6],[-19,-2],[-34,3],[-41,11],[-43,0],[-8,2],[-7,10],[-14,7],[-65,-7],[-100,-12],[-16,12],[-34,11],[-8,4],[6,9],[-3,13],[26,8]],[[4404,7036],[-29,-7],[-32,-5],[-90,-8],[-52,-6],[-60,-8],[-60,33],[-23,-6]],[[4058,7029],[4,12],[-5,10],[-23,9],[-32,27],[-58,24],[-21,13],[0,8],[12,19]],[[3935,7151],[52,-5],[9,-20],[1,-11],[8,-2],[20,15],[28,1],[77,-1],[42,-3],[44,-8],[82,-8],[29,-15],[7,-10],[23,-4],[6,-12],[20,-23],[21,-9]],[[7957,9194],[13,6],[18,-5],[-1,-5],[-18,2],[-12,-6],[-26,-6],[-26,-15],[8,-1],[-22,-40],[12,-1],[-9,-12],[-41,-20],[-20,3],[-19,-4],[-6,4],[12,6],[-5,5],[28,6],[10,-4],[15,15],[13,-1],[13,20],[-15,1],[17,31],[-19,8],[-17,2],[21,7],[-14,5],[65,15],[12,-6],[-5,-6],[18,-4]],[[4042,2857],[29,-16],[41,9],[1,-4],[28,-4],[-1,-6],[-22,-1],[5,-11],[-2,-10],[-33,9],[-12,-15],[8,-4],[-19,-8],[9,-4],[16,1],[-19,-7],[-19,4],[-16,-6],[-27,1],[-10,-5],[-18,1],[-9,8],[-26,11],[25,13],[-35,11],[-3,6],[36,10],[-1,7],[27,11],[15,-1],[27,3],[5,-3]],[[9108,802],[-4,-7],[23,-5],[14,-6],[36,9],[21,-10],[8,2],[11,-7],[-24,-11],[13,-6],[2,-6],[-27,0],[-28,-6],[-19,4],[-21,-3],[-22,0],[-28,5],[-14,9],[-15,1],[-16,8],[-21,0],[-25,4],[5,6],[32,3],[-8,5],[15,4],[18,-4],[49,-5],[10,0],[-6,7],[-16,6],[14,4],[23,-1]],[[375,4044],[-30,-4],[-13,-6],[-1,-16],[-45,5],[-42,0],[-2,17],[-29,6],[-27,-3],[19,-15],[11,2],[8,-15],[20,7],[16,1],[-7,-10],[-12,-5],[-25,-6],[-32,21],[-10,2],[-54,-4],[-33,12],[-19,10],[-19,15],[-10,3],[-39,3]],[[0,4064],[33,114]],[[33,4178],[107,0],[53,-6],[37,-16],[16,-38],[13,-8],[51,-14]],[[1141,4582],[21,-22],[3,-7]],[[1165,4553],[-25,0],[-8,7],[-25,2],[-20,4],[-52,-1]],[[768,4497],[-35,-11],[-12,3],[-86,-45],[-27,-11],[-19,-4],[-32,-14]],[[448,4353],[-80,-13],[-77,34]],[[291,4374],[200,71],[88,38],[38,20],[36,31],[83,32],[36,8],[118,5],[102,0],[149,3]],[[189,4222],[-15,-6],[-19,4],[-17,-12],[-9,0],[-82,5]],[[47,4213],[34,45],[49,44],[131,61],[30,11]],[[33,4178],[6,24],[8,11]],[[1165,4553],[17,1],[-3,-14],[11,-8],[34,-8],[27,-13],[22,-17]],[[1273,4494],[3,-20],[-42,-15],[-52,-3],[-37,5],[-19,0],[-29,6],[-65,6],[-26,2],[-68,8],[-18,0],[-28,5]],[[892,4488],[1,6],[101,-4],[0,-8],[119,-5],[1,8],[-8,9],[-65,3]],[[1106,3860],[2,-13]],[[1108,3847],[-14,-17],[3,-26],[5,-12],[-4,-32],[3,-6],[30,-27]],[[1131,3727],[-62,-4],[-29,-6],[-3,-5],[-27,2],[-2,8],[-44,0],[-25,-2],[21,-12],[-15,2],[-51,1],[-18,-2],[1,-8],[16,1],[4,-7],[36,1],[4,-11],[9,-2],[-30,-17],[18,-3],[46,28],[17,-19],[32,-9],[56,11],[0,16],[7,10],[41,10],[3,13]],[[1136,3723],[6,-9],[-6,-6],[-35,-8],[-7,-4],[2,-20],[-8,-6],[-18,-5],[-1,-6],[10,-17],[-8,-4],[-28,-5],[-5,-7],[12,-11],[51,-6],[21,-5]],[[1122,3604],[-12,-6],[-48,3],[-59,-1],[-14,7],[-19,5],[-39,4],[-24,-4],[-6,6],[-48,4],[-11,5],[-34,1],[-13,-8],[-20,-3],[-9,2],[-6,9],[-60,7],[-11,-4],[-19,1],[-32,15],[-10,12],[-25,15],[-15,17],[1,13],[-9,4],[-20,-1],[-20,8],[-21,0],[-29,13],[-24,4],[-10,8],[4,8],[-5,20],[-35,10],[-16,8],[-14,19],[-29,7],[-48,-7],[-41,1],[-36,7],[1,50],[-6,40],[-37,23],[-40,22],[-37,46],[-81,38],[-36,32]],[[892,4488],[-38,-2],[-43,2],[-34,-3],[3,-20],[-2,-9],[15,-5],[-3,-6],[-70,-26]],[[720,4419],[-44,-3]],[[720,4419],[15,-9],[27,1],[13,-7],[4,-10],[11,-2],[40,3],[6,-10],[13,-4],[19,3],[-3,-13],[-11,0],[3,-8],[-42,-4],[2,-6],[-17,-2],[-7,-6],[11,-10],[-19,-2],[8,-6],[-7,-9],[-68,3]],[[4526,6960],[-23,11],[-7,11],[32,29],[9,17],[-4,8],[-29,21]],[[4504,7057],[37,10],[42,17],[20,2],[107,-15]],[[4710,7071],[13,-3],[59,-2],[-20,-19],[-24,11],[-37,6],[-17,-5],[-20,-15],[-12,-1],[31,-10],[-21,-11],[-8,2],[-54,7],[-16,-1],[-16,-12],[-12,-22],[-16,-13],[4,-13],[-7,-9],[-11,-1]],[[1324,4061],[-8,-6],[-31,-4],[-10,-8],[3,-5],[-21,-2],[-3,4],[-21,-4],[7,-26],[27,-1],[-7,-7],[5,-8],[27,-2],[4,-8],[25,-9],[-36,-8],[10,-16],[-25,-3],[5,-6],[21,-6],[-3,-15],[-15,-2],[-24,-10],[-4,-5]],[[1250,3904],[-4,-16],[-29,-7],[-6,-6],[2,-22],[-58,-3],[-6,-6],[-41,3]],[[1436,4402],[-62,-10],[-62,-9],[-174,-25],[-29,-3],[-29,-6],[-46,-16],[-24,-14],[-46,-13]],[[1273,4494],[28,-5],[72,-53],[29,-23],[34,-11]],[[1141,4582],[184,7],[127,11],[96,17],[57,6],[100,20],[59,30],[47,39],[30,37],[43,23],[44,20],[20,5],[16,-3],[16,-32],[-4,-38],[2,-17],[-2,-9],[-34,-21],[-18,-19],[-1,-13],[19,-17]],[[1942,4628],[-9,-9],[0,-12],[13,-9],[-3,-3],[-23,-2],[-4,-6],[14,-5],[-4,-6],[11,-14],[-17,-4],[-30,-1],[0,-13],[-43,-10],[-8,-13],[-29,-12],[0,-17],[-45,-16],[-43,-9],[-21,-17],[-38,-12],[-57,-6],[-30,-8],[-140,-22]],[[4452,7177],[25,-10],[7,-17],[1,-13],[7,-17],[5,-30],[1,-28],[6,-5]],[[4504,7057],[-27,-6],[-53,-9],[-20,-6]],[[3935,7151],[27,32],[54,-5],[16,-7],[19,-3],[40,-2],[41,2],[15,13],[96,-1],[84,7],[21,7],[33,-3],[44,-7],[27,-7]],[[2183,4299],[-30,0],[-58,-3],[-9,-5],[-2,-12],[-31,-9],[-26,-17],[-37,-9],[-15,0],[-37,7],[-20,0],[-21,-5],[-68,3],[-23,3],[-55,1],[-55,-3],[-22,4],[-44,-3],[-36,-6],[-23,-1],[-7,-4]],[[1942,4628],[68,-28],[52,-30],[16,-11],[12,-13],[3,-14],[16,-38],[9,-60],[-2,-10],[-14,-12],[-66,-30],[-16,-13],[11,-10],[25,-4],[68,-4],[22,-3],[20,-9],[22,-17],[7,-9],[-12,-14]],[[2183,4299],[-26,-30],[-51,-48],[-25,-34],[-21,-14],[-30,-13],[-26,-17],[-23,-20],[1,-6],[28,-27],[-3,-18],[-44,-27],[-5,-11],[7,-8],[27,-11],[9,-7],[-1,-14],[-22,-15],[-5,-8],[6,-7],[49,-15]],[[2028,3949],[-21,-6],[-35,2],[-66,-6]],[[1906,3939],[-41,12],[-1,8],[8,7],[-8,5],[-22,1],[-16,6],[-8,14],[-59,1],[-23,13],[-39,5],[5,4],[-22,10],[-47,4],[-7,3],[-18,-7],[-38,7],[-24,12],[-20,5],[-15,-4],[-16,6],[-20,3],[-37,8],[-50,18]],[[1906,3939],[-30,-5],[-36,-3],[-35,-7],[-45,-1],[-67,-6],[-43,0],[-71,-1],[-30,-6],[-26,1]],[[1523,3911],[-45,-1],[-25,9],[-48,-1]],[[1405,3918],[-43,-2],[-14,-5],[-36,-4],[-62,-3]],[[1688,3829],[-13,20],[-48,7],[-16,9],[-13,12],[-12,5],[-37,21],[-26,8]],[[2028,3949],[12,-6],[16,-20],[30,-18],[-23,-11],[-38,-9],[-28,-13],[10,-22],[-1,-17],[-13,-4],[6,-11],[-11,4],[-7,14],[-7,3],[-30,2],[-35,8],[-76,-2],[-33,5],[-40,-5],[-1,-7],[-24,-8],[-35,2],[-12,-5]],[[1688,3829],[-18,-4],[-19,-2],[-1,4],[-45,0],[-47,-3]],[[1558,3824],[-15,15],[-28,9],[-60,-1],[-31,1],[-13,-7],[-28,7],[-2,7],[19,3],[0,22],[-11,9],[9,13],[12,6],[-5,10]],[[4452,7177],[16,6],[5,20],[10,11],[26,9],[7,-4],[13,2],[45,-4],[17,-4],[-11,-11],[-15,-4],[9,-7],[56,-1],[-6,-8],[-25,-4],[10,-16],[13,-11],[1,-9],[11,-3],[9,-14],[26,-20],[26,1],[22,7],[15,-7],[26,4],[-11,2],[-19,15],[5,6],[-25,6],[1,6],[14,2],[52,-3],[5,5],[40,-4],[10,10],[22,-4],[16,0],[22,-9],[-4,-9],[-23,-7],[-37,-4],[37,-11],[-22,-9],[-45,15],[-24,-7],[-8,-7],[-31,-8],[-1,-4],[-34,-4],[-10,-6],[26,-6],[-4,-4]],[[8653,56],[-54,-5],[-23,-3]],[[8576,48],[-40,-4],[-31,12],[12,6],[42,16],[-6,13],[-28,4],[-7,9],[59,5],[12,8],[8,13],[22,6],[24,12],[6,10],[31,3],[26,15],[12,3]],[[8718,179],[52,5],[-4,-6]],[[8766,178],[-26,-9],[-10,-9],[-22,-36],[-38,-49],[-17,-19]],[[1558,3824],[21,-12],[-4,-9],[-44,2],[-21,-8],[-15,-1],[-5,6],[-37,-5],[-19,-8],[-39,7],[-9,6],[-17,3],[-18,-1],[-10,-6],[-19,4],[-34,-4],[-57,-2],[-18,-3],[-12,4],[-34,0],[-24,-10],[1,-10],[-13,-10],[19,1],[7,-17],[15,-6],[-9,-36],[9,-23],[-12,-17],[-24,-8],[0,-9],[8,-8],[2,-12],[44,-1],[2,-19],[-4,-8],[-24,-12],[-17,8],[-25,4]],[[1136,3723],[-5,4]],[[4526,6960],[-18,-10],[-11,-1],[-28,8],[-6,21],[-25,-3],[-13,-9],[-24,6],[8,13],[-7,7],[-19,-17],[-16,3],[14,14],[-13,4],[-15,-15],[-18,2],[10,13],[-14,2],[-18,-13],[-33,1],[-5,5],[20,9],[-29,2],[-22,-5],[-17,-9],[-25,4],[-22,0],[-43,-7],[-16,-11],[-2,-7],[-18,1],[-23,8],[-22,-1],[-56,-20],[-35,-7],[-26,9],[-48,27],[-40,3],[-19,6],[-55,9],[-29,8],[-2,6],[31,6],[28,9],[40,4],[1,9],[11,6],[18,3],[35,-5],[30,-8],[21,-9],[29,-5],[39,-12],[14,2],[15,13]],[[8630,821],[28,-3],[5,-10],[34,2],[31,-1],[14,-5],[23,-17],[-18,0],[12,-5],[-42,-9],[7,-17],[-13,-13],[-13,-6],[8,-2],[-20,-12],[5,-5],[18,-4],[-32,-19],[-35,8],[-13,-9],[-17,3],[9,7],[-19,2],[-2,8],[-28,4],[-1,4],[27,9],[11,9],[-9,14],[1,10],[28,5],[28,0],[-1,8],[-23,10],[-17,3],[-35,14],[9,8],[46,-5],[-6,14]],[[8936,143],[-18,-7],[5,-6],[1,-15],[-25,1],[-37,-15],[-20,-5],[-14,-10],[-28,-5],[-21,-16]],[[8779,65],[-21,-6],[-51,2],[-34,-2],[-20,-3]],[[8766,178],[56,-5],[53,9],[34,-12],[-17,-19],[21,-4],[6,7],[29,2],[-12,-13]],[[8757,5],[-17,-3],[-67,-2],[-82,3],[-28,3]],[[8563,6],[13,42]],[[8779,65],[6,0],[-20,-27],[-8,-33]],[[2197,4907],[13,-6],[24,-3],[12,-10],[59,-6],[-8,-14],[27,-5],[13,-13],[-28,-9],[-27,-4],[-15,0],[-14,-5],[-16,-11],[-1,-14],[-17,-3],[-36,9],[16,6],[2,5],[-27,0],[-27,3],[11,6],[-10,5],[-21,4],[17,15],[-10,2],[34,33],[6,-1],[13,14],[10,2]],[[9839,5048],[54,-3],[27,-4],[-19,-17],[10,-9],[-16,7],[-41,7],[-8,-2],[11,-10],[-17,3],[-11,-4],[-54,-5],[-16,-5],[-8,7],[-34,-1],[1,10],[56,2],[-2,6],[32,5],[6,-2],[14,6],[4,9],[11,0]],[[9995,5017],[-34,7],[5,4],[33,-10],[-4,-1]],[[8563,6],[-19,2],[-60,17],[-13,6],[-38,7],[-56,13],[-80,6],[-22,1],[-90,9],[-50,3],[-69,10],[6,3],[-21,1],[14,12],[-40,11],[1,17],[41,5],[17,-7],[18,7],[17,-10],[15,-2],[21,-13],[2,-10],[34,-2],[27,-11],[17,2],[57,-12],[21,1],[49,-5],[45,-2],[5,9],[15,4],[-5,23],[-83,2],[-11,3],[18,9],[-29,4],[-5,4],[16,18],[-5,3],[0,24],[52,0],[-16,9],[29,12],[32,1],[30,6],[16,1],[33,-3],[41,10],[23,-3],[14,-10],[29,1],[17,-4],[43,8],[20,-1],[49,-5],[-17,-11]],[[8936,143],[22,0],[13,4],[16,-1],[6,-6],[18,9],[14,-7],[-8,-10],[-13,-7],[-27,-6],[-4,-9],[10,-6],[-64,-12],[9,-7],[-26,-15],[-12,-15],[-32,-6],[-2,-5],[13,-1],[-2,-18],[73,-6],[5,-5],[-34,-9],[-22,-1],[-68,1],[-64,0]],[[952,3287],[17,-7],[-2,-11],[24,2],[23,-5],[-20,-27],[-15,-1],[-54,7],[-36,6],[-4,5],[-25,-5],[1,-6],[-28,-1],[-17,2],[-6,-10],[-25,3],[-29,-2],[-1,28],[-14,17],[50,3],[18,-4],[-10,-8],[10,-5],[18,2],[17,-3],[79,22],[5,9],[24,-11]],[[7281,9999],[12,-4],[8,-13],[20,2],[16,-3],[-18,-14],[14,-6],[-25,-8],[11,-7],[-11,-4],[-30,-3],[-26,0],[-35,5],[-25,21],[52,-1],[7,10],[11,4],[-41,14],[-3,7],[19,-4],[11,2],[33,2]],[[8131,1084],[53,-3],[-1,-10],[-12,-16],[10,-10],[43,5],[19,-7],[-9,-9],[10,-4],[33,4],[35,-9],[-13,-7],[7,-8],[-33,2],[-20,-6],[10,-7],[-1,-7],[-44,-14],[-1,9],[-15,-2],[-9,5],[-14,-3],[-31,13],[-20,5],[20,11],[-1,11],[-15,5],[13,4],[-23,10],[-54,26],[28,24],[-6,4],[-23,4],[-2,5],[38,9],[8,-1],[-5,-12],[9,-13],[16,-8]]]}
