{"type":"Topology","bbox":[-75.37981550213584,6.04995395048496,-75.31467811130875,6.1000036695425335],"transform":{"scale":[0.000006514390521761156,0.000005005472453002605],"translate":[-75.37981550213584,6.04995395048496]},"objects":{"municipios":{"type":"GeometryCollection","geometries":[{"type":"Polygon","arcs":[[0]]},{"type":"Polygon","arcs":[[1]]},{"type":"MultiPolygon","arcs":[[[2]],[[3]]]},{"type":"Polygon","arcs":[[4]]},{"type":"Polygon","arcs":[[5,6,7,8,9,10,11]]},{"type":"Polygon","arcs":[[12,13,-7,14,15]]},{"type":"Polygon","arcs":[[16,17,18]]},{"type":"Polygon","arcs":[[19,-18,20]]},{"type":"Polygon","arcs":[[21,22,23,24]]},{"type":"Polygon","arcs":[[25,26,27,-24,28,29]]},{"type":"MultiPolygon","arcs":[[[30,-30,31]],[[32]]]},{"type":"Polygon","arcs":[[33,34,35,36]]},{"type":"Polygon","arcs":[[37,38,39,40,41]]},{"type":"Polygon","arcs":[[-11,42,43,44]]},{"type":"Polygon","arcs":[[45,-25,-28,46]]},{"type":"Polygon","arcs":[[47,48,49,-15,-6,50,51]]},{"type":"Polygon","arcs":[[-38,52,-43,-10,53,-22,-46,54]]},{"type":"Polygon","arcs":[[55,56,-19,-20,57,-16,-50]]},{"type":"Polygon","arcs":[[-14,58,-8]]},{"type":"Polygon","arcs":[[-40,59,-34,60]]},{"type":"Polygon","arcs":[[-36,61,-26,-31,62]]},{"type":"Polygon","arcs":[[63,64,-52,65,-44,-53,-42,66]]},{"type":"Polygon","arcs":[[-55,-47,-27,-62,-35,-60,-39]]},{"type":"Polygon","arcs":[[-12,-45,-66,-51]]},{"type":"Polygon","arcs":[[-64,67]]},{"type":"Polygon","arcs":[[-56,-49,68]]},{"type":"Polygon","arcs":[[69]]}]}},"arcs":[[[9722,971],[70,-97],[35,-36],[26,-67],[138,-104],[8,-27],[-3,-74],[-68,-128],[-8,-94],[-58,-139],[32,-8],[49,21],[-18,-144],[-72,-59],[-42,-15],[-92,28],[-20,157],[0,74],[-157,35],[-18,115],[-13,18],[-38,-8],[-45,10],[31,109],[-59,3],[-15,83],[-31,22],[-47,1],[-24,36],[14,86],[-6,32],[-59,37],[-40,61],[7,44],[60,-10],[69,19],[38,-29],[147,-35],[71,79],[32,-12],[26,14],[8,48],[72,-46]],[[8404,2372],[7,-12],[105,-8],[9,-50],[25,1],[-1,-33],[-35,-3],[5,-69],[-8,-77],[12,-51],[-33,-55],[10,-52],[-34,-28],[-166,-37],[-22,-15],[-123,-12],[-18,140],[-77,0],[2,-154],[-83,-29],[4,-116],[45,-83],[-8,-40],[60,-35],[-26,-163],[-47,7],[10,-139],[-22,-128],[-18,-41],[-5,-69],[39,-298],[-51,-41],[-31,50],[-28,127],[-78,-82],[-31,72],[49,90],[24,23],[27,79],[28,47],[-18,52],[-32,14],[-31,36],[-7,72],[-65,92],[26,29],[-10,87],[27,58],[-17,14],[-15,107],[73,22],[-15,90],[76,76],[50,39],[5,42],[-34,239],[110,2],[4,106],[81,-9],[0,-19],[68,-10],[0,-87],[69,-7],[12,251],[5,7],[109,1],[13,-20]],[[196,5299],[23,5],[32,-22],[-43,-107],[51,-26],[-14,-31],[23,-23],[31,24],[172,-109],[-76,-182],[66,12],[69,-1],[-11,-107],[-15,-82],[-36,-54],[-7,-32],[-33,-12],[-37,-53],[-35,26],[-34,-76],[-129,-194],[-50,44],[24,45],[-133,100],[28,156],[20,155],[0,77],[-16,137],[-66,284],[94,50],[48,-11],[35,21],[19,-14]],[[695,4789],[5,-47],[-32,-85],[-75,5],[-12,11],[24,78],[1,37],[30,-3],[9,29],[50,-25]],[[8298,6983],[7,-27],[-19,-111],[112,-41],[19,-53],[-56,37],[-22,-16],[-11,-40],[-63,18],[11,75],[-45,2],[-10,-66],[37,-61],[-31,-8],[-13,44],[-34,30],[-13,-14],[-81,-13],[4,-13],[-78,-32],[-59,111],[26,16],[-60,99],[-25,67],[-1,29],[26,-9],[21,18],[13,-27],[32,28],[46,-76],[47,33],[11,-19],[-21,-32],[10,-17],[68,39],[34,-39],[25,34],[-7,36],[25,-8],[44,51],[31,-45]],[[7092,4920],[41,-74],[-82,-78],[7,-13],[-15,-80],[26,-52],[82,-140]],[[7151,4483],[-78,-31]],[[7073,4452],[-48,87],[-106,182],[-5,59],[-38,-9],[-17,109],[-145,-31]],[[6714,4849],[-1,-1]],[[6713,4848],[14,102],[11,157],[35,125],[31,180],[-19,136],[64,35],[37,55]],[[6886,5638],[67,-188],[15,-67]],[[6968,5383],[29,-162],[-75,-35],[64,-154],[54,24],[20,-68],[32,-68]],[[7116,3875],[-134,27],[33,118],[7,105],[-100,63],[-18,57],[59,41],[30,1],[29,35],[6,108]],[[7028,4430],[45,22]],[[7151,4483],[83,36],[160,80],[20,0],[35,-38]],[[7449,4561],[-72,-116],[-24,-64],[-20,-139],[-96,-124],[-56,-121],[-44,-58],[-21,-64]],[[8067,3966],[8,-16],[189,116],[42,-7],[66,-188],[99,48],[49,-155],[-169,-80],[-212,-112],[-37,4]],[[8102,3576],[-18,9],[-106,137],[-151,46],[-52,45],[-62,36]],[[7713,3849],[2,68],[-30,153],[60,-7],[75,-28],[182,-88],[49,-15],[16,34]],[[7707,3027],[-42,89],[5,114],[43,619]],[[8102,3576],[-17,-103],[31,-17],[18,-88],[41,-48],[-12,-59],[2,-143],[-50,-1],[1,182],[-52,0],[0,-28],[-175,-11],[52,-211],[-234,-22]],[[6579,6771],[-47,-36],[-147,-97],[-26,6]],[[6359,6644],[-35,5],[-51,-38],[-45,102],[45,8],[10,17],[-3,109],[-242,205],[1,43],[41,7],[83,-68],[28,-13],[102,-4],[4,67],[-5,110],[-54,3],[-29,176],[39,42]],[[6248,7415],[30,31],[105,-9],[129,22]],[[6512,7459],[20,-129],[28,-402],[19,-157]],[[6298,8817],[90,-284],[36,-126],[42,-105],[20,-77]],[[6486,8225],[8,-60],[8,-224],[-4,-350]],[[6498,7591],[14,-132]],[[6248,7415],[-25,46],[44,32],[-17,81],[3,49],[20,45],[1,67],[-36,107],[93,28],[2,89],[-8,48],[-24,51],[-28,125],[-36,-30],[-48,197],[-25,-6],[-92,11],[4,100],[-68,-24],[-164,134],[-51,22],[-60,12],[-2,42],[18,70],[16,24],[39,-15],[7,118]],[[5811,8838],[137,-98],[52,-16],[92,13],[95,41],[111,39]],[[6834,9158],[-14,-33],[-43,-5],[-46,-79],[-76,-75],[-29,-12],[-113,-89],[-33,-15],[-51,10],[-131,-43]],[[5811,8838],[-59,30],[-11,28],[-137,156],[-68,93],[54,54],[131,84],[17,-23],[26,25],[-19,57],[-32,33],[-32,71],[39,20],[-38,149],[84,11],[64,-4],[88,-78],[50,45],[61,76],[130,124],[295,-248],[65,64],[34,22],[26,-54],[94,-137],[42,-52],[74,-61],[20,-36],[7,-61],[18,-68]],[[5789,9946],[84,-1],[9,-18],[-20,-153],[-33,47],[-65,61],[10,-24],[49,-39],[21,-40],[-147,13],[2,149],[-7,55],[18,2],[79,-52]],[[7504,8634],[10,-65],[-42,-98],[-45,-42],[-28,17],[-56,8],[-72,33],[-32,-17],[-125,-29]],[[7114,8441],[-64,-3],[-73,-22],[-132,-27]],[[6845,8389],[109,93],[43,85],[111,394],[19,49]],[[7127,9010],[60,94],[84,96],[90,58],[18,23],[38,87],[34,-32],[54,-19],[-6,-24],[5,-142],[-58,-89],[-31,-26],[-22,-53],[3,-64],[45,-129],[13,-79],[50,-77]],[[7273,6656],[-107,122]],[[7166,6778],[-31,35],[-28,61],[-10,58],[13,97],[77,173],[-12,109],[-30,76],[-17,73],[4,59],[24,58],[41,70],[8,76],[-6,133]],[[7199,7856],[150,47],[59,27]],[[7408,7930],[27,-103],[-13,-126],[11,-43],[-6,-420],[-41,-6],[-41,-75],[-32,-40],[-36,-91]],[[7277,7026],[-65,-44],[-20,-30],[-10,-75],[21,-64],[37,-52],[67,-55],[-34,-50]],[[6886,5638],[3,3],[-90,254],[-69,218],[-48,164],[291,186]],[[6973,6463],[156,-430],[152,-449]],[[7281,5584],[-313,-201]],[[6903,6983],[-324,-212]],[[6498,7591],[202,5],[233,28],[41,-257],[88,53],[52,-147],[-262,-160],[51,-130]],[[7780,5262],[31,-7],[-18,-140],[30,-39],[83,-48],[20,-23],[4,-57],[20,-52],[-44,-19]],[[7906,4877],[-38,-7]],[[7868,4870],[-69,6],[-22,-59],[-26,-11],[-17,-69],[1,-73],[-23,-107],[-106,-101],[-8,-25],[-24,48],[-112,96],[-13,-14]],[[7092,4920],[127,76],[52,24],[172,98],[-53,153]],[[7390,5271],[95,58],[96,19],[44,-2],[89,-82],[66,-2]],[[7273,6656],[-7,-13],[-173,-110],[-120,-70]],[[6713,4848],[-32,-13],[-10,-107],[-24,-110],[-22,15],[14,107],[-29,77],[52,18],[19,118],[-14,88],[17,-1],[14,225],[20,4],[-10,88],[60,9],[5,77],[-9,68],[-33,34],[-34,-7],[-24,38],[8,12],[-14,144],[-29,43],[40,25],[-18,46],[-3,61],[-57,-38],[-26,92],[41,34],[-3,20],[-45,109],[-19,-23],[-27,45],[-11,-8],[-54,99],[-54,-21],[-3,37],[-35,59],[-14,-7],[-44,87],[6,79],[-74,15],[-22,52],[92,19],[51,87]],[[6903,6983],[117,-301],[146,96]],[[7868,4870],[8,-47],[32,-42],[27,-80],[17,-73],[63,5],[24,-22]],[[8039,4611],[34,-55],[-64,-105],[-2,-12],[83,-96],[6,-114],[-12,-25],[-17,-238]],[[7707,3027],[31,-56],[-38,-52],[-66,21],[-58,-8],[-28,123],[39,17],[-18,45],[-1,134],[-51,-13],[-17,126],[37,27],[4,135],[-13,-2],[-58,-85],[-95,25],[-57,-20],[-60,18],[-46,-20],[-13,29],[-57,19],[-102,23],[-5,53],[-24,-27],[-53,11],[-12,101],[61,18],[11,27],[101,12],[17,74],[-20,93]],[[7028,4430],[-91,-30],[-15,41],[-24,13],[24,89],[-68,51],[20,48],[-81,40],[-9,21],[-51,-70],[-21,-55],[-30,4],[58,183],[8,15],[-34,69]],[[7199,7856],[-14,317],[0,103],[-21,80],[-54,60],[4,25]],[[7504,8634],[34,26],[30,-25],[30,-4],[44,64],[82,0],[99,16],[1,-131],[-85,-23],[-82,-40],[-5,-46],[-23,-69],[61,-50],[23,15],[17,-73],[2,-111],[-51,-97],[-37,-34],[-47,0],[-16,-15],[-24,-64],[-82,0],[-29,-8],[-38,-35]],[[6845,8389],[-49,-20],[-310,-144]],[[6834,9158],[62,54],[67,32],[54,-91],[110,-143]],[[7365,6686],[-52,15],[-13,-18],[47,-56],[33,-59],[56,-71],[39,-71],[10,-84],[-45,-74],[-11,-44],[-1,-75],[-10,-94],[4,-126],[15,-79],[49,18],[14,-22],[-29,-104],[-1,-46],[51,-98],[67,-92],[52,-12],[38,27]],[[7678,5521],[15,-57],[44,-3],[19,-57],[-16,-14],[40,-128]],[[7390,5271],[-109,313]],[[7277,7026],[11,-16],[-4,-104],[14,-25],[43,-13],[-7,-67],[31,-115]],[[7365,6686],[31,-20],[45,-82],[56,-44],[42,-68],[107,21],[62,-116],[-60,11],[-57,-9],[-24,-31],[77,-2],[2,-30],[77,22],[34,-63],[74,-30],[36,24],[8,-53],[67,-236],[-66,-44],[97,-108],[11,-26],[55,-47],[-24,-51],[-25,-113],[-21,-56],[-187,37],[-52,4],[-37,-23],[-15,-32]],[[7906,4877],[12,-27],[76,-65],[73,-40],[85,-20],[-9,-42],[22,-4],[-14,-58],[-24,-38],[-76,47],[-12,-19]],[[7725,6709],[38,-1],[16,-50],[35,6],[10,-36],[-46,-26],[28,-5],[10,-35],[-84,-45],[-27,75],[-3,46],[14,3],[-2,67],[11,1]]]}
