{"type":"Topology","bbox":[-75.99130562539693,6.105068505406207,-75.94458656202823,6.223435240703264],"transform":{"scale":[0.0000046723735742272475,0.000011837857315437243],"translate":[-75.99130562539693,6.105068505406207]},"objects":{"municipios":{"type":"GeometryCollection","geometries":[{"type":"Polygon","arcs":[[0,1,2]],"properties":{"codigo":"05093100000000000101","sector":"050931000000000001","pcode":"CO05093","area_m2":191934}},{"type":"Polygon","arcs":[[3,4,5,6]],"properties":{"codigo":"05093100000000000104","sector":"050931000000000001","pcode":"CO05093","area_m2":134137}},{"type":"Polygon","arcs":[[-5,7,8]],"properties":{"codigo":"05093100000000000105","sector":"050931000000000001","pcode":"CO05093","area_m2":97199}},{"type":"Polygon","arcs":[[9,10]],"properties":{"codigo":"05093200104001000101","sector":"050932001040010001","pcode":"CO05093","area_m2":132450}},{"type":"Polygon","arcs":[[-10,11]],"properties":{"codigo":"05093200104001000102","sector":"050932001040010001","pcode":"CO05093","area_m2":85938}},{"type":"Polygon","arcs":[[-6,-9,12,-2,13]],"properties":{"codigo":"05093100000000000102","sector":"050931000000000001","pcode":"CO05093","area_m2":116620}},{"type":"Polygon","arcs":[[14,-7,-14,-1]],"properties":{"codigo":"05093100000000000103","sector":"050931000000000001","pcode":"CO05093","area_m2":58486}}]}},"arcs":[[[1932,802],[-121,-19],[30,43],[-228,28]],[[1613,854],[-9,18],[54,83],[0,45],[-51,55],[-124,42],[-2,14]],[[1481,1111],[89,30],[-17,65],[60,74],[55,95],[180,97],[233,91],[235,110],[82,30],[4,32],[-60,-3],[-15,49],[84,23],[77,-27],[31,31],[107,-30],[90,0],[-21,-44],[-76,-44],[-4,-40],[-153,-28],[-35,-33],[-65,5],[-79,-17],[-45,-64],[-71,-10],[30,-45],[-138,-30],[-94,2],[-122,-61],[57,-49],[11,-59],[-26,-38],[-59,-29],[-21,-69],[99,-34],[-22,-37],[100,-34],[-38,-77],[21,-106],[-33,-35]],[[1730,608],[-90,-26],[-103,-58],[-101,5],[14,-88],[50,-102],[60,-12],[43,-53],[-71,-37],[6,-24],[83,-25],[87,-64],[44,-61],[-37,-37],[-100,-25],[-207,99],[-35,50],[40,57],[-46,4],[-8,45],[37,7],[-127,52],[-64,77],[-55,0],[-5,50],[21,93],[-29,48],[48,69],[-44,30]],[[1141,682],[133,5]],[[1274,687],[95,-28]],[[1369,659],[113,-27],[141,3],[107,-27]],[[1141,682],[-190,14],[-38,-13],[-176,4],[-50,-21],[-159,-21],[-115,-2],[-126,-41],[-102,-4],[-101,-32],[-49,22],[-35,69],[7,36],[172,45],[155,31],[78,1],[386,44],[181,15]],[[979,829],[61,-43],[-46,-36],[44,-23],[244,-20],[-8,-20]],[[9357,9729],[-101,-13],[-47,-21],[-117,-125]],[[9092,9570],[-52,30],[-257,57],[-13,-27],[-63,2],[-4,25],[-244,14],[-190,36],[-165,40],[-13,38],[181,34],[121,9],[96,-34],[172,40],[17,55],[80,5],[47,-27],[35,43],[-82,25],[-50,36],[10,25],[69,-6],[43,-37],[135,-16],[49,11],[140,-18],[-83,-3],[-114,-38],[23,-59],[-15,-25],[152,-79],[75,-4],[73,20],[92,-13]],[[9357,9729],[47,36],[37,-10],[-50,-45],[-28,3],[-85,-65],[62,-28],[179,-6],[220,-25],[256,-15],[-2,-16],[-176,10],[-61,-48],[-203,-43],[-36,-35],[-103,-46],[-186,51],[-58,-17],[-9,30],[-86,8],[-31,24],[48,78]],[[979,829],[67,40],[199,30],[65,22],[-8,58],[-85,39],[23,26],[80,18],[113,54],[48,-5]],[[1613,854],[-86,-136],[-92,10],[-66,-69]],[[1932,802],[-16,-22],[45,-51],[-28,-41],[-121,-72],[-82,-8]]]}
