{"type":"Topology","bbox":[-75.18945576067284,6.00989370656985,-75.13914808388603,6.064475464881626],"transform":{"scale":[0.00000503127080576209,0.000005458721703348005],"translate":[-75.18945576067284,6.00989370656985]},"objects":{"municipios":{"type":"GeometryCollection","geometries":[{"type":"Polygon","arcs":[[0,1,2]]},{"type":"Polygon","arcs":[[-2,3,4,5]]},{"type":"Polygon","arcs":[[6,7,-5]]},{"type":"Polygon","arcs":[[8,-7,-4,-1]]},{"type":"MultiPolygon","arcs":[[[9]],[[10]]]},{"type":"Polygon","arcs":[[11]]}]}},"arcs":[[[1376,8218],[-51,60],[-88,180],[-293,142],[-79,-133],[-84,42],[-103,89]],[[678,8598],[235,367],[-44,118],[62,46],[22,222],[98,46],[125,126],[34,80],[110,27]],[[1320,9630],[17,-35],[-12,-172],[-44,-31],[61,-160],[88,-36],[-11,-94],[-102,-68],[-70,-105],[17,-67],[98,-97],[91,-26],[76,-102],[-1,-159],[95,-30],[23,-54],[-59,-73],[43,-68],[-124,-53],[-130,18]],[[678,8598],[-72,57]],[[606,8655],[-130,42],[21,162],[-67,43],[118,190],[-77,93],[-75,224],[-4,121],[-51,118],[83,154]],[[424,9802],[95,133],[0,48],[141,16],[10,-80],[109,-21],[36,-55],[161,-25],[-23,-129],[171,42],[35,28],[125,26],[85,-30],[-49,-125]],[[606,8655],[-113,-178],[-20,-102],[-112,-77],[23,-181]],[[384,8117],[20,-55],[-56,-17],[-9,143],[-103,2],[-8,73],[-43,-1],[-84,58],[-22,51],[72,155],[-27,16],[52,73],[37,124],[-110,33],[-92,110],[35,73],[-40,64],[4,132],[34,106],[-39,117],[-5,124],[78,48],[44,-121],[86,79],[6,132],[66,159],[106,55],[38,-48]],[[1376,8218],[66,-213],[68,-42],[68,-112],[-98,-19],[-95,57],[-108,-16],[-81,-39],[-54,-98],[-93,-13],[-26,83],[-61,47],[-82,-24],[-49,208],[-55,78],[-6,-62],[-57,4],[6,53],[-112,35],[-34,-144],[-131,8],[13,134],[-71,-26]],[[6793,8854],[44,16],[175,-28],[6,-46],[57,4],[17,-44],[-140,1],[-50,-103],[-74,44],[-87,15],[-100,47],[6,119],[-131,110],[79,40],[198,-175]],[[5907,9351],[196,-54],[51,-47],[143,81],[-27,-75],[60,-67],[-41,-76],[116,-66],[-35,-45],[-142,46],[-12,49],[-109,137],[-214,88],[14,29]],[[9818,388],[63,-54],[78,15],[40,-89],[-79,-51],[-44,91],[-56,39],[41,-135],[79,-43],[-3,-34],[-151,-72],[11,-55],[-139,155],[-93,-21],[-57,23],[-18,62],[-120,-108],[-63,65],[-96,-35],[-61,-102],[-90,71],[-91,-91],[-113,70],[111,130],[136,4],[128,-25],[-22,47],[42,34],[-54,36],[3,50],[136,12],[63,-38],[45,78],[157,-29],[40,-52],[105,5],[-7,84],[79,-37]]]}