{"type":"Topology","bbox":[-75.95143971867242,6.459584531012696,-75.81625537777,6.566913074611045],"transform":{"scale":[0.000013519786068848157,0.000010733927752610193],"translate":[-75.95143971867242,6.459584531012696]},"objects":{"municipios":{"type":"GeometryCollection","geometries":[{"type":"Polygon","arcs":[[0,1,2,3]]},{"type":"Polygon","arcs":[[4,5,6,7,8,9,10]]},{"type":"Polygon","arcs":[[-6,11,12]]},{"type":"Polygon","arcs":[[13,-1,14,15]]},{"type":"Polygon","arcs":[[16]]},{"type":"MultiPolygon","arcs":[[[17]],[[18]]]},{"type":"Polygon","arcs":[[19,20,21,22]]},{"type":"Polygon","arcs":[[-3,23,24,25,26,-10,27]]},{"type":"Polygon","arcs":[[28,29,-23,30,31]]},{"type":"Polygon","arcs":[[-11,-27,32,-20,-30,33]]},{"type":"Polygon","arcs":[[34,-12,-5,-34,-29,35]]},{"type":"Polygon","arcs":[[-15,-4,-28,-9,36,37]]},{"type":"Polygon","arcs":[[38,-24,-2,-14,39]]},{"type":"Polygon","arcs":[[40]]},{"type":"Polygon","arcs":[[-31,-22,41,42]]},{"type":"Polygon","arcs":[[43,-7,-13,-35,44]]},{"type":"Polygon","arcs":[[45,-42,-21,-33,-26]]},{"type":"Polygon","arcs":[[46,-37,-8,-44,47]]},{"type":"Polygon","arcs":[[-40,-16,-38,-47,48]]},{"type":"Polygon","arcs":[[49]]},{"type":"Polygon","arcs":[[50]]}]}},"arcs":[[[9241,8985],[-81,-152],[-66,-112]],[[9094,8721],[-20,-7],[-26,40],[-60,17]],[[8988,8771],[55,118],[27,44],[-56,90],[49,49],[29,53]],[[9092,9125],[149,-140]],[[9224,9640],[52,-56]],[[9276,9584],[104,-109],[48,-40]],[[9428,9435],[40,-21],[16,-27],[-21,-74],[-70,-41]],[[9393,9272],[-13,-68],[-2,-81],[-11,-26]],[[9367,9097],[-21,14],[-103,127],[-42,21],[-26,28]],[[9175,9287],[-27,56],[-20,19]],[[9128,9362],[12,118],[17,52],[67,108]],[[9276,9584],[262,218]],[[9538,9802],[51,15],[34,-18],[-18,-49],[-22,-4],[-100,-94],[-53,-110],[-23,-21],[21,-86]],[[9324,8707],[-33,101],[-93,-88],[-53,-68],[-11,33],[-40,36]],[[9241,8985],[50,-51],[110,-103]],[[9401,8831],[-49,-102],[-28,-22]],[[3096,3370],[16,54],[31,-30],[2,-61],[-46,26],[-9,-55],[-30,-17],[-7,22],[24,27],[-10,25],[-46,-47],[-26,54],[41,22],[13,34],[17,-33],[30,-21]],[[2906,152],[29,5],[-43,-73],[-74,-84],[-17,23],[20,20],[-13,28],[36,52],[25,11],[-11,30],[13,41],[23,26],[41,1],[-29,-80]],[[2791,258],[-1,-31],[-26,-13],[-8,22],[22,33],[13,-11]],[[8924,9538],[62,-43]],[[8986,9495],[-71,-142]],[[8915,9353],[-98,79],[-124,140]],[[8693,9572],[82,10],[149,-44]],[[8988,8771],[-12,-73],[-46,-38],[-35,-12]],[[8895,8648],[-67,95],[-32,79]],[[8796,8822],[56,60],[62,80],[27,18],[61,66],[-36,50],[-47,35],[29,42],[15,-13],[70,123],[47,99]],[[9080,9382],[48,-20]],[[9175,9287],[-83,-162]],[[9118,9932],[-6,-32]],[[9112,9900],[-30,-38],[13,-15],[15,-84],[0,-45],[-84,-22],[-27,-53],[-24,16],[-17,-21],[16,-54],[-37,-16],[-13,-30]],[[8693,9572],[-44,21],[-99,127]],[[8550,9720],[33,76],[-85,144],[18,43],[27,16],[55,-5],[69,-37],[51,19],[44,5],[58,-12],[72,29],[29,-26],[34,12],[47,-14],[32,16],[84,-54]],[[9080,9382],[-29,30],[-35,58],[-30,25]],[[9112,9900],[41,-55],[11,-40],[-15,-53],[-28,-32],[42,11],[4,-38],[57,-53]],[[9472,9901],[0,-19],[54,-47],[12,-33]],[[9118,9932],[37,-22],[-18,-9],[21,-35],[40,-1],[42,-27],[10,24],[31,-30],[57,24],[6,-18],[32,13],[10,30],[86,20]],[[9367,9097],[25,-24],[21,-63],[61,-38],[0,-70]],[[9474,8902],[-34,-18],[-39,-53]],[[9654,8116],[33,-92],[40,-166],[-44,0],[-8,-18],[-118,71],[-58,45],[-193,-162],[-47,-48],[-85,100],[-62,58],[-24,52],[-42,146],[-14,117],[-2,138],[-50,117],[-19,62],[-66,112]],[[9324,8707],[77,-125],[118,-151],[29,-69],[15,-71],[61,-86],[30,-89]],[[296,2867],[-65,-69],[-22,7],[-24,38],[-43,-72],[-9,-40],[-56,-27],[-15,-31],[-50,-14],[-12,30],[10,97],[24,1],[30,57],[41,-39],[126,237],[40,-39],[71,-84],[-46,-52]],[[8915,9353],[-58,-109],[18,-62],[-58,-42],[-19,-44],[-47,-59],[-88,-57]],[[8663,8980],[-67,60],[-60,17],[0,62],[20,44],[-28,81],[46,76],[33,43],[-37,46],[21,25],[-13,66],[-64,124],[4,52],[-58,17],[-16,81],[20,11],[19,-31],[67,-34]],[[9559,9317],[-17,16],[-6,-97],[-34,-13],[-49,11],[-10,17],[-50,21]],[[9472,9901],[175,12],[82,13],[40,16],[-23,-61],[-32,-129],[40,3],[75,51],[76,-168],[-35,9],[13,-40],[-30,-73],[-7,-80],[-15,15],[-90,-73],[3,-87],[-79,27],[9,52],[-28,7],[-7,-50],[-43,18],[-13,-59],[-24,13]],[[8796,8822],[-37,54],[-35,21],[-61,83]],[[9535,9005],[-7,-42],[-54,-61]],[[9559,9317],[10,-60],[-53,-173],[19,-79]],[[9535,9005],[81,-51],[77,25],[19,-42],[49,-21],[12,-43],[38,-36],[-7,-36],[18,-75],[-14,-66],[6,-67],[18,-54],[14,-102],[-5,-65],[-14,-20],[-7,-76],[21,-50],[-121,-67],[-66,-43]],[[9737,6108],[9,-28],[39,38],[24,-59],[35,35],[3,-151],[9,-3],[29,-125],[22,-47],[-55,-4],[5,-139],[70,30],[31,-71],[23,-116],[4,-72],[10,-18],[2,-108],[-107,-25],[-5,-63],[25,-91],[-100,-59],[-10,143],[-19,27],[28,44],[47,-28],[8,64],[-45,-2],[-12,54],[5,39],[-15,88],[63,44],[-1,40],[-38,11],[-53,75],[-72,-18],[-12,12],[-21,80],[6,62],[111,22],[17,26],[-73,35],[-18,75],[-29,35],[2,65],[31,19],[-18,52],[-2,56],[30,4],[17,-48]],[[8062,9538],[-39,-1],[15,-43],[-30,-26],[-101,4],[-71,-29],[-146,-121],[-32,-30],[-56,-77],[-67,-46],[-6,21],[74,38],[44,87],[6,-5],[126,105],[85,61],[55,12],[72,-11],[31,14],[-9,61],[49,-14]]]}
