{"type":"Topology","bbox":[-75.40175646439701,6.479519624612166,-75.25094709167195,6.544647097130214],"transform":{"scale":[0.000015082445517058096,0.000006513398591663985],"translate":[-75.40175646439701,6.479519624612166]},"objects":{"municipios":{"type":"GeometryCollection","geometries":[{"type":"Polygon","arcs":[[0]]},{"type":"Polygon","arcs":[[1,2,3]]},{"type":"Polygon","arcs":[[4]]},{"type":"Polygon","arcs":[[5,6,-2,7]]},{"type":"Polygon","arcs":[[-7,8,9,10,11,-3]]},{"type":"Polygon","arcs":[[12]]},{"type":"Polygon","arcs":[[13,14,15,16,-9,-6]]},{"type":"Polygon","arcs":[[17,18,-16]]},{"type":"Polygon","arcs":[[19,-11]]},{"type":"Polygon","arcs":[[20,-18,-15]]},{"type":"MultiPolygon","arcs":[[[21]],[[22]],[[23]]]}]}},"arcs":[[[9924,9999],[21,-140],[20,-38],[34,-44],[-9,-34],[-24,38],[7,25],[-15,-2],[-28,48],[-13,50],[1,47],[-5,47],[11,3]],[[550,1344],[-19,-45],[-10,-52],[-19,-26],[18,-78],[-69,-90],[-58,-63]],[[393,990],[-15,66],[0,57],[14,81],[-13,116],[-27,35],[-49,103],[-14,63],[-20,9],[-22,-20],[-31,15],[-25,37],[-2,-14],[-26,19],[-19,-5],[-26,-37],[-17,-12],[-56,9],[-32,31]],[[13,1543],[-13,28],[4,16],[45,27],[49,49],[-14,45],[-13,77],[-3,50],[-11,47],[10,36],[50,-3],[42,16],[46,51],[18,-76],[24,-66],[-9,-49],[63,-29],[-2,-13],[66,-7],[27,-13],[5,-67],[19,-71],[-26,-30],[6,-50],[13,-60],[19,-25],[30,-16],[36,51],[39,-97],[17,-20]],[[7853,9542],[-8,-27],[-48,-59],[-19,-46],[19,-52],[-11,-31],[7,-14],[-9,-31],[25,-42],[11,14],[24,-50],[-10,-45],[26,-29],[-16,-35],[-20,-69],[-20,69],[-14,82],[-26,37],[-47,-11],[-19,23],[-10,47],[-10,0],[-30,-64],[-26,-3],[-11,29],[13,11],[10,41],[12,95],[-34,70],[19,41],[29,-52],[8,44],[10,-8],[-7,-32],[9,-80],[29,-20],[16,18],[21,62],[30,71],[38,47],[17,-23],[17,32],[5,-10]],[[1024,513],[13,69],[-10,21],[-21,-10],[-29,15],[-17,85],[-14,25],[-20,55],[-31,58],[-19,58],[-32,118],[1,45],[-18,42],[-15,5],[-24,-65],[-33,-19],[-26,-50],[-30,11],[-46,-46],[-40,-5],[-52,22],[-25,-3],[-23,-76],[-13,-17],[32,-123],[-24,-3],[-22,-37]],[[486,688],[-4,18],[2,63],[-5,70],[-22,-5],[17,19],[-15,24],[-21,9],[-27,-21],[-9,15],[3,45],[-12,65]],[[550,1344],[12,26],[33,-134],[8,33],[34,-6],[-2,-26],[6,-55],[-11,-52],[26,-57],[20,17],[5,-33],[-6,-32],[47,4],[61,74],[20,16],[17,-3],[7,61],[1,52],[18,100],[17,37],[9,47],[4,52],[8,-15],[21,-72],[71,-128],[2,-79],[8,-31],[-18,-51],[28,-110],[30,41],[21,-32],[17,-99],[20,-22],[-22,-95],[-22,-44],[6,-24],[36,-23],[5,12],[19,-11],[35,-59],[15,28],[10,37],[31,-42],[-20,-62],[9,-16],[32,58],[6,-19],[-13,-27],[-5,-46],[19,-20],[-3,-37],[19,-41],[-11,-45],[-16,35],[-21,117],[-14,-23],[-14,37],[-13,6],[-11,-27],[-13,9],[-4,-83],[-48,17],[-31,18],[1,-26],[-17,10],[-5,32]],[[486,688],[8,-107]],[[494,581],[-39,18],[-22,51],[1,31],[-50,58],[-30,-7],[1,59],[-62,-13],[-19,-27],[-28,56],[21,68],[-18,38],[26,60],[-14,90],[-19,61],[2,13],[-18,73]],[[226,1210],[23,26],[23,-42],[64,136],[-43,72],[-74,91],[-31,-89],[-6,15],[-23,5]],[[159,1424],[16,16],[8,45],[-11,38],[-24,3],[-19,-10],[-11,-44],[-19,-26],[-20,12],[-41,9],[-14,17],[-16,50],[5,9]],[[7653,4304],[39,-3],[8,-93],[11,16],[24,-17],[23,5],[19,23],[-1,-40],[24,-83],[41,-27],[12,-104],[-22,-39],[-3,50],[-43,45],[5,18],[-33,34],[-21,40],[-26,27],[-55,-6],[-37,31],[4,62],[13,17],[-6,31],[24,13]],[[1024,513],[-11,-22],[-11,16],[-20,-68],[-10,-68],[-3,-84],[-14,-83]],[[955,204],[-73,61],[-11,-10],[42,234],[-42,115],[2,4],[-77,217],[-34,-58],[-15,30],[-4,-56],[-11,-32],[-33,-1],[-2,-16],[-47,-2],[-26,-29]],[[624,661],[-8,17],[-42,34],[3,-12],[41,-41],[11,-116],[21,-75],[6,-42],[-22,-7],[7,-124],[-5,-32]],[[636,263],[-19,24],[-52,-58],[-30,245],[-13,67],[-2,41],[-26,-1]],[[624,661],[36,-88],[11,-59],[38,-16],[31,-62],[5,-54],[-6,-82],[1,-111]],[[740,189],[-35,-10],[-6,-40],[-23,29],[4,-50],[-16,3],[-25,-16],[-17,80],[-14,-6],[2,29],[13,-1],[13,56]],[[226,1210],[-11,13],[-46,21],[-22,29],[-21,-44],[-11,25],[9,108],[22,51],[13,11]],[[955,204],[-17,-22],[-12,-49],[-26,3],[-47,-32],[-2,-39],[-28,-63],[-17,18],[-32,-9],[-38,18],[1,64],[23,92],[-20,4]],[[9082,4823],[10,-23],[6,-50],[-18,-2],[2,-132],[9,-10],[-3,-50],[16,-19],[-7,-26],[11,-12],[-3,-47],[-25,-17],[-11,63],[15,25],[-10,66],[7,25],[-12,1],[-8,132],[8,0],[-3,49],[9,2],[-4,38],[11,-13]],[[8975,4987],[23,-4],[-3,-54],[-22,14],[-4,-11],[-29,47],[25,17],[10,-9]],[[9128,5163],[-29,-34],[-19,-36],[-20,-67],[-13,-101],[-7,18],[-31,25],[5,32],[15,30],[22,24],[-6,15],[49,92],[6,-6],[25,50],[11,-22],[-8,-20]]]}
