{"type":"Topology","bbox":[-75.08875897385553,6.798393925364891,-74.92457754403915,6.916412859656261],"transform":{"scale":[0.000016419784960134097,0.00001180307373651063],"translate":[-75.08875897385553,6.798393925364891]},"objects":{"municipios":{"type":"GeometryCollection","geometries":[{"type":"Polygon","arcs":[[0,1,2,3,4,5]]},{"type":"Polygon","arcs":[[6,-2,7,8]]},{"type":"Polygon","arcs":[[9,10,11,-8,-1,12]]},{"type":"Polygon","arcs":[[13,14,15,16,-9,-12]]},{"type":"Polygon","arcs":[[17,18,19,-14,-11,20]]},{"type":"Polygon","arcs":[[21,22,-15,-20]]},{"type":"Polygon","arcs":[[23,24,-17,25]]},{"type":"Polygon","arcs":[[-5,26,27,28]]},{"type":"Polygon","arcs":[[29,30,-22,-19,31,32]]},{"type":"Polygon","arcs":[[-32,-18,33]]},{"type":"Polygon","arcs":[[34,-26,-16,-23,-31]]},{"type":"Polygon","arcs":[[35,-27,-4]]},{"type":"Polygon","arcs":[[-33,-34,-21,-10,36]]},{"type":"Polygon","arcs":[[-3,-7,-25,37,-28,-36]]},{"type":"MultiPolygon","arcs":[[[38]],[[39]],[[40]],[[41]],[[42]],[[43]]]}]}},"arcs":[[[737,9583],[-10,-148]],[[727,9435],[-200,21],[-16,-2]],[[511,9454],[-18,-10],[-4,-12],[-21,-8],[-14,36],[-8,13]],[[446,9473],[9,128],[7,80],[-5,79],[-4,17],[-18,54],[3,23],[-6,2],[-62,15]],[[370,9871],[-53,11],[-5,53],[10,15],[33,-1],[5,9],[22,-1],[9,12]],[[391,9969],[27,-9],[18,-21],[8,-17],[27,-39],[34,-35],[11,1],[21,19],[22,-40],[24,-17],[2,-14],[-2,-47],[4,-39],[10,-56],[8,-6],[20,8],[40,-42],[20,-13],[52,-19]],[[708,9151],[-50,7],[3,54],[-15,19],[-36,1],[3,72],[-41,5],[-7,16],[-1,32],[3,26],[-76,15],[5,33],[15,23]],[[727,9435],[-5,-71]],[[722,9364],[-14,-213]],[[790,9537],[7,-23],[15,-15],[81,-14],[-3,-32],[15,4],[26,-13],[57,-37],[-8,-74]],[[980,9333],[-51,6]],[[929,9339],[-207,25]],[[737,9583],[26,-9],[23,-17],[4,-20]],[[929,9339],[-7,-72]],[[922,9267],[-13,-141]],[[909,9126],[-55,6]],[[854,9132],[-146,19]],[[1142,9385],[-3,-42],[-11,-100]],[[1128,9243],[-51,6]],[[1077,9249],[-155,18]],[[980,9333],[53,-6],[6,54],[12,5],[1,11],[60,-9],[30,-3]],[[1077,9249],[-14,-134],[-3,-6],[-49,4]],[[1011,9113],[-102,13]],[[836,9016],[-3,6],[-18,-11],[-36,-14],[-12,5],[-18,23],[9,22],[-19,13],[-35,-24],[2,40],[-5,6]],[[701,9082],[7,69]],[[854,9132],[-6,-76],[1,-22],[-13,-18]],[[370,9871],[-9,-77],[2,-5],[-5,-68],[-90,12],[-12,-177]],[[256,9556],[-42,6],[-74,5],[-21,-4]],[[119,9563],[1,9],[-17,7],[8,74],[62,-10],[-7,26],[-10,17],[-31,35],[-36,43],[-12,27],[-2,27],[-15,7],[-39,29],[-19,-3],[-2,10],[25,17],[59,32],[26,36],[19,13],[10,1],[19,-13],[23,10],[20,19],[13,3],[21,-8],[16,26],[12,-1],[12,-26],[15,1],[11,23],[12,5],[11,-11],[30,-2],[23,-17],[14,0]],[[1431,9160],[-18,1],[-13,14],[-31,-6],[-18,2],[-22,14],[-15,-54],[-21,36],[-35,-27],[11,-25],[1,-20],[-14,-23],[-9,-7],[-9,15],[-16,12],[-19,1],[-8,-10],[6,-45],[-40,29],[-13,-8],[-33,7],[-18,-19],[-12,-5],[-12,-15],[-7,0],[-24,-20],[4,-11],[12,5],[-5,-13],[10,-21],[12,15],[10,-5],[-11,-29],[-11,-10],[20,-49],[-8,-7],[-8,14],[-35,76],[-9,-9],[-19,19],[-11,-4],[-31,8],[-29,3],[-3,-3],[-33,6]],[[897,8992],[6,63],[49,-6],[53,-8],[6,72]],[[1128,9243],[64,-8]],[[1192,9235],[171,-21],[12,0],[11,10],[16,44],[16,25],[8,4],[6,-14],[-11,-25],[10,-31],[-6,-26],[6,-41]],[[1142,9385],[87,-8],[8,-3],[-15,-47],[5,-7],[-2,-44],[-12,-15],[-15,-9],[-6,-17]],[[897,8992],[-30,-17],[-10,-23],[-16,-21],[-9,7],[4,24],[6,9],[-6,45]],[[446,9473],[-25,-2],[-9,22],[-15,18],[-18,1],[-13,-8],[-13,-15],[-12,-28],[-7,-5],[-14,17],[-29,11],[4,67],[-39,5]],[[790,9537],[17,23],[12,-25],[14,-2],[10,9],[10,-16],[-1,-19],[13,10],[27,-10],[18,12],[11,-4],[10,40],[7,-6],[25,-4],[39,-46],[18,-11],[-1,7],[24,19],[9,-28],[42,34],[7,15],[15,13],[3,-30],[9,-14],[-6,-30],[2,-30],[15,-15],[6,7],[19,-5],[17,2],[16,-23],[5,-14],[11,36],[11,9],[-1,-25],[12,12],[17,-10],[13,17],[14,7],[32,-27],[-15,-43],[15,6],[18,-20],[13,-5],[29,12],[9,16],[12,-7],[-7,-20],[40,-11],[-6,-20],[19,-19],[13,19],[14,1],[-7,-39],[10,-6],[12,12],[11,-1],[9,-23],[2,-21],[17,-23],[-18,-23],[-6,-19],[-14,-16],[0,-12],[-18,-14],[-6,7],[-18,-3],[-12,9],[4,8]],[[701,9082],[-48,8],[-8,-5],[-34,11],[-18,-23],[-28,-14],[-24,4],[-38,-1],[-22,-5],[-20,3],[5,21],[33,49],[-15,13],[-24,11],[-1,8],[13,42],[10,82],[-17,43],[-2,26],[-19,-27],[-24,-4],[-62,13],[-66,-2],[-7,-7],[-9,8],[-2,-14],[-31,-17],[-24,57],[-11,62],[-17,-18],[-20,-15],[-40,11],[-15,-3],[0,61],[-8,2],[-4,17],[0,45],[12,24],[3,15]],[[9890,355],[-5,-68],[8,-16],[5,5],[16,-20],[24,-18],[9,7],[10,-7],[14,8],[21,-18],[-7,-18],[14,-10],[-10,-20],[-27,14],[-2,-10],[-13,3],[5,16],[-25,17],[-34,35],[-14,-15],[-17,26],[-35,-12],[11,-24],[-9,-13],[-23,10],[-6,-23],[-23,-1],[-13,5],[-14,28],[18,-7],[26,-1],[27,31],[34,21],[19,31],[-3,21],[2,27],[17,-4]],[[9865,27],[-6,-27],[-46,19],[-11,7],[6,26],[14,16],[15,-11],[8,-17],[21,-8],[-1,-5]],[[9903,111],[22,-18],[-7,-12],[22,-43],[-6,-4],[-16,31],[-6,-2],[-14,24],[-8,-2],[1,14],[12,12]],[[9843,154],[10,-31],[12,-9],[5,19],[10,-9],[4,10],[9,-7],[-11,-32],[-16,7],[-10,-9],[-3,13],[-15,-14],[-5,6],[12,23],[-8,29],[-15,18],[4,8],[17,-22]],[[9866,180],[-6,-1],[11,41],[6,-8],[-2,-24],[-9,-8]],[[9697,282],[12,-1],[36,-22],[-6,-13],[-15,6],[-34,4],[-21,21],[-29,10],[11,25],[13,-6],[-3,-7],[36,-17]]]}
