{"type":"Topology","bbox":[-75.14470094339163,6.369367919964529,-75.13856487108768,6.380759568466523],"transform":{"scale":[6.136685972542893e-7,0.000001139278778077211],"translate":[-75.14470094339163,6.369367919964529]},"objects":{"municipios":{"type":"GeometryCollection","geometries":[{"type":"Polygon","arcs":[[0,1]],"properties":{"codigo":"05021100000000000102","sector":"050211000000000001","pcode":"CO05021","area_m2":178153}},{"type":"Polygon","arcs":[[-2,2]],"properties":{"codigo":"05021100000000000101","sector":"050211000000000001","pcode":"CO05021","area_m2":223972}}]}},"arcs":[[[7572,4488],[919,-247],[538,-517],[-920,-112],[-502,48],[-107,-436],[484,-617],[40,-437],[-400,-436],[-732,-69],[-424,-464],[49,-363],[-537,160],[172,-576],[-495,-422],[-255,181],[524,412],[-15,217],[-507,853],[162,223],[428,63],[442,580],[-380,377],[-741,361],[-300,-296],[-809,72],[-710,-291],[-615,547],[-275,84],[-1027,-127],[-84,191],[-584,-198],[-567,81],[-344,724],[616,599],[132,394],[372,367]],[[1120,5414],[292,313],[3158,-4],[1392,-246],[542,-35],[59,-992],[773,-55],[236,93]],[[1120,5414],[-293,85],[221,252],[-378,563],[442,176],[996,-322],[440,199],[571,-31],[388,268],[809,-93],[143,294],[-704,632],[227,53],[313,489],[-610,217],[29,642],[-930,205],[137,248],[567,39],[664,229],[-93,146],[991,294],[1039,-206],[1136,-71],[740,21],[1102,-545],[844,-248],[-93,-406],[-697,-282],[478,-677],[-523,-535],[-41,-296],[711,-197],[62,-237],[-938,-290],[-649,-5],[-253,-171],[316,-450],[-712,-916]]]}
