{"type":"Topology","bbox":[-76.18326075002477,6.840631043171348,-76.12153111914711,6.913805955607507],"transform":{"scale":[0.000006173580445811029,0.00000731822306592244],"translate":[-76.18326075002477,6.840631043171348]},"objects":{"municipios":{"type":"GeometryCollection","geometries":[{"type":"Polygon","arcs":[[0]],"properties":{"codigo":"05842200201005000101","sector":"058422002010050001","pcode":"CO05842","area_m2":17780}},{"type":"Polygon","arcs":[[1,2,3]],"properties":{"codigo":"05842100000000000101","sector":"058421000000000001","pcode":"CO05842","area_m2":98689}},{"type":"Polygon","arcs":[[4,-2,5]],"properties":{"codigo":"05842100000000000102","sector":"058421000000000001","pcode":"CO05842","area_m2":49312}},{"type":"Polygon","arcs":[[-3,-5,6]],"properties":{"codigo":"05842100000000000103","sector":"058421000000000001","pcode":"CO05842","area_m2":157965}},{"type":"Polygon","arcs":[[7]],"properties":{"codigo":"05842200305003000101","sector":"058422003050030001","pcode":"CO05842","area_m2":16636}},{"type":"Polygon","arcs":[[8]],"properties":{"codigo":"05842200304004000101","sector":"058422003040040001","pcode":"CO05842","area_m2":53195}}]}},"arcs":[[[9999,9750],[-33,-29],[-142,41],[13,63],[-107,127],[46,47],[120,-92],[103,-157]],[[1210,8084],[74,-34],[11,27],[107,30],[28,-66],[-8,-57]],[[1422,7984],[-137,-19]],[[1285,7965],[-118,70],[-113,-8],[-74,14],[-124,84],[-150,37],[-92,-51],[-141,-45],[-114,-65],[-169,2],[-190,83],[25,46],[135,-60],[131,-17],[287,100],[74,50],[148,-2],[149,-60],[72,1],[45,105],[-25,5],[26,88],[115,138],[77,53],[62,73],[7,44],[48,38],[85,111],[55,-13],[-13,-40],[63,-26],[-9,-37],[-62,-49],[-45,-66],[-106,-48],[-166,-173],[-60,-133],[-10,-121],[102,-9]],[[1732,8121],[-76,-6],[-139,-105],[-95,-26]],[[1210,8084],[70,5],[73,34],[75,10],[109,51],[45,-18],[239,150],[67,67],[86,39],[217,61],[-2,-37],[-60,-6],[-54,-132],[-174,0],[-93,-67],[-30,-81],[-46,-39]],[[1732,8121],[81,-85],[94,-48],[-43,-44],[-150,17],[-21,-90],[116,-29],[173,-146],[106,-165],[19,-62],[-28,-1],[110,-133],[44,96],[146,15],[36,-56],[59,-7],[7,-32],[-53,-67],[118,-93],[-81,24],[-19,-20],[-81,49],[0,31],[-71,13],[-44,51],[-47,5],[0,-56],[151,-141],[94,-136],[4,-71],[-41,-30],[-77,45],[-106,104],[-198,218],[-69,136],[-50,166],[-59,162],[-43,46],[-94,41],[-215,-39],[-76,12],[-39,33],[-100,131]],[[8123,2673],[77,-56],[72,-92],[22,25],[79,-46],[4,-53],[45,-47],[-110,-19],[-25,78],[-66,31],[-94,123],[-44,17],[-12,50],[-85,51],[88,-15],[49,-47]],[[7318,669],[9,-68],[-137,-130],[-103,-120],[-52,-163],[-214,-161],[-86,3],[23,84],[38,14],[88,106],[109,196],[93,53],[34,122],[52,-5],[32,34],[114,35]]]}
