{"type":"Topology","bbox":[-75.11649658600828,5.838146132095531,-74.85572482962732,5.976139808061355],"transform":{"scale":[0.000026079783616457796,0.000013800747671349491],"translate":[-75.11649658600828,5.838146132095531]},"objects":{"municipios":{"type":"GeometryCollection","geometries":[{"type":"Polygon","arcs":[[0]],"properties":{"codigo":"05652200302010000101","sector":"056522003020100001","pcode":"CO05652","area_m2":21644}},{"type":"Polygon","arcs":[[1,2]],"properties":{"codigo":"05652100000000000101","sector":"056521000000000001","pcode":"CO05652","area_m2":65448}},{"type":"Polygon","arcs":[[-2,3]],"properties":{"codigo":"05652100000000000102","sector":"056521000000000001","pcode":"CO05652","area_m2":149226}},{"type":"Polygon","arcs":[[4]],"properties":{"codigo":"05652200203001000101","sector":"056522002030010001","pcode":"CO05652","area_m2":177904}},{"type":"Polygon","arcs":[[5]],"properties":{"codigo":"05652200101008000101","sector":"056522001010080001","pcode":"CO05652","area_m2":68753}}]}},"arcs":[[[9980,5084],[13,19],[6,-36],[-13,-30],[0,-32],[-13,-87],[22,-12],[-14,-20],[-24,12],[-8,-33],[-10,26],[36,47],[10,77],[-2,31],[-13,98],[-11,34],[-17,26],[36,14],[13,-105],[-11,-29]],[[615,9210],[1,-15],[-98,-52],[11,-68],[-8,-4]],[[521,9071],[-14,-29],[-6,23],[16,22],[-2,21],[-10,-4],[0,35],[-14,-8],[-11,11],[7,56],[13,10],[13,24],[8,34],[19,36],[10,-3],[24,16],[14,-17],[-12,-17],[17,-38],[16,-10],[6,-23]],[[615,9210],[10,-4],[48,0],[-5,-40],[-27,-35],[-14,-5],[-1,-27],[-20,-22],[-14,-34],[-15,-7],[-8,32],[-8,-11],[8,-37],[17,-10],[19,24],[3,-15],[23,19],[4,-24],[29,-14],[-2,-27],[-11,19],[-7,-13],[-15,5],[22,-80],[0,-15],[-16,-14],[-8,-31],[-19,-15],[-5,35],[4,17],[-4,35],[-21,3],[-8,-16],[-10,7],[-7,-77],[-6,-22],[-11,25],[14,17],[-10,22],[-22,4],[9,31],[-15,32],[9,13],[12,-27],[7,16],[-40,68],[19,39],[-2,20]],[[5559,613],[13,-29],[21,11],[20,-31],[5,-26],[-20,-32],[19,-23],[19,22],[5,-15],[-7,-24],[-13,-18],[11,-1],[14,-31],[10,5],[-1,-49],[24,-66],[-6,-20],[-1,-38],[12,-30],[-13,-21],[26,-34],[-24,-17],[5,-36],[-13,-26],[25,-29],[4,-52],[-8,7],[-55,-8],[-9,44],[-22,41],[14,53],[16,11],[-5,32],[6,18],[18,12],[7,19],[-10,32],[2,31],[-11,26],[-37,40],[-8,30],[-32,-4],[-18,43],[-3,20],[14,15],[-13,33],[-15,-11],[-20,13],[22,40],[-12,41],[19,31],[-7,25],[11,20],[21,-44]],[[64,9984],[24,1],[11,-29],[-6,-17],[-6,-56],[-10,-3],[-1,-31],[13,-28],[-6,-17],[-4,-50],[-9,-3],[-11,18],[1,25],[-19,-4],[-17,6],[-12,48],[-12,18],[3,23],[11,8],[-6,35],[11,42],[-1,27],[29,1],[17,-14]]]}
