{"type":"Topology","bbox":[-75.24375878859951,6.8073641460209515,-75.19733012384415,6.848541934565928],"transform":{"scale":[0.000004643330808616218,0.000004118190673564979],"translate":[-75.24375878859951,6.8073641460209515]},"objects":{"municipios":{"type":"GeometryCollection","geometries":[{"type":"Polygon","arcs":[[0]],"properties":{"codigo":"05315200105009000101","sector":"053152001050090001","pcode":"CO05315","area_m2":56124}},{"type":"Polygon","arcs":[[1,2]],"properties":{"codigo":"05315100000000000101","sector":"053151000000000001","pcode":"CO05315","area_m2":204329}},{"type":"Polygon","arcs":[[-2,3]],"properties":{"codigo":"05315100000000000102","sector":"053151000000000001","pcode":"CO05315","area_m2":205024}},{"type":"MultiPolygon","arcs":[[[4]],[[5]]],"properties":{"codigo":"05315200105002000101","sector":"053152001050020001","pcode":"CO05315","area_m2":29004}},{"type":"Polygon","arcs":[[6]],"properties":{"codigo":"05315200105007000101","sector":"053152001050070001","pcode":"CO05315","area_m2":24610}},{"type":"Polygon","arcs":[[7]],"properties":{"codigo":"05315200105008000101","sector":"053152001050080001","pcode":"CO05315","area_m2":28738}}]}},"arcs":[[[6243,105],[-13,-105],[-102,10],[-6,106],[36,119],[132,251],[74,106],[251,114],[56,72],[72,390],[-41,291],[-113,111],[114,94],[109,-167],[49,-282],[0,-49],[-92,-445],[-26,-68],[-193,-154],[-120,-31],[-63,-37],[58,-146],[-46,-42],[-92,-7],[-44,-131]],[[1404,2005],[-98,46],[-40,-25],[-60,-100],[-48,-31],[-173,31],[-82,-41],[-108,31],[-19,-122],[-358,86],[-28,-106],[-28,-35],[-148,32]],[[214,1771],[-62,-26],[-56,15],[-16,69],[46,43],[2,92],[-62,-28],[-57,130],[21,82],[-16,249],[-14,22],[91,118],[57,-66],[75,-133],[184,212],[60,-25],[77,-163],[-51,-42],[176,-108],[62,11],[169,-45],[99,2],[37,-40],[-16,107],[10,77],[50,66],[46,137],[-57,53],[78,171],[-30,64],[52,86],[75,36],[106,107],[71,-24],[45,29],[46,-44],[99,82],[-47,-166],[-31,-31],[-127,4],[-73,-51],[-20,-47],[17,-67],[42,-37],[26,-122],[104,-64],[23,-99],[-39,-40],[-12,-156],[-55,-29],[27,-65],[-3,-80],[-39,-32]],[[1404,2005],[-121,-162],[128,-101],[74,-34],[-27,-94],[-22,-158],[69,-142],[32,-15],[19,-102],[-59,-65],[-95,18],[-48,36],[-94,20],[-35,-27],[-53,16],[-66,-24],[-66,-59],[-76,16],[-66,54],[-26,-61],[-120,45],[-17,-69],[9,-73],[-73,-6],[-33,73],[-37,-42],[12,-79],[-54,10],[-19,169],[-95,-18],[-91,40],[-68,-22],[-24,-37],[-70,-18],[-12,103],[21,49],[141,46],[-45,14],[25,114],[40,-10],[7,197],[-102,11],[29,35],[-91,31],[9,87]],[[5794,8825],[-16,-74],[-53,-49],[-73,-160],[43,-123],[-89,25],[-12,77],[-31,30],[-45,-56],[-39,45],[62,78],[60,-29],[18,58],[46,30],[19,109],[-59,18],[49,49],[13,54],[-41,68],[35,9],[34,63],[-10,59],[66,46],[64,-28],[-75,-49],[-14,-72],[21,-77],[35,-9],[-8,-92]],[[6199,9961],[100,21],[15,-33],[-75,-52],[-94,-18],[-63,-53],[-85,-151],[64,-65],[-14,-60],[-146,-17],[2,71],[58,159],[51,94],[54,48],[62,13],[-28,24],[58,57],[41,-38]],[[8556,5301],[50,-24],[0,-63],[-29,-12],[49,-152],[32,-63],[61,5],[27,44],[25,-70],[104,-100],[130,-25],[-23,-64],[-81,-10],[-77,15],[-118,75],[-104,139],[-35,1],[62,-82],[47,-153],[-17,-166],[-31,-79],[-47,16],[-35,105],[-96,6],[41,79],[37,3],[52,-86],[48,-2],[3,129],[-84,167],[-56,20],[21,90],[-19,92],[43,44],[-20,111],[40,10]],[[9992,6482],[-7,-62],[-443,45],[-19,-6],[-70,-133],[-72,-40],[-76,-119],[-82,-45],[-90,-25],[53,-134],[-58,-64],[-30,46],[-59,-47],[-12,48],[45,37],[-30,124],[24,54],[171,85],[72,91],[84,58],[92,170],[514,-43],[-7,-40]]]}
