{"type":"Topology","bbox":[-76.3935372845944,8.263266381972425,-76.22033059699527,8.543706396159992],"transform":{"scale":[0.00001732240100001336,0.00002804680609936665],"translate":[-76.3935372845944,8.263266381972425]},"objects":{"municipios":{"type":"GeometryCollection","geometries":[{"type":"Polygon","arcs":[[0,1,2,3]],"properties":{"codigo":"05665100000000000106","sector":"056651000000000001","pcode":"CO05665","area_m2":90762}},{"type":"Polygon","arcs":[[4]],"properties":{"codigo":"05665200402008000101","sector":"056652004020080001","pcode":"CO05665","area_m2":60196}},{"type":"Polygon","arcs":[[5,6,-1,7,8]],"properties":{"codigo":"05665100000000000101","sector":"056651000000000001","pcode":"CO05665","area_m2":186019}},{"type":"Polygon","arcs":[[-2,-7,9,10,11,12,13]],"properties":{"codigo":"05665100000000000102","sector":"056651000000000001","pcode":"CO05665","area_m2":165589}},{"type":"Polygon","arcs":[[-12,14,15,16,17,18]],"properties":{"codigo":"05665100000000000103","sector":"056651000000000001","pcode":"CO05665","area_m2":381412}},{"type":"Polygon","arcs":[[19,20,21,22]],"properties":{"codigo":"05665100000000000104","sector":"056651000000000001","pcode":"CO05665","area_m2":260666}},{"type":"Polygon","arcs":[[-3,-14,23,24]],"properties":{"codigo":"05665100000000000105","sector":"056651000000000001","pcode":"CO05665","area_m2":292315}},{"type":"Polygon","arcs":[[25,-10,-6,26,-22]],"properties":{"codigo":"05665100000000000107","sector":"056651000000000001","pcode":"CO05665","area_m2":106973}},{"type":"Polygon","arcs":[[-17,27]],"properties":{"codigo":"05665100000000000301","sector":"056651000000000003","pcode":"CO05665","area_m2":88855}},{"type":"Polygon","arcs":[[-13,-19,28,29,30,-24]],"properties":{"codigo":"05665100000000000108","sector":"056651000000000001","pcode":"CO05665","area_m2":815143}},{"type":"Polygon","arcs":[[-23,-27,-9,31]],"properties":{"codigo":"05665100000000000109","sector":"056651000000000001","pcode":"CO05665","area_m2":189812}},{"type":"Polygon","arcs":[[-30,32]],"properties":{"codigo":"05665100000000000110","sector":"056651000000000001","pcode":"CO05665","area_m2":338934}},{"type":"Polygon","arcs":[[-26,-21,33,-15,-11]],"properties":{"codigo":"05665100000000000201","sector":"056651000000000002","pcode":"CO05665","area_m2":420850}},{"type":"Polygon","arcs":[[34]],"properties":{"codigo":"05665200402002000101","sector":"056652004020020001","pcode":"CO05665","area_m2":143970}},{"type":"Polygon","arcs":[[35]],"properties":{"codigo":"05665200203003000101","sector":"056652002030030001","pcode":"CO05665","area_m2":68637}},{"type":"Polygon","arcs":[[36]],"properties":{"codigo":"05665200101004000101","sector":"056652001010040001","pcode":"CO05665","area_m2":295880}},{"type":"MultiPolygon","arcs":[[[37]],[[38]]],"properties":{"codigo":"05665200407014000101","sector":"056652004070140001","pcode":"CO05665","area_m2":46796}}]}},"arcs":[[[995,551],[-6,-21],[57,-6],[-105,-115]],[[941,409],[-94,37]],[[847,446],[34,32],[40,58],[7,0],[10,36]],[[938,572],[60,-8],[-3,-13]],[[1667,6880],[-2,-8],[27,-1],[-3,-21],[42,-8],[-20,-7],[7,-10],[-63,-19],[-8,-11],[-25,8],[-28,-5],[-3,20],[-30,3],[-3,29],[8,17],[47,15],[-13,11],[13,7],[24,-20],[18,0],[5,23],[15,-3],[-8,-20]],[[1102,332],[-80,38]],[[1022,370],[-81,39]],[[995,551],[35,-4],[53,-14],[73,-47],[33,-13],[-8,-21],[42,-3]],[[1223,449],[-118,-115],[-3,-2]],[[1022,370],[-8,1],[-89,-102]],[[925,269],[-19,5],[-29,-2],[19,11],[2,23],[-35,29],[1,14],[-20,11],[-28,2],[-8,8],[39,23],[-39,13],[-6,-9]],[[802,397],[-42,-13],[-23,11],[-12,25],[-31,2],[0,10],[31,25],[-6,14],[-39,2]],[[680,473],[28,29]],[[708,502],[139,-56]],[[802,397],[-46,-44],[1,-78],[17,-21],[-45,-6],[4,-15],[-54,24],[-39,7],[27,-28]],[[667,236],[-175,-8],[5,20],[-40,0],[18,13],[2,14],[-57,-2],[19,46]],[[439,319],[17,35],[44,80]],[[500,434],[15,28]],[[515,462],[41,7],[51,-12],[29,9],[8,25],[36,-18]],[[1258,263],[-22,-18],[19,-7],[-13,-16],[23,-12],[-11,-13],[18,-12],[-39,-50],[-33,1],[5,-32],[-42,2],[-15,-42],[-48,10],[-9,15],[-27,-5]],[[1064,84],[6,13],[-18,1],[-7,20],[-19,0],[-6,11],[18,10],[-28,11],[3,17],[-23,1],[-10,18],[-25,7],[12,17],[-23,5],[6,22]],[[950,237],[12,7],[63,-29],[61,72],[22,-10],[7,8],[22,-10],[26,30]],[[1163,305],[95,-42]],[[708,502],[-32,13],[7,30],[15,3],[12,41],[25,97],[18,23],[58,21],[212,73]],[[1023,803],[85,-21],[-36,-9],[-12,-21],[-18,7],[-72,6],[-38,-14],[-23,-31],[-43,3],[-25,-24],[-13,-27],[-7,-34],[53,-5],[-15,-36],[78,-10],[1,-15]],[[950,237],[-25,32]],[[1102,332],[61,-27]],[[439,319],[-49,-1],[25,8],[7,27],[20,1],[23,43],[-83,5],[-26,-2],[-82,8],[-10,14],[30,0],[2,16],[-21,1],[56,61],[67,-13],[-4,-23],[12,-12],[24,-7],[-9,-11],[79,0]],[[515,462],[-53,6],[-18,9],[-7,15],[13,23],[-15,41],[23,31],[-1,26],[-46,-6],[-19,18],[46,18],[11,27],[-28,10],[-14,-3],[-9,-16],[-40,4],[-19,-12],[-24,2],[-14,27],[-1,24],[14,17],[21,-16],[36,3],[16,28],[-1,11],[-43,8],[-34,-19],[-15,2],[-12,15]],[[282,755],[-7,13],[9,25],[31,11],[36,-5],[28,10],[-12,24],[22,16],[51,24],[14,-11]],[[454,862],[-16,-17],[11,-28],[38,-6],[62,-14],[14,8],[-10,29],[53,7],[28,-23],[19,-8],[45,0],[72,-14],[29,-1],[25,-25],[44,0],[106,51],[103,171],[34,-7],[-79,-168],[-9,-14]],[[1223,449],[38,-4],[-12,-13],[119,-6],[4,-6],[-69,-60],[25,-11],[23,-3],[5,-16],[21,6],[9,-18],[-13,-32],[-94,-28],[-21,5]],[[282,755],[-113,5],[9,36],[-13,17],[-55,11],[-6,-5],[-67,17],[4,50],[-40,-4],[4,7],[61,20],[47,8],[29,29],[47,-15],[21,16],[41,-4],[-6,24],[15,17],[70,-24],[-11,-25],[22,1],[69,-18],[19,22],[57,3],[6,-41],[14,-7],[-37,-38],[-15,5]],[[1064,84],[-1,-33],[13,-6],[-43,6],[3,14],[-47,3],[-32,41],[-32,6],[8,30],[-123,26],[3,-28],[-15,-12],[39,-75],[-15,-1],[-17,-55],[-42,20],[-44,11],[0,24],[-24,15],[-58,0],[0,17],[32,5],[6,31],[-8,113]],[[4481,4881],[18,-10],[-4,-28],[-11,-13],[13,-11],[-10,-7],[-38,-57],[8,-10],[-25,-23],[-33,4],[-29,-22],[8,-29],[-15,-46],[-24,-2],[-36,6],[3,13],[-43,17],[67,118],[20,49],[69,-18],[20,32],[13,-2],[29,39]],[[9888,8059],[70,-25],[3,15],[15,6],[23,-11],[-10,-16],[-14,3],[-16,-22],[32,-11],[-7,-8],[-57,15],[-11,-17],[26,-2],[-2,-16],[-37,-1],[-24,-29],[-31,-20],[-31,23],[28,25],[-14,5],[17,38],[9,36],[-17,11],[44,-7],[4,8]],[[6868,9971],[39,0],[40,-8],[-15,-79],[-50,7],[-41,18],[-9,-3],[-13,-29],[-16,-17],[1,-15],[19,-16],[-30,-5],[31,-25],[-71,-12],[-25,19],[-41,-16],[24,-23],[-35,-14],[-19,19],[-60,-10],[4,-18],[-32,-7],[-9,13],[-99,-83],[-12,-7],[-76,1],[-12,8],[29,17],[9,23],[14,5],[-10,25],[-36,40],[38,12],[9,20],[10,-25],[32,12],[33,1],[26,7],[13,-8],[33,32],[52,28],[49,-27],[16,-28],[16,3],[5,14],[-10,13],[12,7],[33,4],[10,8],[-10,13],[20,15],[-9,28],[48,0],[41,13],[-11,9],[0,19],[-40,41],[5,9],[44,-20],[36,-8]],[[350,6838],[30,1],[36,-13],[7,-18],[35,-10],[-8,-12],[46,-10],[1,-13],[-28,13],[-58,7],[-21,-12],[-32,28],[-96,15],[5,10],[44,8],[11,9],[28,-3]],[[208,6832],[-3,-9],[-29,4],[13,7],[-27,4],[29,14],[16,-3],[1,-17]]]}
