{"type":"Topology","bbox":[-76.37030841836213,6.669472951741028,-76.09224298303565,6.807420926778642],"transform":{"scale":[0.00002780932446509473,0.000013796177121473527],"translate":[-76.37030841836213,6.669472951741028]},"objects":{"municipios":{"type":"GeometryCollection","geometries":[{"type":"Polygon","arcs":[[0,1,2,3,4]]},{"type":"Polygon","arcs":[[5,6,7]]},{"type":"Polygon","arcs":[[8,-5,9,-7]]},{"type":"Polygon","arcs":[[10,11,12,13,14]]},{"type":"Polygon","arcs":[[15,16,-11,17]]},{"type":"Polygon","arcs":[[18,-12,-17]]},{"type":"Polygon","arcs":[[19,-8,-10,-4,20,21,22]]},{"type":"Polygon","arcs":[[23,-1,-9,-6,-20]]},{"type":"Polygon","arcs":[[24,-21,-3,25]]},{"type":"Polygon","arcs":[[-25,26,-18,-15,27,-22]]},{"type":"Polygon","arcs":[[28,-13,-19,-16,-27]]},{"type":"Polygon","arcs":[[29]]},{"type":"MultiPolygon","arcs":[[[30]],[[31]]]},{"type":"Polygon","arcs":[[32]]},{"type":"Polygon","arcs":[[33]]},{"type":"Polygon","arcs":[[34]]},{"type":"Polygon","arcs":[[35]]},{"type":"Polygon","arcs":[[36]]}]}},"arcs":[[[8742,8034],[3,-55],[30,-4]],[[8775,7975],[-3,-18],[-20,-16]],[[8752,7941],[-92,-23]],[[8660,7918],[-1,101]],[[8659,8019],[55,14],[28,1]],[[8715,8280],[-9,-57],[-1,-44],[14,-38]],[[8719,8141],[-26,-15],[-10,47],[-30,-6]],[[8653,8167],[0,107],[62,6]],[[8719,8141],[0,-35],[20,-24],[-5,-14],[8,-34]],[[8659,8019],[-6,148]],[[8538,7519],[0,-81],[-12,-36]],[[8526,7402],[1,-62],[16,-7],[-13,-123]],[[8530,7210],[-4,-42],[-6,2],[-18,-59],[-44,-109],[-37,-63],[-20,-23],[-16,5]],[[8385,6921],[14,33],[-27,86],[6,51],[22,63],[2,37],[17,33],[1,35],[11,31],[-2,63],[12,60],[3,82],[5,34],[-3,98],[9,58],[-12,42],[2,77],[-2,36],[7,85],[-1,61],[10,37]],[[8459,8023],[34,-36],[14,-43],[-4,-25],[3,-45],[33,-53],[-4,-73],[4,-42],[-14,-2],[-4,-43],[8,-36],[4,-72],[5,-34]],[[8740,7461],[33,-39],[-1,-46],[-17,-176],[-16,-19],[-53,22],[-58,28]],[[8628,7231],[13,123],[-91,40],[-24,8]],[[8538,7519],[57,-15],[69,-34],[53,-29],[18,-3],[5,23]],[[8628,7231],[-8,-62],[-90,41]],[[8732,8352],[-15,8],[-3,-36],[7,-34],[-6,-10]],[[8660,7918],[14,-40],[3,-55]],[[8677,7823],[-23,31],[-38,14],[-12,76],[6,135],[-12,67],[-32,47],[6,46],[-14,56],[8,44]],[[8566,8339],[15,15],[13,54],[1,23],[-12,54],[-8,90],[0,65],[-19,58],[3,37],[91,-179],[-1,43],[3,93],[8,63],[1,59],[-8,61],[-17,71],[16,76],[-7,36],[1,30],[-14,56],[2,31],[-8,64],[-1,45],[-10,43],[30,21],[-2,25],[40,10],[4,-26],[18,-17],[-7,-55],[4,-34],[17,-34],[16,-59],[-4,-44],[9,-66],[22,-23],[13,-75],[-5,-24],[-26,-24],[-6,-49],[2,-55],[-17,-28],[-4,-69],[15,-56],[1,-20],[-11,-48],[2,-66],[18,-25],[3,-41],[-15,-93]],[[8732,8352],[14,-36],[-2,-38],[16,-29],[0,-25],[17,3],[19,-10],[21,-56],[22,-32],[24,33],[26,22],[-2,-47],[-41,-65],[-11,-32],[-19,-14],[-25,-2],[-8,-20],[20,-11],[2,-19],[-30,1]],[[8804,7460],[-5,23],[-23,-1],[-19,18],[-4,21],[-21,36],[-1,37],[-25,-11],[-3,97],[-18,42],[-8,32],[4,50],[-4,19]],[[8752,7941],[-1,-37],[11,-84],[7,-32],[7,-67],[-11,-47],[26,-25],[41,14],[12,14],[10,49],[7,-75],[-28,-28],[-19,-6],[-55,17],[-7,-15],[4,-24],[15,-22],[7,-39],[27,-36],[-1,-38]],[[8804,7460],[-50,16],[-16,22],[-14,-14],[16,-23]],[[8459,8023],[9,42],[16,16],[5,77],[26,53],[19,56],[11,52],[21,20]],[[8804,7460],[12,-60],[22,-81],[-7,-53],[4,-34],[-6,-57],[-24,-56],[2,-45],[-22,-11],[-24,-26],[-16,-45],[-28,4],[-36,-11],[-10,-31],[-14,-14],[-42,1],[-12,-38],[-42,-69],[-7,-32],[3,-67],[-16,-20],[23,-28],[-4,-36],[-21,-43],[-16,-44],[-15,-8],[-11,74],[2,60],[-28,90],[-13,5],[-89,-102],[-52,-70],[-31,63],[35,84],[64,161]],[[5975,7587],[9,-2],[5,-63],[8,-1],[12,-35],[-1,-27],[-13,-13],[-15,6],[-7,-41],[-31,2],[-2,122],[6,0],[0,52],[29,0]],[[4500,9995],[11,-1],[-4,-64],[7,-18],[-16,-25],[16,-22],[2,-40],[-25,20],[-11,-13],[-14,22],[-11,-63],[-21,-40],[-7,-45],[-18,-15],[-13,-25],[12,-37],[-22,-42],[-8,16],[-14,-58],[-15,-32],[-9,21],[-15,-3],[2,51],[13,54],[39,97],[9,-13],[22,81],[-3,23],[-20,31],[1,50],[-11,19],[80,26],[22,-26],[5,59],[16,12]],[[4359,9921],[-3,-28],[-23,11],[1,19],[25,-2]],[[9950,5387],[3,-61],[7,4],[5,-79],[22,-34],[12,-176],[-17,-20],[9,65],[-6,51],[-13,30],[1,29],[-14,9],[-5,27],[-13,16],[-3,-22],[-13,8],[4,31],[-14,0],[-6,37],[6,4],[-20,60],[14,13],[14,-58],[-4,-25],[32,-47],[1,35],[-7,65],[5,38]],[[7919,5040],[17,-1],[-1,-33],[11,-11],[-20,-68],[8,-31],[-7,-16],[-19,4],[20,15],[-6,33],[-17,-2],[-7,37],[15,8],[-6,37],[-16,-11],[5,46],[23,-7]],[[5760,8951],[24,-31],[29,35],[9,37],[9,9],[9,-51],[-6,-48],[-25,-8],[6,-33],[38,-46],[-8,-12],[-23,1],[-9,-11],[5,-28],[-19,-8],[4,-27],[-13,-6],[-1,22],[-27,40],[-2,69],[-7,7],[-4,52],[-7,12],[18,25]],[[2378,54],[-3,-24],[23,-24],[-9,-4],[-38,14],[0,19],[-17,22],[4,18],[21,-21],[5,22],[14,-22]],[[23,5530],[14,-13],[36,-72],[25,-9],[-5,56],[8,-12],[11,20],[21,-24],[-24,-55],[16,-14],[0,-35],[11,4],[-13,-74],[-19,2],[-6,19],[-21,-113],[-15,-37],[2,36],[-6,34],[6,48],[11,50],[-34,11],[2,19],[-28,11],[7,42],[6,-20],[28,-16],[10,32],[-26,36],[-6,21],[-34,68],[8,16],[15,-31]]]}