{"type":"Topology","bbox":[-76.75798366628078,7.743704660324222,-76.50721297691229,7.85114692533835],"transform":{"scale":[0.000025079576894538855,0.00001074530103151593],"translate":[-76.75798366628078,7.743704660324222]},"objects":{"municipios":{"type":"GeometryCollection","geometries":[{"type":"Polygon","arcs":[[0,1,2,3,4]]},{"type":"Polygon","arcs":[[5,6]]},{"type":"Polygon","arcs":[[7]]},{"type":"Polygon","arcs":[[8,9,10]]},{"type":"Polygon","arcs":[[11,-4,12,13,14,15]]},{"type":"Polygon","arcs":[[16,17,-9,18]]},{"type":"Polygon","arcs":[[19]]},{"type":"MultiPolygon","arcs":[[[20]],[[21]]]},{"type":"Polygon","arcs":[[22]]},{"type":"Polygon","arcs":[[23,-13,-3,24,25]]},{"type":"Polygon","arcs":[[26,27,28]]},{"type":"Polygon","arcs":[[29,-16,30,31,-27,32,-18,33,34]]},{"type":"Polygon","arcs":[[35,36,37,-28,-32,38]]},{"type":"Polygon","arcs":[[-6,39,40,41]]},{"type":"MultiPolygon","arcs":[[[42,43,44,45]],[[-25,-2,46]]]},{"type":"Polygon","arcs":[[47,48,-39,-31,-15]]},{"type":"Polygon","arcs":[[49,50,51,52]]},{"type":"Polygon","arcs":[[53,-35,54,-50,55,-44]]},{"type":"Polygon","arcs":[[56]]},{"type":"Polygon","arcs":[[57,-19,-11,58,59,60]]},{"type":"Polygon","arcs":[[-55,-34,-17,-58,61,-51]]},{"type":"Polygon","arcs":[[62,-45,-56,-53,63,-41]]},{"type":"Polygon","arcs":[[-5,-12,-30,-54,-43,64]]},{"type":"Polygon","arcs":[[-59,-10,-33,-29,-38,65,66]]},{"type":"Polygon","arcs":[[-60,-67,67]]},{"type":"Polygon","arcs":[[-49,68,69,-36]]},{"type":"Polygon","arcs":[[-69,-48,-14,-24,70]]},{"type":"Polygon","arcs":[[71]]},{"type":"Polygon","arcs":[[72]]},{"type":"MultiPolygon","arcs":[[[73]],[[74]]]},{"type":"Polygon","arcs":[[75]]},{"type":"Polygon","arcs":[[76]]},{"type":"Polygon","arcs":[[77]]},{"type":"Polygon","arcs":[[78]]},{"type":"Polygon","arcs":[[79]]},{"type":"Polygon","arcs":[[80]]}]}},"arcs":[[[4324,772],[24,-60]],[[4348,712],[-14,-162]],[[4334,550],[-88,48]],[[4246,598],[11,119]],[[4257,717],[7,85],[60,-30]],[[4588,988],[92,-44]],[[4680,944],[-17,-80],[-62,37],[2,32],[-10,5],[-5,50]],[[4583,882],[47,-53],[-3,-97],[-43,15],[-14,-16],[-21,8],[-1,-25],[-24,-9],[6,92],[-4,8],[2,99],[55,-22]],[[4085,1478],[-6,-243]],[[4079,1235],[-95,52]],[[3984,1287],[23,233],[78,-42]],[[4176,754],[81,-37]],[[4246,598],[-30,17],[8,-174]],[[4224,441],[-84,47]],[[4140,488],[-2,162],[-25,24],[3,107]],[[4116,781],[60,-27]],[[4178,1449],[-13,-260]],[[4165,1189],[-86,46]],[[4085,1478],[24,-11],[69,-18]],[[302,9855],[8,-23],[-82,-186],[-144,-321],[-78,-168],[-6,21],[73,159],[-69,193],[20,51],[23,-55],[-11,-31],[39,-98],[10,-3],[20,55],[7,-19],[30,61],[-71,179],[1,19],[16,36],[75,-184],[18,37],[-4,10],[33,96],[-37,93],[7,17],[-17,36],[5,12],[35,-85],[10,26],[32,-69],[13,40],[-12,27],[15,-6],[25,78],[8,-17],[8,19]],[[1043,9537],[7,-22],[-33,-78],[-53,-85],[2,100],[-4,45],[70,112],[10,-33],[1,-39]],[[954,9495],[-1,-36],[-35,49],[-4,23],[7,67],[-10,17],[-8,47],[18,19],[6,21],[30,32],[-3,-239]],[[3877,4188],[-34,22],[12,72],[-5,3],[6,76],[33,-64],[-12,-109]],[[4283,406],[-59,35]],[[4334,550],[55,-22]],[[4389,528],[-9,-44],[-35,28],[-5,-144],[-57,38]],[[4072,1044],[-4,-136]],[[4068,908],[-128,68]],[[3940,976],[16,137],[116,-69]],[[4183,924],[-7,-170]],[[4116,781],[-51,25]],[[4065,806],[3,102]],[[4072,1044],[7,191]],[[4165,1189],[26,-14]],[[4191,1175],[-8,-251]],[[4019,704],[-36,9],[-39,26]],[[3944,739],[-30,40],[-38,17],[19,202]],[[3895,998],[45,-22]],[[4065,806],[-4,-115],[-42,13]],[[4588,988],[-19,3],[-48,30],[-100,46]],[[4421,1067],[11,40],[16,123],[-1,59],[17,133],[0,52],[-5,59]],[[4459,1533],[41,0],[11,-18],[14,-48],[17,-101],[11,-49],[12,-22],[18,-4],[51,14],[35,-18],[39,-11],[-6,-112],[19,-110],[15,-8],[-10,-82],[8,-6],[-4,-37],[-50,23]],[[4323,867],[-27,10]],[[4296,877],[9,97],[19,136]],[[4324,1110],[80,-34]],[[4404,1076],[-14,-112],[-17,-3],[-7,-73],[-43,-1],[0,-20]],[[4348,712],[23,-38],[9,111],[-23,8],[9,91],[39,-10],[-4,-49],[8,-3],[-4,-63],[14,-8],[-5,-60],[-37,32],[-4,-62],[29,-35],[-13,-98]],[[4140,488],[2,-175],[-18,-6]],[[4124,307],[-2,41],[-19,-3],[-11,207],[-54,26],[-2,-25],[-27,13],[10,138]],[[4311,1118],[-55,26]],[[4256,1144],[15,365],[-34,7],[9,198],[-1,26],[24,36],[-3,14]],[[4266,1790],[10,31],[10,63],[14,55],[20,31],[28,-30],[5,-55],[-6,-40],[-30,-49],[-21,-47],[-9,-34],[-3,-63],[13,-174],[21,-133],[10,-15]],[[4328,1330],[-17,-212]],[[4296,877],[-113,47]],[[4191,1175],[65,-31]],[[4311,1118],[13,-8]],[[1802,678],[16,12],[6,-28],[31,37],[6,-35],[19,-53],[22,72],[24,-25],[-37,-116],[84,-235],[-9,2],[-13,-99],[-17,-10],[-21,9],[10,96],[12,13],[-32,14],[-64,61],[6,8],[-51,243],[-15,76],[10,17],[11,-29],[2,-30]],[[4146,1727],[14,-24],[38,-19],[-3,-76],[-7,1],[-10,-160]],[[3984,1287],[-57,28]],[[3927,1315],[51,555]],[[3978,1870],[22,32],[19,2],[15,-40],[12,-91],[22,-69],[35,-17],[43,40]],[[4146,1727],[38,28],[45,9],[37,26]],[[4421,1067],[-17,9]],[[4328,1330],[24,-8],[27,-52],[27,-8],[8,56],[3,99],[19,89],[23,27]],[[4323,867],[-3,-55],[4,-40]],[[3895,998],[9,79],[-23,7],[-34,24],[10,128],[-10,5],[-54,-2],[0,36],[-12,-1],[0,29],[112,-1]],[[3893,1302],[32,-9],[2,22]],[[3893,1302],[26,293],[-43,-34],[31,308],[5,41],[28,-32],[24,-13],[14,5]],[[4124,307],[2,-67]],[[4126,240],[-22,8],[-93,49],[1,66],[-85,38],[-2,64],[14,-6],[15,133],[-25,14],[15,133]],[[4283,406],[-4,-38],[12,-7],[-11,-92],[-12,7],[-7,-76],[-18,12],[3,27],[-34,20],[-6,-63],[-80,44]],[[4347,4387],[29,-17],[0,-89],[-24,2],[-5,-20],[31,-6],[3,-89],[9,-14],[-16,-46],[-5,46],[-52,7],[-29,-10],[-7,-65],[-69,-6],[2,61],[67,9],[8,122],[13,117],[33,-11],[12,9]],[[1785,7151],[13,3],[4,-22],[24,-1],[-7,-61],[14,-72],[-8,-69],[-18,24],[-34,-30],[-28,106],[7,33],[-19,73],[38,54],[14,-38]],[[8055,346],[18,-5],[15,-85],[22,-22],[0,-52],[-6,0],[-2,-73],[22,-39],[-9,-22],[-13,32],[-1,-49],[-34,12],[-2,-32],[-28,-4],[0,86],[-27,0],[-12,35],[-29,-65],[3,-24],[-34,15],[1,40],[13,-2],[20,27],[6,-15],[15,31],[-23,60],[0,39],[11,32],[28,15],[16,23],[11,48],[19,-6]],[[7901,223],[4,-14],[8,-132],[-41,12],[8,40],[-11,48],[28,58],[4,-12]],[[785,9675],[21,-85],[-11,-7],[-63,-70],[-31,149],[55,66],[10,20],[19,-73]],[[4208,4556],[-17,-2],[-12,-203],[-19,-206],[26,-10],[-8,-55],[-9,-18],[-4,-70],[-37,14],[-22,-17],[-18,9],[-4,50],[6,20],[-5,41],[10,29],[16,10],[0,32],[14,2],[9,33],[-4,36],[-13,4],[9,48],[31,42],[9,40],[-7,166],[15,42],[4,43],[11,24],[6,-20],[20,-4],[-7,-80]],[[604,9990],[21,6],[11,-51],[10,11],[8,-32],[-10,-13],[26,-127],[-22,-24],[-32,161],[-22,-31],[-18,-9],[-9,18],[-16,69],[22,-6],[31,28]],[[9995,5424],[4,-70],[-3,-60],[-35,-6],[-7,-28],[-10,3],[-8,34],[14,55],[-2,51],[28,29],[0,23],[16,0],[3,-31]],[[160,8178],[12,-27],[-14,-13],[-17,-39],[-22,37],[-22,-21],[8,86],[21,-5],[15,-19],[10,26],[9,-25]],[[2120,6639],[27,-32],[44,-33],[38,-63],[-11,-51],[6,-28],[17,-31],[-4,-51],[-20,47],[-73,65],[-16,-25],[-13,3],[-15,42],[-35,49],[12,84],[27,30],[16,-6]]]}
