{"type":"Topology","bbox":[-75.24347447877204,6.672448022517513,-75.13639604880257,6.785568302218673],"transform":{"scale":[0.000010708913888336482,0.000011313159286044549],"translate":[-75.24347447877204,6.672448022517513]},"objects":{"municipios":{"type":"GeometryCollection","geometries":[{"type":"Polygon","arcs":[[0,1,2,3]],"properties":{"codigo":"05310100000000000104","sector":"053101000000000001","pcode":"CO05310","area_m2":79736}},{"type":"Polygon","arcs":[[4]],"properties":{"codigo":"05310200205004000101","sector":"053102002050040001","pcode":"CO05310","area_m2":47543}},{"type":"Polygon","arcs":[[5,6,7]],"properties":{"codigo":"05310100000000000101","sector":"053101000000000001","pcode":"CO05310","area_m2":602527}},{"type":"Polygon","arcs":[[8,-4,9,-6,10]],"properties":{"codigo":"05310100000000000102","sector":"053101000000000001","pcode":"CO05310","area_m2":74444}},{"type":"MultiPolygon","arcs":[[[11]],[[12]]],"properties":{"codigo":"05310200103002000101","sector":"053102001030020001","pcode":"CO05310","area_m2":32005}},{"type":"Polygon","arcs":[[-3,13,-7,-10]],"properties":{"codigo":"05310100000000000103","sector":"053101000000000001","pcode":"CO05310","area_m2":128227}},{"type":"Polygon","arcs":[[14,-1,-9]],"properties":{"codigo":"05310100000000000105","sector":"053101000000000001","pcode":"CO05310","area_m2":169272}},{"type":"Polygon","arcs":[[15]],"properties":{"codigo":"05310200102001000101","sector":"053102001020010001","pcode":"CO05310","area_m2":89932}}]}},"arcs":[[[2365,814],[53,-90],[4,-21],[56,-110]],[[2478,593],[20,-39],[-4,-48],[-36,1],[-6,10],[-30,-28],[-8,19],[-42,-21],[19,-47],[-33,1],[-8,18],[-34,13],[-3,45],[11,42],[-20,34],[-26,-2],[-36,22]],[[2242,613],[27,43],[5,163]],[[2274,819],[91,-5]],[[9914,5215],[85,-7],[-15,-41],[-4,-58],[-98,-41],[-46,6],[-16,-17],[-38,7],[8,22],[-56,30],[-31,36],[93,60],[32,-2],[45,8],[41,-3]],[[2633,1035],[-38,-12],[-24,5],[-45,-20],[-60,1],[-14,-35],[-175,-45],[-109,1],[-8,-38],[-1,-69]],[[2159,823],[-3,-28],[-73,2]],[[2083,797],[-30,28],[-24,6],[-43,-18],[-14,17],[16,41],[-6,37],[-1,112],[-92,-44],[-33,0],[2,42],[25,8],[14,36],[-44,5],[4,24],[-20,48],[-39,-1],[15,28],[-15,27],[-26,13],[-20,27],[-24,9],[0,44],[-20,-4],[-24,34],[6,11],[-52,24],[-14,-26],[-139,56],[-18,48],[-33,-41],[-27,-20],[-3,50],[76,48],[-45,54],[-75,67],[-33,53],[-87,154],[6,-19],[-67,-15],[5,38],[-36,-13],[-12,38],[6,28],[42,51],[-21,36],[24,13],[55,-10],[22,-31],[3,-25],[-26,-34],[9,-29],[51,-87],[22,-21],[7,-30],[21,-19],[56,-83],[33,-17],[79,-21],[22,-61],[38,-28],[46,-16],[34,-30],[56,-10],[20,17],[50,14],[32,21],[42,-24],[57,-3],[100,-16],[32,-38],[42,3],[114,-35],[4,-17],[38,-18],[35,4],[24,-23],[26,12],[53,6],[79,36],[-9,-25],[46,-30],[-9,-7],[79,-5],[56,10],[5,-34],[20,-41],[-24,-33],[-3,-24],[42,-57],[-33,-57]],[[2423,818],[-21,-4],[-53,52],[16,-52]],[[2274,819],[-115,4]],[[2633,1035],[-13,-42],[15,-3],[7,-25],[-14,-8],[6,-21],[-125,25],[10,-54],[-21,-40],[-62,10],[-27,-31],[14,-28]],[[4637,8682],[13,2],[41,-24],[14,1],[36,-33],[135,5],[-17,-17],[6,-21],[-68,-18],[10,-22],[-69,-19],[-16,-14],[-7,67],[-12,23],[-24,-1],[-4,38],[-63,2],[-18,-16],[-20,1],[8,26],[-8,23],[12,11],[51,-14]],[[5017,8696],[30,-4],[27,-30],[-4,-10],[-46,25],[-41,-24],[-32,-2],[-6,-43],[-31,-2],[-14,33],[26,23],[-6,14],[50,13],[18,-6],[29,13]],[[2242,613],[-35,-5],[-18,-21],[-75,-58],[4,-15],[-37,-22],[-5,-25],[-58,-7],[-21,43],[-47,9],[0,-17],[-36,-20],[-29,22],[-17,0],[-20,-92],[-14,-22],[-23,9],[-21,-23],[-14,14],[11,76],[-12,23],[44,66],[24,-4],[25,24],[38,-8],[44,17],[17,-3],[61,33],[-32,21],[5,18],[39,26],[-16,28],[14,7],[11,44],[27,13],[7,33]],[[2423,818],[4,-50],[45,-37],[32,-6],[7,-14],[36,35],[34,5],[-1,-20],[59,-17],[10,-37],[-48,4],[41,-26],[12,-18],[21,5],[87,-11],[8,-16],[-21,-15],[-2,-85],[-30,-2],[-4,-21],[-30,4],[50,-131],[30,-40],[-19,-31],[-18,32],[-34,11],[-12,-14],[-5,-59],[4,-57],[23,-21],[4,-52],[-12,-24],[-24,-10],[16,-29],[-17,-25],[-38,-21],[-10,-25],[-21,12],[-20,33],[-3,45],[56,35],[-28,38],[5,40],[-24,42],[19,35],[-14,42],[18,26],[-28,29],[-51,22],[-9,39],[-19,28],[31,89],[-1,15],[-54,23]],[[677,9954],[30,-14],[1,-31],[-40,-41],[-41,-29],[-5,6],[-74,-17],[-2,-24],[-30,-57],[-18,-2],[-18,-40],[-60,-5],[-137,-24],[-38,-97],[-21,-15],[-33,-4],[-61,6],[-30,-15],[-12,9],[-48,-19],[-40,14],[2,34],[36,4],[56,24],[74,2],[20,18],[17,-7],[26,17],[5,48],[37,53],[44,7],[98,-9],[44,67],[22,12],[-32,21],[38,23],[30,-9],[46,35],[2,29],[-28,36],[29,20],[51,18],[28,1],[32,-45]]]}
