{"type":"Topology","bbox":[-75.60512678328786,6.131551699214171,-75.51011599988209,6.188964861522847],"transform":{"scale":[0.00000950202854343124,0.000005741890419909613],"translate":[-75.60512678328786,6.131551699214171]},"objects":{"municipios":{"type":"GeometryCollection","geometries":[{"type":"Polygon","arcs":[[0,1,2,3]]},{"type":"Polygon","arcs":[[4,5,6,-2]]},{"type":"Polygon","arcs":[[7,8,9,10,11,12,-5,-1,13]]},{"type":"Polygon","arcs":[[14,15,16,17,18,-13]]},{"type":"Polygon","arcs":[[19,20,21,-18]]},{"type":"Polygon","arcs":[[22,23,24,25]]},{"type":"Polygon","arcs":[[26,-8,27,-23,28]]},{"type":"Polygon","arcs":[[29,30,-25,31,32,33,34]]},{"type":"Polygon","arcs":[[35,36,37,38,39]]},{"type":"Polygon","arcs":[[-6,-19,-22,40,41,42,43,-36,44]]},{"type":"Polygon","arcs":[[45,46,47,-37,-44]]},{"type":"Polygon","arcs":[[48,49,-38,-48]]},{"type":"Polygon","arcs":[[50,-11,51]]},{"type":"Polygon","arcs":[[52,53]]},{"type":"Polygon","arcs":[[54,55,56,-20,57]]},{"type":"Polygon","arcs":[[58,59,60]]},{"type":"Polygon","arcs":[[61]]},{"type":"Polygon","arcs":[[62,63]]},{"type":"Polygon","arcs":[[64]]},{"type":"Polygon","arcs":[[65,66,67,68,69,70,71,72]]},{"type":"Polygon","arcs":[[73,74,75,76,77]]},{"type":"Polygon","arcs":[[78,-77,79,80,81,82,83,84]]},{"type":"Polygon","arcs":[[85,86,87,-74,88,89]]},{"type":"Polygon","arcs":[[90,-75,-88,91]]},{"type":"Polygon","arcs":[[92]]},{"type":"Polygon","arcs":[[93,94]]},{"type":"Polygon","arcs":[[95,96]]},{"type":"Polygon","arcs":[[97]]},{"type":"Polygon","arcs":[[98]]},{"type":"Polygon","arcs":[[-96,99]]},{"type":"Polygon","arcs":[[100]]},{"type":"Polygon","arcs":[[101]]},{"type":"Polygon","arcs":[[102]]},{"type":"Polygon","arcs":[[103]]},{"type":"Polygon","arcs":[[104]]},{"type":"Polygon","arcs":[[105,106]]},{"type":"Polygon","arcs":[[-24,-28,-14,-4,107,-32]]},{"type":"Polygon","arcs":[[108,109]]},{"type":"Polygon","arcs":[[110,111,112,113,-82]]},{"type":"Polygon","arcs":[[114,115,116,117,118,-49,-47,119]]},{"type":"Polygon","arcs":[[120,121,122,123,124,-117,125]]},{"type":"Polygon","arcs":[[126,-15,-12,-51,127,128,-113]]},{"type":"Polygon","arcs":[[129,-120,-46,-43]]},{"type":"Polygon","arcs":[[-112,130,131,-16,-127]]},{"type":"Polygon","arcs":[[132,133,134,-126,-116,135]]},{"type":"Polygon","arcs":[[136,137,138,-35]]},{"type":"Polygon","arcs":[[-135,139,140,141,-121]]},{"type":"Polygon","arcs":[[142,143,-29,-26,-31,144,145]]},{"type":"Polygon","arcs":[[-30,-139,146,-145]]},{"type":"Polygon","arcs":[[-7,-45,-40,147,-33,-108,-3]]},{"type":"Polygon","arcs":[[-57,148,149,150,-41,-21]]},{"type":"Polygon","arcs":[[-124,151,152,153,154,155]]},{"type":"Polygon","arcs":[[156,-155,157,158,-137,-34,-148,-39,-50,-119]]},{"type":"Polygon","arcs":[[-9,-27,-144,159,160]]},{"type":"Polygon","arcs":[[-128,-52,-10,-161,161]]},{"type":"Polygon","arcs":[[162,-162,-160,-143,163,-54,164,-84]]},{"type":"Polygon","arcs":[[-83,-114,-129,-163]]},{"type":"Polygon","arcs":[[165,166,167,168,-136,-115,-130,-42,-151]]},{"type":"Polygon","arcs":[[169,-71,-131,-111,-81]]},{"type":"Polygon","arcs":[[-70,170,-58,-17,-132]]},{"type":"Polygon","arcs":[[171,172,-166,-150]]},{"type":"Polygon","arcs":[[-167,-173]]},{"type":"Polygon","arcs":[[-125,-156,-157,-118]]},{"type":"Polygon","arcs":[[173,-85,-165,-53,-164,-146,-147,174,175]]},{"type":"Polygon","arcs":[[176,177,-141,178]]},{"type":"Polygon","arcs":[[179,180,181,-168,-172,-149,-56,182]]},{"type":"Polygon","arcs":[[183,-183,-55,-171,-69]]},{"type":"Polygon","arcs":[[184]]},{"type":"Polygon","arcs":[[-68,185,-61,186,-180,-184]]},{"type":"Polygon","arcs":[[187,188,189,-152,-123]]},{"type":"Polygon","arcs":[[-187,-60,190,191,192,193,-181]]},{"type":"Polygon","arcs":[[-138,-159,194,195,-175]]},{"type":"Polygon","arcs":[[196,197,-78,-79,-174,198]]},{"type":"Polygon","arcs":[[199,-199,-176,-196,200]]},{"type":"Polygon","arcs":[[201,-197,-200,202]]},{"type":"Polygon","arcs":[[-86,203,204]]},{"type":"Polygon","arcs":[[205,206,-63,207,208,209,-191,-59,-186,-67]]},{"type":"Polygon","arcs":[[-76,-91,210,-72,-170,-80]]},{"type":"Polygon","arcs":[[211,-209]]},{"type":"Polygon","arcs":[[-206,-66,212]]},{"type":"Polygon","arcs":[[213,-89,-198,-202,214]]},{"type":"Polygon","arcs":[[-178,215,216,-188,-122,-142]]},{"type":"Polygon","arcs":[[-204,-90,-214,217]]},{"type":"Polygon","arcs":[[218]]},{"type":"Polygon","arcs":[[-189,-217,219,220]]},{"type":"Polygon","arcs":[[221]]},{"type":"Polygon","arcs":[[-221,222,-153,-190]]},{"type":"Polygon","arcs":[[223,224,-179,-140,-134,225]]},{"type":"Polygon","arcs":[[226]]},{"type":"Polygon","arcs":[[-182,-194,227,-226,-133,-169]]},{"type":"Polygon","arcs":[[228,-224,-228,-193]]},{"type":"MultiPolygon","arcs":[[[-109,229,-106,230]],[[-94,231]]]}]}},"arcs":[[[1937,7275],[-30,-71]],[[1907,7204],[-178,179]],[[1729,7383],[24,65],[49,-44],[27,71],[-45,51],[17,49]],[[1801,7575],[17,85],[190,-124],[-43,-181],[-28,-80]],[[1907,7204],[-130,-319]],[[1777,6885],[-163,173]],[[1614,7058],[115,325]],[[2061,7356],[3,-191],[11,-41]],[[2075,7124],[43,-143]],[[2118,6981],[40,-151]],[[2158,6830],[70,-91]],[[2228,6739],[-43,-104]],[[2185,6635],[-52,-127],[-356,377]],[[1937,7275],[65,-69],[59,150]],[[2185,6635],[92,-102]],[[2277,6533],[49,-96],[28,-162]],[[2354,6275],[-108,109],[-43,-108]],[[2203,6276],[-252,268],[-47,-120],[-218,229]],[[1686,6653],[91,232]],[[2203,6276],[-96,-238]],[[2107,6038],[-128,144],[-341,356]],[[1638,6538],[48,115]],[[2317,7529],[-251,-142]],[[2066,7387],[30,216],[-10,170],[4,98]],[[2090,7871],[66,185]],[[2156,8056],[86,-99],[20,-50],[0,-118],[55,-260]],[[2336,7442],[20,-82],[-220,-130],[14,-63],[-75,-43]],[[2061,7356],[5,31]],[[2317,7529],[19,-87]],[[2306,8406],[-46,-132]],[[2260,8274],[-104,-218]],[[2090,7871],[-110,6],[-143,156]],[[1837,8033],[-133,154]],[[1704,8187],[122,279],[124,297],[82,162]],[[2032,8925],[79,-138],[-29,-52],[25,-73],[-14,-86],[52,-209],[84,6],[77,33]],[[1504,7169],[-62,-156],[-17,-82]],[[1425,6931],[-92,-159]],[[1333,6772],[-152,245]],[[1181,7017],[83,138],[77,163]],[[1341,7318],[163,-149]],[[1638,6538],[-20,-51]],[[1618,6487],[-48,-147]],[[1570,6340],[-113,46]],[[1457,6386],[11,86],[-30,25],[110,286],[-123,148]],[[1504,7169],[110,-111]],[[1457,6386],[-234,92]],[[1223,6478],[-42,34]],[[1181,6512],[152,260]],[[1181,6512],[-54,38],[-84,125],[-63,4]],[[980,6679],[201,338]],[[2611,7035],[-194,-119],[-167,-119],[-22,-58]],[[2158,6830],[132,88],[-19,79],[301,198],[39,-160]],[[2634,7801],[0,20]],[[2634,7821],[38,-12],[136,-310],[4,-50],[-39,22],[-13,-67],[-80,44],[10,63],[-99,51],[10,128],[33,111]],[[2488,5637],[-160,161],[-58,-139]],[[2270,5659],[-25,54],[-186,198]],[[2059,5911],[48,127]],[[2203,6276],[54,-56],[-48,-124],[292,-316],[-13,-143]],[[2731,4499],[18,-192],[55,-93],[-48,-171],[30,-80],[54,-52],[38,-60],[81,-81],[8,-59],[-38,-30],[-71,-7],[-10,-54],[40,-37],[17,-140],[-27,-83],[6,-47],[-44,8],[-92,-52]],[[2748,3269],[-40,-39],[-47,113],[2,170],[-80,3],[-23,69],[6,60],[-19,53],[25,114],[-62,-36],[-66,133],[-35,111],[58,5],[-9,64],[4,129],[-24,-4],[24,119],[-12,108]],[[2450,4441],[30,48],[1,57],[-20,77],[0,136],[-13,149],[16,54],[38,31],[51,-347],[22,-11],[38,-150],[96,1],[22,13]],[[2881,2428],[-33,-163],[-43,-86],[-80,-13],[16,96],[3,87],[30,73],[52,1],[5,32],[50,-27]],[[3183,3307],[12,32]],[[3195,3339],[65,20],[-47,-45],[-6,-54],[-24,47]],[[3318,1898],[27,-40],[-19,-43],[41,-31],[48,11],[-22,-64],[-47,19],[-91,-82],[-6,158],[-22,44],[91,28]],[[3456,4224],[-1,-61]],[[3455,4163],[-97,72],[-72,-12],[-49,10],[-13,33],[-42,-33],[-16,41],[19,28],[-33,86],[-22,4],[-15,70],[-29,3],[-71,112],[24,41],[-42,32],[-33,80],[-39,18],[-68,-36],[-81,-4]],[[2776,4708],[8,53],[-37,292],[-72,111]],[[2675,5164],[-56,89],[-20,94],[2,88],[-33,194]],[[2568,5629],[3,162],[32,83],[-8,107]],[[2595,5981],[96,6]],[[2691,5987],[-28,-68],[46,-84],[88,-208],[122,-99],[48,-103],[23,-84],[75,-200],[100,-197],[126,-108],[140,-193]],[[3431,4643],[48,-86],[1,-71],[-44,-127],[20,-135]],[[3769,6184],[-25,-101],[-18,-137],[-16,-185],[10,-62],[37,-74],[62,-40],[18,-54]],[[3837,5531],[-6,-24],[-61,-37],[-97,-106]],[[3673,5364],[-250,199],[-139,151],[-58,85]],[[3226,5799],[64,142],[-2,118],[12,63],[-6,120]],[[3294,6242],[58,-14],[89,33],[85,6],[105,-29],[52,-33],[86,-21]],[[3122,7447],[67,-22],[43,-51],[-3,-39],[40,-16],[11,-94],[-22,-69],[-46,-47],[-22,115],[-31,-166],[-3,-75],[-72,-312],[48,-67],[54,-46],[66,-174],[40,-35],[2,-107]],[[3226,5799],[-82,44],[-165,196]],[[2979,6039],[11,184],[-22,18],[-37,-41],[-63,51],[-37,-2],[-51,29],[14,63],[-88,107],[17,39]],[[2723,6487],[70,149],[-18,28],[27,37],[-17,32],[-51,20],[23,193]],[[2757,6946],[91,-29],[42,10],[47,96],[15,111],[-36,95]],[[2916,7229],[-9,224],[-31,74],[4,35]],[[2880,7562],[59,-62],[55,-112],[128,59]],[[4474,6228],[0,-4]],[[4474,6224],[-19,-129],[3,-74],[26,-158],[-61,-36],[-40,12],[-14,-133],[69,-132],[-8,-16],[-75,52],[-18,-33],[-51,130],[24,60],[-109,-7],[-39,-34],[14,-112]],[[4176,5614],[-105,-45],[-71,27],[-61,-9],[-30,-37],[-72,-19]],[[3769,6184],[93,19],[182,77],[28,4],[85,-59],[81,-30]],[[4238,6195],[103,29],[92,-12],[41,16]],[[3720,5322],[-47,42]],[[4176,5614],[103,-147],[-18,-102],[-48,-142],[20,-26],[-40,-168],[-30,-98],[-47,7],[-29,-46],[-14,-71],[-29,15],[-45,124],[-86,97],[-47,105],[-65,40],[-16,67],[-65,53]],[[3836,3592],[37,3],[11,42],[121,-97],[104,-105],[-222,67],[-28,-17],[-31,-99],[83,-142],[-5,-111],[-13,-65],[-32,114],[-49,97],[-55,-80],[-19,43],[-46,37],[-47,123],[36,89],[-24,60],[-44,26],[3,90],[14,36],[1,98],[34,31],[47,-12],[124,-228]],[[7347,2996],[-15,-116],[6,-41]],[[7338,2839],[-30,-129],[-87,29],[16,91],[5,100],[63,247],[27,9],[46,-37],[-31,-153]],[[8772,5453],[10,-37],[87,-59],[18,-46],[-23,-160],[24,-161]],[[8888,4990],[-30,-8],[-137,55],[-54,3],[-146,-32],[-61,185],[67,7],[215,254],[30,-1]],[[9112,4680],[42,-43],[18,-96],[-31,-165],[-7,-155],[18,-488],[-37,-115],[-74,-45],[-88,6],[-32,19],[-40,68],[-45,171],[55,104],[91,142],[-240,497],[73,74],[69,46],[62,-26],[118,49],[48,-43]],[[4021,4384],[130,-94],[48,12],[63,-154],[-99,-144],[-16,-34],[27,-37],[-17,-37],[-129,134],[-62,52],[-24,-58],[-43,60],[-44,94],[0,47],[26,88],[67,126],[73,-55]],[[8772,5453],[38,53],[18,72],[54,84],[111,124],[52,18],[22,-29],[52,25],[58,-5],[99,-35],[28,-50],[0,-52],[-22,-173],[-24,-70],[-321,-437],[-49,12]],[[4750,2081],[-15,88],[-27,22],[-50,-7],[-41,33],[-11,121],[-66,30],[-13,46],[97,268],[133,-87],[-1,-38],[85,-95],[117,-24],[54,-23],[96,-76],[36,-132],[11,-75],[-42,-122],[-47,-8],[-73,50],[-29,107],[-55,50],[-43,-32],[-24,-49],[-92,-47]],[[6551,5478],[17,129],[11,190],[23,161],[25,102],[11,98],[95,32],[15,37],[6,148],[18,75],[60,148],[20,81],[45,90],[193,145],[42,-3],[64,-60],[147,-61],[24,-26],[57,9],[49,-64],[43,4],[93,-95],[22,-80],[37,-51],[14,-150],[-82,-102],[-33,-130],[-60,-104],[-4,-72],[-27,-66],[1,-47],[29,-60],[10,-102],[-36,-112],[-34,-43],[-2,-159],[-17,-140],[6,-55],[-79,-32],[-46,12],[-130,66],[-116,-1],[-60,24],[-25,32],[-87,43],[-66,15],[-184,76],[-53,37],[-36,61]],[[7854,831],[-107,-196],[2,-129],[-15,-85],[-56,-48],[-136,-180],[-46,-43],[-48,-100],[-2,-50],[-39,28],[-22,62],[30,161],[-31,130],[16,78],[-25,62],[63,150],[80,59],[132,34],[93,9],[67,69],[44,-11]],[[8541,2068],[-21,84],[-76,55],[-56,103],[-83,13],[-52,26],[-33,70],[9,65],[61,215],[-19,83],[-38,38],[37,122],[46,67],[70,170],[28,130],[25,50],[45,32],[66,-27],[44,25],[45,116],[81,63],[81,-33],[69,21],[166,-20],[29,-43],[12,-125],[-10,-76],[-117,17],[-61,-20],[-73,-47],[-30,-182],[11,-83],[102,-221],[27,-74],[165,-34],[-23,-53],[-65,-1],[-78,-55],[2,-176],[-132,-124],[-119,-49],[-56,-79],[-79,-43]],[[5707,4571],[147,-1],[150,18],[104,-87],[51,8],[-30,-106],[0,-67],[-59,-32],[60,-257],[-34,-108],[-172,-173],[-32,-16],[-78,-122],[-64,53],[-82,46],[-60,75],[-66,9],[-38,139],[-50,71],[-43,-69],[-51,-48],[-65,-35],[-12,19],[6,176],[-30,152],[68,229],[31,66],[81,33],[16,120],[38,8],[102,-42],[112,-59]],[[6678,3878],[139,-120]],[[6817,3758],[-10,-81],[72,-47],[0,-86],[42,37],[28,-92],[-131,-106],[-52,50],[-39,-3],[-79,-72],[-33,39],[-81,-28],[-46,117],[126,172],[-19,19],[9,89],[23,88],[35,-23],[16,47]],[[1801,7575],[-36,45],[18,86],[-22,145],[76,182]],[[8041,4325],[-35,101],[-81,-133],[10,-28],[-75,-168],[-34,104],[-24,141],[-46,18]],[[7756,4360],[139,231],[20,21],[-14,162],[-30,52],[142,10],[346,81],[244,52],[19,-354],[-78,0],[-52,20],[-82,-35],[-40,-63],[-37,-20],[-43,-84],[-55,-10],[-160,-128],[-34,30]],[[2723,6487],[-31,43],[-11,61],[-112,34]],[[2569,6625],[-5,43]],[[2564,6668],[1,30],[54,173],[1,29]],[[2620,6900],[29,-8],[10,89],[98,-35]],[[1165,5911],[-48,-67]],[[1117,5844],[-44,-45]],[[1073,5799],[-54,-54]],[[1019,5745],[-37,64],[14,46],[-24,69],[-58,-112],[-36,53],[-34,-75],[-36,75],[63,122],[-156,247]],[[715,6234],[265,445]],[[1223,6478],[-64,-228],[-73,74],[-52,-269],[131,-144]],[[1261,5031],[3,-59],[-188,-173],[-22,67],[-75,-77],[-7,-45],[-22,57],[-31,-16]],[[919,4785],[-3,25]],[[916,4810],[7,129],[-66,208],[14,92],[-10,28],[-75,71]],[[786,5338],[87,92],[33,96]],[[906,5526],[57,149],[56,70]],[[1073,5799],[18,-61],[-35,7],[-40,-92],[23,-79],[-21,-57],[9,-170],[-34,-112],[81,-62],[40,134],[71,-97],[76,-179]],[[2564,6668],[-44,0],[-98,-74],[-57,103],[-36,-41],[-52,-123]],[[2611,7035],[12,7]],[[2623,7042],[-3,-142]],[[1570,6340],[-23,-27],[-159,-136],[-51,-59],[-71,-104],[-68,-58],[-33,-45]],[[2569,6625],[38,-155],[-37,-260],[20,-139],[5,-90]],[[2595,5981],[-23,-3],[-31,102],[-187,195]],[[1488,5174],[0,-24]],[[1488,5150],[-39,-43],[-61,-198],[-5,39],[-40,39]],[[1343,4987],[-38,35],[-44,9]],[[1117,5844],[39,-98],[104,-155],[-28,-51],[34,-59],[19,-80],[48,-91],[38,-45],[78,-4],[39,-87]],[[2032,8925],[283,450]],[[2315,9375],[36,-103],[-5,-64],[-31,-156],[6,-47],[64,-126],[78,-81],[16,-109]],[[2479,8689],[-92,-29],[-32,-54],[-49,-200]],[[1343,4987],[13,-108]],[[1356,4879],[-150,-141],[-22,68],[-19,-16],[65,-202],[-136,-123],[-9,-27]],[[1085,4438],[-34,85],[-30,23],[-61,96],[-11,73],[-30,70]],[[2615,7796],[-28,-94],[-26,-159]],[[2561,7543],[-27,0],[-120,-52],[-78,-49]],[[2260,8274],[148,-178],[82,264],[23,55]],[[2513,8415],[20,-104],[8,-135],[22,-122],[49,-152],[3,-106]],[[2479,8689],[35,-153],[-1,-121]],[[1341,7318],[132,321],[231,548]],[[2059,5911],[-54,-132]],[[2005,5779],[-11,26],[25,67],[-54,22],[-47,91],[-61,66],[-57,115],[-71,84]],[[1729,6250],[32,81],[-64,54],[-8,30],[-71,72]],[[786,5338],[-95,-101],[1,-39],[-38,-34],[-41,6],[-78,-65],[-63,-2]],[[472,5103],[-113,-39],[-45,-85]],[[314,4979],[-184,310],[-29,22],[-26,65],[-75,133],[111,148],[36,64],[42,155],[61,496]],[[250,6372],[96,-90],[236,-269]],[[582,6013],[-238,-402],[102,-99],[127,-60],[121,76],[13,-8],[17,132],[182,-126]],[[715,6234],[-133,-221]],[[250,6372],[39,270],[55,164],[56,93],[81,109],[51,83],[359,430],[143,163],[136,174],[99,158],[104,214],[123,332],[49,121],[85,234],[40,95],[79,152],[-8,11],[77,108],[-6,11],[106,147],[179,212],[81,102],[59,90],[65,147],[35,-111],[151,-74],[-16,-65]],[[2472,9742],[-32,-115],[-55,-134],[-70,-118]],[[2561,7543],[-14,-78],[20,-90]],[[2567,7375],[-31,-30],[17,-76],[-435,-288]],[[2567,7375],[42,-102],[14,-231]],[[2916,7229],[-35,13],[-46,-119],[-71,51],[-47,-86],[-94,-46]],[[2615,7796],[19,5]],[[2634,7821],[0,27],[62,-7],[44,-56],[107,-191],[33,-32]],[[1729,6250],[-37,-96],[-79,-113]],[[1613,6041],[-53,-77],[-59,-27],[10,-118],[31,-68],[-99,-253],[45,-44],[14,25],[150,-158],[57,123],[9,-11]],[[1718,5433],[34,-181],[50,-56],[37,-83],[51,-82],[-83,-143]],[[1807,4888],[-12,59],[-63,30],[-4,80],[-25,45],[0,105],[-47,51],[-11,-53],[-157,-31]],[[2979,6039],[-36,-4],[-53,-80],[-38,-33],[-54,5],[-66,51],[-41,9]],[[2568,5629],[-80,8]],[[2005,5779],[75,-109],[-82,-136],[14,-60],[-52,-77],[-17,35],[-30,-81],[-84,34],[-26,-75],[-85,123]],[[1718,5433],[36,92],[-48,101],[65,99],[-158,316]],[[3042,7941],[-27,-119],[84,-65],[-44,-63],[-9,-67],[76,-180]],[[2479,8689],[54,10],[32,26],[79,257]],[[2644,8982],[34,-65],[44,-43],[20,-85],[79,-220],[-10,-82],[13,-181],[90,15],[34,-127],[5,-104],[60,-76],[29,-73]],[[1605,3728],[-8,-29],[-71,109],[-4,65],[-35,97],[-50,-21],[-35,16],[-15,91],[-36,-84],[-27,-8],[4,-92],[-31,-43],[-49,36],[-62,-30],[-46,27],[-29,-10],[-41,41],[-41,7]],[[1029,3900],[-5,61],[42,5],[77,180],[8,69],[-27,12],[2,101],[-41,110]],[[1356,4879],[113,-349],[35,35],[40,-115],[-25,-78],[-45,18],[-58,-3],[60,-267],[72,-59],[-6,-79],[34,-90],[5,-71],[24,-93]],[[2390,5380],[-33,-84],[-77,-67],[5,-82],[-108,-150],[-54,-38],[-26,-44],[-27,-96],[-2,-62],[-21,-45],[47,-51]],[[2094,4661],[-8,-45],[-56,3],[-20,80],[-17,-94],[-11,29],[-35,-78]],[[1947,4556],[-62,115],[-35,108],[-5,53],[-38,56]],[[2270,5659],[105,-220],[15,-59]],[[2675,5164],[-26,-34],[-59,-25],[-52,206],[-16,114],[-40,46],[-67,-169],[-25,78]],[[8069,1925],[15,-57],[-8,-68],[48,-36],[-26,-27],[-63,-242],[-80,130],[-105,226],[25,101],[91,304],[24,12],[64,-62],[15,-281]],[[2776,4708],[-45,-209]],[[2450,4441],[-96,-59],[-68,-110],[-30,9],[10,83],[28,87],[0,74],[-39,118],[-40,30],[-32,-50],[-89,38]],[[916,4810],[-60,-177],[-31,-72],[4,-89],[25,-16],[6,-143],[-26,-93],[37,-93],[-23,-82]],[[848,4045],[-35,38],[-85,-53],[-21,-41],[0,-79],[-37,2],[-42,65],[-66,25],[-54,188],[-56,30]],[[452,4220],[20,86],[31,23],[-15,71],[25,121],[0,68],[39,41],[17,50],[-9,84],[-31,116],[-28,39],[-29,184]],[[2748,3269],[39,-69],[-12,-96],[3,-71]],[[2778,3033],[-16,-52],[-30,-25],[-1,49],[-29,26],[-62,121],[-38,-93],[-70,-128],[-36,39],[-93,-24],[20,-35],[-50,-33],[-32,49],[7,65],[41,69],[35,31],[-85,20],[-7,86],[-62,88],[-30,-78],[-40,37],[-49,-27],[14,48],[-26,55],[26,62]],[[2165,3383],[9,144],[-26,-40],[-35,43],[-13,65],[-24,-29],[-37,9],[-24,-29],[-69,56],[-48,-70],[-14,26],[34,49],[16,91],[-41,43],[-63,1]],[[1830,3742],[-40,51],[-19,61],[57,83],[57,-35],[0,40],[43,-14],[42,99],[-8,45],[-43,90],[-22,91],[-30,37],[-12,75],[9,62],[91,90],[-8,39]],[[2472,9742],[88,-80],[40,-70],[28,-173],[16,-189],[47,-154]],[[2691,9076],[-47,-94]],[[3360,7601],[59,-56],[62,12],[64,-10],[91,-81],[60,-124],[128,-136],[36,-60],[61,-47]],[[3921,7099],[-7,-72],[-40,-61],[-61,-36],[-27,-56],[34,-165],[40,-74],[-2,-122],[-89,-329]],[[3042,7941],[39,-80],[92,-88],[30,-156],[25,54],[44,-8],[30,-40],[58,-22]],[[3448,8316],[-26,-259],[-59,16],[-47,-325],[52,-7],[36,23],[68,-5],[-15,-94],[-49,-53],[-48,-11]],[[2691,9076],[280,-280],[120,5],[35,-137],[40,-89],[64,-28],[21,-43],[56,-20],[22,-47],[41,-31],[78,-90]],[[3970,7988],[-11,-137],[51,-176],[5,-142],[43,-136],[35,-77],[-20,-72],[-129,-62],[-23,-87]],[[3448,8316],[94,-1],[34,21],[99,-49],[25,18],[82,-74],[45,-8],[83,-111],[35,-94],[25,-30]],[[4474,6228],[35,25]],[[4509,6253],[97,25],[36,-12],[89,-66],[17,137],[33,163],[56,-30],[5,47],[121,-69],[24,45],[113,-56],[4,32],[118,9],[39,132],[15,128],[-46,44],[-30,85],[40,84],[31,21],[35,-44],[34,-109],[32,-55],[85,-18],[-39,-147],[-14,-105],[-14,-252],[26,-43],[-26,-98],[-37,53],[-7,70],[-56,20],[-17,-79],[43,-138],[-75,-41],[-19,-30],[-39,46],[-26,-71],[-91,34],[16,-53],[-21,-71],[-76,-88],[-57,8],[-23,39],[15,50],[-29,72],[-69,40],[-57,51],[-48,11],[-36,90],[-96,-52],[-46,7],[11,46],[-29,136],[-47,-27]],[[3455,4163],[-22,-79],[-23,-170],[-68,-88],[49,-47],[44,-72]],[[3435,3707],[14,-69],[-19,-31],[-61,70],[-81,38],[-63,52],[4,-164],[51,-79],[-55,47],[-23,-88],[-43,-23],[-4,-84],[40,-37]],[[3183,3307],[-17,4],[-12,-86],[14,-44],[-37,-73],[21,-34],[56,-12],[5,-22]],[[3213,3040],[-41,-36],[-17,39],[-55,42],[-26,-35],[28,-81],[-15,-122],[25,-167],[-4,-78],[16,-96]],[[3124,2506],[0,-105],[-35,-76],[21,-170],[60,-68],[45,-158],[5,-74],[-26,18],[13,-122],[-57,54],[-19,81],[-29,25],[-30,86],[-29,156],[-29,85],[-30,-6],[21,110],[-46,-1],[20,101],[-70,11],[61,128],[-43,-14],[3,53],[-27,67],[7,30],[53,37],[-25,43],[20,36],[28,-47],[33,1],[-12,82],[-77,44],[-20,135],[-14,-17],[-39,67],[-54,-22],[-25,-43]],[[3720,5322],[-134,-390],[-14,-93],[-40,-168],[31,-46],[-8,-31],[-58,-20],[-66,69]],[[3213,3040],[-2,-17],[67,-78],[-18,-55],[19,-48],[-21,-82],[-1,-65],[-29,-149],[-51,26],[0,-77],[-53,11]],[[3456,4224],[22,-3],[68,-73],[6,-81],[38,-113],[2,-80],[-32,-104],[-28,-31],[-97,-32]],[[4606,7799],[35,-255],[-11,-68],[-61,-63],[-46,-161],[-56,5],[-72,-22],[-74,-202],[-69,-18],[-31,-103],[-42,36],[-39,-76],[17,-168],[21,-40],[-8,-94],[15,-68],[-12,-55],[59,-61],[26,-68],[-26,-79],[6,-44]],[[3970,7988],[66,-57],[45,-7],[37,-53],[-1,-75],[25,-9],[52,36],[55,9],[20,-74],[71,7],[19,-68],[54,24],[25,58],[41,21],[17,-39],[28,37],[82,1]],[[1029,3900],[-63,-7],[-24,52],[-8,-52],[-41,-34],[-21,60]],[[872,3919],[-2,122],[-22,4]],[[4606,7799],[116,-66],[61,-54],[91,-46],[99,-34],[-4,-41],[-65,-51],[-41,-83],[18,-102],[-122,-7],[18,-43],[-41,-269],[60,-42],[35,-53],[80,6],[33,-36],[15,-49],[-10,-134],[-48,-3],[-18,-76],[-34,-78],[-57,-1],[-182,89],[-64,-266],[-37,-107]],[[8236,8029],[28,-11],[-3,66],[119,-91],[134,-62],[71,14],[-59,-169],[-20,-79],[6,-68],[-40,-47],[-68,-30],[-60,-2],[-17,-45],[-100,20],[-63,52],[-166,29],[-47,44],[-79,142],[-145,197],[-116,65],[13,106],[52,168],[17,128],[36,81],[34,42],[48,-38],[153,-162],[93,-84],[-2,-46],[39,-90],[93,-104],[49,-26]],[[872,3919],[-74,-149],[-19,26],[-1,-82],[-17,-39],[-54,35],[-4,-79],[-28,-49],[-33,110],[-28,34],[-72,45],[-38,1],[-62,77],[-52,9],[-34,33],[-42,-1],[-64,33],[-25,72],[-4,94],[-50,6],[-23,32],[20,32]],[[168,4159],[61,42],[90,110],[86,-84],[47,-7]],[[8637,6507],[-1,-34],[-45,-67],[-13,-81],[27,-45],[97,-69],[21,-50],[-89,-191],[-25,-76],[-12,-120],[-24,-119],[-139,-25],[-257,78],[-55,-34],[-57,118],[-43,240],[-16,125],[-119,267],[141,192],[62,68],[20,41],[38,9],[149,-227],[131,250],[75,-39],[86,-176],[48,-35]],[[168,4159],[-30,152],[0,56],[-28,185],[-25,48],[49,146],[57,136],[100,59],[23,38]],[[1799,3640],[2,-74],[-23,-66],[-29,-4]],[[1749,3496],[-59,-8],[-7,28],[-45,16],[-9,128],[-24,68]],[[1488,5150],[6,-36],[85,-118],[-8,-124],[94,-125],[22,-219],[-32,-149],[-35,-35],[-16,-65],[86,-166],[-47,-148],[18,-111],[44,-64],[1,-74],[93,-76]],[[9968,5036],[3,-112],[-7,-249],[21,-373],[14,-165],[-61,-196],[-53,57],[-126,-218],[-13,15],[-158,-55],[-61,157],[20,112],[-14,196],[-22,473],[-23,98],[30,121],[24,23],[95,-19],[46,57],[63,48],[51,2],[36,32],[42,79],[43,20],[39,-38],[11,-65]],[[1830,3742],[-31,-102]],[[2165,3383],[-58,-22],[-33,-62],[30,-18],[-20,-115],[-100,19],[7,-55],[-34,-156],[-56,67],[-8,70],[-28,27],[-28,-21],[-21,123],[-76,44],[-20,-19],[-2,110],[16,103],[15,18]],[[8041,4325],[23,-37],[-3,-58],[114,-292],[30,-62],[8,-88],[31,-22],[41,-98],[-3,-100],[-42,-77],[-153,-59],[-26,-33],[-10,-68],[31,-246],[-38,-134],[-53,45],[-52,89],[-125,169],[-124,201],[-23,-37],[-42,101],[-30,-20],[-14,93],[19,98],[-45,68],[12,-72],[-29,-21],[-11,-49],[-33,-42],[3,-44],[82,-165],[-96,5],[-84,-93],[19,-60],[-49,-44],[-57,168],[-18,87],[-28,52],[66,50],[32,1],[39,75],[51,44],[-32,102],[-62,60],[-11,45],[-41,22],[-18,68],[-76,-2],[-107,-26],[-85,-49],[-90,-113],[-69,-36],[-46,37]],[[6678,3878],[-97,78],[-33,10],[18,254],[3,261],[22,42],[-4,87],[33,-3],[42,-67],[58,-49],[72,-152],[117,-130],[92,-41],[87,-71],[55,-8],[35,189],[34,-21],[96,-102],[-8,-32],[-38,30],[-28,-12],[-13,-79],[58,-52],[80,-13],[40,-21],[57,1],[19,30],[60,-41],[67,27],[26,45],[55,-9],[-39,-163],[5,-11],[104,101],[-56,52],[5,51],[-29,50],[-77,-16],[-100,270],[65,10],[2,56],[64,18],[27,-105],[102,18]],[[7347,2996],[67,-32],[27,97],[-1,38],[31,42],[48,-129],[-67,-137],[-44,35],[-40,-64],[-30,-7]]]}