{"type":"Topology","bbox":[-75.19543844192651,5.518986849575113,-75.17092201398151,5.616648443119359],"transform":{"scale":[0.0000024518879832985604,0.000009767136068031333],"translate":[-75.19543844192651,5.518986849575113]},"objects":{"municipios":{"type":"GeometryCollection","geometries":[{"type":"Polygon","arcs":[[0,1]],"properties":{"codigo":"05483100000000000101","sector":"054831000000000001","pcode":"CO05483","area_m2":406941}},{"type":"Polygon","arcs":[[2,-1]],"properties":{"codigo":"05483100000000000102","sector":"054831000000000001","pcode":"CO05483","area_m2":398542}},{"type":"MultiPolygon","arcs":[[[3]],[[4]]],"properties":{"codigo":"05483200204001000101","sector":"054832002040010001","pcode":"CO05483","area_m2":104402}}]}},"arcs":[[[9575,9618],[-147,-11],[-377,27],[-115,14],[-166,35],[-93,-10],[-83,-27],[-157,-7],[-273,26],[-283,-18],[-69,-15],[-61,-39],[-122,-23],[-4,-24],[126,-26],[-56,-53],[-131,-34],[-36,-20],[53,-69],[200,-10],[71,-20],[156,9],[-123,-78],[-72,1],[-63,-17],[-32,-94],[-157,-9],[-388,-12],[-44,-86],[36,-34],[117,-38],[26,-21],[75,-16]],[[7383,8919],[-21,-23],[-93,-5],[-50,44],[-103,1],[-68,15],[19,52],[-89,0],[24,16],[-20,35],[-56,20],[-97,7],[-76,33],[42,27],[-114,45],[-127,17],[-32,-11],[-133,23],[-73,-7],[-144,11],[-41,32],[31,38],[144,40],[-137,29],[-35,51],[137,21],[-123,37],[-141,7],[-29,36],[27,28],[-42,9],[63,21],[-42,10],[-101,76],[-104,32],[-27,41],[53,3],[449,-35],[179,-23],[76,31],[2,51],[96,35],[83,73],[67,38],[-121,47],[23,23],[149,29],[119,-14],[149,-54],[54,-32],[105,-18],[383,-37],[277,22],[99,35],[178,-15],[55,-17],[-83,-26],[225,-54],[127,-52],[84,-10],[238,14],[91,-17],[125,-64],[67,-6],[135,29],[101,-3],[7,-22],[248,-23],[-17,-17]],[[9575,9618],[91,-3],[203,-49],[127,-23],[-106,-47],[-63,-13],[-243,-20],[-49,5],[-88,72],[-63,1],[-267,-31],[-137,-63],[-130,-42],[19,-45],[155,4],[53,-21],[140,-4],[103,5],[97,-46],[61,-7],[126,4],[101,-23],[-105,-36],[38,-16],[145,-1],[131,24],[77,-13],[-23,-35],[-113,-20],[-263,-34],[-22,-43],[-167,-16],[37,-37],[-320,-11],[56,-7],[2,-36],[-226,2],[-143,-22],[-66,14],[-133,-30],[-52,-120],[-80,13],[-161,-18],[-126,26],[65,32],[-29,22],[-80,-6],[-31,21],[-137,-1],[-10,-50],[-153,3],[-433,42]],[[549,517],[51,-10],[-21,-21],[157,-11],[117,4],[65,-21],[83,1],[59,-17],[-9,-16],[164,-91],[-51,-35],[426,-34],[-22,-28],[-57,-13],[-60,8],[-123,-45],[-128,-58],[3,-37],[158,-40],[-20,-30],[-64,-23],[-266,8],[-75,26],[-180,40],[-42,20],[-42,61],[-79,63],[-180,72],[95,3],[-13,69],[-32,57],[-172,62],[149,23],[32,16],[77,-3]],[[352,512],[-152,-18],[-86,41],[-114,84],[155,17],[-43,20],[52,6],[235,-100],[72,-16],[-104,-20],[-15,-14]]]}
