{"type":"Topology","bbox":[-75.82868341793312,6.669721552609151,-75.7479254706937,6.782570919069413],"transform":{"scale":[0.000008076602384180372,0.000011286065252551445],"translate":[-75.82868341793312,6.669721552609151]},"objects":{"municipios":{"type":"GeometryCollection","geometries":[{"type":"Polygon","arcs":[[0,1]]},{"type":"Polygon","arcs":[[2]]},{"type":"Polygon","arcs":[[3,4]]},{"type":"Polygon","arcs":[[5,-4,6,-1]]},{"type":"Polygon","arcs":[[7]]},{"type":"MultiPolygon","arcs":[[[8]],[[9]]]},{"type":"Polygon","arcs":[[10]]},{"type":"Polygon","arcs":[[11]]},{"type":"Polygon","arcs":[[12]]},{"type":"Polygon","arcs":[[13]]},{"type":"Polygon","arcs":[[14]]}]}},"arcs":[[[1742,358],[25,47],[20,158],[60,71],[342,148],[49,26],[-39,25],[66,33],[68,68],[71,41]],[[2404,975],[87,-84],[-26,-1],[-86,24],[-32,-5],[-17,-67],[-27,-42],[7,-63],[-16,-53],[-38,-34],[-5,-40],[-37,-21],[-39,0],[-91,-54],[-42,-42],[-122,-47],[-35,-24],[-114,-45],[-29,-19]],[[7464,4825],[-78,10],[78,62],[55,38],[53,-23],[-43,-35],[-13,-22],[-52,-30]],[[2151,896],[7,-13],[-180,-71],[-13,20],[-27,-10],[26,54],[-8,24]],[[1956,900],[-11,29],[2,49],[20,29],[26,6],[-21,25],[50,22],[42,-38],[30,-74],[57,-52]],[[1742,358],[-31,-45],[-69,6],[-32,-4],[-28,-35],[-38,5],[32,103],[46,33],[25,33],[-56,2],[-56,-35],[-46,-10],[0,20],[52,122],[42,41],[127,46],[-10,19],[70,23],[-9,21],[58,43],[-20,14],[29,28],[44,24],[17,59],[67,29]],[[2151,896],[46,3],[29,-14],[45,22],[-7,28],[37,36],[6,24],[111,56],[24,-7],[20,-44],[-58,-25]],[[9875,1173],[54,-5],[10,-31],[-123,-48],[3,-29],[-40,0],[-14,14],[-51,-33],[-13,13],[-49,-22],[-10,7],[-49,-19],[-37,-1],[-46,34],[66,34],[-15,30],[55,15],[68,2],[51,25],[-11,26],[91,27],[21,-22],[39,-17]],[[253,9927],[34,2],[44,-27],[-17,-61],[-2,-42],[-36,-30],[-23,4],[-6,-32],[-30,-2],[-15,-24],[33,-4],[-14,-26],[8,-23],[-44,-23],[-88,6],[-77,-3],[-19,57],[19,26],[10,-14],[48,14],[-4,51],[-14,33],[-27,0],[2,20],[30,52],[64,-6],[42,16],[50,45],[32,-9]],[[467,9999],[31,-20],[30,0],[-14,-38],[17,-4],[-17,-35],[15,-14],[-9,-32],[-98,4],[-41,16],[-32,64],[31,-9],[22,-37],[23,-3],[6,28],[67,-3],[12,27],[-61,9],[12,22],[-14,21],[20,4]],[[9995,8556],[-18,-23],[0,-42],[-32,-79],[-14,0],[18,-121],[-80,-23],[16,-28],[-22,-8],[-17,22],[4,31],[-58,0],[1,15],[38,34],[-11,38],[18,33],[45,36],[-4,23],[-49,0],[19,27],[-77,26],[-13,25],[21,17],[39,-22],[53,33],[7,22],[94,39],[20,-8],[6,-26],[-26,-29],[22,-12]],[[7050,4920],[-8,-22],[-56,15],[-9,-9],[4,-55],[33,-4],[-64,-36],[-43,-36],[-4,-18],[-95,-57],[-45,-7],[-7,-18],[-48,-29],[-34,-36],[-6,-26],[25,-77],[-6,-53],[20,-35],[-10,-79],[-47,-59],[-104,27],[-35,65],[-114,69],[4,41],[108,-7],[6,78],[33,22],[3,-20],[32,-17],[9,49],[29,46],[2,23],[61,40],[1,42],[46,-4],[28,114],[75,40],[-24,21],[-31,-5],[61,30],[41,-73],[39,45],[82,20],[14,11],[34,-16]],[[3769,353],[42,12],[53,3],[33,-26],[0,-39],[36,-18],[40,-48],[-69,-5],[-61,13],[-66,34],[-67,13],[-10,-41],[-81,-3],[4,-12],[-78,-42],[-18,-19],[19,-16],[-66,-48],[-57,-22],[-37,-33],[7,-16],[-25,-37],[-38,-3],[-21,11],[13,28],[52,58],[25,-10],[7,25],[21,-10],[32,50],[-29,12],[10,38],[42,18],[28,-8],[15,22],[59,55],[42,28],[-10,11],[41,20],[21,-19],[36,72],[-76,36],[16,47],[28,35],[22,45],[56,-34],[6,-33],[-21,-50],[44,-48],[-30,-21],[10,-25]],[[1688,5681],[20,-28],[32,-10],[36,7],[26,-11],[12,24],[34,4],[164,-8],[87,22],[46,-5],[-23,-34],[26,2],[5,-31],[-41,-3],[-2,26],[-49,-8],[-20,-14],[-42,1],[-54,-19],[-17,10],[-24,-23],[-76,-3],[-17,16],[-26,-7],[-36,19],[-56,-11],[-15,-27],[-42,23],[7,18],[-16,36],[-28,26],[82,21],[7,-13]],[[1924,7563],[54,-15],[-18,-28],[29,-4],[-3,-18],[32,8],[41,-36],[-5,-22],[54,-13],[7,-16],[59,-17],[-8,-20],[20,-21],[-9,-20],[17,-33],[-27,-11],[6,-36],[64,-18],[26,-18],[80,-7],[46,-20],[12,-20],[-49,-27],[-78,45],[-18,17],[-27,-26],[-26,-3],[-16,38],[-30,23],[-21,59],[-22,36],[-35,32],[-39,47],[-44,20],[-16,23],[-54,42],[-83,25],[55,59],[26,-25]]]}
