{"type":"Topology","bbox":[-74.74568613402721,6.911815054687722,-74.3600314107951,7.176199713146278],"transform":{"scale":[0.00003856932925613638,0.00002644110995685127],"translate":[-74.74568613402721,6.911815054687722]},"objects":{"municipios":{"type":"GeometryCollection","geometries":[{"type":"Polygon","arcs":[[0]]},{"type":"Polygon","arcs":[[1,2,3,4]]},{"type":"MultiPolygon","arcs":[[[5]],[[6]]]},{"type":"Polygon","arcs":[[7,-3,8]]},{"type":"Polygon","arcs":[[9,-9,-2,10]]},{"type":"Polygon","arcs":[[-4,-8,-10,11]]},{"type":"MultiPolygon","arcs":[[[12]],[[13]]]},{"type":"MultiPolygon","arcs":[[[14]],[[15]]]},{"type":"Polygon","arcs":[[16]]},{"type":"Polygon","arcs":[[17]]},{"type":"Polygon","arcs":[[18]]}]}},"arcs":[[[9979,17],[-28,-17],[-4,16],[-6,-2],[-5,23],[2,17],[6,35],[20,4],[4,10],[8,-1],[8,-6],[15,-71],[-20,-8]],[[1250,4527],[0,-16],[8,-4],[5,-8],[15,-16],[-9,-34],[10,-2],[9,4],[1,5],[17,-28],[3,-8]],[[1309,4420],[1,-8],[-26,-30],[-19,-1],[-4,-6],[-8,5],[-11,-7],[-15,-21],[-11,-3],[-13,5],[6,-14],[20,-2],[8,-18],[14,-4],[6,-8],[5,-29],[10,-5],[3,-13],[-2,-26],[-10,-15],[16,-22],[17,-3],[6,-14],[26,-16],[16,-11]],[[1344,4154],[22,-17]],[[1366,4137],[-148,5],[-5,-47],[-13,-31],[-6,-30],[-9,-11],[-8,6],[-24,-11],[-12,1],[-15,6],[-11,-9],[-26,-30],[-24,-8],[-13,-14],[-12,-23],[-14,0],[-10,10],[-14,7],[-3,-2],[-11,13],[-6,11],[-1,25],[4,36],[19,-4],[14,-11],[22,19],[24,5],[8,-7],[10,6],[11,3],[5,17],[1,13],[4,16],[17,14],[19,1],[6,6],[4,12],[-4,17],[5,8],[-1,22],[-4,7],[12,29],[15,19],[-9,29],[-44,109],[-28,15],[-22,15],[3,44],[0,38],[4,16],[2,20],[-19,4],[-12,16],[-23,-2],[-7,7],[10,20],[0,10],[-6,12],[-7,-14],[-17,-9],[-3,2],[0,12],[4,5],[-3,16],[3,3],[-4,19],[1,14],[15,10],[5,1],[-2,12],[-6,7],[-1,11],[-6,-1],[7,27],[-4,10],[6,17],[-10,15],[-4,13],[1,13],[-4,13],[0,14],[-3,14],[11,14],[4,23],[10,6],[7,24],[9,6],[11,23],[4,1],[46,-1],[23,2],[5,-21],[7,5],[10,17],[36,-3],[3,-29],[8,-12],[2,-14],[6,-11],[15,-17],[11,-6],[-12,-7],[-9,-15],[9,-22],[1,-17],[5,-10],[3,-19],[-2,-13],[-6,-4],[-1,-9],[7,-7],[-2,-18],[17,-21],[0,-11],[8,-10],[-4,-2],[-4,-11],[-3,-18],[2,-14],[-6,-10],[-3,-15],[-4,-14],[-1,-20],[10,-2],[13,-6],[15,5]],[[73,1373],[14,-21],[9,-29],[18,14],[5,-9],[1,-17],[-2,-4],[3,-12],[14,12],[6,2],[13,-3],[-3,-8],[-5,-27],[-4,-3],[-12,8],[1,-15],[9,-11],[-3,-8],[-21,24],[-3,15],[-1,16],[-6,6],[-8,1],[-5,-11],[10,-8],[-4,-11],[-8,5],[-1,-10],[10,-23],[-7,-4],[0,-22],[2,1],[2,-16],[-10,-3],[-3,26],[-4,20],[-2,-1],[-7,-42],[-6,-7],[-10,24],[-25,-12],[-2,10],[23,9],[2,4],[-26,20],[-16,9],[-10,-2],[-1,5],[7,3],[-7,3],[7,7],[6,15],[9,6],[7,-7],[-3,-24],[29,-22],[22,33],[8,33],[7,6],[-12,27],[-11,15],[-16,1],[0,18],[7,12],[13,-9],[0,-9]],[[204,1231],[-1,-1],[-15,17],[-2,6],[-3,22],[0,10],[8,10],[2,9],[5,-2],[-3,-19],[13,-24],[-4,-28]],[[1350,4372],[-2,-24],[22,-6],[11,-24],[14,-9],[7,-17],[4,-40],[8,-22],[1,-16],[10,-33],[-7,-4],[-8,6],[-5,15],[4,13],[1,12],[-4,8],[-8,6],[-14,-16],[-10,-22],[-7,10],[0,-11],[-5,-24],[3,-7],[-11,-12],[-10,-1]],[[1309,4420],[14,0],[8,-3],[-3,-23],[18,-11],[4,-11]],[[1590,4552],[-19,-10],[-8,-12],[-7,-32],[-5,-51],[-8,-21],[-10,-12],[-10,-6],[-29,6],[-12,6],[-11,11],[-16,26],[-32,-2],[-7,-3],[-10,-20],[-17,-16],[1,-9],[-22,-10],[-14,-23],[-4,-2]],[[1250,4527],[18,-11],[9,-13],[14,2],[11,-5],[1,-7],[14,-1],[13,31],[12,4],[10,24],[0,10],[5,10],[-1,9],[16,22],[13,4],[3,11],[11,6],[10,11],[24,-44],[2,6],[10,-3],[0,-23],[5,-12],[27,-54],[18,-34],[13,-18],[10,-1],[3,6],[4,51],[2,10],[13,37],[4,9],[23,10],[11,1],[-3,-13],[15,-10]],[[1590,4552],[8,-10],[-5,-4],[4,-8],[-1,-14],[-5,-9],[-2,-15],[-8,-4],[-7,-9],[2,-5],[-1,-30],[-1,-16],[-5,-9],[-1,-11],[-11,-15],[-6,-19],[-15,-23],[-29,-10],[-47,51],[-19,-5],[-42,-14],[5,-17],[2,-16],[17,-43],[9,-30],[8,-20],[3,-20],[-5,-14],[0,-28],[5,-19],[-1,-11],[-7,-17],[-22,-3],[-47,2]],[[821,6136],[2,-3],[14,8],[15,18],[6,-2],[1,-16],[4,2],[9,-12],[10,7],[3,-17],[-4,-2],[3,-9],[7,-5],[7,-12],[-8,-23],[4,-15],[-2,-9],[-8,-9],[1,-6],[-9,-3],[-3,13],[-7,15],[-14,27],[-2,-5],[-14,-12],[-12,-24],[-13,-9],[-4,-14],[11,-19],[7,-2],[12,4],[8,-7],[1,-7],[-9,-4],[6,-6],[-7,-9],[-3,-14],[-3,1],[3,16],[-3,9],[-11,-6],[-9,-1],[-13,4],[-4,-23],[-11,-26],[20,-10],[0,18],[8,25],[7,-9],[-4,-26],[-2,-16],[-5,-18],[-6,-1],[3,-21],[-5,-18],[-12,-19],[46,-29],[5,-13],[-5,-39],[-4,-19],[-14,3],[-2,-40],[-1,-9],[-3,15],[-4,0],[1,31],[-17,11],[-16,2],[-20,24],[13,6],[8,-14],[21,1],[14,-9],[9,8],[-1,7],[-15,11],[-17,23],[-15,18],[-20,13],[-7,14],[13,9],[2,30],[-7,-3],[1,23],[6,0],[2,7],[3,31],[-12,3],[-8,-10],[-2,-21],[2,-17],[-20,-1],[-5,10],[6,2],[6,14],[2,14],[-2,12],[-6,7],[-7,-3],[-7,4],[3,18],[7,-4],[4,10],[-3,33],[-5,16],[1,12],[4,13],[11,15],[10,10],[8,14],[8,-7],[-8,-20],[-9,-12],[-10,-8],[0,-9],[5,-23],[-5,-32],[10,-27],[5,11],[16,26],[21,21],[2,7],[-10,24],[5,6],[-10,16],[3,8],[3,-8],[8,0],[11,-30],[17,13],[10,16],[1,13],[-4,6],[-14,8],[6,0],[2,27],[-2,19],[-4,10],[6,11],[5,1],[4,-28]],[[683,6078],[-4,-23],[5,-35],[1,-20],[-1,-44],[-8,6],[-3,8],[-4,32],[3,21],[-4,-2],[-9,40],[7,18],[5,-5],[7,18],[3,-1],[2,-13]],[[740,3899],[6,-6],[-5,-4],[5,-40],[2,-27],[5,-48],[7,4],[19,-81],[2,-54],[-3,-33],[-5,7],[3,10],[-3,70],[-7,16],[-6,3],[-17,-1],[-6,12],[3,14],[-10,4],[-7,-3],[-5,13],[-15,-7],[-3,14],[17,10],[-1,10],[11,6],[-5,9],[13,15],[-9,10],[-21,3],[0,10],[14,-1],[13,7],[-6,19],[0,40],[14,-1]],[[757,3611],[17,-39],[-10,-4],[-19,-16],[-31,-28],[-10,-13],[-2,6],[-7,-7],[-2,4],[20,45],[4,18],[6,-4],[9,8],[-10,20],[4,1],[9,-10],[7,0],[12,26],[3,-7]],[[3985,9980],[11,-16],[5,-20],[-3,-8],[4,-15],[2,-16],[-7,-25],[-11,21],[3,24],[-6,28],[-1,19],[-12,-2],[2,5],[8,2],[7,22],[4,-3],[-6,-16]],[[1762,3369],[14,10],[0,15],[17,4],[7,7],[9,-10],[1,-9],[-5,-14],[-3,2],[-15,-6],[-11,-11],[-11,-4],[-9,11],[-12,5],[-19,11],[-11,15],[-2,26],[-8,20],[-3,27],[2,13],[7,-1],[-2,-30],[6,-16],[9,-35],[12,-16],[25,-11],[2,-3]],[[3014,9306],[6,-28],[9,-27],[6,-6],[12,-5],[2,-16],[-3,-14],[-10,13],[-5,-5],[-47,1],[-14,3],[-1,10],[-28,-11],[5,-24],[-6,-3],[-6,17],[-8,6],[5,20],[12,8],[24,-8],[2,6],[19,12],[6,21],[0,11],[4,8],[8,2],[8,9]]]}