{"type":"Topology","bbox":[-75.45595199533955,6.076521329078558,-75.35063445786801,6.209660676958916],"transform":{"scale":[0.000010532807027856302,0.000013315266314667286],"translate":[-75.45595199533955,6.076521329078558]},"objects":{"municipios":{"type":"GeometryCollection","geometries":[{"type":"Polygon","arcs":[[0,1,2,3,4,5]]},{"type":"Polygon","arcs":[[6,7,8,-3,9]]},{"type":"Polygon","arcs":[[10,11,-10,-2,12]]},{"type":"Polygon","arcs":[[13,-5,14,15]]},{"type":"Polygon","arcs":[[16,17,18]]},{"type":"Polygon","arcs":[[19,20,21,22,23]]},{"type":"Polygon","arcs":[[24,25,26,27]]},{"type":"Polygon","arcs":[[28,29,30,31]]},{"type":"Polygon","arcs":[[32]]},{"type":"Polygon","arcs":[[33]]},{"type":"MultiPolygon","arcs":[[[34]],[[35]],[[36]]]},{"type":"Polygon","arcs":[[37]]},{"type":"Polygon","arcs":[[38]]},{"type":"Polygon","arcs":[[39]]},{"type":"Polygon","arcs":[[40,41,42,-24,43,44,45,46]]},{"type":"Polygon","arcs":[[47,-15,-4,-9,48,49,50,51]]},{"type":"Polygon","arcs":[[52,53,-21,54,-42,55]]},{"type":"Polygon","arcs":[[56,-28,57,-56,-41,58]]},{"type":"Polygon","arcs":[[59,60,61]]},{"type":"Polygon","arcs":[[62,-61,63,64]]},{"type":"Polygon","arcs":[[65,66,-11,67,-29,68]]},{"type":"Polygon","arcs":[[69,-49,-8,70,-66,71]]},{"type":"Polygon","arcs":[[-23,72,73,74,-44]]},{"type":"Polygon","arcs":[[75,76,77,78]]},{"type":"Polygon","arcs":[[79,80,81,-26,82]]},{"type":"MultiPolygon","arcs":[[[83,84,85]],[[86]]]},{"type":"Polygon","arcs":[[-75,87,88,89,-45]]},{"type":"Polygon","arcs":[[90,-6,-14,91,92]]},{"type":"Polygon","arcs":[[93,94,95,96]]},{"type":"Polygon","arcs":[[97,98,99,100,101]]},{"type":"Polygon","arcs":[[102,103,-102,104,-81]]},{"type":"Polygon","arcs":[[105,-52,106,107]]},{"type":"Polygon","arcs":[[-46,-90,108,109,110]]},{"type":"Polygon","arcs":[[111]]},{"type":"Polygon","arcs":[[112]]},{"type":"Polygon","arcs":[[-71,-7,-12,-67]]},{"type":"Polygon","arcs":[[-16,-48,-106,113,-92]]},{"type":"Polygon","arcs":[[114,115,116,117,118,119,-18,120]]},{"type":"Polygon","arcs":[[-110,121,122]]},{"type":"Polygon","arcs":[[123]]},{"type":"Polygon","arcs":[[124]]},{"type":"Polygon","arcs":[[-118,125]]},{"type":"Polygon","arcs":[[126,-65,127,128,-115,129,-85]]},{"type":"MultiPolygon","arcs":[[[130]],[[-83,-25,-57,131]]]},{"type":"Polygon","arcs":[[132,133,-98,-104]]},{"type":"Polygon","arcs":[[134,135,-19,-120,136,-72,-69,-32,137,-95]]},{"type":"Polygon","arcs":[[-134,138,-86,-130,-121,-17,-136,-99]]},{"type":"Polygon","arcs":[[139]]},{"type":"Polygon","arcs":[[140]]},{"type":"Polygon","arcs":[[141]]},{"type":"Polygon","arcs":[[142]]},{"type":"Polygon","arcs":[[143]]},{"type":"Polygon","arcs":[[144]]},{"type":"Polygon","arcs":[[145]]},{"type":"Polygon","arcs":[[146]]},{"type":"MultiPolygon","arcs":[[[147]],[[148]]]},{"type":"Polygon","arcs":[[149]]},{"type":"Polygon","arcs":[[150]]},{"type":"Polygon","arcs":[[151]]},{"type":"Polygon","arcs":[[152,153,154,-122,-109,-89]]},{"type":"Polygon","arcs":[[-77,155]]},{"type":"Polygon","arcs":[[-22,-54,156,157,158,-73]]},{"type":"Polygon","arcs":[[-107,-51,159,-79,160]]},{"type":"Polygon","arcs":[[-154,161,162,-30,-68,-13,-1,-91,163]]},{"type":"Polygon","arcs":[[164,-96,-138,-31,-163,165]]},{"type":"Polygon","arcs":[[166]]},{"type":"Polygon","arcs":[[-128,-64,-60,167,-117,168]]},{"type":"Polygon","arcs":[[-169,-116,-129]]},{"type":"Polygon","arcs":[[-58,-27,-82,-105,-101,169,170,-157,-53]]},{"type":"Polygon","arcs":[[-171,-97,-165,171,-158]]},{"type":"Polygon","arcs":[[-172,-166,-162,-153,-88,-74,-159]]},{"type":"Polygon","arcs":[[-100,-135,-94,-170]]},{"type":"MultiPolygon","arcs":[[[172]],[[173]]]},{"type":"Polygon","arcs":[[-55,-20,-43]]},{"type":"Polygon","arcs":[[174]]}]}},"arcs":[[[6719,5609],[5,-42],[-28,-78]],[[6696,5489],[-50,-23],[-23,-35]],[[6623,5431],[-47,-80],[-50,-32]],[[6526,5319],[-81,9]],[[6445,5328],[-33,3]],[[6412,5331],[48,93],[33,-11],[28,51],[-27,8],[45,60],[-38,32],[38,29],[180,16]],[[6811,5282],[-25,-47],[-26,3]],[[6760,5238],[-78,25]],[[6682,5263],[-62,6],[-94,50]],[[6623,5431],[98,-32],[40,4],[-46,-89],[96,-32]],[[6865,5396],[20,-6]],[[6885,5390],[-40,-44],[-34,-64]],[[6696,5489],[59,-57],[110,-36]],[[6350,5338],[62,-7]],[[6445,5328],[-24,-112],[-189,18],[-8,6]],[[6224,5240],[11,83],[56,-14],[59,29]],[[7537,4914],[-38,-36],[-109,-41],[-48,39]],[[7342,4876],[-8,36]],[[7334,4912],[24,27],[82,13],[53,-33],[44,-5]],[[8105,6204],[47,-13],[36,-25]],[[8188,6166],[-4,-16],[-73,-77],[-68,-111],[64,-11],[-14,-112]],[[8093,5839],[-165,6]],[[7928,5845],[84,175],[-129,39],[91,165]],[[7974,6224],[131,-20]],[[8566,5671],[-21,0]],[[8545,5671],[-82,0]],[[8463,5671],[-16,8],[40,40],[9,38],[-20,42],[-54,58],[0,25]],[[8422,5882],[164,-28],[44,-75],[-64,-108]],[[7308,5447],[-82,6],[-48,57],[-77,54],[-95,27]],[[7006,5591],[2,48],[256,26]],[[7264,5665],[9,-94],[38,-5],[9,-80],[-5,-39]],[[7315,5447],[-7,0]],[[3205,2488],[100,-76],[22,-35],[-9,-42],[47,-35],[-52,-43],[-92,-33],[-49,12],[-37,78],[-85,-26],[-64,-52],[37,-87],[-41,-42],[46,-54],[25,14],[86,-9],[61,-17],[-51,-118],[-5,-39],[-20,1],[-1,-35],[-59,8],[-61,-38],[41,-58],[15,-42],[-66,-18],[-28,-74],[59,-7],[-17,-35],[-23,-4],[-82,-109],[-55,-49],[28,-49],[30,-4],[61,20],[40,-63],[12,-86],[-30,-6],[-82,-39],[-50,-41],[-74,43],[-91,-113],[-29,-20],[-20,87],[12,33],[-26,38],[-14,70],[-63,-2],[1,137],[8,40],[30,46],[-50,131],[110,73],[15,57],[27,23],[-4,46],[30,50],[51,36],[-11,14],[-45,-26],[-9,54],[15,16],[0,62],[-72,9],[34,71],[115,52],[10,100],[74,99],[-30,31],[84,67],[79,13],[40,-33],[63,56],[35,5],[54,-33]],[[6799,6510],[-15,-53],[-54,-47],[-11,-38],[-86,-60],[-38,21],[21,16],[-29,27],[74,39],[3,31],[44,32],[-13,31],[-43,-21],[-3,72],[-51,58],[23,17],[47,4],[37,-39],[83,-69],[11,-21]],[[5154,3142],[-4,-34],[-64,2],[0,-13],[-55,-6],[-136,-110],[-90,-34],[-155,36],[-25,45],[-55,23],[65,88],[62,95],[182,-89],[14,-3],[81,37],[59,-38],[38,12],[-25,166],[124,26],[52,-94],[-30,-63],[-38,-46]],[[4580,2571],[55,-37],[30,26],[113,-71],[-91,-99],[-22,27],[-134,106],[49,48]],[[5143,2783],[-1,-25],[-152,6],[-36,69],[123,15],[65,0],[1,-65]],[[3554,3988],[-129,-46],[-47,-2],[-16,50],[-92,-24],[24,102],[68,46],[23,44],[-8,24],[20,21],[57,0],[43,-84],[79,20],[68,-107],[-90,-44]],[[2867,4500],[27,-142],[-151,-35],[-148,-49],[43,-74],[68,-94],[-58,4],[-57,-40],[-20,2],[-94,-111],[-37,30],[-125,-119],[-25,15],[-191,173],[194,138],[-56,49],[114,96],[138,105],[35,13],[343,39]],[[1914,5462],[58,-47],[14,-61],[14,-107],[88,-120],[8,-52],[-80,20],[-61,-33],[-123,46],[-46,27],[-21,-45],[-46,47],[-25,-23],[-19,29],[-23,-13],[-23,38],[-86,-50],[6,36],[-40,47],[-63,10],[10,-70],[66,-29],[3,-46],[-22,-69],[-60,-23],[-91,14],[-3,119],[-38,48],[51,33],[-6,33],[48,15],[43,-9],[-51,132],[30,18],[138,56],[-64,3],[-67,74],[7,36],[-62,54],[28,32],[192,-47],[122,-34],[114,-48],[80,-41]],[[8560,6543],[-34,-73],[-7,-45],[18,-47],[27,-17],[-18,-20],[-96,-21]],[[8450,6320],[-126,47],[-16,-18]],[[8308,6349],[-78,37],[-33,-51],[-32,5],[-50,-70],[26,-12],[-36,-54]],[[7974,6224],[12,24],[-48,17],[-145,35],[-14,-3]],[[7779,6297],[-9,25],[27,85]],[[7797,6407],[24,87]],[[7821,6494],[178,-6],[26,60],[80,-15],[21,30],[41,5],[71,-28],[35,-36],[-7,-42],[10,-42],[67,-28],[-46,44],[28,22],[54,-21],[54,114],[-55,12],[14,34],[-124,51],[-27,-46],[-47,69],[-111,76],[-23,34],[-38,84],[-38,22],[29,46],[70,-14],[86,10],[64,-18],[89,10],[24,-88],[32,-52],[39,-25],[28,-47],[11,-90],[-10,-42],[114,-34]],[[6136,5417],[28,-88],[-153,-38],[20,-58],[28,-1],[128,30],[37,-22]],[[6682,5263],[45,-54],[7,-45],[49,-24]],[[6783,5140],[-47,0],[-4,-19],[29,-57],[-40,-56],[-17,10],[3,44],[-80,42],[-27,-12],[-32,-48],[-79,-20],[-47,-27],[-45,40],[4,50],[63,-35],[24,5],[-5,56],[15,28],[-8,38],[-31,20],[-48,-34],[-84,12],[-46,-2],[-15,-21],[1,-46],[-62,12],[-10,24],[29,61],[-23,17],[-31,-40],[-36,-5],[-41,15],[-70,4],[-51,19],[-51,-31],[-35,19],[1,40],[72,8],[9,35],[37,47],[-7,43],[-49,32],[-38,8],[-36,-11],[-65,48]],[[5810,5453],[1,17]],[[5811,5470],[35,-1],[2,40],[118,-5],[2,-18],[77,-10],[-1,-11],[65,-21],[27,-27]],[[8369,5928],[-24,-25],[-5,-33],[-50,-36]],[[8290,5834],[-197,5]],[[8188,6166],[46,117],[74,66]],[[8450,6320],[19,-48],[4,-46],[-39,-66],[-17,-68],[93,-71],[51,-29],[-16,-18],[-95,-4],[-81,-42]],[[8797,5752],[-86,-31],[-75,-43],[-70,-7]],[[8422,5882],[-8,27],[-45,19]],[[8560,6543],[30,-5],[29,-27],[9,-58],[51,-49],[51,-26],[-12,-26],[-56,-2],[-40,-24],[83,-35],[145,-101],[29,-66],[-1,-45],[102,-66],[22,10],[21,-37],[-61,-46],[-39,-102],[-28,-35],[-98,-51]],[[6742,3941],[9,-8],[-52,-125],[-5,-54],[49,-41]],[[6743,3713],[-20,-19]],[[6723,3694],[-155,-27],[-29,-12],[-104,-84],[-99,-51],[-67,125],[-36,29],[40,26],[-12,10],[59,93],[44,1],[82,26],[42,52],[43,2],[138,68],[67,-23],[6,12]],[[6799,3598],[-43,66],[-33,30]],[[6743,3713],[63,15]],[[6806,3728],[-13,-43],[24,-12],[33,-45],[-51,-30]],[[7294,5322],[-101,6],[-92,21],[-95,5],[-36,9]],[[6970,5363],[-85,27]],[[6865,5396],[4,13],[137,182]],[[7308,5447],[-14,-125]],[[7204,5033],[-86,-7],[-34,-31],[-52,13],[18,54],[-9,33],[-122,28],[-38,23],[-98,-6]],[[6760,5238],[15,-23],[128,-43],[29,36],[38,155]],[[7294,5322],[-19,-175],[-71,-114]],[[7928,5845],[-79,8]],[[7849,5853],[-119,45],[42,60],[-42,49]],[[7730,6007],[60,82],[6,39],[-5,106],[-12,63]],[[5630,5332],[-61,-2],[-13,-110],[-21,-16],[-72,32],[-58,4],[-45,-37]],[[5360,5203],[-28,-1],[-17,34],[15,41],[-19,27]],[[5311,5304],[9,62],[-79,120],[-74,55],[10,142],[15,11],[146,-19]],[[5338,5675],[-9,-185],[214,-2],[92,-14],[-5,-142]],[[8744,5551],[-39,-9],[12,-30],[-5,-50],[28,-81],[-47,-15],[26,-122],[23,-47],[-73,-13],[-17,69]],[[8652,5253],[-18,63],[-48,35],[-104,97],[-91,38]],[[8391,5486],[4,39],[26,18],[13,73],[29,55]],[[8545,5671],[15,-25],[49,2],[92,-51],[41,16],[2,-62]],[[7444,3875],[8,-22],[36,-11],[5,-21],[50,-7],[15,-63],[-53,-16],[-85,-56],[-69,-21],[-33,-47],[-4,-30],[49,-23],[47,7],[1,-22],[-42,-20],[-36,-38],[-25,15],[-40,61]],[[7268,3561],[-34,42],[-10,39],[10,57],[-15,119],[-28,58],[19,111],[19,50]],[[7229,4037],[71,-20],[-20,-48],[73,-18],[4,-25],[55,-16],[-6,-15],[38,-20]],[[7521,3655],[20,7],[61,-68],[32,-48],[35,-6],[93,40],[34,-41],[5,-39],[-39,-5],[-69,-25],[-22,25],[-41,-14],[-74,23],[-36,38],[13,23],[-26,15],[-5,41],[-35,9],[27,36],[27,-11]],[[7730,6007],[-63,72],[-22,13]],[[7645,6092],[-83,61],[-16,32],[-81,31],[-89,87]],[[7376,6303],[40,63],[50,29],[26,-26],[42,0],[21,22],[69,-21],[33,-29],[50,3],[14,64],[76,-1]],[[6564,5868],[10,-48],[52,-69],[-1,-85],[33,-50],[61,-7]],[[6350,5338],[-23,46],[4,29],[-39,54],[18,97],[-47,-5],[-5,17],[33,97],[-7,25],[-59,1],[-17,36],[-43,4]],[[6165,5739],[41,22],[63,-10],[91,22],[13,62],[40,14],[40,68],[53,-7],[58,-42]],[[7937,5468],[-164,-69],[-38,-42],[-95,10],[-40,22]],[[7600,5389],[38,44]],[[7638,5433],[19,60],[-3,80]],[[7654,5573],[108,-25],[40,42],[38,16],[97,-138]],[[7986,5041],[-68,-43],[-46,-45],[-82,-14],[-42,-52],[-65,-17]],[[7683,4870],[8,28],[-69,-29],[-19,14],[20,55],[-67,14]],[[7556,4952],[48,130],[67,73],[52,36],[39,7],[106,-10],[43,4],[41,32],[13,74],[60,56]],[[8025,5354],[37,8],[59,66],[18,53],[130,-98]],[[8269,5383],[-88,-61],[-25,-134],[-30,-51],[-72,-33],[-23,-33],[-45,-30]],[[8652,5253],[-38,7],[-34,-55],[-43,4],[-19,-16],[-106,68],[-34,1],[-41,23],[-28,33],[-52,-43],[-53,-61],[17,-112],[-56,-75],[84,-51],[-68,-44]],[[8181,4932],[-37,8],[-35,-13],[-91,71],[-32,43]],[[8269,5383],[67,66],[55,37]],[[6152,5735],[-12,-15],[28,-27],[32,-58],[3,-57],[-31,2],[-36,-163]],[[5811,5470],[7,105],[103,-6],[-38,94],[71,20],[4,24]],[[5958,5707],[29,2],[35,37],[11,-25],[48,36],[71,-22]],[[7376,6303],[-16,7]],[[7360,6310],[-29,28]],[[7331,6338],[-6,50],[-41,18],[-18,62],[-105,144],[5,32],[31,13],[88,1],[15,-23],[60,-40],[31,-9],[-5,-29],[-53,8],[-22,-64],[19,16],[62,7],[13,-16],[42,15],[31,36],[42,73],[-49,55],[-75,8],[-32,18],[51,36],[-10,15],[34,20],[6,32],[36,-15],[58,-2],[87,31],[101,-6],[49,-24],[36,-56],[-11,-169],[20,-81]],[[5989,4566],[49,-92],[-247,-207],[-73,165],[125,111],[24,-33],[122,56]],[[6941,6582],[44,-64],[-5,-29],[-25,9],[-65,-29],[-40,33],[-39,9],[-86,76],[0,18],[74,-21],[-28,39],[32,39],[58,-13],[71,-49],[9,-18]],[[6152,5735],[13,4]],[[7288,4143],[-73,26],[-64,-171]],[[7151,3998],[-120,32],[20,52],[-150,38],[-34,19]],[[6867,4139],[-17,33]],[[6850,4172],[32,0],[12,79],[31,8],[-2,22],[62,81],[35,14],[-12,56],[13,55],[28,10],[12,68],[-117,22],[-18,-6],[-20,111]],[[6906,4692],[39,18],[152,106],[81,122],[27,82]],[[7205,5020],[66,-26],[39,-38],[24,-44]],[[7342,4876],[11,-49],[-3,-79],[28,-80],[6,-70],[-13,-137],[0,-98],[-28,-30],[24,-24],[-12,-35],[-67,-131]],[[7360,6310],[-82,-55],[-89,-43],[-7,-31],[-42,5],[-133,-33]],[[7007,6153],[-81,2],[-65,24],[87,105],[110,-7],[125,43],[-26,51],[82,26],[29,-39],[63,-20]],[[6055,3705],[39,-83],[11,-83],[18,-32],[-144,-8],[4,59],[-34,70],[-28,1],[-7,82],[106,-12],[27,27],[8,-21]],[[4693,5631],[73,14],[-23,-54],[89,19],[20,-7],[-10,-80],[-45,-15],[19,-34],[71,-17],[7,-14],[-25,-50],[-118,-19],[11,-21],[86,-20],[8,-21],[-18,-52],[11,-31],[-17,-16],[-65,-3],[-73,44],[-23,0],[-67,-75],[-42,29],[-19,66],[4,70],[-11,2],[-53,114],[-19,83],[79,21],[-52,171],[85,23],[62,-10],[7,-28],[48,-89]],[[6850,4172],[-52,40],[-100,-1],[-68,40],[-14,-39],[-48,-44],[-36,-52],[-18,-96],[-139,26],[-56,-18],[-42,15],[94,103],[115,83],[-92,78],[-31,-32],[-34,19],[26,88],[-40,63],[-32,3],[-43,27],[-13,36],[122,15],[208,34],[89,19],[53,29],[-55,120],[84,28],[49,-111],[129,47]],[[7268,3561],[-26,11],[-73,6],[-24,36],[-92,-4],[28,-30],[-45,-25],[-32,-61],[-70,-57],[51,-71],[-58,-11],[-27,47],[-75,57],[57,72],[-9,45],[-74,22]],[[6806,3728],[97,71],[109,49],[46,27],[43,39]],[[7101,3914],[50,84]],[[7288,4143],[-59,-106]],[[9817,5205],[6,-5],[78,32],[-11,-77],[26,-23],[-8,-23],[-74,38],[-95,34],[29,64],[49,-40]],[[8797,5752],[-4,-24],[250,-174],[47,30],[29,-21],[64,16],[36,-92],[-19,-77],[70,-9],[48,67],[20,60],[-14,35],[22,43],[76,-45],[21,-29],[-3,-54],[29,-13],[50,36],[105,29],[169,63],[24,16],[66,12],[9,-69],[38,-12],[6,-78],[32,-31],[9,-40],[22,-18],[-30,-19],[-45,13],[-26,-14],[19,-31],[-143,-60],[-47,-11],[-34,20],[-153,8],[-122,15],[-55,0],[-112,-34],[4,-23],[-44,8],[-19,28],[-63,-35],[-12,27],[-82,38],[-28,-9],[-91,-61],[-60,9],[-39,17],[-1,50],[48,27],[121,-32],[14,45],[-46,12],[-3,26],[-55,62],[8,37],[31,2],[-61,54],[-111,-39],[-26,25],[8,23]],[[8181,4932],[61,-22],[8,-29],[78,-48],[9,8],[61,-20],[86,44],[9,-29],[-44,-69],[-39,-37],[-30,-65],[-5,-59],[43,-6],[57,-27],[29,-73],[-3,-19],[-109,32],[-32,19],[-42,1],[-51,-15],[1,-21],[-71,7],[-114,35],[-63,-11],[-1,-22],[-90,-25],[-38,5],[-5,20]],[[7886,4506],[-1,47],[34,54],[26,82],[-40,-1],[-6,-24],[-42,1],[-4,43],[-97,11],[-65,59],[6,26],[-14,66]],[[7600,5389],[-37,11],[-85,-10],[-41,-27],[10,-17],[61,9],[15,-15],[-9,-36],[17,-19],[86,-16],[58,-48],[-23,-17],[-54,-4],[-9,-51],[-80,-61],[-80,-12],[6,-57],[43,-50],[78,-17]],[[7556,4952],[-19,-38]],[[7205,5020],[-1,13]],[[7315,5447],[220,-7],[103,-7]],[[7886,4506],[-188,1],[-15,-123],[-49,-85],[38,-17],[-60,-79],[-20,13],[-45,-54],[-40,3],[-30,24],[-61,16],[-29,-39],[114,-20],[-27,-101],[37,-28],[-29,-87],[7,-12],[-45,-43]],[[1227,3766],[0,-94],[15,-74],[64,-105],[-48,-36],[-145,-121],[-26,53],[-44,31],[42,48],[-9,36],[-24,9],[-73,-2],[-21,91],[19,87],[46,32],[18,71],[75,-52],[39,-2],[59,42],[13,-14]],[[1191,6618],[-40,-78],[29,-22],[-34,-26],[67,16],[15,76],[55,-34],[33,7],[109,-34],[28,27],[94,-32],[27,4],[54,-20],[2,-19],[84,-72],[67,-71],[128,-14],[-4,-30],[-51,9],[-229,-38],[-64,-28],[-44,-49],[-28,-15],[-15,-56],[-88,15],[5,27],[-11,64],[41,123],[-69,60],[-45,15],[-27,-8],[-52,28],[-29,-20],[-151,31],[3,27],[47,46],[-16,47],[12,30],[43,19],[54,-5]],[[390,5364],[58,-11],[14,23],[171,-46],[35,-36],[-50,-41],[35,-46],[-17,-20],[17,-20],[21,23],[85,-76],[37,20],[18,-29],[116,-10],[62,26],[82,-82],[27,-13],[177,-29],[8,-73],[30,-66],[-42,-12],[-8,-46],[7,-65],[-35,-8],[-32,-116],[-171,-87],[-21,44],[-50,2],[-109,100],[-23,79],[-61,13],[-106,9],[-96,63],[-53,18],[-89,8],[-17,41],[47,16],[34,74],[-67,-13],[-39,27],[-107,18],[-96,-14],[-16,32],[23,-2],[-76,70],[-31,-45],[-47,5],[-35,18],[13,68],[64,128],[82,19],[84,56],[-14,72],[-23,27],[18,40],[52,7],[64,-38],[20,-35],[-14,-60],[44,-7]],[[3105,536],[52,-8],[-39,-34],[3,-22],[32,8],[50,-8],[-17,-34],[1,-81],[33,-25],[-3,-62],[67,21],[-17,-44],[-26,-107],[-20,-43],[-37,2],[-64,-15],[-111,-56],[-25,36],[-69,-64],[-50,52],[-67,21],[-27,64],[77,21],[37,47],[37,10],[12,64],[-52,23],[-87,6],[-34,35],[-4,41],[101,9],[61,34],[-43,72],[65,28],[81,-3],[83,12]],[[7125,9984],[1,-46],[27,-46],[47,12],[16,-20],[123,-33],[3,-16],[-48,-43],[-21,-78],[-54,-114],[-39,7],[-66,37],[-55,-18],[-69,18],[3,-32],[63,-9],[7,-87],[51,-21],[-8,-46],[6,-61],[79,-43],[18,-21],[-4,-62],[31,-25],[-29,-21],[-120,-20],[-115,18],[-2,90],[-56,7],[-35,72],[53,68],[34,19],[-57,22],[-191,58],[12,54],[76,-13],[31,28],[31,-54],[67,19],[5,-21],[53,11],[-3,37],[-65,50],[5,31],[-35,51],[-69,11],[-18,50],[2,57],[136,52],[-16,40],[91,20],[37,24],[67,-13]],[[9484,9063],[91,-9],[49,3],[-19,-22],[-98,-37],[-21,-83],[-86,-61],[-78,-19],[-26,-21],[-52,-97],[-191,-45],[-93,0],[-49,-17],[-122,16],[-26,-18],[32,-52],[-83,6],[-42,17],[-7,70],[46,38],[55,6],[69,-10],[46,16],[-8,76],[-37,50],[31,16],[114,90],[113,30],[4,-20],[49,-7],[-39,30],[55,-8],[10,-28],[80,52],[124,22],[75,44],[34,-28]],[[8653,8219],[-35,-53],[58,-34],[-41,-43],[-45,12],[-5,-14],[-129,29],[-50,66],[29,93],[81,10],[63,-42],[74,-24]],[[1667,8124],[5,-33],[-91,-65],[8,-24],[65,-32],[-41,-66],[-39,19],[-57,-2],[7,30],[-150,-27],[6,-76],[-8,-98],[-21,-55],[-63,4],[-97,-8],[-11,97],[-77,0],[-71,20],[-163,26],[-22,28],[70,64],[45,-4],[13,47],[-25,57],[4,30],[70,135],[50,-17],[107,10],[0,-29],[176,-28],[100,-9],[36,53],[4,30],[170,-77]],[[4389,1912],[121,-18],[6,7],[262,-11],[43,10],[-11,-74],[-69,-87],[-33,-64],[-43,-172],[-92,51],[-80,28],[-9,-14],[-57,20],[-82,18],[-6,-39],[-70,36],[-71,19],[29,80],[17,14],[67,-38],[35,58],[-66,34],[-26,164],[135,-22]],[[4039,2191],[80,-202],[-14,-30],[81,-336],[-59,-7],[-58,28],[-43,38],[-85,19],[-28,14],[36,31],[-30,17],[43,46],[-78,123],[-122,1],[23,31],[9,63],[111,84],[21,44],[39,6],[74,30]],[[3990,3368],[118,-96],[-134,-98],[157,-199],[70,39],[60,-73],[100,-152],[-16,-51],[-32,-46],[4,-69],[14,-44],[-98,-75],[79,-70],[4,34],[41,14],[15,50],[30,-13],[89,-92],[7,5],[63,-68],[-77,-34],[-99,-65],[-61,50],[-65,68],[-82,-61],[5,-27],[-62,-45],[-69,48],[9,72],[-79,-10],[-121,92],[-68,62],[-63,5],[-50,42],[-208,197],[-120,-130],[-52,43],[-40,-35],[-82,79],[13,32],[101,53],[9,22],[56,31],[13,47],[-55,52],[-11,26],[-38,25],[72,54],[-24,91],[47,84],[78,10],[38,36],[183,-92],[14,24],[62,-16],[104,-72],[115,41],[-84,76],[-36,22],[60,52],[-12,29],[55,25],[28,-18],[25,19]],[[883,7526],[75,-12],[57,11],[35,-7],[-13,-38],[-68,-18],[-40,-66],[30,-21],[-2,-36],[-23,-18],[-17,-52],[14,-63],[88,-44],[25,-41],[-28,-43],[18,-16],[-31,-16],[-59,-53],[-23,-5],[-10,-31],[-67,-45],[-17,-63],[95,-26],[85,24],[48,-11],[-7,-35],[68,-26],[-49,-47],[24,-25],[0,-33],[-37,3],[-30,32],[-58,-17],[-33,-41],[-2,-43],[-87,-44],[-27,-27],[-48,-18],[-28,-24],[-107,81],[-28,-1],[-41,-43],[-37,-16],[-64,45],[-38,68],[58,-21],[66,101],[-72,63],[-3,37],[-52,67],[-42,-19],[-68,34],[0,85],[17,29],[99,2],[24,-19],[-9,40],[42,21],[6,25],[42,61],[68,-24],[52,-35],[18,3],[-13,79],[97,-31],[82,85],[-41,83],[-52,68],[-34,84],[16,29],[82,-26],[48,40],[26,40]],[[1791,4896],[0,-41],[86,-98],[20,-39],[26,-9],[21,25],[69,32],[66,21],[19,-72],[83,17],[87,29],[30,-2],[94,-126],[-46,-52],[-27,-12],[-67,29],[-42,-6],[-3,-30],[46,-16],[-12,-69],[-45,-2],[-19,24],[-34,-28],[-75,-38],[15,-26],[43,2],[36,-25],[-10,-35],[-49,-14],[-55,24],[-35,-11],[-43,14],[1,-31],[48,-37],[28,-56],[-28,-40],[-30,-9],[-80,14],[-128,78],[-156,125],[93,97],[-57,49],[42,26],[-188,204],[64,27],[-61,46],[81,68],[37,-44],[37,81],[115,-42],[3,-22]],[[7645,6092],[-37,-32],[-123,-134],[42,-18],[-75,-73],[-45,14]],[[7407,5849],[-101,53],[-173,21]],[[7133,5923],[22,25],[-25,18],[-85,32],[-75,38],[14,114],[23,3]],[[5360,5203],[-5,-41],[16,-17],[-10,-33],[-1,-115],[-72,-7],[-257,-8],[-71,-5],[-4,104],[-61,0],[21,268],[68,33],[35,-50],[10,-78],[44,6],[39,40],[-2,50],[16,58],[18,18],[75,-11],[21,-55],[-24,-26],[5,-27],[35,-13],[55,10]],[[8290,5834],[-23,-59],[-41,-16]],[[8226,5759],[5,13],[-55,10],[-4,-76],[-62,16],[-312,-51],[10,85],[-12,2]],[[7796,5758],[53,95]],[[5810,5453],[-2,-109],[-141,1],[-1,-32],[-36,0],[0,19]],[[5338,5675],[74,-12],[10,117],[153,20],[51,-8],[0,40],[39,-29],[22,55],[24,2],[22,-30],[42,40],[58,40],[25,-35],[58,-41],[-25,-75],[67,-52]],[[7407,5849],[67,-58],[60,-24]],[[7534,5767],[-12,-50],[-181,38],[-24,-77],[-53,-13]],[[6564,5868],[50,12],[-10,-36],[44,1],[31,-16],[-2,-55],[-31,-23],[11,-114],[67,7],[2,27],[43,5],[1,-28],[105,12],[-4,70],[-38,-2],[-16,37],[3,65],[17,4],[-23,68],[-22,0],[-5,52],[76,26],[51,-43],[52,-21],[-32,-28],[19,-24],[2,-48],[64,11],[-4,27],[33,-3],[25,34],[60,38]],[[7634,5783],[20,-210]],[[7534,5767],[30,31],[70,-15]],[[5617,3930],[75,18],[32,-20],[-66,-109],[-79,-10],[8,-70],[-163,-41],[-31,65],[-92,-9],[-81,7],[-85,-15],[-49,138],[21,22],[113,234],[307,-21],[53,-91],[10,-45],[27,-53]],[[6742,3941],[-10,24],[36,33],[13,35],[-34,14],[4,56],[45,5],[54,64]],[[6867,4139],[-42,-54],[-15,-59],[88,-25],[66,-6],[37,-70],[17,14],[83,-25]],[[8025,5354],[-20,13],[-68,101]],[[7937,5468],[82,48],[100,80],[47,12],[39,27],[-13,84],[34,40]],[[7634,5783],[162,-25]],[[5425,4259],[1,-45],[-78,-23],[-24,5],[-22,59],[-44,-9],[-24,57],[182,30],[9,-74]],[[5103,4259],[-8,-10],[-48,26],[-27,82],[60,1],[73,-27],[20,-32],[-70,-40]],[[4191,6819],[13,-30],[20,5],[34,-40],[44,-10],[-25,-23],[4,-29],[-40,-12],[44,-93],[92,-18],[4,50],[34,79],[62,-6],[18,-49],[25,-11],[-46,-35],[3,-34],[-39,7],[0,-86],[-96,-2],[-8,44],[-36,2],[-10,-39],[-110,9],[9,28],[57,33],[-44,67],[-19,12],[-31,-28],[-19,24],[-49,17],[52,38],[-35,89],[21,41],[71,0]]]}