{"type":"Topology","bbox":[-75.41687342665642,7.568707894844281,-75.20172139787957,7.951722375711985],"transform":{"scale":[0.00002151735461314694,0.00003830527861463187],"translate":[-75.41687342665642,7.568707894844281]},"objects":{"municipios":{"type":"GeometryCollection","geometries":[{"type":"Polygon","arcs":[[0,1]],"properties":{"codigo":"05120100000000000102","sector":"051201000000000001","pcode":"CO05120","area_m2":182117}},{"type":"Polygon","arcs":[[2,3,4]],"properties":{"codigo":"05120100000000000103","sector":"051201000000000001","pcode":"CO05120","area_m2":295799}},{"type":"Polygon","arcs":[[5,-3,6]],"properties":{"codigo":"05120100000000000104","sector":"051201000000000001","pcode":"CO05120","area_m2":65158}},{"type":"Polygon","arcs":[[7]],"properties":{"codigo":"05120200605013000101","sector":"051202006050130001","pcode":"CO05120","area_m2":62264}},{"type":"Polygon","arcs":[[8]],"properties":{"codigo":"05120200503014000101","sector":"051202005030140001","pcode":"CO05120","area_m2":39855}},{"type":"Polygon","arcs":[[-1,9,-7,-5,10]],"properties":{"codigo":"05120100000000000101","sector":"051201000000000001","pcode":"CO05120","area_m2":1112870}},{"type":"Polygon","arcs":[[11,12]],"properties":{"codigo":"05120200305002000101","sector":"051202003050020001","pcode":"CO05120","area_m2":176352}},{"type":"Polygon","arcs":[[13,14,-12,15]],"properties":{"codigo":"05120200305002000102","sector":"051202003050020001","pcode":"CO05120","area_m2":133580}},{"type":"Polygon","arcs":[[-14,16]],"properties":{"codigo":"05120200305002000103","sector":"051202003050020001","pcode":"CO05120","area_m2":174135}},{"type":"Polygon","arcs":[[17,18]],"properties":{"codigo":"05120200801003000101","sector":"051202008010030001","pcode":"CO05120","area_m2":292371}},{"type":"Polygon","arcs":[[19,-18]],"properties":{"codigo":"05120200801003000102","sector":"051202008010030001","pcode":"CO05120","area_m2":193838}},{"type":"Polygon","arcs":[[20]],"properties":{"codigo":"05120200402004000101","sector":"051202004020040001","pcode":"CO05120","area_m2":91789}},{"type":"Polygon","arcs":[[21,22]],"properties":{"codigo":"05120200702006000101","sector":"051202007020060001","pcode":"CO05120","area_m2":124181}},{"type":"Polygon","arcs":[[23,-22]],"properties":{"codigo":"05120200702006000102","sector":"051202007020060001","pcode":"CO05120","area_m2":186835}},{"type":"Polygon","arcs":[[24,25]],"properties":{"codigo":"05120200206010000101","sector":"051202002060100001","pcode":"CO05120","area_m2":193083}},{"type":"Polygon","arcs":[[26,-25]],"properties":{"codigo":"05120200206010000102","sector":"051202002060100001","pcode":"CO05120","area_m2":316058}},{"type":"Polygon","arcs":[[27]],"properties":{"codigo":"05120200206015000101","sector":"051202002060150001","pcode":"CO05120","area_m2":55880}},{"type":"Polygon","arcs":[[28]],"properties":{"codigo":"05120200201012000101","sector":"051202002010120001","pcode":"CO05120","area_m2":78394}}]}},"arcs":[[[3374,296],[-31,-9],[-67,-3],[-36,9],[-5,-8],[-32,2],[-18,17],[1,12],[-73,68]],[[3113,384],[134,22],[42,-36],[31,-10],[30,-4],[-24,-13],[5,-24],[16,-5],[-2,-13],[29,-5]],[[3052,77],[-24,2],[1,9],[-23,3],[-9,-22],[-30,9],[-25,-6]],[[2942,72],[-29,29],[-29,19],[-59,54]],[[2825,174],[28,6],[33,23],[35,4],[27,9],[-18,4],[-35,19],[10,19],[26,22],[40,-20],[15,-44],[76,-2],[29,1],[-8,-9],[-17,-63],[-14,-66]],[[3045,42],[0,-40],[-42,8],[-29,-10],[-9,32],[-23,40]],[[3052,77],[-7,-35]],[[6690,3904],[1,-5],[33,-2],[-12,-89],[-5,-9],[0,-58],[-42,-1],[7,19],[8,78],[-11,2],[10,33],[-1,36],[12,-4]],[[1537,4342],[56,-21],[36,16],[20,-8],[-25,-2],[-30,-11],[0,-6],[-29,-1],[-146,9],[-8,15],[9,5],[28,-13],[32,12],[23,-6],[19,2],[15,9]],[[3374,296],[3,-7],[-57,-13],[-6,-5],[10,-24],[-13,-6],[-5,-13],[-24,-12],[-11,2],[-21,-21],[-54,-11],[-8,-7],[39,-10],[-12,-13],[1,-16],[-9,-14],[-31,-19],[-21,-23],[-2,-16],[-9,-4],[-33,21],[-25,-22],[-19,-5],[-22,-16]],[[2825,174],[-14,14],[-30,41],[-10,28],[-36,3],[-36,28],[-5,16],[-18,25],[-3,74],[11,19],[20,13],[23,3],[32,-6],[72,-35],[29,-12],[69,-11],[77,-3],[60,4],[47,9]],[[7666,4918],[-182,-79],[-42,-33]],[[7442,4806],[4,-13],[-31,-25],[-10,3],[-34,-33],[-28,-10],[-33,0],[-3,7],[16,10],[-4,18],[18,10],[-20,8],[-11,19],[16,7],[29,-3],[34,11],[22,19],[40,25],[-5,3],[34,22],[-1,8],[28,14],[21,-3],[16,8],[40,3],[21,10],[-2,8],[67,-14]],[[7733,4917],[-60,-31],[-44,-30],[-9,-16],[-27,-12],[-14,10],[-30,-17],[-16,3],[-21,-11],[17,-9],[27,5],[32,-9]],[[7588,4800],[-26,-16],[-25,8],[-8,-3],[-22,13],[-23,-9],[-17,9],[13,6],[-21,4],[-17,-6]],[[7666,4918],[20,9],[-23,20],[19,8],[32,-2],[9,-10],[-18,-8],[28,-18]],[[7733,4917],[21,-10],[-18,-8],[11,-4],[-30,-18],[42,-10],[13,17],[15,2],[28,16],[41,-17],[-49,-34],[1,-6],[24,-8],[-13,-12],[-72,7],[-18,-15],[-5,12],[-25,7],[-44,-26],[-15,-16],[18,5],[39,-8],[-24,-17],[-21,2],[-11,15],[-25,-15],[-21,8],[17,9],[-24,7]],[[9680,7363],[-48,58],[-51,66],[-21,33]],[[9560,7520],[22,2],[30,-39],[27,-11],[18,7],[-4,22],[-16,-1],[-7,24],[18,2],[-11,22],[44,12],[17,-14],[8,3],[-3,23],[11,17],[-15,10],[12,13],[33,1],[5,-32],[11,-33],[23,-40],[-6,-51],[1,-25],[-10,-35],[-13,-12],[-49,-21],[-13,-16],[-13,15]],[[9680,7363],[-13,5],[-32,-3],[-120,-1],[-6,10],[15,12],[29,0],[-20,29],[20,4],[-23,3],[-16,20],[0,21],[-55,-15],[-9,12],[0,48],[103,29],[7,-17]],[[201,7001],[-30,-40],[-44,15],[-21,-7],[-18,8],[-21,-11],[-12,8],[12,5],[-10,10],[-42,-27],[-15,6],[1,9],[55,27],[22,40],[12,-6],[124,-19],[-13,-18]],[[6310,2573],[-46,14],[-18,-11],[10,16],[-92,22],[3,5],[-38,7]],[[6129,2626],[21,14],[51,14],[23,25],[15,-3],[15,9],[31,6],[15,-20],[9,-23],[-12,-16],[9,-6],[41,-7],[-37,-46]],[[6310,2573],[-14,-19],[-46,-45],[-32,-37],[-70,-1],[-30,9],[-24,17],[-16,-2],[1,23],[45,38],[28,8],[25,-9],[16,28],[13,13],[-45,6],[-19,8],[-10,-16],[-27,7],[24,25]],[[9920,5629],[-22,-12],[-56,-2],[-65,20]],[[9777,5635],[28,16],[39,8],[-22,12],[9,25],[-12,23],[3,29],[14,3],[98,-2],[30,17],[21,-36],[14,-1],[-3,-23],[-21,-20],[-25,-18],[-15,-18],[-25,-13],[10,-8]],[[9920,5629],[11,-10],[-13,-55],[-94,0],[-7,-23],[5,-20],[12,3],[6,21],[15,-1],[-5,-18],[12,-20],[-37,-6],[36,-30],[-59,-3],[4,-11],[-22,-3],[-7,16],[-27,-18],[-15,-4],[-40,-45],[-51,19],[11,12],[15,37],[3,34],[-2,48],[18,1],[14,14],[29,13],[20,15],[-1,26],[26,14]],[[9936,6161],[-8,-48],[-18,-42],[-38,-50],[-14,-5],[-18,-26],[-54,-35],[-22,-1],[16,15],[60,35],[4,15],[31,35],[-24,4],[17,17],[24,5],[19,31],[1,23],[7,0],[1,28],[20,86],[9,0],[-10,-41],[-3,-46]],[[9765,9989],[0,-19],[-9,-19],[7,-5],[-14,-29],[-15,-17],[15,-12],[-20,-24],[5,-22],[-30,3],[26,-19],[-18,-1],[7,-23],[-4,-26],[-46,3],[-6,-25],[-16,-2],[10,24],[54,121],[26,62],[0,40],[28,-10]]]}
