{"type":"Topology","bbox":[-75.25104605914566,6.212003912685249,-75.23508033020022,6.226505576993245],"transform":{"scale":[0.000001596732567801359,0.0000014503114619457323],"translate":[-75.25104605914566,6.212003912685249]},"objects":{"municipios":{"type":"GeometryCollection","geometries":[{"type":"Polygon","arcs":[[0,1,2,3,4]]},{"type":"Polygon","arcs":[[5,6,7,8,9]]},{"type":"Polygon","arcs":[[10,11,12,-9]]},{"type":"Polygon","arcs":[[13,14,-12,15,16,-3]]},{"type":"Polygon","arcs":[[17,-14,-2,18]]},{"type":"Polygon","arcs":[[-4,-17,19]]},{"type":"Polygon","arcs":[[20,-19,-1,21]]},{"type":"Polygon","arcs":[[-21,22,-10,-13,-15,-18]]},{"type":"Polygon","arcs":[[-7,23]]}]}},"arcs":[[[4943,7447],[-178,-323],[193,-115],[481,-1007]],[[5439,6002],[-288,-142],[-113,-689]],[[5038,5171],[-689,178],[-289,8],[-407,-92],[-319,-196],[-341,1121]],[[2993,6190],[-255,931],[187,317],[-89,477],[262,279]],[[3098,8194],[365,14],[143,255],[443,114],[523,-31],[639,-216],[617,-66],[-536,-538],[-265,100],[-149,-93],[65,-286]],[[9292,2072],[-219,-226],[224,-118],[-384,-69],[-199,44]],[[8714,1703],[-365,58],[-651,527],[-1073,-667],[-173,-182],[-138,605],[-268,82]],[[6046,2126],[-91,26],[-357,-234],[-402,96]],[[5196,2014],[566,345],[1226,802],[133,124]],[[7121,3285],[326,-30],[474,-334],[523,36],[342,-109],[265,-327],[241,-449]],[[5196,2014],[-291,96],[-525,408],[-663,401]],[[3717,2919],[180,338],[695,489],[49,266],[401,-149]],[[5042,3863],[939,-550],[1140,-28]],[[5038,5171],[74,-474],[12,-649]],[[5124,4048],[-82,-185]],[[3717,2919],[-394,655],[-683,1301]],[[2640,4875],[368,241],[14,484],[-204,54],[175,536]],[[6625,4224],[-632,310],[-354,-16],[-515,-470]],[[5439,6002],[141,-295],[963,572],[79,-166],[-274,-116],[-308,-633],[-14,-330],[136,-249],[543,-406],[-80,-155]],[[2640,4875],[-584,1134],[-245,414],[-70,505],[-109,236],[-289,-12],[-456,108],[-176,345],[-181,686],[-213,107],[-299,297],[-3,233],[449,1017],[335,54],[57,-202],[336,-283],[563,18],[659,-230],[203,-236],[84,-286],[397,-586]],[[8048,4309],[-332,-216],[-209,82],[-882,49]],[[4943,7447],[442,-41],[482,-175],[274,32],[319,-180],[278,36],[249,-104],[163,132],[320,-12],[257,-335],[362,-350],[164,38],[347,-156],[46,-367],[-479,-178],[-61,-264],[37,-518],[-290,-467],[195,-229]],[[8048,4309],[520,79],[45,-94],[-9,-761],[586,-430],[425,-141],[384,-29],[-308,-1094],[-399,233]],[[8714,1703],[627,-831],[-8,-190],[-260,165],[-208,-106],[-73,158],[-587,-201],[-99,34],[-535,-307],[-8,-69],[-460,-130],[-63,-226],[-171,246],[-417,169],[-33,384],[-247,148],[1,330],[283,-18],[-410,867]]]}
