{"type":"Topology","bbox":[-75.41824747104704,6.402766953110306,-75.2794294904337,6.477178203484132],"transform":{"scale":[0.000013883186379971936,0.000007441869224305043],"translate":[-75.41824747104704,6.402766953110306]},"objects":{"municipios":{"type":"GeometryCollection","geometries":[{"type":"Polygon","arcs":[[0,1]]},{"type":"Polygon","arcs":[[2,3,4,5,6,7]]},{"type":"Polygon","arcs":[[8]]},{"type":"Polygon","arcs":[[-3,9,10,11]]},{"type":"Polygon","arcs":[[12,13,-10,14,15]]},{"type":"Polygon","arcs":[[16]]},{"type":"Polygon","arcs":[[17,-6,18,19,20,21]]},{"type":"Polygon","arcs":[[-8,22,-22,23,-15]]},{"type":"Polygon","arcs":[[24,25,26,-11,-14]]},{"type":"Polygon","arcs":[[-16,-24,-21,27]]},{"type":"Polygon","arcs":[[-19,-5,28,29]]},{"type":"Polygon","arcs":[[30,-29,-4,-12,-27,31]]},{"type":"Polygon","arcs":[[-7,-18,-23]]},{"type":"Polygon","arcs":[[32,-32,-26]]},{"type":"MultiPolygon","arcs":[[[33]],[[34]]]},{"type":"Polygon","arcs":[[35,-1]]},{"type":"Polygon","arcs":[[36]]},{"type":"Polygon","arcs":[[37]]},{"type":"Polygon","arcs":[[38]]},{"type":"Polygon","arcs":[[39,40]]},{"type":"Polygon","arcs":[[41]]},{"type":"Polygon","arcs":[[42]]},{"type":"Polygon","arcs":[[-40,43]]}]}},"arcs":[[[1046,561],[-37,108],[-8,91]],[[1001,760],[94,21],[46,43],[30,59],[18,-49],[-13,-30],[9,-58],[-4,-53],[25,-33],[7,-36],[28,-36],[-15,-24],[-52,-25],[-22,-30],[-13,29],[-12,81],[-11,24],[-1,52],[-21,12],[-26,-13],[-34,0],[27,-30],[15,-69],[15,-14],[9,-62],[23,-38],[2,-56],[-32,-22],[-9,36],[-32,-51],[-44,77],[17,54],[21,-8],[0,50]],[[6228,4730],[-150,-296],[-29,-30]],[[6049,4404],[-27,4],[-50,31],[-37,3]],[[5935,4442],[60,123]],[[5995,4565],[69,140],[28,67]],[[6092,4772],[46,-56],[47,98]],[[6185,4814],[43,-84]],[[9601,9507],[34,11],[62,93],[57,163],[36,36],[14,28],[45,10],[63,106],[68,45],[19,-24],[-23,-13],[-61,-60],[-50,-73],[-23,-45],[-28,-33],[-102,-293],[-76,-202],[-36,-72],[-8,-50],[-13,-16],[-16,55],[-25,150],[-4,114],[5,39],[32,27],[30,4]],[[6228,4730],[69,-135]],[[6297,4595],[45,-83]],[[6342,4512],[-105,-187],[-30,34],[-19,-24],[-65,35],[-10,19],[-38,-15],[-26,30]],[[6726,5654],[-12,-51],[0,-73],[16,-84],[47,-57],[10,-52],[45,-101],[38,-57],[18,18],[59,-3],[29,-55],[-6,-76],[38,-10],[10,-120],[34,-112],[16,-39],[-49,-25],[-18,27],[-14,-51],[-36,27],[-13,41],[5,136],[-40,-34],[-54,10],[-21,127],[4,28],[-77,7],[-74,-53],[-28,-12],[-49,24],[-51,-83],[-32,-75],[-22,6]],[[6499,4882],[-41,37],[-29,-20],[-38,10],[-20,-38],[3,-43],[16,-64],[-93,-169]],[[6228,4730],[211,415],[12,79],[-20,112],[10,48]],[[6441,5384],[96,21],[20,16],[25,58],[-1,117],[20,93],[14,11],[48,-44],[22,-9],[41,7]],[[1155,1663],[20,-11],[0,-33],[-25,-9],[-46,20],[-56,-11],[-19,-24],[-50,-30],[-38,-58],[-71,-52],[-33,-42],[-59,-60],[-31,-24],[-126,-44],[0,-11],[-74,-14],[-9,87],[197,72],[23,11],[68,57],[255,242],[67,60],[15,-73],[-8,-53]],[[6172,5131],[-80,-359]],[[5995,4565],[-22,44],[-36,-4],[-35,11],[-20,45],[6,31],[-22,12],[14,50],[-19,-7],[-9,66],[5,51],[-29,8]],[[5828,4872],[24,167],[17,50],[36,28],[31,-2],[74,18],[49,20],[15,44],[-24,130],[-29,109],[5,86],[34,91],[47,49],[75,34],[25,40],[22,111],[-46,57],[4,40],[21,47],[18,81],[-3,35],[42,52]],[[6265,6159],[-30,-501],[-19,-294],[-7,-71],[-27,-119]],[[6182,5174],[-10,-43]],[[6185,4814],[81,175],[-63,116],[-31,26]],[[6182,5174],[25,38],[94,26],[71,99],[26,25],[43,22]],[[6499,4882],[3,-25],[-21,12],[-38,-128],[-5,59],[-26,32],[-31,6],[15,-35],[7,-54],[-12,-22],[19,-68],[27,-29],[7,-36],[40,-37],[39,-71],[43,-3],[2,-46],[11,23],[21,-33],[41,29],[19,54],[16,-16],[40,-3],[11,-28],[-34,-50],[-44,-7],[11,-76],[6,-111],[-9,-108]],[[6657,4111],[-17,62],[-70,35],[-25,39],[-44,-37],[-86,162]],[[6415,4372],[-73,140]],[[6265,6159],[79,99],[129,154],[9,-41],[52,-59],[42,-4],[70,-21],[13,19],[-5,68],[18,93],[37,-41],[59,-1],[22,-47],[46,-71],[23,-26],[37,-62],[36,-74],[-4,-67],[25,-47],[3,-34],[-12,-47],[8,-80],[33,-103],[19,8],[11,-104],[10,-31],[-5,-46],[-24,-66],[-52,53],[-47,108],[-115,-8],[-56,-27]],[[5935,4442],[-135,-279],[-37,-48],[-39,-107],[-39,-54],[-464,-248],[-39,-38],[-37,-60]],[[5145,3608],[-21,65],[19,9],[31,52],[31,156],[15,44],[-24,35],[49,135],[51,109],[32,47],[44,16],[64,-30],[31,-44],[36,-20],[34,5],[45,57],[-15,20],[26,20],[6,-14],[58,87],[14,33],[6,-20],[37,21],[26,44],[-9,9],[18,138],[11,-4],[23,188],[-11,6],[22,158],[17,29],[3,-81],[14,-6]],[[6666,3751],[-76,-38],[1,-54],[-27,-9],[-10,-46],[-35,-17],[-3,29],[-20,-24],[-30,-6],[-2,-131],[-21,-12],[-21,33],[16,50],[9,66],[-10,71],[40,0],[16,45],[-12,45],[7,25],[-16,33],[-11,83],[-15,-49],[-16,-12],[1,43],[-10,21],[-4,57],[-11,-13],[0,-43],[-31,-21],[26,34],[6,51],[-20,-30],[-6,24],[43,42],[-10,20],[-15,-24],[-21,58],[-17,-42],[-82,-92],[-11,18],[44,51],[-62,58],[-6,-30],[-28,-24],[-35,65],[13,74],[35,12],[-7,36],[-22,46],[-18,-2],[-33,49],[-5,48],[-14,8],[-36,-44],[-31,4],[-8,35],[-33,44],[-11,-26],[-17,-96],[-21,85],[-5,45],[-54,-148],[-45,-53],[-31,18],[-41,-72],[-30,-29],[-13,-50],[-21,-39],[-9,-60],[-24,-21],[-11,-41],[-74,9],[-17,-30],[-22,0],[-16,-53],[-5,-89],[6,-52],[-29,-61],[15,-46],[22,-30],[15,-85],[-19,-40],[-16,27],[-100,37],[-39,-49],[-13,3],[-15,42],[-32,19],[-31,-16],[-27,3],[-22,-15],[5,-35],[26,-45],[-2,-114],[-7,-50],[-4,104],[3,72],[-60,61],[11,-71],[-34,27],[-8,72],[-43,82],[-12,52]],[[6415,4372],[-33,-59],[30,-53],[16,-44],[66,-45],[23,16],[21,-61],[21,0],[12,-38],[-22,-28],[36,-60],[18,-47],[63,-202]],[[6657,4111],[28,-77],[39,-17],[-6,-32],[12,-43],[36,-34],[-1,-29],[-34,34],[-9,-25],[11,-38],[46,-59],[-7,-19],[-25,11],[-43,-29],[-27,-31],[-11,28]],[[1774,1233],[16,-10],[17,-65],[37,-46],[21,45],[30,-40],[39,-6],[-5,-37],[34,2],[4,59],[9,-23],[69,18],[32,44],[35,-40],[2,-23],[28,-31],[68,5],[22,-23],[9,-38],[-33,-22],[-17,-49],[32,-40],[-23,-29],[-38,49],[-6,-57],[-3,-107],[-46,-5],[-26,214],[-25,-22],[23,49],[19,75],[-6,39],[-39,-6],[-84,-35],[-19,-25],[13,-89],[-18,-28],[13,-46],[-44,4],[2,-29],[-31,-19],[-19,118],[-14,30],[4,28],[-28,-2],[2,-63],[13,-109],[-3,-74],[-44,-69],[-18,33],[20,31],[-7,125],[18,6],[-4,48],[8,46],[-32,15],[-10,31],[-13,-103],[2,-76],[19,-64],[-9,-52],[-38,4],[-8,-13],[-15,78],[-4,-49],[-40,12],[-24,-34],[-28,4],[-5,25],[28,32],[-1,74],[24,-2],[25,22],[17,-15],[8,35],[-9,25],[4,58],[-79,0],[-24,16],[-7,-21],[-35,30],[-22,-10],[1,53],[-13,45],[32,15],[66,-16],[4,64],[23,-20],[29,11],[26,-11],[30,25],[24,45],[15,6]],[[1858,1483],[22,-26],[10,10],[39,-42],[-20,-81],[-35,7],[-14,-36],[18,-67],[-36,-13],[-19,55],[-31,32],[-4,-32],[-18,18],[-17,-19],[-63,-11],[-20,-22],[-52,38],[-31,-2],[-2,44],[121,25],[58,6],[11,49],[28,-36],[25,94],[30,9]],[[1046,561],[-48,-42],[14,-32],[-10,-31],[-32,-18],[9,-27],[-10,-110],[26,-112],[-15,-14],[-47,5],[-25,-69],[-57,20],[-21,-8],[13,-89],[-51,0],[-19,-34],[-17,67],[9,41],[-19,67],[-76,4],[10,42],[-21,7],[-41,-62],[-46,13],[13,210],[47,-36],[-8,118],[19,31],[16,-6],[24,-75],[33,-51],[123,97],[24,15],[26,40],[29,-3],[28,41],[19,105],[13,-7],[8,76],[15,26]],[[4458,2670],[29,-8],[-1,-93],[-12,-43],[-29,-42],[-40,-10],[-92,-6],[-34,-18],[-39,-66],[-14,-10],[-97,-28],[-61,-66],[-90,-130],[-48,-87],[-33,188],[28,54],[38,16],[26,41],[27,19],[29,50],[35,10],[43,35],[41,-12],[29,-36],[27,-1],[55,83],[126,33],[16,21],[38,81],[3,25]],[[7757,6598],[14,10],[13,-38],[-22,-34],[-14,37],[-25,-12],[-3,-106],[-27,-1],[-12,34],[-16,-4],[-54,130],[74,46],[-14,29],[45,66],[31,59],[70,72],[16,-31],[-65,-56],[10,-45],[-49,-106],[28,-50]],[[8363,7396],[43,-23],[15,-20],[-15,-37],[-34,40],[-69,-23],[-30,6],[-40,-13],[-52,-73],[-17,-58],[-39,-30],[-37,-47],[-6,39],[17,28],[38,31],[47,73],[43,80],[69,9],[22,-20],[45,38]],[[377,1710],[-2,6]],[[375,1716],[-24,55],[27,34],[19,118],[-4,72],[-20,13],[14,34],[-9,59],[-16,32],[-19,8],[-46,55],[-31,-3],[-12,39],[24,23],[6,30],[28,53],[-1,99],[-16,7],[-9,46],[17,28],[-12,23],[3,63],[21,-1],[10,26],[10,-63],[-6,-20],[40,-25],[30,-45],[-32,-26],[8,-30],[-33,-19],[21,-40],[19,6],[14,-34],[-23,-7],[0,-38],[13,-46],[1,-67],[15,-52],[-2,-73],[20,-9],[7,-115],[-3,-65],[-15,-101],[18,-36],[-30,-24],[-20,10]],[[713,2275],[4,-29],[23,18],[18,-51],[51,-1],[10,-27],[65,-68],[26,-18],[-27,-124],[65,-90],[-55,-28],[-26,7],[-10,36],[3,51],[-37,1],[-17,27],[-25,-16],[-33,41],[-20,9],[25,33],[-18,87],[-62,67],[17,67],[23,8]],[[768,1915],[46,2],[-6,-36],[44,-33],[6,-48],[25,-15],[5,-32],[26,19],[4,-30],[-24,-3],[5,-32],[-28,23],[-15,-21],[-9,-74],[-51,-16],[-36,-1],[-6,-103],[-25,79],[-22,52],[-37,52],[-2,51],[13,15],[8,52],[-13,-1],[-15,40],[-14,80],[31,2],[28,44],[41,-28],[21,-38]],[[377,1710],[12,-40],[-3,-67],[-17,-36],[17,-21],[38,-196],[-1,-59],[-62,-44],[-109,-51],[-243,-142],[-9,51],[24,20],[7,49],[58,9],[6,117],[-12,40],[83,205],[8,-11],[41,120],[-19,42],[48,44],[13,-107],[102,88],[16,-5]]]}