{"type":"Topology","bbox":[-75.78701818156566,6.277766982400799,-75.73143118519027,6.34129281498309],"transform":{"scale":[0.0000055592555630945205,0.0000063532185800871475],"translate":[-75.78701818156566,6.277766982400799]},"objects":{"municipios":{"type":"GeometryCollection","geometries":[{"type":"Polygon","arcs":[[0]]},{"type":"Polygon","arcs":[[1]]},{"type":"Polygon","arcs":[[2,3,4]]},{"type":"Polygon","arcs":[[5,6,-3]]},{"type":"Polygon","arcs":[[-4,-7,7]]},{"type":"Polygon","arcs":[[8]]},{"type":"Polygon","arcs":[[9,10]]},{"type":"Polygon","arcs":[[-10,11]]},{"type":"Polygon","arcs":[[12]]}]}},"arcs":[[[4728,217],[4,-13],[110,-12],[0,-37],[37,-25],[-35,-48],[-189,-82],[-32,33],[-137,33],[-5,56],[61,-20],[-3,32],[33,46],[25,-13],[105,51],[-17,47],[35,6],[8,-54]],[[5900,4690],[11,-66],[75,-40],[-15,-54],[-124,3],[-50,-57],[-96,-37],[-36,91],[6,132],[55,-6],[33,36],[62,-7],[58,23],[21,-18]],[[4390,7719],[-128,-18],[-3,57],[-167,-7],[-47,-55],[-41,-2],[2,-34],[-63,-7],[-391,5],[-5,38],[-176,4]],[[3371,7700],[-247,5],[-3,54]],[[3121,7759],[102,54],[17,32],[-22,61],[89,-12],[44,-30],[57,11],[25,-66],[72,-75],[126,-34],[103,26],[12,22],[84,-23],[133,38],[54,109],[133,160],[67,-15],[36,10],[84,-14],[39,12],[64,47],[59,-34],[-8,-68],[27,-29],[3,-67],[-46,-3],[-77,-58],[-8,-94]],[[4390,7719],[48,-1],[3,-48],[-35,-1],[-27,35],[-34,-41],[-42,-1],[3,-73],[-121,-3],[-20,-146],[15,-16],[-27,-59],[-35,-32],[21,-33],[65,-53],[-93,-6],[-38,41],[-61,94],[-30,149],[-89,-2],[-22,20],[-115,-11],[-3,-34],[-58,22],[-19,43],[-105,4],[-72,-13],[-78,-91],[16,-84],[34,-50],[47,-19],[66,-57],[38,-81],[40,-42],[-20,-49],[-70,12],[-52,32],[-25,-30],[-9,-89],[23,-55],[53,22],[38,-93],[-42,-41],[-80,-50],[-88,36],[-93,79]],[[3297,6904],[59,89],[66,-16],[-20,60],[-104,6],[-1,21],[59,30],[27,68],[-76,45],[7,43],[85,-25],[66,2],[9,32],[-101,168],[-66,72],[86,20],[-3,96],[-19,0],[0,85]],[[3297,6904],[-77,64],[16,77],[-120,68],[57,68],[87,6],[13,34],[-52,56],[13,36],[33,-7],[27,46],[96,-40],[16,29],[-54,76],[-43,22],[-10,33],[-80,18],[-12,21],[-54,2],[-21,-39],[-42,0],[6,115],[-15,69],[-34,55],[-166,119],[15,19],[50,-47],[86,-44],[89,-1]],[[9788,9898],[55,-40],[102,25],[51,-40],[-77,-49],[29,-81],[-40,-93],[0,-41],[-49,17],[-35,-61],[-12,79],[-94,-11],[-3,90],[23,27],[-22,28],[-4,66],[-50,110],[22,12],[-16,49],[57,-9],[19,-49],[44,-29]],[[615,2454],[-78,-4],[-245,-73]],[[292,2377],[-29,12],[-80,118],[30,38],[-21,40],[3,71],[-49,47],[-21,67],[-72,74],[-32,70],[59,29],[-51,99],[40,93],[-69,11],[21,103],[42,64],[40,8],[4,-41],[172,30],[92,23],[73,37],[63,15],[73,-8],[115,38],[35,27],[115,-62],[-63,-40],[-80,-17],[-161,20],[-74,-10],[-88,-45],[-15,-24],[101,-5],[43,-103],[-38,-48],[-29,-109],[-87,42],[-121,20],[-36,-68],[52,1],[76,-61],[-81,-76],[180,-73],[70,35],[41,-81],[87,-55],[-75,-76],[64,-86],[4,-67]],[[615,2454],[45,-226],[40,-54],[34,-80],[49,-1],[32,-52],[-17,-48],[30,-71],[-81,2],[109,-62],[31,-36],[7,-68],[-42,-82],[11,-98],[-102,12],[-38,121],[-17,-1],[-27,87],[-66,17],[-67,-3],[4,27],[56,24],[16,28],[-54,65],[78,27],[-52,79],[-99,-7],[26,37],[-86,-5],[2,27],[51,-2],[38,71],[-53,89],[-18,-19],[0,-62],[-59,47],[-29,-24],[-92,36],[19,67],[-2,61]],[[2939,6367],[-45,96],[-56,48],[9,37],[-23,163],[-35,43],[-19,66],[-48,17],[32,51],[-37,61],[81,38],[-6,-43],[32,-11],[75,22],[49,-2],[95,-45],[18,51],[76,-3],[-25,-29],[25,-70],[58,-21],[32,-49],[33,-9],[-48,-62],[-68,-27],[-72,15],[-55,-41],[-19,-38],[5,-136],[82,-26],[-8,39],[92,68],[29,-1],[36,-40],[63,-27],[-21,-36],[56,-25],[-10,-22],[85,-17],[58,-53],[106,39],[53,-6],[52,-77],[62,-63],[20,-39],[-21,-15],[-47,34],[-7,43],[-28,-22],[-24,30],[-43,5],[64,40],[-43,29],[-43,-25],[-72,-15],[-80,27],[-26,-31],[-123,-70],[-31,-4],[-77,34],[43,71],[-99,5],[-43,-10],[-132,13],[13,25]]]}
