{"type":"Topology","bbox":[-75.73728995902309,6.936460956018655,-75.67220654081791,7.053385050617067],"transform":{"scale":[0.00000650899271978965,0.000011693578817723042],"translate":[-75.73728995902309,6.936460956018655]},"objects":{"municipios":{"type":"GeometryCollection","geometries":[{"type":"Polygon","arcs":[[0]],"properties":{"codigo":"05819200104002000101","sector":"058192001040020001","pcode":"CO05819","area_m2":61956}},{"type":"Polygon","arcs":[[1,2,3]],"properties":{"codigo":"05819100000000000102","sector":"058191000000000001","pcode":"CO05819","area_m2":37885}},{"type":"Polygon","arcs":[[-3,4,5]],"properties":{"codigo":"05819100000000000101","sector":"058191000000000001","pcode":"CO05819","area_m2":110090}},{"type":"Polygon","arcs":[[-5,-2,6]],"properties":{"codigo":"05819100000000000103","sector":"058191000000000001","pcode":"CO05819","area_m2":124914}},{"type":"Polygon","arcs":[[7]],"properties":{"codigo":"05819200106001000101","sector":"058192001060010001","pcode":"CO05819","area_m2":21925}},{"type":"Polygon","arcs":[[8]],"properties":{"codigo":"05819200103005000101","sector":"058192001030050001","pcode":"CO05819","area_m2":32812}}]}},"arcs":[[[9721,9988],[36,-27],[155,10],[87,-10],[-25,-30],[-167,-40],[4,-43],[-120,-22],[19,-63],[46,-60],[-102,-22],[-7,59],[-53,86],[-93,62],[-67,26],[70,44],[203,41],[14,-11]],[[7174,6480],[-188,-150],[-159,-136]],[[6827,6194],[-55,13],[99,85],[-48,19],[132,113],[74,72],[-49,18]],[[6980,6514],[29,42],[165,-76]],[[6827,6194],[-84,-4],[-53,-22]],[[6690,6168],[-60,11],[-34,75],[-160,15],[-77,-17],[72,64],[67,27],[67,46],[81,96],[-59,20],[39,14],[58,-4],[187,29],[55,-3],[54,-27]],[[7174,6480],[75,-11],[50,-27],[-10,-28],[50,-43],[79,9],[9,-16],[-116,-57],[-62,-74],[-48,-18],[-28,-59],[-99,-79],[-159,-2],[-72,-18],[-65,35],[-7,28],[-43,-6],[-38,54]],[[5186,213],[-5,-118],[49,-35],[-25,-7],[37,-46],[-20,-7],[-49,39],[-128,29],[-4,22],[38,30],[-75,30],[66,26],[11,-32],[69,15],[4,35],[-72,2],[71,12],[8,42],[53,24],[27,-7],[-55,-54]],[[387,7640],[31,-37],[-46,-25],[36,-22],[-62,-28],[-68,28],[26,41],[-55,73],[-35,19],[-106,26],[-59,3],[-15,26],[35,11],[-2,32],[-36,-14],[-31,15],[49,51],[83,8],[51,-14],[-26,-17],[-91,-8],[60,-61],[31,-16],[138,-12],[-9,-24],[106,3],[-5,-58]]]}
