{"type":"Topology","bbox":[-76.69876113834096,7.4993743711686225,-76.57898260422462,7.683693845723296],"transform":{"scale":[0.000011979051316765209,0.000018433790834550777],"translate":[-76.69876113834096,7.4993743711686225]},"objects":{"municipios":{"type":"GeometryCollection","geometries":[{"type":"Polygon","arcs":[[0,1,2,3,4]],"properties":{"codigo":"05172100000000000106","sector":"051721000000000001","pcode":"CO05172","area_m2":126022}},{"type":"Polygon","arcs":[[5,6,7,8,9,10]],"properties":{"codigo":"05172100000000000604","sector":"051721000000000006","pcode":"CO05172","area_m2":79342}},{"type":"Polygon","arcs":[[11,12,-8,13]],"properties":{"codigo":"05172100000000000605","sector":"051721000000000006","pcode":"CO05172","area_m2":59441}},{"type":"Polygon","arcs":[[14,15,16]],"properties":{"codigo":"05172100000000000107","sector":"051721000000000001","pcode":"CO05172","area_m2":139563}},{"type":"Polygon","arcs":[[17,18,19,20,-11,21,22]],"properties":{"codigo":"05172100000000000203","sector":"051721000000000002","pcode":"CO05172","area_m2":190347}},{"type":"Polygon","arcs":[[23,24,-1,25,26,27]],"properties":{"codigo":"05172100000000000301","sector":"051721000000000003","pcode":"CO05172","area_m2":131229}},{"type":"Polygon","arcs":[[28,-20,29,30,31,32,33]],"properties":{"codigo":"05172100000000000505","sector":"051721000000000005","pcode":"CO05172","area_m2":86440}},{"type":"Polygon","arcs":[[-19,34,-30]],"properties":{"codigo":"05172100000000000506","sector":"051721000000000005","pcode":"CO05172","area_m2":30733}},{"type":"Polygon","arcs":[[35,36,37,-6,-21,-29]],"properties":{"codigo":"05172100000000000601","sector":"051721000000000006","pcode":"CO05172","area_m2":73885}},{"type":"Polygon","arcs":[[38,-14,-7,-38]],"properties":{"codigo":"05172100000000000603","sector":"051721000000000006","pcode":"CO05172","area_m2":55987}},{"type":"Polygon","arcs":[[39]],"properties":{"codigo":"05172200605014000101","sector":"051722006050140001","pcode":"CO05172","area_m2":30342}},{"type":"Polygon","arcs":[[40,41,42,43,44]],"properties":{"codigo":"05172100000000000103","sector":"051721000000000001","pcode":"CO05172","area_m2":88753}},{"type":"Polygon","arcs":[[45,-43,46,-16,47,-27]],"properties":{"codigo":"05172100000000000101","sector":"051721000000000001","pcode":"CO05172","area_m2":260612}},{"type":"Polygon","arcs":[[-42,48,-17,-47]],"properties":{"codigo":"05172100000000000102","sector":"051721000000000001","pcode":"CO05172","area_m2":60580}},{"type":"Polygon","arcs":[[-5,49,-44,-46,-26]],"properties":{"codigo":"05172100000000000104","sector":"051721000000000001","pcode":"CO05172","area_m2":67199}},{"type":"Polygon","arcs":[[-4,50,51,-45,-50]],"properties":{"codigo":"05172100000000000105","sector":"051721000000000001","pcode":"CO05172","area_m2":161468}},{"type":"Polygon","arcs":[[52]],"properties":{"codigo":"05172100000000000108","sector":"051721000000000001","pcode":"CO05172","area_m2":67184}},{"type":"Polygon","arcs":[[53,54,-3,55]],"properties":{"codigo":"05172100000000000201","sector":"051721000000000002","pcode":"CO05172","area_m2":96797}},{"type":"Polygon","arcs":[[-10,56,57,58,59,-54,60,-22]],"properties":{"codigo":"05172100000000000202","sector":"051721000000000002","pcode":"CO05172","area_m2":134623}},{"type":"Polygon","arcs":[[61,62,63,-51,-55,-60]],"properties":{"codigo":"05172100000000000204","sector":"051721000000000002","pcode":"CO05172","area_m2":168896}},{"type":"Polygon","arcs":[[64,65,-62,-59,66]],"properties":{"codigo":"05172100000000000205","sector":"051721000000000002","pcode":"CO05172","area_m2":73452}},{"type":"Polygon","arcs":[[-66,67,-63]],"properties":{"codigo":"05172100000000000206","sector":"051721000000000002","pcode":"CO05172","area_m2":122959}},{"type":"Polygon","arcs":[[68,-23,-61,-56,-2,-25,69]],"properties":{"codigo":"05172100000000000302","sector":"051721000000000003","pcode":"CO05172","area_m2":108752}},{"type":"Polygon","arcs":[[70,71,72,73,74,-57,-9,-13]],"properties":{"codigo":"05172100000000000608","sector":"051721000000000006","pcode":"CO05172","area_m2":65678}},{"type":"Polygon","arcs":[[75,-70,-24,76]],"properties":{"codigo":"05172100000000000401","sector":"051721000000000004","pcode":"CO05172","area_m2":376677}},{"type":"Polygon","arcs":[[77,-31,-35,-18,-69,-76,78]],"properties":{"codigo":"05172100000000000501","sector":"051721000000000005","pcode":"CO05172","area_m2":129794}},{"type":"Polygon","arcs":[[79,-78,80]],"properties":{"codigo":"05172100000000000502","sector":"051721000000000005","pcode":"CO05172","area_m2":52055}},{"type":"Polygon","arcs":[[81,82,-32,-80,83]],"properties":{"codigo":"05172100000000000503","sector":"051721000000000005","pcode":"CO05172","area_m2":210884}},{"type":"Polygon","arcs":[[84,-33,-83,85]],"properties":{"codigo":"05172100000000000504","sector":"051721000000000005","pcode":"CO05172","area_m2":69395}},{"type":"Polygon","arcs":[[86,87,-86,-82]],"properties":{"codigo":"05172100000000000507","sector":"051721000000000005","pcode":"CO05172","area_m2":99636}},{"type":"Polygon","arcs":[[88,-36,-34,-85,-88,89]],"properties":{"codigo":"05172100000000000508","sector":"051721000000000005","pcode":"CO05172","area_m2":51064}},{"type":"Polygon","arcs":[[-71,-12,-39,-37,-89,90,91]],"properties":{"codigo":"05172100000000000602","sector":"051721000000000006","pcode":"CO05172","area_m2":144138}},{"type":"Polygon","arcs":[[-72,-92,92,93]],"properties":{"codigo":"05172100000000000606","sector":"051721000000000006","pcode":"CO05172","area_m2":79683}},{"type":"Polygon","arcs":[[94,95,-73,-94,96]],"properties":{"codigo":"05172100000000000607","sector":"051721000000000006","pcode":"CO05172","area_m2":93932}},{"type":"Polygon","arcs":[[97,-67,-58,-75]],"properties":{"codigo":"05172100000000000609","sector":"051721000000000006","pcode":"CO05172","area_m2":123696}},{"type":"Polygon","arcs":[[98,-95]],"properties":{"codigo":"05172100000000000610","sector":"051721000000000006","pcode":"CO05172","area_m2":52168}},{"type":"Polygon","arcs":[[99]],"properties":{"codigo":"05172200703003000101","sector":"051722007030030001","pcode":"CO05172","area_m2":84636}},{"type":"Polygon","arcs":[[100]],"properties":{"codigo":"05172201004007000101","sector":"051722010040070001","pcode":"CO05172","area_m2":113360}},{"type":"Polygon","arcs":[[101]],"properties":{"codigo":"05172200606015000101","sector":"051722006060150001","pcode":"CO05172","area_m2":60066}},{"type":"Polygon","arcs":[[102]],"properties":{"codigo":"05172201006013000101","sector":"051722010060130001","pcode":"CO05172","area_m2":32815}}]}},"arcs":[[[1168,9294],[30,-41],[17,-9]],[[1215,9244],[0,-57]],[[1215,9187],[-25,-237]],[[1190,8950],[-73,3],[5,35],[-77,4],[24,284],[4,18]],[[1073,9294],[49,-4],[46,4]],[[1618,8924],[-3,-18]],[[1615,8906],[-9,-84]],[[1606,8822],[-17,-127]],[[1589,8695],[-101,7]],[[1488,8702],[-2,41],[-14,17],[-5,46],[9,124]],[[1476,8930],[142,-6]],[[1826,8812],[-7,-42]],[[1819,8770],[-73,2],[-8,-85],[-149,8]],[[1606,8822],[220,-10]],[[735,8973],[-104,-60],[-22,-9],[5,81],[-206,-5],[-24,80],[-16,27],[82,13],[53,37],[65,24]],[[568,9161],[132,-28]],[[700,9133],[-56,-87],[7,-15],[126,-6],[-16,-33],[-26,-19]],[[1556,9179],[40,-29]],[[1596,9150],[160,-85]],[[1756,9065],[148,-79]],[[1904,8986],[-14,-13],[-228,11],[-39,-10],[-5,-50]],[[1476,8930],[-60,1],[9,112],[14,137]],[[1439,9180],[87,-5],[30,4]],[[1159,9485],[35,-36],[39,-53],[53,-27],[72,-16]],[[1358,9353],[4,-64],[-76,0],[-48,-49],[-23,4]],[[1168,9294],[-21,42],[-49,58],[-43,12],[-73,-1]],[[982,9405],[8,19],[-53,-2],[-40,20],[-9,24]],[[888,9466],[56,-1],[74,38],[51,9],[44,-5],[46,-22]],[[1967,8953],[-63,33]],[[1756,9065],[58,55],[-26,11]],[[1788,9131],[45,39]],[[1833,9170],[117,-58],[92,-35]],[[2042,9077],[-37,-81],[13,-2]],[[2018,8994],[-51,-41]],[[1596,9150],[46,15],[21,19],[125,-53]],[[1967,8953],[25,-13]],[[1992,8940],[-77,-48]],[[1915,8892],[-300,14]],[[1915,8892],[-59,-38],[-26,-4],[-4,-38]],[[280,7907],[-4,-16],[103,11],[5,-12],[69,-4],[0,-6],[-226,-35],[-35,5],[39,45],[19,63],[69,-3],[-39,-48]],[[920,9022],[-40,33],[-35,-28],[-19,2]],[[826,9029],[8,142]],[[834,9171],[6,92],[24,51]],[[864,9314],[49,-15]],[[913,9299],[-4,-35],[67,-2],[-19,-201],[23,-1],[-60,-38]],[[982,9405],[-5,-11],[-61,-24],[-52,-56]],[[834,9171],[-77,1],[-1,-40],[-56,1]],[[568,9161],[35,8],[-16,27],[-44,12],[5,106],[-91,12],[49,48],[44,-9],[48,-18],[27,2],[50,76],[84,68],[55,28],[32,-36],[42,-19]],[[826,9029],[-2,-17],[-65,-49],[-24,10]],[[1073,9294],[-35,-1],[-125,6]],[[1190,8950],[-6,-79],[-15,-8],[-47,-2],[-42,-20]],[[1080,8841],[-58,20],[29,26],[-38,40],[-20,-16],[-64,3],[-3,-18],[-28,1],[18,120],[4,5]],[[233,8934],[-21,-42],[-20,-14],[97,-9],[90,4],[17,-16],[94,-1],[-95,-38],[-211,50],[-53,-58],[-63,44],[37,21],[-54,36],[-17,20],[22,9],[16,-18],[64,30],[65,13],[75,7],[-43,-38]],[[1364,9183],[-21,-237]],[[1343,8946],[-153,4]],[[1215,9187],[149,-4]],[[1488,8702],[-12,-22],[-18,0],[2,-21]],[[1460,8659],[-14,-34],[-22,1],[-4,-19],[-26,0]],[[1394,8607],[6,107]],[[1400,8714],[9,75],[-75,1],[9,156]],[[1364,9183],[75,-3]],[[1400,8714],[-73,2]],[[1327,8716],[4,18],[-110,-20],[-102,-42]],[[1119,8672],[4,19],[-21,21],[-34,4],[-51,32],[-21,2],[18,16],[42,4],[-22,23],[-29,4],[13,14],[43,3],[19,27]],[[1239,8471],[-69,-37],[-73,55]],[[1097,8489],[42,21],[14,-5],[135,74],[31,6],[8,131]],[[1394,8607],[-11,-36],[-25,-11],[7,-19],[-126,-70]],[[1097,8489],[-114,87],[149,81],[-13,15]],[[1509,9349],[17,-124],[30,-46]],[[1358,9353],[82,-10],[69,6]],[[1819,8770],[-3,-20]],[[1816,8750],[-9,-90]],[[1807,8660],[-11,-82]],[[1796,8578],[-32,20],[-38,-8]],[[1726,8590],[6,56],[-272,13]],[[1684,9359],[-111,-2],[-64,-8]],[[1159,9485],[29,16],[99,-22],[69,-20],[52,-45],[-28,52],[-162,276],[-139,240],[56,17],[187,-319],[369,-69],[-49,-39],[-72,-65],[50,-2],[149,-22],[-44,-50],[-13,-37],[-18,-6],[-10,-31]],[[1822,9334],[-24,-33],[-12,2],[-79,-77],[126,-56]],[[1684,9359],[138,-25]],[[1934,9297],[-71,-96],[-30,-31]],[[1822,9334],[112,-37]],[[2684,8995],[-31,-3],[-44,7],[-80,31],[-29,18],[-96,37],[-21,-10],[-147,28]],[[2236,9103],[-170,34],[-24,-60]],[[1934,9297],[39,-14],[194,-30],[181,-65],[62,-58],[85,-58],[29,-10],[-13,-13],[36,-17],[137,-37]],[[2170,8964],[-152,30]],[[2236,9103],[-66,-139]],[[2684,8995],[12,-19],[100,-44],[28,2],[0,-37],[-33,9],[-146,55],[-46,13],[1,12],[-42,14],[-56,32],[-33,10],[-61,-67],[-136,47],[17,-32],[-3,-18],[-32,0],[-5,-34],[-67,14],[-32,-37]],[[2150,8915],[20,49]],[[2212,8775],[-67,78],[-34,23],[-119,64]],[[2150,8915],[-10,-9],[77,-51],[-35,-10],[70,-59],[-40,-11]],[[2212,8775],[6,-8]],[[2218,8767],[-136,-50],[-28,-4],[-12,29],[-226,8]],[[2218,8767],[30,-38]],[[2248,8729],[-179,-55],[-35,-25],[-227,11]],[[2127,8594],[-29,39],[-55,-2],[-2,-18],[-57,1],[-13,-10]],[[1971,8604],[-52,-5],[-44,-23],[-22,4],[-27,-15],[-30,13]],[[2248,8729],[67,-83],[-188,-52]],[[1726,8590],[-101,4],[-42,-18],[-8,-18],[-54,-29],[-14,-32],[15,-56],[-33,-2],[0,19],[-128,8],[1,12],[-55,3],[-58,-19],[-10,9]],[[2127,8594],[-21,-15],[10,-25],[21,-19],[21,-46],[-123,-40],[-40,77],[30,21],[-12,35],[-42,22]],[[206,3930],[17,-44],[96,-200],[-79,-16],[-95,187],[-21,-4],[-40,13],[4,-11],[-58,-9],[-30,66],[4,14],[202,4]],[[7344,3170],[29,-21],[31,-36],[-42,-12],[-46,18],[-54,2],[-61,-4],[-78,10],[-43,10],[52,-61],[7,0],[42,-52],[-121,-27],[50,-65],[-41,-16],[-28,27],[27,11],[-35,55],[13,4],[-56,74],[-15,43],[-32,1],[6,38],[27,1],[-1,20],[76,-31],[81,5],[56,23],[52,10],[46,-3],[58,-24]],[[1319,8166],[-42,-28],[-172,-98],[-83,76],[43,41],[54,1],[41,8],[82,-10],[66,38],[-18,12],[49,29],[29,-36],[-49,-33]],[[9820,189],[19,-15],[24,-41],[20,-12],[47,22],[69,-67],[-8,-7],[-4,-50],[-14,-19],[-22,25],[-55,-11],[-6,7],[44,21],[-107,113],[-15,-5],[-25,31],[33,8]]]}
