{"type":"Topology","bbox":[-76.51228088501682,8.48534681033458,-76.27975171026333,8.85684516035736],"transform":{"scale":[0.000023255242999649442,0.000037153550357313686],"translate":[-76.51228088501682,8.48534681033458]},"objects":{"municipios":{"type":"GeometryCollection","geometries":[{"type":"Polygon","arcs":[[0]],"properties":{"codigo":"05051200203017000101","sector":"050512002030170001","pcode":"CO05051","area_m2":52880}},{"type":"Polygon","arcs":[[1]],"properties":{"codigo":"05051200401019000101","sector":"050512004010190001","pcode":"CO05051","area_m2":84872}},{"type":"Polygon","arcs":[[2,3,4]],"properties":{"codigo":"05051100000000000109","sector":"050511000000000001","pcode":"CO05051","area_m2":50291}},{"type":"Polygon","arcs":[[-4,5,6,7,8,9]],"properties":{"codigo":"05051100000000000101","sector":"050511000000000001","pcode":"CO05051","area_m2":154042}},{"type":"Polygon","arcs":[[-9,10,11,12]],"properties":{"codigo":"05051100000000000102","sector":"050511000000000001","pcode":"CO05051","area_m2":204993}},{"type":"Polygon","arcs":[[13,14,15,16,17,-11]],"properties":{"codigo":"05051100000000000103","sector":"050511000000000001","pcode":"CO05051","area_m2":196930}},{"type":"Polygon","arcs":[[-12,-18,18,19]],"properties":{"codigo":"05051100000000000104","sector":"050511000000000001","pcode":"CO05051","area_m2":96482}},{"type":"Polygon","arcs":[[20]],"properties":{"codigo":"05051200205003000101","sector":"050512002050030001","pcode":"CO05051","area_m2":126098}},{"type":"Polygon","arcs":[[21]],"properties":{"codigo":"05051200606005000101","sector":"050512006060050001","pcode":"CO05051","area_m2":47822}},{"type":"Polygon","arcs":[[22,23]],"properties":{"codigo":"05051100000000000105","sector":"050511000000000001","pcode":"CO05051","area_m2":279135}},{"type":"Polygon","arcs":[[24,-14,-8,25]],"properties":{"codigo":"05051100000000000106","sector":"050511000000000001","pcode":"CO05051","area_m2":120867}},{"type":"Polygon","arcs":[[-26,-7,26,27]],"properties":{"codigo":"05051100000000000107","sector":"050511000000000001","pcode":"CO05051","area_m2":47901}},{"type":"Polygon","arcs":[[-27,-6,-3,28]],"properties":{"codigo":"05051100000000000108","sector":"050511000000000001","pcode":"CO05051","area_m2":32220}},{"type":"Polygon","arcs":[[-19,-17,29,30,-24,31]],"properties":{"codigo":"05051100000000000110","sector":"050511000000000001","pcode":"CO05051","area_m2":227820}},{"type":"Polygon","arcs":[[-30,-16,32]],"properties":{"codigo":"05051100000000000111","sector":"050511000000000001","pcode":"CO05051","area_m2":132867}},{"type":"Polygon","arcs":[[33]],"properties":{"codigo":"05051200604001000101","sector":"050512006040010001","pcode":"CO05051","area_m2":66247}},{"type":"Polygon","arcs":[[34]],"properties":{"codigo":"05051200302008000101","sector":"050512003020080001","pcode":"CO05051","area_m2":60166}},{"type":"Polygon","arcs":[[35]],"properties":{"codigo":"05051200302009000101","sector":"050512003020090001","pcode":"CO05051","area_m2":188511}},{"type":"MultiPolygon","arcs":[[[36]],[[37]],[[38]]],"properties":{"codigo":"05051200401010000101","sector":"050512004010100001","pcode":"CO05051","area_m2":141484}},{"type":"MultiPolygon","arcs":[[[39]],[[40]]],"properties":{"codigo":"05051200301011000101","sector":"050512003010110001","pcode":"CO05051","area_m2":261232}},{"type":"Polygon","arcs":[[41]],"properties":{"codigo":"05051200504014000101","sector":"050512005040140001","pcode":"CO05051","area_m2":40125}},{"type":"Polygon","arcs":[[42]],"properties":{"codigo":"05051200106020000101","sector":"050512001060200001","pcode":"CO05051","area_m2":52535}}]}},"arcs":[[[3865,5096],[0,-7],[-31,-40],[-25,11],[-50,-28],[14,33],[-10,3],[11,20],[-22,-3],[-4,8],[48,10],[28,-7],[29,25],[26,-6],[-14,-19]],[[5094,2786],[-6,17],[11,-3],[8,13],[37,-4],[6,8],[60,-10],[19,-10],[-3,-22],[-25,4],[3,-29],[-29,5],[-23,-15],[-39,13],[-15,-15],[-19,9],[13,5],[-14,12],[2,12],[14,-6],[0,16]],[[4045,9814],[-86,28]],[[3959,9842],[18,31]],[[3977,9873],[16,10],[88,-38],[8,-9],[-44,-22]],[[3959,9842],[-17,-20]],[[3942,9822],[-32,-10],[-69,-2]],[[3841,9810],[-79,-2]],[[3762,9808],[6,17],[11,5],[10,-12],[45,3],[1,12],[-16,26],[5,16],[-23,13],[-25,-5],[-14,10]],[[3762,9893],[96,14],[-3,6],[37,1],[22,-6],[21,10],[42,-45]],[[3762,9808],[-43,-2],[-19,4],[-22,57]],[[3678,9867],[-17,67],[-10,19]],[[3651,9953],[17,5],[9,18],[-8,10],[-17,-2],[35,15],[-11,-10],[25,-7],[47,3],[13,-22],[-4,-57],[5,-13]],[[3762,9808],[-11,-9],[36,-7],[-11,-8],[3,-12]],[[3779,9772],[-5,1],[-24,-35],[17,-5],[-15,-25],[13,-3],[-20,-25]],[[3745,9680],[-99,27]],[[3646,9707],[43,64],[-72,2],[-26,21],[13,1],[-16,57]],[[3588,9852],[90,15]],[[3588,9852],[-15,22],[-22,-3],[-17,21]],[[3534,9892],[12,10],[-10,28],[-19,-5],[36,16],[-13,-10],[14,-12],[26,-3],[18,4],[17,17],[-10,22],[17,-6],[29,0]],[[5684,3587],[-56,-20],[18,-19],[16,5],[21,-25],[-16,-5],[33,-37],[-91,-29],[-13,30],[-13,9],[-30,34],[-20,6],[-2,13],[28,12],[-7,6],[19,7],[8,-7],[92,31],[13,-11]],[[7712,1215],[-13,-12],[17,-6],[-1,-19],[27,-10],[4,-11],[-14,-14],[-23,6],[-77,30],[45,47],[35,-11]],[[3508,9729],[-7,5],[-46,11],[-35,-23],[-3,30],[-24,38],[-66,-43],[40,-26],[-13,-14],[-25,12],[-24,22],[-23,-3],[-40,49],[40,13],[9,12],[-9,17],[18,-12],[18,-3],[43,18],[-6,22],[30,-16],[45,14],[29,12],[-11,12],[11,4],[11,-10],[36,9],[14,9]],[[3520,9888],[19,-29],[14,-37],[-33,-13],[-27,-16],[-14,-15],[52,-23],[-15,-26],[-8,0]],[[3921,9748],[68,-52],[36,-50],[5,-47],[-30,0],[1,46],[-24,26],[-14,9],[-27,1],[10,31],[-17,9],[-19,-4],[-15,-16],[-4,13],[-23,4],[-20,-24],[-17,-1],[1,28],[27,12],[-2,20],[-12,11],[-11,28],[-22,-2],[-10,-21],[-23,3]],[[3841,9810],[52,-42],[28,-20]],[[3942,9822],[28,-41]],[[3970,9781],[-49,-21],[0,-12]],[[4045,9814],[-75,-33]],[[3646,9707],[-29,-40]],[[3617,9667],[-133,23],[24,39]],[[3520,9888],[14,4]],[[3745,9680],[-54,-74],[-21,0],[-31,-38],[-72,27],[50,72]],[[9836,3418],[12,-6],[9,8],[52,-20],[-10,-11],[7,-13],[42,-17],[15,10],[36,-13],[-10,-18],[-29,4],[-105,39],[-39,10],[-4,8],[-53,21],[13,16],[64,-18]],[[1547,3576],[13,-12],[12,5],[46,-42],[-11,-4],[21,-21],[-50,-26],[-10,-12],[-14,11],[21,13],[-15,-2],[-18,23],[15,13],[-41,36],[31,18]],[[222,3834],[38,4],[15,-11],[-11,-12],[83,-24],[-21,-20],[-59,18],[6,9],[-60,18],[-34,-4],[-41,-40],[3,-32],[-19,-23],[-34,-7],[-41,9],[-42,12],[12,25],[-17,3],[5,17],[36,-6],[14,13],[-9,31],[-13,1],[-8,12],[20,7],[55,-3],[28,-12],[51,7],[6,8],[25,6],[12,-6]],[[3118,2653],[3,-51],[59,1],[-35,-7],[-10,-8],[4,-35],[-10,-1],[7,-37],[-11,0],[-6,36],[-72,-6],[-3,23],[-58,-2],[-1,-12],[-110,-16],[-8,7],[-29,-11],[-7,20],[19,10],[13,16],[28,-17],[27,9],[9,-4],[51,3],[0,4],[50,5],[0,10],[39,22],[4,9],[26,2],[6,36],[15,-6]],[[3063,2641],[-35,-7],[-9,24],[39,4],[5,-21]],[[3101,2684],[-2,4],[48,8],[3,-3],[-49,-9]],[[2694,4711],[4,-15],[32,-8],[28,-14],[13,14],[15,-7],[32,11],[1,-5],[-33,-11],[-34,-34],[6,-2],[-24,-31],[4,-6],[-25,-45],[-20,11],[-15,-15],[-13,6],[-38,-26],[-10,4],[-9,52],[-10,2],[17,35],[-31,3],[-6,21],[12,19],[-41,-1],[2,17],[15,0],[11,30],[25,1],[14,-7],[-6,-16],[51,-1],[14,4],[6,14],[-12,1],[8,17],[23,-2],[-6,-16]],[[2524,4538],[34,-11],[31,-15],[-29,-16],[-53,27],[17,15]],[[5447,73],[48,-16],[6,7],[26,-6],[-49,-58],[-4,9],[-26,17],[17,18],[-37,10],[-29,-2],[16,16],[18,8],[14,-3]],[[4550,8250],[17,8],[25,21],[17,-6],[-19,-20],[8,-7],[40,0],[6,-14],[-17,1],[-15,-23],[-18,4],[-4,-9],[-20,-2],[-30,7],[-17,25],[7,6],[-24,9],[7,8],[37,-8]]]}
