{"type":"Topology","bbox":[-75.98910518508353,5.741764464577951,-75.96775820373466,5.7541265288203425],"transform":{"scale":[0.000002134911626049608,0.0000012363300572448635],"translate":[-75.98910518508353,5.741764464577951]},"objects":{"municipios":{"type":"GeometryCollection","geometries":[{"type":"Polygon","arcs":[[0,1,2]]},{"type":"Polygon","arcs":[[3,4,-2]]},{"type":"Polygon","arcs":[[-4,-1,5]]},{"type":"Polygon","arcs":[[6]]}]}},"arcs":[[[3740,7516],[276,-753],[162,-258],[66,-467],[258,-344],[89,-214],[79,-558],[290,-483],[439,-398]],[[5399,4041],[-117,-250],[-172,195],[-198,97],[-197,257],[-290,-595]],[[4425,3745],[-707,746],[87,174],[-111,310],[112,281],[-514,887],[-53,-132],[-499,699],[-139,124],[251,979],[71,391],[476,-507],[341,-181]],[[5399,4041],[160,-42],[335,-515],[-147,-360],[-375,-710],[-113,-92]],[[5259,2322],[-105,150],[-248,761],[-481,512]],[[3740,7516],[102,15],[249,-650],[182,-301],[90,-447],[326,-454],[134,-665],[163,140],[223,-653],[373,-257],[450,-758],[499,-665],[224,-118],[77,-181],[1034,-993],[57,186],[576,-602],[239,-88],[343,241],[513,9],[184,-60],[107,-168],[104,-389],[-22,-462],[-111,-163],[-263,-9],[-177,175],[-354,222],[-717,-414],[-300,221],[-204,73],[-7,277],[-553,601],[-221,32],[-185,-118],[-137,68],[-406,463],[-212,305],[-162,63],[-169,-151],[-285,153],[-245,328]],[[464,9866],[301,75],[149,-182],[316,55],[204,-52],[203,70],[174,-139],[146,-269],[-10,-291],[195,-246],[-126,-194],[51,-392],[271,-586],[174,-253],[-205,-346],[-161,377],[-187,163],[-28,-237],[-316,96],[-97,387],[3,234],[-92,416],[39,347],[-182,282],[-318,-49],[-184,-210],[-294,83],[-256,428],[-186,-73],[-45,455],[379,184],[82,-133]]]}
