{"type":"Topology","bbox":[-75.67298496486961,6.60146855575771,-75.61172767213799,6.711903672815163],"transform":{"scale":[0.000006126341907353241,0.00001104461616736207],"translate":[-75.67298496486961,6.60146855575771]},"objects":{"municipios":{"type":"GeometryCollection","geometries":[{"type":"MultiPolygon","arcs":[[[0,1]],[[2,3]]],"properties":{"codigo":"05086100000000000101","sector":"050861000000000001","pcode":"CO05086","area_m2":251924}},{"type":"Polygon","arcs":[[-3,-2,4]],"properties":{"codigo":"05086100000000000102","sector":"050861000000000001","pcode":"CO05086","area_m2":254192}},{"type":"Polygon","arcs":[[5]],"properties":{"codigo":"05086200104001000101","sector":"050862001040010001","pcode":"CO05086","area_m2":52759}},{"type":"MultiPolygon","arcs":[[[6]],[[7]]],"properties":{"codigo":"05086200301003000101","sector":"050862003010030001","pcode":"CO05086","area_m2":15544}}]}},"arcs":[[[1046,564],[-14,-9],[23,-21],[113,-81],[38,-45],[123,-97],[81,-42],[41,-35],[48,-31],[119,-52],[69,-25],[86,-24],[35,-40],[-14,-11],[-100,-25],[-68,-3],[-108,42],[-90,-19],[-55,-46],[-77,49],[-35,-10],[-89,44],[-27,20],[-143,42],[-75,-1],[-92,-48],[-31,4],[-41,25],[-13,-4],[-66,50],[-100,63],[-21,22]],[[563,256],[21,20],[85,60],[57,34],[76,59],[68,41],[13,-3],[54,22],[6,9],[103,66]],[[1046,564],[6,52],[16,28],[56,47]],[[1124,691],[23,-6],[-24,-24],[16,-31],[-83,-27],[53,-6],[3,-32],[-66,-1]],[[563,256],[-27,28],[-95,122],[1,22],[-51,27],[-39,46],[-78,9],[2,27],[21,43],[45,54],[-1,21],[-86,69],[-43,19],[-5,69],[20,28],[69,52],[103,81],[31,-16],[119,-47],[73,-47],[67,-79],[60,-41],[102,-29],[43,-25],[71,-80],[26,-24],[4,45],[30,39],[61,34],[38,-12]],[[9906,9956],[68,-25],[25,-42],[-32,-48],[6,-52],[-33,-94],[30,-30],[1,-39],[-18,-20],[-20,10],[-40,-4],[-35,6],[-74,-11],[-4,24],[-23,21],[5,22],[70,68],[-1,69],[-28,15],[-15,24],[8,19],[-25,28],[-36,23],[30,-1],[-12,36],[-28,1],[-1,31],[34,12],[17,-12],[75,-23],[56,-8]],[[234,1131],[112,-113],[-22,-7],[-38,39],[-74,-21],[-88,-35],[-13,26],[30,1],[69,48],[53,6],[-27,22],[-88,-2],[-3,9],[51,23],[-25,22],[30,9],[33,-27]],[[139,1204],[-15,-10],[-95,4],[-22,8],[-7,23],[23,51],[36,0],[80,-76]]]}
