{"type":"Topology","bbox":[-75.492182749589,5.964252833506899,-75.3822030904181,6.055754375100133],"transform":{"scale":[0.000010999065823672736,0.000009151069266249968],"translate":[-75.492182749589,5.964252833506899]},"objects":{"municipios":{"type":"GeometryCollection","geometries":[{"type":"Polygon","arcs":[[0]]},{"type":"Polygon","arcs":[[1,2,3,4,5]]},{"type":"Polygon","arcs":[[6,7,8,9,10,11,12]]},{"type":"Polygon","arcs":[[13,14,15,16]]},{"type":"Polygon","arcs":[[17,18,-14,19]]},{"type":"Polygon","arcs":[[-19,20,21,22,23,-15]]},{"type":"Polygon","arcs":[[24,25,-20,26,27]]},{"type":"Polygon","arcs":[[28,29,-27,-17,30,31]]},{"type":"Polygon","arcs":[[-31,-16,-24,32]]},{"type":"Polygon","arcs":[[33,34,35,-29,36]]},{"type":"Polygon","arcs":[[37,-28,-30,-36,38]]},{"type":"Polygon","arcs":[[39,-39,-35,40]]},{"type":"Polygon","arcs":[[41,-5,42,43,44,45,-25,-38,-40]]},{"type":"Polygon","arcs":[[46,47,48,-21,-18,-26,-46]]},{"type":"Polygon","arcs":[[-49,49,50,-22]]},{"type":"Polygon","arcs":[[-48,51,52,53,54,-50]]},{"type":"Polygon","arcs":[[55,-11,56,-52,-47,-45,57]]},{"type":"Polygon","arcs":[[-57,-10,58,59,60,-53]]},{"type":"Polygon","arcs":[[61,-54,-61]]},{"type":"Polygon","arcs":[[62,-13,63,64]]},{"type":"Polygon","arcs":[[-7,-63,65]]},{"type":"Polygon","arcs":[[-59,-9,66]]},{"type":"Polygon","arcs":[[67,-3,68]]},{"type":"Polygon","arcs":[[-6,-42,-41,-34,69]]},{"type":"Polygon","arcs":[[70]]},{"type":"Polygon","arcs":[[71,-58,-44,72]]},{"type":"Polygon","arcs":[[73,74,-64,-12,-56,-72]]},{"type":"Polygon","arcs":[[-4,-68,75,-74,-73,-43]]},{"type":"Polygon","arcs":[[76]]},{"type":"Polygon","arcs":[[77]]},{"type":"Polygon","arcs":[[78]]}]}},"arcs":[[[9447,9888],[-39,-51],[-35,37],[-7,11],[17,20],[-6,9],[12,44],[11,-11],[47,-59]],[[6319,6915],[128,-48],[-37,-154],[2,-4],[-76,-173]],[[6336,6536],[-86,77]],[[6250,6613],[-108,96],[-126,117]],[[6016,6826],[27,104],[53,-17],[20,75],[30,-11]],[[6146,6977],[173,-62]],[[5527,6233],[-7,-30],[68,-27],[-29,-112],[-69,28],[-68,30],[-40,-115],[34,-22]],[[5416,5985],[-23,-121],[-76,40],[-70,23],[8,68]],[[5255,5995],[17,96],[81,231]],[[5353,6322],[1,3]],[[5354,6325],[10,-3],[11,29],[13,62],[25,39]],[[5413,6452],[35,-25],[116,-51]],[[5564,6376],[-30,-108],[-7,-35]],[[5637,7641],[-79,24],[-76,26],[-76,23]],[[5406,7714],[22,88],[71,-22],[24,109]],[[5523,7889],[83,39],[29,10],[66,48],[23,-7]],[[5724,7979],[-40,-149],[-47,-189]],[[5548,7289],[-65,25],[-159,57]],[[5324,7371],[19,84],[42,172],[21,87]],[[5637,7641],[-89,-352]],[[5324,7371],[-142,51]],[[5182,7422],[-71,23],[-91,33],[-102,-3],[-92,33],[-26,18]],[[4800,7526],[-24,32],[17,0],[42,-15],[64,8],[22,0],[0,26],[10,2],[37,-5],[36,4],[1,41],[5,3]],[[5010,7622],[18,-30],[29,-9],[7,31],[10,15],[15,8],[16,-8],[38,29],[35,37],[19,15],[24,30],[28,11],[28,32],[28,10],[24,-3],[61,24],[7,23],[13,11],[31,11],[18,17],[64,13]],[[5769,7211],[-146,53]],[[5623,7264],[-75,25]],[[5637,7641],[53,-16],[107,-38],[60,-17]],[[5857,7570],[-29,-120],[-39,-149],[-20,-90]],[[5962,7982],[-20,-86],[-17,-62],[-28,-116],[-16,-59]],[[5881,7659],[-24,-89]],[[5724,7979],[8,30]],[[5732,8009],[52,-15],[23,0],[47,6],[8,-5],[26,0],[19,-9],[26,8],[29,-12]],[[5010,7622],[-12,35],[3,46],[26,47],[31,0],[13,-32],[10,-8],[15,20],[62,49],[64,23],[48,23],[26,21],[26,29],[-35,24],[-6,29],[-31,6],[33,43],[121,156],[55,-17],[64,14],[-9,31],[45,27],[72,-75],[15,-11],[15,-20],[41,-41],[10,-24],[10,6],[10,-14]],[[6571,7967],[-61,-86],[-11,-20],[-27,-24],[-30,-18]],[[6442,7819],[-34,-15],[-85,-14],[-103,-8],[-16,-23],[-3,-32],[-23,-11],[3,-37],[-3,-20]],[[6178,7659],[-133,42],[-23,-85],[-141,43]],[[5962,7982],[8,3],[9,30],[-21,33],[-6,20],[20,26],[20,14],[44,-100],[9,-24],[-3,-33],[38,-37],[33,-14],[47,-8],[20,2],[51,-10],[39,8],[33,17],[35,10],[6,-32],[-25,-9],[-3,-12],[32,-47],[11,39],[19,30],[33,26],[23,7],[11,15],[24,19],[11,18],[-2,40],[5,10],[38,44],[32,-6],[14,-88],[4,-6]],[[5900,7265],[-36,11],[-6,-27],[-73,-44],[-16,6]],[[6178,7659],[-5,-9],[-19,-7],[-33,-51],[-34,37],[-12,-4],[-10,-14],[-3,-32],[-23,-2],[-24,-23],[2,-20],[20,-17],[0,-55],[-6,-34],[4,-82],[-5,-21],[-1,-33],[-14,3],[-20,32],[-31,21],[-14,-5],[-50,-78]],[[6215,7157],[-94,29],[-199,70],[-22,9]],[[6442,7819],[2,-14],[-9,-30],[-21,-57],[-51,-148],[-62,-170],[-25,-74],[-35,-100],[-26,-69]],[[6215,7157],[-69,-180]],[[6016,6826],[-117,104],[-71,159],[-67,26],[-20,-54],[0,-44],[20,-15],[3,-23],[10,-6],[19,11],[9,-18],[-9,-22],[-15,-12],[1,-13],[-10,-11],[-33,1]],[[5736,6909],[-9,-10]],[[5727,6899],[-114,14],[15,61],[-72,25]],[[5556,6999],[18,69],[49,196]],[[5556,6999],[-73,27],[-77,26]],[[5406,7052],[22,83],[-296,91]],[[5132,7226],[7,22],[43,174]],[[5132,7226],[-17,3],[-13,21],[-32,25],[-13,-3]],[[5057,7272],[-10,18],[-12,37],[-24,5],[-8,9],[-21,3],[-8,16],[-16,-1],[-13,18],[-50,17],[-44,-23],[-16,2],[1,29],[-4,20],[5,14],[-30,21],[7,19],[-8,15],[-15,8],[9,27]],[[5406,7052],[-51,-204],[-46,-175]],[[5309,6673],[-42,-13],[-35,-5],[-12,6],[-20,-3],[-21,13],[-34,34],[-9,15],[-43,47]],[[5093,6767],[-16,19],[-32,60]],[[5045,6846],[-19,44],[-16,55],[-23,39],[31,123],[0,9],[34,144],[5,12]],[[5525,6588],[-64,-78],[-24,-25],[-24,-33]],[[5354,6325],[7,61],[0,113],[21,90],[-83,31],[10,53]],[[5727,6899],[-5,-48],[-68,9],[-41,4],[1,-60],[-20,-87],[-2,-44],[-10,-21],[-57,-64]],[[5353,6322],[-125,46],[-31,-7],[-35,-25],[-33,-18],[-36,-28],[-41,-26],[-70,-51],[-77,149],[-20,29],[-21,49]],[[4864,6440],[30,24],[30,95],[46,143]],[[4970,6702],[14,4],[9,19],[12,3],[-33,-126],[-23,8],[-30,-118],[22,-9],[5,16],[22,-9],[14,51],[22,-8],[4,13],[24,-9],[52,191],[9,39]],[[4970,6702],[47,149],[28,-5]],[[5782,6148],[-107,38],[-76,25],[-72,22]],[[5564,6376],[129,-50],[-2,-14],[103,-23]],[[5794,6289],[-1,-10],[25,-22],[-10,-35],[-6,-4],[-20,-70]],[[5782,6148],[8,-43],[-16,-19],[1,-9],[-11,-31],[11,-37],[-13,-50],[-12,-63],[-21,-87],[-9,-26],[-28,0],[-141,110],[-67,48],[-68,44]],[[5255,5995],[-20,-1],[-94,20],[-40,14],[-54,8],[5,30],[-8,9],[-34,3],[-13,-14],[-23,4],[-13,-15],[-23,-3],[-13,-26],[-14,-17],[-9,-26],[-20,-32],[-12,-5],[-5,-26],[-23,-6],[-16,-21],[-25,5],[-1,-24],[-12,3],[-4,12],[26,93],[-11,2],[-43,30],[-15,15],[-48,-16],[-15,4],[-19,-9],[-50,7],[-20,10],[-11,-7],[-65,-6],[-7,-15],[-26,-20],[-6,-21],[-22,3],[-6,33],[-11,40],[-10,52],[-14,116],[10,1],[-4,17],[-32,9],[-14,34],[-3,79],[44,-3],[35,-6],[26,-11],[55,-3],[10,-9],[32,54],[16,-18],[27,-4],[16,8],[80,-37],[36,11],[19,75],[-12,5],[14,35],[29,62],[23,-17],[46,-40]],[[6141,6322],[25,61],[47,149],[37,81]],[[6336,6536],[16,-16],[94,-85],[64,-60],[19,-14],[63,-59],[16,-19],[24,-66],[36,-106],[29,-92],[-79,-32],[-8,-6],[-66,-85],[-16,-24],[-30,-64],[-9,6],[-41,49],[-59,43],[-52,-5],[-12,-7],[-101,-4],[-39,36],[21,41],[8,0],[53,121],[17,-16],[12,22],[-20,19],[-59,100],[-20,29],[-23,25],[6,7],[-39,48]],[[6571,7967],[10,12],[104,99],[73,-78],[3,3],[44,-51],[-34,-53],[5,-5],[-14,-22],[70,-72],[-25,-63],[-21,-59],[-27,-68],[-44,-117],[-25,-63],[1,-5],[52,-13],[-19,-51],[-47,31],[-5,-10],[-51,-138],[-40,57],[-3,-11],[-82,150],[-7,-11],[-68,-200],[2,-1],[-43,-133],[-61,-180]],[[5306,5624],[-33,-50],[37,-43],[-36,-39],[-23,25],[-69,-72],[45,-98],[34,-32],[11,-48],[-16,-6],[1,-16],[-21,-72],[-18,-7],[8,-50],[27,8],[52,114],[3,26],[48,-4],[-13,-116],[2,-59],[-25,-1],[-25,-77],[22,-22],[8,-31],[10,-5],[-11,-15],[-51,-22],[-73,-3],[20,88],[3,38],[-9,29],[3,27],[-25,7],[1,13],[-39,26],[8,16],[-14,20],[15,33],[27,25],[-75,165],[-87,-72],[-12,66],[39,13],[-1,29],[-253,117],[32,53],[16,62],[58,-18],[94,-4],[209,-19],[27,61],[4,44],[1,47],[9,-4],[97,-83],[-42,-64]],[[5812,6446],[-44,27],[-40,28],[-166,68],[-37,19]],[[5736,6909],[0,-18],[10,-13],[9,5],[17,-8],[5,19],[17,1],[4,-8],[-8,-24],[-18,-26],[8,-25],[34,-16],[1,-9],[-14,-20],[-6,-31],[5,-28],[-3,-25],[11,-20],[26,1],[5,-57],[-15,-12],[-6,-15],[1,-19],[-5,-18],[-13,-15],[12,-35],[-1,-47]],[[5812,6446],[-5,-21],[15,-15],[4,-21]],[[5826,6389],[-11,-18],[2,-49],[-23,-33]],[[6141,6322],[-83,97],[-79,90],[-19,25],[-2,12],[-17,-18],[-31,-100],[2,-9],[-17,-56],[-54,23],[-15,3]],[[114,317],[6,-31],[5,-7],[10,-34],[13,-31],[0,-23],[21,-32],[1,-22],[11,14],[15,7],[47,9],[6,18],[21,18],[9,20],[10,4],[36,-8],[13,-9],[30,-32],[8,-16],[-12,-18],[34,15],[16,3],[10,16],[40,8],[18,14],[16,-44],[-32,-20],[-13,-14],[96,-55],[43,52],[21,14],[-5,-40],[30,-14],[-9,-12],[-37,-24],[-7,-18],[-32,-25],[-12,14],[-52,22],[-19,2],[-7,14],[-16,-3],[-103,42],[-38,3],[-48,12],[-30,0],[-10,7],[-13,-17],[-14,-6],[-19,4],[-24,-9],[-4,19],[-57,-10],[-26,10],[6,-44],[-13,-19],[-12,1],[-18,18],[-24,44],[13,8],[6,-12],[9,8],[-5,49],[12,22],[38,-17],[-3,51],[5,14],[-16,36],[2,35],[53,19]],[[5916,9395],[16,-1],[13,-16],[-7,-48],[-14,-30],[-40,-27],[-33,-16],[-51,-1],[-22,-5],[-8,-12],[4,-23],[66,-31],[27,-19],[23,-29],[21,-34],[9,-66],[-7,-43],[-27,12],[-71,46],[-38,46],[-5,-3],[-33,24],[-40,14],[-29,19],[18,19],[-22,9],[-11,20],[15,17],[-23,52],[-5,-6],[-24,34],[-17,13],[-12,20],[3,12],[28,37],[12,-19],[22,-14],[20,-2],[64,-32],[63,-5],[18,3],[17,31],[37,27],[25,-7],[-9,29],[19,14],[8,-9]],[[9690,9989],[23,-16],[23,13],[31,9],[41,1],[3,-25],[51,-7],[3,17],[24,-8],[0,-20],[15,-10],[-9,-10],[17,-25],[25,-9],[23,-26],[20,-33],[19,-22],[-51,-42],[-33,-23],[-28,7],[-27,-14],[-47,11],[5,-11],[-24,-26],[-23,12],[-56,35],[-25,-50],[-39,2],[-20,-19],[-20,20],[-16,58],[-50,104],[-16,40],[14,10],[78,61],[15,-5],[43,11],[11,-10]]]}