{"type":"Topology","bbox":[-75.49024394920053,6.806750093135969,-75.33101278402535,6.892470639790853],"transform":{"scale":[0.000015924708988417405,0.000008572911956684006],"translate":[-75.49024394920053,6.806750093135969]},"objects":{"municipios":{"type":"GeometryCollection","geometries":[{"type":"Polygon","arcs":[[0,1]]},{"type":"Polygon","arcs":[[2,3,4,-1]]},{"type":"Polygon","arcs":[[5,-4]]},{"type":"MultiPolygon","arcs":[[[6]],[[7]],[[8]]]}]}},"arcs":[[[9820,9255],[-1,-13],[-42,19],[-11,-80],[-100,45],[-45,9]],[[9621,9235],[3,67],[-11,3],[1,53],[28,61],[36,-35],[23,100],[20,14],[-12,23],[9,57],[27,6],[7,56],[16,42],[-9,49],[0,60],[17,26],[-13,35],[23,147],[40,-43],[46,-105],[33,-48],[1,-24],[-25,-101],[-28,-38],[34,-10],[10,-86],[-49,15],[-2,-66],[-35,-4],[-2,-20],[35,0],[21,-65],[-23,-15],[1,-24],[-27,-34],[4,-76]],[[9820,9255],[11,-47],[27,12],[15,-21],[-2,-47]],[[9871,9152],[-56,15],[-12,-102],[-83,21],[-57,7],[-15,-108],[-3,-67],[-60,-7],[-52,-19],[-11,-26]],[[9522,8866],[-14,73],[45,22],[-15,32],[29,-9],[11,-32],[40,34],[-14,85],[-31,-10],[5,41],[-42,58],[7,29],[17,-38],[74,-3],[-13,87]],[[9871,9152],[53,-33],[-83,-75],[-36,-86],[21,-23],[16,-71],[26,-67],[11,21],[30,-3],[25,19],[25,-34],[40,-101],[-31,4],[-26,39],[-56,-25],[-27,-55],[-53,-15],[-53,15],[-13,-30],[-21,24],[-10,-20],[-33,13],[-32,-66],[-20,39],[-22,7],[-33,-40],[32,94],[-32,-11],[-10,87],[-28,38],[-20,53],[11,16]],[[610,1154],[-16,-42],[-14,40],[-75,-89],[17,-45],[-10,-11],[-19,50],[-20,-47],[-30,-39],[8,-69],[28,-156],[9,5],[7,-58],[-41,-26],[-11,82],[23,-9],[-26,155],[-7,3],[-79,-70],[-11,49],[-24,7],[-95,-54],[-17,-20],[-10,-81],[-71,-206],[-38,-65],[13,-29],[-35,-45],[-39,74],[64,80],[42,98],[57,206],[18,31],[168,91],[42,38],[175,214],[17,-62]],[[28,198],[29,-3],[-10,-76],[19,-107],[-22,-9],[-29,220],[13,-25]],[[27,335],[-27,4],[5,61],[17,-8],[5,-57]]]}