{"type":"Topology","bbox":[-76.5639456971922,7.238667934945623,-76.43157032214975,7.367507780753252],"transform":{"scale":[0.00001323886139038334,0.000012885273108073748],"translate":[-76.5639456971922,7.238667934945623]},"objects":{"municipios":{"type":"GeometryCollection","geometries":[{"type":"Polygon","arcs":[[0,1,2,3,4]],"properties":{"codigo":"05480100000000000104","sector":"054801000000000001","pcode":"CO05480","area_m2":156230}},{"type":"Polygon","arcs":[[5,6,7,8,9]],"properties":{"codigo":"05480100000000000101","sector":"054801000000000001","pcode":"CO05480","area_m2":58624}},{"type":"Polygon","arcs":[[10,-5,11,-8]],"properties":{"codigo":"05480100000000000103","sector":"054801000000000001","pcode":"CO05480","area_m2":31789}},{"type":"Polygon","arcs":[[12]],"properties":{"codigo":"05480200403002000101","sector":"054802004030020001","pcode":"CO05480","area_m2":27392}},{"type":"Polygon","arcs":[[13]],"properties":{"codigo":"05480200205003000101","sector":"054802002050030001","pcode":"CO05480","area_m2":94772}},{"type":"Polygon","arcs":[[14,15,16]],"properties":{"codigo":"05480200405004000102","sector":"054802004050040001","pcode":"CO05480","area_m2":66385}},{"type":"Polygon","arcs":[[17,-15,18]],"properties":{"codigo":"05480200405004000103","sector":"054802004050040001","pcode":"CO05480","area_m2":61451}},{"type":"Polygon","arcs":[[19,-6,20]],"properties":{"codigo":"05480100000000000105","sector":"054801000000000001","pcode":"CO05480","area_m2":88805}},{"type":"Polygon","arcs":[[21,22,-3]],"properties":{"codigo":"05480100000000000106","sector":"054801000000000001","pcode":"CO05480","area_m2":68488}},{"type":"Polygon","arcs":[[-18,23,-16]],"properties":{"codigo":"05480200405004000101","sector":"054802004050040001","pcode":"CO05480","area_m2":108908}},{"type":"Polygon","arcs":[[24]],"properties":{"codigo":"05480200502006000101","sector":"054802005020060001","pcode":"CO05480","area_m2":186946}},{"type":"Polygon","arcs":[[-9,-12,-4,-23,25]],"properties":{"codigo":"05480100000000000102","sector":"054801000000000001","pcode":"CO05480","area_m2":128612}},{"type":"Polygon","arcs":[[-1,-11,-7,-20,26]],"properties":{"codigo":"05480100000000000107","sector":"054801000000000001","pcode":"CO05480","area_m2":114097}},{"type":"Polygon","arcs":[[27]],"properties":{"codigo":"05480200205001000101","sector":"054802002050010001","pcode":"CO05480","area_m2":53397}}]}},"arcs":[[[9724,272],[160,-207]],[[9884,65],[-41,-27],[-86,-27],[-108,-2],[-41,-9],[-8,29]],[[9600,29],[27,10],[9,40],[-87,127],[43,33],[-62,85]],[[9530,324],[44,38],[-39,50],[49,42]],[[9584,454],[140,-182]],[[9653,634],[97,-126],[13,8],[37,-52],[-45,-33],[64,-85]],[[9819,346],[-44,-35]],[[9775,311],[-139,186]],[[9636,497],[-38,49],[30,28],[-33,40]],[[9595,614],[18,24],[16,-20],[24,16]],[[9775,311],[-51,-39]],[[9584,454],[52,43]],[[3651,4466],[-5,-68],[-127,27],[1,45],[38,9],[50,62],[-1,37],[34,-10],[-6,-57],[19,-1],[-3,-44]],[[5654,9196],[79,-90],[-114,-57],[61,-125],[-88,5],[-59,135],[-100,108],[57,38],[15,-15],[102,65],[47,-64]],[[605,3146],[-62,-215]],[[543,2931],[-134,39],[55,207]],[[464,3177],[72,-9],[69,-22]],[[611,2909],[-68,22]],[[605,3146],[65,-22],[-8,-37],[72,-27],[-56,-178],[-67,27]],[[9920,409],[-8,8],[-93,-71]],[[9653,634],[43,27],[70,-30],[43,-67],[37,-10],[62,44],[15,-15],[-15,-40],[86,-68],[-74,-66]],[[9600,29],[-74,-13],[-37,64],[33,32],[-108,144],[104,81]],[[9518,337],[12,-13]],[[611,2909],[-4,-15],[-68,24],[-130,31],[-132,-10],[-165,-57],[-46,-39],[36,-70],[18,-3],[10,-61],[-34,-8],[-30,41],[-66,65],[56,94],[-14,23],[42,36],[11,-18],[51,12],[40,-8],[27,19],[-8,32],[103,32],[22,65],[45,-6],[6,35],[34,-2],[17,60],[32,-4]],[[5583,7933],[24,-135],[56,4],[30,-11],[13,-104],[-31,14],[-42,-25],[71,-558],[62,-472],[-62,-8],[-62,467],[23,7],[-47,375],[-26,-1],[-26,207],[10,3],[-37,283],[-56,20],[24,60],[-2,73],[51,7],[27,-206]],[[9518,337],[-64,90],[-98,-49],[-16,-35],[7,-65],[-57,-27],[-31,62],[-24,149],[142,23],[48,32],[-10,17],[54,45],[57,10],[19,-23],[50,48]],[[9920,409],[-1,-13],[80,-109],[-1,-138],[-68,-36],[-46,-48]],[[4276,9896],[30,46],[-29,17],[15,40],[263,-170],[-13,-21],[-32,21],[-43,-44],[-50,29],[-15,-24],[-126,106]]]}
