{"type":"Topology","bbox":[-75.74497125342475,6.4330723251911754,-75.7076119447845,6.464410221682406],"transform":{"scale":[0.000003736304494474242,0.000003134103059428974],"translate":[-75.74497125342475,6.4330723251911754]},"objects":{"municipios":{"type":"GeometryCollection","geometries":[{"type":"Polygon","arcs":[[0,1,2]],"properties":{"codigo":"05656100000000000101","sector":"056561000000000001","pcode":"CO05656","area_m2":2225857}},{"type":"Polygon","arcs":[[3,4]],"properties":{"codigo":"05656100000000000104","sector":"056561000000000001","pcode":"CO05656","area_m2":853074}},{"type":"Polygon","arcs":[[5,6,-1]],"properties":{"codigo":"05656100000000000102","sector":"056561000000000001","pcode":"CO05656","area_m2":777438}},{"type":"Polygon","arcs":[[-2,-7,7,-4,8]],"properties":{"codigo":"05656100000000000103","sector":"056561000000000001","pcode":"CO05656","area_m2":1132012}}]}},"arcs":[[[5805,3256],[-113,-184],[-27,-115],[-66,-72],[-166,-99],[-210,-1],[-98,-44],[-158,348],[49,29],[-79,163],[-287,-274],[-68,160],[-100,-48]],[[4482,3119],[-303,398],[-8,201],[-34,206],[55,75],[173,162],[20,198],[115,205],[4,80],[-159,70],[154,479],[36,146],[15,235],[109,314],[80,357],[88,327],[65,116],[131,155],[19,305],[-14,67]],[[5028,7215],[628,-169],[55,-66],[353,-73],[163,125],[76,-223],[92,-156],[223,-260],[117,22],[-45,127],[28,59],[112,16],[292,-132],[202,0],[71,-368],[40,-104],[27,-171],[-38,-98],[-33,-192],[214,-62],[192,40],[154,-2],[183,30],[140,93],[106,27],[64,67],[7,145],[49,64],[184,-47],[47,-62],[22,101],[158,290],[177,166],[127,189],[82,-31],[47,-133],[-3,-85],[-169,-273],[-54,-184],[66,-92],[234,9],[188,-25],[221,-59],[172,-76],[-27,-179],[-201,-78],[-93,13],[-213,116],[-126,10],[-105,-56],[-142,-137],[-85,-115],[22,-213],[-197,-198],[-58,-179],[-42,-51],[-143,-63],[-30,-207],[54,-248],[33,-40],[38,-176],[-43,-198],[-236,-240],[-98,-214],[-55,-173],[285,-296],[-89,-123],[-45,-196],[28,-170],[-175,-275],[-68,57],[-429,449],[-343,300],[-181,177],[-28,-12],[-291,262],[-53,102],[-193,3],[-219,68],[-120,-6],[-188,-106],[-193,25],[-145,-19]],[[3481,6835],[-324,-307],[-85,-121],[-219,-147],[-63,-135],[-27,-283],[-90,-143],[-112,-53],[-96,51],[-41,71],[-85,-143],[-157,-209]],[[2182,5416],[-89,118],[-4,59],[-223,265],[-111,252],[-87,14],[-79,-49],[-153,6],[-254,193],[-172,55],[-103,112],[-1,149],[-40,56],[-177,-62],[-10,282],[239,109],[123,184],[124,134],[-1,407],[-323,-81],[14,265],[-61,173],[-18,304],[-123,-6],[-57,-193],[-110,77],[-133,54],[-127,-44],[-185,-101],[-41,169],[80,42],[332,252],[98,49],[-97,229],[95,180],[88,254],[-116,-21],[-64,124],[77,73],[83,155],[-26,214],[-44,68],[58,59],[180,-43],[42,-200],[126,-180],[-3,-250],[88,-93],[55,-107],[129,-469],[225,-61],[209,-9],[186,90],[62,2],[72,-232],[158,95],[340,284],[47,-4],[254,-121],[-165,-163],[49,-150],[145,-157],[-166,-291],[-134,-171],[33,-141],[154,-162],[93,-187],[-25,-397],[90,-44],[66,-139],[119,88],[250,27],[93,67],[145,-42]],[[5805,3256],[156,-295],[-1,-144],[-34,-160],[-182,-30],[-166,-148],[-172,-77],[58,-85],[16,-197],[48,9],[115,-149],[165,12],[35,-38],[-88,-211],[47,-221],[26,-209],[145,-229],[53,-163],[156,-99],[347,-121],[46,-201],[-273,-193],[4,-31],[-139,-108],[-67,-5],[-212,-154],[-135,20],[-110,192],[-134,163],[-85,339],[-99,31],[-79,79],[5,224],[-92,120],[-96,-115],[-83,-33],[-263,37],[-157,-112],[9,-181],[-86,-70],[56,-132],[64,-258],[39,-32],[-29,-126],[-122,-139],[-111,106],[-34,170],[-61,41],[-58,-187],[-111,-13],[31,369],[-106,-22],[-59,266],[-129,26],[-189,255],[-182,135],[-22,140],[-141,89],[106,539],[-119,-3],[-44,88],[172,149],[-24,46],[124,114],[91,-44],[87,124],[31,171],[34,26],[133,-31],[97,-100]],[[4007,2470],[116,-8],[66,-51],[242,-17],[-61,317],[-89,230],[-67,75],[268,103]],[[4007,2470],[-52,169],[-156,244],[-151,63],[-87,-15],[-77,60],[-27,156],[-77,-10],[-252,28],[-39,139],[56,120],[-123,104],[2,88],[-82,248],[-91,-7],[21,-248],[-45,-154],[-46,-46],[-166,-52],[-28,264],[47,78],[-134,161],[-37,147],[-82,25],[-135,105],[72,119],[47,22],[71,-61],[91,-5],[-116,141],[-177,289],[127,212],[-51,187],[-116,163],[-12,212]],[[3481,6835],[149,74],[153,173],[295,181],[74,89],[227,66],[110,-20],[34,32],[185,-99],[169,-48],[151,-68]]]}
