{"type":"Topology","bbox":[-76.0756651837886,6.724615388594217,-76.00773769892407,6.926574568027065],"transform":{"scale":[0.000006793427829235562,0.000020197937737058475],"translate":[-76.0756651837886,6.724615388594217]},"objects":{"municipios":{"type":"GeometryCollection","geometries":[{"type":"Polygon","arcs":[[0,1,2,3]]},{"type":"Polygon","arcs":[[4,-3,5,6,7]]},{"type":"Polygon","arcs":[[8]]},{"type":"Polygon","arcs":[[9,10,-6,-2]]},{"type":"Polygon","arcs":[[11,12,-10,-1,13]]},{"type":"Polygon","arcs":[[-12,14]]},{"type":"Polygon","arcs":[[-8,15]]},{"type":"Polygon","arcs":[[16]]},{"type":"Polygon","arcs":[[17]]},{"type":"Polygon","arcs":[[18]]},{"type":"MultiPolygon","arcs":[[[19]],[[20]]]}]}},"arcs":[[[7804,1221],[53,-23],[-60,-13],[-52,22],[-138,-31]],[[7607,1176],[-135,54],[-143,72]],[[7329,1302],[154,47]],[[7483,1349],[52,-8],[46,-32],[23,-29],[72,-33],[80,-22],[48,-4]],[[6951,1529],[44,4],[98,-17],[29,-11],[68,-61],[54,-23],[53,6],[-16,-14],[-29,6],[-56,-19],[62,-21],[51,-3],[83,11],[91,-38]],[[7329,1302],[-112,-32],[-39,-22]],[[7178,1248],[-19,2],[30,33],[-25,11],[-113,27],[-73,27],[-9,23],[-111,51],[-31,26],[-121,-2],[-22,10],[23,16],[-22,28],[-78,36],[12,42]],[[6619,1578],[196,-51],[57,-20],[79,22]],[[6968,9991],[33,-6],[69,6],[38,-13],[-61,-3],[-66,-40],[-36,9],[14,8],[-68,24],[55,23],[22,-8]],[[7607,1176],[24,-12],[-62,-24],[2,-21],[-45,-35]],[[7526,1084],[-24,11],[35,13],[-7,25],[29,32],[-26,12],[-25,-6],[-50,22],[-71,-9],[-77,25],[-48,-9],[-12,13],[36,4],[10,13],[-57,5],[-22,-12],[-45,6],[-52,-13],[58,32]],[[7860,985],[-55,-2],[-31,-12]],[[7774,971],[-10,30],[-35,4],[6,44],[-73,-12],[-74,44],[-33,-11],[-29,14]],[[7804,1221],[77,5],[61,-30],[35,-29],[15,-23],[-3,-27],[127,-18],[29,-55],[-1,-23],[-27,-10],[-97,16],[-48,-7],[-92,2],[-25,-6],[27,-14],[-22,-17]],[[7860,985],[-22,-14],[-13,-37],[20,-20],[81,-26],[133,0],[104,-30],[-49,-31],[2,-11],[73,1],[43,-19],[4,-21],[36,-23],[-11,-15],[-52,-22],[10,-12],[40,-8],[90,2],[60,15],[62,1],[53,-18],[103,-4],[-82,-16],[-36,-14],[-89,-2],[-93,13],[-77,-1],[-63,15],[-7,23],[-59,-6],[3,12],[-59,60],[3,23],[18,5],[9,34],[-131,19],[-22,9],[-23,-15],[-49,10],[-56,22],[-14,17],[16,8],[-79,49],[37,13]],[[6619,1578],[-138,41],[-183,27],[-129,42],[-82,14],[-135,1],[-71,5],[-61,14],[-91,57],[-76,36],[41,12],[-18,14],[31,21],[81,-2],[24,9],[-28,39],[90,-4],[39,18],[146,3],[144,-9],[109,11],[97,20],[34,-3],[-47,-15],[-13,-17],[-46,-13],[-71,-62],[69,-17],[49,-1],[156,21],[195,-24],[34,9],[45,-31],[84,-7],[79,-20],[5,-16],[-95,-25],[-65,3],[-173,-9],[66,-43],[-20,-15],[48,-17],[29,-22],[-3,-35],[19,-18],[163,-41]],[[9715,102],[75,12],[-8,15],[108,18],[107,-4],[-24,-19],[-49,-3],[6,9],[-56,-3],[22,-27],[-14,-9],[-77,-15],[9,-14],[35,1],[50,-29],[-32,-34],[-59,2],[29,31],[-64,22],[-107,1],[-31,19],[-21,42],[-33,14],[-22,35],[-46,24],[-35,37],[-43,26],[62,9],[10,8],[62,-22],[50,-43],[24,-44],[31,-33],[41,-26]],[[4611,6103],[20,-7],[-53,-21],[-46,1],[-143,-9],[-14,-7],[107,-1],[-63,-12],[-8,9],[-48,1],[-55,-18],[-75,9],[-78,-31],[-117,-12],[-16,4],[-117,-18],[-147,-5],[-9,7],[68,8],[31,13],[61,-5],[212,26],[59,13],[43,17],[120,23],[6,-5],[158,9],[50,-5],[54,16]],[[62,6548],[34,-23],[21,3],[45,-36],[151,-79],[19,-22],[28,4],[45,-27],[46,1],[7,-19],[-26,-9],[56,2],[-12,-22],[58,-30],[-35,-5],[14,-44],[59,-44],[8,-16],[-22,-4],[64,-49],[-20,-4],[-73,60],[-30,-5],[-17,15],[5,29],[-24,2],[-34,32],[-23,-4],[-102,33],[-38,0],[-53,15],[51,9],[-17,24],[17,2],[-12,23],[-26,12],[30,13],[-21,25],[-44,22],[-21,-4],[-85,41],[21,5],[-38,57],[-55,30],[49,-13]],[[6501,9893],[21,-11],[48,-4],[130,-29],[-37,-9],[68,-31],[32,-7],[13,-17],[32,-1],[-24,-19],[-84,-7],[6,-18],[-35,7],[3,-27],[-104,-15],[-31,11],[-27,23],[-25,-3],[-16,14],[55,5],[57,-17],[19,3],[40,-17],[3,44],[-5,45],[-58,23],[-30,4],[-60,-16],[-15,19],[47,15],[-108,26],[7,13],[52,15],[26,-19]],[[6739,9651],[-55,22],[-13,21],[52,-3],[50,-24],[-34,-16]]]}
