{"type":"Topology","bbox":[-75.94242995234913,6.686290424391244,-75.84640783940063,6.911443292001027],"transform":{"scale":[0.00000960317161201155,0.000022517538514829752],"translate":[-75.94242995234913,6.686290424391244]},"objects":{"municipios":{"type":"GeometryCollection","geometries":[{"type":"Polygon","arcs":[[0]],"properties":{"codigo":"05113200103004000101","sector":"051132001030040001","pcode":"CO05113","area_m2":19691}},{"type":"Polygon","arcs":[[1,2]],"properties":{"codigo":"05113100000000000101","sector":"051131000000000001","pcode":"CO05113","area_m2":48400}},{"type":"Polygon","arcs":[[-3,3]],"properties":{"codigo":"05113100000000000102","sector":"051131000000000001","pcode":"CO05113","area_m2":121763}},{"type":"Polygon","arcs":[[4]],"properties":{"codigo":"05113200306005000101","sector":"051132003060050001","pcode":"CO05113","area_m2":39333}},{"type":"MultiPolygon","arcs":[[[5]],[[6]]],"properties":{"codigo":"05113200304001000101","sector":"051132003040010001","pcode":"CO05113","area_m2":280938}},{"type":"MultiPolygon","arcs":[[[7]],[[8]]],"properties":{"codigo":"05113200302002000101","sector":"051132003020020001","pcode":"CO05113","area_m2":18931}},{"type":"MultiPolygon","arcs":[[[9]],[[10]]],"properties":{"codigo":"05113200205003300101","sector":"051132002050033001","pcode":"CO05113","area_m2":48881}},{"type":"MultiPolygon","arcs":[[[11]],[[12]]],"properties":{"codigo":"05113200303008000101","sector":"051132003030080001","pcode":"CO05113","area_m2":5066}}]}},"arcs":[[[2683,9979],[6,-2],[16,-34],[56,4],[4,-11],[-27,-3],[-39,-17],[-23,3],[-1,19],[-43,-2],[15,-6],[7,-15],[-12,0],[-37,13],[-10,24],[-5,38],[38,1],[-9,8],[60,-8],[4,-12]],[[3753,1440],[-58,-25],[-31,-3],[-17,5],[-64,-8],[-21,-8],[-25,9],[6,9],[-24,13],[-30,-2],[-35,-11],[38,-3],[-59,-12],[-9,15],[-34,6],[-12,8],[33,23],[40,3],[39,14],[0,16]],[[3490,1489],[54,-10],[-25,-6],[29,-19],[62,20],[15,-10],[25,2],[48,16],[48,-15],[-8,-5],[19,-9],[-4,-13]],[[3490,1489],[61,13],[44,24],[7,13],[21,17],[31,-5],[17,6],[-9,14],[15,17],[29,12],[9,12],[-14,20],[31,-6],[27,3],[-5,13],[-32,21],[-15,18],[6,6],[42,5],[-7,16],[-31,19],[21,8],[4,8],[92,5],[6,-15],[-15,-3],[-11,-39],[30,-1],[32,-6],[22,-28],[-66,-4],[-27,3],[-27,-6],[-3,-20],[28,-20],[4,-15],[20,3],[5,-10],[-27,-9],[84,-34],[-34,-13],[-27,-6],[5,-5],[-42,-11],[8,-10],[24,-6],[-2,-17],[16,-3],[-37,-43],[-29,1],[-18,9]],[[9833,389],[38,2],[46,-12],[8,-12],[37,-4],[20,-15],[-6,-11],[17,-14],[-11,-7],[14,-6],[-4,-12],[-55,13],[7,11],[-14,7],[-38,3],[-16,-11],[-52,7],[-26,0],[-12,-8],[-21,0],[-11,28],[-41,1],[-10,25],[27,4],[3,7],[21,-3],[61,10],[18,-3]],[[4906,366],[-25,-15],[-26,-9],[-57,-11],[-36,-4],[18,-12],[19,7],[11,-6],[-13,-17],[85,-4],[-44,-25],[-21,-16],[-51,11],[-15,-3],[-3,-12],[-17,-8],[3,-23],[-29,-20],[-24,-10],[8,-12],[50,6],[-1,-19],[-36,-2],[-36,9],[-30,-4],[18,14],[-47,1],[0,18],[-47,4],[-15,4],[40,25],[9,16],[-23,8],[-62,6],[1,9],[-20,8],[20,9],[-9,6],[-45,-3],[-8,8],[-31,2],[32,10],[60,14],[-30,12],[-36,-5],[-23,23],[28,1],[13,10],[8,-12],[52,-5],[15,5],[23,-21],[24,-3],[17,5],[1,14],[59,34],[17,-11],[73,-8],[16,23],[-43,13],[6,16],[47,19],[21,-3],[16,-27],[31,-18],[55,-12],[7,-10]],[[4113,188],[27,-16],[6,-14],[23,0],[25,-8],[24,13],[21,-4],[11,-16],[19,-5],[14,10],[44,1],[10,9],[12,25],[41,-6],[0,-23],[19,-9],[11,15],[64,-5],[6,-6],[-43,-1],[-4,-5],[21,-20],[-24,-8],[-22,-19],[-38,-14],[-21,-17],[11,-17],[21,-12],[-18,-11],[-15,0],[-46,18],[-20,-13],[-45,-22],[-34,12],[37,24],[9,12],[-43,3],[-53,-23],[-14,3],[-47,-3],[-38,1],[-1,-26],[-31,-10],[-19,-1],[-20,9],[-28,4],[-14,7],[1,16],[-13,14],[69,19],[61,2],[-1,10],[37,16],[-2,7],[-24,3],[-2,18],[-24,7],[11,7],[-4,16],[-34,-8],[-19,13],[48,12],[-9,15],[24,-4],[43,5]],[[88,1864],[-25,-23],[26,-21],[42,9],[-7,7],[54,-6],[26,4],[8,-10],[-31,-9],[-61,-4],[46,-12],[-6,-9],[-61,1],[-1,8],[-23,5],[-55,0],[-19,18],[34,0],[-2,18],[-17,-3],[-4,19],[48,10],[7,-3],[26,12],[-5,-11]],[[129,1756],[-16,-5],[-17,6],[7,9],[26,-10]],[[2873,5405],[31,-7],[13,5],[23,-6],[-18,-15],[39,-14],[22,-12],[-6,-10],[-57,-14],[6,-9],[25,2],[-18,-8],[36,5],[44,-18],[31,-19],[-37,-5],[-18,18],[-36,-7],[12,-5],[-43,-10],[-2,-12],[15,-11],[80,-7],[-1,-8],[-30,4],[-36,-9],[-24,3],[-5,17],[-74,-12],[-24,-1],[-9,12],[25,27],[59,14],[0,15],[-14,19],[-34,-4],[-6,24],[25,-3],[-17,23],[18,3],[-2,13],[19,7],[-21,2],[-5,10],[-22,13],[36,-10]],[[2773,5403],[14,-6],[-52,-18],[-72,-10],[-28,3],[0,9],[21,3],[17,-9],[31,22],[20,-6],[49,12]],[[3765,1812],[6,-15],[-17,-9],[-31,1],[-13,8],[4,15],[16,8],[36,-1],[-1,-7]],[[3706,1791],[-11,-1],[-15,30],[17,-2],[9,-27]]]}
