{"type":"Topology","bbox":[-74.98310935321331,10.731655721603765,-74.9692694513526,10.751116785528174],"transform":{"scale":[0.000001384128598930498,0.000001946301022543115],"translate":[-74.98310935321331,10.731655721603765]},"objects":{"municipios":{"type":"GeometryCollection","geometries":[{"type":"Polygon","arcs":[[0,1,2]],"properties":{"codigo":"08849100000000000205","sector":"088491000000000002","pcode":"CO08849","area_m2":119300}},{"type":"Polygon","arcs":[[3,4,5]],"properties":{"codigo":"08849100000000000101","sector":"088491000000000001","pcode":"CO08849","area_m2":203991}},{"type":"Polygon","arcs":[[6,7,8,9]],"properties":{"codigo":"08849100000000000202","sector":"088491000000000002","pcode":"CO08849","area_m2":42918}},{"type":"Polygon","arcs":[[-5,10,11,12,13,14]],"properties":{"codigo":"08849100000000000102","sector":"088491000000000001","pcode":"CO08849","area_m2":138714}},{"type":"Polygon","arcs":[[-14,15,16,17,18,19]],"properties":{"codigo":"08849100000000000103","sector":"088491000000000001","pcode":"CO08849","area_m2":70457}},{"type":"Polygon","arcs":[[20,21,-19]],"properties":{"codigo":"08849100000000000104","sector":"088491000000000001","pcode":"CO08849","area_m2":62575}},{"type":"Polygon","arcs":[[-18,22,23,-21]],"properties":{"codigo":"08849100000000000105","sector":"088491000000000001","pcode":"CO08849","area_m2":82569}},{"type":"Polygon","arcs":[[24,25,-10,26,-16,-13]],"properties":{"codigo":"08849100000000000106","sector":"088491000000000001","pcode":"CO08849","area_m2":53064}},{"type":"Polygon","arcs":[[-17,-27,-9,27,28,-23]],"properties":{"codigo":"08849100000000000201","sector":"088491000000000002","pcode":"CO08849","area_m2":39384}},{"type":"Polygon","arcs":[[29,-2,30,-7,-26,31]],"properties":{"codigo":"08849100000000000203","sector":"088491000000000002","pcode":"CO08849","area_m2":223796}},{"type":"Polygon","arcs":[[-8,-31,-1,32,-28]],"properties":{"codigo":"08849100000000000204","sector":"088491000000000002","pcode":"CO08849","area_m2":80225}},{"type":"Polygon","arcs":[[33,-32,-25,-12,34]],"properties":{"codigo":"08849100000000000206","sector":"088491000000000002","pcode":"CO08849","area_m2":148257}},{"type":"Polygon","arcs":[[35,-35,-11,-4]],"properties":{"codigo":"08849100000000000207","sector":"088491000000000002","pcode":"CO08849","area_m2":111490}}]}},"arcs":[[[2247,4917],[-244,-85],[-72,-338],[115,-239],[102,-47],[225,76],[547,-89],[306,-111],[134,-250],[-258,-280],[219,-339]],[[3321,3215],[55,-122],[-24,-236],[-246,-359]],[[3106,2498],[-344,-272],[-540,201],[411,283],[200,197],[73,194],[-569,147],[-396,269],[-460,84],[-577,7],[-227,44],[-580,392],[78,105],[301,154],[420,409],[302,131],[334,47],[179,81],[536,-54]],[[8152,7296],[-174,-101],[-303,79],[-358,236],[-476,71]],[[6841,7581],[-455,-27],[-412,-105],[-604,-24],[-757,223],[-1001,368],[-839,405]],[[2773,8421],[42,908],[53,254],[127,54],[30,242],[167,118],[227,0],[-220,-1148],[63,-44],[455,3],[1282,77],[44,-386],[318,30],[990,27],[279,-15],[505,33],[39,192],[754,-19],[-88,-458],[552,-121],[295,-118],[-108,-200],[-372,-369],[-55,-185]],[[4908,4864],[-233,-345],[-115,-80]],[[4560,4439],[-656,126],[-310,151],[-253,37]],[[3341,4753],[228,409],[-126,429]],[[3443,5591],[354,39],[49,-77],[198,62],[371,8],[80,134],[173,-426],[73,-432],[167,-35]],[[6841,7581],[52,-414],[-386,-180]],[[6507,6987],[-418,72],[-106,-25],[-47,-207],[-276,-252],[-173,-66],[-507,63]],[[4980,6572],[-202,-13],[-128,-136],[-266,93],[-348,193],[-215,53]],[[3821,6762],[-217,-3],[-22,413],[-126,215],[53,203],[-721,183],[-259,-296],[-98,127],[-103,-106],[-117,150],[-231,-119],[-83,147],[-172,82],[-21,144]],[[1704,7902],[-118,105],[399,288],[157,194],[38,162],[583,-259],[10,29]],[[3821,6762],[-242,-172],[-70,-204],[-239,-301]],[[3270,6085],[-102,11]],[[3168,6096],[-207,237],[-165,101],[-171,228],[-168,99]],[[2457,6761],[-233,329],[-635,347],[-727,301],[90,157],[-241,-54],[-111,111]],[[600,7952],[107,142],[455,-57],[143,-127],[201,-50],[198,42]],[[2457,6761],[13,-246],[-333,92],[-254,7],[-15,-84],[-493,-41],[-191,293],[-42,185],[-230,3],[-417,-192],[-389,-58]],[[106,6720],[-106,213],[164,559],[190,291],[246,169]],[[3168,6096],[-172,-25],[-146,131],[48,-168],[-77,-229],[25,-199],[-160,-100],[-419,-49],[-351,7]],[[1916,5464],[-373,105],[-287,192],[-274,66],[-171,131],[64,48],[-286,210],[-119,-36],[-163,139],[117,71],[-182,70],[-136,260]],[[4980,6572],[-116,-217],[114,-109],[-237,-225],[-43,-294],[274,-78],[37,-147]],[[5009,5502],[-19,-331],[97,-353],[-179,46]],[[3443,5591],[-30,155],[163,152],[-306,187]],[[3341,4753],[-58,-29],[-864,176],[-122,46]],[[2297,4946],[35,193],[-274,291],[-142,34]],[[7072,4529],[-404,-453],[-893,-1047],[-349,-385],[-131,-195],[10,-311],[92,-429],[-85,-327],[-432,-687],[-475,-695],[-99,413],[4,178],[98,385],[-17,666],[264,290],[68,220],[-222,185],[-127,-39],[-88,103],[-454,-39],[-726,136]],[[3321,3215],[173,73],[472,63],[134,52],[213,-105],[262,70],[24,118],[-90,661],[51,292]],[[5009,5502],[299,-52],[203,-249],[136,-288],[-22,-124],[238,-3],[535,-79],[81,-88],[376,-92],[217,2]],[[2247,4917],[50,29]],[[7728,5297],[-656,-768]],[[6507,6987],[368,-163],[-144,-365],[336,-74],[-99,-287],[532,-71],[-18,-623],[246,-107]],[[8152,7296],[646,217],[414,-30],[343,-97],[444,-202],[-356,-24],[-413,-208],[-767,-748],[-735,-907]]]}
