{"type":"Topology","bbox":[-74.86131194461689,10.766062258364416,-74.83788693108602,10.81261264852965],"transform":{"scale":[0.0000023427356266495103,0.00000465550456698003],"translate":[-74.86131194461689,10.766062258364416]},"objects":{"municipios":{"type":"GeometryCollection","geometries":[{"type":"Polygon","arcs":[[0,1,2,3]],"properties":{"codigo":"08558100000000000101","sector":"085581000000000001","pcode":"CO08558","area_m2":139193}},{"type":"Polygon","arcs":[[4,5,6,7,8]],"properties":{"codigo":"08558100000000000104","sector":"085581000000000001","pcode":"CO08558","area_m2":71523}},{"type":"Polygon","arcs":[[9,10,11,-6,12]],"properties":{"codigo":"08558100000000000202","sector":"085581000000000002","pcode":"CO08558","area_m2":37405}},{"type":"Polygon","arcs":[[-12,13,14,15,-7]],"properties":{"codigo":"08558100000000000205","sector":"085581000000000002","pcode":"CO08558","area_m2":39046}},{"type":"Polygon","arcs":[[16,17,-11,18]],"properties":{"codigo":"08558100000000000203","sector":"085581000000000002","pcode":"CO08558","area_m2":61272}},{"type":"Polygon","arcs":[[19,-3,-9,20,21]],"properties":{"codigo":"08558100000000000102","sector":"085581000000000001","pcode":"CO08558","area_m2":339398}},{"type":"Polygon","arcs":[[22,23,-13,-5,-2]],"properties":{"codigo":"08558100000000000103","sector":"085581000000000001","pcode":"CO08558","area_m2":100064}},{"type":"Polygon","arcs":[[-8,-16,24,25,-21]],"properties":{"codigo":"08558100000000000105","sector":"085581000000000001","pcode":"CO08558","area_m2":69945}},{"type":"Polygon","arcs":[[-4,-20,26]],"properties":{"codigo":"08558100000000000106","sector":"085581000000000001","pcode":"CO08558","area_m2":237507}},{"type":"MultiPolygon","arcs":[[[27,-19,-10,-24]],[[28]]],"properties":{"codigo":"08558100000000000201","sector":"085581000000000002","pcode":"CO08558","area_m2":95743}},{"type":"MultiPolygon","arcs":[[[29,30,-14,-18]],[[31]]],"properties":{"codigo":"08558100000000000204","sector":"085581000000000002","pcode":"CO08558","area_m2":113075}},{"type":"Polygon","arcs":[[32,-25,-15,-31]],"properties":{"codigo":"08558100000000000206","sector":"085581000000000002","pcode":"CO08558","area_m2":79082}},{"type":"Polygon","arcs":[[33]],"properties":{"codigo":"08558100000000000301","sector":"085581000000000003","pcode":"CO08558","area_m2":126897}},{"type":"Polygon","arcs":[[34]],"properties":{"codigo":"08558200101001000101","sector":"085582001010010001","pcode":"CO08558","area_m2":128015}}]}},"arcs":[[[4931,2656],[-304,-234],[-9,-22]],[[4618,2400],[-60,-32],[-509,-36],[-72,4],[-804,198]],[[3173,2534],[170,169],[412,456],[318,403]],[[4073,3562],[171,-38],[-167,-247],[519,-72],[-135,-118],[-132,-149],[368,-81],[-97,-96],[331,-105]],[[3173,2534],[-265,-274],[-161,-189]],[[2747,2071],[-6,-7]],[[2741,2064],[-467,60],[-369,63]],[[1905,2187],[105,185],[6,52],[124,208]],[[2140,2632],[73,132],[180,-36],[780,-194]],[[3370,1934],[-280,-337]],[[3090,1597],[-762,91]],[[2328,1688],[163,134],[250,242]],[[2747,2071],[623,-137]],[[2328,1688],[-264,76],[-357,121]],[[1707,1885],[81,127]],[[1788,2012],[117,175]],[[2647,959],[-121,27],[-19,131],[-113,55],[9,35],[-279,102],[-67,-142],[-293,72]],[[1764,1239],[132,136],[139,81],[293,232]],[[3090,1597],[-378,-499],[-65,-139]],[[3959,3861],[-40,-139],[61,-19],[-81,-105],[174,-36]],[[2140,2632],[-522,98]],[[1618,2730],[-272,62],[107,118],[299,-37],[168,192],[218,359],[-503,74],[338,563],[436,-67],[136,177],[60,-8],[51,106],[426,-70],[-115,-166],[-97,-256],[555,-64],[89,202],[445,-54]],[[4618,2400],[-11,-120],[-78,-26],[-187,-148],[43,-10],[-183,-192],[-77,-16],[-139,-89]],[[3986,1799],[-616,135]],[[1788,2012],[-177,43],[-156,-135],[-147,-155],[-345,-7],[-327,-32]],[[636,1726],[-53,63],[28,51],[-120,13],[27,179],[451,-120],[237,80],[104,72],[235,245],[-111,24],[158,197],[50,117],[-64,44],[40,39]],[[3959,3861],[42,111],[637,-79],[357,-104],[-78,-78],[499,-170],[128,-32],[136,190],[262,127],[285,96],[175,30],[84,48],[332,-36],[-26,-36],[356,-68],[-142,-120],[-751,140],[-184,-109],[-170,-175],[-54,-81],[914,-17],[-117,-238],[-672,-63],[-336,-44],[-99,7],[-290,-222],[-316,-282]],[[3986,1799],[28,-15],[-417,-134],[-62,-148],[130,-177],[-27,-159],[-63,-100],[-90,14],[-71,-111],[-164,-5],[-293,43],[-215,-165],[-150,33],[55,84]],[[4790,1000],[-127,-10],[-237,60],[292,235],[144,-40],[-40,-140],[44,-99],[-76,-6]],[[1764,1239],[-366,57],[-111,-114],[120,-95],[83,-25],[76,50],[179,-39],[-46,-96],[-97,12],[-37,-62],[135,-23],[-42,-51],[74,-15],[-252,-130],[-147,29],[-112,-115],[41,-16],[-125,-144],[-234,97],[48,60],[-106,38],[-122,-28],[-298,119]],[[425,748],[319,123],[225,115],[300,281],[225,285],[158,181],[55,152]],[[364,30],[-15,-30],[-349,21],[20,248],[332,-23],[30,-148],[-18,-68]],[[425,748],[-204,20],[86,54],[382,161],[235,186],[24,-8],[180,153],[134,-40],[37,45],[-171,89],[-41,54],[-314,71],[-433,36],[-102,-44],[-68,54],[-127,-17],[0,50],[95,142],[498,-28]],[[8961,1976],[430,-8],[-126,-240],[-333,-607],[-285,34],[-651,39],[-203,-384],[-156,-264],[-90,28],[427,788],[151,249],[217,408],[619,-43]],[[7852,9997],[2092,-1],[-114,-205],[144,-13],[-24,-82],[-662,35],[-47,-108],[191,-25],[565,-15],[-126,-67],[-433,7],[381,-65],[91,-90],[-66,-72],[-142,34],[-37,-38],[-366,78],[38,83],[-222,-1],[-89,-27],[-3,-53],[-78,-5],[-4,89],[-215,7],[-139,26],[-9,-36],[-646,33],[-21,121],[210,-21],[263,106],[-93,5],[76,250],[-237,2],[4,-52],[-116,-1],[-2,50],[-184,-3],[21,-122],[-198,-3],[-39,181],[236,-2]]]}
