{"type":"Topology","bbox":[-75.20323242288379,10.712412597225766,-75.07098493659873,10.767973457993733],"transform":{"scale":[0.00001322607123562883,0.000005556641740970793],"translate":[-75.20323242288379,10.712412597225766]},"objects":{"municipios":{"type":"GeometryCollection","geometries":[{"type":"Polygon","arcs":[[0,1,2]],"properties":{"codigo":"08549100000000000106","sector":"085491000000000001","pcode":"CO08549","area_m2":72716}},{"type":"Polygon","arcs":[[3]],"properties":{"codigo":"08549200302001000101","sector":"085492003020010001","pcode":"CO08549","area_m2":58991}},{"type":"Polygon","arcs":[[4]],"properties":{"codigo":"08549200101002000101","sector":"085492001010020001","pcode":"CO08549","area_m2":17948}},{"type":"Polygon","arcs":[[5,6,7,8]],"properties":{"codigo":"08549100000000000101","sector":"085491000000000001","pcode":"CO08549","area_m2":46279}},{"type":"Polygon","arcs":[[9,10,-8,11,12]],"properties":{"codigo":"08549100000000000102","sector":"085491000000000001","pcode":"CO08549","area_m2":50813}},{"type":"Polygon","arcs":[[-13,13]],"properties":{"codigo":"08549100000000000103","sector":"085491000000000001","pcode":"CO08549","area_m2":92728}},{"type":"Polygon","arcs":[[14,15,-9,-11,16]],"properties":{"codigo":"08549100000000000104","sector":"085491000000000001","pcode":"CO08549","area_m2":32219}},{"type":"Polygon","arcs":[[-2,17,-6,-16,18]],"properties":{"codigo":"08549100000000000105","sector":"085491000000000001","pcode":"CO08549","area_m2":68532}},{"type":"Polygon","arcs":[[-3,-19,-15,19]],"properties":{"codigo":"08549100000000000107","sector":"085491000000000001","pcode":"CO08549","area_m2":86231}},{"type":"Polygon","arcs":[[20,21,22]],"properties":{"codigo":"08549200202003000101","sector":"085492002020030001","pcode":"CO08549","area_m2":95342}},{"type":"Polygon","arcs":[[23,-23,24]],"properties":{"codigo":"08549200202003000102","sector":"085492002020030001","pcode":"CO08549","area_m2":55322}},{"type":"Polygon","arcs":[[-21,-24,25]],"properties":{"codigo":"08549200202003000103","sector":"085492002020030001","pcode":"CO08549","area_m2":70536}}]}},"arcs":[[[7471,6131],[-12,-19],[-70,99],[-12,-90],[2,-90],[-102,32],[-25,-24],[-21,-120],[48,-35],[-39,-290],[-33,-27],[-41,241]],[[7166,5808],[23,352],[66,127]],[[7255,6287],[79,6],[44,-16],[41,-41],[52,-105]],[[9913,4333],[48,-20],[-16,-123],[6,-101],[48,-22],[-2,-20],[-66,13],[1,-186],[-30,20],[-23,159],[-24,1],[-76,-116],[2,-59],[-37,62],[0,-39],[-27,-37],[-21,29],[-18,-52],[-7,41],[31,107],[27,211],[17,-14],[-8,-68],[2,-110],[27,24],[9,47],[32,-20],[-10,99],[18,137],[31,5],[0,-51],[25,49],[41,34]],[[83,9946],[-33,-196],[1,-40],[27,-28],[-73,-80],[-2,206],[30,191],[50,-53]],[[7198,6599],[-12,-32],[-14,-158],[-22,-178],[-24,82],[-4,-65],[-47,-39]],[[7075,6209],[-25,21],[-1,42],[22,174],[5,177],[15,66]],[[7091,6689],[16,22],[42,-9],[4,21],[58,35]],[[7211,6758],[-13,-159]],[[7243,7021],[27,-33]],[[7270,6988],[-26,-23],[-6,-95],[-22,-21],[-5,-91]],[[7091,6689],[-14,89],[14,68],[-1,254]],[[7090,7100],[7,47],[67,-41],[11,21],[44,-29],[5,-77],[19,0]],[[7090,7100],[-34,3],[8,145],[47,11],[-18,305],[13,155],[-24,57],[13,27],[75,-123],[14,56],[38,254],[31,-55],[-26,-69],[62,-85],[-23,-189],[-27,-19],[-41,11],[-14,-62],[41,-281],[84,12],[2,-69],[-71,-9],[3,-154]],[[7312,6912],[-4,-117],[-17,-82],[0,-124]],[[7291,6589],[-32,27],[-19,-111],[-27,19],[6,59],[-21,16]],[[7270,6988],[61,39],[-26,-95],[7,-20]],[[7166,5808],[-59,38],[-21,93],[9,27],[-48,63],[28,180]],[[7291,6589],[-23,-88],[2,-50],[-15,-164]],[[7312,6912],[28,23],[6,-84],[45,-4],[-2,-75],[-26,-213],[33,-31],[10,-56],[-7,-59],[26,-58],[50,-165],[16,1],[0,-75],[34,92],[20,-3],[127,-101],[-34,-83],[-33,19],[-31,-15],[-83,6],[3,82],[-23,18]],[[5174,523],[30,-63],[15,-113],[-9,-78],[61,-91]],[[5271,178],[-18,-25],[-31,34],[-10,-46],[-16,23],[-15,-164],[-22,20],[17,70],[-49,55],[42,133],[-53,100],[-97,70],[-103,-30],[-76,-68],[-43,-60],[-42,-87],[-32,-94],[-36,-35],[-26,53],[-21,5],[-15,63],[-5,178],[56,56],[17,-31],[8,-217],[92,142],[63,87],[-17,60],[52,62],[19,-32],[36,94]],[[4946,594],[66,28],[2,-36],[53,13],[11,-34],[96,-42]],[[5314,981],[-74,-26],[-16,-33],[-23,-241],[-27,-158]],[[4946,594],[64,185],[23,-26],[36,26],[38,-90],[9,100],[32,1],[0,46],[38,-18],[8,146],[21,21],[0,81],[79,6],[16,39],[23,-67],[-19,-63]],[[5314,981],[7,-60],[-13,-52],[2,-104],[10,-77],[-12,-44],[29,-29],[-31,-13],[-2,-84],[33,14],[3,-72],[-41,-25],[6,-188],[-13,1],[-21,-70]]]}
