{"type":"Topology","bbox":[-74.77674817294724,10.78077504759365,-74.74858663559263,10.815391421090437],"transform":{"scale":[0.0000028164353789985024,0.0000034619835480335066],"translate":[-74.77674817294724,10.78077504759365]},"objects":{"municipios":{"type":"GeometryCollection","geometries":[{"type":"Polygon","arcs":[[0,1,2]],"properties":{"codigo":"08634100000000000209","sector":"086341000000000002","pcode":"CO08634","area_m2":136056}},{"type":"Polygon","arcs":[[3,4,5,6,7]],"properties":{"codigo":"08634100000000000206","sector":"086341000000000002","pcode":"CO08634","area_m2":42435}},{"type":"Polygon","arcs":[[8,9,10,11]],"properties":{"codigo":"08634100000000000202","sector":"086341000000000002","pcode":"CO08634","area_m2":53973}},{"type":"Polygon","arcs":[[12,13,14,15,16,17,18]],"properties":{"codigo":"08634100000000000105","sector":"086341000000000001","pcode":"CO08634","area_m2":271790}},{"type":"Polygon","arcs":[[19,-14]],"properties":{"codigo":"08634100000000000110","sector":"086341000000000001","pcode":"CO08634","area_m2":14230}},{"type":"Polygon","arcs":[[20,21,22]],"properties":{"codigo":"08634100000000000303","sector":"086341000000000003","pcode":"CO08634","area_m2":112256}},{"type":"Polygon","arcs":[[-11,23,-3,24,25]],"properties":{"codigo":"08634100000000000201","sector":"086341000000000002","pcode":"CO08634","area_m2":132113}},{"type":"Polygon","arcs":[[26,27,-19,28,29]],"properties":{"codigo":"08634100000000000106","sector":"086341000000000001","pcode":"CO08634","area_m2":107369}},{"type":"Polygon","arcs":[[30,-17,31]],"properties":{"codigo":"08634100000000000108","sector":"086341000000000001","pcode":"CO08634","area_m2":78935}},{"type":"Polygon","arcs":[[32,-21,33]],"properties":{"codigo":"08634100000000000301","sector":"086341000000000003","pcode":"CO08634","area_m2":62623}},{"type":"Polygon","arcs":[[-6,34,35,36,37]],"properties":{"codigo":"08634100000000000103","sector":"086341000000000001","pcode":"CO08634","area_m2":65288}},{"type":"Polygon","arcs":[[38,-36,39,-29,-18,-31,40,41]],"properties":{"codigo":"08634100000000000104","sector":"086341000000000001","pcode":"CO08634","area_m2":286065}},{"type":"Polygon","arcs":[[42,43,-12,-26,44]],"properties":{"codigo":"08634100000000000203","sector":"086341000000000002","pcode":"CO08634","area_m2":172388}},{"type":"Polygon","arcs":[[-1,-24,-10,45,-42,46,47]],"properties":{"codigo":"08634100000000000101","sector":"086341000000000001","pcode":"CO08634","area_m2":513363}},{"type":"Polygon","arcs":[[-22,-33,48]],"properties":{"codigo":"08634100000000000302","sector":"086341000000000003","pcode":"CO08634","area_m2":70007}},{"type":"Polygon","arcs":[[-27,49,-5,50]],"properties":{"codigo":"08634100000000000207","sector":"086341000000000002","pcode":"CO08634","area_m2":126259}},{"type":"Polygon","arcs":[[51,-37,-39,-46]],"properties":{"codigo":"08634100000000000102","sector":"086341000000000001","pcode":"CO08634","area_m2":62144}},{"type":"Polygon","arcs":[[52,53]],"properties":{"codigo":"08634100000000000210","sector":"086341000000000002","pcode":"CO08634","area_m2":58363}},{"type":"Polygon","arcs":[[-38,-52,-9,-44,54,-7]],"properties":{"codigo":"08634100000000000204","sector":"086341000000000002","pcode":"CO08634","area_m2":58299}},{"type":"Polygon","arcs":[[55,56,-8,-55,-43]],"properties":{"codigo":"08634100000000000205","sector":"086341000000000002","pcode":"CO08634","area_m2":78199}},{"type":"Polygon","arcs":[[-41,-32,-16,57,-47]],"properties":{"codigo":"08634100000000000109","sector":"086341000000000001","pcode":"CO08634","area_m2":392090}},{"type":"Polygon","arcs":[[58,-54,59,-51,-4,-57]],"properties":{"codigo":"08634100000000000208","sector":"086341000000000002","pcode":"CO08634","area_m2":315146}},{"type":"Polygon","arcs":[[-30,-40,-35,-50]],"properties":{"codigo":"08634100000000000107","sector":"086341000000000001","pcode":"CO08634","area_m2":95660}}]}},"arcs":[[[7097,4026],[-145,120],[-161,182],[-130,206],[44,90],[-134,98],[-9,109]],[[6562,4831],[304,42],[806,137],[206,24],[14,141],[112,63]],[[8004,5238],[-1,-80],[74,-105],[46,-159],[106,-207],[32,0],[106,-221],[-760,-188],[35,-98],[-545,-154]],[[8502,2392],[-20,-178]],[[8482,2214],[-744,59]],[[7738,2273],[14,434]],[[7752,2707],[786,16]],[[8538,2723],[-36,-331]],[[8594,3288],[-274,32],[-564,25]],[[7756,3345],[-124,307],[-101,83]],[[7531,3735],[216,85],[335,3],[534,-42]],[[8616,3781],[7,-188],[-29,-305]],[[5621,1550],[-158,-60],[-271,-187],[-170,-141],[-304,-15],[-211,128],[-131,34],[-281,-97],[-202,80],[-116,119],[-246,58],[11,157]],[[3542,1626],[-7,360]],[[3535,1986],[-4,296]],[[3531,2282],[278,5],[482,107]],[[4291,2394],[474,146],[298,26]],[[5063,2566],[594,54],[-152,-515],[-93,-393]],[[5412,1712],[-33,-125],[242,-37]],[[3542,1626],[-334,-1],[-6,358],[333,3]],[[187,9578],[999,-504]],[[1186,9074],[564,-297],[-151,-185],[82,-48]],[[1681,8544],[3,-71],[-94,-254],[-1344,684],[150,195],[-396,200],[187,280]],[[7531,3735],[-434,291]],[[8004,5238],[118,25],[196,-54]],[[8318,5209],[-6,-56],[112,-31],[112,-258],[-122,-33],[55,-115],[183,50],[57,-113],[73,18],[91,-271],[-152,-23],[38,-597],[-143,1]],[[7193,993],[0,-123]],[[7193,870],[-114,-58],[-143,25],[-356,123],[-92,97],[-220,63],[-127,117],[-89,196],[-218,116],[-213,1]],[[5412,1712],[244,-34],[259,8],[764,88],[221,36]],[[6900,1810],[97,-132],[168,-315],[28,-370]],[[5291,3465],[-1,-83],[-410,7],[116,-424],[-29,-28],[96,-371]],[[4291,2394],[10,449],[48,617],[584,14],[358,-9]],[[1546,9534],[-360,-460]],[[187,9578],[306,415],[290,-243],[108,-132],[72,87],[275,-139],[73,88],[235,-120]],[[7738,2273],[-731,46],[-330,33]],[[6677,2352],[50,480]],[[6727,2832],[237,-5],[790,17]],[[7754,2844],[-2,-137]],[[6739,3153],[-12,-321]],[[6677,2352],[63,-278],[160,-264]],[[5291,3465],[714,24]],[[6005,3489],[52,-68],[280,-147],[127,-119],[275,-2]],[[9714,2907],[-689,-36],[1,80],[-461,43]],[[8565,2994],[29,294]],[[8318,5209],[370,-166],[159,-429],[307,56],[116,-792],[-11,-107],[80,0],[660,-277],[-286,-162],[1,-425]],[[7756,3345],[-1016,7],[-1,-199]],[[6005,3489],[-75,151],[-441,331],[-444,196],[-281,37],[-409,132],[-614,60],[-162,-63],[-108,109],[-91,-36]],[[3380,4406],[-504,43],[251,562],[361,6],[580,49],[553,-51],[731,-29],[680,132],[393,34],[137,-321]],[[1546,9534],[67,-35],[68,90],[281,-137],[68,45],[254,-106],[94,-13],[-11,-94],[-102,-160],[-109,-22],[-354,-438],[-78,-16],[-43,-104]],[[7193,993],[157,129],[321,522],[43,227],[24,402]],[[8482,2214],[-51,-431],[-61,4],[-67,-214],[-79,13],[-30,-292],[-84,-387],[230,20],[18,-44],[-331,-55],[-525,-29],[-309,71]],[[7756,3345],[-2,-501]],[[8205,432],[-11,-431],[-760,8],[-236,-5],[-102,36],[52,447]],[[7148,487],[300,-3],[478,-44],[279,-8]],[[8565,2994],[-27,-271]],[[9714,2907],[-5,-391],[-45,-409]],[[9664,2107],[-63,-33],[15,278],[-410,27],[-704,13]],[[3531,2282],[-335,5],[-111,86],[147,1672],[63,145],[94,92],[-9,124]],[[9664,2107],[-42,-426],[-19,-378],[-25,-138],[-100,-76],[-158,5],[-2,-116],[94,-100],[-164,-25],[-14,-150],[-190,-12],[48,-184],[-325,-52],[-562,-23]],[[7148,487],[45,383]]]}
