{"type":"Topology","bbox":[-75.23503204302023,10.407491149891785,-75.06861089402338,10.572941221084168],"transform":{"scale":[0.000016643779277612417,0.000016546661785416883],"translate":[-75.23503204302023,10.407491149891785]},"objects":{"municipios":{"type":"GeometryCollection","geometries":[{"type":"Polygon","arcs":[[0,1,2,3,4,5,6,7]],"properties":{"codigo":"08606100000000000201","sector":"086061000000000002","pcode":"CO08606","area_m2":227930}},{"type":"Polygon","arcs":[[8,-3,9,10]],"properties":{"codigo":"08606100000000000205","sector":"086061000000000002","pcode":"CO08606","area_m2":156537}},{"type":"Polygon","arcs":[[11,12]],"properties":{"codigo":"08606100000000000209","sector":"086061000000000002","pcode":"CO08606","area_m2":69891}},{"type":"Polygon","arcs":[[13,14,15]],"properties":{"codigo":"08606200306005000101","sector":"086062003060050001","pcode":"CO08606","area_m2":115833}},{"type":"Polygon","arcs":[[16,17,-4,-9,18]],"properties":{"codigo":"08606100000000000203","sector":"086061000000000002","pcode":"CO08606","area_m2":180796}},{"type":"Polygon","arcs":[[19,20,21,22]],"properties":{"codigo":"08606100000000000103","sector":"086061000000000001","pcode":"CO08606","area_m2":115559}},{"type":"Polygon","arcs":[[23,-20,24]],"properties":{"codigo":"08606100000000000104","sector":"086061000000000001","pcode":"CO08606","area_m2":53289}},{"type":"Polygon","arcs":[[-7,25,26]],"properties":{"codigo":"08606100000000000105","sector":"086061000000000001","pcode":"CO08606","area_m2":148453}},{"type":"Polygon","arcs":[[27,-8,-27,28]],"properties":{"codigo":"08606100000000000101","sector":"086061000000000001","pcode":"CO08606","area_m2":289337}},{"type":"Polygon","arcs":[[-22,29,-1,-28,30]],"properties":{"codigo":"08606100000000000102","sector":"086061000000000001","pcode":"CO08606","area_m2":126669}},{"type":"Polygon","arcs":[[31,32,-5,-18]],"properties":{"codigo":"08606100000000000202","sector":"086061000000000002","pcode":"CO08606","area_m2":208395}},{"type":"Polygon","arcs":[[33,-19,-11,34,35]],"properties":{"codigo":"08606100000000000204","sector":"086061000000000002","pcode":"CO08606","area_m2":189736}},{"type":"Polygon","arcs":[[36,37,-35,-10,-2,-30,-21,-24]],"properties":{"codigo":"08606100000000000206","sector":"086061000000000002","pcode":"CO08606","area_m2":155025}},{"type":"Polygon","arcs":[[-36,-38,38]],"properties":{"codigo":"08606100000000000207","sector":"086061000000000002","pcode":"CO08606","area_m2":15665}},{"type":"Polygon","arcs":[[39,-13,40,-32,-17]],"properties":{"codigo":"08606100000000000208","sector":"086061000000000002","pcode":"CO08606","area_m2":208803}},{"type":"Polygon","arcs":[[41,42]],"properties":{"codigo":"08606200201001000101","sector":"086062002010010001","pcode":"CO08606","area_m2":97057}},{"type":"Polygon","arcs":[[43,-42]],"properties":{"codigo":"08606200201001000102","sector":"086062002010010001","pcode":"CO08606","area_m2":71244}},{"type":"MultiPolygon","arcs":[[[44]],[[45]]],"properties":{"codigo":"08606200102002000101","sector":"086062001020020001","pcode":"CO08606","area_m2":68063}},{"type":"Polygon","arcs":[[46]],"properties":{"codigo":"08606200102003000101","sector":"086062001020030001","pcode":"CO08606","area_m2":89440}},{"type":"MultiPolygon","arcs":[[[47,48]],[[49,50]]],"properties":{"codigo":"08606200204004000101","sector":"086062002040040001","pcode":"CO08606","area_m2":121016}},{"type":"Polygon","arcs":[[-50,51]],"properties":{"codigo":"08606200204004000102","sector":"086062002040040001","pcode":"CO08606","area_m2":70277}},{"type":"Polygon","arcs":[[-49,52]],"properties":{"codigo":"08606200204004000103","sector":"086062002040040001","pcode":"CO08606","area_m2":100668}},{"type":"Polygon","arcs":[[-14,53,54]],"properties":{"codigo":"08606200306005000102","sector":"086062003060050001","pcode":"CO08606","area_m2":158034}},{"type":"Polygon","arcs":[[-54,-16,55]],"properties":{"codigo":"08606200306005000103","sector":"086062003060050001","pcode":"CO08606","area_m2":189124}},{"type":"Polygon","arcs":[[56]],"properties":{"codigo":"08606200102009000101","sector":"086062001020090001","pcode":"CO08606","area_m2":8144}}]}},"arcs":[[[6628,5310],[138,-10]],[[6766,5300],[-24,-64]],[[6742,5236],[-44,-54]],[[6698,5182],[-91,48],[-51,17],[-134,35],[21,-42]],[[6443,5240],[-38,-45],[-91,-93],[-22,-28],[-76,67],[-10,-34]],[[6206,5107],[-17,5],[15,56],[49,168]],[[6253,5336],[62,-4],[12,14]],[[6327,5346],[59,-3],[94,-16],[148,-17]],[[6575,5003],[-16,29],[63,71],[76,79]],[[6742,5236],[55,-25],[32,-37],[49,-38]],[[6878,5136],[-36,-90],[-88,16],[-14,-65],[-29,-64],[-62,27],[-74,43]],[[6474,4694],[-37,-72],[-201,-2],[78,89]],[[6314,4709],[2,43],[121,5],[4,-64],[33,1]],[[6352,230],[-45,-78],[-49,-69],[-56,45],[-63,-102]],[[6139,26],[4,11],[-42,29],[37,27],[-83,54],[30,13],[-11,28],[36,5],[40,-28],[43,63],[10,42],[16,26]],[[6219,296],[29,7],[104,-73]],[[6545,4835],[-30,3],[-6,47],[-35,72]],[[6474,4957],[13,9],[-76,44],[2,10],[83,72],[22,14],[-75,134]],[[6575,5003],[12,-32],[-3,-57],[-39,-79]],[[6981,5409],[-47,-81]],[[6934,5328],[-27,-40],[-136,11]],[[6771,5299],[6,44],[48,145],[-32,10],[17,56]],[[6810,5554],[77,-7],[16,-23],[-7,-22],[11,-4],[-10,-33],[14,-15],[75,-27],[-5,-14]],[[7117,5259],[-7,7],[-176,62]],[[6981,5409],[137,-56],[19,-2],[-20,-92]],[[6253,5336],[39,128],[11,48],[22,34],[24,53],[14,-6],[32,55]],[[6395,5648],[89,29],[38,-106],[-6,-41],[-89,35],[-15,-39],[85,-37],[-34,-67],[-97,-8],[2,-25],[-39,-2],[-2,-41]],[[6701,5617],[-16,-85],[-41,-167],[-16,-55]],[[6395,5648],[39,67],[31,35],[21,-12],[6,-18],[27,-23],[14,24],[53,-21],[20,-1],[52,-18],[-11,-35],[36,-4],[18,-25]],[[6771,5299],[-5,1]],[[6701,5617],[34,-6],[23,-15],[-5,-33],[57,-9]],[[6474,4957],[-52,32],[-28,3],[-97,-34],[-35,-19],[-86,-71]],[[6176,4868],[-60,-47],[-25,19],[1,18],[77,127],[37,122]],[[6902,4986],[-23,-53],[-38,11],[-11,-39],[-23,7],[-9,-58],[17,-9],[-20,-57],[-19,1],[-136,73],[-37,-59],[-58,32]],[[6878,5136],[33,-14],[36,-7]],[[6947,5115],[-45,-129]],[[7117,5259],[-25,-42],[-46,18],[-20,-63],[5,-1],[-27,-66]],[[7004,5105],[-57,10]],[[7004,5105],[-12,-32],[-20,3],[-16,-60],[-20,17],[-19,-54],[-15,7]],[[6545,4835],[-71,-141]],[[6314,4709],[-49,88],[-28,18],[-61,53]],[[5097,9760],[-32,33],[36,39],[-20,19],[55,65],[-21,22]],[[5115,9938],[41,12],[16,12],[-6,20],[20,6],[6,-21],[59,32],[32,-27],[32,-18],[-40,-41],[-38,-16],[15,-25],[-21,-69],[-69,-16],[-17,6],[-25,-30],[-23,-3]],[[5097,9760],[-23,-24],[-80,-61],[-8,15],[-67,16],[5,55],[26,23],[41,23],[37,40],[9,-8],[55,63],[-10,9],[33,27]],[[985,8021],[-19,-10],[-33,-54],[1,-31],[40,-5],[3,-18],[-15,1],[-2,-18],[18,-7],[-3,-26],[25,-13],[-62,-40],[-48,35],[-8,-48],[-35,1],[-16,16],[14,53],[13,15],[-17,27],[-4,32],[34,-1],[2,-26],[14,-29],[2,88],[-20,0],[-4,26],[21,1],[1,-15],[33,-9],[41,68],[15,45],[9,-58]],[[823,7774],[-12,-27],[-14,-7],[-13,21],[39,13]],[[857,6967],[-33,-24],[27,-53],[-24,-10],[7,-16],[-21,-11],[38,-38],[42,-12],[70,-2],[-14,-28],[-22,10],[-43,-18],[-44,11],[-32,-41],[5,20],[-30,12],[-21,-33],[-10,1],[-7,-31],[13,-1],[-13,-41],[-29,22],[9,-23],[-15,-11],[-14,22],[26,25],[-14,6],[9,30],[-34,7],[-17,24],[25,14],[43,0],[20,47],[-27,22],[20,18],[-6,14],[22,11],[6,29],[38,41],[29,2],[26,39],[12,-7],[-17,-27]],[[9860,7433],[43,0],[4,-62],[-20,-20],[-23,1],[2,-26],[-17,-11],[-57,10],[-1,-10],[-36,4],[-2,-36],[15,0],[0,-18],[-62,9],[5,33],[-14,0],[2,48],[9,0],[8,82],[7,0]],[[9723,7437],[80,0],[57,-4]],[[9800,7233],[-12,-66],[23,-1],[16,-112]],[[9827,7054],[-3,-18],[-27,18],[0,12],[-143,8],[6,24],[93,7],[6,34],[20,-6],[4,16],[-79,3],[3,11],[26,-5],[13,31],[22,-6],[22,71],[10,-21]],[[9800,7233],[27,-8],[85,3],[1,-12],[52,5],[5,14],[29,-7],[-9,-33],[7,-37],[-52,-4],[-2,24],[-19,-1],[0,-44],[-25,-2],[1,-48],[-19,-12],[-54,-17]],[[9723,7437],[0,21],[-15,2],[-1,41],[-8,0],[-10,37],[-22,-12],[-12,26],[4,17],[22,13],[-40,54],[3,26],[19,6],[40,-32],[60,-19],[41,-25],[16,32],[2,-23],[15,4],[3,-36],[-2,-74],[20,1],[2,-63]],[[6352,230],[21,33],[71,-41],[35,47]],[[6479,269],[45,-50],[-29,-45],[-16,8],[-38,-62],[66,-34],[-8,-17],[-24,4],[-14,-11],[-16,9],[-27,-28],[-15,9],[-28,-31],[-16,16],[-16,-21],[-21,0],[-41,28],[-25,-39],[-23,18],[-12,-13],[-22,11],[-25,-21],[-35,26]],[[6219,296],[-31,30],[6,42],[-28,60],[0,39],[20,31],[93,-45],[20,-1],[1,-38],[17,-9],[36,31],[36,-13],[-15,-24],[22,-13],[8,12],[28,-2],[13,21],[23,-2],[45,-28],[17,16],[13,-24],[26,3],[-90,-113]],[[10,6945],[45,-2],[0,-44],[-22,-12],[3,13],[-31,7],[-3,49],[8,-11]]]}
