{"type":"Topology","bbox":[-75.07435560058889,10.864402349983624,-74.93271614776017,10.94788492108957],"transform":{"scale":[0.000014165361819053187,0.00000834909201979646],"translate":[-75.07435560058889,10.864402349983624]},"objects":{"municipios":{"type":"GeometryCollection","geometries":[{"type":"Polygon","arcs":[[0,1,2,3]],"properties":{"codigo":"08832100000000000203","sector":"088321000000000002","pcode":"CO08832","area_m2":48067}},{"type":"Polygon","arcs":[[4,5,6,7,8]],"properties":{"codigo":"08832100000000000101","sector":"088321000000000001","pcode":"CO08832","area_m2":167899}},{"type":"Polygon","arcs":[[9,10,-6,11]],"properties":{"codigo":"08832100000000000102","sector":"088321000000000001","pcode":"CO08832","area_m2":52048}},{"type":"Polygon","arcs":[[12,13,14,-10]],"properties":{"codigo":"08832100000000000103","sector":"088321000000000001","pcode":"CO08832","area_m2":32753}},{"type":"Polygon","arcs":[[-15,15,16,-7,-11]],"properties":{"codigo":"08832100000000000104","sector":"088321000000000001","pcode":"CO08832","area_m2":26145}},{"type":"Polygon","arcs":[[-16,-14,17,18,19,20]],"properties":{"codigo":"08832100000000000107","sector":"088321000000000001","pcode":"CO08832","area_m2":30307}},{"type":"Polygon","arcs":[[21,-4,22,23,24,-18,-13,-12,-5,25]],"properties":{"codigo":"08832100000000000201","sector":"088321000000000002","pcode":"CO08832","area_m2":107025}},{"type":"Polygon","arcs":[[26,-23,-3]],"properties":{"codigo":"08832100000000000204","sector":"088321000000000002","pcode":"CO08832","area_m2":28646}},{"type":"Polygon","arcs":[[27,28,29,30]],"properties":{"codigo":"08832200204010000103","sector":"088322002040100001","pcode":"CO08832","area_m2":257751}},{"type":"Polygon","arcs":[[-17,-21,31,32,-8]],"properties":{"codigo":"08832100000000000105","sector":"088321000000000001","pcode":"CO08832","area_m2":56023}},{"type":"Polygon","arcs":[[-20,33,34,-32]],"properties":{"codigo":"08832100000000000106","sector":"088321000000000001","pcode":"CO08832","area_m2":78293}},{"type":"Polygon","arcs":[[35,-1,-22,36]],"properties":{"codigo":"08832100000000000202","sector":"088321000000000002","pcode":"CO08832","area_m2":71754}},{"type":"Polygon","arcs":[[-36,37,38,-24,-27,-2]],"properties":{"codigo":"08832100000000000205","sector":"088321000000000002","pcode":"CO08832","area_m2":72454}},{"type":"Polygon","arcs":[[-39,39,-34,-19,-25]],"properties":{"codigo":"08832100000000000206","sector":"088321000000000002","pcode":"CO08832","area_m2":235198}},{"type":"Polygon","arcs":[[40]],"properties":{"codigo":"08832200102001000101","sector":"088322001020010001","pcode":"CO08832","area_m2":85769}},{"type":"Polygon","arcs":[[41]],"properties":{"codigo":"08832200202002000101","sector":"088322002020020001","pcode":"CO08832","area_m2":554553}},{"type":"Polygon","arcs":[[42]],"properties":{"codigo":"08832200204007000101","sector":"088322002040070001","pcode":"CO08832","area_m2":80893}},{"type":"Polygon","arcs":[[43,44,-29]],"properties":{"codigo":"08832200204010000102","sector":"088322002040100001","pcode":"CO08832","area_m2":291069}},{"type":"Polygon","arcs":[[45,46]],"properties":{"codigo":"08832200103003000101","sector":"088322001030030001","pcode":"CO08832","area_m2":216239}},{"type":"Polygon","arcs":[[-46,47]],"properties":{"codigo":"08832200103003000102","sector":"088322001030030001","pcode":"CO08832","area_m2":103096}},{"type":"Polygon","arcs":[[48,-30,-45,49]],"properties":{"codigo":"08832200204010000101","sector":"088322002040100001","pcode":"CO08832","area_m2":166731}},{"type":"Polygon","arcs":[[-31,-49,50]],"properties":{"codigo":"08832200204010000104","sector":"088322002040100001","pcode":"CO08832","area_m2":181097}},{"type":"Polygon","arcs":[[51,52]],"properties":{"codigo":"08832200205011000101","sector":"088322002050110001","pcode":"CO08832","area_m2":185945}},{"type":"Polygon","arcs":[[-53,53]],"properties":{"codigo":"08832200205011000102","sector":"088322002050110001","pcode":"CO08832","area_m2":92798}},{"type":"Polygon","arcs":[[54,55]],"properties":{"codigo":"08832200205012000101","sector":"088322002050120001","pcode":"CO08832","area_m2":420920}},{"type":"Polygon","arcs":[[-55,56]],"properties":{"codigo":"08832200205012000103","sector":"088322002050120001","pcode":"CO08832","area_m2":314846}},{"type":"Polygon","arcs":[[57]],"properties":{"codigo":"08832200205013000101","sector":"088322002050130001","pcode":"CO08832","area_m2":40218}},{"type":"MultiPolygon","arcs":[[[58]],[[59]],[[60]]],"properties":{"codigo":"08832200203004000101","sector":"088322002030040001","pcode":"CO08832","area_m2":315305}}]}},"arcs":[[[6912,1310],[24,-31],[72,-45],[38,-113],[-5,-91],[10,-95]],[[7051,935],[-87,77]],[[6964,1012],[-17,22],[-10,97],[-64,71]],[[6873,1202],[39,108]],[[6694,1840],[25,-69]],[[6719,1771],[26,-117],[-3,-154],[-7,-13]],[[6735,1487],[-36,-48],[7,-30],[-44,-50]],[[6662,1359],[-59,-35],[-66,56],[-5,-25],[-86,26]],[[6446,1381],[19,54],[-71,29],[13,105],[32,25],[39,-3],[26,20],[40,94],[43,7],[-37,47],[-30,71],[16,69],[21,17],[41,-83],[5,-48],[41,6],[25,49],[25,0]],[[6870,1382],[-51,50],[-30,-88],[-49,55]],[[6740,1399],[8,40],[-13,48]],[[6719,1771],[71,-33],[60,-93],[-17,-69],[1,-63],[40,-66],[-4,-65]],[[6870,1382],[-15,-70],[-60,-84],[-23,-58],[3,-32]],[[6775,1138],[-55,39]],[[6720,1177],[-2,38],[20,97],[2,87]],[[6720,1177],[-23,-49],[-22,16]],[[6675,1144],[7,39],[-23,15],[3,161]],[[6775,1138],[-16,-133]],[[6759,1005],[-68,-64]],[[6691,941],[-43,56],[7,102]],[[6655,1099],[-12,73],[32,-28]],[[6999,1489],[-8,-97],[-37,59],[-42,-141]],[[6873,1202],[-49,-65],[19,-60],[-29,-82]],[[6814,995],[-11,-13]],[[6803,982],[-44,23]],[[6694,1840],[11,13],[85,-52],[37,15],[54,-119],[78,-95],[46,-82],[-6,-31]],[[6964,1012],[-27,-25],[-22,12],[-39,-33],[-44,46],[-18,-17]],[[3020,4633],[-209,-333]],[[2811,4300],[-38,16],[-64,-27],[-17,-41],[-191,249]],[[2501,4497],[34,89]],[[2535,4586],[37,58],[83,177],[40,32],[37,-25],[62,34],[167,-200],[59,-29]],[[6655,1099],[-74,101],[-27,94],[-26,-26],[-10,-101]],[[6518,1167],[-13,-68],[-32,33],[-12,119],[-32,-1],[17,131]],[[6691,941],[-17,-61],[3,-66],[-44,-96],[2,-76]],[[6635,642],[-35,24],[-17,-49],[-83,52],[12,49],[-35,29],[-16,92],[60,-29],[6,-30],[67,-35],[21,4],[-41,100],[40,1],[-5,128],[-19,8],[-11,75],[-43,112],[-18,-6]],[[7055,915],[-4,20]],[[6999,1489],[34,-63],[50,-127],[8,-51],[57,-95],[48,-113],[-44,-91],[-39,104],[-28,144],[-37,31],[24,-163],[18,-70],[-35,-80]],[[7055,915],[40,-58],[17,-114],[-19,-29],[23,-114],[-56,-25],[-21,7],[38,40],[-11,73],[-48,-1],[-5,63],[-12,-40],[-43,20],[79,95],[-8,52],[-50,43],[-8,-71],[-43,-59],[-38,-16]],[[6890,781],[-21,138],[-26,-24],[-48,21],[8,66]],[[6890,781],[-94,10],[-14,-53],[59,-54],[-41,-95],[-21,-75],[-3,-107],[-10,-38],[27,-56],[-24,-58],[-31,17],[0,-53],[-61,-61],[-36,-22],[-51,-61],[-41,-10],[-14,-65],[-52,55],[88,223],[20,92],[-29,21],[5,50],[35,82],[15,-5],[18,124]],[[9372,7049],[-36,-13],[-13,-98],[70,-44],[6,35],[63,-36],[-2,-80],[51,-22],[-11,-44],[-142,74],[-62,58],[-23,-61],[-60,89],[-32,-47],[-51,15],[-11,21],[25,74],[-54,4],[19,40],[31,4],[50,68],[104,-19],[9,-18],[89,46],[7,-38],[-27,-8]],[[5079,9956],[38,-55],[17,47],[44,-62],[57,-54],[-13,-49],[12,-92],[-45,50],[-75,-135],[-10,0],[-66,-107],[4,-67],[-97,-144],[-16,-70],[32,-51],[22,5],[0,-61],[-53,-9],[-10,-42],[-127,66],[-68,-51],[-46,-59],[-129,-40],[-35,-47],[-11,-42],[-35,-51],[-20,46],[-41,30],[3,92],[-70,127],[15,34],[-9,89],[41,31],[-8,45],[259,100],[54,26],[67,49],[64,90],[65,150],[85,214],[22,-14],[19,44],[50,0],[14,-33]],[[5199,3777],[-44,-117],[-15,33],[-22,-59],[2,-116],[-15,-47],[2,-87],[-54,-19],[-34,51],[-72,139],[-19,84],[149,94],[1,34],[50,-29],[24,43],[24,-12],[33,67],[20,89],[13,-46],[-43,-102]],[[2811,4300],[-81,-138],[-181,-364],[-68,-115],[-58,-78],[5,77],[25,49],[5,51],[-31,75],[-14,126],[-13,-6],[-40,-142],[-39,18],[-24,-29],[3,-85],[-49,11],[-7,148],[29,97]],[[2273,3995],[12,-14],[66,165],[150,351]],[[9493,683],[13,73],[-20,48],[-34,37],[54,93],[-7,221]],[[9499,1155],[-13,77],[22,20],[24,-66],[40,27],[-14,50],[10,31],[-22,48],[30,38],[-44,78],[0,47],[39,-20],[13,24],[90,-97],[40,39],[-29,17],[27,18],[-13,103],[31,14],[20,-94],[44,48],[3,42],[-23,28],[38,56],[21,-25],[33,13],[21,49],[31,-26],[7,-42],[65,165],[5,-91],[-35,-154],[-24,-22],[-84,-3],[40,-40],[-25,-21],[5,-52],[-38,-118],[-70,73],[-10,-31],[-24,24],[-42,-57],[-2,-54],[-22,-68],[106,-111],[-10,-27],[-36,54],[-42,-115],[-99,118],[-56,-73],[28,-82],[2,-44],[31,40],[39,-60],[-38,-70],[-18,36],[-45,-81],[41,-45],[-30,-16],[-22,-67],[-22,23]],[[9493,683],[-33,-36],[-25,27],[34,68],[-43,57],[22,44],[-84,160],[-9,-18],[-58,73],[-33,-4],[4,48],[-67,32],[-43,36],[24,38],[34,-6],[22,51],[55,-22],[18,17],[12,-47],[122,-51],[54,5]],[[2478,4725],[-2,-42],[59,-97]],[[2273,3995],[4,72],[-30,55],[17,94],[-58,40],[7,85],[37,118],[40,63],[11,47],[56,65],[41,28],[-39,80],[96,19],[23,-36]],[[2478,4725],[25,-7],[90,115],[16,49],[27,9],[7,48],[26,43],[44,-18],[32,96],[69,144],[67,-82],[-23,-64],[12,-63],[22,-8],[88,-101],[81,-17],[49,-80],[-90,-156]],[[479,2504],[-32,-58],[-99,-212],[-63,70],[-68,113],[-100,105],[-57,71],[-41,34],[-19,54],[177,8],[113,30],[157,52]],[[447,2771],[-3,-71],[35,-196]],[[447,2771],[45,7],[114,59],[11,35],[55,0],[37,-187],[65,32],[-10,58],[31,16],[6,-30],[46,63],[9,-87],[-91,-55],[-148,-57],[-71,-42],[-67,-79]],[[1638,3168],[-299,-147],[8,-49]],[[1347,2972],[-32,-50],[-35,-113],[16,-8],[-6,-88],[-56,75],[-22,-1],[47,114],[-18,72],[-199,-98],[4,155],[56,135],[28,4],[45,-37],[40,-2],[9,72],[-18,103],[220,110],[215,103],[-6,73],[161,122],[15,-84],[82,-293],[-98,-86],[-157,-82]],[[1638,3168],[14,-76],[-6,-44],[48,13],[53,-14],[-32,-203],[31,-23],[-3,-68],[-36,-67],[-30,-156],[-58,45],[-1,-41],[-35,10],[-7,-69],[-78,-237],[-36,55],[16,57],[-42,37],[25,75],[-129,120],[85,263],[-21,20],[3,79],[-52,28]],[[2069,3250],[39,-57],[-4,-52],[-52,-27],[-74,-9],[-59,-25],[-8,76],[-59,26],[0,43],[217,25]],[[6062,7497],[-2,-29],[45,14],[16,-53],[-42,-35],[-52,8],[-37,29],[5,51],[33,-17],[6,38],[28,-6]],[[6366,7993],[-2,-41],[30,12],[-1,-47],[-24,-4],[5,-39],[27,-21],[14,-76],[-27,-25],[46,-36],[-52,-63],[-22,-58],[-31,-1],[-25,-92],[-28,16],[-58,-25],[3,72],[36,9],[18,102],[-41,21],[53,177],[40,58],[1,55],[38,6]],[[6281,8403],[26,0],[-5,-75],[1,-202],[-20,-55],[-125,-13],[-234,-6],[-69,-29],[-57,-42],[-34,93],[36,214],[19,76],[70,-54],[46,-16],[8,17],[71,19],[43,27],[75,9],[65,38],[84,-1]]]}
