{"type":"Topology","bbox":[-74.91548131210595,10.436924189763047,-74.87254516071954,10.520335444460052],"transform":{"scale":[0.000004294044543095681,0.000008341959665667039],"translate":[-74.91548131210595,10.436924189763047]},"objects":{"municipios":{"type":"GeometryCollection","geometries":[{"type":"Polygon","arcs":[[0,1,2,3,4]],"properties":{"codigo":"08141100000000000201","sector":"081411000000000002","pcode":"CO08141","area_m2":83383}},{"type":"Polygon","arcs":[[5,-1,6,7,8]],"properties":{"codigo":"08141100000000000104","sector":"081411000000000001","pcode":"CO08141","area_m2":84455}},{"type":"Polygon","arcs":[[9,10]],"properties":{"codigo":"08141100000000000109","sector":"081411000000000001","pcode":"CO08141","area_m2":23223}},{"type":"Polygon","arcs":[[11,12,13]],"properties":{"codigo":"08141100000000000204","sector":"081411000000000002","pcode":"CO08141","area_m2":77041}},{"type":"Polygon","arcs":[[14,-12,15,16]],"properties":{"codigo":"08141100000000000205","sector":"081411000000000002","pcode":"CO08141","area_m2":103568}},{"type":"Polygon","arcs":[[17,18,19,20]],"properties":{"codigo":"08141100000000000101","sector":"081411000000000001","pcode":"CO08141","area_m2":99072}},{"type":"Polygon","arcs":[[21,22,23,24,-18,25]],"properties":{"codigo":"08141100000000000102","sector":"081411000000000001","pcode":"CO08141","area_m2":151060}},{"type":"Polygon","arcs":[[26,-8,27,-22,28]],"properties":{"codigo":"08141100000000000103","sector":"081411000000000001","pcode":"CO08141","area_m2":73481}},{"type":"Polygon","arcs":[[-28,-7,-5,29,-23]],"properties":{"codigo":"08141100000000000105","sector":"081411000000000001","pcode":"CO08141","area_m2":110680}},{"type":"Polygon","arcs":[[30,-9,-27,31]],"properties":{"codigo":"08141100000000000106","sector":"081411000000000001","pcode":"CO08141","area_m2":89399}},{"type":"Polygon","arcs":[[-20,32,33,-10,34]],"properties":{"codigo":"08141100000000000107","sector":"081411000000000001","pcode":"CO08141","area_m2":186605}},{"type":"Polygon","arcs":[[-25,35,-33,-19]],"properties":{"codigo":"08141100000000000108","sector":"081411000000000001","pcode":"CO08141","area_m2":25918}},{"type":"Polygon","arcs":[[-17,36,-2,-6,-31,37]],"properties":{"codigo":"08141100000000000202","sector":"081411000000000002","pcode":"CO08141","area_m2":162812}},{"type":"Polygon","arcs":[[-14,38,-3,-37,-16]],"properties":{"codigo":"08141100000000000203","sector":"081411000000000002","pcode":"CO08141","area_m2":53761}},{"type":"Polygon","arcs":[[39,40]],"properties":{"codigo":"08141200104001000101","sector":"081412001040010001","pcode":"CO08141","area_m2":108116}},{"type":"Polygon","arcs":[[41,-40]],"properties":{"codigo":"08141200104001000102","sector":"081412001040010001","pcode":"CO08141","area_m2":114099}},{"type":"Polygon","arcs":[[42,43,44,45]],"properties":{"codigo":"08141200102002000101","sector":"081412001020020001","pcode":"CO08141","area_m2":99858}},{"type":"Polygon","arcs":[[-46,46]],"properties":{"codigo":"08141200102002000102","sector":"081412001020020001","pcode":"CO08141","area_m2":94222}},{"type":"Polygon","arcs":[[47,-44]],"properties":{"codigo":"08141200102002000103","sector":"081412001020020001","pcode":"CO08141","area_m2":76302}}]}},"arcs":[[[8070,2672],[160,-40],[121,-17]],[[8351,2615],[-120,-227]],[[8231,2388],[-104,11],[-180,54],[-336,111],[-302,95]],[[7309,2659],[52,44],[63,-15],[-26,-22],[73,-21],[159,148]],[[7630,2793],[70,-23],[370,-98]],[[9001,2645],[-148,18],[-441,70],[-61,-118]],[[8070,2672],[353,293]],[[8423,2965],[112,-34],[255,-47],[311,-45]],[[9101,2839],[-100,-194]],[[8925,4498],[-459,1]],[[8466,4499],[1,112],[10,5],[444,0],[4,-118]],[[8135,2299],[-42,-63],[-65,-133],[-175,35]],[[7853,2138],[-18,38],[8,34],[-26,-1],[-20,105],[-89,11],[-50,24],[-77,7],[-41,-48],[-129,25],[18,17],[-31,22],[-78,26],[-32,-31],[-84,19],[-68,-12],[-18,15],[-76,-17],[-87,-3],[-62,7],[27,55],[91,83],[150,-6],[19,41]],[[7180,2549],[234,-56],[492,-113],[172,-45],[-10,-20],[67,-16]],[[8567,1848],[-109,-57],[-249,-102],[-201,39],[-12,-44],[-117,-63],[-68,35],[64,45],[24,142],[-104,7],[7,114],[12,-1],[43,167],[-4,8]],[[8135,2299],[145,-18],[15,23]],[[8295,2304],[55,-7],[-37,-71],[-110,10],[-43,-165],[-17,-41],[113,-59],[311,-123]],[[8486,3522],[10,-64],[111,3],[0,-22],[-179,-3],[24,-186],[-250,77],[-207,-5],[-22,22],[-188,-1],[1,-36],[-86,6]],[[7700,3313],[-65,22],[-6,31],[41,19],[5,36],[60,0],[23,41],[34,0],[26,91],[54,1],[-5,86]],[[7867,3640],[368,9],[167,7]],[[8402,3656],[11,-84],[65,0],[8,-50]],[[8796,3246],[-35,3],[-236,-196]],[[8525,3053],[-263,80],[-106,-88],[-221,67],[-153,43],[-18,-18]],[[7764,3137],[-294,49],[-9,6],[42,136]],[[7503,3328],[197,-15]],[[8486,3522],[202,7],[258,-20],[-10,-96],[-41,-53],[-50,-87],[-49,-27]],[[9196,2972],[-95,-133]],[[8423,2965],[102,88]],[[8796,3246],[63,-21],[-19,-20],[96,-28],[61,-10],[-24,-33],[37,-9],[-23,-45],[63,-11],[-21,-37],[63,-13],[21,-30],[83,-17]],[[7630,2793],[51,38],[17,45],[27,25],[-96,33],[69,67],[-38,10],[20,36],[84,90]],[[8953,2562],[48,83]],[[9196,2972],[38,103],[32,46],[41,33],[74,-7],[13,28],[78,16],[304,54],[219,-126],[-188,-103],[-92,-84],[-54,-2],[-100,11],[-113,-12],[-127,-28],[-98,-36],[-48,-5],[-19,-33],[41,-7],[-69,-140],[-44,6],[-75,-132],[-56,8]],[[7867,3640],[-158,-3]],[[7709,3637],[134,83],[81,69],[23,54],[-62,92],[198,-7],[-6,36],[25,14],[129,4],[45,29],[80,-9],[-13,118],[22,377],[101,2]],[[8925,4498],[-2,-25],[92,-10],[4,-81],[-28,-19],[149,0],[0,-65],[-240,-2],[-126,-10],[-13,-194],[-41,0],[23,-97],[-379,-32],[38,-307]],[[7503,3328],[59,24],[36,49],[-23,53],[-72,56],[206,127]],[[8295,2304],[45,73],[-109,11]],[[8953,2562],[10,-43],[39,-28],[104,-39],[-55,-37],[-71,14],[-36,-23],[67,-8],[-19,-21],[-71,8],[-15,-25],[-105,27],[-57,-103],[-38,7],[-89,-85],[4,-27],[-43,-85],[54,-6],[-16,-43],[-185,37],[-41,-58],[-50,5],[-8,-20],[42,-18],[202,-118],[-9,-25]],[[7180,2549],[39,47],[-24,7],[11,47],[-38,35],[-115,4],[-3,12],[86,1],[70,-11],[103,-32]],[[1191,256],[-469,53],[-499,52],[-139,22],[-49,-1]],[[35,382],[-35,79],[34,39],[-16,5],[103,64],[54,24],[-10,29],[60,20],[-30,27],[68,9],[90,-70],[14,6],[107,-76],[20,33],[55,-8],[20,42],[163,-26],[70,-28],[-11,-23],[270,-89],[-39,-73],[15,-37],[100,-15],[9,-17],[51,-7],[-6,-34]],[[1191,256],[104,-17],[-9,-37],[-107,15],[-60,-41],[78,-33],[-69,-38],[-5,-24],[-58,7],[-86,-11],[-38,-21],[7,-41],[-114,-6],[-4,38],[-129,42],[8,14],[-106,1],[-3,-15],[-117,15],[-79,-104],[-234,49],[75,90],[9,39],[-133,50],[0,49],[-37,1],[-29,30],[-20,74]],[[8645,9175],[-65,22],[15,44],[-67,6],[23,56],[-84,9],[-90,22],[6,36],[-122,18],[7,22],[-70,5],[22,48],[-41,9],[-3,45],[-28,109],[36,27]],[[8184,9653],[394,-102],[32,-5],[168,197],[85,-24],[51,63],[15,-3],[132,151]],[[9061,9930],[97,-31]],[[9158,9899],[-49,-54],[-148,-199],[-92,-80],[-92,-115],[-117,-223],[-15,-53]],[[9158,9899],[149,-71],[69,46],[54,57],[199,-39],[60,-16],[-57,-63],[62,-17],[-27,-17],[-88,-23],[-119,-21],[-55,-1],[-83,17],[-123,-53],[-32,-26],[-77,-121],[-105,-201],[-14,-49],[-109,-113],[-104,11],[-8,-47],[-92,8],[-13,15]],[[8184,9653],[-134,39],[25,25],[54,-11],[16,19],[114,-26],[36,44],[118,-4],[54,85],[-37,7],[11,33],[107,-16],[23,28],[92,-20],[73,84],[-125,43],[18,16],[314,-53],[118,-16]]]}
