{"type":"Topology","bbox":[-75.20689374869386,10.795813545543258,-75.00990299335365,10.886839621054326],"transform":{"scale":[0.000019701045638584806,0.000009103517902897167],"translate":[-75.20689374869386,10.795813545543258]},"objects":{"municipios":{"type":"GeometryCollection","geometries":[{"type":"Polygon","arcs":[[0,1,2,3]],"properties":{"codigo":"08372100000000000204","sector":"083721000000000002","pcode":"CO08372","area_m2":180056}},{"type":"Polygon","arcs":[[4,5]],"properties":{"codigo":"08372100000000000304","sector":"083721000000000003","pcode":"CO08372","area_m2":68998}},{"type":"Polygon","arcs":[[6]],"properties":{"codigo":"08372200104001000101","sector":"083722001040010001","pcode":"CO08372","area_m2":110574}},{"type":"Polygon","arcs":[[7]],"properties":{"codigo":"08372200103007000101","sector":"083722001030070001","pcode":"CO08372","area_m2":103926}},{"type":"Polygon","arcs":[[8,9,10]],"properties":{"codigo":"08372100000000000101","sector":"083721000000000001","pcode":"CO08372","area_m2":153579}},{"type":"Polygon","arcs":[[11,12,-10,13,14]],"properties":{"codigo":"08372100000000000102","sector":"083721000000000001","pcode":"CO08372","area_m2":116380}},{"type":"Polygon","arcs":[[15,-14,-9,16]],"properties":{"codigo":"08372100000000000103","sector":"083721000000000001","pcode":"CO08372","area_m2":81910}},{"type":"Polygon","arcs":[[-12,17,18,19]],"properties":{"codigo":"08372100000000000201","sector":"083721000000000002","pcode":"CO08372","area_m2":229774}},{"type":"Polygon","arcs":[[-19,20,-4,21,22]],"properties":{"codigo":"08372100000000000202","sector":"083721000000000002","pcode":"CO08372","area_m2":302978}},{"type":"Polygon","arcs":[[-16,23,-1,-21,-18,-15]],"properties":{"codigo":"08372100000000000203","sector":"083721000000000002","pcode":"CO08372","area_m2":145073}},{"type":"Polygon","arcs":[[24,25]],"properties":{"codigo":"08372100000000000301","sector":"083721000000000003","pcode":"CO08372","area_m2":281899}},{"type":"Polygon","arcs":[[26,-22,-3,27,28,-25]],"properties":{"codigo":"08372100000000000302","sector":"083721000000000003","pcode":"CO08372","area_m2":630982}},{"type":"Polygon","arcs":[[29,-5,30,-29]],"properties":{"codigo":"08372100000000000303","sector":"083721000000000003","pcode":"CO08372","area_m2":128843}},{"type":"Polygon","arcs":[[31,32]],"properties":{"codigo":"08372200108002000101","sector":"083722001080020001","pcode":"CO08372","area_m2":88280}},{"type":"Polygon","arcs":[[-33,33]],"properties":{"codigo":"08372200108002000102","sector":"083722001080020001","pcode":"CO08372","area_m2":61963}},{"type":"Polygon","arcs":[[34,35,36]],"properties":{"codigo":"08372200105003000101","sector":"083722001050030001","pcode":"CO08372","area_m2":97913}},{"type":"Polygon","arcs":[[37,-36,38]],"properties":{"codigo":"08372200105003000102","sector":"083722001050030001","pcode":"CO08372","area_m2":120364}},{"type":"Polygon","arcs":[[-39,-35,39]],"properties":{"codigo":"08372200105003000103","sector":"083722001050030001","pcode":"CO08372","area_m2":224989}},{"type":"Polygon","arcs":[[40,41,42]],"properties":{"codigo":"08372200102004000203","sector":"083722001020040002","pcode":"CO08372","area_m2":147949}},{"type":"Polygon","arcs":[[43,44,45,46]],"properties":{"codigo":"08372200102004000101","sector":"083722001020040001","pcode":"CO08372","area_m2":682265}},{"type":"Polygon","arcs":[[-46,47,48]],"properties":{"codigo":"08372200102004000102","sector":"083722001020040001","pcode":"CO08372","area_m2":139148}},{"type":"Polygon","arcs":[[-45,49,50,51,52,-48]],"properties":{"codigo":"08372200102004000103","sector":"083722001020040001","pcode":"CO08372","area_m2":126950}},{"type":"Polygon","arcs":[[53,-51,54,55]],"properties":{"codigo":"08372200102004000104","sector":"083722001020040001","pcode":"CO08372","area_m2":160888}},{"type":"Polygon","arcs":[[-55,-50,-44,56]],"properties":{"codigo":"08372200102004000105","sector":"083722001020040001","pcode":"CO08372","area_m2":185924}},{"type":"Polygon","arcs":[[-54,57,58,-43,59,-52]],"properties":{"codigo":"08372200102004000204","sector":"083722001020040002","pcode":"CO08372","area_m2":259700}},{"type":"Polygon","arcs":[[-41,-59,60]],"properties":{"codigo":"08372200102004000205","sector":"083722001020040002","pcode":"CO08372","area_m2":664756}}]}},"arcs":[[[8675,3292],[42,-74]],[[8717,3218],[-6,-80],[-17,-45],[-17,5],[-33,62],[-67,16],[-14,101],[-48,71],[-13,-2],[-35,53],[-23,-31],[-10,32],[-15,-18],[-11,26],[-25,-4],[-27,37],[-35,-4],[-11,29],[-18,2],[-14,60],[-3,78],[-12,19],[-7,101]],[[8256,3726],[48,-51]],[[8304,3675],[22,-27],[36,-71],[62,-60],[35,10],[65,50],[23,-56],[128,-229]],[[7902,4741],[14,-72],[-90,-94],[-20,-48],[-11,-69]],[[7795,4458],[-82,275],[28,42],[77,-9],[58,-30],[26,5]],[[79,2378],[20,28],[30,6],[62,-28],[-21,-70],[-16,-133],[15,-11],[-10,-67],[-16,-17],[-3,-34],[-30,-37],[-34,13],[-23,-8],[-13,22],[-3,104],[-8,60],[13,42],[-31,20],[15,48],[-26,16],[26,83],[53,-37]],[[5000,7553],[28,-32],[-30,-54],[-3,-72],[11,-52],[10,6],[1,-64],[22,-130],[-17,-33],[-33,75],[-22,26],[-22,-12],[-35,11],[-22,29],[-1,36],[-20,60],[-21,87],[24,37],[20,7],[22,73],[47,10],[41,-8]],[[9035,3709],[-82,-20],[-47,-21]],[[8906,3668],[-1,78],[-9,97],[-8,150],[-15,164]],[[8873,4157],[41,18],[49,-43],[70,-39],[14,-29],[13,-89],[-4,-154],[-21,-112]],[[8806,3554],[-7,233],[-2,169],[-9,103]],[[8788,4059],[16,7],[37,67],[32,24]],[[8906,3668],[-2,-99]],[[8904,3569],[-98,-15]],[[8905,3374],[-1,195]],[[9035,3709],[-11,-113],[-13,-4],[8,-65],[-32,-10],[12,-14],[-2,-76],[-11,1],[-5,-64],[-19,-75],[38,-37],[-23,-41],[-24,69],[-10,-12],[-10,84],[-28,22]],[[8806,3554],[-118,-18]],[[8688,3536],[-8,51],[-52,-18],[-8,67],[-11,-5],[-10,72],[-33,20],[-12,51],[-39,-31],[-3,25],[17,13],[3,40],[64,92],[21,48],[6,93]],[[8623,4054],[99,10],[66,-5]],[[8688,3536],[7,-60],[3,-91],[-23,-93]],[[8304,3675],[9,71],[34,126],[6,0],[5,-74],[40,-28],[17,57],[19,-5],[22,-49],[23,7],[10,40],[-19,109],[-34,58],[-44,91],[-14,154]],[[8378,4232],[102,-114],[96,-49],[47,-15]],[[8905,3374],[-41,-18],[5,-45],[-39,-24],[-3,-57],[-23,-3],[-1,-43],[-29,-72],[-57,106]],[[8276,4562],[4,-17],[-90,-86],[-26,14],[-33,174],[14,138],[-16,11],[-13,-103],[-27,-166],[-50,71],[-69,62],[-17,24]],[[7953,4684],[42,272],[55,29],[28,26],[125,187],[14,-10],[25,-121],[3,-41],[-21,-146],[3,-121],[13,-83],[36,-114]],[[8276,4562],[6,81],[73,10],[-6,-43],[15,-34],[20,-77],[-34,-51],[9,-38],[-27,-27],[-29,63],[-2,-37],[-16,-24],[1,-44],[60,-46],[32,-63]],[[8256,3726],[-63,72],[-17,59],[-9,70],[20,225],[-28,21],[-49,-21],[-29,-62],[-47,26],[-26,-11],[-32,-55],[-12,6],[-14,53],[-24,-33],[-6,30],[9,61],[-40,-13]],[[7889,4154],[-7,65],[78,39],[5,9],[-31,317],[16,6],[-6,64],[9,30]],[[7889,4154],[-31,-17],[-2,112],[-11,66],[-54,98],[4,45]],[[7902,4741],[-1,112],[6,2],[31,-138],[15,-33]],[[9994,321],[-5,-35],[-19,-29],[-36,20],[-9,-60],[4,-64],[-22,-45],[0,27],[-25,23],[-6,-61],[-15,5],[-7,-71],[-15,-28],[-16,11],[2,113],[-12,38],[10,119],[-19,-3],[1,87],[7,43],[-17,23],[30,-1],[0,-25],[29,8],[24,26],[14,37]],[[9892,479],[5,-45],[-8,-42],[22,-43],[28,-19],[55,-9]],[[9892,479],[1,56],[23,94],[-9,102],[18,5],[11,-81],[31,11],[-4,-127],[27,-56],[9,-84],[-5,-78]],[[6100,1441],[-18,-50],[-12,-70],[3,-59],[44,-49],[21,-88],[3,-84],[18,-99],[-10,-34]],[[6149,908],[-87,-93],[-10,-45]],[[6052,770],[-24,12],[19,126],[-9,19],[15,292],[12,9],[-10,80],[0,130],[-26,7],[-8,50],[33,-11],[46,-43]],[[6270,822],[-36,-60],[-20,-59],[37,-4],[32,-86],[-17,-9],[-53,5],[-25,18],[-9,-71],[-10,-24],[-38,-16],[-15,7],[-56,80],[-15,59],[7,108]],[[6149,908],[9,-68],[30,-14],[5,-19],[77,44],[0,-29]],[[6100,1441],[70,-69],[42,-65],[-6,-64],[14,-5],[-3,-150],[16,7],[-10,-100],[22,-1],[6,105],[16,12],[70,-3],[51,-47],[3,-40],[-10,-48],[8,-34],[19,-15],[-10,-75],[-25,-9],[7,-27],[-6,-71],[9,-26],[-19,-14],[-58,77],[-23,41],[-13,2]],[[5975,8300],[-27,23],[-98,161],[-24,85],[-17,-7],[-14,97]],[[5795,8659],[172,130]],[[5967,8789],[18,-108],[11,11],[59,-171],[-23,-60],[-57,-113],[0,-48]],[[6577,9001],[-146,567],[-7,20]],[[6424,9588],[43,77]],[[6467,9665],[59,111],[29,34],[54,-1],[7,70],[8,-1],[4,112]],[[6628,9990],[38,9],[61,-6],[14,-49],[30,-31],[41,-66],[71,-96],[49,-104],[46,-64],[-98,-262],[-46,-76],[-59,-62],[-80,-70],[-118,-112]],[[6467,9665],[-25,66],[-37,-77],[-44,97],[-31,-115],[-8,-5]],[[6322,9631],[-3,69],[23,99],[14,105],[29,54],[38,0],[57,19],[34,-7],[58,12],[27,-7],[29,15]],[[6424,9588],[-29,-59],[-74,-134],[23,-95]],[[6344,9300],[-92,-300]],[[6252,9000],[-15,27],[-14,-9],[-23,28]],[[6200,9046],[15,51],[-4,18],[31,71],[20,80],[8,76],[-5,141],[6,43],[33,49],[18,56]],[[6272,8667],[-77,217],[1,14],[56,102]],[[6344,9300],[104,-414]],[[6448,8886],[-92,-88],[-58,-84],[-26,-47]],[[6577,9001],[-129,-115]],[[6272,8667],[-69,-118],[-71,-132],[-60,-99],[-58,-104]],[[6014,8214],[-38,66],[-1,20]],[[5967,8789],[51,35],[25,27],[27,9],[51,48],[54,68],[25,70]],[[6014,8214],[-40,-77],[-53,-81],[-157,-227],[-85,93],[2,7],[-167,182],[-28,68],[-34,55],[-22,17],[-9,87],[-23,72],[-36,55],[26,54],[39,28],[67,22],[42,25],[67,9],[22,25],[38,-13],[40,13],[28,26],[64,5]]]}
