{"type":"Topology","bbox":[-75.22482081497958,10.56602245143957,-75.10043195516613,10.678090008993584],"transform":{"scale":[0.000012440129994344473,0.000011207876543055637],"translate":[-75.22482081497958,10.56602245143957]},"objects":{"municipios":{"type":"GeometryCollection","geometries":[{"type":"Polygon","arcs":[[0,1,2]],"properties":{"codigo":"08421200203001000101","sector":"084212002030010001","pcode":"CO08421","area_m2":155106}},{"type":"Polygon","arcs":[[3,-1,4]],"properties":{"codigo":"08421200203001000102","sector":"084212002030010001","pcode":"CO08421","area_m2":209035}},{"type":"Polygon","arcs":[[-4,5,-2]],"properties":{"codigo":"08421200203001000103","sector":"084212002030010001","pcode":"CO08421","area_m2":137449}},{"type":"MultiPolygon","arcs":[[[6,7,8]],[[9]]],"properties":{"codigo":"08421200201002000101","sector":"084212002010020001","pcode":"CO08421","area_m2":84412}},{"type":"MultiPolygon","arcs":[[[10,-9,11]],[[12]]],"properties":{"codigo":"08421200201002000102","sector":"084212002010020001","pcode":"CO08421","area_m2":155466}},{"type":"Polygon","arcs":[[-7,-11,13]],"properties":{"codigo":"08421200201002000103","sector":"084212002010020001","pcode":"CO08421","area_m2":104582}},{"type":"MultiPolygon","arcs":[[[14,15]],[[16]]],"properties":{"codigo":"08421200104003000101","sector":"084212001040030001","pcode":"CO08421","area_m2":207580}},{"type":"Polygon","arcs":[[-16,17]],"properties":{"codigo":"08421200104003000102","sector":"084212001040030001","pcode":"CO08421","area_m2":140988}},{"type":"Polygon","arcs":[[18]],"properties":{"codigo":"08421200102006000101","sector":"084212001020060001","pcode":"CO08421","area_m2":21525}},{"type":"Polygon","arcs":[[19,20]],"properties":{"codigo":"08421200103004000101","sector":"084212001030040001","pcode":"CO08421","area_m2":60229}},{"type":"Polygon","arcs":[[-20,21]],"properties":{"codigo":"08421200103004000102","sector":"084212001030040001","pcode":"CO08421","area_m2":58985}},{"type":"Polygon","arcs":[[22,23,24]],"properties":{"codigo":"08421200105005000101","sector":"084212001050050001","pcode":"CO08421","area_m2":76229}},{"type":"Polygon","arcs":[[25,26,27,28,-23]],"properties":{"codigo":"08421200105005000102","sector":"084212001050050001","pcode":"CO08421","area_m2":125351}},{"type":"Polygon","arcs":[[-24,-29,29,30]],"properties":{"codigo":"08421200105005000103","sector":"084212001050050001","pcode":"CO08421","area_m2":101707}},{"type":"Polygon","arcs":[[-30,-28,31,32]],"properties":{"codigo":"08421200105005000104","sector":"084212001050050001","pcode":"CO08421","area_m2":276104}},{"type":"Polygon","arcs":[[-27,33,-32]],"properties":{"codigo":"08421200105005000105","sector":"084212001050050001","pcode":"CO08421","area_m2":131943}},{"type":"Polygon","arcs":[[34]],"properties":{"codigo":"08421200202007000101","sector":"084212002020070001","pcode":"CO08421","area_m2":38979}},{"type":"Polygon","arcs":[[35]],"properties":{"codigo":"08421200106012000101","sector":"084212001060120001","pcode":"CO08421","area_m2":12921}},{"type":"Polygon","arcs":[[36]],"properties":{"codigo":"08421200104013000101","sector":"084212001040130001","pcode":"CO08421","area_m2":50542}},{"type":"Polygon","arcs":[[37,38,39,40]],"properties":{"codigo":"08421100000000000205","sector":"084211000000000002","pcode":"CO08421","area_m2":120095}},{"type":"Polygon","arcs":[[41,42,43,44]],"properties":{"codigo":"08421100000000000105","sector":"084211000000000001","pcode":"CO08421","area_m2":141855}},{"type":"MultiPolygon","arcs":[[[45,46,47,48]],[[49]],[[50]]],"properties":{"codigo":"08421100000000000201","sector":"084211000000000002","pcode":"CO08421","area_m2":76293}},{"type":"Polygon","arcs":[[51,-38,52]],"properties":{"codigo":"08421100000000000206","sector":"084211000000000002","pcode":"CO08421","area_m2":111582}},{"type":"Polygon","arcs":[[53,54,55,56]],"properties":{"codigo":"08421100000000000103","sector":"084211000000000001","pcode":"CO08421","area_m2":133164}},{"type":"Polygon","arcs":[[57,-46,58,-44,59]],"properties":{"codigo":"08421100000000000101","sector":"084211000000000001","pcode":"CO08421","area_m2":132381}},{"type":"Polygon","arcs":[[-55,60,-42,61]],"properties":{"codigo":"08421100000000000104","sector":"084211000000000001","pcode":"CO08421","area_m2":127230}},{"type":"Polygon","arcs":[[-40,62,63,-47,-58,64,65]],"properties":{"codigo":"08421100000000000203","sector":"084211000000000002","pcode":"CO08421","area_m2":155587}},{"type":"Polygon","arcs":[[-64,66,-48]],"properties":{"codigo":"08421100000000000202","sector":"084211000000000002","pcode":"CO08421","area_m2":31694}},{"type":"Polygon","arcs":[[67,-65,-60,-43,-61,-54]],"properties":{"codigo":"08421100000000000102","sector":"084211000000000001","pcode":"CO08421","area_m2":173955}},{"type":"Polygon","arcs":[[68,-53,-41,-66,-68,-57]],"properties":{"codigo":"08421100000000000204","sector":"084211000000000002","pcode":"CO08421","area_m2":137001}}]}},"arcs":[[[9966,6240],[-90,-85],[-15,-3],[-58,-52],[-16,-5],[-60,-72],[-32,-53],[-10,-41],[-43,-113],[-42,-98]],[[9600,5718],[-69,27],[-41,34],[-83,100]],[[9407,5879],[-38,32],[10,28],[40,-23],[20,25],[-12,11],[26,21],[48,-19],[25,23],[48,-10],[22,46],[45,-17],[23,34],[30,15],[29,58],[9,-6],[16,54],[16,7],[43,124],[8,86],[22,-6],[3,55],[92,-51],[-49,-110],[26,-19],[33,23],[24,-20]],[[9536,5430],[-32,10],[10,70],[39,134],[47,74]],[[9966,6240],[33,-23],[-89,-91],[2,-34],[-20,12],[-22,-47],[44,-23],[-17,-37],[-49,25],[-10,-32],[-20,13],[-40,-146],[39,-30],[-24,-73],[81,-39],[-18,-40],[-74,34],[-4,-33],[-30,-89],[-12,-54],[-46,8],[-38,-141],[-116,30]],[[9536,5430],[-8,-35],[-26,1],[-2,-42],[-15,2],[-37,51],[-84,27],[-34,-8],[-62,30],[-23,58],[5,54],[24,-2],[4,20],[53,30],[8,-9],[45,45],[7,33],[22,-3],[25,49],[-37,21],[25,35],[-31,30],[15,21],[-3,41]],[[6151,8721],[23,-34],[89,-87],[14,-53],[29,11]],[[6306,8558],[2,-33],[-47,-34],[-32,67],[-26,33],[-63,36],[-122,-67],[24,-39],[-15,-8],[-39,57],[-3,133],[-39,14],[1,49],[-49,93],[27,22]],[[5925,8881],[43,-82],[12,-37],[16,32],[22,6],[54,-71],[4,-20],[30,22],[18,-27],[27,17]],[[5769,8220],[-33,8],[9,31],[52,92],[34,-22],[-62,-109]],[[5748,9338],[38,-73],[-11,-27],[53,-56],[68,-19],[136,-214],[45,-105],[74,-123]],[[5925,8881],[-19,40],[-91,162],[-65,128],[-66,190],[-23,-9],[-11,35],[-22,-8],[-14,47],[43,13],[-32,96],[-97,219],[37,-5],[36,-76],[15,-53],[30,-72],[12,5],[45,-124],[-13,-7],[38,-114],[20,-10]],[[5512,9853],[-17,-2],[-89,103],[81,45],[24,-15],[1,-131]],[[5748,9338],[16,9],[62,-129],[72,51],[40,-64],[31,19],[-1,-54],[27,-27],[28,-70],[26,-109],[163,21],[14,-55],[-74,-15],[-17,-37],[28,12],[28,-37],[27,-17],[-39,-22],[35,-66],[-40,-26],[29,-35],[50,-10],[41,-34],[-3,-28],[15,-57]],[[1691,4640],[24,-11],[161,17],[63,-219],[-27,-3],[-30,-100],[263,-182],[1,-36],[-112,-36],[-24,108],[-56,36],[-12,-22],[-89,78],[35,45],[-121,90],[-21,-3],[-67,-48],[-34,9],[-81,-40],[-16,43],[73,22],[-12,28],[19,8],[-22,104],[-34,30],[-7,34],[-25,23],[-15,-25],[-31,-12],[-37,65],[-3,39],[15,52]],[[1469,4734],[9,9],[24,-33],[104,-108],[26,60],[59,-22]],[[1457,4355],[-18,0],[-5,47],[43,3],[8,-49],[-28,-1]],[[1469,4734],[-3,32],[-84,-18],[-15,66],[80,-3],[-16,56],[-30,22],[-16,33],[-32,33],[-53,131],[-50,52],[-61,15],[-31,18],[20,45],[-22,11],[14,32],[37,-17],[9,22],[61,-22],[9,15],[67,-54],[11,-88],[41,1],[-1,-39],[46,-89],[2,-50],[-30,-20],[40,-131],[61,-27],[66,37],[-12,23],[98,75],[13,-45],[24,-9],[-17,-24],[-4,-177]],[[110,5743],[4,-27],[-49,-130],[-64,-6],[0,46],[34,89],[22,29],[18,-4],[26,35],[9,-32]],[[3153,6454],[-42,-1],[-1,-40],[58,-18],[56,-25],[91,8],[4,-29]],[[3319,6349],[-20,-24],[-64,16],[-2,-13],[-56,10],[-26,13],[-19,-60],[-29,-1],[-53,-94],[-12,8],[32,48],[-13,15],[-2,129],[3,80],[-19,0],[1,95],[13,12],[-16,55],[33,-19],[27,-53],[29,-8],[27,-104]],[[3153,6454],[23,-35],[55,-28],[82,11],[-9,38],[37,10],[9,-42],[56,19],[-11,79],[74,15],[13,-94],[25,17],[56,5],[-1,-30],[134,-11],[69,4],[63,-41],[-15,-37],[-35,5],[21,30],[-23,17],[-42,6],[-27,-14],[-59,1],[-121,14],[-46,12],[0,22],[-30,-6],[9,-82],[-32,-11],[-5,23],[-40,-9],[-7,41],[-57,-34]],[[900,93],[61,50],[67,113]],[[1028,256],[29,65],[53,87]],[[1110,408],[14,-8],[-59,-110],[125,-87],[-24,-30],[23,-18],[-27,-41],[-53,-62],[18,-51],[-56,9],[-24,35],[-12,-13],[-44,35],[-91,26]],[[900,93],[-47,33],[16,21],[-19,74],[-45,31],[-15,69],[-28,22],[46,31],[2,20],[-22,26],[54,46],[-26,23]],[[816,489],[10,47],[30,37],[2,47],[33,18]],[[891,638],[52,-142]],[[943,496],[85,-240]],[[943,496],[51,21],[-4,46],[-22,57],[65,39],[-13,59],[97,38],[32,3]],[[1149,759],[-10,-290],[-29,-61]],[[891,638],[-28,70],[-23,30],[13,29],[77,209],[-38,71]],[[892,1047],[-22,48],[-11,64],[-37,152],[81,29],[18,-74],[89,-22],[44,30],[54,-41],[28,-34],[30,-18],[-64,-87],[-18,-8],[54,-89],[17,-70],[-6,-168]],[[816,489],[-15,2],[-69,70],[-13,-15],[-61,45],[-18,-17],[-57,45],[4,20],[87,116],[38,66],[51,-36],[20,66],[23,35],[38,28],[-34,71],[24,21],[41,6],[17,35]],[[4820,4591],[3,-53],[33,-27],[41,5],[-9,-23],[156,0],[1,-17],[-42,-41],[-3,-33],[12,-24],[-17,-30],[-37,35],[4,21],[-26,52],[-57,33],[-50,-25],[-37,28],[-21,-8],[-26,18],[5,22],[-25,31],[-7,30],[86,32],[16,-26]],[[3461,971],[-34,-45],[-59,7],[-33,16],[-9,24],[22,21],[77,-35],[18,8],[3,72],[-21,42],[22,15],[19,-41],[6,-51],[-11,-33]],[[692,3675],[29,-12],[-37,-66],[-60,-45],[-3,-24],[66,-30],[-11,-58],[11,-30],[-43,-23],[-34,-6],[-10,91],[-31,18],[-35,-20],[-48,-3],[25,51],[74,48],[13,91],[16,17],[1,33],[77,-32]],[[6811,3597],[24,5],[77,-95],[76,64],[21,-30],[-259,-234],[65,-88]],[[6815,3219],[-39,-35],[-10,-24],[-35,37],[-27,79],[-13,75],[-65,-2],[3,33],[44,37],[-62,70],[5,2]],[[6616,3491],[67,24],[-3,18],[25,86],[22,-7]],[[6727,3612],[38,-13],[46,-2]],[[6698,4736],[-28,-10],[-11,-57],[23,-7],[-43,-102],[91,-38],[-27,-52],[9,-16]],[[6712,4454],[-6,-51],[-17,-22],[-10,-43]],[[6679,4338],[-75,-68],[-8,11],[-72,31]],[[6524,4312],[-13,13],[43,85],[-170,63],[4,20],[-29,29],[19,29],[33,-14],[18,49],[53,-32],[72,-59],[12,34],[-68,113],[1,58],[43,-23],[45,82],[111,-23]],[[6257,4077],[175,-71],[-67,-137]],[[6365,3869],[-42,-67]],[[6323,3802],[-37,-9],[-40,9],[-32,-5]],[[6214,3797],[4,12],[-75,-4],[4,60],[15,22],[73,17],[2,-41],[39,39],[6,116],[-25,29],[-54,-1],[-43,26],[-28,-5],[44,29],[23,1],[58,-20]],[[5986,3990],[-32,26],[6,16],[36,-17],[-10,-25]],[[5920,4201],[-36,39],[37,41],[-1,-80]],[[7053,3569],[74,-59],[-47,-52],[-265,-239]],[[6811,3597],[1,26],[67,-8],[10,82],[98,-38],[66,-90]],[[6666,3845],[32,131],[52,174],[51,182]],[[6801,4332],[59,-18]],[[6860,4314],[-9,-37],[13,0],[12,-149],[25,-81],[-5,-21],[21,-88],[-3,-65],[-35,-59]],[[6879,3814],[-213,31]],[[6477,3863],[-112,6]],[[6257,4077],[25,5],[-5,55],[13,3],[11,52],[22,30],[35,0],[51,-16],[16,18],[-6,61],[83,-8],[29,-19],[-7,54]],[[6679,4338],[-18,-47],[-19,3],[-29,-96],[-42,15],[-81,-287],[-13,-63]],[[6801,4332],[26,82],[-32,12],[10,38],[-55,18],[28,71],[-13,4],[-17,-54],[-36,-49]],[[6698,4736],[31,2],[88,-55],[36,-28],[41,18],[68,-21],[-16,-140],[-17,-51],[3,-30],[-20,-22],[-26,-68],[18,-8],[-7,-33],[-37,14]],[[6616,3491],[-55,24],[-88,28],[-5,-19],[-25,10],[5,21],[-67,22]],[[6381,3577],[-16,90],[-8,1],[-13,70],[2,60],[-23,4]],[[6477,3863],[84,-6]],[[6561,3857],[15,-168],[162,-19],[-11,-58]],[[6381,3577],[-20,6],[-4,25],[-48,5],[-14,27],[-8,61],[-62,37],[3,15],[-41,10],[2,29],[25,5]],[[6666,3845],[-105,12]],[[6879,3814],[23,13],[56,-36],[-14,-29],[67,-47],[-4,-38],[46,60],[39,-29],[-31,-67],[20,-40],[-28,-32]]]}
