{"type":"Topology","bbox":[-75.14375995019509,10.373817577901633,-75.12619498071587,10.397135018090799],"transform":{"scale":[0.000001756672615183933,0.0000023319772166382235],"translate":[-75.14375995019509,10.373817577901633]},"objects":{"municipios":{"type":"GeometryCollection","geometries":[{"type":"Polygon","arcs":[[0,1,2]],"properties":{"codigo":"13760100000000000102","sector":"137601000000000001","pcode":"CO13760","area_m2":59028}},{"type":"Polygon","arcs":[[3,4,5,6]],"properties":{"codigo":"13760100000000000304","sector":"137601000000000003","pcode":"CO13760","area_m2":93831}},{"type":"Polygon","arcs":[[-4,7]],"properties":{"codigo":"13760100000000000305","sector":"137601000000000003","pcode":"CO13760","area_m2":151046}},{"type":"Polygon","arcs":[[8,9,10,11,12,13]],"properties":{"codigo":"13760100000000000203","sector":"137601000000000002","pcode":"CO13760","area_m2":55944}},{"type":"Polygon","arcs":[[14,-9,15,16]],"properties":{"codigo":"13760100000000000204","sector":"137601000000000002","pcode":"CO13760","area_m2":200478}},{"type":"Polygon","arcs":[[17,18,19,20]],"properties":{"codigo":"13760100000000000301","sector":"137601000000000003","pcode":"CO13760","area_m2":106135}},{"type":"Polygon","arcs":[[21,-3,22,23,24]],"properties":{"codigo":"13760100000000000101","sector":"137601000000000001","pcode":"CO13760","area_m2":105238}},{"type":"Polygon","arcs":[[-13,25,-1,-22,26,27]],"properties":{"codigo":"13760100000000000103","sector":"137601000000000001","pcode":"CO13760","area_m2":95191}},{"type":"Polygon","arcs":[[-16,-14,-28,28,29,30]],"properties":{"codigo":"13760100000000000104","sector":"137601000000000001","pcode":"CO13760","area_m2":191624}},{"type":"Polygon","arcs":[[31,-29,-27,-25,32]],"properties":{"codigo":"13760100000000000105","sector":"137601000000000001","pcode":"CO13760","area_m2":94176}},{"type":"Polygon","arcs":[[-30,-32,33]],"properties":{"codigo":"13760100000000000106","sector":"137601000000000001","pcode":"CO13760","area_m2":60961}},{"type":"Polygon","arcs":[[-20,34,-23,-2,-26,-12,35]],"properties":{"codigo":"13760100000000000201","sector":"137601000000000002","pcode":"CO13760","area_m2":115737}},{"type":"Polygon","arcs":[[36,-36,-11]],"properties":{"codigo":"13760100000000000202","sector":"137601000000000002","pcode":"CO13760","area_m2":55601}},{"type":"Polygon","arcs":[[37,38,-21,-37,-10,-15]],"properties":{"codigo":"13760100000000000302","sector":"137601000000000003","pcode":"CO13760","area_m2":132777}},{"type":"Polygon","arcs":[[-6,39,-18,-39,40]],"properties":{"codigo":"13760100000000000303","sector":"137601000000000003","pcode":"CO13760","area_m2":75750}}]}},"arcs":[[[6307,8314],[-682,-338],[-954,-287]],[[4671,7689],[-494,291],[-150,138]],[[4027,8118],[913,312],[842,349],[525,-465]],[[1819,2275],[-365,60],[-64,-375],[-711,55],[-362,65]],[[317,2080],[210,1347]],[[527,3427],[736,-72],[713,-104]],[[1976,3251],[37,-275],[-194,-701]],[[1819,2275],[56,-523],[-337,-1583],[-156,-163],[-250,6],[-793,232],[52,258],[-391,90],[317,1488]],[[5198,6709],[-325,-61],[32,-100],[-152,-72],[-1014,-239]],[[3739,6237],[-232,381]],[[3507,6618],[638,-37],[-43,220],[408,-12],[-856,530],[-192,17],[-15,116]],[[3447,7452],[609,87],[440,101]],[[4496,7640],[448,-574]],[[4944,7066],[-372,-107],[173,-159],[354,92],[99,-183]],[[3468,5105],[-464,-20],[-184,70],[-175,484],[41,304],[1053,294]],[[5198,6709],[932,130]],[[6130,6839],[-43,-484],[-218,-222],[-256,-374],[-449,-133],[179,-479],[307,-117],[-353,-108],[-642,-276],[-234,560],[-347,-77],[-606,-24]],[[1324,4596],[-269,-8],[-40,-212],[-366,29]],[[649,4405],[37,438],[195,955],[136,534],[290,577]],[[1307,6909],[267,-79],[293,304],[382,-162]],[[2249,6972],[-150,-386],[-146,-551],[-404,-671],[-109,-263],[-116,-505]],[[6936,8617],[-629,-303]],[[4027,8118],[-321,555]],[[3706,8673],[467,145],[1097,222],[921,238],[606,189]],[[6797,9467],[520,-669],[-381,-181]],[[4496,7640],[175,49]],[[6936,8617],[207,-262]],[[7143,8355],[296,-353],[-709,-361],[-996,-351],[-790,-224]],[[7143,8355],[146,72],[-32,170],[698,281],[372,92]],[[8327,8970],[535,-1191],[44,-41]],[[8906,7738],[25,-53],[-371,-114],[-76,-851],[-418,266],[-247,92],[-322,8],[-1367,-247]],[[9916,9575],[-1589,-605]],[[6797,9467],[1072,354],[221,-315],[472,126],[361,185],[494,182],[36,-472],[424,142],[39,-94]],[[9916,9575],[83,-235],[-788,-259],[43,-274],[156,-365],[61,-504],[-565,-200]],[[1307,6909],[417,566],[775,586],[453,280],[443,236],[311,96]],[[3447,7452],[-521,-49],[-364,-96],[-313,-335]],[[3507,6618],[-331,49],[-927,305]],[[3468,5105],[-10,-69],[-1012,-90],[-176,-61],[-94,-315]],[[2176,4570],[-286,146],[-192,-283],[-64,103],[-310,60]],[[527,3427],[122,978]],[[2176,4570],[-275,-388],[-253,-118],[140,-226],[188,-587]]]}
