{"type":"Topology","bbox":[-75.295338357773,10.39630285048777,-75.26668399437938,10.518655852255113],"transform":{"scale":[0.0000028657229116539244,0.00001223652382911731],"translate":[-75.295338357773,10.39630285048777]},"objects":{"municipios":{"type":"GeometryCollection","geometries":[{"type":"Polygon","arcs":[[0,1,2]],"properties":{"codigo":"13873200103001000103","sector":"138732001030010001","pcode":"CO13873","area_m2":57358}},{"type":"Polygon","arcs":[[3]],"properties":{"codigo":"13873200201002000101","sector":"138732002010020001","pcode":"CO13873","area_m2":24325}},{"type":"Polygon","arcs":[[4,-3,5]],"properties":{"codigo":"13873200103001000101","sector":"138732001030010001","pcode":"CO13873","area_m2":61038}},{"type":"Polygon","arcs":[[-6,-2,6]],"properties":{"codigo":"13873200103001000102","sector":"138732001030010001","pcode":"CO13873","area_m2":59249}},{"type":"Polygon","arcs":[[7,8,9,10,11,12,13]],"properties":{"codigo":"13873100000000000101","sector":"138731000000000001","pcode":"CO13873","area_m2":215875}},{"type":"Polygon","arcs":[[14,15,-8,16]],"properties":{"codigo":"13873100000000000102","sector":"138731000000000001","pcode":"CO13873","area_m2":107022}},{"type":"Polygon","arcs":[[17,18,-15,19]],"properties":{"codigo":"13873100000000000103","sector":"138731000000000001","pcode":"CO13873","area_m2":92011}},{"type":"Polygon","arcs":[[20,-13]],"properties":{"codigo":"13873100000000000104","sector":"138731000000000001","pcode":"CO13873","area_m2":88857}},{"type":"Polygon","arcs":[[21,22,23,-11,24]],"properties":{"codigo":"13873100000000000201","sector":"138731000000000002","pcode":"CO13873","area_m2":144661}},{"type":"Polygon","arcs":[[-10,25,26,-25]],"properties":{"codigo":"13873100000000000202","sector":"138731000000000002","pcode":"CO13873","area_m2":66663}},{"type":"Polygon","arcs":[[27,28,-26,-9,-16,-19]],"properties":{"codigo":"13873100000000000203","sector":"138731000000000002","pcode":"CO13873","area_m2":89171}},{"type":"Polygon","arcs":[[29,-28,-18,30]],"properties":{"codigo":"13873100000000000204","sector":"138731000000000002","pcode":"CO13873","area_m2":124736}},{"type":"Polygon","arcs":[[31,32,-22,-27,-29,-30]],"properties":{"codigo":"13873100000000000205","sector":"138731000000000002","pcode":"CO13873","area_m2":89343}},{"type":"MultiPolygon","arcs":[[[33,34]],[[35]]],"properties":{"codigo":"13873100000000000301","sector":"138731000000000003","pcode":"CO13873","area_m2":255200}},{"type":"Polygon","arcs":[[-33,36,-35,37,-23]],"properties":{"codigo":"13873100000000000302","sector":"138731000000000003","pcode":"CO13873","area_m2":224588}}]}},"arcs":[[[773,179],[-55,8],[122,46],[-85,37],[-90,3],[-414,-3],[-198,-70],[-53,8],[237,78],[83,70],[352,49],[283,49],[116,-32],[210,-96]],[[1281,326],[-37,-13]],[[1244,313],[-257,-35],[-88,-64],[-126,-35]],[[9112,9970],[110,-6],[-111,-14],[36,-19],[-184,-80],[1,-17],[158,-66],[92,0],[16,-20],[180,-29],[284,-22],[-69,-40],[-107,11],[-102,33],[-328,34],[-62,-98],[-28,20],[27,84],[71,2],[-190,79],[-26,21],[-88,4],[110,64],[96,3],[-40,84],[128,-10],[26,-18]],[[1643,9],[-24,-9],[-221,22],[-179,4],[-25,48],[-212,21],[122,-2],[26,16],[-81,20],[100,18],[-186,58],[-189,-41],[-1,15]],[[1244,313],[111,-50],[343,-122],[-63,-90],[8,-42]],[[1281,326],[221,21],[60,-2],[12,-38],[133,33],[120,-58],[401,-88],[137,-22],[-299,-21],[-183,-5],[27,-27],[85,-12],[-112,-62],[-149,-37],[-91,1]],[[6554,4361],[159,-60],[99,-67],[84,-23],[303,-59],[114,-40],[81,0],[277,-40]],[[7671,4072],[-167,-10]],[[7504,4062],[-145,-20],[-136,-9]],[[7223,4033],[-170,-7],[-278,-68],[-220,-19]],[[6555,3939],[-28,19],[-134,12],[-38,-12],[-84,15],[-144,60],[48,8],[-40,30],[-113,21]],[[6022,4092],[14,7],[-281,25],[-162,3],[-129,49],[-748,138]],[[4716,4314],[105,32],[255,-37],[356,-35],[22,13],[254,-12],[10,-19],[338,47],[-31,12],[369,46],[-33,12],[108,11],[85,-23]],[[7474,4411],[-3,-36],[110,-26],[195,-67],[196,-77],[-139,-40],[-38,-40],[-63,-28],[21,-19]],[[7753,4078],[-82,-6]],[[6554,4361],[175,19],[51,-27],[222,20],[263,-3],[38,32],[89,22],[19,25],[84,-2],[-21,-36]],[[8790,4188],[-75,20],[-86,-5],[-3,-38],[-59,-54],[92,-27],[-44,-13],[-273,11]],[[8342,4082],[-73,4],[-516,-8]],[[7474,4411],[92,1],[6,-23],[108,5],[0,-18],[94,-42],[177,-19],[49,-20],[133,2],[370,44],[66,-20],[55,8],[33,-40],[131,-38],[2,-63]],[[6022,4092],[-312,24],[-139,-1],[41,-69],[-251,-10],[-51,53],[26,15],[-110,0],[-57,-19],[65,-15],[-96,-32],[-215,-45],[-129,24],[-196,84],[-101,-4],[46,72],[27,92],[146,53]],[[8275,3761],[41,-32],[-43,-25]],[[8273,3704],[-116,10],[-95,-5],[-100,16],[-204,57],[-170,22],[-369,15],[-139,-3],[-257,-34],[-452,-49],[-70,-15],[-149,5],[-144,-5],[-106,22],[-99,44]],[[5803,3784],[-139,46],[51,25],[131,24],[141,-9],[189,22],[36,35],[95,12],[248,0]],[[7223,4033],[-94,-48],[894,-226],[82,-6],[170,8]],[[7504,4062],[203,-46],[323,-86],[162,-54],[95,-65]],[[8287,3811],[-81,-6],[69,-44]],[[8342,4082],[-32,-9],[141,-59],[226,12],[145,-4],[66,-54]],[[8888,3968],[9,-21],[121,-55],[-229,-34],[-502,-47]],[[9671,3846],[-290,55],[36,48],[-151,-1],[-40,44],[-338,-24]],[[8790,4188],[154,-8],[20,9],[-105,28],[143,27],[70,-9],[7,-28],[110,11],[100,-20],[113,-54],[-64,0],[-6,-23],[100,-6],[318,28],[97,-10],[152,-59],[-248,-41],[47,-34],[-59,-63],[45,-54],[-113,-36]],[[9671,3846],[-28,-11],[-102,20],[-192,-19],[-29,10],[-334,-49],[32,-22],[-283,-27],[38,-38],[78,-8],[232,-113],[-37,-20],[11,-36],[-271,131],[-341,-28],[-106,20],[-156,-4]],[[8183,3652],[90,52]],[[6407,3527],[-111,-4],[-58,-51],[25,-12],[118,22],[59,-9],[1,-31],[64,-13],[-80,-20],[-151,23],[-364,3],[-42,-26],[47,-60],[111,-35],[-81,-5],[-123,13],[0,58],[-152,13],[2,46],[-185,19],[-33,26],[-152,17],[46,40],[-259,20],[-205,-29],[-140,-42],[-45,-29],[-188,-82],[-24,-93],[-22,42],[-81,34],[-158,32],[-282,22],[50,98],[-42,43],[625,56],[428,42]],[[5005,3655],[200,10],[259,-2],[790,-14],[-17,-26],[95,-58],[87,-8],[-12,-30]],[[3240,3499],[-756,-67],[51,63],[-192,-17],[132,21],[72,27],[201,20],[275,46],[139,43],[220,21],[277,12],[28,-66],[128,-53],[-575,-50]],[[8183,3652],[-76,-57],[81,-17],[-3,-88],[-40,-24],[-75,13],[-207,13],[-16,19],[-177,34],[-113,52],[-96,-20],[-118,4],[-268,-15],[-157,0],[-87,-9],[10,-38],[-163,-3],[-135,-11],[-136,22]],[[5005,3655],[-35,23],[187,8],[58,29],[91,7],[24,-36],[151,8],[5,24],[181,0],[32,15],[-34,40],[138,11]]]}
