{"type":"Topology","bbox":[-74.94221429705163,9.727737410804671,-74.80797568077611,9.755885429400907],"transform":{"scale":[0.000013425204147967266,0.0000028150833679603463],"translate":[-74.94221429705163,9.727737410804671]},"objects":{"municipios":{"type":"GeometryCollection","geometries":[{"type":"Polygon","arcs":[[0,1,2,3]],"properties":{"codigo":"13894100000000000203","sector":"138941000000000002","pcode":"CO13894","area_m2":41955}},{"type":"Polygon","arcs":[[4,5,6,7,8,9]],"properties":{"codigo":"13894100000000000102","sector":"138941000000000001","pcode":"CO13894","area_m2":114154}},{"type":"Polygon","arcs":[[10,11,12,13,-9]],"properties":{"codigo":"13894100000000000106","sector":"138941000000000001","pcode":"CO13894","area_m2":92220}},{"type":"Polygon","arcs":[[14,15,-11,-8,16]],"properties":{"codigo":"13894100000000000105","sector":"138941000000000001","pcode":"CO13894","area_m2":47155}},{"type":"Polygon","arcs":[[-16,17,18,-1,19,20,-12]],"properties":{"codigo":"13894100000000000107","sector":"138941000000000001","pcode":"CO13894","area_m2":99773}},{"type":"Polygon","arcs":[[21,22]],"properties":{"codigo":"13894100000000000109","sector":"138941000000000001","pcode":"CO13894","area_m2":91642}},{"type":"Polygon","arcs":[[-3,23,24,25,26]],"properties":{"codigo":"13894100000000000204","sector":"138941000000000002","pcode":"CO13894","area_m2":88071}},{"type":"Polygon","arcs":[[27,28,29,-18,-15]],"properties":{"codigo":"13894100000000000201","sector":"138941000000000002","pcode":"CO13894","area_m2":107625}},{"type":"Polygon","arcs":[[30,-24,-2,-19,-30,31]],"properties":{"codigo":"13894100000000000202","sector":"138941000000000002","pcode":"CO13894","area_m2":92520}},{"type":"Polygon","arcs":[[32,-5,33]],"properties":{"codigo":"13894100000000000101","sector":"138941000000000001","pcode":"CO13894","area_m2":119185}},{"type":"Polygon","arcs":[[-28,-17,-7,34,35]],"properties":{"codigo":"13894100000000000104","sector":"138941000000000001","pcode":"CO13894","area_m2":138115}},{"type":"Polygon","arcs":[[36,-35,-6,-33]],"properties":{"codigo":"13894100000000000103","sector":"138941000000000001","pcode":"CO13894","area_m2":124335}},{"type":"Polygon","arcs":[[-13,-21,37,38,39,-23,40]],"properties":{"codigo":"13894100000000000108","sector":"138941000000000001","pcode":"CO13894","area_m2":429549}},{"type":"Polygon","arcs":[[41,-39]],"properties":{"codigo":"13894100000000000110","sector":"138941000000000001","pcode":"CO13894","area_m2":91765}},{"type":"Polygon","arcs":[[42,-25,-31,43]],"properties":{"codigo":"13894100000000000205","sector":"138941000000000002","pcode":"CO13894","area_m2":122625}},{"type":"Polygon","arcs":[[44,45,46,-26,-43]],"properties":{"codigo":"13894100000000000206","sector":"138941000000000002","pcode":"CO13894","area_m2":138554}},{"type":"Polygon","arcs":[[-46,47,48,49]],"properties":{"codigo":"13894100000000000207","sector":"138941000000000002","pcode":"CO13894","area_m2":233914}},{"type":"Polygon","arcs":[[50,-49]],"properties":{"codigo":"13894100000000000208","sector":"138941000000000002","pcode":"CO13894","area_m2":119964}},{"type":"Polygon","arcs":[[51]],"properties":{"codigo":"13894200301002000101","sector":"138942003010020001","pcode":"CO13894","area_m2":59628}}]}},"arcs":[[[9129,6340],[110,100],[157,73]],[[9396,6513],[-3,-265],[-31,-332]],[[9362,5916],[-33,86],[-73,137],[-31,-12],[-85,30]],[[9140,6157],[-11,183]],[[9738,9758],[-29,-350],[-19,36],[-25,-317],[-50,92],[3,-80],[94,-148]],[[9712,8991],[-21,-308],[-46,-727]],[[9645,7956],[-70,67]],[[9575,8023],[-104,68]],[[9471,8091],[18,251],[4,182],[17,-13],[0,243],[-13,46]],[[9497,8800],[175,980],[66,-22]],[[9471,8091],[-18,-778],[0,-143]],[[9453,7170],[-34,31],[-43,-60],[-134,-92],[-7,31]],[[9235,7080],[54,419],[20,127],[-41,114]],[[9268,7740],[57,105],[25,116],[36,220],[111,619]],[[9554,6960],[-24,12]],[[9530,6972],[4,163],[-81,35]],[[9575,8023],[-8,-513],[-13,-550]],[[9530,6972],[-9,-333],[-40,10]],[[9481,6649],[-33,-82],[2,-41],[-54,-13]],[[9129,6340],[0,126],[25,336]],[[9154,6802],[22,-52],[32,9],[3,136],[24,185]],[[8414,8557],[10,233],[45,163],[-3,203],[51,304],[13,0],[50,-177],[71,-160]],[[8651,9123],[-26,-443],[128,-177],[-7,-169],[-84,118],[-15,-206],[-233,311]],[[9362,5916],[33,-79]],[[9395,5837],[-88,-841]],[[9307,4996],[-61,157],[-85,189]],[[9161,5342],[-21,815]],[[9554,6960],[80,-45],[41,-57],[144,-159]],[[9819,6699],[-129,-959]],[[9690,5740],[-156,507],[-5,65],[-43,18],[-5,319]],[[9643,5302],[-165,336],[-83,199]],[[9690,5740],[-23,-174],[-24,-264]],[[9951,8581],[-117,192],[-122,218]],[[9738,9758],[93,-113],[12,354],[50,-38],[-13,-380],[119,-184],[-48,-816]],[[9645,7956],[32,-61],[65,-78],[150,-234]],[[9892,7583],[-7,-124],[-66,-760]],[[9951,8581],[-59,-998]],[[9154,6802],[6,70],[28,694],[-181,64],[-28,19],[-2,-52],[-34,9],[-66,-81],[-58,-177]],[[8819,7348],[-13,21],[15,233],[-35,55],[-6,-155],[-76,98],[-6,-84],[-33,55],[-21,83],[-51,33],[-14,-482],[3,-114],[-1,-404]],[[8581,6687],[-14,185],[-17,124],[-33,-29],[-30,36],[-190,-13],[-8,37],[27,1656],[98,-126]],[[8651,9123],[2,-19],[73,-94],[147,-418],[-21,-390],[5,-59],[81,-111],[64,10],[27,-50],[35,-167],[26,-81],[111,-14],[67,10]],[[8819,7348],[-38,-468],[-49,35],[-22,-19],[-2,-251],[-17,8],[-2,-119],[-28,-65],[-17,10],[-44,121],[-19,87]],[[9570,4436],[-178,322],[-85,238]],[[9643,5302],[-49,-554],[-24,-312]],[[9570,4436],[-41,-559]],[[9529,3877],[-164,236],[-12,45],[-152,184],[-69,112]],[[9132,4454],[22,485],[9,256],[-2,147]],[[9529,3877],[-42,-590],[-20,-368]],[[9467,2919],[-84,116],[-85,134],[-21,-27],[-88,171],[-105,-1256],[-15,-211]],[[9069,1846],[-41,-100],[0,228],[9,223],[47,459],[4,89],[-12,280],[0,289],[36,318],[5,328],[15,494]],[[9467,2919],[-36,-656],[-162,201],[-57,-165],[-77,-162],[-48,-241],[-18,-50]],[[146,1206],[11,-11],[0,-146],[55,-446],[-151,-603],[-18,112],[45,171],[-33,183],[-55,455],[24,-27],[28,100],[-11,45],[16,75],[32,72],[35,34],[22,-14]]]}
