{"type":"Topology","bbox":[-74.6079744196864,8.447078857756491,-74.43204142297742,8.802752680634748],"transform":{"scale":[0.00001759505917681566,0.00003557093938176392],"translate":[-74.6079744196864,8.447078857756491]},"objects":{"municipios":{"type":"GeometryCollection","geometries":[{"type":"MultiPolygon","arcs":[[[0]],[[1]]],"properties":{"codigo":"13006200105039000101","sector":"130062001050390001","pcode":"CO13006","area_m2":53831}},{"type":"Polygon","arcs":[[2]],"properties":{"codigo":"13006200501042000101","sector":"130062005010420001","pcode":"CO13006","area_m2":104090}},{"type":"Polygon","arcs":[[3,4]],"properties":{"codigo":"13006200503003000101","sector":"130062005030030001","pcode":"CO13006","area_m2":62082}},{"type":"MultiPolygon","arcs":[[[5]],[[6]]],"properties":{"codigo":"13006200704020000101","sector":"130062007040200001","pcode":"CO13006","area_m2":132629}},{"type":"Polygon","arcs":[[7]],"properties":{"codigo":"13006200403015000101","sector":"130062004030150001","pcode":"CO13006","area_m2":162256}},{"type":"MultiPolygon","arcs":[[[8]],[[9]]],"properties":{"codigo":"13006200602019000101","sector":"130062006020190001","pcode":"CO13006","area_m2":81047}},{"type":"Polygon","arcs":[[-5,10]],"properties":{"codigo":"13006200503003000102","sector":"130062005030030001","pcode":"CO13006","area_m2":44342}},{"type":"Polygon","arcs":[[11]],"properties":{"codigo":"13006200206007000101","sector":"130062002060070001","pcode":"CO13006","area_m2":259219}},{"type":"Polygon","arcs":[[12,13]],"properties":{"codigo":"13006200505033000102","sector":"130062005050330001","pcode":"CO13006","area_m2":48038}},{"type":"Polygon","arcs":[[14,15]],"properties":{"codigo":"13006200206017000101","sector":"130062002060170001","pcode":"CO13006","area_m2":31883}},{"type":"Polygon","arcs":[[16,-15]],"properties":{"codigo":"13006200206017000102","sector":"130062002060170001","pcode":"CO13006","area_m2":113566}},{"type":"Polygon","arcs":[[17]],"properties":{"codigo":"13006200505021000101","sector":"130062005050210001","pcode":"CO13006","area_m2":96162}},{"type":"Polygon","arcs":[[-14,18]],"properties":{"codigo":"13006200505033000101","sector":"130062005050330001","pcode":"CO13006","area_m2":86581}},{"type":"Polygon","arcs":[[19]],"properties":{"codigo":"13006200603035000101","sector":"130062006030350001","pcode":"CO13006","area_m2":247202}},{"type":"Polygon","arcs":[[20]],"properties":{"codigo":"13006200601002000101","sector":"130062006010020001","pcode":"CO13006","area_m2":28097}},{"type":"MultiPolygon","arcs":[[[21]],[[22]]],"properties":{"codigo":"13006200505005000101","sector":"130062005050050001","pcode":"CO13006","area_m2":22685}},{"type":"Polygon","arcs":[[23,24]],"properties":{"codigo":"13006200202011000102","sector":"130062002020110001","pcode":"CO13006","area_m2":257178}},{"type":"Polygon","arcs":[[-24,25]],"properties":{"codigo":"13006200202011000101","sector":"130062002020110001","pcode":"CO13006","area_m2":61672}},{"type":"Polygon","arcs":[[26]],"properties":{"codigo":"13006200207022000101","sector":"130062002070220001","pcode":"CO13006","area_m2":42993}},{"type":"Polygon","arcs":[[27]],"properties":{"codigo":"13006200507030000101","sector":"130062005070300001","pcode":"CO13006","area_m2":69573}},{"type":"MultiPolygon","arcs":[[[28]],[[29]],[[30]]],"properties":{"codigo":"13006200103041000101","sector":"130062001030410001","pcode":"CO13006","area_m2":96859}},{"type":"Polygon","arcs":[[31,32,33,34]],"properties":{"codigo":"13006100000000000101","sector":"130061000000000001","pcode":"CO13006","area_m2":170665}},{"type":"Polygon","arcs":[[35,36,37,-34,38]],"properties":{"codigo":"13006100000000000102","sector":"130061000000000001","pcode":"CO13006","area_m2":139792}},{"type":"Polygon","arcs":[[39,-37,40]],"properties":{"codigo":"13006100000000000103","sector":"130061000000000001","pcode":"CO13006","area_m2":108513}},{"type":"Polygon","arcs":[[41,-35,-38,-40]],"properties":{"codigo":"13006100000000000104","sector":"130061000000000001","pcode":"CO13006","area_m2":94456}},{"type":"Polygon","arcs":[[-39,-33,42]],"properties":{"codigo":"13006100000000000105","sector":"130061000000000001","pcode":"CO13006","area_m2":99629}},{"type":"Polygon","arcs":[[43]],"properties":{"codigo":"13006100000000000106","sector":"130061000000000001","pcode":"CO13006","area_m2":57421}}]}},"arcs":[[[616,5885],[-22,-41],[-2,-31],[12,0],[-10,-18],[17,-53],[23,-25],[41,-35],[51,-35],[-9,-5],[-33,22],[-4,-8],[-44,32],[-40,37],[-15,23],[-12,63],[12,0],[5,45],[-15,2],[15,25],[13,-2],[22,32],[15,-3],[-20,-25]],[[520,5880],[-4,-27],[-14,1],[5,26],[13,0]],[[3235,4384],[35,-11],[13,8],[40,-14],[24,9],[14,-10],[-67,-20],[-51,-12],[-124,-15],[-90,-19],[-23,-23],[-2,-22],[22,-26],[29,-21],[84,-48],[27,-19],[15,-18],[-34,-5],[1,17],[-25,12],[-33,-11],[14,12],[-14,17],[-41,-3],[-7,8],[30,12],[-18,12],[-12,-11],[-31,-7],[-16,16],[46,14],[-34,16],[12,5],[-16,16],[-55,-1],[1,6],[44,0],[-12,22],[29,33],[-15,7],[41,11],[17,-5],[36,7],[52,18],[15,-10],[36,6],[-7,8],[29,15],[-9,4],[30,20]],[[4348,3501],[-20,-20],[-23,-3],[-14,9],[-50,-18],[-20,14],[-25,-3],[-46,-22],[-26,18],[32,14],[-13,29],[115,-3],[39,9]],[[4297,3525],[51,-24]],[[9665,1032],[57,-6],[15,-15],[93,-14],[19,-13],[10,-36],[-29,-2],[11,-14],[-22,-28],[27,-7],[-38,-13],[-39,12],[-11,14],[29,35],[0,20],[-22,9],[-59,4],[-34,9],[-40,31],[9,23],[24,-9]],[[9907,885],[66,-9],[9,-21],[-19,-18],[-107,27],[-14,5],[12,15],[45,-7],[8,8]],[[7640,3603],[12,-11],[5,-33],[-13,-6],[-5,-20],[9,-19],[83,-22],[27,5],[53,-23],[71,-64],[42,-28],[18,1],[28,-14],[15,-24],[16,4],[7,-17],[-21,-4],[-25,-41],[-38,-25],[-15,2],[52,37],[12,19],[1,21],[-40,32],[-20,3],[-15,-9],[-37,5],[-80,-4],[-43,0],[-19,12],[18,14],[38,18],[26,20],[0,14],[21,4],[-18,18],[-105,23],[-79,19],[-30,17],[2,13],[31,9],[-5,53],[-10,12],[-31,12],[-105,9],[90,63],[21,-5],[-23,-19],[-12,-22],[7,-9],[70,-19],[14,-21]],[[8797,1046],[-1,-8],[-37,7],[-9,-7],[-28,7],[-51,-7],[-38,-18],[-16,-28],[19,-20],[-14,-1],[2,-24],[-20,1],[-5,-31],[-33,69],[-3,13],[11,36],[27,-7],[19,15],[43,11],[62,5],[72,-13]],[[8363,907],[4,-7],[34,2],[53,-4],[39,-11],[76,-5],[22,14],[16,-4],[-50,-24],[-114,17],[-62,5],[1,6],[-62,-7],[-5,7],[48,11]],[[4297,3525],[87,5],[35,7],[51,-13],[7,9],[30,-7],[75,-26],[-5,-7],[-46,14],[-11,-11],[-56,18],[-43,2],[-28,-14],[-12,-14],[-33,13]],[[5593,7997],[-3,-9],[-27,8],[-27,-33],[-21,-6],[-9,-46],[72,7],[-10,-31],[-38,-4],[-9,-20],[11,-4],[-12,-28],[29,-5],[0,-9],[34,-5],[-88,3],[-36,4],[-18,-13],[-12,22],[58,0],[29,45],[10,28],[-28,0],[-13,-28],[-54,-12],[-6,-17],[-63,1],[-4,90],[4,109],[88,-5],[42,-8],[106,-30],[-5,-4]],[[4570,467],[2,-24],[-129,25],[-36,11],[-43,36],[-7,11]],[[4357,526],[212,-56],[1,-3]],[[5280,7238],[-22,-1],[-7,32],[-30,-4],[-31,7]],[[5190,7272],[17,31],[14,37],[53,-3],[0,-23],[-35,1],[1,-40],[36,-6],[4,-31]],[[5280,7238],[2,-11],[-45,-1],[14,-17],[-9,-31],[-15,1],[34,-66],[-138,0],[15,40],[-4,20],[13,-1],[22,63],[21,37]],[[3463,1470],[10,-1],[23,-27],[17,4],[25,-19],[42,0],[26,-29],[-50,-8],[72,-52],[16,5],[16,-12],[14,3],[24,-24],[36,13],[29,-12],[13,-16],[-56,-23],[-88,52],[-87,61],[-15,15],[-23,4],[-7,17],[-28,19],[-46,48],[-17,31],[-6,49],[33,0],[0,-38],[18,-49],[9,-11]],[[4357,526],[-9,25],[58,-12],[28,27],[14,2],[45,27],[19,-13],[-35,-28],[40,-14],[25,-4],[-21,-21],[56,-17],[-16,-16],[43,-10],[-9,-10],[-25,5]],[[8073,2616],[-47,-6],[-30,-27],[-31,-7],[-22,-22],[3,-13],[23,-3],[-10,-13],[43,-9],[-5,-13],[-24,0],[-12,-21],[-69,7],[-20,-16],[12,-21],[-25,-8],[4,-12],[-17,-4],[20,-16],[-18,-18],[8,-11],[-11,-20],[10,-6],[-7,-21],[36,-5],[-27,-13],[6,-54],[-16,-15],[10,-5],[-18,-11],[4,-30],[30,-19],[-1,-10],[-74,3],[17,36],[4,19],[-39,3],[-14,-30],[2,22],[-8,31],[22,5],[-3,20],[8,19],[-7,11],[14,10],[-6,11],[-23,1],[-11,20],[30,1],[-7,24],[-23,21],[11,15],[-15,5],[78,16],[31,58],[23,31],[61,51],[124,73],[27,46],[40,-9],[-28,-43],[-33,-28]],[[4750,1],[-53,0],[25,55],[23,22],[15,-8],[-8,-14],[26,-9],[-5,-17],[-23,-29]],[[5954,596],[16,0],[24,-19],[-9,-4],[-79,25],[9,17],[-20,29],[-19,10],[2,14],[49,-17],[8,-25],[-12,-7],[31,-23]],[[5868,662],[0,-7],[-38,7],[38,0]],[[6037,9786],[18,-2],[-18,-26],[11,-2]],[[6048,9756],[-29,-50],[-23,-32],[-2,-17],[-20,-39],[-34,-45],[-12,2],[-17,-26],[4,-18],[25,-23],[48,-33],[11,4],[103,-51],[72,-17],[48,-25],[81,-28],[118,-18],[52,-10],[21,4],[23,-16],[85,-13],[20,1],[0,19],[16,32],[18,-3],[-16,-26],[8,-27],[46,-8],[107,-15],[-25,-53],[-89,10],[-129,28],[51,29],[-75,9],[-97,20],[-34,3],[-12,-13],[-46,10],[8,8],[-59,10],[-50,15],[-32,17],[-19,-6],[-2,14],[-31,21],[-102,24],[-29,20],[-49,25],[-48,29],[-35,33],[-2,13],[26,44],[-29,3],[15,37],[38,-3],[30,42],[-3,16],[65,103]],[[6037,9786],[40,46],[5,15],[40,34],[65,46],[46,22],[118,44],[22,-6],[-66,-23],[-100,-52],[-44,-29],[-50,-39],[-48,-62],[-17,-26]],[[5171,5278],[-37,-10],[8,-11],[-12,-37],[17,-8],[-57,4],[-12,-13],[40,-5],[-4,-14],[21,-1],[-3,-17],[-84,1],[-18,-12],[0,12],[42,52],[77,66],[22,-7]],[[6510,1868],[9,-18],[-21,0],[12,-30],[-14,-27],[16,-1],[6,-41],[13,0],[42,-28],[28,-54],[64,8],[8,-8],[-76,-6],[7,-9],[-67,-11],[-11,11],[36,7],[-34,47],[-8,25],[-38,17],[-17,30],[19,25],[3,31],[-11,21],[9,12],[25,-1]],[[31,7891],[15,1],[18,-82],[-27,-3],[3,-31],[18,-36],[13,3],[24,-15],[33,-55],[66,-58],[46,-33],[100,-56],[19,-18],[-19,-4],[-19,20],[-37,24],[-48,23],[-40,27],[-38,33],[-19,-6],[-23,24],[17,4],[-28,32],[-18,-5],[-43,57],[-21,36],[-18,21],[0,23],[32,-1],[3,38],[-9,36],[-29,-1],[-2,39],[16,0],[15,-37]],[[110,7585],[-7,-10],[-56,33],[12,5],[51,-28]],[[17,7930],[-6,10],[12,18],[57,48],[11,-4],[-29,-22],[-25,-27],[-9,-22],[-11,-1]],[[2712,3377],[-19,76],[10,39],[28,12],[14,20]],[[2745,3524],[42,-13]],[[2787,3511],[90,-31],[-8,-6],[67,-23],[32,-14]],[[2968,3437],[-26,-11],[-62,-14],[-168,-35]],[[2879,3516],[2,-21],[20,-1],[118,17],[58,1],[56,-9],[-16,-37],[-4,-40]],[[3113,3426],[-53,8],[-41,-22]],[[3019,3412],[-51,25]],[[2787,3511],[12,10],[42,-12],[38,7]],[[2869,3354],[-7,12],[55,4],[102,42]],[[3113,3426],[-14,-42],[-20,-32],[-4,-22],[-117,-8],[-46,33],[-43,-1]],[[2869,3354],[-156,-8],[-1,31]],[[2745,3524],[-26,12],[-90,33],[82,52],[5,1],[84,-25],[-68,-44],[-6,-12],[49,12],[124,0],[-20,-37]],[[2573,3618],[-10,-29],[106,-40],[-29,-18],[-50,-21],[-57,30],[-3,8],[56,22],[-84,31],[-24,-1],[-30,11],[18,11],[38,-10],[9,6],[22,-8],[21,15],[17,-7]]]}
