{"type":"Topology","bbox":[-74.32325212682974,8.990267130129464,-74.16008346925156,9.177021212622472],"transform":{"scale":[0.000016318497607579035,0.00001867727597689854],"translate":[-74.32325212682974,8.990267130129464]},"objects":{"municipios":{"type":"GeometryCollection","geometries":[{"type":"MultiPolygon","arcs":[[[0]],[[1]],[[2]],[[3]]],"properties":{"codigo":"13440200203002000101","sector":"134402002030020001","pcode":"CO13440","area_m2":149551}},{"type":"MultiPolygon","arcs":[[[4]],[[5]],[[6]],[[7]]],"properties":{"codigo":"13440200107005000101","sector":"134402001070050001","pcode":"CO13440","area_m2":372764}},{"type":"Polygon","arcs":[[8]],"properties":{"codigo":"13440200302014000101","sector":"134402003020140001","pcode":"CO13440","area_m2":17695}},{"type":"MultiPolygon","arcs":[[[9]],[[10]]],"properties":{"codigo":"13440200202017000101","sector":"134402002020170001","pcode":"CO13440","area_m2":43199}},{"type":"Polygon","arcs":[[11]],"properties":{"codigo":"13440200104004000101","sector":"134402001040040001","pcode":"CO13440","area_m2":158803}},{"type":"Polygon","arcs":[[12,13]],"properties":{"codigo":"13440200102003000101","sector":"134402001020030001","pcode":"CO13440","area_m2":41176}},{"type":"Polygon","arcs":[[14,15,-13,16]],"properties":{"codigo":"13440200102003000102","sector":"134402001020030001","pcode":"CO13440","area_m2":55445}},{"type":"MultiPolygon","arcs":[[[-15,17]],[[18]],[[19]]],"properties":{"codigo":"13440200102003000103","sector":"134402001020030001","pcode":"CO13440","area_m2":46277}},{"type":"MultiPolygon","arcs":[[[20]],[[21]]],"properties":{"codigo":"13440200105007000101","sector":"134402001050070001","pcode":"CO13440","area_m2":192400}},{"type":"MultiPolygon","arcs":[[[22]],[[23]]],"properties":{"codigo":"13440200103008000101","sector":"134402001030080001","pcode":"CO13440","area_m2":115826}},{"type":"Polygon","arcs":[[24]],"properties":{"codigo":"13440200104010000101","sector":"134402001040100001","pcode":"CO13440","area_m2":243284}},{"type":"MultiPolygon","arcs":[[[25]],[[26]],[[27]]],"properties":{"codigo":"13440200105011000101","sector":"134402001050110001","pcode":"CO13440","area_m2":92599}},{"type":"MultiPolygon","arcs":[[[28]],[[29]],[[30]]],"properties":{"codigo":"13440200201012000101","sector":"134402002010120001","pcode":"CO13440","area_m2":103692}},{"type":"Polygon","arcs":[[31,32]],"properties":{"codigo":"13440100000000000101","sector":"134401000000000001","pcode":"CO13440","area_m2":3107966}},{"type":"Polygon","arcs":[[-32,33]],"properties":{"codigo":"13440200103001000101","sector":"134402001030010001","pcode":"CO13440","area_m2":387725}}]}},"arcs":[[[9544,4255],[75,-22],[10,10],[74,-45],[59,-64],[92,-68],[-6,-8],[101,-97],[50,-34],[-74,9],[-28,-33],[5,46],[-34,-4],[-125,52],[50,69],[-126,80],[-14,-20],[-38,20],[31,43],[-61,34],[-23,-5],[-72,27],[-41,1],[-107,41],[8,14],[58,-21],[136,-25]],[[9716,4038],[-35,-12],[14,27],[21,-15]],[[9319,4312],[-5,-15],[-72,28],[8,13],[69,-26]],[[9160,4373],[65,-26],[-12,-24],[-113,40],[14,25],[46,-15]],[[8073,5469],[8,7],[51,-41],[68,-132],[17,-54],[-19,-3],[16,-51],[-32,-34],[23,-18],[-47,-39],[-24,19],[40,43],[-243,172],[-24,-5],[-71,53],[40,55],[-38,37],[70,57],[-93,82],[10,33],[116,-97],[132,-84]],[[7775,5446],[-8,-8],[-70,43],[14,14],[64,-49]],[[7754,5714],[57,-50],[-12,-9],[-69,48],[-32,-29],[-29,28],[-18,-26],[-61,36],[58,69],[106,-67]],[[7613,5800],[-17,-20],[-33,18],[-45,-52],[-70,46],[51,58],[114,-50]],[[4622,61],[8,-21],[38,-12],[-49,-7],[-26,28],[-41,-28],[-21,16],[-3,-29],[-40,27],[16,23],[118,3]],[[8148,1916],[15,-46],[21,-15],[-70,-21],[-65,-5],[-50,8],[-3,40],[108,2],[28,37],[16,0]],[[7939,1920],[0,-15],[-92,13],[-42,-12],[-8,22],[25,9],[117,-17]],[[6409,6836],[-29,-15],[145,-119],[-5,-12],[41,-39],[36,-48],[-15,-13],[-70,84],[-42,33],[-24,-21],[-39,33],[-18,-4],[-46,27],[-13,-19],[-156,111],[-65,29],[70,33],[-20,10],[14,28],[70,-4],[99,-48],[67,-46]],[[235,7628],[-32,-30],[-42,-17],[-34,27],[-26,-7]],[[101,7601],[-21,30],[-80,83],[75,26],[6,-57],[21,-34],[18,12],[27,-29],[31,-8],[35,21],[22,-17]],[[256,7514],[-15,-6],[28,-74],[-15,-6],[-25,39],[-26,-12]],[[203,7455],[-71,86],[-31,60]],[[235,7628],[23,-29],[-32,-21],[30,-64]],[[256,7514],[42,-110],[-11,-4],[34,-83],[-38,-9],[-19,36],[21,11],[-13,37],[-20,-6],[-49,69]],[[342,7278],[17,-34],[-26,-8],[-6,-34],[-31,67],[40,21],[6,-12]],[[281,7281],[-20,-27],[-50,38],[26,20],[44,-31]],[[3322,3267],[15,7],[95,-124],[37,41],[31,-23],[-37,-37],[55,-62],[28,23],[37,-26],[27,20],[10,-20],[49,-29],[-26,-32],[85,-24],[-54,-57],[7,-10],[-43,-26],[-65,64],[-72,-38],[-4,49],[-26,-6],[-29,48],[49,31],[-109,127],[-64,82],[-74,71],[4,37],[74,-67],[0,-19]],[[3703,2839],[43,-28],[20,4],[34,-40],[106,-83],[-11,-12],[-174,134],[-11,-7],[-68,62],[46,39],[13,-19],[-28,-13],[30,-37]],[[4780,7819],[89,-67],[22,-71],[76,-131],[43,-50],[91,-74],[-10,-15],[-72,51],[-34,-1],[10,37],[-57,40],[9,13],[-31,24],[-9,59],[-36,28],[-31,-6],[27,43],[-49,52],[-31,1],[-82,45],[-36,-3],[-49,-32],[-32,-2],[-49,-113],[11,-4],[-41,-103],[-17,6],[2,61],[15,-2],[62,166],[1,32],[36,-7],[36,32],[15,-16],[33,6],[44,53],[5,-23],[39,-29]],[[4835,7564],[0,0]],[[5263,7324],[97,-49],[140,-50],[210,-87],[-40,1],[-24,-47],[77,-32],[33,-33],[-12,-17],[34,-17],[-13,-27],[-63,33],[-7,-10],[-118,48],[5,11],[-106,44],[-161,60],[11,22],[-42,16],[37,70],[-7,16],[-102,44],[-21,-33],[-8,17],[-46,23],[17,30],[-22,15],[16,16],[115,-64]],[[2588,4209],[121,-94],[17,17],[24,-18],[-17,-20],[67,-54],[5,-27],[32,-2],[31,32],[19,-19],[-48,-37],[66,-107],[15,8],[14,-40],[28,-14],[-51,-13],[-50,100],[-52,70],[-158,118],[-62,67],[-13,-9],[-36,45],[24,20],[24,-23]],[[2990,3801],[-10,-4],[37,-57],[-20,-10],[9,-40],[-42,65],[18,8],[-20,32],[-42,2],[58,16],[12,-12]],[[2527,4240],[-21,-24],[-35,26],[26,34],[34,-19],[-4,-17]],[[6623,1364],[94,-105],[-17,-17],[-28,41],[-10,-10],[-83,92],[32,22],[12,-23]],[[6663,1847],[12,-17],[-12,-179],[-7,-55],[-39,-47],[-25,-95],[17,-58],[-45,-7],[-12,63],[7,90],[17,-1],[3,37],[-26,4],[22,19],[0,38],[49,10],[5,30],[-34,-1],[19,34],[25,7],[-3,83],[-24,34],[51,11]],[[6629,1899],[0,0]],[[3954,8914],[-4,-43],[20,0],[-3,-69]],[[3967,8802],[-324,2],[-163,4],[-423,6],[-423,-115],[-155,-44],[-267,-72],[-72,-17],[-75,18],[-166,47],[-302,81],[-47,31],[-21,36],[-222,463],[-65,141],[1,45],[122,335],[81,236],[135,-7],[-51,-110],[-42,-121],[-31,-120],[-19,-140],[-8,-155],[8,-104],[22,-65],[68,-94],[31,-20],[102,-37],[254,-51],[130,-21],[120,-11],[135,-4],[112,13],[99,27],[91,34],[104,54],[71,50],[73,61],[86,100],[41,-36],[28,-51],[-10,-32],[17,-42],[54,-2],[93,-38],[158,-80],[73,-24],[196,-55],[139,-16],[103,-4],[126,16]],[[3954,8914],[31,-1],[56,-21],[116,-12],[109,-19],[11,40],[20,-11],[-10,-33],[27,-8],[9,29],[87,-32],[37,-24],[20,16],[97,-31],[-14,-18],[-63,-22],[-49,-38],[-83,-122],[-27,-65],[-4,-63],[-64,2],[1,95],[-67,109],[-24,24],[-168,87],[-35,6]]]}
