{"type":"Topology","bbox":[-75.45663881631208,9.876625409568705,-75.23332882330783,10.056903793427967],"transform":{"scale":[0.00002233323262368736,0.000018029641350061214],"translate":[-75.45663881631208,9.876625409568705]},"objects":{"municipios":{"type":"GeometryCollection","geometries":[{"type":"MultiPolygon","arcs":[[[0]],[[1]]],"properties":{"codigo":"13442200505043000101","sector":"134422005050430001","pcode":"CO13442","area_m2":38260}},{"type":"MultiPolygon","arcs":[[[2]],[[3]]],"properties":{"codigo":"13442200505044000101","sector":"134422005050440001","pcode":"CO13442","area_m2":65345}},{"type":"Polygon","arcs":[[4]],"properties":{"codigo":"13442200402045000101","sector":"134422004020450001","pcode":"CO13442","area_m2":28419}},{"type":"MultiPolygon","arcs":[[[5]],[[6]],[[7]],[[8]],[[9]]],"properties":{"codigo":"13442200503011000101","sector":"134422005030110001","pcode":"CO13442","area_m2":223315}},{"type":"Polygon","arcs":[[10]],"properties":{"codigo":"13442200505014000101","sector":"134422005050140001","pcode":"CO13442","area_m2":94816}},{"type":"Polygon","arcs":[[11,12]],"properties":{"codigo":"13442200302022000101","sector":"134422003020220001","pcode":"CO13442","area_m2":312946}},{"type":"Polygon","arcs":[[13,-12]],"properties":{"codigo":"13442200302022000102","sector":"134422003020220001","pcode":"CO13442","area_m2":189837}},{"type":"Polygon","arcs":[[14,15]],"properties":{"codigo":"13442200302025000101","sector":"134422003020250001","pcode":"CO13442","area_m2":93043}},{"type":"Polygon","arcs":[[16]],"properties":{"codigo":"13442200303027000101","sector":"134422003030270001","pcode":"CO13442","area_m2":69587}},{"type":"Polygon","arcs":[[17]],"properties":{"codigo":"13442200505031000101","sector":"134422005050310001","pcode":"CO13442","area_m2":38895}},{"type":"Polygon","arcs":[[18]],"properties":{"codigo":"13442200402035000101","sector":"134422004020350001","pcode":"CO13442","area_m2":40499}},{"type":"Polygon","arcs":[[19]],"properties":{"codigo":"13442200101005000101","sector":"134422001010050001","pcode":"CO13442","area_m2":130708}},{"type":"Polygon","arcs":[[20,21]],"properties":{"codigo":"13442200503003000101","sector":"134422005030030001","pcode":"CO13442","area_m2":89390}},{"type":"Polygon","arcs":[[22,-21]],"properties":{"codigo":"13442200503003000102","sector":"134422005030030001","pcode":"CO13442","area_m2":84850}},{"type":"MultiPolygon","arcs":[[[23]],[[24]]],"properties":{"codigo":"13442200402012000101","sector":"134422004020120001","pcode":"CO13442","area_m2":840009}},{"type":"MultiPolygon","arcs":[[[25]],[[26]]],"properties":{"codigo":"13442200305023000101","sector":"134422003050230001","pcode":"CO13442","area_m2":131224}},{"type":"Polygon","arcs":[[27,28,29,30]],"properties":{"codigo":"13442100000000000106","sector":"134421000000000001","pcode":"CO13442","area_m2":52812}},{"type":"Polygon","arcs":[[31,32,33]],"properties":{"codigo":"13442100000000000208","sector":"134421000000000002","pcode":"CO13442","area_m2":35785}},{"type":"Polygon","arcs":[[34,35,36,37,-34,38]],"properties":{"codigo":"13442100000000000205","sector":"134421000000000002","pcode":"CO13442","area_m2":255648}},{"type":"Polygon","arcs":[[-30,39,40]],"properties":{"codigo":"13442100000000000101","sector":"134421000000000001","pcode":"CO13442","area_m2":142204}},{"type":"Polygon","arcs":[[41,42,43]],"properties":{"codigo":"13442100000000000301","sector":"134421000000000003","pcode":"CO13442","area_m2":48576}},{"type":"Polygon","arcs":[[44,-32,-38,45,46,47,48,49,-43]],"properties":{"codigo":"13442100000000000204","sector":"134421000000000002","pcode":"CO13442","area_m2":166940}},{"type":"Polygon","arcs":[[50,51,52,53,54]],"properties":{"codigo":"13442100000000000104","sector":"134421000000000001","pcode":"CO13442","area_m2":100549}},{"type":"Polygon","arcs":[[55,-47,56,57,58,-55,59]],"properties":{"codigo":"13442100000000000202","sector":"134421000000000002","pcode":"CO13442","area_m2":165930}},{"type":"Polygon","arcs":[[60,-49,61,-60,-54,62]],"properties":{"codigo":"13442100000000000201","sector":"134421000000000002","pcode":"CO13442","area_m2":129255}},{"type":"Polygon","arcs":[[63,64,65,66,67,-57,-46,-37]],"properties":{"codigo":"13442100000000000206","sector":"134421000000000002","pcode":"CO13442","area_m2":264456}},{"type":"Polygon","arcs":[[68,69]],"properties":{"codigo":"13442200402024000101","sector":"134422004020240001","pcode":"CO13442","area_m2":62120}},{"type":"Polygon","arcs":[[-51,-59,70,71]],"properties":{"codigo":"13442100000000000105","sector":"134421000000000001","pcode":"CO13442","area_m2":200681}},{"type":"Polygon","arcs":[[72,73,-65,74]],"properties":{"codigo":"13442100000000000207","sector":"134421000000000002","pcode":"CO13442","area_m2":247948}},{"type":"Polygon","arcs":[[75,-28,76]],"properties":{"codigo":"13442100000000000107","sector":"134421000000000001","pcode":"CO13442","area_m2":238417}},{"type":"Polygon","arcs":[[-67,77]],"properties":{"codigo":"13442100000000000211","sector":"134421000000000002","pcode":"CO13442","area_m2":53465}},{"type":"Polygon","arcs":[[-56,-62,-48]],"properties":{"codigo":"13442100000000000203","sector":"134421000000000002","pcode":"CO13442","area_m2":96265}},{"type":"Polygon","arcs":[[-63,-53,78,79]],"properties":{"codigo":"13442100000000000103","sector":"134421000000000001","pcode":"CO13442","area_m2":175599}},{"type":"Polygon","arcs":[[-64,-36,80]],"properties":{"codigo":"13442100000000000209","sector":"134421000000000002","pcode":"CO13442","area_m2":145435}},{"type":"Polygon","arcs":[[81,-39,-33,-45,-42]],"properties":{"codigo":"13442100000000000302","sector":"134421000000000003","pcode":"CO13442","area_m2":74056}},{"type":"Polygon","arcs":[[82,-79,-52,-72,83,-40,-29,-76]],"properties":{"codigo":"13442100000000000102","sector":"134421000000000001","pcode":"CO13442","area_m2":310005}},{"type":"Polygon","arcs":[[-69,84,-73,85]],"properties":{"codigo":"13442100000000000210","sector":"134421000000000002","pcode":"CO13442","area_m2":98426}},{"type":"Polygon","arcs":[[86]],"properties":{"codigo":"13442200502030000101","sector":"134422005020300001","pcode":"CO13442","area_m2":59938}},{"type":"Polygon","arcs":[[87,88]],"properties":{"codigo":"13442200304004000101","sector":"134422003040040001","pcode":"CO13442","area_m2":39185}},{"type":"Polygon","arcs":[[-88,89]],"properties":{"codigo":"13442200304004000102","sector":"134422003040040001","pcode":"CO13442","area_m2":51025}},{"type":"MultiPolygon","arcs":[[[90]],[[91]]],"properties":{"codigo":"13442200502034000101","sector":"134422005020340001","pcode":"CO13442","area_m2":36848}},{"type":"Polygon","arcs":[[92,93]],"properties":{"codigo":"13442200102001000101","sector":"134422001020010001","pcode":"CO13442","area_m2":49084}},{"type":"Polygon","arcs":[[-93,94]],"properties":{"codigo":"13442200102001000102","sector":"134422001020010001","pcode":"CO13442","area_m2":53465}},{"type":"Polygon","arcs":[[95,96]],"properties":{"codigo":"13442200105002000101","sector":"134422001050020001","pcode":"CO13442","area_m2":143962}},{"type":"Polygon","arcs":[[97,-96]],"properties":{"codigo":"13442200105002000102","sector":"134422001050020001","pcode":"CO13442","area_m2":162110}},{"type":"Polygon","arcs":[[98,99]],"properties":{"codigo":"13442200502006000101","sector":"134422005020060001","pcode":"CO13442","area_m2":103918}},{"type":"Polygon","arcs":[[100,101,102,-99]],"properties":{"codigo":"13442200502006000102","sector":"134422005020060001","pcode":"CO13442","area_m2":136213}},{"type":"Polygon","arcs":[[103,104]],"properties":{"codigo":"13442200404007000101","sector":"134422004040070001","pcode":"CO13442","area_m2":209396}},{"type":"Polygon","arcs":[[105,-105,106,107]],"properties":{"codigo":"13442200404007000102","sector":"134422004040070001","pcode":"CO13442","area_m2":221130}},{"type":"Polygon","arcs":[[-108,108]],"properties":{"codigo":"13442200404007000103","sector":"134422004040070001","pcode":"CO13442","area_m2":336388}},{"type":"Polygon","arcs":[[109,110,111,112,113]],"properties":{"codigo":"13442200301008000101","sector":"134422003010080001","pcode":"CO13442","area_m2":113527}},{"type":"MultiPolygon","arcs":[[[-15,114,115,-112,116]],[[-110,117]]],"properties":{"codigo":"13442200301008000102","sector":"134422003010080001","pcode":"CO13442","area_m2":284213}},{"type":"Polygon","arcs":[[-116,118,-113]],"properties":{"codigo":"13442200301008000103","sector":"134422003010080001","pcode":"CO13442","area_m2":145991}},{"type":"Polygon","arcs":[[119]],"properties":{"codigo":"13442200302009000101","sector":"134422003020090001","pcode":"CO13442","area_m2":210824}},{"type":"Polygon","arcs":[[120]],"properties":{"codigo":"13442200502015000101","sector":"134422005020150001","pcode":"CO13442","area_m2":502989}},{"type":"MultiPolygon","arcs":[[[121]],[[122]]],"properties":{"codigo":"13442200505016000101","sector":"134422005050160001","pcode":"CO13442","area_m2":135311}},{"type":"Polygon","arcs":[[123]],"properties":{"codigo":"13442200505017000101","sector":"134422005050170001","pcode":"CO13442","area_m2":62221}},{"type":"Polygon","arcs":[[124]],"properties":{"codigo":"13442200505019000101","sector":"134422005050190001","pcode":"CO13442","area_m2":267258}},{"type":"Polygon","arcs":[[125]],"properties":{"codigo":"13442200504020000101","sector":"134422005040200001","pcode":"CO13442","area_m2":119235}},{"type":"Polygon","arcs":[[126]],"properties":{"codigo":"13442200401026000101","sector":"134422004010260001","pcode":"CO13442","area_m2":92326}},{"type":"Polygon","arcs":[[127,-102]],"properties":{"codigo":"13442200502040000101","sector":"134422005020400001","pcode":"CO13442","area_m2":183458}}]}},"arcs":[[[5387,1246],[4,-36],[-6,-46],[-46,-31],[-38,89],[86,24]],[[5426,940],[-6,2],[-25,61],[15,7],[26,-8],[-2,-47],[-8,-15]],[[5653,2287],[-22,-30],[-83,15],[-95,-102],[5,-30],[-23,30],[277,295],[8,-11],[-36,-36],[3,-21],[-49,-42],[24,-62],[-9,-6]],[[5777,2492],[-20,21],[40,42],[6,-11],[-32,-35],[6,-17]],[[7136,3073],[28,-92],[-23,-10],[-7,30],[-30,51],[-7,-6],[1,-41],[-27,-4],[0,42],[20,0],[3,19],[-24,11],[58,37],[8,-37]],[[3130,3402],[16,-6],[7,-40],[-9,-14],[24,-18],[-8,-42],[42,-9],[22,45],[28,41],[8,-8],[4,42],[22,-25],[-9,-39],[-37,-58],[13,-30],[-15,-22],[-10,5],[-9,-45],[-26,18],[-22,-12],[13,-54],[19,-26],[8,16],[28,-20],[-12,-37],[30,-22],[33,-8],[44,-31],[30,10],[10,-54],[-23,24],[-28,9],[-30,20],[-17,-34],[-19,22],[-11,-23],[-25,-6],[-31,35],[-31,-19],[-23,50],[26,13],[4,35],[-26,56],[-14,68],[-43,11],[32,35],[-8,12],[19,78],[-2,42],[-11,12],[9,42],[23,-2],[-15,-37]],[[3438,2950],[-5,-27],[18,-14],[-10,-23],[-19,16],[8,23],[-10,9],[18,16]],[[3396,2952],[-17,6],[8,17],[9,-23]],[[3150,3537],[15,-8],[-13,-27],[20,-56],[-25,-5],[-8,44],[-23,-4],[23,56],[11,0]],[[3191,3635],[-12,-43],[-16,-14],[-14,7],[-8,-36],[-21,1],[10,79],[15,-5],[4,35],[42,-24]],[[4977,2772],[4,-11],[19,17],[65,-20],[-43,-44],[42,-30],[-1,-11],[-27,-1],[-21,-26],[10,-8],[-44,-76],[-13,15],[-6,-57],[-17,-19],[-17,13],[26,126],[18,75],[2,32],[-21,12],[-12,-50],[-18,-18],[-34,10],[30,55],[10,-6],[16,55],[32,-33]],[[8721,9058],[-56,-32],[20,109],[-8,6],[22,41],[39,-6],[2,61],[-16,-19],[-28,38]],[[8696,9256],[62,48],[30,31],[20,37],[83,178],[50,-36],[14,26],[44,-30],[-54,-92],[-30,11],[-55,-98],[16,-34],[22,-17],[-5,-17],[36,-32],[-19,-26],[-49,-87],[-56,5],[2,-42],[-18,-1],[0,-21],[-37,2],[-12,10],[-19,-13]],[[8721,9058],[11,-2],[1,-58],[-47,-70],[-5,-27],[-72,-42],[-41,102],[-2,28],[48,192],[24,31],[58,44]],[[8482,9330],[4,27]],[[8486,9357],[139,-39],[14,-7],[-13,-51],[38,-22],[-32,-25],[-25,-42],[-42,-168],[-3,-33],[13,-41],[-29,-10],[-30,5],[50,212],[36,135],[-120,59]],[[8724,7420],[9,1],[-19,-95],[12,-3],[-7,-38],[-26,7],[-3,-19],[26,-6],[-6,-44],[-12,3],[-6,-36],[16,-2],[0,-17],[31,5],[-2,-19],[-29,5],[-1,-21],[-26,3],[-5,-34],[-22,3],[6,37],[-18,17],[-10,38],[12,30],[29,-13],[11,66],[-10,10],[7,53],[-14,11],[13,18],[18,-11],[5,30],[-13,20],[13,64],[12,-10],[-6,-42],[15,-11]],[[4807,534],[56,-80],[29,-28],[-12,-24],[-43,47],[11,12],[-32,42],[-28,-9],[-4,33],[-19,-23],[-10,13],[-14,-57],[13,10],[8,-29],[-24,-5],[-25,36],[16,6],[-1,67],[45,39],[34,-50]],[[6689,2943],[-8,-3],[-58,-61],[-21,-8],[-5,54],[51,121],[26,-29],[-6,-46],[21,-28]],[[86,7493],[14,-6],[-19,-28],[-13,-46],[22,-28],[19,-121],[8,-1],[8,-45],[-8,-55],[-66,-3],[-22,-28],[-10,9],[2,33],[-11,1],[-2,62],[13,22],[-16,1],[12,31],[4,84],[9,-1],[-5,38],[-22,15],[3,27],[42,-19],[17,39],[7,37],[14,-18]],[[2753,6044],[-40,21],[-9,-23],[-32,19],[-5,-20],[-84,49]],[[2583,6090],[7,16],[12,-12],[31,73],[24,40],[11,-18],[24,-11],[4,14],[30,7],[-10,-41],[19,-3],[38,-45],[-20,-66]],[[2753,6044],[-10,-29],[31,-17],[-16,-32],[-17,10],[-18,-27],[-34,16],[-16,-45],[-20,0],[-51,23],[24,66],[-19,14],[0,21],[-35,-5],[11,51]],[[7282,4062],[-124,-128],[-88,-95],[12,-8],[-27,-19],[11,-6],[-5,-38],[-20,18],[-30,-35],[28,-38],[28,0],[-3,-15],[-18,9],[-17,-14],[11,-15],[36,-5],[64,-23],[25,-23],[11,-29],[29,-37],[8,23],[19,-8],[5,31],[15,-6],[-7,-30],[24,-6],[11,-23],[29,-36],[-28,1],[-1,15],[-25,-7],[-6,-29],[-36,3],[-28,13],[4,18],[-29,49],[-14,33],[-28,5],[-6,-13],[-21,15],[3,21],[-52,18],[-41,-27],[6,-39],[25,-27],[9,15],[39,-43],[54,-42],[6,12],[19,-12],[-9,-20],[14,-12],[-7,-15],[42,-37],[11,22],[16,-12],[-5,-18],[55,-31],[1,-15],[48,-31],[11,-13],[19,14],[-9,-29],[41,-39],[-9,-9],[-35,37],[-103,87],[-16,-34],[-6,27],[-28,25],[-19,-12],[-22,46],[-12,-4],[7,27],[-104,96],[-16,-16],[-14,17],[-29,-13],[8,-32],[31,-68],[18,-3],[9,-16],[-23,-30],[-33,65],[-9,-4],[-17,57],[-38,19],[-14,-30],[-13,5],[9,28],[-24,19],[-37,6],[-48,26],[-49,-29],[3,-29],[-18,12],[-11,-10],[-12,20],[-162,-172],[21,-25],[-19,-1],[-72,-77],[5,-8],[-28,-23],[7,-14],[-16,-17],[-21,34],[27,29],[-17,19],[94,80],[-11,19],[27,13],[-25,32],[-8,37],[-33,13],[3,21],[-16,22],[-26,9],[1,19],[-18,31],[-59,41],[-10,20],[24,18],[156,-207],[114,123],[19,-40],[37,35],[33,48],[4,-7],[24,33],[9,-8],[62,67],[30,38],[13,40],[-24,16],[-30,-32],[0,28],[-38,8],[-13,-20],[-6,34],[34,51],[0,14],[31,25],[22,-25],[20,27],[12,-12],[26,48],[15,38],[-4,22],[13,77],[27,-12],[-17,-62],[0,-59],[-16,-18],[2,-20],[-22,-31],[16,-38],[18,12],[8,-17],[33,25],[13,20],[-3,43],[34,12],[13,-10],[18,14],[-5,18],[39,45],[-8,18],[17,11],[13,-18],[14,17],[5,31],[41,-28],[73,77],[29,-38]],[[6362,3371],[7,-15],[-43,-38],[-2,-14],[23,-45],[-27,-15],[-10,20],[15,14],[-13,27],[-15,-9],[-15,27],[26,19],[-11,22],[15,10],[12,-17],[31,27],[7,-13]],[[8450,5839],[0,-12],[-46,-94],[-15,-15],[-13,11],[12,19],[-31,26],[-52,13],[17,60],[49,-12],[-1,54],[-35,4],[13,50],[-20,6],[6,33],[125,-35],[-20,-100],[11,-8]],[[8465,6063],[15,13],[22,-19],[-13,-14],[1,-45],[-33,6],[-1,-13],[-34,26],[14,62],[29,-16]],[[6457,6979],[-31,-61],[-22,-2]],[[6404,6916],[-71,112]],[[6333,7028],[53,60]],[[6386,7088],[33,-38],[2,-25],[33,-25],[3,-21]],[[7130,5706],[73,83],[20,-28]],[[7223,5761],[19,-27]],[[7242,5734],[-70,-83],[-42,55]],[[7353,5632],[-21,-25],[29,-32]],[[7361,5575],[-43,-43],[-89,-137]],[[7229,5395],[-175,230]],[[7054,5625],[76,81]],[[7242,5734],[47,-66],[16,15],[48,-51]],[[6333,7028],[-18,28],[-31,-35]],[[6284,7021],[-64,71],[-33,30],[-38,25],[-20,3],[-27,-14],[-12,8],[-14,58],[68,30],[64,-31],[105,-24],[30,-35],[22,-64],[21,10]],[[7552,5671],[-175,71],[-133,55]],[[7244,5797],[-144,59],[-5,13]],[[7095,5869],[43,-21],[27,4],[-2,-12],[90,-35],[14,-9],[26,74],[53,-26],[-16,-72],[218,-88],[4,-13]],[[7244,5797],[-21,-36]],[[7054,5625],[-151,-129]],[[6903,5496],[25,54],[24,61],[-3,43]],[[6949,5654],[8,31],[74,33],[50,33],[9,15],[-26,36],[15,11],[-22,58]],[[7057,5871],[30,14]],[[7087,5885],[8,-16]],[[6868,5877],[-51,79],[26,29],[-46,94]],[[6797,6079],[79,47]],[[6876,6126],[78,-164]],[[6954,5962],[-26,-27]],[[6928,5935],[-60,-58]],[[6981,5825],[-73,-54],[41,-117]],[[6903,5496],[-11,1]],[[6892,5497],[20,35],[-9,7],[17,44],[-22,21],[23,27],[-19,62],[-17,-1],[-29,18],[-12,39],[-30,22],[-65,-59],[-15,22],[-52,-65],[9,-8],[-13,-20],[-8,13],[-56,-73],[-35,-20],[9,15]],[[6588,5576],[21,15],[126,162],[33,34],[100,90]],[[6928,5935],[53,-110]],[[7141,6053],[-32,1],[-18,-12],[8,-38],[30,11],[12,-39],[22,-1],[-74,-20],[-3,-29],[17,-24],[-16,-17]],[[7057,5871],[-76,-46]],[[6954,5962],[76,65],[68,44],[43,-9],[0,-9]],[[7229,5395],[121,-159]],[[7350,5236],[-18,-29]],[[7332,5207],[-48,41],[-41,54],[-6,-12],[-29,40],[-3,23],[-28,-52],[-15,15],[-12,-21],[-25,14],[0,15],[48,72],[-53,69],[-11,-17],[-15,6],[-11,-57],[-52,11],[7,-64],[-7,1],[-13,119],[-42,-12],[-44,6],[-19,26],[-8,-22],[-7,-71],[1,-80],[-3,-22],[-28,-45],[-48,-13],[-21,9],[67,22],[9,18],[5,49],[-5,30],[9,63],[-3,13]],[[6881,5435],[7,68]],[[6888,5503],[4,-6]],[[7776,4811],[56,88],[-13,19]],[[7819,4918],[-4,10],[32,37],[36,-45],[-32,-32],[20,-25],[-43,-48],[-16,-29],[-17,6],[-4,-58],[-13,-6],[0,-52],[-31,-43],[-15,8],[37,133],[-13,25],[20,12]],[[6588,5576],[-5,10],[44,44],[52,67],[-7,8],[63,79],[-43,55],[36,40],[8,19],[-19,15],[-40,12],[-50,5],[36,5],[62,-11],[-4,79],[33,14],[-36,85],[-31,-28],[-16,34],[31,26],[9,-19],[21,18],[-15,29],[11,12]],[[6728,6174],[48,-26],[-11,-11],[32,-58]],[[7586,4927],[43,-56]],[[7629,4871],[29,-49],[-51,-44],[-52,-11],[-38,-17],[-45,-43],[-36,5],[33,17],[41,40],[18,2],[-2,30],[-23,-28],[-21,27],[-11,-2],[28,42],[-8,10],[-15,-16],[-12,17],[9,24],[-25,15],[-8,35],[-8,-4],[-54,21],[75,85],[-47,50],[-32,43],[-27,2],[9,54],[-24,31]],[[7350,5236],[218,-284],[18,-25]],[[6890,6333],[-22,-39],[-66,-25],[-18,65],[-42,89],[-34,58],[-48,65],[-80,89],[-34,47],[-39,71],[-103,163]],[[6457,6979],[16,-87],[16,-8],[10,-40],[12,-9],[19,-39],[37,-47],[7,-33],[37,-31],[24,-5],[39,-30],[4,-49],[37,-27],[25,-28],[-2,-9],[34,-34],[51,-11],[-4,-32],[14,-44],[-2,-57],[29,-5],[30,-21]],[[6881,5435],[-70,-16],[0,36],[-15,-7],[3,44],[-21,20],[58,71],[52,-80]],[[6876,6126],[59,35],[9,14]],[[6944,6175],[49,23],[35,26],[21,-18],[33,20],[-29,-27],[51,-75],[-5,-21],[38,-4],[29,5],[0,-53],[-25,2]],[[7361,5575],[29,-44],[11,4],[38,-19],[-8,-23],[-31,10],[-5,-54],[-23,-50],[-24,10],[-24,-37],[2,-13],[60,-54],[10,-14],[-46,-55]],[[7552,5671],[1,-15],[-90,38],[-31,19],[-61,21],[-13,-36],[25,-32],[-30,-34]],[[6890,6333],[19,-58],[22,-48],[-5,-33],[18,-19]],[[6728,6174],[11,39],[-19,67],[40,15],[-28,66],[-7,28],[-24,52],[-75,104],[-100,106],[-26,36],[-40,73],[-176,261]],[[7776,4811],[-10,35],[17,5],[8,19],[-5,26],[-24,6],[-93,3],[-20,9],[-21,-16],[1,-27]],[[7586,4927],[10,10],[19,-23],[15,16],[-23,41],[23,43],[7,-30],[14,3],[37,-16],[1,15],[27,30],[21,-3],[39,-22],[43,-73]],[[4407,3289],[12,12],[43,-46],[69,-82],[4,20],[23,-9],[-8,-41],[44,-31],[6,15],[63,-50],[-23,-22],[-104,78],[-16,-3],[-13,25],[-61,68],[-8,-5],[-20,31],[-11,-17],[-28,39],[16,38],[12,-20]],[[9951,6487],[-69,-97],[-31,-29]],[[9851,6361],[-8,15],[18,20],[-15,11],[9,23],[38,29],[24,47],[15,9],[20,47],[17,5],[29,-18],[-4,-17],[-41,-26],[-2,-19]],[[9951,6487],[-4,-36],[-14,-37],[5,-21],[33,-18],[3,-17],[-20,-18],[-29,-14],[0,-16],[-22,-10],[-11,-20],[-21,26],[-20,55]],[[4250,4957],[-1,-36],[91,-7],[-21,-22],[-63,-2],[-7,-27],[-1,-72],[-23,-12],[-1,75],[18,6],[-28,56],[12,9],[-3,53],[21,6],[6,-27]],[[4244,4999],[-14,6],[-13,49],[16,12],[11,-67]],[[2289,9272],[9,-12],[-24,-27],[27,-35],[14,16],[23,-13]],[[2338,9201],[6,-10],[-14,-27],[24,-32],[30,-27],[-30,-2],[-9,23],[-26,19],[-27,-1],[-24,18],[-30,-60],[-22,13],[17,42],[-3,12],[19,34],[-16,16],[56,53]],[[2289,9272],[59,62],[21,-7],[23,-39],[-8,-8],[20,-31],[-19,-11],[5,-27],[-29,-17],[-15,18],[-8,-11]],[[1643,3260],[-23,66],[-41,-17],[-65,11],[-152,-2]],[[1362,3318],[7,23],[21,5],[4,52],[77,-11],[16,-7],[17,-34],[22,6],[19,28],[-9,44],[32,24],[39,10],[5,36],[20,6],[-7,-32],[34,-4],[-5,-41],[-20,-13],[16,-12],[1,-26],[24,-1],[8,-88],[-24,-3],[7,-31],[-16,-8],[-7,19]],[[1643,3260],[-62,-10],[-8,-13],[-35,24],[-10,-26],[-25,10],[-16,-38],[14,-13],[-9,-24],[-161,11],[-21,5],[41,26],[-37,62],[29,43],[19,1]],[[3887,2284],[-14,4],[-67,-3],[-46,5],[-34,-3]],[[3726,2287],[-6,32],[45,-26],[13,4],[11,35],[13,7],[13,31],[-19,12],[8,12],[21,-12],[6,19],[13,-6],[27,53],[11,-2],[22,68],[19,-15],[27,18],[4,-51],[0,-68],[-22,-18],[-27,-5],[-9,-29],[-9,-62]],[[3887,2284],[-16,-31],[4,-59],[8,-15],[30,-15],[4,-36],[-19,1],[-14,23],[-20,-5],[-23,49],[-26,1],[-11,-79],[-10,0]],[[3794,2118],[1,9],[-39,-6]],[[3756,2121],[-17,-7],[0,19],[-22,-4],[-6,35],[-17,-4],[-54,-30],[-16,-2],[8,29],[-13,32],[14,23],[24,-37],[52,25],[7,63],[18,-15],[-8,39]],[[5684,91],[-1,-23],[-15,-1],[-44,-33],[-35,-13],[-36,7],[0,28],[-30,1],[-44,30],[-27,-33],[-38,20],[-54,-1],[-10,9],[2,28],[-43,5],[-39,12],[5,19],[44,-16],[59,92],[29,-2],[0,12],[84,-29],[31,4],[33,14],[26,40]],[[5581,261],[9,-96],[3,-62],[9,-28],[82,16]],[[5825,169],[-14,-9],[-20,-45],[3,-24],[-11,-8],[11,-61],[-24,-20],[-22,21],[-13,34],[-30,27],[-21,7]],[[5581,261],[-2,12],[62,28]],[[5641,301],[31,-1],[16,27],[28,-60],[-3,-34],[98,6],[11,-14],[3,-56]],[[5641,301],[23,61],[28,91],[36,-26],[29,17],[40,52],[10,23],[30,-4],[1,18],[33,-10],[53,-53],[44,-19],[-14,-20],[-21,0],[31,-72],[24,-26],[-52,-33],[-32,-58],[-13,-44],[-66,-29]],[[8561,9907],[-2,-12]],[[8559,9895],[-5,-22]],[[8554,9873],[-17,-92],[-83,-74]],[[8454,9707],[-36,65],[-24,54],[-20,21],[7,7],[-40,94]],[[8341,9948],[-18,40],[20,11],[6,-18],[14,11],[26,-16],[16,11],[17,-52],[19,-7],[-24,-12],[38,-85],[13,11],[28,-44],[23,6],[5,34],[21,78],[16,-9]],[[8482,9330],[-14,5],[6,33],[-61,13],[18,8],[3,64],[-10,7],[-58,140],[10,13]],[[8376,9613],[12,30],[66,64]],[[8554,9873],[11,-21],[-6,-35],[26,5],[-2,-54],[17,5],[-8,-67],[-21,-105],[16,-62],[-34,-12],[-20,-39],[-27,-14],[-2,-70],[-13,0],[-5,-47]],[[8561,9907],[21,9],[3,-24],[-26,3]],[[8376,9613],[-6,33],[8,16],[-13,20],[-12,-23],[-37,61],[-56,147],[17,60],[37,-1],[27,22]],[[8802,8967],[6,-32],[-7,-14],[0,-50],[12,-34],[-7,-31],[38,-8],[2,-60],[-36,8],[-16,-14],[0,-58],[11,-15],[-18,-4],[-1,-232],[46,-1],[0,-26],[26,-2],[-9,-128],[-61,3],[-1,111],[-37,2],[9,117],[-5,36],[-85,193],[46,39],[50,-34],[-1,40],[8,23],[0,62],[-10,8],[7,91],[19,1],[-1,36],[11,-1],[4,-26]],[[4776,3856],[28,12],[88,104],[22,-15],[101,-54],[34,-22],[-68,-52],[1,-19],[-21,-75],[-11,-6],[-50,-189],[-47,20],[-50,-18],[-1,-26],[-28,-1],[-18,33],[-30,22],[-30,59],[-10,6],[-42,-20],[62,306],[5,55],[11,-9],[13,-69],[41,-42]],[[4630,1591],[-4,-21],[-24,-7],[-1,-39],[-13,-34],[10,-23],[6,-82],[57,-3],[-8,-43],[20,1],[31,-17],[-34,-13],[-15,-22],[-1,-34],[23,-56],[-24,-17],[-13,31],[-10,77],[-8,0],[-11,-77],[-14,3],[14,94],[-37,2],[2,21],[21,29],[-36,42],[21,49],[-40,54],[0,66],[5,26],[27,-9],[8,60],[-22,10],[1,51],[26,-7],[-3,-29],[40,-39],[6,-44]],[[4484,1366],[16,-20],[-18,-5],[14,-42],[-3,-60],[-13,5],[-18,38],[14,42],[-13,23],[21,19]],[[4502,1041],[8,15],[57,-18],[-19,-104],[2,-24],[49,-63],[-15,-4],[-48,59],[-6,18],[-21,-25],[-12,18],[-5,31],[-15,2],[-16,33],[9,56],[-3,21],[28,5],[7,-20]],[[4848,2078],[-9,-15],[3,-34],[9,-12],[-19,-30],[-21,-3],[-10,-22],[2,-31],[9,1],[7,46],[40,21],[7,-30],[26,13],[12,-39],[64,6],[-6,18],[22,20],[30,2],[-1,-36],[171,17],[0,-23],[-31,-12],[-31,8],[-209,-26],[-27,3],[-6,-33],[-29,27],[-50,-10],[-97,-8],[-18,12],[-6,-27],[-13,2],[0,-26],[-48,-15],[-7,32],[-15,-3],[4,-50],[-16,-3],[-8,68],[-31,-3],[-2,20],[-59,-6],[-3,-23],[-31,-6],[-13,-33],[4,-32],[-39,4],[-4,82],[-39,-5],[-11,13],[0,34],[50,-21],[44,8],[12,9],[36,-4],[5,31],[62,7],[6,53],[36,-3],[-2,-13],[51,-18],[40,-30],[19,-1],[4,26],[19,-1],[-2,-32],[53,9],[4,37],[27,59],[7,29],[13,-4],[9,42],[9,-4],[-3,-32]],[[2969,283],[24,-6],[29,-25],[29,-6],[4,10],[29,-9],[-4,-25],[-14,3],[-10,-23],[7,-28],[-2,-34],[-14,9],[-19,-37],[-14,11],[-16,-45],[-39,-75],[-122,134],[-3,16],[17,18],[18,-6],[15,-40],[60,-17],[11,3],[19,51],[25,40],[-24,25],[-38,53],[12,25],[20,-22]],[[8058,5243],[23,3],[-67,-98],[-2,-30],[-20,-18],[-10,-59],[-13,15],[-21,-28],[-15,31],[-44,5],[19,30],[-9,9],[40,52],[13,-1],[14,20],[-21,30],[24,22],[26,36],[42,13],[5,-21],[16,-11]],[[3794,2118],[9,-156],[25,-78],[20,10],[37,-20],[0,-27],[26,0],[8,-60],[-39,0],[9,-30],[21,-11],[49,-12],[60,61],[6,-17],[-28,-33],[26,7],[8,-30],[-21,-10],[-16,29],[-61,-74],[32,-41],[-18,-24],[4,-14],[-67,-18],[-14,-20],[-17,29],[-32,-18],[-130,-51],[-11,30],[147,62],[4,17],[52,55],[5,18],[-95,245],[-5,20],[-32,164]]]}
