{"type":"Topology","bbox":[-75.47968356639194,10.10616304291466,-75.27120675672433,10.271932161814204],"transform":{"scale":[0.000020849765943355907,0.00001657856974692905],"translate":[-75.47968356639194,10.10616304291466]},"objects":{"municipios":{"type":"GeometryCollection","geometries":[{"type":"Polygon","arcs":[[0,1,2,3,4]],"properties":{"codigo":"13052200102001000101","sector":"130522001020010001","pcode":"CO13052","area_m2":70436}},{"type":"Polygon","arcs":[[5,-3,6]],"properties":{"codigo":"13052200102001000102","sector":"130522001020010001","pcode":"CO13052","area_m2":87495}},{"type":"Polygon","arcs":[[-1,7]],"properties":{"codigo":"13052200102001000103","sector":"130522001020010001","pcode":"CO13052","area_m2":88652}},{"type":"Polygon","arcs":[[-4,-6,8]],"properties":{"codigo":"13052200102001000104","sector":"130522001020010001","pcode":"CO13052","area_m2":58913}},{"type":"Polygon","arcs":[[9]],"properties":{"codigo":"13052200503002000101","sector":"130522005030020001","pcode":"CO13052","area_m2":150282}},{"type":"MultiPolygon","arcs":[[[10]],[[11]]],"properties":{"codigo":"13052200503002000102","sector":"130522005030020001","pcode":"CO13052","area_m2":16450}},{"type":"Polygon","arcs":[[12,13,14]],"properties":{"codigo":"13052200103003000101","sector":"130522001030030001","pcode":"CO13052","area_m2":68320}},{"type":"Polygon","arcs":[[15,-15,16,17]],"properties":{"codigo":"13052200103003000102","sector":"130522001030030001","pcode":"CO13052","area_m2":88746}},{"type":"Polygon","arcs":[[18,-18,19]],"properties":{"codigo":"13052200103003000103","sector":"130522001030030001","pcode":"CO13052","area_m2":56419}},{"type":"Polygon","arcs":[[-20,-17,-14,20]],"properties":{"codigo":"13052200103003000104","sector":"130522001030030001","pcode":"CO13052","area_m2":126856}},{"type":"Polygon","arcs":[[21,22]],"properties":{"codigo":"13052200504004000101","sector":"130522005040040001","pcode":"CO13052","area_m2":95746}},{"type":"Polygon","arcs":[[-22,23,24,25,26]],"properties":{"codigo":"13052200504004000102","sector":"130522005040040001","pcode":"CO13052","area_m2":89290}},{"type":"Polygon","arcs":[[27,-25,28]],"properties":{"codigo":"13052200504004000103","sector":"130522005040040001","pcode":"CO13052","area_m2":141474}},{"type":"Polygon","arcs":[[29,-26,-28]],"properties":{"codigo":"13052200504004000104","sector":"130522005040040001","pcode":"CO13052","area_m2":44364}},{"type":"Polygon","arcs":[[30]],"properties":{"codigo":"13052200401005000101","sector":"130522004010050001","pcode":"CO13052","area_m2":114971}},{"type":"Polygon","arcs":[[31]],"properties":{"codigo":"13052200304008000101","sector":"130522003040080001","pcode":"CO13052","area_m2":28154}},{"type":"Polygon","arcs":[[32,33,34,35,36,37,38,39]],"properties":{"codigo":"13052100000000000101","sector":"130521000000000001","pcode":"CO13052","area_m2":163798}},{"type":"Polygon","arcs":[[40,41,42,43,44,-37]],"properties":{"codigo":"13052100000000000102","sector":"130521000000000001","pcode":"CO13052","area_m2":107742}},{"type":"Polygon","arcs":[[45,46,47,48,-43]],"properties":{"codigo":"13052100000000000103","sector":"130521000000000001","pcode":"CO13052","area_m2":147023}},{"type":"Polygon","arcs":[[49,50,51,52,53,-47,54]],"properties":{"codigo":"13052100000000000104","sector":"130521000000000001","pcode":"CO13052","area_m2":184336}},{"type":"Polygon","arcs":[[55,-51,56]],"properties":{"codigo":"13052100000000000105","sector":"130521000000000001","pcode":"CO13052","area_m2":100042}},{"type":"Polygon","arcs":[[-52,-56,57,58,59,60]],"properties":{"codigo":"13052100000000000106","sector":"130521000000000001","pcode":"CO13052","area_m2":297292}},{"type":"Polygon","arcs":[[61,62,63,64,65,-58,-57,-50,66]],"properties":{"codigo":"13052100000000000107","sector":"130521000000000001","pcode":"CO13052","area_m2":199422}},{"type":"Polygon","arcs":[[-54,67,68,69,70,-48]],"properties":{"codigo":"13052100000000000108","sector":"130521000000000001","pcode":"CO13052","area_m2":100528}},{"type":"Polygon","arcs":[[71,72,73,-38,-45]],"properties":{"codigo":"13052100000000000109","sector":"130521000000000001","pcode":"CO13052","area_m2":41056}},{"type":"Polygon","arcs":[[74,-67,-55,-46,-42,75]],"properties":{"codigo":"13052100000000000201","sector":"130521000000000002","pcode":"CO13052","area_m2":305814}},{"type":"Polygon","arcs":[[76,77,78,79,80,-76,-41,-36,81,82]],"properties":{"codigo":"13052100000000000202","sector":"130521000000000002","pcode":"CO13052","area_m2":324055}},{"type":"Polygon","arcs":[[83,-79,84,85,86]],"properties":{"codigo":"13052100000000000203","sector":"130521000000000002","pcode":"CO13052","area_m2":65474}},{"type":"Polygon","arcs":[[87,88,-80,-84,89]],"properties":{"codigo":"13052100000000000204","sector":"130521000000000002","pcode":"CO13052","area_m2":62153}},{"type":"Polygon","arcs":[[-89,90,-75,-81]],"properties":{"codigo":"13052100000000000205","sector":"130521000000000002","pcode":"CO13052","area_m2":207701}},{"type":"Polygon","arcs":[[-77,91,92]],"properties":{"codigo":"13052100000000000301","sector":"130521000000000003","pcode":"CO13052","area_m2":60546}},{"type":"Polygon","arcs":[[93,94,95,-92,-83,96]],"properties":{"codigo":"13052100000000000302","sector":"130521000000000003","pcode":"CO13052","area_m2":325944}},{"type":"Polygon","arcs":[[97,-93,-96,98,99]],"properties":{"codigo":"13052100000000000303","sector":"130521000000000003","pcode":"CO13052","area_m2":97271}},{"type":"Polygon","arcs":[[-85,-78,-98,100,101]],"properties":{"codigo":"13052100000000000304","sector":"130521000000000003","pcode":"CO13052","area_m2":92190}},{"type":"Polygon","arcs":[[102,-101,-100,103,104]],"properties":{"codigo":"13052100000000000305","sector":"130521000000000003","pcode":"CO13052","area_m2":113938}},{"type":"Polygon","arcs":[[105,-104,-99,-95,106]],"properties":{"codigo":"13052100000000000306","sector":"130521000000000003","pcode":"CO13052","area_m2":135944}},{"type":"Polygon","arcs":[[-107,-94,107]],"properties":{"codigo":"13052100000000000307","sector":"130521000000000003","pcode":"CO13052","area_m2":464176}},{"type":"Polygon","arcs":[[108,109,110,-62,-91,-88]],"properties":{"codigo":"13052100000000000401","sector":"130521000000000004","pcode":"CO13052","area_m2":261331}},{"type":"Polygon","arcs":[[111,-109,-90,-87,112,113]],"properties":{"codigo":"13052100000000000402","sector":"130521000000000004","pcode":"CO13052","area_m2":113684}},{"type":"Polygon","arcs":[[114,115,116,-113,-86,-102,-103]],"properties":{"codigo":"13052100000000000403","sector":"130521000000000004","pcode":"CO13052","area_m2":278769}},{"type":"Polygon","arcs":[[117,118,119,-114,-117]],"properties":{"codigo":"13052100000000000404","sector":"130521000000000004","pcode":"CO13052","area_m2":217021}},{"type":"Polygon","arcs":[[120,121,122,-119]],"properties":{"codigo":"13052100000000000405","sector":"130521000000000004","pcode":"CO13052","area_m2":330462}},{"type":"Polygon","arcs":[[-120,-123,123,124,-112]],"properties":{"codigo":"13052100000000000406","sector":"130521000000000004","pcode":"CO13052","area_m2":236168}},{"type":"Polygon","arcs":[[125,126,127,-110,-125]],"properties":{"codigo":"13052100000000000407","sector":"130521000000000004","pcode":"CO13052","area_m2":209012}},{"type":"Polygon","arcs":[[128,-121,-118,-116]],"properties":{"codigo":"13052100000000000408","sector":"130521000000000004","pcode":"CO13052","area_m2":450015}},{"type":"Polygon","arcs":[[129,-69,130,131,132]],"properties":{"codigo":"13052100000000000501","sector":"130521000000000005","pcode":"CO13052","area_m2":98992}},{"type":"Polygon","arcs":[[133,-70,-130,134,135,136]],"properties":{"codigo":"13052100000000000502","sector":"130521000000000005","pcode":"CO13052","area_m2":115386}},{"type":"Polygon","arcs":[[-136,137,138,139,-39,-74,140]],"properties":{"codigo":"13052100000000000503","sector":"130521000000000005","pcode":"CO13052","area_m2":150214}},{"type":"Polygon","arcs":[[141,-137,-141,-73]],"properties":{"codigo":"13052100000000000504","sector":"130521000000000005","pcode":"CO13052","area_m2":66216}},{"type":"Polygon","arcs":[[-72,-44,-49,-71,-134,-142]],"properties":{"codigo":"13052100000000000505","sector":"130521000000000005","pcode":"CO13052","area_m2":96867}},{"type":"Polygon","arcs":[[142,143,-40,-140,144]],"properties":{"codigo":"13052100000000000506","sector":"130521000000000005","pcode":"CO13052","area_m2":141642}},{"type":"Polygon","arcs":[[145,146,-143,147]],"properties":{"codigo":"13052100000000000507","sector":"130521000000000005","pcode":"CO13052","area_m2":63287}},{"type":"Polygon","arcs":[[-34,148,-146,149]],"properties":{"codigo":"13052100000000000508","sector":"130521000000000005","pcode":"CO13052","area_m2":168437}},{"type":"Polygon","arcs":[[-33,-144,-147,-149]],"properties":{"codigo":"13052100000000000509","sector":"130521000000000005","pcode":"CO13052","area_m2":56630}},{"type":"Polygon","arcs":[[150,151,152,153,-60]],"properties":{"codigo":"13052100000000000602","sector":"130521000000000006","pcode":"CO13052","area_m2":86577}},{"type":"Polygon","arcs":[[154,155,-153,156]],"properties":{"codigo":"13052100000000000603","sector":"130521000000000006","pcode":"CO13052","area_m2":47918}},{"type":"Polygon","arcs":[[157,-155]],"properties":{"codigo":"13052100000000000604","sector":"130521000000000006","pcode":"CO13052","area_m2":41628}},{"type":"Polygon","arcs":[[158,-65]],"properties":{"codigo":"13052100000000000607","sector":"130521000000000006","pcode":"CO13052","area_m2":47379}},{"type":"Polygon","arcs":[[-151,-59,-66,-159,-64,159]],"properties":{"codigo":"13052100000000000610","sector":"130521000000000006","pcode":"CO13052","area_m2":43013}},{"type":"Polygon","arcs":[[160,-127]],"properties":{"codigo":"13052100000000000701","sector":"130521000000000007","pcode":"CO13052","area_m2":95801}},{"type":"Polygon","arcs":[[-132,161,162]],"properties":{"codigo":"13052100000000000801","sector":"130521000000000008","pcode":"CO13052","area_m2":41066}},{"type":"Polygon","arcs":[[-135,-133,-163,163,-138]],"properties":{"codigo":"13052100000000000802","sector":"130521000000000008","pcode":"CO13052","area_m2":152566}}]}},"arcs":[[[307,847],[-28,-18],[-8,-10],[-28,-18],[5,-12],[-38,-21],[8,-20],[-69,-47],[-29,-23],[-20,-7]],[[100,671],[-8,23],[-9,17],[16,10],[-11,27]],[[88,748],[55,39],[52,35]],[[195,822],[83,49],[26,18],[39,22]],[[343,911],[5,-20],[-27,-18],[-6,-11],[-1,-16],[-7,1]],[[152,893],[5,-10],[10,5],[28,-66]],[[88,748],[-7,9],[-14,-9],[-9,11],[-9,26],[-11,16],[-19,47],[-19,41],[34,18],[16,-41],[14,16],[31,23],[7,-2],[-3,12],[-26,14],[7,10],[39,21],[14,-32],[-6,-4],[14,-32],[11,1]],[[307,847],[6,-17],[-7,-11],[-26,-13],[-8,3],[23,-81],[-31,5],[0,-13],[-26,-17],[8,-20],[1,-14],[-12,-7],[4,-16],[-7,5],[-14,-13],[-13,-1],[-10,20],[-19,-13],[11,-26],[14,11],[8,-31],[18,-30],[-21,-17],[4,-7],[-9,-7],[11,-21],[-7,-3],[-14,14],[-19,33],[-18,24],[-34,53],[-7,20],[-13,14]],[[152,893],[11,4],[2,10],[22,-2],[-4,11],[16,1],[11,-5],[8,-16],[36,16],[-14,26],[8,5],[-6,9],[5,7],[13,-12],[16,-28],[35,9],[-20,37],[-11,35],[35,17],[17,-26],[14,-40],[15,-30],[-18,-10]],[[8787,3650],[-5,-19],[10,-7],[-13,-18],[-21,-20],[-8,-20],[-1,-23],[-13,0],[-3,-29],[-7,-29],[-16,-36],[-22,-34],[-6,2],[-12,-53],[-10,-16],[25,-27],[-30,-43],[-51,-51],[0,36],[6,23],[15,15],[6,14],[-11,10],[-13,-23],[-14,4],[-10,-14],[-13,19],[12,15],[-28,37],[-17,39],[0,9],[33,52],[4,1],[22,-34],[3,2],[-9,40],[5,19],[46,41],[25,-2],[31,37],[17,-1],[7,11],[5,-6],[22,47],[3,-3],[18,35],[-20,-6],[-5,11],[31,12],[17,14],[1,-17],[-6,-14]],[[8796,3430],[4,-5],[-17,-33],[-45,-75],[15,-17],[-11,-18],[-9,23],[-15,15],[17,40],[24,33],[2,-2],[27,38],[8,1]],[[8723,3252],[-37,-1],[-21,-10],[-5,-14],[-6,13],[14,14],[56,11],[9,6],[7,-7],[-17,-12]],[[3077,37],[-24,-7],[-34,-3],[-40,-21],[-14,15],[-8,-10],[-26,-11],[-3,14],[7,14],[-4,31],[13,2],[0,23],[6,19],[6,0],[-3,34],[38,13],[47,0],[19,-5]],[[3057,145],[18,-4]],[[3075,141],[-15,-46],[13,0],[4,-58]],[[3238,129],[-8,-2],[-15,33],[-22,-8],[3,-25],[-7,-15],[-27,-28],[-24,-2],[-6,-9],[-16,-1],[1,-6],[-17,-24],[-23,-5]],[[3075,141],[21,48],[14,19],[28,25],[25,15],[43,12]],[[3206,260],[16,-75],[11,3],[5,-59]],[[3340,185],[-37,-79],[-30,18],[-12,3],[1,-12],[-17,0],[0,14],[-7,0]],[[3206,260],[28,9],[36,24],[8,-23],[5,-36],[16,3],[5,-16],[10,2],[0,-34],[26,-4]],[[3057,145],[24,57],[7,6],[6,20],[6,-3],[22,14],[9,0],[-2,9],[8,9],[24,8],[-1,8],[46,4],[38,20],[11,11],[3,-11],[18,13],[23,9],[-2,7],[10,8],[3,35],[10,6],[34,75],[33,-36],[-15,-17],[-1,-22],[24,0],[-1,-12],[10,-1],[0,-10],[23,-4],[0,-14],[34,-5],[4,-11],[-24,0],[-3,-15],[-14,-3],[8,-11],[11,-29],[-46,-12],[4,-20],[-11,-2],[4,-18],[-24,-12],[-21,1],[-9,-12]],[[9759,2377],[-11,-2],[-33,2],[-63,10],[-33,2]],[[9619,2389],[-3,49],[3,59],[19,66],[6,8],[19,-9],[15,-1],[30,5],[21,-10],[8,-12],[14,-49],[-2,-45],[2,-46],[8,-27]],[[9759,2377],[22,-42],[33,-33]],[[9814,2302],[1,-10],[-39,-55]],[[9776,2237],[-41,-50]],[[9735,2187],[-88,130],[-25,34],[-3,38]],[[9822,2062],[41,31],[14,15],[-87,110],[-14,19]],[[9814,2302],[45,-28],[33,-26],[14,-6],[2,5],[24,-7],[-7,-17],[26,-17],[11,13],[2,-18],[25,-35],[6,-29],[-5,0],[9,-78],[-64,2],[24,-76],[-57,-3],[0,18],[6,0],[-1,17],[19,0],[0,43],[-63,2],[8,-20],[-13,-6],[-9,-14],[-27,40]],[[9822,2062],[-87,125]],[[6706,7704],[50,-101],[-44,-57],[-9,18],[-47,-61],[-35,-45],[-25,52],[-31,-17],[-30,-13],[-5,22],[30,13],[-5,15],[24,8],[5,-11],[18,10],[-29,54],[5,5],[-35,60],[13,8],[8,-17],[10,7],[-9,20],[7,6],[18,-37],[21,16],[14,-25],[30,22],[-14,30],[22,17],[4,-9],[33,21],[6,-11]],[[8441,8474],[9,-7],[3,9],[21,-11],[-25,-41],[-16,-5],[-21,14],[13,28],[-16,10],[-28,-40],[7,-9],[-5,-8],[26,-11],[-12,-21],[-47,21],[12,35],[53,59],[12,45],[17,-2],[-5,-11],[16,-6],[-13,-39],[-1,-10]],[[6305,9703],[13,-22],[-18,-14],[17,-25],[-6,-14],[35,-52],[39,41],[29,-49],[31,35]],[[6445,9603],[24,24],[51,-67],[31,-35],[16,-11],[8,55],[19,44],[8,51],[7,29]],[[6609,9693],[9,-8],[-2,-24],[-21,-74],[2,-31],[8,-46],[10,-26],[1,-12]],[[6616,9472],[-6,-18],[-13,-17],[-4,-18],[1,-30],[7,-17],[1,-21],[-11,-14],[-11,-4],[-16,3],[-13,-9],[-40,47]],[[6511,9374],[22,14],[-49,47],[-85,101],[-10,-19],[-13,15]],[[6376,9532],[-20,26],[-58,89],[-50,78]],[[6248,9725],[0,3]],[[6248,9728],[3,7],[36,-48],[18,16]],[[6511,9374],[-5,4]],[[6506,9378],[-21,15],[-25,5],[-31,-4],[-49,-34],[-49,-37]],[[6331,9323],[-7,26],[-1,38],[-6,24],[-17,25]],[[6300,9436],[-12,59],[-1,40]],[[6287,9535],[20,-11],[33,-3],[25,-12],[11,23]],[[6331,9323],[-95,-71]],[[6236,9252],[-36,36],[-26,49],[-121,-132],[-13,6],[-74,15]],[[5966,9226],[43,45],[107,106],[26,23]],[[6142,9400],[13,-28],[22,17],[23,13],[84,27],[16,7]],[[6205,9158],[-37,9],[-20,11],[-6,7],[-25,-20]],[[6117,9165],[-110,-82],[-69,-50]],[[5938,9033],[-34,-24]],[[5904,9009],[-37,72],[56,42],[-15,30],[1,13],[13,71]],[[5922,9237],[23,-3],[21,-8]],[[6236,9252],[-27,-19],[-4,-75]],[[6043,8945],[-42,-33],[-49,92],[-14,29]],[[6117,9165],[5,-16],[-1,-80],[-5,-47],[-20,-8],[-24,-15],[12,-23],[-41,-31]],[[6043,8945],[24,-44],[-26,-19],[-51,-41],[36,-49]],[[6026,8792],[2,-4]],[[6028,8788],[-36,-37],[-20,46],[-16,-16]],[[5956,8781],[-88,-93],[-48,-46],[9,66],[4,57],[-55,-23],[-9,0],[10,117],[-8,-3],[-52,4],[-6,10],[57,42],[-3,7],[-34,29],[-8,-2],[-40,12],[8,33],[-46,18],[24,46],[17,-12],[20,-29],[44,45],[45,-122],[4,-2],[103,74]],[[6242,8909],[-16,-3],[-12,-25],[-4,-64],[-9,-44],[-1,-19],[-5,-10],[-3,-37]],[[6192,8707],[-37,-14]],[[6155,8693],[-7,32]],[[6148,8725],[1,20],[-6,15],[6,30],[33,84],[-51,22],[-10,8],[-20,-10],[1,-18],[-6,-28]],[[6096,8848],[-70,-56]],[[6205,9158],[-5,-80],[0,-23],[4,-28],[12,-44],[26,-74]],[[5922,9237],[-10,2],[-10,16]],[[5902,9255],[25,31],[3,6],[62,76],[7,13]],[[5999,9381],[25,37],[32,28],[50,30],[29,12]],[[6135,9488],[-1,-26],[4,-45],[4,-17]],[[6287,9535],[-10,32],[-3,24]],[[6274,9591],[-9,45],[-20,48]],[[6245,9684],[-2,17],[5,24]],[[6509,9155],[-22,-2],[-69,-23],[-25,0],[-14,-11],[-12,-25],[3,-11],[-29,5],[-24,-14],[-10,3],[-19,-5],[-12,-10],[-5,-12],[-36,-16],[-1,-9],[-10,-3],[10,-22],[-7,-19],[21,-62],[-6,-10]],[[6506,9378],[-13,-46],[6,-23],[8,-70],[2,-84]],[[6720,9338],[-19,-40],[-13,-21],[-43,-60],[53,-61]],[[6698,9156],[-9,-88]],[[6689,9068],[-53,-7],[-48,-12]],[[6588,9049],[-84,-21]],[[6504,9028],[0,49],[6,10],[-1,68]],[[6616,9472],[4,1],[12,29],[10,35],[130,-54]],[[6772,9483],[-22,-79],[-11,3],[-19,-69]],[[6611,8909],[-23,140]],[[6689,9068],[0,-40],[7,-54],[46,-32],[27,-9],[3,-4]],[[6772,8929],[-81,-7],[-62,-10]],[[6629,8912],[-18,-3]],[[6487,8881],[-3,61]],[[6484,8942],[22,5],[-2,81]],[[6611,8909],[-85,-21],[-39,-7]],[[6484,8942],[-43,-8],[-194,-39],[-5,14]],[[6720,9338],[88,-105]],[[6808,9233],[-106,-77],[-4,0]],[[7133,9585],[-14,-32],[-24,-18],[-30,-9],[-28,-17],[-57,-64],[-42,-39]],[[6938,9406],[-10,-8],[-18,-38],[-27,-22],[-14,-25],[-9,-60],[-29,-43]],[[6831,9210],[-23,23]],[[6772,9483],[12,52],[21,63],[22,104],[46,-34],[-4,-13],[2,-28],[6,-49],[13,-22],[1,-16],[32,-29],[-22,-48],[35,-21],[11,67],[0,33],[4,23],[44,4],[11,10],[-4,9],[16,13],[24,7],[8,43],[16,-7],[20,-1],[6,19],[30,14],[11,-5],[-1,-10],[27,-6],[-12,-43],[-14,-27]],[[6858,8974],[-19,18],[-25,29],[-7,12],[-59,65],[-33,41],[-17,17]],[[6831,9210],[56,-49]],[[6887,9161],[-22,-38],[-24,-60],[13,-9],[32,-18],[-9,-23],[-19,-39]],[[6858,8974],[40,-26]],[[6898,8948],[-3,-12],[-41,-1],[-82,-6]],[[7129,8870],[0,-2],[-56,20],[-41,13],[-114,39],[-20,8]],[[6887,9161],[58,-49],[28,57],[12,-8],[-6,-15]],[[6979,9146],[-4,-11],[10,-6],[-10,-29],[34,-17],[-17,-58],[6,-16],[-13,-82],[36,-13],[110,-36],[-2,-8]],[[7038,9222],[-15,-36],[-25,-35],[-19,-5]],[[6938,9406],[79,-141],[21,-43]],[[7133,9585],[17,-17],[28,-15],[24,-1],[24,3],[46,-22],[11,13],[23,-3],[39,2],[38,-29],[16,0],[3,-39],[22,-164],[-85,-34],[-67,23],[-46,10],[-9,-2],[-64,-32],[-48,-17],[-51,-31],[-11,-11],[-5,3]],[[6487,8881],[3,-51],[-7,-115]],[[6483,8715],[-46,-21],[-46,-3],[-77,2],[-6,-2]],[[6308,8691],[-13,46],[-34,-25],[-2,-31],[-21,-12],[-2,19],[-20,-15],[-27,-8],[6,28],[-3,14]],[[6579,8708],[-25,-1],[-20,6],[-49,0],[-2,2]],[[6629,8912],[8,-73],[17,-91]],[[6654,8748],[3,-14],[-82,5],[4,-31]],[[7129,8870],[27,-9],[0,-9]],[[7156,8852],[-21,2],[-45,14],[-1,-4],[-29,9],[-2,-34],[-9,-1],[2,-18],[4,-80],[-15,-8],[-5,71],[-40,-1],[0,4],[-43,-1],[2,-25],[-15,-1],[3,-29]],[[6942,8750],[-56,-3],[-9,-5],[-35,13],[-21,-1],[-8,30],[-57,-14],[-36,-2],[-66,-20]],[[6942,8750],[13,-8],[-2,-43],[-26,2],[-45,12],[-3,-35],[-10,-54],[-74,28],[9,52],[-35,-15],[-4,-34],[14,-43],[-24,-8],[10,-34],[-11,-8],[2,-36],[16,-16],[-5,-6]],[[6767,8504],[-39,33],[-18,7],[0,14],[-95,0],[-19,-1]],[[6596,8557],[-7,70],[-10,81]],[[6767,8504],[28,-22],[28,-8],[24,-48],[13,-18],[42,-43]],[[6902,8365],[-25,-30],[-34,-38],[-16,-6],[-12,41],[-20,27],[-21,32],[-30,-47],[-9,12],[-29,-35],[9,-28],[20,-31],[3,-20],[3,-54],[-2,-36],[-4,-34],[-61,4],[-50,-1],[-6,-16],[-31,1],[-5,32],[-17,56],[-16,28]],[[6549,8222],[57,20],[-10,46],[20,3],[-7,134],[-13,132]],[[6549,8222],[-17,21],[-55,53]],[[6477,8296],[-1,77],[3,193],[4,149]],[[6477,8296],[-48,44],[-16,23],[-32,98],[-17,58]],[[6364,8519],[-17,53],[-27,-19]],[[6320,8553],[-15,0],[-16,25],[-3,13],[-37,-30],[-4,11],[7,5],[-4,11],[24,19],[-4,10],[-10,-4],[-12,30],[54,45],[8,3]],[[7156,8852],[1,-3],[-23,-66],[7,-10],[-13,-32],[-25,3],[-9,-10],[-14,-6],[-26,-3],[5,-50],[-15,-2],[-10,-70],[20,6],[7,-68],[37,2],[4,-44],[-7,-4],[-22,-2],[1,-15],[-7,0],[0,-15],[-8,1],[-1,-12],[-17,2],[-3,-49],[-2,-94],[-39,11],[-2,-6],[-26,24],[-43,11],[-24,14]],[[5975,9454],[8,-18],[16,-55]],[[5902,9255],[-57,51],[-10,14],[-32,26],[-4,7],[-1,43]],[[5798,9396],[46,5],[16,7],[33,41]],[[5893,9449],[8,12],[29,-15],[13,0],[32,8]],[[6135,9509],[0,-21]],[[5975,9454],[17,25],[-33,54],[48,73],[7,-11],[56,48],[30,20]],[[6100,9663],[11,-28]],[[6111,9635],[19,-59],[4,-26],[1,-41]],[[6100,9663],[-10,15],[-43,47]],[[6047,9725],[3,4],[-46,51],[54,56],[49,53],[17,21]],[[6124,9910],[36,-48],[32,-49],[37,-62],[19,-23]],[[6245,9684],[-76,-27],[-58,-22]],[[6274,9591],[-13,-2],[-3,14],[-23,-7],[4,-30],[-16,-4],[-29,-19],[-59,-34]],[[6267,9886],[12,-12],[72,-120]],[[6351,9754],[-32,-30],[-14,-21]],[[6124,9910],[7,12],[6,33],[36,-1],[10,45],[44,-3],[43,-23],[19,-13],[-20,-56],[-2,-18]],[[6468,9846],[-59,-57],[-51,-47]],[[6358,9742],[-7,12]],[[6267,9886],[33,-7],[34,-13],[26,-2],[6,5],[15,-2],[40,21],[46,16],[2,-20],[-3,-18],[2,-20]],[[6445,9603],[-27,46],[-60,93]],[[6468,9846],[2,-33],[-2,-45],[3,-55],[14,-11],[23,-4],[8,5],[4,39],[-6,1],[-5,27],[81,23],[23,-5],[-4,-49],[0,-46]],[[6028,8788],[35,-50],[-18,-42],[27,-11],[6,-21],[17,-36],[-40,-27],[0,-8]],[[6055,8593],[-18,-13],[-15,-15],[-13,-21]],[[6009,8544],[-8,10],[-29,58],[-11,26],[-7,-4]],[[5954,8634],[-5,21],[0,18],[14,31],[3,10],[-3,33],[-7,34]],[[5955,8452],[-31,59],[-8,-7],[-12,14],[-8,16],[12,9],[-20,41]],[[5888,8584],[13,7],[36,31],[17,12]],[[6009,8544],[-30,-37],[-24,-55]],[[5955,8452],[-13,-9],[-30,16],[-102,19],[1,7],[17,39],[-10,20],[18,-2],[26,26],[26,16]],[[6148,8725],[-80,31],[26,87],[2,5]],[[6155,8693],[-29,-11],[-16,-2],[-4,-22],[0,-34],[-36,-24],[-15,-7]],[[6364,8519],[-15,-6],[-10,-16],[-21,23],[-20,-36],[-14,-53],[-15,-26],[-15,-35],[-66,-71],[-31,23],[-43,24],[-12,-6],[-5,13],[13,10],[3,11],[-11,13],[15,26],[21,12],[31,8],[24,12],[37,26],[34,9],[26,25],[-3,18],[34,27],[-1,3]],[[5798,9396],[4,48],[-1,28],[-15,58],[24,6],[17,14]],[[5827,9550],[8,-20],[17,12],[16,-20],[-18,-23],[20,-22],[-1,-19],[24,-9]],[[5827,9550],[45,43],[35,67],[31,64],[39,-16],[44,-7],[17,7],[9,17]]]}
