{"type":"Topology","bbox":[-74.3907423752459,8.354908444442646,-74.21149113218371,8.64581962338832],"transform":{"scale":[0.00001792691699791948,0.000029094027297297106],"translate":[-74.3907423752459,8.354908444442646]},"objects":{"municipios":{"type":"GeometryCollection","geometries":[{"type":"Polygon","arcs":[[0,1,2,3]],"properties":{"codigo":"13810200203005000102","sector":"138102002030050001","pcode":"CO13810","area_m2":41077}},{"type":"Polygon","arcs":[[4,5,6]],"properties":{"codigo":"13810200202003000101","sector":"138102002020030001","pcode":"CO13810","area_m2":36020}},{"type":"Polygon","arcs":[[7,8,-5]],"properties":{"codigo":"13810200202003000102","sector":"138102002020030001","pcode":"CO13810","area_m2":21232}},{"type":"Polygon","arcs":[[-6,-9,9]],"properties":{"codigo":"13810200202003000103","sector":"138102002020030001","pcode":"CO13810","area_m2":43337}},{"type":"Polygon","arcs":[[-3,10]],"properties":{"codigo":"13810200203005000101","sector":"138102002030050001","pcode":"CO13810","area_m2":73124}},{"type":"Polygon","arcs":[[-1,11]],"properties":{"codigo":"13810200203005000103","sector":"138102002030050001","pcode":"CO13810","area_m2":112431}},{"type":"Polygon","arcs":[[12]],"properties":{"codigo":"13810200405008000101","sector":"138102004050080001","pcode":"CO13810","area_m2":68410}},{"type":"MultiPolygon","arcs":[[[13]],[[14]]],"properties":{"codigo":"13810200702006000101","sector":"138102007020060001","pcode":"CO13810","area_m2":174926}},{"type":"Polygon","arcs":[[15]],"properties":{"codigo":"13810200103002000101","sector":"138102001030020001","pcode":"CO13810","area_m2":37373}},{"type":"Polygon","arcs":[[16]],"properties":{"codigo":"13810200604004000101","sector":"138102006040040001","pcode":"CO13810","area_m2":80904}},{"type":"Polygon","arcs":[[17]],"properties":{"codigo":"13810200804009000101","sector":"138102008040090001","pcode":"CO13810","area_m2":34560}},{"type":"Polygon","arcs":[[18,19]],"properties":{"codigo":"13810200404011000101","sector":"138102004040110001","pcode":"CO13810","area_m2":176017}},{"type":"Polygon","arcs":[[20,-19]],"properties":{"codigo":"13810200404011000102","sector":"138102004040110001","pcode":"CO13810","area_m2":116341}},{"type":"Polygon","arcs":[[21]],"properties":{"codigo":"13810200202012000101","sector":"138102002020120001","pcode":"CO13810","area_m2":25983}},{"type":"Polygon","arcs":[[22]],"properties":{"codigo":"13810200501010000101","sector":"138102005010100001","pcode":"CO13810","area_m2":53449}},{"type":"Polygon","arcs":[[23,24,25,26,27]],"properties":{"codigo":"13810100000000000101","sector":"138101000000000001","pcode":"CO13810","area_m2":143681}},{"type":"Polygon","arcs":[[-25,28,29]],"properties":{"codigo":"13810100000000000102","sector":"138101000000000001","pcode":"CO13810","area_m2":75517}},{"type":"Polygon","arcs":[[30,31,-27]],"properties":{"codigo":"13810100000000000103","sector":"138101000000000001","pcode":"CO13810","area_m2":68584}},{"type":"Polygon","arcs":[[-31,-26,-30,32,33]],"properties":{"codigo":"13810100000000000104","sector":"138101000000000001","pcode":"CO13810","area_m2":187131}},{"type":"Polygon","arcs":[[-28,-32,-34,34]],"properties":{"codigo":"13810100000000000105","sector":"138101000000000001","pcode":"CO13810","area_m2":123515}},{"type":"Polygon","arcs":[[35]],"properties":{"codigo":"13810100000000000106","sector":"138101000000000001","pcode":"CO13810","area_m2":69662}}]}},"arcs":[[[9767,9849],[-59,21],[-16,8]],[[9692,9878],[37,32],[17,19],[-20,7],[11,9],[13,4],[14,-4]],[[9764,9945],[14,-5],[12,11],[9,-3]],[[9799,9948],[-4,-22],[7,-9],[-8,-11],[2,-10],[-15,-31],[-14,-16]],[[5989,8346],[0,14],[8,0],[2,14],[9,8],[22,38],[-32,4]],[[5998,8424],[3,7]],[[6001,8431],[26,-4],[0,5],[16,0],[23,-11],[-8,-22],[14,-2],[-3,-6],[26,-5],[-4,-11],[9,-1],[-25,-11],[-6,-14],[-19,2],[-1,-13],[-60,8]],[[5989,8346],[-12,2],[1,16],[-7,10],[-19,3],[1,5],[-18,3]],[[5935,8385],[15,27],[36,-7],[12,19]],[[5935,8385],[-14,-1],[4,14],[-26,9],[13,16],[-39,10],[3,4],[-65,19],[16,6],[11,8],[40,-16],[3,5],[57,-8],[3,8],[68,-8],[-8,-20]],[[9764,9945],[14,12],[-6,3],[13,12],[-12,5],[69,19],[15,-2],[7,5],[38,-16],[20,5],[3,6],[74,-36],[-8,-7],[7,-3],[-15,-11],[14,-7],[-31,-10],[-19,1],[-8,-7],[-64,22],[-3,-3],[-66,20],[-7,-5]],[[9767,9849],[-44,-62],[-23,-12],[-15,3],[-5,-8],[10,-2],[-2,-22],[-11,2],[-11,-31],[8,-2],[-17,-20],[-18,-16],[-4,-9],[19,-2],[0,-15],[6,-10],[-5,-7],[4,-15],[-20,-26],[-71,22],[39,37],[-27,11],[8,9],[30,-9],[12,23],[3,40],[-14,18],[7,17],[-11,3],[18,32],[-5,2],[27,37],[37,41]],[[3783,4760],[-15,-3],[24,-30],[0,-3],[30,-24],[10,5],[12,-12],[15,-25],[13,4],[16,-22],[16,4],[14,-20],[-15,-4],[13,-13],[-11,-3],[8,-11],[-12,-4],[24,-33],[8,2],[15,-21],[14,-14],[-2,-15],[-16,-3],[-32,49],[-31,3],[-11,7],[-26,-3],[-3,14],[45,7],[-15,19],[-31,-5],[-18,12],[-16,-5],[-13,7],[-1,8],[30,6],[14,-10],[22,5],[-12,18],[-15,-3],[-2,5],[16,3],[-26,26],[-41,34],[-40,46],[22,7],[23,3],[0,-8]],[[1724,1587],[-5,-6],[-19,4],[-7,-45],[46,-3],[2,5],[16,-1],[-2,-13],[20,-2],[2,-7],[-14,-61],[12,0],[-6,-14],[5,-5],[-23,-16],[-102,4],[-29,-1],[3,48],[3,22],[7,25],[-12,2],[6,20],[11,-2],[20,52],[39,-7],[3,7],[24,-6]],[[1704,1702],[1,-10],[20,0],[-9,-34],[-39,-31],[-17,-2],[-30,-13],[1,-5],[-17,-3],[-10,-23],[-10,1],[7,15],[-21,3],[13,9],[12,-3],[5,4],[-7,11],[23,6],[-8,10],[-34,0],[-5,-10],[-15,-1],[6,15],[14,20],[19,-2],[9,17],[9,3],[-17,21],[12,-3],[3,-10],[48,-3],[0,19],[37,-1]],[[2448,7270],[14,2],[8,-13],[-17,-4],[7,-13],[1,-12],[8,-8],[-7,-7],[9,-7],[1,-25],[13,-14],[25,2],[12,-5],[-4,-9],[11,-7],[-8,-4],[44,-39],[24,-10],[15,6],[12,-5],[24,-16],[10,-1],[-16,-7],[-17,10],[-9,-1],[-37,10],[-1,4],[-20,2],[-2,5],[-16,3],[-8,11],[-7,0],[-8,13],[-14,5],[1,7],[-12,7],[-3,13],[-37,49],[-2,15],[-13,12],[-8,30],[18,11],[9,-10]],[[2896,137],[14,1],[-3,-9],[11,-7],[30,-3],[-8,-12],[8,-22],[23,-39],[-5,-10],[-11,-1],[15,-20],[-21,-4],[19,-9],[-20,2],[-14,-4],[-21,14],[7,2],[-9,11],[-27,3],[4,7],[-27,12],[-7,20],[4,9],[-11,3],[3,11],[-12,10],[6,3],[-30,23],[3,7],[12,5],[9,10],[4,16],[31,-21],[23,-8]],[[116,1743],[22,-2],[20,-8],[10,-10],[10,7],[37,0],[9,8],[9,-12],[25,-1],[19,-6],[-2,-14],[-6,-4],[-26,1],[-19,7],[-11,-2],[-83,4],[0,7],[-32,-2],[-19,2],[-24,-3],[-9,11],[-22,-7],[0,6],[-24,0],[7,6],[13,-3],[9,5],[22,-2],[10,8],[18,-6],[26,6],[5,9],[6,-5]],[[3099,5208],[-5,-4],[-33,36],[-55,30],[-9,-13],[-24,-1],[-3,-5],[-20,0],[8,-21],[-11,-4]],[[2947,5226],[-22,22],[-6,13],[-8,49],[2,19],[7,16],[18,18],[25,17],[36,20],[30,11],[43,10],[44,4],[45,2],[52,-3],[-3,-20],[15,-1],[-4,-21],[-42,9],[-26,2],[-15,-3],[-31,-1],[-17,-6],[25,-17],[-28,-15],[4,-2],[-6,-23],[6,0],[-2,-13],[7,-6],[-15,2],[-6,-11],[-27,-6],[-38,-3],[-6,-11],[27,-13],[29,-11],[25,-16],[-7,-4],[21,-26]],[[3099,5208],[37,13],[-1,10],[29,2],[40,-7],[13,-8],[-6,-2],[3,-13],[10,0],[-1,-11],[-20,-24],[-42,7],[-85,-14],[-14,-10],[-28,-2],[-21,5],[-8,-1],[-8,10],[-9,-1],[-29,55],[-12,9]],[[8352,9289],[8,-18],[14,-6],[-7,-7],[-17,9],[-7,-8],[-14,3],[-29,-18],[-25,9],[12,11],[-43,14],[28,23],[17,-7],[4,3],[17,-7],[18,-2],[36,32],[14,-5],[-16,-13],[-10,-13]],[[5557,5776],[24,-2],[26,-13],[-17,-1],[-3,-9],[48,-17],[-9,-6],[-9,4],[-35,9],[-14,-21],[12,-2],[-13,-24],[-11,-13],[-11,7],[-9,-8],[-37,21],[-10,-9],[-10,5],[13,12],[6,13],[3,26],[-3,9],[-26,3],[-21,-3],[1,10],[29,0],[7,17],[22,-6],[47,-2]],[[7295,6903],[-9,-6],[-53,23],[-22,-19],[-31,-38],[15,-2],[-5,-14],[-27,-15],[-14,-4],[-18,4],[-7,-38],[-30,3],[2,23],[-43,6],[-16,45],[10,2],[3,7]],[[7050,6880],[4,11],[31,-7],[-27,43]],[[7058,6927],[-21,28]],[[7037,6955],[11,3],[12,-18],[40,9],[29,3],[-1,3],[27,3],[-13,47],[29,2],[18,4]],[[7189,7011],[8,-17],[-14,-4],[22,-41],[16,3],[11,-25],[10,1],[37,-14],[16,-11]],[[7050,6880],[-37,10],[-3,-4],[-68,11],[-66,-13],[-25,31],[-8,21],[14,16],[11,3],[32,4],[28,0]],[[6928,6959],[7,-9],[111,-23],[12,0]],[[7037,6955],[-14,21],[15,0],[5,19],[13,2],[-17,31],[75,13],[54,10]],[[7168,7051],[21,-40]],[[6928,6959],[6,-1],[24,9],[28,15],[1,15],[-65,-11],[-22,7],[-1,6],[25,28],[-34,7],[-9,9],[16,12],[18,1],[1,4],[17,3],[8,21],[48,0],[33,1],[-6,17],[-27,1],[-5,22],[18,2],[46,-3],[3,-7],[19,5],[17,-30],[154,39]],[[7241,7131],[12,-38],[-25,1],[-72,-16],[12,-27]],[[7241,7131],[11,2],[12,-33],[6,-35],[-1,-41],[5,0],[1,-13],[8,-3],[15,3],[-5,-8],[6,-5],[-16,-5],[17,-23],[15,3],[6,-6],[27,0],[13,-44],[-9,-2],[-15,9],[-42,-27]],[[7407,7278],[-1,-4],[21,-1],[-5,-10],[12,-3],[-9,-15],[0,-13],[-8,-3],[6,-18],[-8,-1],[6,-26],[-1,-18],[-86,-16],[-22,-5],[0,18],[24,4],[-36,0],[-1,33],[38,0],[2,32],[10,0],[-8,16],[6,3],[-2,12],[30,1],[-2,14],[34,0]]]}
