{"type":"Topology","bbox":[-74.28012882208452,8.807597479384098,-74.09384363358822,8.955589991843544],"transform":{"scale":[0.00001863038188781871,0.000014800731319076497],"translate":[-74.28012882208452,8.807597479384098]},"objects":{"municipios":{"type":"GeometryCollection","geometries":[{"type":"Polygon","arcs":[[0,1,2,3]],"properties":{"codigo":"13074200103004000103","sector":"130742001030040001","pcode":"CO13074","area_m2":34028}},{"type":"Polygon","arcs":[[-1,4,5]],"properties":{"codigo":"13074200103004000104","sector":"130742001030040001","pcode":"CO13074","area_m2":34317}},{"type":"Polygon","arcs":[[6,-3,7]],"properties":{"codigo":"13074200103004000101","sector":"130742001030040001","pcode":"CO13074","area_m2":25060}},{"type":"Polygon","arcs":[[8]],"properties":{"codigo":"13074200602003000101","sector":"130742006020030001","pcode":"CO13074","area_m2":130930}},{"type":"Polygon","arcs":[[-5,-4,-7,9]],"properties":{"codigo":"13074200103004000102","sector":"130742001030040001","pcode":"CO13074","area_m2":48465}},{"type":"Polygon","arcs":[[10]],"properties":{"codigo":"13074200603005000101","sector":"130742006030050001","pcode":"CO13074","area_m2":148710}},{"type":"MultiPolygon","arcs":[[[11]],[[12]],[[13]],[[14]]],"properties":{"codigo":"13074200102006000101","sector":"130742001020060001","pcode":"CO13074","area_m2":52295}},{"type":"Polygon","arcs":[[15,16,17,18]],"properties":{"codigo":"13074100000000000101","sector":"130741000000000001","pcode":"CO13074","area_m2":525710}},{"type":"Polygon","arcs":[[19,20,21,22,23,-19,24]],"properties":{"codigo":"13074100000000000102","sector":"130741000000000001","pcode":"CO13074","area_m2":744413}},{"type":"Polygon","arcs":[[25,26,27,-23]],"properties":{"codigo":"13074100000000000103","sector":"130741000000000001","pcode":"CO13074","area_m2":91199}},{"type":"Polygon","arcs":[[28,29,-26,-22,30,31]],"properties":{"codigo":"13074100000000000104","sector":"130741000000000001","pcode":"CO13074","area_m2":103815}},{"type":"Polygon","arcs":[[32,33,34,35,-31,-21]],"properties":{"codigo":"13074100000000000105","sector":"130741000000000001","pcode":"CO13074","area_m2":105817}},{"type":"Polygon","arcs":[[36,-32,-36]],"properties":{"codigo":"13074100000000000106","sector":"130741000000000001","pcode":"CO13074","area_m2":61468}},{"type":"Polygon","arcs":[[37,-33,-20]],"properties":{"codigo":"13074100000000000107","sector":"130741000000000001","pcode":"CO13074","area_m2":156831}},{"type":"Polygon","arcs":[[38,-29,-37,-35,39]],"properties":{"codigo":"13074100000000000108","sector":"130741000000000001","pcode":"CO13074","area_m2":162391}},{"type":"Polygon","arcs":[[40,41]],"properties":{"codigo":"13074100000000000201","sector":"130741000000000002","pcode":"CO13074","area_m2":37921}},{"type":"Polygon","arcs":[[42,43,-42,44,-17]],"properties":{"codigo":"13074100000000000202","sector":"130741000000000002","pcode":"CO13074","area_m2":87798}},{"type":"Polygon","arcs":[[45,-43,-16,-24,-28,46]],"properties":{"codigo":"13074100000000000203","sector":"130741000000000002","pcode":"CO13074","area_m2":52786}},{"type":"Polygon","arcs":[[-39,47,-47,-27,-30]],"properties":{"codigo":"13074100000000000204","sector":"130741000000000002","pcode":"CO13074","area_m2":96317}}]}},"arcs":[[[8595,4255],[-59,-100],[-27,-68]],[[8509,4087],[-22,1],[18,42],[-13,21],[10,80],[15,39]],[[8517,4270],[44,30]],[[8561,4300],[34,-45]],[[8595,4255],[15,20],[8,-26]],[[8618,4249],[-16,-20],[9,-34],[-19,-33],[17,-40],[-23,13],[-17,-35],[-2,-42],[-58,29]],[[8621,4346],[-60,-46]],[[8517,4270],[-4,69],[36,16],[10,38],[37,4],[1,-21],[24,19],[12,-25],[-12,-24]],[[539,216],[36,-12],[12,18],[43,-14],[-5,-12],[50,-39],[19,43],[51,-23],[-16,-52],[14,-10],[-6,-64],[-14,-51],[-84,41],[-165,63],[14,41],[-25,12],[25,38],[1,29],[50,-8]],[[8621,4346],[30,14],[26,-32],[28,37],[-10,37],[25,14],[-11,38],[22,48],[25,-54],[25,18],[15,-54],[-25,-9],[-3,39],[-28,-22],[-28,-70],[-24,-33],[-9,-39],[-20,-31],[-14,16],[-27,-14]],[[221,3708],[40,-56],[23,-13],[27,14],[30,43],[15,43],[32,3],[-14,-40],[15,-85],[-33,-34],[-98,-58],[-9,13],[-17,-31],[1,-80],[-20,31],[-25,69],[4,98],[-63,65],[-26,5],[-6,-19],[-48,15],[1,12],[-50,7],[15,86],[26,-4],[174,-78],[6,-6]],[[9306,6180],[-36,-29],[-36,50],[5,34],[34,15],[21,-17],[12,-53]],[[9081,5971],[-28,-4],[8,20],[-13,29],[19,19],[34,-17],[-20,-47]],[[9141,6078],[46,-51],[-43,-15],[-17,-21],[-19,13],[-1,45],[23,42],[11,-13]],[[9249,6103],[-39,-48],[-33,38],[10,50],[60,-25],[2,-15]],[[9189,9436],[-1,4]],[[9188,9440],[-91,232],[-51,-39]],[[9046,9633],[-97,234],[170,77],[132,41],[196,14],[37,-134]],[[9484,9865],[-63,-30],[-120,-65],[43,-101],[17,-81],[-66,-37],[4,-13],[-48,-31],[10,-43],[-72,-28]],[[9977,9379],[-41,5],[-168,-45],[-38,-5],[-2,25],[-60,-5]],[[9668,9354],[-32,-3],[-2,29],[-54,-7],[3,-52],[-87,-2]],[[9496,9319],[0,5]],[[9496,9324],[1,40],[-18,0],[-1,51],[-115,-1],[-115,-12],[-43,-12]],[[9205,9390],[-16,46]],[[9484,9865],[34,2],[32,-85],[85,-11],[57,5],[-17,-66],[26,-21],[-11,-40],[9,-75],[90,27],[49,-20],[16,-18],[26,-66],[54,-21],[5,-17],[42,-3],[18,-22],[-22,-55]],[[9496,9324],[-133,-10],[-100,-42]],[[9263,9272],[-30,75]],[[9233,9347],[-28,43]],[[9381,9060],[2,-11]],[[9383,9049],[-25,-2],[-9,-29],[-6,49],[-11,-5],[-69,210]],[[9496,9319],[2,-44]],[[9498,9275],[-32,-3],[0,-22],[-37,-2],[-9,-67],[-56,-10],[17,-111]],[[9668,9354],[0,-116],[37,3]],[[9705,9241],[4,-45],[-46,-11]],[[9663,9185],[-99,-7],[-30,-7],[1,-53],[-28,-2]],[[9507,9116],[-9,159]],[[9507,9116],[-47,-7],[3,-25],[-82,-24]],[[9977,9379],[-1,-55],[12,-98],[-22,-26],[-49,-1],[-54,-20],[-117,64],[-41,-2]],[[9391,8935],[-8,114]],[[9663,9185],[0,-91],[8,-61],[-81,-55],[-96,-30],[-37,-19],[-65,-17],[-1,23]],[[9065,9342],[-10,-7],[-29,118],[13,46]],[[9039,9499],[14,-19],[34,36],[51,-88],[-38,-35],[7,-13],[-42,-38]],[[9188,9440],[-56,-67],[20,-34],[-19,-26],[12,-23],[-61,-25]],[[9084,9265],[5,22],[-24,55]],[[9039,9499],[10,22],[-25,47],[39,26],[-17,39]],[[9127,9231],[-36,8],[-7,26]],[[9233,9347],[-39,-25],[11,-28],[-20,-16],[47,-84],[-39,-23],[-34,82],[-32,3],[0,-25]],[[9391,8935],[-23,1],[-105,119],[13,20],[-83,90],[-13,-8],[-18,73],[-32,-16],[-3,17]]]}
