{"type":"Topology","bbox":[-75.2564381470367,9.792584616815644,-74.96000234983467,9.911535489278315],"transform":{"scale":[0.000029646544374641126,0.000011896276873954484],"translate":[-75.2564381470367,9.792584616815644]},"objects":{"municipios":{"type":"GeometryCollection","geometries":[{"type":"Polygon","arcs":[[0,1,2,3,4]],"properties":{"codigo":"13654200501003000103","sector":"136542005010030001","pcode":"CO13654","area_m2":58792}},{"type":"Polygon","arcs":[[5,6,7,8,9]],"properties":{"codigo":"13654100000000000105","sector":"136541000000000001","pcode":"CO13654","area_m2":94530}},{"type":"Polygon","arcs":[[10,11]],"properties":{"codigo":"13654200502002000101","sector":"136542005020020001","pcode":"CO13654","area_m2":48282}},{"type":"Polygon","arcs":[[-11,12]],"properties":{"codigo":"13654200502002000102","sector":"136542005020020001","pcode":"CO13654","area_m2":59263}},{"type":"Polygon","arcs":[[13,-4,14]],"properties":{"codigo":"13654200501003000101","sector":"136542005010030001","pcode":"CO13654","area_m2":51580}},{"type":"Polygon","arcs":[[15,-2]],"properties":{"codigo":"13654200501003000102","sector":"136542005010030001","pcode":"CO13654","area_m2":32639}},{"type":"Polygon","arcs":[[-5,-14,16]],"properties":{"codigo":"13654200501003000104","sector":"136542005010030001","pcode":"CO13654","area_m2":64478}},{"type":"Polygon","arcs":[[17]],"properties":{"codigo":"13654200101005000101","sector":"136542001010050001","pcode":"CO13654","area_m2":96965}},{"type":"Polygon","arcs":[[18]],"properties":{"codigo":"13654200101007000101","sector":"136542001010070001","pcode":"CO13654","area_m2":128421}},{"type":"Polygon","arcs":[[19,20,21,-10,22,23,24]],"properties":{"codigo":"13654100000000000103","sector":"136541000000000001","pcode":"CO13654","area_m2":153460}},{"type":"Polygon","arcs":[[25,-20,26,27,28]],"properties":{"codigo":"13654100000000000101","sector":"136541000000000001","pcode":"CO13654","area_m2":60885}},{"type":"Polygon","arcs":[[29,30,31,32,33]],"properties":{"codigo":"13654100000000000206","sector":"136541000000000002","pcode":"CO13654","area_m2":147279}},{"type":"Polygon","arcs":[[-27,-25,34,35]],"properties":{"codigo":"13654100000000000102","sector":"136541000000000001","pcode":"CO13654","area_m2":258344}},{"type":"Polygon","arcs":[[-23,-9,36,37,38]],"properties":{"codigo":"13654100000000000104","sector":"136541000000000001","pcode":"CO13654","area_m2":252135}},{"type":"Polygon","arcs":[[39,40,-37,-8,41]],"properties":{"codigo":"13654100000000000106","sector":"136541000000000001","pcode":"CO13654","area_m2":84006}},{"type":"Polygon","arcs":[[-32,42,43,44,-42,-7,45,46]],"properties":{"codigo":"13654100000000000107","sector":"136541000000000001","pcode":"CO13654","area_m2":81138}},{"type":"Polygon","arcs":[[47,-40,-45]],"properties":{"codigo":"13654100000000000108","sector":"136541000000000001","pcode":"CO13654","area_m2":77224}},{"type":"Polygon","arcs":[[-41,-48,-44,48,49,-38]],"properties":{"codigo":"13654100000000000109","sector":"136541000000000001","pcode":"CO13654","area_m2":395988}},{"type":"Polygon","arcs":[[50,-30,51,52]],"properties":{"codigo":"13654100000000000207","sector":"136541000000000002","pcode":"CO13654","area_m2":491917}},{"type":"Polygon","arcs":[[53,54,55,-29,56,57]],"properties":{"codigo":"13654100000000000201","sector":"136541000000000002","pcode":"CO13654","area_m2":651818}},{"type":"Polygon","arcs":[[58,59,-21,-26,-56]],"properties":{"codigo":"13654100000000000202","sector":"136541000000000002","pcode":"CO13654","area_m2":104044}},{"type":"Polygon","arcs":[[60,-52,-34,61,62,-59,-55]],"properties":{"codigo":"13654100000000000203","sector":"136541000000000002","pcode":"CO13654","area_m2":199930}},{"type":"Polygon","arcs":[[-63,63,-46,-6,-22,-60]],"properties":{"codigo":"13654100000000000204","sector":"136541000000000002","pcode":"CO13654","area_m2":124018}},{"type":"Polygon","arcs":[[-33,-47,-64,-62]],"properties":{"codigo":"13654100000000000205","sector":"136541000000000002","pcode":"CO13654","area_m2":93572}},{"type":"Polygon","arcs":[[-31,-51,64,-49,-43]],"properties":{"codigo":"13654100000000000208","sector":"136541000000000002","pcode":"CO13654","area_m2":298945}},{"type":"Polygon","arcs":[[-58,65,66]],"properties":{"codigo":"13654100000000000301","sector":"136541000000000003","pcode":"CO13654","area_m2":249231}},{"type":"Polygon","arcs":[[-57,-28,-36,67,-66]],"properties":{"codigo":"13654100000000000302","sector":"136541000000000003","pcode":"CO13654","area_m2":135102}},{"type":"Polygon","arcs":[[68]],"properties":{"codigo":"13654200104001000101","sector":"136542001040010001","pcode":"CO13654","area_m2":112859}},{"type":"Polygon","arcs":[[69]],"properties":{"codigo":"13654200104006000101","sector":"136542001040060001","pcode":"CO13654","area_m2":52492}},{"type":"Polygon","arcs":[[70]],"properties":{"codigo":"13654200201008000101","sector":"136542002010080001","pcode":"CO13654","area_m2":11160}}]}},"arcs":[[[7927,5194],[7,-41],[-10,-22],[-8,2],[-1,31],[-15,25],[-31,-27]],[[7869,5162],[-13,41],[-8,10],[-3,48],[12,23]],[[7857,5284],[18,44]],[[7875,5328],[13,18],[27,22]],[[7915,5368],[24,-8],[-12,-166]],[[4493,3207],[11,-83]],[[4504,3124],[-80,-65]],[[4424,3059],[-47,-37],[-20,-20]],[[4357,3002],[-5,94],[-5,2],[-2,98]],[[4345,3196],[88,20],[60,-9]],[[9985,3629],[-7,54],[-29,2],[-7,-14],[-31,23],[-2,24]],[[9909,3718],[1,76],[9,-7],[-7,25],[2,36],[9,16],[6,-14],[4,19],[9,-25],[29,-55],[28,-84],[-14,-76]],[[9985,3629],[-22,-78],[-5,-32],[-3,-62],[-9,-27],[-7,0],[-4,30],[-10,33],[8,30],[10,8],[-7,31],[-16,-5],[-26,8],[6,30],[-13,11],[11,43],[0,24],[11,45]],[[7932,5443],[-17,-75]],[[7875,5328],[-15,4],[-2,27],[-20,14],[-16,26],[4,26],[38,19],[1,11],[20,-2],[8,36],[2,44],[24,0],[-1,-20],[21,5],[-3,-56],[-9,2],[5,-21]],[[7869,5162],[-23,-23],[-23,-1],[-10,42],[-16,-28],[-5,9],[10,26],[-10,16],[-20,9],[24,10],[6,22],[40,59],[10,3],[5,-22]],[[7932,5443],[16,30],[20,-3],[6,-23],[-3,-30],[6,-32],[14,-28],[-2,-28],[13,28],[9,-12],[-12,-32],[9,-25],[-30,-16],[3,-62],[-13,-1],[-3,-30],[-12,16],[-19,-21],[-7,20]],[[20,7715],[5,-23],[19,8],[6,-47],[8,-21],[7,14],[12,-12],[20,5],[20,-48],[6,9],[9,-33],[-9,-28],[-5,-40],[-20,-67],[-10,-93],[1,-16],[-20,5],[-1,30],[-14,-4],[7,33],[-4,23],[9,29],[-7,35],[-9,-6],[-13,68],[1,28],[-7,-7],[-8,40],[-23,27],[4,5],[-1,85],[17,1]],[[468,6216],[8,7],[9,-25],[11,27],[31,16],[-5,-62],[22,-11],[-10,-69],[34,-70],[18,-4],[14,16],[25,-33],[-5,-34],[15,-20],[14,-3],[20,-22],[-2,-25],[-10,-16],[-16,-6],[3,32],[-9,12],[-31,0],[2,32],[-27,-19],[-7,-20],[-9,25],[-11,-1],[-15,-28],[-8,13],[-20,-75],[-8,14],[9,59],[6,9],[-21,41],[14,46],[-21,35],[-16,36],[-15,22],[-3,37],[-25,5],[14,85],[25,-26]],[[4465,3324],[40,-48]],[[4505,3276],[-1,-3]],[[4504,3273],[-12,-41],[1,-25]],[[4345,3196],[-56,-10],[-3,139],[-16,20],[8,54],[19,19],[12,-13],[22,75]],[[4331,3480],[1,-2]],[[4332,3478],[22,-51],[4,8],[19,-58],[21,-35],[33,-27],[12,17],[22,-8]],[[4560,3458],[-55,-182]],[[4465,3324],[12,2],[3,35],[11,-7],[17,125],[14,-17],[17,116],[2,31]],[[4541,3609],[43,-4]],[[4584,3605],[1,-48],[-25,-99]],[[4844,2969],[-48,-10],[-12,-36],[-27,-32],[-18,7],[-39,1],[-12,-5],[-24,-44],[-28,-25],[-24,-4]],[[4612,2821],[-17,10],[-45,11]],[[4550,2842],[0,20],[-12,64]],[[4538,2926],[70,44],[51,11],[27,27],[31,-1]],[[4717,3007],[41,7],[24,13],[43,14],[24,4],[2,-13],[-7,-63]],[[4332,3478],[6,50],[18,-36],[8,48],[2,79],[21,-18],[12,49],[21,-4],[8,105],[-18,30],[10,25],[6,-8]],[[4426,3798],[2,-16],[37,-32],[0,-36],[32,8],[2,24],[33,1],[0,-16],[14,-10],[-5,-112]],[[4357,3002],[-42,-13]],[[4315,2989],[-2,20],[-17,41],[-14,-15]],[[4282,3035],[-19,45],[-7,-1],[-22,24],[-15,-5],[-19,-19],[-1,25],[-29,-3],[-5,28],[15,-1],[-2,34],[-12,65],[7,36],[14,17],[-7,47],[22,-13],[8,19],[4,39],[9,15],[-14,26],[0,25],[13,138],[13,-10],[28,-3],[20,6],[1,-12],[40,-59],[7,-18]],[[4443,2916],[-58,-10],[-42,-93],[-1,-35]],[[4342,2778],[-15,23],[-20,-4],[-6,14],[11,72],[-4,70],[7,36]],[[4424,3059],[19,-143]],[[4550,2842],[-27,-1]],[[4523,2841],[-25,16]],[[4498,2857],[-10,91],[-45,-32]],[[4504,3124],[16,-101]],[[4520,3023],[18,-97]],[[4498,2857],[-23,12],[-18,-35],[-11,-67],[-8,-14],[-22,12],[-11,-5],[-27,-35],[-5,40],[-15,18],[-9,-29],[-7,24]],[[4523,2841],[-3,-61],[-6,-160],[-12,-200],[1,-51],[-8,-181]],[[4495,2188],[-13,-14],[-2,130],[-6,39],[-95,51],[-20,177],[-37,-19],[-8,119],[-29,-48],[-21,30],[7,38],[-12,46],[12,107],[-1,48],[12,99],[0,44]],[[4631,2366],[-6,124],[2,59],[-4,62],[-4,125],[-8,59],[1,26]],[[4844,2969],[20,-18],[8,50],[20,23]],[[4892,3024],[28,17],[29,-8],[-2,-34],[-19,-142],[-2,-32],[-55,-142],[-64,-104],[-9,8],[-8,35],[-12,-3],[-17,-86],[-43,-63],[-14,13],[-16,-65],[-4,-48],[-53,-4]],[[4622,3914],[7,-4],[0,-28],[85,-7],[4,-47],[55,-28],[-2,-20],[24,-34],[20,-17],[19,-7],[18,5],[-21,-138],[11,3],[48,-10],[-15,-141],[28,-130],[-27,-59]],[[4876,3252],[-7,15],[-8,-27],[-23,-43],[-10,-2],[-9,48],[-26,-29],[-3,40],[-14,10],[0,15],[-16,-3],[-14,15],[-10,43],[-22,65],[-14,-29],[-41,-65]],[[4659,3305],[-15,37],[-14,-38],[-18,49],[-52,105]],[[4584,3605],[1,296]],[[4585,3901],[0,43],[18,-24],[7,-23],[12,17]],[[4659,3305],[16,-35]],[[4675,3270],[-28,-72],[-9,-33],[-18,11],[-7,20],[-3,-18],[-18,4],[-32,32],[-9,20],[-4,30],[-33,0],[-10,9]],[[4876,3252],[-16,-49],[23,-109],[9,-70]],[[4717,3007],[-6,125]],[[4711,3132],[-15,81],[-21,57]],[[4711,3132],[-38,-9],[-153,-100]],[[4631,2366],[-3,-58],[-6,0],[-25,35],[-10,27],[-13,-12],[-7,-30],[-9,-202],[-2,-10],[-63,13],[2,59]],[[4585,3901],[-22,-8],[-13,13],[-2,-28],[-7,18],[-40,31],[-17,5],[-3,21],[-16,23],[-11,-61]],[[4454,3915],[-23,43],[26,77],[-10,35],[35,101],[10,-11],[6,23],[-5,37],[5,64],[-4,42],[34,14],[57,11],[0,-91],[14,-1],[0,-28],[12,0],[-3,-50],[8,-139],[6,-128]],[[4426,3798],[28,117]],[[1580,1143],[9,-8],[5,18],[17,-7],[-3,-37],[5,-25],[30,-20],[6,52],[10,1],[2,-29],[33,6],[5,38],[10,-2],[8,-39],[19,-33],[17,-5],[0,-40],[-8,-29],[-21,6],[-9,-7],[-6,-59],[-31,-13],[-35,0],[14,71],[-9,4],[-12,-69],[-23,23],[-4,-28],[-11,10],[9,50],[-20,18],[22,30],[-38,73],[-8,24],[-30,-13],[17,55],[17,-17],[0,28],[13,-27]],[[1104,82],[-1,-14],[-22,9],[-6,-52],[-16,10],[-34,-35],[-10,26],[5,58],[0,35],[12,162],[14,16],[4,-18],[3,-92],[18,-61],[34,-17],[-1,-27]],[[1554,9981],[0,15],[22,-7],[-2,-26],[-15,-15],[5,-41],[-24,-13],[-8,30],[-2,29],[14,1],[-3,33],[8,12],[5,-18]]]}
