{"type":"Topology","bbox":[-74.75887500382487,8.195655612788858,-74.55859035368155,8.365255978461256],"transform":{"scale":[0.0000200304680611378,0.000016961732740513863],"translate":[-74.75887500382487,8.195655612788858]},"objects":{"municipios":{"type":"GeometryCollection","geometries":[{"type":"Polygon","arcs":[[0]],"properties":{"codigo":"13655200302006000101","sector":"136552003020060001","pcode":"CO13655","area_m2":72125}},{"type":"Polygon","arcs":[[1]],"properties":{"codigo":"13655200107003000101","sector":"136552001070030001","pcode":"CO13655","area_m2":22116}},{"type":"Polygon","arcs":[[2]],"properties":{"codigo":"13655200305005000101","sector":"136552003050050001","pcode":"CO13655","area_m2":58190}},{"type":"Polygon","arcs":[[3]],"properties":{"codigo":"13655200102001000101","sector":"136552001020010001","pcode":"CO13655","area_m2":220027}},{"type":"Polygon","arcs":[[4]],"properties":{"codigo":"13655200306004000101","sector":"136552003060040001","pcode":"CO13655","area_m2":33649}},{"type":"Polygon","arcs":[[5]],"properties":{"codigo":"13655200104007000101","sector":"136552001040070001","pcode":"CO13655","area_m2":69162}},{"type":"Polygon","arcs":[[6,7,8]],"properties":{"codigo":"13655100000000000101","sector":"136551000000000001","pcode":"CO13655","area_m2":144454}},{"type":"Polygon","arcs":[[-7,9,10]],"properties":{"codigo":"13655100000000000102","sector":"136551000000000001","pcode":"CO13655","area_m2":131782}},{"type":"Polygon","arcs":[[-10,-9,11]],"properties":{"codigo":"13655100000000000103","sector":"136551000000000001","pcode":"CO13655","area_m2":98041}}]}},"arcs":[[[210,208],[20,-52],[16,-31],[-24,-17],[-6,-17],[-13,27],[-122,-76],[-7,0],[-61,-42],[-13,26],[20,19],[103,70],[-24,66],[70,30],[4,-5],[35,10],[2,-8]],[[9350,9916],[-10,-24],[-35,28],[-34,22],[-21,4],[17,31],[7,-6],[16,28],[15,-11],[14,9],[3,-38],[34,-25],[13,5],[5,-16],[-21,2],[-3,-9]],[[8466,5485],[7,15],[-7,13],[32,29],[8,-14],[33,28],[15,22],[3,12],[21,29],[36,30],[66,25],[3,-11],[21,10],[17,-44],[-20,-11],[-4,11],[-43,-22],[-21,-16],[-53,-54],[-61,-52],[-5,9],[-30,2],[-18,-11]],[[4679,3778],[77,-15],[43,3],[53,12],[35,-3],[21,-12],[-50,-32],[-23,-24],[-37,-25],[-117,-37],[-78,-11],[-2,-28],[-56,9],[-63,27],[10,42],[-72,21],[-51,9],[7,12],[39,24],[33,16],[31,7],[47,4],[109,4],[44,-3]],[[9993,8430],[-11,-27],[-17,-4],[-38,-26],[-1,-11],[-23,0],[-19,-40],[-15,6],[7,24],[11,15],[28,51],[21,46],[0,21],[21,1],[26,7],[0,-20],[16,-27],[-6,-16]],[[7712,5676],[41,33],[8,1],[-19,-38],[-36,-45],[-63,-49],[-34,-32],[-41,-46],[-27,-39],[-14,8],[9,26],[7,54],[-11,8],[38,43],[-1,9],[13,12],[5,-6],[18,8],[2,-7],[41,27],[-6,9],[26,22],[-14,19],[30,27],[28,-44]],[[1896,3304],[-12,-14],[-41,-27],[15,-20],[24,-81],[-38,-27],[8,-22]],[[1852,3113],[-34,0],[7,14],[-6,13],[-41,-3],[-12,38],[-3,25],[-15,33],[-37,42],[-2,17],[9,9],[-17,28],[-31,10],[-11,13],[3,8],[41,-20],[3,15],[16,-3],[5,14],[13,-6],[-6,-14],[14,-9],[33,49],[24,59],[9,-6]],[[1814,3439],[-3,-11],[33,-27],[19,-31],[33,-66]],[[1896,3304],[47,54],[28,16],[12,0]],[[1983,3374],[43,-201],[11,-11],[37,26],[3,-5],[-35,-24],[-75,-31],[-21,0],[-36,-11],[-3,5],[-36,-17],[-19,8]],[[1814,3439],[12,36],[63,-24],[35,92],[10,-59],[55,39],[12,-65],[11,5],[9,-43],[-6,-3],[4,-21],[-37,-13],[1,-9]]]}
