{"type":"Topology","bbox":[-75.47604611422793,10.29175746772382,-75.29661148534421,10.395529532464236],"transform":{"scale":[0.000017945257414112597,0.000010378244298471526],"translate":[-75.47604611422793,10.29175746772382]},"objects":{"municipios":{"type":"GeometryCollection","geometries":[{"type":"Polygon","arcs":[[0,1,2,3,4]],"properties":{"codigo":"13836100000000000108","sector":"138361000000000001","pcode":"CO13836","area_m2":33482}},{"type":"Polygon","arcs":[[5]],"properties":{"codigo":"13836200202011000101","sector":"138362002020110001","pcode":"CO13836","area_m2":605820}},{"type":"Polygon","arcs":[[6,7,8]],"properties":{"codigo":"13836100000000000212","sector":"138361000000000002","pcode":"CO13836","area_m2":40323}},{"type":"Polygon","arcs":[[9,10,11,-3]],"properties":{"codigo":"13836100000000000501","sector":"138361000000000005","pcode":"CO13836","area_m2":130295}},{"type":"Polygon","arcs":[[12,13,14,15,16]],"properties":{"codigo":"13836100000000001003","sector":"138361000000000010","pcode":"CO13836","area_m2":105410}},{"type":"Polygon","arcs":[[17,18,19,20]],"properties":{"codigo":"13836200205001000101","sector":"138362002050010001","pcode":"CO13836","area_m2":127625}},{"type":"Polygon","arcs":[[21,-18,22]],"properties":{"codigo":"13836200205001000102","sector":"138362002050010001","pcode":"CO13836","area_m2":84196}},{"type":"Polygon","arcs":[[23,-23,-21,24]],"properties":{"codigo":"13836200205001000103","sector":"138362002050010001","pcode":"CO13836","area_m2":75159}},{"type":"Polygon","arcs":[[25,26]],"properties":{"codigo":"13836200205001000105","sector":"138362002050010001","pcode":"CO13836","area_m2":47104}},{"type":"Polygon","arcs":[[-25,-20,27,-26,28]],"properties":{"codigo":"13836200205001000104","sector":"138362002050010001","pcode":"CO13836","area_m2":119501}},{"type":"MultiPolygon","arcs":[[[29]],[[30]],[[31]],[[32]]],"properties":{"codigo":"13836200204002000101","sector":"138362002040020001","pcode":"CO13836","area_m2":49320}},{"type":"Polygon","arcs":[[33]],"properties":{"codigo":"13836200101007000101","sector":"138362001010070001","pcode":"CO13836","area_m2":167184}},{"type":"Polygon","arcs":[[34]],"properties":{"codigo":"13836200101008000101","sector":"138362001010080001","pcode":"CO13836","area_m2":220721}},{"type":"Polygon","arcs":[[35]],"properties":{"codigo":"13836200101009000101","sector":"138362001010090001","pcode":"CO13836","area_m2":70636}},{"type":"Polygon","arcs":[[36]],"properties":{"codigo":"13836200101010000101","sector":"138362001010100001","pcode":"CO13836","area_m2":219587}},{"type":"Polygon","arcs":[[-1,37,38,39,40,41]],"properties":{"codigo":"13836100000000000302","sector":"138361000000000003","pcode":"CO13836","area_m2":37467}},{"type":"Polygon","arcs":[[42,43,44,45,46]],"properties":{"codigo":"13836100000000000405","sector":"138361000000000004","pcode":"CO13836","area_m2":72894}},{"type":"Polygon","arcs":[[47,48,-47,49,50]],"properties":{"codigo":"13836100000000000309","sector":"138361000000000003","pcode":"CO13836","area_m2":122337}},{"type":"Polygon","arcs":[[51,52,53,54,-48,55]],"properties":{"codigo":"13836100000000000310","sector":"138361000000000003","pcode":"CO13836","area_m2":178923}},{"type":"Polygon","arcs":[[56,57,58,59,60]],"properties":{"codigo":"13836100000000000101","sector":"138361000000000001","pcode":"CO13836","area_m2":66797}},{"type":"Polygon","arcs":[[61,62,63,64]],"properties":{"codigo":"13836100000000000105","sector":"138361000000000001","pcode":"CO13836","area_m2":35955}},{"type":"Polygon","arcs":[[65,-64,66,67,68,69,70,71,-39]],"properties":{"codigo":"13836100000000000106","sector":"138361000000000001","pcode":"CO13836","area_m2":117436}},{"type":"Polygon","arcs":[[-65,-66,-38,-5,72]],"properties":{"codigo":"13836100000000000107","sector":"138361000000000001","pcode":"CO13836","area_m2":76595}},{"type":"Polygon","arcs":[[73,74,75,-57,76]],"properties":{"codigo":"13836100000000000109","sector":"138361000000000001","pcode":"CO13836","area_m2":43259}},{"type":"Polygon","arcs":[[77,78,79]],"properties":{"codigo":"13836100000000000901","sector":"138361000000000009","pcode":"CO13836","area_m2":1081572}},{"type":"Polygon","arcs":[[-13,80]],"properties":{"codigo":"13836100000000001004","sector":"138361000000000010","pcode":"CO13836","area_m2":70803}},{"type":"Polygon","arcs":[[81]],"properties":{"codigo":"13836200102013000101","sector":"138362001020130001","pcode":"CO13836","area_m2":57206}},{"type":"Polygon","arcs":[[82,83,84,85]],"properties":{"codigo":"13836100000000000601","sector":"138361000000000006","pcode":"CO13836","area_m2":188514}},{"type":"Polygon","arcs":[[-8,86,87,88]],"properties":{"codigo":"13836100000000000210","sector":"138361000000000002","pcode":"CO13836","area_m2":65807}},{"type":"MultiPolygon","arcs":[[[89]],[[90,91]]],"properties":{"codigo":"13836100000000000508","sector":"138361000000000005","pcode":"CO13836","area_m2":181864}},{"type":"Polygon","arcs":[[92]],"properties":{"codigo":"13836200102014000101","sector":"138362001020140001","pcode":"CO13836","area_m2":67500}},{"type":"Polygon","arcs":[[93,-80,94,95,96]],"properties":{"codigo":"13836100000000000902","sector":"138361000000000009","pcode":"CO13836","area_m2":166957}},{"type":"Polygon","arcs":[[97,-9,98]],"properties":{"codigo":"13836100000000000213","sector":"138361000000000002","pcode":"CO13836","area_m2":277978}},{"type":"Polygon","arcs":[[-77,-61,99,100]],"properties":{"codigo":"13836100000000000701","sector":"138361000000000007","pcode":"CO13836","area_m2":101205}},{"type":"Polygon","arcs":[[101,102,103,104]],"properties":{"codigo":"13836100000000000606","sector":"138361000000000006","pcode":"CO13836","area_m2":233725}},{"type":"Polygon","arcs":[[105,106,-83,107]],"properties":{"codigo":"13836100000000000603","sector":"138361000000000006","pcode":"CO13836","area_m2":54250}},{"type":"Polygon","arcs":[[-16,108,109]],"properties":{"codigo":"13836100000000001002","sector":"138361000000000010","pcode":"CO13836","area_m2":107741}},{"type":"Polygon","arcs":[[-62,-73,-4,-12,110,111]],"properties":{"codigo":"13836100000000000506","sector":"138361000000000005","pcode":"CO13836","area_m2":55539}},{"type":"Polygon","arcs":[[112,113]],"properties":{"codigo":"13836200102017000101","sector":"138362001020170001","pcode":"CO13836","area_m2":212112}},{"type":"Polygon","arcs":[[114]],"properties":{"codigo":"13836100000000000216","sector":"138361000000000002","pcode":"CO13836","area_m2":45673}},{"type":"Polygon","arcs":[[115,116,117,118,119,120]],"properties":{"codigo":"13836100000000000201","sector":"138361000000000002","pcode":"CO13836","area_m2":192691}},{"type":"Polygon","arcs":[[121]],"properties":{"codigo":"13836200202019000101","sector":"138362002020190001","pcode":"CO13836","area_m2":437077}},{"type":"Polygon","arcs":[[122,-88,123,124,125,126,127,128,129,130,131,-119,132]],"properties":{"codigo":"13836100000000000205","sector":"138361000000000002","pcode":"CO13836","area_m2":212500}},{"type":"Polygon","arcs":[[-113,133]],"properties":{"codigo":"13836200102016000101","sector":"138362001020160001","pcode":"CO13836","area_m2":210363}},{"type":"Polygon","arcs":[[134]],"properties":{"codigo":"13836200103018000101","sector":"138362001030180001","pcode":"CO13836","area_m2":589778}},{"type":"Polygon","arcs":[[135,136,-126]],"properties":{"codigo":"13836100000000000215","sector":"138361000000000002","pcode":"CO13836","area_m2":111864}},{"type":"Polygon","arcs":[[137,-124,-87,-7,-98]],"properties":{"codigo":"13836100000000000211","sector":"138361000000000002","pcode":"CO13836","area_m2":59881}},{"type":"Polygon","arcs":[[138,139,-91,140,141]],"properties":{"codigo":"13836100000000000507","sector":"138361000000000005","pcode":"CO13836","area_m2":186212}},{"type":"Polygon","arcs":[[-133,-118,142]],"properties":{"codigo":"13836100000000000202","sector":"138361000000000002","pcode":"CO13836","area_m2":333419}},{"type":"Polygon","arcs":[[143,-69,144,-130]],"properties":{"codigo":"13836100000000000206","sector":"138361000000000002","pcode":"CO13836","area_m2":110994}},{"type":"Polygon","arcs":[[145,146]],"properties":{"codigo":"13836100000000000509","sector":"138361000000000005","pcode":"CO13836","area_m2":118944}},{"type":"Polygon","arcs":[[-120,-132,147,148]],"properties":{"codigo":"13836100000000000203","sector":"138361000000000002","pcode":"CO13836","area_m2":23205}},{"type":"Polygon","arcs":[[149,150,151,-111,-11,152,-142,153,-146]],"properties":{"codigo":"13836100000000000505","sector":"138361000000000005","pcode":"CO13836","area_m2":429879}},{"type":"Polygon","arcs":[[154]],"properties":{"codigo":"13836200102012000101","sector":"138362001020120001","pcode":"CO13836","area_m2":79792}},{"type":"Polygon","arcs":[[-125,-138,155,-136]],"properties":{"codigo":"13836100000000000214","sector":"138361000000000002","pcode":"CO13836","area_m2":42731}},{"type":"Polygon","arcs":[[156,157,158,-71,159]],"properties":{"codigo":"13836100000000000208","sector":"138361000000000002","pcode":"CO13836","area_m2":179883}},{"type":"Polygon","arcs":[[160,-116,161,-75,162]],"properties":{"codigo":"13836100000000000704","sector":"138361000000000007","pcode":"CO13836","area_m2":254293}},{"type":"Polygon","arcs":[[163,164,-100,-60,165,-151,166,167]],"properties":{"codigo":"13836100000000000703","sector":"138361000000000007","pcode":"CO13836","area_m2":488648}},{"type":"Polygon","arcs":[[-131,-145,168,169,-148]],"properties":{"codigo":"13836100000000000204","sector":"138361000000000002","pcode":"CO13836","area_m2":23875}},{"type":"Polygon","arcs":[[-163,-74,-101,-165,170]],"properties":{"codigo":"13836100000000000702","sector":"138361000000000007","pcode":"CO13836","area_m2":186727}},{"type":"Polygon","arcs":[[171,172]],"properties":{"codigo":"13836200202015000101","sector":"138362002020150001","pcode":"CO13836","area_m2":1009255}},{"type":"Polygon","arcs":[[-129,173,174,175,-160,-70,-144]],"properties":{"codigo":"13836100000000000207","sector":"138361000000000002","pcode":"CO13836","area_m2":148468}},{"type":"Polygon","arcs":[[176,-168]],"properties":{"codigo":"13836100000000000705","sector":"138361000000000007","pcode":"CO13836","area_m2":148716}},{"type":"Polygon","arcs":[[-159,177,178,179,-40,-72]],"properties":{"codigo":"13836100000000000209","sector":"138361000000000002","pcode":"CO13836","area_m2":146803}},{"type":"Polygon","arcs":[[180]],"properties":{"codigo":"13836200201020000101","sector":"138362002010200001","pcode":"CO13836","area_m2":465932}},{"type":"Polygon","arcs":[[181]],"properties":{"codigo":"13836200202021000101","sector":"138362002020210001","pcode":"CO13836","area_m2":1298969}},{"type":"Polygon","arcs":[[182,183,184,185,186,-43,-49,-55]],"properties":{"codigo":"13836100000000000402","sector":"138361000000000004","pcode":"CO13836","area_m2":135247}},{"type":"Polygon","arcs":[[187,-172]],"properties":{"codigo":"13836200102006000101","sector":"138362001020060001","pcode":"CO13836","area_m2":41013}},{"type":"Polygon","arcs":[[188,189,190,191]],"properties":{"codigo":"13836100000000000306","sector":"138361000000000003","pcode":"CO13836","area_m2":258789}},{"type":"Polygon","arcs":[[-176,192,193,-157]],"properties":{"codigo":"13836100000000000802","sector":"138361000000000008","pcode":"CO13836","area_m2":150652}},{"type":"Polygon","arcs":[[-107,194,195,-84]],"properties":{"codigo":"13836100000000000602","sector":"138361000000000006","pcode":"CO13836","area_m2":59476}},{"type":"Polygon","arcs":[[-158,-194,196,197,-178]],"properties":{"codigo":"13836100000000000803","sector":"138361000000000008","pcode":"CO13836","area_m2":89294}},{"type":"Polygon","arcs":[[-190,198,199,200,201]],"properties":{"codigo":"13836100000000000404","sector":"138361000000000004","pcode":"CO13836","area_m2":1110352}},{"type":"Polygon","arcs":[[-97,202,203,204]],"properties":{"codigo":"13836100000000000605","sector":"138361000000000006","pcode":"CO13836","area_m2":179216}},{"type":"Polygon","arcs":[[-106,205,-105,206,-195]],"properties":{"codigo":"13836100000000000604","sector":"138361000000000006","pcode":"CO13836","area_m2":137791}},{"type":"Polygon","arcs":[[207,-169,-68,208]],"properties":{"codigo":"13836100000000000104","sector":"138361000000000001","pcode":"CO13836","area_m2":52817}},{"type":"Polygon","arcs":[[-109,-15,209]],"properties":{"codigo":"13836100000000001001","sector":"138361000000000010","pcode":"CO13836","area_m2":106863}},{"type":"Polygon","arcs":[[-204,210]],"properties":{"codigo":"13836100000000000608","sector":"138361000000000006","pcode":"CO13836","area_m2":383967}},{"type":"Polygon","arcs":[[-86,211]],"properties":{"codigo":"13836100000000000607","sector":"138361000000000006","pcode":"CO13836","area_m2":1974548}},{"type":"Polygon","arcs":[[-128,212,-174]],"properties":{"codigo":"13836100000000000801","sector":"138361000000000008","pcode":"CO13836","area_m2":197526}},{"type":"Polygon","arcs":[[-198,213,-52,214,215,-179]],"properties":{"codigo":"13836100000000000307","sector":"138361000000000003","pcode":"CO13836","area_m2":161974}},{"type":"Polygon","arcs":[[-187,216,217,-44]],"properties":{"codigo":"13836100000000000406","sector":"138361000000000004","pcode":"CO13836","area_m2":68801}},{"type":"Polygon","arcs":[[-103,218,-95,-79,219]],"properties":{"codigo":"13836100000000000903","sector":"138361000000000009","pcode":"CO13836","area_m2":297161}},{"type":"Polygon","arcs":[[220,-183,-54]],"properties":{"codigo":"13836100000000000403","sector":"138361000000000004","pcode":"CO13836","area_m2":295013}},{"type":"Polygon","arcs":[[221,-185,222,223]],"properties":{"codigo":"13836100000000000408","sector":"138361000000000004","pcode":"CO13836","area_m2":96038}},{"type":"Polygon","arcs":[[-216,224,-50,-46,-199,-189,225,-41,-180]],"properties":{"codigo":"13836100000000000303","sector":"138361000000000003","pcode":"CO13836","area_m2":788832}},{"type":"Polygon","arcs":[[-139,-153,-10,-2,-42,-226,-192,226]],"properties":{"codigo":"13836100000000000304","sector":"138361000000000003","pcode":"CO13836","area_m2":494069}},{"type":"Polygon","arcs":[[227,228,-201]],"properties":{"codigo":"13836100000000000409","sector":"138361000000000004","pcode":"CO13836","area_m2":81926}},{"type":"Polygon","arcs":[[-76,-162,-121,-149,-170,-208,229,-58]],"properties":{"codigo":"13836100000000000102","sector":"138361000000000001","pcode":"CO13836","area_m2":140420}},{"type":"Polygon","arcs":[[-59,-230,-209,-67,-63,-112,-152,-166]],"properties":{"codigo":"13836100000000000103","sector":"138361000000000001","pcode":"CO13836","area_m2":154896}},{"type":"Polygon","arcs":[[-215,-56,-51,-225]],"properties":{"codigo":"13836100000000000308","sector":"138361000000000003","pcode":"CO13836","area_m2":137203}},{"type":"Polygon","arcs":[[-218,230,-224,231,-228,-200,-45]],"properties":{"codigo":"13836100000000000401","sector":"138361000000000004","pcode":"CO13836","area_m2":125172}},{"type":"Polygon","arcs":[[-186,-222,-231,-217]],"properties":{"codigo":"13836100000000000407","sector":"138361000000000004","pcode":"CO13836","area_m2":114058}}]}},"arcs":[[[3540,4167],[-8,71]],[[3532,4238],[15,37],[19,96]],[[3566,4371],[38,-43],[23,-17]],[[3627,4311],[13,-14],[23,-60]],[[3663,4237],[-65,-47],[-58,-23]],[[5289,590],[51,-37],[62,100],[178,-35],[27,-181],[16,-188],[-33,-3],[-44,-22],[-47,-45],[-37,-26],[-64,-31],[-97,-23],[-54,-28],[-96,-71],[-45,46],[-30,69],[-10,61],[-16,209],[-25,89],[114,34],[-4,69],[1,85],[118,-50],[35,-22]],[[4060,1808],[-52,152]],[[4008,1960],[83,92]],[[4091,2052],[56,-152],[-87,-92]],[[3566,4371],[14,154],[-6,90],[-10,41]],[[3564,4656],[9,4],[206,-8],[-15,-75],[-7,-112],[-8,-18],[23,-40],[-12,-67]],[[3760,4340],[-128,35],[-5,-64]],[[1857,8130],[-79,-195],[-50,110],[-35,-11]],[[1693,8034],[-55,31]],[[1638,8065],[39,161]],[[1677,8226],[15,70],[131,-27]],[[1823,8269],[-8,-27],[46,-105],[-4,-7]],[[7963,8879],[40,-172],[26,-55],[1,-35]],[[8030,8617],[-38,-40],[-76,-3],[-17,-61],[-32,15],[3,49],[-15,10],[7,52],[1,141],[-15,7],[5,48],[16,35],[15,103]],[[7884,8973],[18,-10],[13,111],[14,-23]],[[7929,9051],[46,-66],[-13,-41],[1,-65]],[[8120,8878],[10,5],[-4,-124],[25,-2],[-15,-36],[-12,6],[-6,-39],[-18,10],[-15,-30],[8,-32],[-20,-22],[-43,3]],[[7963,8879],[21,4],[9,70],[76,-37],[17,20],[-1,-50],[35,-8]],[[8195,9140],[5,-17],[-28,-33],[-18,-41],[-10,-52],[-17,-38],[-7,-81]],[[7929,9051],[31,117],[22,-5],[6,-81],[21,-22],[8,81],[38,-18],[-25,-100],[92,33],[21,14],[52,70]],[[7895,9128],[-3,-76]],[[7892,9052],[-10,1],[-2,-48],[-69,48],[-9,-50],[-2,-69],[-62,-30],[-24,8],[29,47],[-9,12],[34,41],[-19,108],[78,16],[68,-8]],[[7884,8973],[8,79]],[[7895,9128],[14,40],[-24,41],[28,-4],[23,39],[46,43],[79,45],[-3,29],[21,-1],[2,-45],[-19,1],[0,-61],[72,-23],[-4,-36],[20,-22],[14,33],[28,-13],[1,-41],[35,50],[9,-11],[-42,-52]],[[9999,5849],[-36,-23],[6,-34],[-22,-17],[-17,42],[-25,-89],[-20,-56],[9,-23],[-18,-27],[1,-27],[-25,2],[-72,-60],[1,50],[27,6],[-9,23],[41,27],[5,55],[-8,5],[8,63],[16,-30],[32,71],[13,-16],[31,72],[43,38],[19,-52]],[[9932,5537],[-8,-26],[-22,20],[-7,-31],[-16,12],[16,61],[37,-36]],[[9723,5577],[-6,-18],[-18,29],[22,42],[16,-33],[-14,-20]],[[9724,5643],[-15,26],[13,39],[2,-65]],[[1420,6449],[17,2],[61,-123],[-75,-117],[-23,-24],[-21,0],[-51,32],[-22,-20],[-25,-50],[-30,-36],[-45,-122],[-29,64],[88,128],[-26,51],[7,9],[-31,70],[13,4],[1,55],[-32,3],[174,186],[49,-112]],[[1172,5756],[-5,-84],[27,-169],[1,-90],[-38,-17],[-65,8],[-118,7],[-15,60],[-39,5],[-27,31],[27,41],[-9,47],[22,46],[63,104],[25,-9],[77,105],[89,113],[-15,-198]],[[1946,6018],[-18,-89],[-43,36],[-25,-97],[-17,9],[-108,102],[-8,57],[89,72],[46,16],[25,-58],[59,-48]],[[2275,5387],[4,-45],[-22,-47],[-43,-42],[-76,14],[-159,-24],[-47,100],[-61,-17],[-1,45],[46,48],[13,43],[36,49],[34,13],[46,4],[28,17],[57,60],[22,38],[12,-13],[8,-51],[24,-42],[56,-64],[19,-54],[4,-32]],[[3540,4167],[-5,-2],[13,-200]],[[3548,3965],[-20,-29]],[[3528,3936],[-20,176],[-27,101]],[[3481,4213],[-56,139]],[[3425,4352],[40,-32],[21,28],[23,-26],[23,-84]],[[2797,3688],[-6,10]],[[2791,3698],[-50,102]],[[2741,3800],[84,300]],[[2825,4100],[54,-50],[-6,-19]],[[2873,4031],[-10,-267],[-15,-31],[-18,26],[-33,-71]],[[3005,3636],[-100,-22],[-53,-36]],[[2852,3578],[-55,110]],[[2873,4031],[122,-109]],[[2995,3922],[-6,-9],[10,-198],[6,-79]],[[3219,3463],[2,0]],[[3221,3463],[-11,-204],[-169,23],[-12,7],[-14,-42]],[[3015,3247],[-27,48],[-73,159]],[[2915,3454],[-10,27],[-43,71],[-10,26]],[[3005,3636],[-3,-83],[86,2],[5,-40],[26,-47],[100,-5]],[[4116,3720],[-6,-9],[-65,12]],[[4045,3723],[-68,22],[-30,31],[26,48],[10,54],[-32,-12]],[[3951,3866],[12,77],[15,9]],[[3978,3952],[48,53],[27,-6]],[[4053,3999],[-5,-36],[42,-43],[4,-21],[-25,-58],[23,-79],[24,-42]],[[3702,4175],[25,-41]],[[3727,4134],[9,-22],[30,-21],[-14,-65],[-25,15],[-23,-128]],[[3704,3913],[-50,17]],[[3654,3930],[8,59],[24,119],[-26,14],[1,62],[41,-9]],[[3548,3965],[50,-33],[56,-2]],[[3704,3913],[19,-7],[12,-32]],[[3735,3874],[-4,-61],[-16,-4],[-1,-51],[31,-17],[-6,-103]],[[3739,3638],[-45,4]],[[3694,3642],[-31,2]],[[3663,3644],[-96,9]],[[3567,3653],[-39,283]],[[3663,4237],[39,-62]],[[4218,3745],[-8,-83]],[[4210,3662],[-2,-39],[-62,17],[-22,-8]],[[4124,3632],[-42,-5],[-59,7],[22,89]],[[4116,3720],[7,39],[60,-4],[35,-10]],[[740,7579],[-25,-27],[4,-15],[-56,-73],[-40,-61],[-100,205],[-119,-181],[-47,-74],[-60,-73],[-35,-25],[-6,-17],[48,-78],[-83,-134],[36,-59],[-13,-22],[56,-94],[-16,-40],[124,-268],[-21,-34],[-95,-111],[-292,566],[60,131],[49,78],[28,62],[46,58],[14,51],[338,572],[39,65],[-7,13],[85,110],[-12,80],[-10,25],[127,160]],[[757,8369],[182,-333],[43,-69]],[[982,7967],[-106,-209],[-50,-87],[-86,-92]],[[1857,8130],[6,-7],[-44,-110],[8,-21],[-14,-35],[12,-3],[39,-47],[-36,-98],[-59,-68],[-78,176],[-26,45],[28,72]],[[3425,5896],[95,-61],[12,34],[108,-87],[3,-102],[-59,36],[-217,125],[9,61],[19,-12],[5,22],[25,-16]],[[1439,8875],[-100,77]],[[1339,8952],[-123,87],[-9,15]],[[1207,9054],[15,38],[-6,15],[52,110],[51,74],[25,69],[30,63]],[[1374,9423],[32,-78],[78,-38],[-45,-432]],[[4008,1960],[-113,-117]],[[3895,1843],[-25,173],[7,12],[10,88]],[[3887,2116],[12,13],[53,-29],[66,-64],[14,12],[59,4]],[[3599,5397],[-3,-47],[-203,60],[42,303],[202,-121],[-18,-110],[-20,-85]],[[3590,5192],[-12,-80],[-29,-57],[-10,-46]],[[3539,5009],[0,122],[-47,46],[-80,62],[-39,24],[10,56],[161,-42],[-10,-59],[15,-33],[27,-11],[14,18]],[[3889,5756],[-46,-41],[-29,335],[65,22],[81,-272],[-40,-15],[-31,-29]],[[971,7599],[-30,44],[-126,-254],[-4,2],[-71,188]],[[982,7967],[45,-62],[35,-66]],[[1062,7839],[26,-53]],[[1088,7786],[-22,-31],[-95,-156]],[[3934,1684],[5,-3],[121,127]],[[4091,2052],[15,14],[69,5],[8,-22],[22,34],[52,16],[83,-135],[36,-46],[-57,-72],[-36,-30],[-93,-99],[-24,-7],[-48,-68],[-37,-67],[1,-10],[-45,-49],[5,-25],[-33,20],[-110,-94],[-12,43],[6,133],[41,91]],[[4053,3999],[30,2],[33,24],[72,29],[47,8]],[[4235,4062],[2,-173],[-19,-144]],[[1395,8469],[-26,-239],[-21,26],[-73,52],[-101,86],[-23,36],[-107,118],[-56,-108],[-14,-15]],[[974,8425],[-28,59]],[[946,8484],[23,36],[68,138],[-1,11],[67,156]],[[1103,8825],[95,-151],[54,-77],[44,-54],[99,-74]],[[1417,8673],[-15,5],[-106,106]],[[1296,8784],[43,168]],[[1439,8875],[-22,-202]],[[1677,8226],[-54,38],[-67,37],[43,206]],[[1599,8507],[64,-51],[188,-35],[-28,-152]],[[3760,4340],[-2,-25],[22,-35]],[[3780,4280],[69,-109],[-20,-36],[-77,122],[-7,-69],[8,-36],[-26,-18]],[[4878,6462],[46,106],[10,36]],[[4934,6604],[41,-63],[49,-58],[24,-14],[76,-23],[49,-52],[31,-22],[62,-20],[49,-25],[17,-24],[-87,-63],[-23,-28],[-97,12],[-260,46],[-6,37],[-2,96],[21,59]],[[4485,2183],[69,-27],[-20,-143],[-148,62],[3,52],[32,36],[14,-2],[18,34],[32,-12]],[[4011,3544],[0,-33],[-76,-5],[-51,-10],[2,-113],[36,0],[30,42],[1,-36],[80,-53],[113,-54],[87,-30],[19,40],[17,-22]],[[4269,3270],[-34,-41],[-75,37],[-32,4],[-35,22],[-2,-49],[-63,20],[-5,-20],[-35,6],[-25,-33],[-76,74],[-2,-102],[19,-54],[89,-99],[18,-48],[7,-64]],[[4018,2923],[-64,3],[-126,145],[-13,37],[-18,1]],[[3797,3109],[1,104],[13,163]],[[3811,3376],[16,-5],[20,172]],[[3847,3543],[41,32],[1,-21],[104,15],[1,-28],[17,3]],[[5718,3818],[-35,-44],[-25,-62],[-48,-78],[-69,47],[-45,59],[-54,25],[-28,44],[-33,-3],[-20,213],[-21,61],[56,92],[23,73],[34,188],[79,-98],[34,-14],[39,-42],[72,-22],[-10,-80],[29,-98],[60,-228],[-38,-33]],[[3884,2678],[-45,-82],[-10,-44],[14,-60],[-2,-23],[60,-92],[11,-70],[-25,-191]],[[3895,1843],[-8,-3]],[[3887,1840],[0,0]],[[3887,1840],[-24,171],[18,192],[4,107],[-3,31]],[[3882,2341],[-9,42],[-61,76]],[[3812,2459],[12,32],[-75,71],[-55,62],[-6,18]],[[3688,2642],[2,43],[-20,86]],[[3670,2771],[27,0],[2,97],[51,-13],[3,90],[-22,3],[18,126],[11,-2],[13,141],[-15,2],[-1,128],[-37,11],[8,136]],[[3728,3490],[29,-5],[0,-90],[29,-11]],[[3786,3384],[25,-8]],[[3797,3109],[-1,-103],[6,-54],[8,1],[12,-51],[30,-42],[3,-90],[29,-92]],[[4878,6462],[-140,195],[-41,76],[32,41],[10,37],[-45,57],[-51,83],[-63,81],[26,87],[82,-20],[43,2],[33,-85],[49,-81],[35,-120],[57,-86],[25,-10],[9,-52],[-5,-63]],[[6450,7395],[22,-6],[-2,-21],[44,-65],[-102,-214],[-48,-87],[14,-37],[1,-270],[40,-59],[20,-10],[41,-43],[31,-44],[-3,-89],[-19,-56],[-41,-67],[-50,-65],[-14,-54],[-4,-109],[-8,-61],[-71,91],[-58,67],[-20,30],[-17,-11],[-49,88],[32,135],[-22,46],[98,114],[-44,73],[34,51],[-24,18],[15,43],[-50,45],[-49,57],[23,71],[55,114],[16,58],[73,149],[4,35],[67,81],[65,2]],[[3887,1840],[-20,-7],[3,-36],[-24,39],[-50,65],[-31,-162]],[[3765,1739],[-8,-42],[-60,123],[9,72],[45,86],[12,85],[37,39],[20,77],[42,93],[20,69]],[[3934,1684],[-30,43],[-17,113]],[[3529,4947],[9,54]],[[3538,5001],[1,8]],[[3590,5192],[-3,78],[75,53],[59,8],[-9,-250],[94,-23],[14,-17]],[[3820,5041],[-4,-49],[4,-108],[-35,25],[-40,4],[-95,-46],[-104,-5],[7,97],[-24,-12]],[[4018,2923],[79,2],[-9,34],[1,61],[49,0],[10,62],[25,33],[47,-28],[37,-31],[-10,-107],[0,-98],[55,-26],[31,-68],[34,-35],[48,-69],[27,-57],[-40,-92],[-24,33],[-12,-36],[-18,18],[12,46],[12,-15],[21,52],[-74,121],[-68,-86],[-29,-44],[-39,-30],[-10,-127],[5,-49],[-14,33],[0,89],[-9,70],[-18,69],[-83,163],[-19,-10],[-43,45],[-41,-28],[-15,-68],[-52,-72]],[[3670,2771],[-5,70],[14,182],[15,442],[0,177]],[[3739,3638],[-11,-148]],[[4089,4861],[-98,9],[-6,-136],[-74,10],[2,84],[-19,18],[62,-3],[20,23],[7,426]],[[3983,5292],[115,-163],[16,19],[13,-23],[-27,-51],[8,-134],[-19,-79]],[[3786,3384],[13,133],[-23,4],[2,72]],[[3778,3593],[50,-7],[-3,-37],[22,-6]],[[4089,4861],[-76,-236]],[[4013,4625],[-11,6],[-151,19],[-59,1],[15,-207],[32,-22],[3,-64],[16,4],[-6,-71],[28,-1],[35,-25],[15,-28],[-25,-35],[-12,-35]],[[3893,4167],[-96,139],[-17,-26]],[[3564,4656],[-27,117],[-11,69],[3,105]],[[3820,5041],[2,16],[92,159],[5,35],[29,85],[35,-44]],[[3258,8747],[11,-22],[3,40],[18,37],[22,-9],[44,8],[2,-15],[38,7],[2,-14],[76,30],[3,-67],[-29,-14],[1,-79],[-39,-31],[-43,-1],[3,30],[-24,-10],[-7,37],[-35,-2],[-29,-28],[-43,-1],[-31,32],[17,69],[15,-6],[1,73],[14,6],[11,-27],[-1,-43]],[[3934,1684],[-59,1],[-35,12],[-75,42]],[[3600,2963],[-19,-3],[-3,83],[-39,7],[2,68],[-30,-3],[-14,335],[-38,-16],[-29,2]],[[3430,3436],[11,16],[40,122],[16,86]],[[3497,3660],[70,-7]],[[3663,3644],[-3,-73],[-6,0],[-8,-85],[-9,-168],[-42,-1],[5,-354]],[[4341,3538],[-37,-217],[-3,-46],[-32,-5]],[[4011,3544],[43,1],[0,37],[72,5],[-2,45]],[[4210,3662],[72,-40],[-3,-35],[65,-29],[-3,-20]],[[4292,4548],[118,9],[-35,-99],[13,-61],[-27,-71],[-7,-95],[20,-118],[-53,-19]],[[4321,4094],[-45,-33],[-41,1]],[[3978,3952],[-9,28],[-29,44],[-47,143]],[[4013,4625],[-2,-23]],[[4011,4602],[4,-85],[-60,20],[0,-32],[56,-32],[-4,-54],[17,1],[-10,-144],[46,-47],[60,-37],[6,56],[16,69],[19,30],[54,8],[8,91],[25,52],[36,26],[8,24]],[[3739,3638],[40,-2]],[[3779,3636],[-1,-43]],[[4321,4094],[12,-68],[1,-92],[50,-10],[-5,-41],[-43,-12],[-2,-29],[56,-60],[70,-19],[49,-20],[-8,-128],[-61,24],[-41,-59],[-58,-42]],[[4645,4231],[7,53],[40,87],[6,76]],[[4698,4447],[36,142],[12,31],[43,52],[63,51],[81,38],[46,36],[35,55],[38,15],[81,10],[17,94],[9,166],[-4,104],[-17,18],[-78,49],[-16,32],[-15,84],[19,47],[20,71],[52,-29],[14,53],[66,-50],[39,-89],[16,48],[55,-59],[73,-45],[35,-38],[16,101],[72,-8],[-1,-67],[29,-4],[0,-56],[-70,-25],[-56,7],[-21,-88],[-10,-105],[-2,-69],[-15,-31],[-18,-110],[-27,-57],[-43,-38],[-32,-77],[-20,-88],[-29,-41],[-66,-55],[-7,-14],[31,-12],[-3,-258],[-444,-13],[-57,6]],[[3688,2642],[-15,-5],[-34,21],[-7,19],[-28,16]],[[3604,2693],[15,65],[-17,10]],[[3602,2768],[-2,195]],[[4011,4602],[48,-22],[50,-13],[148,-18],[35,-1]],[[3497,3660],[0,95],[-100,5]],[[3397,3760],[2,49],[67,-3],[-1,34],[-49,68],[-51,56]],[[3365,3964],[-67,64],[2,23],[31,20],[82,75],[68,67]],[[4378,1087],[98,5],[-28,-88],[-31,-56],[-31,-31],[-35,-148],[-28,-108],[6,-81],[-8,-37],[-78,-167],[-65,-129],[-4,8],[-54,-57],[-32,18],[4,114],[-52,144],[-9,61],[-13,26],[-47,44],[-108,84],[-11,34],[-27,141],[15,174],[19,-65],[52,-82],[37,-85],[8,0],[30,79],[18,-21],[69,-156],[43,-45],[39,-19],[49,131],[32,74],[27,77],[60,96],[13,74],[42,-9]],[[5303,1831],[57,-1],[40,-28],[37,-47],[59,-45],[36,-59],[103,-57],[-17,-200],[-9,-148],[-52,26],[-46,6],[-30,-17],[-51,-7],[3,-36],[-27,-110],[-6,-93],[6,-63],[15,-52],[-42,-59],[-17,28],[-79,52],[-109,48],[-8,-70],[0,-64],[-73,14],[-33,26],[7,140],[-17,56],[5,64],[-10,8],[-39,-20],[-28,5],[-35,-9],[-20,13],[-87,127],[-21,7],[-16,28],[-117,-68],[-13,-1],[-23,87],[-12,114],[9,81],[2,96],[47,-27],[14,51],[-1,48],[-13,46],[17,25],[30,2],[129,-16],[74,-23],[30,4],[49,-24],[80,-77],[-42,-132],[17,-20],[-8,-145],[-23,-20],[14,-24],[62,-26],[23,12],[31,139],[-7,16],[-67,81],[49,109],[7,74],[15,11],[20,45],[10,105],[46,-7],[55,1]],[[2915,3454],[-30,-21],[-60,-69],[-46,-19],[-55,8]],[[2724,3353],[-76,13],[-73,31],[-64,52],[-81,-18],[-28,-35],[-40,13],[-27,-6],[0,17],[34,2],[22,-18],[49,48],[60,11],[-1,9]],[[2499,3472],[44,24]],[[2543,3496],[53,-39],[97,-18],[9,95],[27,2]],[[2729,3536],[2,-16],[43,25],[-1,22],[-31,60],[49,71]],[[4645,4231],[16,-58],[-6,-24],[-67,-42],[-28,-25],[-45,7],[83,144],[9,52],[42,59],[44,105],[5,-2]],[[3163,4553],[-66,24],[-128,86]],[[2969,4663],[-22,21],[13,47],[24,49],[-8,8],[73,182]],[[3049,4970],[40,98],[93,216],[16,-22]],[[3198,5262],[-53,-112],[25,-34],[13,11],[40,-65],[4,7],[36,-56],[-25,-37],[59,-44],[-47,-95],[-44,-80],[-13,-36],[-30,-168]],[[3602,2768],[-12,7],[-4,67],[-67,49],[8,20],[-28,30],[8,65],[-9,29],[-40,14],[-49,-51],[-5,56],[-5,169],[-24,-3],[-7,223]],[[3368,3443],[62,-7]],[[1296,8784],[-111,108],[-38,41]],[[1147,8933],[60,121]],[[3368,3443],[-24,3]],[[3344,3446],[24,74],[-33,4],[22,76],[4,161],[36,-1]],[[2969,4663],[-64,-289],[-80,-274]],[[2825,4100],[-97,92],[-4,-15]],[[2724,4177],[-115,104],[-56,35],[-95,75]],[[2458,4391],[-14,18],[-64,128],[-1,17],[81,110],[82,129],[-38,80],[-77,-106],[-15,29],[-19,106],[120,123],[-35,128],[25,26],[54,24],[40,-2],[50,-27],[99,-107],[4,2],[89,203],[-8,116],[28,61],[179,-105],[-113,-157],[-75,-125],[43,-56],[23,56],[46,28],[3,-24],[30,-44],[54,-52]],[[1088,7786],[118,-227]],[[1206,7559],[-145,-340]],[[1061,7219],[-39,-82],[-53,-81],[-14,31],[-8,173],[29,8],[8,-174],[43,72],[24,53],[-37,73],[-40,97],[49,88],[-57,114],[5,8]],[[1417,8673],[-22,-204]],[[1103,8825],[46,100],[-2,8]],[[3830,3868],[-13,-73],[22,-24],[-9,-33],[9,-41],[-3,-66],[-57,5]],[[3735,3874],[26,9],[69,-15]],[[1638,8065],[-133,89],[-46,25],[69,345],[51,-30],[6,25],[14,-12]],[[1206,7559],[61,-111],[204,-398],[-27,-28],[-132,-337],[-96,190],[-155,344]],[[1374,9423],[-3,4],[-5,244],[11,9],[-11,302],[104,12],[81,-16],[33,-14],[453,-331],[66,-106],[15,-11],[48,5],[5,-28],[2,-227],[7,-333],[-6,-196],[-1,-199],[-137,-56],[-65,38],[-357,240],[-77,48],[-98,67]],[[3812,2459],[-27,-73],[-56,3],[-79,28],[-8,17],[11,41],[-32,52],[-30,8],[-23,-79],[1,-29],[-14,-55],[-23,22],[-34,-6],[-26,-39],[10,-13],[-22,-32],[32,-74],[-7,-43],[-26,11],[-4,-44],[-22,5],[-141,122],[11,29],[54,63],[27,19],[-6,22],[28,15],[5,-23],[85,73],[47,54],[18,32],[43,128]],[[3344,3446],[-123,17]],[[3219,3463],[-6,161],[-63,-2],[-2,36],[8,98]],[[3156,3756],[49,9],[44,-3],[-10,89],[26,9],[6,-47],[49,0],[2,45],[20,1],[1,-35],[19,0],[3,140]],[[2729,3536],[-68,151],[-6,-10],[-26,52],[12,31],[-11,18]],[[2630,3778],[32,59],[29,66],[50,-103]],[[974,8425],[-71,-116],[8,-17],[25,40],[120,-184],[99,-135],[-72,-139],[-21,-35]],[[757,8369],[-45,87],[31,71],[31,-36],[14,109],[19,97],[-15,7],[8,37],[9,-18],[7,54],[64,-140],[36,-94],[30,-59]],[[3015,3247],[-15,-44],[81,-53],[30,1],[40,-16],[-6,-73],[-105,49],[-14,-100],[10,-62],[-28,-36],[-49,-98],[-67,59],[-62,20],[-33,-16],[-13,24],[-10,-13],[-8,35],[17,31],[15,141],[3,64],[-45,62],[30,68],[-64,30],[2,33]],[[2608,3813],[-61,98],[-20,-38],[1,-42],[20,-188],[6,-5],[-11,-142]],[[2499,3472],[-36,372],[-16,135],[79,21],[14,57]],[[2540,4057],[56,-107],[-18,-27],[46,-61],[-16,-49]],[[3156,3756],[-58,-11],[-6,99],[-25,-2],[-4,89],[-50,43],[-2,-36],[-16,-16]],[[3163,4553],[71,-21],[49,-31],[142,-149]],[[3198,5262],[210,-281],[42,-69],[29,-16],[45,94],[14,11]],[[2724,4177],[-30,-118],[-45,-73],[-82,170]],[[2567,4156],[2,7],[-46,84],[-65,144]],[[3830,3868],[17,6],[72,-12],[32,4]],[[2630,3778],[-22,35]],[[2540,4057],[27,99]]]}
