{"type":"Topology","bbox":[-74.38306152730729,9.025952386478414,-74.29196241421107,9.227071242497404],"transform":{"scale":[0.000009110822391861207,0.000020113896991598164],"translate":[-74.38306152730729,9.025952386478414]},"objects":{"municipios":{"type":"GeometryCollection","geometries":[{"type":"Polygon","arcs":[[0]],"properties":{"codigo":"13650200102009000101","sector":"136502001020090001","pcode":"CO13650","area_m2":55924}},{"type":"MultiPolygon","arcs":[[[1]],[[2]]],"properties":{"codigo":"13650200403010000101","sector":"136502004030100001","pcode":"CO13650","area_m2":21818}},{"type":"MultiPolygon","arcs":[[[3,4]],[[5]],[[6]]],"properties":{"codigo":"13650200101002000101","sector":"136502001010020001","pcode":"CO13650","area_m2":63653}},{"type":"Polygon","arcs":[[-4,7]],"properties":{"codigo":"13650200101002000102","sector":"136502001010020001","pcode":"CO13650","area_m2":46116}},{"type":"Polygon","arcs":[[8]],"properties":{"codigo":"13650200206013000101","sector":"136502002060130001","pcode":"CO13650","area_m2":17771}},{"type":"Polygon","arcs":[[9]],"properties":{"codigo":"13650200201014000101","sector":"136502002010140001","pcode":"CO13650","area_m2":36946}},{"type":"Polygon","arcs":[[10,11]],"properties":{"codigo":"13650200103001000101","sector":"136502001030010001","pcode":"CO13650","area_m2":68337}},{"type":"Polygon","arcs":[[12,13]],"properties":{"codigo":"13650200103001000103","sector":"136502001030010001","pcode":"CO13650","area_m2":51099}},{"type":"Polygon","arcs":[[14,-12,15,-13]],"properties":{"codigo":"13650200103001000102","sector":"136502001030010001","pcode":"CO13650","area_m2":68910}},{"type":"Polygon","arcs":[[16]],"properties":{"codigo":"13650200401005000101","sector":"136502004010050001","pcode":"CO13650","area_m2":704826}},{"type":"Polygon","arcs":[[17]],"properties":{"codigo":"13650200201006000101","sector":"136502002010060001","pcode":"CO13650","area_m2":74332}},{"type":"MultiPolygon","arcs":[[[18]],[[19]]],"properties":{"codigo":"13650200104008000101","sector":"136502001040080001","pcode":"CO13650","area_m2":123147}},{"type":"MultiPolygon","arcs":[[[20]],[[21]],[[22]]],"properties":{"codigo":"13650200104015000101","sector":"136502001040150001","pcode":"CO13650","area_m2":58281}},{"type":"Polygon","arcs":[[23]],"properties":{"codigo":"13650200103004000101","sector":"136502001030040001","pcode":"CO13650","area_m2":797980}},{"type":"Polygon","arcs":[[24,25]],"properties":{"codigo":"13650100000000000101","sector":"136501000000000001","pcode":"CO13650","area_m2":1137138}},{"type":"Polygon","arcs":[[-25,26]],"properties":{"codigo":"13650100000000000102","sector":"136501000000000001","pcode":"CO13650","area_m2":651189}}]}},"arcs":[[[3572,8273],[4,25],[49,19],[100,-64],[145,-135],[41,-98],[-71,2],[-32,76],[-161,142],[-75,33]],[[9502,1103],[30,-32],[-9,-65],[51,-99],[-72,24],[-29,62],[-77,9],[79,6],[27,95]],[[9590,885],[0,0]],[[3772,9902],[-44,-39],[75,-7],[-49,-49]],[[3754,9807],[-104,22],[-45,25],[-92,13],[-19,24],[-169,37],[36,21],[135,-26],[6,7],[151,-28],[119,0]],[[3437,9849],[-96,-32],[-37,22],[76,37],[57,-27]],[[3227,9988],[-18,-24],[-59,11],[51,24],[26,-11]],[[3772,9902],[29,-10],[271,-28],[60,-22],[-17,-26],[-113,20],[-1,-18],[-110,-10],[-77,10],[-60,-11]],[[166,45],[62,-2],[116,-22],[7,-21],[-119,19],[-229,5],[6,15],[157,6]],[[1724,4712],[72,-46],[-61,-39],[-143,50],[21,22],[-69,2],[-6,19],[87,-8],[68,69],[56,-24],[-25,-45]],[[5356,5811],[117,-80],[167,-92],[-59,-40],[-34,13],[50,33],[-58,-9],[-110,44],[-83,12],[8,20],[-66,19],[-56,36],[-50,10]],[[5182,5777],[38,28],[72,26],[33,-28],[31,8]],[[5219,5940],[-42,-14],[-56,35],[-80,-22],[0,-29]],[[5041,5910],[-76,55],[-58,7],[38,21],[-59,34],[79,40],[72,-13],[182,-114]],[[5219,5940],[64,-50],[73,-79]],[[5182,5777],[-94,47],[-47,86]],[[7303,3903],[34,1],[-11,-90],[32,-110],[114,-138],[57,-124],[32,-41],[80,-56],[258,-111],[26,-20],[43,-85],[105,-67],[68,-64],[13,-119],[49,-81],[-64,-17],[-53,57],[-45,-7],[-86,138],[-147,103],[-52,4],[-26,31],[-48,-11],[-47,32],[-116,36],[56,35],[-246,106],[-25,34],[-45,16],[14,24],[-100,46],[-91,53],[-71,76],[42,4],[45,47],[64,40],[-115,79],[102,28],[-20,21],[24,36],[65,24],[-36,25],[121,45]],[[3132,3264],[65,-20],[47,27],[-44,-49],[-34,-73],[-164,19],[-149,-21],[-70,1],[-119,-35],[-60,40],[66,48],[-56,51],[40,15],[126,-89],[59,5],[17,-21],[39,35],[46,-11],[111,21],[62,0],[18,57]],[[6692,5296],[32,5],[77,-73],[127,-80],[109,-86],[-24,-21],[-122,-28],[-54,7],[47,63],[-1,56],[-25,-5],[-73,51],[-20,-5],[-52,42],[-31,59],[-124,32],[-6,37],[65,-15],[75,-39]],[[6610,4822],[-86,-77],[-3,34],[-61,11],[24,34],[54,-7],[23,25],[-53,10],[44,25],[7,78],[153,-2],[-37,-24],[35,-8],[-100,-99]],[[4975,4072],[130,-49],[53,14],[34,-14],[-59,-29],[109,-52],[-25,-10],[-57,28],[-80,-3],[2,-54],[-23,30],[1,67],[-85,72]],[[5474,3902],[86,-16],[26,-19],[-72,-34],[-117,18],[37,25],[-42,11],[48,27],[34,-12]],[[5370,3932],[-32,-37],[-67,12],[38,37],[61,-12]],[[8445,8793],[47,-13],[-48,-23],[150,-27],[135,-34],[145,-60],[37,16],[70,-33],[150,-47],[115,-58],[350,-200],[44,4],[-7,-31],[69,-64],[19,-62],[-15,-45],[289,11],[1,-7],[-181,-104],[-160,-120],[-260,-392],[-238,7],[82,123],[-92,9],[68,73],[75,-11],[164,240],[-68,1],[7,23],[71,-1],[16,188],[-75,-8],[1,68],[-52,15],[-57,53],[-54,-9],[-42,60],[-38,-7],[-61,42],[85,28],[-94,62],[61,23],[-193,64],[-587,199],[-168,55],[105,-17],[58,32],[76,-23]],[[4946,9751],[578,-55],[420,-93],[143,-43],[311,-78],[281,-76],[326,-105],[-70,-32],[149,-48],[288,-99],[280,-107],[-32,-19],[80,-27]],[[7700,8969],[-74,-46],[-756,227],[-55,-3],[-102,15],[-233,-36],[-95,-5],[-96,16],[-443,185],[-87,108],[-420,262],[-185,20],[-82,0],[-244,36],[-165,12],[17,20],[266,-29]],[[4946,9751],[16,16],[106,-13],[76,91],[54,40],[490,-167],[340,-101],[391,-79],[344,-98],[437,-95],[420,-97],[297,-132],[-191,-87],[46,-38],[-72,-22]]]}
