{"type":"Topology","bbox":[-73.96931971196415,8.743600932811075,-73.86994488787082,8.990902983347107],"transform":{"scale":[0.000009938476256958838,0.000024732678321435316],"translate":[-73.96931971196415,8.743600932811075]},"objects":{"municipios":{"type":"GeometryCollection","geometries":[{"type":"Polygon","arcs":[[0,1]],"properties":{"codigo":"13268200303003000102","sector":"132682003030030001","pcode":"CO13268","area_m2":73441}},{"type":"Polygon","arcs":[[-1,2]],"properties":{"codigo":"13268200303003000101","sector":"132682003030030001","pcode":"CO13268","area_m2":136069}},{"type":"Polygon","arcs":[[3,4]],"properties":{"codigo":"13268200201006000101","sector":"132682002010060001","pcode":"CO13268","area_m2":96651}},{"type":"Polygon","arcs":[[5,6]],"properties":{"codigo":"13268200102017000101","sector":"132682001020170001","pcode":"CO13268","area_m2":123138}},{"type":"Polygon","arcs":[[-6,7]],"properties":{"codigo":"13268200102017000102","sector":"132682001020170001","pcode":"CO13268","area_m2":50327}},{"type":"Polygon","arcs":[[8,9,10,11]],"properties":{"codigo":"13268100000000000101","sector":"132681000000000001","pcode":"CO13268","area_m2":49948}},{"type":"Polygon","arcs":[[12,13,14,15,-10]],"properties":{"codigo":"13268100000000000102","sector":"132681000000000001","pcode":"CO13268","area_m2":45815}},{"type":"Polygon","arcs":[[-11,-16,16,17]],"properties":{"codigo":"13268100000000000103","sector":"132681000000000001","pcode":"CO13268","area_m2":45985}},{"type":"Polygon","arcs":[[-15,18,-17]],"properties":{"codigo":"13268100000000000104","sector":"132681000000000001","pcode":"CO13268","area_m2":26253}},{"type":"Polygon","arcs":[[-13,-9,19]],"properties":{"codigo":"13268100000000000105","sector":"132681000000000001","pcode":"CO13268","area_m2":127409}},{"type":"MultiPolygon","arcs":[[[20]],[[21]]],"properties":{"codigo":"13268200105004000101","sector":"132682001050040001","pcode":"CO13268","area_m2":34974}},{"type":"Polygon","arcs":[[-4,22]],"properties":{"codigo":"13268200201006000102","sector":"132682002010060001","pcode":"CO13268","area_m2":57950}},{"type":"MultiPolygon","arcs":[[[23]],[[24]]],"properties":{"codigo":"13268200103013000101","sector":"132682001030130001","pcode":"CO13268","area_m2":489895}},{"type":"MultiPolygon","arcs":[[[25]],[[26]],[[27]]],"properties":{"codigo":"13268200103008000101","sector":"132682001030080001","pcode":"CO13268","area_m2":75858}}]}},"arcs":[[[3939,133],[57,5],[-18,27],[84,2]],[[4062,167],[14,-62],[42,2],[6,-76],[-101,1],[-1,-11],[-54,3],[-12,-24],[-101,12],[61,48],[22,37],[1,36]],[[3939,133],[-32,36],[-85,49],[-57,16],[-187,38],[-85,6],[-117,-6],[-200,-31],[-39,4],[-25,31],[76,3],[136,15],[122,21],[51,3],[107,-2],[121,-28],[29,16],[72,-25],[93,-39],[57,14],[44,-19],[-40,-13],[8,-17],[74,-38]],[[431,6230],[-123,-25]],[[308,6205],[-24,15],[-100,35],[-67,28],[-117,57],[86,11],[44,-6],[94,18],[50,-41],[75,15],[48,-33],[-54,-12],[88,-62]],[[3975,9415],[23,0],[114,46],[-31,10]],[[4081,9471],[15,4],[87,-18],[-20,-28],[97,-22],[-31,-37],[13,-2],[-14,-36],[-46,-64],[-36,16],[-11,-8],[-49,0],[-54,-15],[-8,59],[-69,30],[17,9],[-28,10],[24,9],[-40,20],[-55,16],[102,1]],[[3975,9415],[-100,16],[16,14],[-53,19],[7,12],[63,19],[3,21],[-67,13],[52,31],[38,-7],[-20,-37],[35,-14],[132,-31]],[[2218,9922],[-40,-16],[-77,-2],[-122,-11]],[[1979,9893],[33,13],[-3,12],[-43,10],[27,33]],[[1993,9961],[32,30]],[[2025,9991],[45,-3],[67,-25],[72,-11],[54,-1],[-45,-29]],[[1979,9893],[-11,-46]],[[1968,9847],[-112,47],[-72,2]],[[1784,9896],[53,50]],[[1837,9946],[29,29],[127,-14]],[[1837,9946],[-56,8],[-15,-14],[-154,23]],[[1612,9963],[-54,5],[7,18],[164,9],[71,-2],[10,6],[154,-9],[61,1]],[[1784,9896],[-91,18],[-78,10],[-3,39]],[[2218,9922],[-10,-39],[30,-20],[128,-52],[77,-23],[-44,-33],[-60,14],[-69,-25],[-1,16],[-30,23],[-43,12],[-95,-38],[-98,41],[14,4],[-49,45]],[[2945,8208],[13,-11],[53,8],[42,-19],[-23,-2],[37,-34],[15,-26],[-10,-28],[26,-26],[-78,-4],[-18,16],[35,15],[-30,15],[-58,7],[-15,12],[59,5],[-40,37],[36,-8],[29,20],[-68,-8],[-20,28],[15,3]],[[3085,8186],[-17,10],[32,6],[-15,-16]],[[431,6230],[2,-14],[78,-61],[-53,-13],[18,-9],[-49,-20],[-18,9],[-54,-15],[-10,-12],[-23,16],[-57,10],[-42,16],[81,32],[4,36]],[[9655,6801],[94,-252],[82,-196],[-168,-24],[-126,-20],[-60,75],[-12,53],[109,11],[-38,68],[-181,-6],[-12,17],[109,16],[-35,89],[-14,16],[-5,41],[-18,-1],[-4,23],[-32,7],[8,24],[-20,9],[-8,29],[131,11],[200,10]],[[9062,6592],[-59,17],[-15,38],[9,24],[224,29],[68,-75],[-227,-33]],[[9816,7629],[-24,0],[-4,18],[101,4],[15,26],[0,40],[46,1],[32,12],[-4,-35],[-31,-60],[-131,-6]],[[9991,7775],[-125,-14],[-28,47],[73,10],[-23,56],[-24,32],[24,3],[-31,31],[42,7],[45,-37],[21,-28],[34,-100],[-8,-7]],[[9803,7978],[-11,-2],[-46,28],[30,6],[51,-26],[-24,-6]]]}
