{"type":"Topology","bbox":[-73.93930379616216,8.554090657828272,-73.83383459869526,8.650297223794583],"transform":{"scale":[0.000010547974544144679,0.000009621618758506922],"translate":[-73.93930379616216,8.554090657828272]},"objects":{"municipios":{"type":"GeometryCollection","geometries":[{"type":"Polygon","arcs":[[0,1,2]],"properties":{"codigo":"13600100000000000102","sector":"136001000000000001","pcode":"CO13600","area_m2":113855}},{"type":"Polygon","arcs":[[-1,3,4,5,6]],"properties":{"codigo":"13600100000000000103","sector":"136001000000000001","pcode":"CO13600","area_m2":192923}},{"type":"Polygon","arcs":[[7,8]],"properties":{"codigo":"13600100000000000105","sector":"136001000000000001","pcode":"CO13600","area_m2":11614}},{"type":"Polygon","arcs":[[9]],"properties":{"codigo":"13600200206009000101","sector":"136002002060090001","pcode":"CO13600","area_m2":90113}},{"type":"Polygon","arcs":[[10]],"properties":{"codigo":"13600200505010000101","sector":"136002005050100001","pcode":"CO13600","area_m2":86958}},{"type":"Polygon","arcs":[[11]],"properties":{"codigo":"13600200208014000101","sector":"136002002080140001","pcode":"CO13600","area_m2":9011}},{"type":"Polygon","arcs":[[-4,-3,12]],"properties":{"codigo":"13600100000000000101","sector":"136001000000000001","pcode":"CO13600","area_m2":207446}},{"type":"Polygon","arcs":[[13,-9,14,-6]],"properties":{"codigo":"13600100000000000104","sector":"136001000000000001","pcode":"CO13600","area_m2":174890}},{"type":"Polygon","arcs":[[15]],"properties":{"codigo":"13600200501007000101","sector":"136002005010070001","pcode":"CO13600","area_m2":86375}},{"type":"Polygon","arcs":[[16]],"properties":{"codigo":"13600200208011000101","sector":"136002002080110001","pcode":"CO13600","area_m2":74970}}]}},"arcs":[[[9627,3427],[-80,-46],[-113,-21],[-68,210],[-60,130]],[[9306,3700],[42,66],[-36,64],[66,59],[62,-70],[24,39],[201,167],[20,-21]],[[9685,4004],[-235,-213],[63,-143],[114,-221]],[[9627,3427],[60,-74]],[[9687,3353],[-190,-83],[-298,-114]],[[9199,3156],[-49,151],[60,16],[-51,130],[-143,333]],[[9016,3786],[228,-89],[62,3]],[[8916,3457],[-52,-17],[21,136],[46,22]],[[8931,3598],[31,-121],[-46,-20]],[[1964,1354],[-3,-51],[-101,-109],[-80,-23],[-74,17],[-20,34],[-184,101],[180,93],[79,20],[28,-57],[13,33],[62,18],[86,-35],[14,-41]],[[1,72],[19,73],[82,112],[98,27],[124,-53],[12,60],[-84,8],[13,50],[94,27],[34,-17],[-8,-86],[-33,11],[16,-63],[-22,-45],[-31,-174],[-105,71],[-61,-23],[-4,45],[-144,-23]],[[1102,7766],[-26,2],[21,124],[46,46],[-4,-154],[-37,-18]],[[9685,4004],[30,-35],[-28,-133],[104,-38],[-10,-78],[45,-49],[66,-34],[107,-90],[-38,-55],[-76,-50],[-198,-89]],[[9199,3156],[-49,-21],[-126,-97],[-150,187],[-11,115],[93,5],[10,69],[-46,-7],[-4,50]],[[8931,3598],[20,50],[21,156],[44,-18]],[[4961,7009],[24,-147],[-29,-112],[-42,-81],[-28,-184],[34,-81],[-74,-38],[-72,36],[-11,91],[47,8],[-19,65],[-10,170],[90,81],[19,55],[-14,83],[85,54]],[[1272,9998],[94,-19],[-15,-134],[25,-197],[-104,11],[-153,106],[-23,54],[-47,26],[54,43],[128,-29],[0,39],[52,-19],[14,66],[-79,3],[-3,37],[57,13]]]}
