{"type":"Topology","bbox":[-74.04680314916146,8.702150088541476,-73.94637255403626,8.943960532146892],"transform":{"scale":[0.00001004406391891225,0.00002418346270681233],"translate":[-74.04680314916146,8.702150088541476]},"objects":{"municipios":{"type":"GeometryCollection","geometries":[{"type":"Polygon","arcs":[[0,1,2,3]],"properties":{"codigo":"13667200504009000103","sector":"136672005040090001","pcode":"CO13667","area_m2":69626}},{"type":"Polygon","arcs":[[4,5]],"properties":{"codigo":"13667200501010000101","sector":"136672005010100001","pcode":"CO13667","area_m2":72652}},{"type":"Polygon","arcs":[[6,7,8,-5]],"properties":{"codigo":"13667200501010000102","sector":"136672005010100001","pcode":"CO13667","area_m2":30042}},{"type":"Polygon","arcs":[[-8,9]],"properties":{"codigo":"13667200501010000103","sector":"136672005010100001","pcode":"CO13667","area_m2":82973}},{"type":"MultiPolygon","arcs":[[[10,11,12,-2]],[[13]]],"properties":{"codigo":"13667200504009000104","sector":"136672005040090001","pcode":"CO13667","area_m2":39976}},{"type":"Polygon","arcs":[[14,-12]],"properties":{"codigo":"13667200504009000105","sector":"136672005040090001","pcode":"CO13667","area_m2":31276}},{"type":"Polygon","arcs":[[15,16,17]],"properties":{"codigo":"13667200201002000101","sector":"136672002010020001","pcode":"CO13667","area_m2":99644}},{"type":"Polygon","arcs":[[18,-16,19]],"properties":{"codigo":"13667200201002000102","sector":"136672002010020001","pcode":"CO13667","area_m2":54281}},{"type":"Polygon","arcs":[[20,-17,-19]],"properties":{"codigo":"13667200201002000103","sector":"136672002010020001","pcode":"CO13667","area_m2":131899}},{"type":"Polygon","arcs":[[21,22]],"properties":{"codigo":"13667200504009000101","sector":"136672005040090001","pcode":"CO13667","area_m2":86042}},{"type":"Polygon","arcs":[[-4,23,-22,24]],"properties":{"codigo":"13667200504009000102","sector":"136672005040090001","pcode":"CO13667","area_m2":55236}},{"type":"Polygon","arcs":[[25]],"properties":{"codigo":"13667200301014000101","sector":"136672003010140001","pcode":"CO13667","area_m2":109810}},{"type":"Polygon","arcs":[[26]],"properties":{"codigo":"13667200401015000101","sector":"136672004010150001","pcode":"CO13667","area_m2":128465}},{"type":"Polygon","arcs":[[27]],"properties":{"codigo":"13667200303016000101","sector":"136672003030160001","pcode":"CO13667","area_m2":89454}},{"type":"Polygon","arcs":[[28]],"properties":{"codigo":"13667200304017000101","sector":"136672003040170001","pcode":"CO13667","area_m2":36888}},{"type":"Polygon","arcs":[[29,30,31,32]],"properties":{"codigo":"13667100000000000101","sector":"136671000000000001","pcode":"CO13667","area_m2":92117}},{"type":"Polygon","arcs":[[33,-33,34]],"properties":{"codigo":"13667100000000000102","sector":"136671000000000001","pcode":"CO13667","area_m2":188708}},{"type":"Polygon","arcs":[[35,36,-31]],"properties":{"codigo":"13667100000000000201","sector":"136671000000000002","pcode":"CO13667","area_m2":325237}},{"type":"Polygon","arcs":[[-34,37,38,39,40,-36,-30]],"properties":{"codigo":"13667100000000000202","sector":"136671000000000002","pcode":"CO13667","area_m2":366968}},{"type":"Polygon","arcs":[[41,42,-40]],"properties":{"codigo":"13667100000000000203","sector":"136671000000000002","pcode":"CO13667","area_m2":136349}},{"type":"Polygon","arcs":[[-42,-39,43]],"properties":{"codigo":"13667100000000000204","sector":"136671000000000002","pcode":"CO13667","area_m2":92775}}]}},"arcs":[[[9938,296],[11,-31],[-43,-39],[-27,-14],[-31,7],[-33,-17]],[[9815,202],[-118,13]],[[9697,215],[-12,9],[21,29],[-30,2],[-16,52]],[[9660,307],[195,0],[83,-11]],[[8069,5022],[-49,-3],[-207,-32],[-100,-11]],[[7713,4976],[-4,8],[56,8],[-28,10],[52,54],[132,36],[-12,24],[107,9],[-11,-35],[20,-34],[44,-34]],[[8069,5022],[44,-28]],[[8113,4994],[-69,-13],[-113,-9],[-86,-10]],[[7845,4962],[3,9],[-77,-2],[-58,7]],[[8113,4994],[133,-63],[-108,-42],[-115,-16],[-26,34],[-56,-5],[-4,23],[-99,-8],[7,45]],[[9815,202],[5,-12],[-58,-78],[-28,-30]],[[9734,82],[-82,11]],[[9652,93],[49,46],[-35,62],[31,14]],[[9804,114],[0,0]],[[9734,82],[-23,-21],[-46,1],[-83,-61],[-96,11],[27,33],[-4,19],[56,4],[29,13],[31,-7],[27,19]],[[2664,9833],[4,-8],[-111,-10],[-170,-22]],[[2387,9793],[-136,-21]],[[2251,9772],[22,12],[-34,34],[27,-6],[53,9],[-48,41],[19,3],[-23,24],[74,2],[34,11],[17,47],[-38,16],[29,5],[18,-20],[129,-4],[-29,-42],[-1,-23],[34,-57],[130,9]],[[2440,9717],[-53,76]],[[2664,9833],[126,14],[5,-19],[87,10],[5,-20],[-53,5],[-198,-24],[6,-7],[-68,-10],[34,-8],[-73,-6],[22,-18],[-29,-1],[-16,18],[-77,-8],[14,-21],[77,-14],[-86,-7]],[[2440,9717],[-78,-14],[-10,-49],[-50,-5],[9,14],[-40,7],[-13,-13],[-18,18],[-61,8],[-10,36],[11,14],[-98,-15],[-34,-23],[-72,-26],[62,-30],[-78,-22],[-21,-12],[-29,7],[-74,-20],[-25,17],[-50,-1],[18,-37],[-31,-21],[-83,-23],[1,41],[37,36],[61,13],[-12,24],[68,2],[122,30],[166,60],[151,20],[-8,19]],[[9912,391],[-115,-12]],[[9797,379],[-38,8],[45,12],[-89,52],[0,6],[-76,56],[10,3],[-62,43],[-24,-5],[-34,44],[-55,36],[-8,13],[35,24],[-55,9],[45,13],[111,24],[55,-14],[-26,-21],[-28,10],[-54,1],[-9,-17],[20,-25],[79,-60],[45,-49],[24,-37],[58,-43],[71,-30],[75,-41]],[[9660,307],[10,33],[86,6],[41,33]],[[9912,391],[33,-35],[54,-24],[-61,-36]],[[5439,6665],[75,-22],[18,-54],[33,-21],[33,3],[19,-16],[36,-1],[19,-13],[-122,-18],[-23,-13],[24,-24],[-19,-17],[-73,21],[8,17],[-29,-4],[-21,17],[24,4],[-4,22],[-34,-1],[-9,22],[-27,8],[-56,-8],[-46,31],[-14,39],[23,17],[43,9],[106,7],[16,-5]],[[2982,2787],[40,-19],[33,11],[143,-68],[199,-88],[184,-90],[-59,-24],[-20,6],[-58,-6],[-2,11],[-319,160],[-29,-11],[-142,69],[25,8],[-55,27],[60,14]],[[9311,5959],[-92,-62],[-137,-104],[-49,3],[20,24],[99,73],[22,-4],[64,50],[205,125],[18,22],[-10,55],[-48,41],[-184,89],[-287,120],[-110,33],[20,13],[129,-39],[238,-99],[89,-47],[52,-20],[105,-57],[43,-72],[-23,-42],[-32,-25],[-132,-77]],[[724,4452],[-20,-6],[65,-15],[-37,-26],[-42,-7],[19,-26],[-38,-6],[-36,-26],[-111,74],[123,16],[41,24],[36,-2]],[[701,9857],[-25,-18]],[[676,9839],[-54,9],[-103,6],[-34,-5],[-65,9]],[[420,9858],[31,53],[-56,23],[27,37],[59,3],[12,-17],[93,-2],[-48,-39],[51,-3],[26,17],[75,3],[9,40],[-37,25],[45,1],[32,-25]],[[739,9974],[-3,-83],[-35,-34]],[[1301,9787],[-97,14],[-195,36],[-308,20]],[[739,9974],[9,-6],[120,12],[46,1],[160,-67],[10,-15],[43,-5],[54,4],[58,-15],[25,-20],[-10,-14],[59,-7],[45,6],[27,-15],[-47,-12],[66,-18],[-61,-29],[-42,13]],[[676,9839],[-19,-24],[88,-5],[-13,-49],[-58,1],[-39,-16],[-23,-34],[4,-53],[-15,-19]],[[601,9640],[-18,6],[-357,23],[-110,-9],[-14,33],[-71,35],[57,47],[-55,32],[-33,30],[34,17],[156,-16],[11,-13],[42,3],[137,-7],[40,37]],[[1301,9787],[-48,-47],[-40,-8],[-55,-44],[-50,7],[-42,-37],[-87,-9],[3,-18]],[[982,9631],[-54,2],[-2,-25],[-71,-2],[-5,-35]],[[850,9571],[-63,6],[-37,-49],[-36,-10]],[[714,9518],[13,37],[-27,25],[-47,4],[-37,25],[-35,11],[20,20]],[[850,9571],[1,-33],[132,-2],[11,-21],[113,1],[103,6],[63,-4]],[[1273,9518],[28,-1],[5,-52],[-54,-1],[-87,-11],[-164,-4],[-90,7],[-164,3],[-3,-16],[-49,-7],[-18,21],[12,40],[25,21]],[[982,9631],[118,-36],[72,-1],[87,-57],[14,-19]]]}
