{"type":"Topology","bbox":[-74.52597220597221,8.690624276544902,-74.26723236133142,9.059601336525319],"transform":{"scale":[0.000025876572121290733,0.0000369013961376554],"translate":[-74.52597220597221,8.690624276544902]},"objects":{"municipios":{"type":"GeometryCollection","geometries":[{"type":"Polygon","arcs":[[0,1]],"properties":{"codigo":"13549200702012000102","sector":"135492007020120001","pcode":"CO13549","area_m2":125738}},{"type":"Polygon","arcs":[[2,3]],"properties":{"codigo":"13549200501001000101","sector":"135492005010010001","pcode":"CO13549","area_m2":78475}},{"type":"Polygon","arcs":[[4,-4,5,6]],"properties":{"codigo":"13549200501001000102","sector":"135492005010010001","pcode":"CO13549","area_m2":78848}},{"type":"Polygon","arcs":[[-7,7]],"properties":{"codigo":"13549200501001000103","sector":"135492005010010001","pcode":"CO13549","area_m2":143930}},{"type":"Polygon","arcs":[[8]],"properties":{"codigo":"13549200803004000101","sector":"135492008030040001","pcode":"CO13549","area_m2":35549}},{"type":"Polygon","arcs":[[-1,9]],"properties":{"codigo":"13549200702012000101","sector":"135492007020120001","pcode":"CO13549","area_m2":69206}},{"type":"Polygon","arcs":[[10]],"properties":{"codigo":"13549200803018000101","sector":"135492008030180001","pcode":"CO13549","area_m2":29110}},{"type":"Polygon","arcs":[[11,12]],"properties":{"codigo":"13549200201011000101","sector":"135492002010110001","pcode":"CO13549","area_m2":136952}},{"type":"Polygon","arcs":[[13]],"properties":{"codigo":"13549200703005000101","sector":"135492007030050001","pcode":"CO13549","area_m2":40126}},{"type":"Polygon","arcs":[[-13,14]],"properties":{"codigo":"13549200201011000102","sector":"135492002010110001","pcode":"CO13549","area_m2":142162}},{"type":"Polygon","arcs":[[15,16]],"properties":{"codigo":"13549200105007000101","sector":"135492001050070001","pcode":"CO13549","area_m2":94468}},{"type":"Polygon","arcs":[[17,-16]],"properties":{"codigo":"13549200105007000102","sector":"135492001050070001","pcode":"CO13549","area_m2":77073}},{"type":"Polygon","arcs":[[18]],"properties":{"codigo":"13549200602009000101","sector":"135492006020090001","pcode":"CO13549","area_m2":631511}},{"type":"Polygon","arcs":[[19,20]],"properties":{"codigo":"13549200201010000101","sector":"135492002010100001","pcode":"CO13549","area_m2":199907}},{"type":"Polygon","arcs":[[-20,21]],"properties":{"codigo":"13549200201010000102","sector":"135492002010100001","pcode":"CO13549","area_m2":183674}},{"type":"MultiPolygon","arcs":[[[22]],[[23]]],"properties":{"codigo":"13549200103014000101","sector":"135492001030140001","pcode":"CO13549","area_m2":554943}},{"type":"MultiPolygon","arcs":[[[24,25]],[[26]]],"properties":{"codigo":"13549200501015000101","sector":"135492005010150001","pcode":"CO13549","area_m2":38567}},{"type":"Polygon","arcs":[[-26,27]],"properties":{"codigo":"13549200501015000102","sector":"135492005010150001","pcode":"CO13549","area_m2":92542}},{"type":"Polygon","arcs":[[28]],"properties":{"codigo":"13549200601024000101","sector":"135492006010240001","pcode":"CO13549","area_m2":158458}},{"type":"MultiPolygon","arcs":[[[29]],[[30]]],"properties":{"codigo":"13549200105025000101","sector":"135492001050250001","pcode":"CO13549","area_m2":370566}},{"type":"Polygon","arcs":[[31]],"properties":{"codigo":"13549200504032000101","sector":"135492005040320001","pcode":"CO13549","area_m2":84094}},{"type":"Polygon","arcs":[[32]],"properties":{"codigo":"13549200202034000101","sector":"135492002020340001","pcode":"CO13549","area_m2":457342}},{"type":"Polygon","arcs":[[33,34,35]],"properties":{"codigo":"13549100000000000101","sector":"135491000000000001","pcode":"CO13549","area_m2":356961}},{"type":"Polygon","arcs":[[36,-34,37]],"properties":{"codigo":"13549100000000000102","sector":"135491000000000001","pcode":"CO13549","area_m2":177100}},{"type":"Polygon","arcs":[[38,-35,-37]],"properties":{"codigo":"13549100000000000103","sector":"135491000000000001","pcode":"CO13549","area_m2":271899}}]}},"arcs":[[[5509,2587],[-1,16],[40,14],[27,-11],[12,12]],[[5587,2618],[52,-12],[20,2],[66,23],[20,-64],[-58,8],[-11,-21],[-54,12],[-6,-12],[-35,2],[-5,-23],[-11,44],[-56,10]],[[5194,5455],[-71,3],[-15,6],[-2,16],[-22,3],[-3,19],[46,6],[25,12],[29,3],[-1,9],[25,6],[2,22]],[[5207,5560],[7,-34],[11,0],[0,-26],[-36,-1],[5,-44]],[[5214,5419],[1,34],[-21,2]],[[5207,5560],[65,8]],[[5272,5568],[0,-27],[16,-39],[-15,0],[-5,-24],[-21,1],[-1,-10],[-26,2],[0,-33],[-6,-19]],[[5272,5568],[45,4],[2,-30],[44,2],[27,-8],[-14,-20],[22,6],[-14,-43],[-46,5],[-3,-11],[40,-3],[-5,-16],[-61,0],[10,-7],[-2,-21],[-13,1],[1,19],[-45,7],[-2,-10],[-28,5],[-5,-30],[-11,1]],[[9543,59],[-12,-31],[19,-10],[28,12],[37,-5],[-4,-7],[-46,-1],[-5,-15],[-51,1],[0,23],[-10,17],[19,24],[25,-8]],[[5509,2587],[-41,5],[15,11],[-10,5],[13,15],[-7,10],[-31,1],[5,14],[-18,6],[20,11],[-37,21],[8,5],[36,-21],[13,9],[59,-37],[6,6],[47,-30]],[[9994,205],[-15,-14],[11,-8],[-24,-25],[-28,12],[-16,-4],[-9,13],[45,13],[39,31],[-3,-18]],[[3333,6694],[-6,-8],[14,-42],[29,-33],[12,-4],[-56,-23],[-20,8],[-41,28],[-15,15],[-26,55],[-9,33]],[[3215,6723],[56,7],[18,-42],[44,6]],[[8118,897],[29,-20],[15,0],[-14,-23],[5,-8],[-61,-10],[-13,11],[7,38],[18,-2],[14,14]],[[3215,6723],[-10,33],[-19,42],[-28,42],[36,15],[6,-8],[41,7],[11,-24],[-22,-5],[26,-45],[14,9],[19,-29],[43,-28],[9,-36],[-8,-2]],[[2543,9938],[-84,19],[-17,-7],[-5,-42]],[[2437,9908],[-39,4],[-63,-12],[-23,-8],[-11,33],[32,14],[5,-6],[23,10],[39,4],[-2,28],[28,-19],[52,21],[32,22],[14,-16],[-9,-7],[20,-14],[-17,-9],[28,-9],[-3,-6]],[[2543,9938],[14,-17],[-11,-5],[13,-16],[-72,-27],[-12,16],[-38,19]],[[1999,4761],[15,-14],[22,0],[1,-39],[10,-34],[30,-30],[13,-21],[67,-62],[64,-81],[34,11],[7,-10],[-31,-11],[13,-11],[18,-30],[12,1],[0,-29],[29,-18],[50,-60],[9,-2],[35,-36],[14,-8],[-50,-27],[-158,139],[-94,102],[-83,94],[-64,76],[-35,54],[-14,28],[7,51],[24,24],[24,14],[52,-35],[-17,-15],[9,-4],[-13,-17]],[[2541,8272],[32,27],[31,18]],[[2604,8317],[46,-32],[49,-7],[48,3],[41,10],[101,-7],[33,-11],[-8,-23],[-44,17],[-16,-27],[-31,2],[-3,-12],[-55,-17],[-37,30],[-18,3],[-47,-6],[-58,3],[-25,6],[-39,23]],[[2541,8272],[-72,55],[-70,68],[-65,48],[-24,15],[29,25],[31,-18],[-5,-5],[32,-19],[22,1],[19,-14],[-8,-6],[36,-20],[16,0],[42,-46],[8,5],[19,-16],[53,-28]],[[148,7370],[20,-38],[43,9],[4,-22],[-36,-7],[17,-29],[45,-56],[14,5],[31,-24],[8,-14],[72,-47],[-11,-4],[54,-18],[34,21],[26,-26],[21,-11],[-20,-11],[-45,-54],[-62,21],[-134,67],[-72,53],[-21,8],[-136,126],[100,43],[48,8]],[[266,7258],[0,0]],[[6361,5142],[-1,-24],[-71,-18],[-17,11],[-17,26],[9,3]],[[6264,5140],[26,12],[15,-14],[56,4]],[[6251,5085],[0,0]],[[6264,5140],[-21,34],[8,4],[-22,17],[93,40],[39,-76],[0,-17]],[[4362,5881],[105,-64],[26,-27],[-50,-23],[-3,7],[-33,17],[-34,-10],[-17,11],[11,13],[-7,10],[-40,14],[-25,-1],[-8,16],[-38,10],[12,14],[17,3],[45,34],[39,-24]],[[2833,9440],[7,-15],[-16,-2],[4,-18],[15,2],[9,-56],[19,-7],[-5,-14],[-18,9],[3,-66],[-8,-10],[-3,-28],[15,0],[-5,-26],[-13,-25],[-18,3],[-31,-33],[10,-6],[-53,-36],[-9,7],[-23,-10],[7,-7],[-44,-29],[-15,16],[-23,-5],[11,-18],[-17,9],[-52,-7],[-31,3],[-18,-10],[-50,-2],[-2,5],[-40,-4],[3,-8],[-24,-4],[3,-11],[-16,-2],[-4,11],[-35,-11],[-19,2],[-18,39],[90,13],[202,12],[25,7],[87,32],[37,26],[24,24],[24,42],[4,29],[-3,39],[-15,105],[-9,31],[-37,80],[33,12],[42,-88]],[[2437,8923],[14,-15],[-36,-9],[-16,15],[-55,33],[12,23],[23,-1],[19,-20],[39,-26]],[[8358,3851],[28,-46],[-84,-25],[-18,21],[-22,46],[33,13],[-3,7],[54,14],[12,-30]],[[1206,6815],[15,-10],[-32,-21],[30,-15],[30,22],[52,-26],[21,14],[18,-12],[-1,-12],[-27,-20],[56,-31],[26,3],[-4,-9],[31,-26],[20,-6],[-29,-17],[23,-25],[-16,-9],[20,-23],[23,12],[24,-25],[-92,-46],[-19,21],[-112,101],[-119,75],[-48,24],[61,45],[14,16],[22,-9],[13,9]],[[2575,6150],[-75,-29],[7,-9],[-68,-26],[5,-4]],[[2444,6082],[-90,-37]],[[2354,6045],[-28,56],[-30,40],[-54,49],[73,50],[40,22],[116,-80],[-45,-20],[22,-22],[72,24],[7,-16],[39,13],[9,-11]],[[2678,6024],[-2,-20],[-25,-20],[-25,-5],[-37,5],[5,4],[-37,17],[-75,47],[-38,30]],[[2575,6150],[-10,-22],[-41,-19],[10,-12],[20,14],[-9,-17],[35,-34],[49,27],[6,-5],[-49,-28],[21,-25],[29,-2],[22,18],[16,-8],[4,-13]],[[2678,6024],[38,-17],[-26,-30],[-26,-15],[-83,-20],[-77,1],[-51,5],[-47,25],[-33,35],[-19,37]]]}
