{"type":"Topology","bbox":[-74.1334063065604,7.3976428006794634,-73.86209597489011,7.68062682691426],"transform":{"scale":[0.00002713374654168344,0.000028301232746754323],"translate":[-74.1334063065604,7.3976428006794634]},"objects":{"municipios":{"type":"GeometryCollection","geometries":[{"type":"Polygon","arcs":[[0,1,2,3,4,5]],"properties":{"codigo":"13670100000000000103","sector":"136701000000000001","pcode":"CO13670","area_m2":84587}},{"type":"Polygon","arcs":[[6,7,8,9,-4,10,11]],"properties":{"codigo":"13670100000000000104","sector":"136701000000000001","pcode":"CO13670","area_m2":149480}},{"type":"Polygon","arcs":[[12,13,14,-7]],"properties":{"codigo":"13670100000000000108","sector":"136701000000000001","pcode":"CO13670","area_m2":354111}},{"type":"Polygon","arcs":[[15]],"properties":{"codigo":"13670200404009000101","sector":"136702004040090001","pcode":"CO13670","area_m2":36068}},{"type":"Polygon","arcs":[[16]],"properties":{"codigo":"13670200101014000101","sector":"136702001010140001","pcode":"CO13670","area_m2":12917}},{"type":"Polygon","arcs":[[17]],"properties":{"codigo":"13670200901020000101","sector":"136702009010200001","pcode":"CO13670","area_m2":77027}},{"type":"Polygon","arcs":[[18,-11,-3,19,20]],"properties":{"codigo":"13670100000000000203","sector":"136701000000000002","pcode":"CO13670","area_m2":181729}},{"type":"Polygon","arcs":[[-20,-2,21,22]],"properties":{"codigo":"13670100000000000202","sector":"136701000000000002","pcode":"CO13670","area_m2":120798}},{"type":"Polygon","arcs":[[-6,23,24,25]],"properties":{"codigo":"13670100000000000101","sector":"136701000000000001","pcode":"CO13670","area_m2":77495}},{"type":"Polygon","arcs":[[-5,-10,26,27,28,-24]],"properties":{"codigo":"13670100000000000102","sector":"136701000000000001","pcode":"CO13670","area_m2":107567}},{"type":"Polygon","arcs":[[-13,-12,-19,29]],"properties":{"codigo":"13670100000000000204","sector":"136701000000000002","pcode":"CO13670","area_m2":394727}},{"type":"Polygon","arcs":[[30,31]],"properties":{"codigo":"13670100000000000301","sector":"136701000000000003","pcode":"CO13670","area_m2":48782}},{"type":"Polygon","arcs":[[32,33,34,-8,-15]],"properties":{"codigo":"13670100000000000105","sector":"136701000000000001","pcode":"CO13670","area_m2":238366}},{"type":"Polygon","arcs":[[35,36,37,38,-28]],"properties":{"codigo":"13670100000000000106","sector":"136701000000000001","pcode":"CO13670","area_m2":63058}},{"type":"Polygon","arcs":[[-9,-35,39,40,41,-36,-27]],"properties":{"codigo":"13670100000000000107","sector":"136701000000000001","pcode":"CO13670","area_m2":105833}},{"type":"Polygon","arcs":[[-40,-34,42]],"properties":{"codigo":"13670100000000000109","sector":"136701000000000001","pcode":"CO13670","area_m2":45008}},{"type":"Polygon","arcs":[[-22,-1,-26,43]],"properties":{"codigo":"13670100000000000201","sector":"136701000000000002","pcode":"CO13670","area_m2":244577}},{"type":"Polygon","arcs":[[44,45,-31,46,-38]],"properties":{"codigo":"13670100000000000302","sector":"136701000000000003","pcode":"CO13670","area_m2":85990}},{"type":"Polygon","arcs":[[-37,-42,47,48,49,-45]],"properties":{"codigo":"13670100000000000303","sector":"136701000000000003","pcode":"CO13670","area_m2":103339}},{"type":"Polygon","arcs":[[50,51,52,-49]],"properties":{"codigo":"13670100000000000304","sector":"136701000000000003","pcode":"CO13670","area_m2":88997}},{"type":"Polygon","arcs":[[53,-52]],"properties":{"codigo":"13670100000000000305","sector":"136701000000000003","pcode":"CO13670","area_m2":52359}},{"type":"MultiPolygon","arcs":[[[54]],[[55]]],"properties":{"codigo":"13670200307002000101","sector":"136702003070020001","pcode":"CO13670","area_m2":49790}},{"type":"Polygon","arcs":[[56]],"properties":{"codigo":"13670200201003000101","sector":"136702002010030001","pcode":"CO13670","area_m2":117807}},{"type":"MultiPolygon","arcs":[[[57]],[[58]]],"properties":{"codigo":"13670200103007000101","sector":"136702001030070001","pcode":"CO13670","area_m2":93563}},{"type":"MultiPolygon","arcs":[[[59]],[[60]]],"properties":{"codigo":"13670201102011000101","sector":"136702011020110001","pcode":"CO13670","area_m2":30582}},{"type":"Polygon","arcs":[[61]],"properties":{"codigo":"13670200203004000101","sector":"136702002030040001","pcode":"CO13670","area_m2":52276}},{"type":"Polygon","arcs":[[62]],"properties":{"codigo":"13670200306005000101","sector":"136702003060050001","pcode":"CO13670","area_m2":34398}},{"type":"MultiPolygon","arcs":[[[63]],[[64]]],"properties":{"codigo":"13670200601010000101","sector":"136702006010100001","pcode":"CO13670","area_m2":19905}},{"type":"Polygon","arcs":[[65]],"properties":{"codigo":"13670200106012000101","sector":"136702001060120001","pcode":"CO13670","area_m2":28819}},{"type":"Polygon","arcs":[[66]],"properties":{"codigo":"13670200704013000101","sector":"136702007040130001","pcode":"CO13670","area_m2":19675}},{"type":"Polygon","arcs":[[67]],"properties":{"codigo":"13670200303017000101","sector":"136702003030170001","pcode":"CO13670","area_m2":34142}},{"type":"MultiPolygon","arcs":[[[68]],[[69]]],"properties":{"codigo":"13670200504018000101","sector":"136702005040180001","pcode":"CO13670","area_m2":16205}},{"type":"Polygon","arcs":[[70]],"properties":{"codigo":"13670200502019000101","sector":"136702005020190001","pcode":"CO13670","area_m2":21816}},{"type":"Polygon","arcs":[[71]],"properties":{"codigo":"13670200404022000101","sector":"136702004040220001","pcode":"CO13670","area_m2":17988}}]}},"arcs":[[[7800,2961],[34,-9]],[[7834,2952],[-26,-70]],[[7808,2882],[-13,-33]],[[7795,2849],[-79,21]],[[7716,2870],[39,103]],[[7755,2973],[45,-12]],[[7789,2738],[-91,30],[12,26],[-63,22],[-6,7]],[[7641,2823],[-39,15]],[[7602,2838],[25,56]],[[7627,2894],[89,-24]],[[7795,2849],[-10,-26],[-4,-37],[23,-6]],[[7804,2780],[-15,-42]],[[7789,2738],[-41,-118],[29,-17],[-5,-42],[12,-17],[-34,-34],[-29,-8],[-34,-1],[0,-22]],[[7687,2479],[-50,4]],[[7637,2483],[2,38],[11,33],[2,32],[-15,61],[-3,36],[6,8],[-12,6],[19,24],[-35,24],[10,46],[11,-4],[8,36]],[[4322,7289],[40,-19],[4,-15],[-13,-27],[-9,5],[-7,-10],[-14,7],[-4,-7],[-14,3],[-26,15],[3,11],[20,34],[12,-5],[8,8]],[[317,8667],[16,4],[0,-26],[-12,-14],[-14,0],[-11,26],[-7,-7],[-7,14],[31,11],[4,-8]],[[7275,4318],[13,1],[21,-37],[-9,-2],[3,-14],[9,-2],[-6,-35],[-20,-33],[-54,-45],[-12,-37],[-13,1],[2,19],[-14,1],[7,21],[15,18],[6,-6],[14,13],[-6,8],[26,19],[18,20],[8,29],[-14,1],[-5,-28],[-31,3],[10,60],[26,-3],[-5,36],[11,-8]],[[7966,2716],[-103,21],[6,28],[-65,15]],[[7808,2882],[93,-31],[70,-20]],[[7971,2831],[-11,-63],[6,-52]],[[7834,2952],[78,-22],[74,-16]],[[7986,2914],[-15,-83]],[[7755,2973],[-88,28]],[[7667,3001],[15,19],[12,0],[19,24],[22,-6],[13,3],[41,-7],[9,36],[9,-1]],[[7807,3069],[-7,-32],[24,-5],[-24,-71]],[[7627,2894],[-12,4]],[[7615,2898],[3,16],[29,54],[-11,3]],[[7636,2971],[5,9],[17,7],[9,14]],[[7966,2716],[1,-45],[-6,-31],[-76,-99],[-35,-29],[-43,-25],[-111,-9],[-9,1]],[[7441,2954],[-48,-21],[-58,-11]],[[7335,2922],[-12,21],[8,20],[77,37],[20,-23],[13,-23]],[[7637,2483],[-43,3],[5,41],[34,10],[10,25],[-1,27],[-10,31],[-28,16],[0,-14],[-30,-6],[-17,0],[3,17],[-21,22],[-16,-2],[1,-9],[-26,-15],[0,-20],[-25,-21],[-2,13],[13,34],[-7,4],[9,18],[-12,31],[-6,6]],[[7468,2694],[6,6],[4,20],[-11,0],[-11,13],[17,9],[14,-18],[0,16],[9,31]],[[7496,2771],[4,-21],[19,-18],[-9,-16],[4,-8],[22,30],[17,-8],[49,108]],[[7615,2898],[-70,-6],[-23,5]],[[7522,2897],[-12,4]],[[7510,2901],[-38,16],[-27,31]],[[7445,2948],[18,18],[10,-12],[2,-22],[31,-9],[2,6],[25,-15],[23,4],[4,13],[8,-2],[5,11],[14,-13],[12,28],[20,23],[17,-7]],[[7496,2771],[4,12]],[[7500,2783],[0,7],[28,12],[10,28]],[[7538,2830],[9,21],[-9,26],[-16,20]],[[7468,2694],[-32,-10],[-7,23],[-6,34],[35,51],[10,-6],[32,-3]],[[7807,3069],[26,4],[38,11],[9,-13],[51,-11],[98,-8],[-35,-95],[-8,-43]],[[7510,2901],[-14,-5],[-65,-28],[-22,-1],[-94,24],[-6,15]],[[7309,2906],[-1,5],[29,2],[-2,9]],[[7441,2954],[4,-6]],[[7538,2830],[-8,3],[-10,-17],[-9,-3]],[[7511,2813],[-217,60],[3,12],[-23,-14]],[[7274,2871],[-10,16],[45,19]],[[7511,2813],[-7,-10],[-28,-3],[-27,19],[-2,-5],[-23,13],[-22,-1],[-18,-26],[-36,-9],[-10,7],[-15,-12],[-19,7],[-34,-15]],[[7270,2778],[6,9],[-14,12],[24,22],[37,11],[17,-5],[8,15],[-23,4],[-3,-10],[-22,6],[0,6],[-45,0],[-18,6],[3,6]],[[7240,2860],[24,4],[10,7]],[[7270,2778],[-13,-5],[-19,5],[-25,12],[1,59],[26,11]],[[9610,5440],[38,-27],[-23,-3],[-18,16],[-16,-51],[-6,6],[-29,0],[-5,-10],[14,-6],[-17,-1],[-15,-39],[1,-15],[13,-4],[15,-14],[-27,-18],[-23,-5],[9,29],[-10,-7],[-14,11],[-29,0],[-13,6],[3,14],[17,-9],[18,5],[19,-3],[38,80],[-2,23],[5,15],[10,-2],[-5,-23],[7,-16],[19,1],[16,44],[10,3]],[[9661,5406],[0,0]],[[7268,9574],[-16,-17],[-22,3],[-15,8],[-7,-10],[-10,-26],[26,-6],[-7,-18],[1,-16],[18,-13],[7,-14],[21,-22],[-54,-4],[-17,7],[-8,31],[-14,39],[18,45],[4,30],[21,31],[-4,3],[14,18],[5,22],[19,23],[7,1],[20,-18],[12,-17],[-16,-32],[-2,-11],[-13,-19],[14,-11],[-2,-7]],[[4107,9955],[63,-14],[-1,-9],[24,-6],[4,19],[6,-8],[36,-9],[-12,-29],[2,-9],[-38,3],[0,-17],[-42,6],[-1,-8],[-64,3],[-5,-9],[-7,56],[-20,3],[1,10],[30,-6],[8,17],[14,-2],[2,9]],[[4275,9882],[-14,5],[6,12],[13,-5],[-5,-12]],[[2196,69],[-6,-12],[-11,7],[7,-13],[-24,-21],[-7,7],[-28,-21],[5,-6],[-16,-5],[11,11],[-11,3],[5,14],[19,7],[29,23],[11,29],[9,-4],[-6,-13],[13,-6]],[[2239,172],[-5,-15],[-9,2],[-6,-17],[20,-3],[-10,-30],[-21,5],[7,10],[-17,7],[20,40],[9,-3],[6,18],[10,-2],[-4,-12]],[[9968,9994],[22,-17],[9,-2],[-20,-25],[6,-15],[-15,1],[-20,11],[-14,-1],[-32,-37],[-33,22],[-9,15],[5,7],[28,7],[13,18],[17,-5],[16,21],[10,-8],[12,13],[5,-5]],[[8172,6149],[47,-7],[-61,-66],[0,-41],[-21,0],[3,25],[-10,1],[-1,22],[49,54],[-33,12],[6,6],[21,-6]],[[2263,5800],[12,4],[0,-10],[-33,-13],[8,-15],[-30,-16],[-11,11],[-14,37],[33,-6],[32,14],[3,-6]],[[2187,5809],[-16,-1],[6,8],[10,-7]],[[127,7059],[4,-12],[-6,-10],[4,-16],[-11,0],[-6,-15],[-36,17],[-39,-1],[6,13],[13,9],[34,1],[15,15],[-10,9],[19,13],[13,-23]],[[2304,3035],[-19,-28],[22,-18],[15,-7],[-14,-17],[-16,10],[-33,41],[24,34],[21,-15]],[[9509,8134],[-7,-15],[13,-16],[-23,-2],[4,-57],[-6,11],[-9,-2],[-3,16],[-12,0],[-10,24],[13,0],[3,12],[-16,2],[-10,20],[3,11],[8,-5],[18,21],[24,-10],[10,-10]],[[408,5003],[17,3],[-8,-12],[-30,2],[-30,-12],[-4,12],[10,3],[-6,21],[27,4],[20,-5],[4,-16]],[[482,5032],[-1,10],[13,1],[1,-11],[-13,0]],[[127,5529],[10,5],[3,-14],[-15,0],[-40,-13],[-20,-2],[-27,-21],[-7,20],[-22,-15],[-9,6],[13,15],[47,8],[28,12],[36,9],[3,-10]],[[4529,6601],[3,-19],[-31,9],[22,10],[-2,11],[9,1],[-2,13],[34,4],[31,-17],[17,-1],[-1,-10],[-30,-2],[0,9],[-50,-8]]]}
