{"type":"Topology","bbox":[-74.27613934323631,8.672021448455462,-74.15805473575335,8.808372388325271],"transform":{"scale":[0.000011809641712466849,0.000013636457632744159],"translate":[-74.27613934323631,8.672021448455462]},"objects":{"municipios":{"type":"GeometryCollection","geometries":[{"type":"Polygon","arcs":[[0,1,2,3]],"properties":{"codigo":"13030200405002000102","sector":"130302004050020001","pcode":"CO13030","area_m2":46300}},{"type":"Polygon","arcs":[[4]],"properties":{"codigo":"13030200501003000101","sector":"130302005010030001","pcode":"CO13030","area_m2":31738}},{"type":"Polygon","arcs":[[-4,5]],"properties":{"codigo":"13030200405002000101","sector":"130302004050020001","pcode":"CO13030","area_m2":78777}},{"type":"Polygon","arcs":[[6]],"properties":{"codigo":"13030200401001000101","sector":"130302004010010001","pcode":"CO13030","area_m2":27890}},{"type":"Polygon","arcs":[[7,-2]],"properties":{"codigo":"13030200405002000103","sector":"130302004050020001","pcode":"CO13030","area_m2":201289}},{"type":"Polygon","arcs":[[8]],"properties":{"codigo":"13030200501005000101","sector":"130302005010050001","pcode":"CO13030","area_m2":77333}},{"type":"Polygon","arcs":[[9]],"properties":{"codigo":"13030200301004000101","sector":"130302003010040001","pcode":"CO13030","area_m2":42498}},{"type":"Polygon","arcs":[[10,11,12]],"properties":{"codigo":"13030100000000000101","sector":"130301000000000001","pcode":"CO13030","area_m2":131871}},{"type":"Polygon","arcs":[[13,14,15,-11,16]],"properties":{"codigo":"13030100000000000102","sector":"130301000000000001","pcode":"CO13030","area_m2":152537}},{"type":"Polygon","arcs":[[17,18,-15]],"properties":{"codigo":"13030100000000000103","sector":"130301000000000001","pcode":"CO13030","area_m2":71476}},{"type":"Polygon","arcs":[[-16,-19,19,20,-12]],"properties":{"codigo":"13030100000000000104","sector":"130301000000000001","pcode":"CO13030","area_m2":184592}},{"type":"Polygon","arcs":[[-14,21,-20,-18]],"properties":{"codigo":"13030100000000000105","sector":"130301000000000001","pcode":"CO13030","area_m2":253235}}]}},"arcs":[[[9413,5304],[-3,-14]],[[9410,5290],[-12,-47],[-115,41],[-81,34],[-61,18],[-33,-19],[-54,69]],[[9054,5386],[45,1],[-8,23]],[[9091,5410],[7,13],[207,-82],[7,20],[38,-1],[1,-38],[62,-18]],[[160,7585],[-22,7],[-36,67],[-22,28],[-25,56],[-2,48],[-53,0],[3,47],[14,-22],[41,-5],[53,16],[-8,-70],[13,-3],[50,-59],[13,-97],[-19,-13]],[[9091,5410],[-28,13],[-50,5],[-38,23],[3,39],[34,25],[71,5],[4,-11],[48,-2],[48,12],[21,39],[35,26],[21,-10],[-42,-80],[-5,-26],[80,-5],[13,-37],[28,-11],[0,-35],[36,-26],[41,-16],[2,-34]],[[5062,9930],[-32,-33],[-9,12],[-47,-25],[27,-55],[-27,2],[-29,39],[-51,-8],[-24,-17],[9,-28],[-27,32],[146,133],[16,17],[48,-69]],[[9410,5290],[13,-23],[60,-9],[-7,-38],[-32,-7],[-21,-75],[-29,12],[-31,-4],[8,17],[-34,22],[-16,-13],[-16,25],[-68,44],[-53,11],[15,-101],[-20,-2],[13,-28],[-33,-19],[-10,-57],[-44,0],[3,-33],[-13,-26],[-32,-16],[-9,-19],[-35,14],[17,32],[-55,4],[-3,73],[-33,14],[24,47],[-16,57],[-25,11],[-76,-3],[-5,40],[26,33],[67,-34],[18,19],[-33,34],[-31,15],[8,13],[25,-17],[28,18],[40,-32],[19,51],[30,10],[-18,25],[28,11]],[[497,9485],[-131,14],[2,19],[-179,53],[-31,14],[61,95],[222,-68],[81,-32],[-3,-95],[-22,0]],[[5882,116],[21,-17],[-14,-11],[41,-38],[38,1],[8,-24],[-36,1],[-39,16],[28,-35],[-19,-9],[-19,24],[-37,-22],[-32,21],[-44,-14],[-55,44],[-19,62],[90,3],[0,11],[42,24],[46,-37]],[[9848,8968],[-58,-8],[-5,-12],[-87,-25],[-6,-13],[-105,-10]],[[9587,8900],[-15,11],[-366,33],[-150,15],[-104,-12],[-112,2],[-37,13],[-60,8]],[[8743,8970],[15,2],[-11,48],[43,2],[57,-28],[50,19],[89,-11],[122,-8],[54,-16],[66,6],[67,-1],[17,-13],[31,14],[48,-19],[59,5],[80,-11],[27,-10],[104,-3],[5,69],[21,4],[10,34],[63,57],[5,24],[44,6],[10,-81],[29,-91]],[[9665,8664],[-12,32]],[[9653,8696],[-35,103],[25,5],[-24,63],[-24,-6],[-17,30]],[[9578,8891],[9,9]],[[9848,8968],[54,-84],[68,-41],[20,-29],[9,-49],[-11,-69],[-44,9],[-7,-18],[-209,35],[-2,-17],[-52,-4],[8,-39],[-17,2]],[[9653,8696],[-204,-25],[-39,105],[-4,48]],[[9406,8824],[131,20],[-2,39],[43,8]],[[9406,8824],[-54,-9],[-52,1],[-125,-15],[0,-16],[-35,-8]],[[9140,8777],[-74,-12],[-57,12],[-48,26],[-48,48],[-49,20],[-45,54],[-81,10],[5,35]],[[9665,8664],[-44,-85],[-15,14],[-61,-52],[-14,-24],[-85,-58],[-33,-15],[-25,-26],[-100,0],[-51,23],[-11,24],[-37,-6],[-23,42],[14,8],[-45,46],[30,18],[-21,43],[72,46],[-36,103],[-33,-5],[-7,17]]]}
