{"type":"Topology","bbox":[-74.22979148020852,8.411185017822278,-74.01288071758705,8.605032141467204],"transform":{"scale":[0.00002169324558670535,0.000019386651029595488],"translate":[-74.22979148020852,8.411185017822278]},"objects":{"municipios":{"type":"GeometryCollection","geometries":[{"type":"Polygon","arcs":[[0]],"properties":{"codigo":"13490200102004000101","sector":"134902001020040001","pcode":"CO13490","area_m2":33255}},{"type":"Polygon","arcs":[[1]],"properties":{"codigo":"13490200204001000101","sector":"134902002040010001","pcode":"CO13490","area_m2":114407}},{"type":"MultiPolygon","arcs":[[[2]],[[3]]],"properties":{"codigo":"13490200104002000101","sector":"134902001040020001","pcode":"CO13490","area_m2":53435}},{"type":"Polygon","arcs":[[4]],"properties":{"codigo":"13490200104003000101","sector":"134902001040030001","pcode":"CO13490","area_m2":25057}},{"type":"Polygon","arcs":[[5]],"properties":{"codigo":"13490200302005000101","sector":"134902003020050001","pcode":"CO13490","area_m2":61731}},{"type":"Polygon","arcs":[[6]],"properties":{"codigo":"13490200301006000101","sector":"134902003010060001","pcode":"CO13490","area_m2":62162}},{"type":"Polygon","arcs":[[7]],"properties":{"codigo":"13490200305007000101","sector":"134902003050070001","pcode":"CO13490","area_m2":73067}},{"type":"Polygon","arcs":[[8]],"properties":{"codigo":"13490200304008000101","sector":"134902003040080001","pcode":"CO13490","area_m2":49657}},{"type":"Polygon","arcs":[[9,10,11]],"properties":{"codigo":"13490100000000000101","sector":"134901000000000001","pcode":"CO13490","area_m2":84759}},{"type":"Polygon","arcs":[[12,-10,13]],"properties":{"codigo":"13490100000000000102","sector":"134901000000000001","pcode":"CO13490","area_m2":111047}},{"type":"Polygon","arcs":[[14,-11,-13]],"properties":{"codigo":"13490100000000000103","sector":"134901000000000001","pcode":"CO13490","area_m2":100405}}]}},"arcs":[[[2921,2703],[-6,17],[-15,-8],[-11,-15],[2,-18],[13,-17],[18,-13],[8,3],[19,-23],[30,-7],[-2,15],[11,4],[7,-13],[25,11],[4,-9],[-42,-18],[2,-8],[-26,-1],[-44,26],[-8,1],[-19,-11],[-45,-32],[-4,7],[32,26],[-2,32],[8,3],[-5,46],[19,18],[0,5],[26,16],[27,11],[3,-7],[-13,-5],[-1,-31],[-11,-5]],[[6293,7053],[23,3],[11,-27],[10,5],[15,-15],[-73,-36],[6,-14],[19,-3],[-5,-17],[-30,13],[0,10],[-38,-19],[3,-12],[-12,7],[-64,-28],[5,-19],[-35,-13],[-5,12],[-47,-20],[2,-5],[-15,-7],[17,-10],[9,-17],[-23,-11],[-5,17],[-10,-2],[-42,-22],[-7,-8],[3,-15],[-27,-7],[5,-18],[-22,-9],[-4,10],[-20,-7],[-4,13],[-7,-3],[-6,17],[-32,-17],[-7,11],[61,30],[-3,11],[46,35],[22,12],[-8,19],[5,5],[21,-9],[6,11],[3,-9],[27,13],[-11,3],[-6,15],[25,13],[7,-12],[16,10],[37,17],[3,-9],[25,12],[3,-8],[91,36],[1,-9],[47,26],[-6,22],[-23,18],[7,28],[16,-17]],[[266,392],[7,8],[0,-19],[6,-15],[-3,-15],[-14,1],[-18,-11],[11,-11],[-13,3],[4,-10],[-35,-42],[-16,0],[-2,-14],[-9,-5],[-14,21],[-24,-1],[-7,-19],[17,0],[0,-7],[-24,1],[-6,6],[-13,-20],[-15,-1],[-15,-18],[-16,3],[-13,-14],[-2,11],[-6,-35],[-16,14],[2,13],[-14,0],[2,9],[18,-3],[6,16],[-41,6],[8,17],[16,-3],[3,11],[22,11],[16,-9],[7,-13],[10,13],[-11,20],[8,12],[10,-4],[13,-15],[10,4],[4,-9],[13,-2],[-2,20],[23,7],[9,-17],[28,10],[18,17],[21,9],[-7,2],[2,13],[11,6],[2,16],[5,-2],[14,27],[0,18],[10,-11]],[[245,407],[-11,12],[5,6],[10,-13],[-4,-5]],[[248,88],[30,-1],[2,-8],[-13,-20],[18,1],[12,-9],[-30,-43],[-3,5],[-26,-13],[-3,16],[-14,5],[-37,0],[-1,14],[-9,8],[6,13],[17,-22],[18,2],[19,19],[6,14],[0,31],[8,-12]],[[6478,9689],[39,-33],[6,8],[34,-29],[-24,-24],[-7,1],[-21,-31],[-22,-21],[-10,7],[-11,-25],[1,-21],[-9,-26],[-20,21],[-9,4],[-7,16],[11,12],[12,33],[-3,22],[3,44],[-9,26],[10,15],[13,-11],[23,12]],[[5238,9952],[7,-28],[13,-34],[16,-14],[0,-18],[-5,-7],[-24,-17],[26,-6],[-2,-15],[-25,5],[-15,8],[-9,15],[-10,4],[-12,-4],[11,-44],[-16,-6],[-10,45],[-16,-4],[-6,19],[21,20],[-2,10],[13,3],[-8,58],[-16,-7],[-2,9],[16,6],[-4,20],[8,2],[-2,10],[16,5],[1,7],[23,5],[13,-47]],[[9370,8175],[21,-36],[4,-15],[8,2],[7,-12],[-13,-25],[-17,-22],[-3,3],[-36,-46],[-11,-16],[-8,8],[-19,-27],[-17,18],[-5,12],[37,37],[-9,18],[-9,49],[-15,34],[10,14],[14,3],[42,35],[19,-34]],[[9999,9784],[-1,-98],[-12,0],[0,-46],[-26,0],[0,-14],[-14,0],[1,16],[-19,6],[5,63],[-1,35],[3,30],[-17,-1],[1,11],[54,7],[26,-9]],[[8841,6092],[-40,-14],[11,-40],[2,0],[18,-39],[-21,-11],[14,-33],[5,2],[9,-26]],[[8839,5931],[0,-7],[-25,-49],[-21,13],[-19,6],[-5,7],[-38,-1],[-1,-46],[-4,-12]],[[8726,5842],[-8,15],[3,60],[-15,53],[-1,16],[10,-13],[11,1],[35,13],[20,19],[8,21],[-11,18],[-13,31],[1,23],[62,27],[13,-34]],[[8908,5877],[-4,11],[20,3],[11,-6],[3,11],[-9,29],[-48,-21],[-9,1],[-15,16],[-18,10]],[[8841,6092],[2,1],[23,-47],[42,24],[3,-1],[3,-53],[19,8],[-2,-22],[10,-19],[50,8],[0,-10],[-10,0],[9,-32],[-27,-9],[-8,-19],[32,-22],[-11,-9],[0,-10],[-14,-14],[-12,-2],[-24,13],[-18,0]],[[8908,5877],[7,-21],[11,-3],[14,-16],[1,-6],[-18,-6],[1,-7],[-35,-13],[-19,-4],[-27,-14],[-27,9],[-1,10],[-30,-6],[-30,-10],[-5,11],[18,7],[-10,19],[-26,0],[-6,15]]]}
