{"type":"Topology","bbox":[-72.7557280516225,5.981748604805753,-72.74009996103382,6.025664949202497],"transform":{"scale":[0.0000015629653554032827,0.000004392073647039134],"translate":[-72.7557280516225,5.981748604805753]},"objects":{"municipios":{"type":"GeometryCollection","geometries":[{"type":"Polygon","arcs":[[0,1,2,3,4,5]],"properties":{"codigo":"15537100000000000101","sector":"155371000000000001","pcode":"CO15537","area_m2":237398}},{"type":"Polygon","arcs":[[6,-3]],"properties":{"codigo":"15537100000000000102","sector":"155371000000000001","pcode":"CO15537","area_m2":54499}},{"type":"Polygon","arcs":[[7]],"properties":{"codigo":"15537200104001000101","sector":"155372001040010001","pcode":"CO15537","area_m2":88160}},{"type":"Polygon","arcs":[[-7,-2,8,-4]],"properties":{"codigo":"15537100000000000103","sector":"155371000000000001","pcode":"CO15537","area_m2":308425}},{"type":"Polygon","arcs":[[-6,9]],"properties":{"codigo":"15537100000000000104","sector":"155371000000000001","pcode":"CO15537","area_m2":375419}}]}},"arcs":[[[7052,1324],[-119,-21],[-160,-82],[-69,-104],[-51,-153],[-148,-142],[-236,-146],[-535,-35]],[[5734,641],[-300,157],[-29,-7]],[[5405,791],[-502,284],[-342,-71],[-149,87],[-700,-152]],[[3712,939],[-216,114],[-147,-18],[-333,-78],[-237,144],[10,87],[-315,131],[206,31],[85,43],[-113,132],[-198,118],[-424,35],[-199,92],[-17,57]],[[1814,1827],[94,51],[213,20],[114,84]],[[2235,1982],[231,-45],[210,-7],[454,12],[190,-9],[534,43],[202,-158],[71,-103],[-5,-78],[76,-112],[404,-138],[363,-54],[226,-16],[623,-4],[634,9],[378,-10],[226,12]],[[5405,791],[-713,-139],[-744,-125],[-587,335],[351,77]],[[7705,9850],[163,-2],[58,-91],[144,-91],[269,-128],[414,-160],[-179,-45],[-237,-148],[-57,-168],[-169,7],[-152,50],[-50,95],[-158,98],[-142,-17],[-471,50],[-351,251],[-258,120],[-47,154],[452,50],[339,124],[183,-47],[249,-102]],[[5734,641],[-570,-22],[-305,-32],[-804,-127],[-438,-121],[-423,-152],[-274,-136],[-387,-46],[-654,1],[-372,38],[106,59],[-289,40],[78,99],[98,-8],[-44,111],[71,89],[84,27],[-51,53],[79,45],[-79,102],[-130,23],[-289,95],[-142,77],[-152,45],[7,76],[-324,164],[2,46],[-234,14],[-269,132],[351,36],[282,-58],[114,-2],[535,217],[127,69],[-40,242],[58,37],[172,20],[186,-67]],[[2235,1982],[202,111],[-113,94],[229,21],[263,61],[282,40],[705,232],[230,115],[822,-5],[369,-130],[-43,-36],[62,-91],[-44,-51],[-162,-59],[449,-206],[154,-18],[121,-74],[556,-205],[169,82],[183,10],[286,-20],[190,41],[331,109],[475,-30],[267,-68],[113,-76],[348,-13],[88,-27],[-137,-43],[115,-12],[283,22],[279,-9],[65,-91],[386,38],[241,-44],[-315,-132],[-585,-81],[-415,-28],[-592,-13],[-579,-45],[-461,-27]]]}
