{"type":"Topology","bbox":[-73.50025690957955,5.31781288366633,-73.48515419371358,5.330422327965452],"transform":{"scale":[0.0000015104226288593315,0.000001261070536965833],"translate":[-73.50025690957955,5.31781288366633]},"objects":{"municipios":{"type":"GeometryCollection","geometries":[{"type":"Polygon","arcs":[[0,1]],"properties":{"codigo":"15835100000000000101","sector":"158351000000000001","pcode":"CO15835","area_m2":644931}},{"type":"Polygon","arcs":[[-1,2]],"properties":{"codigo":"15835100000000000102","sector":"158351000000000001","pcode":"CO15835","area_m2":370136}}]}},"arcs":[[[9753,5757],[-647,-256],[-899,213],[-440,-144],[-2213,-1588],[-1301,-1021],[-235,-435],[-167,-957],[-277,-675],[-707,141]],[[2867,1035],[-1299,-226],[-525,-240],[-191,392],[-839,953],[-13,150],[593,99],[172,741],[548,-235],[-53,663],[517,79],[411,-188],[273,-404],[-7,-462],[288,1136],[411,732],[351,171],[371,479],[597,338],[-261,171],[-208,1026],[139,258],[360,85],[-233,623],[481,305],[242,1458],[358,447],[600,413],[491,-171],[226,-512],[305,-1561],[253,-870],[425,271],[642,227],[482,-33],[-4,-411],[580,-609],[384,469],[210,-559],[-191,-483]],[[9753,5757],[246,-573],[-501,-264],[-268,245],[-328,-86],[-457,-517],[34,-895],[398,-421],[-130,-608],[442,-257],[135,-251],[-46,-566],[-1009,49],[-956,-406],[-266,677],[-233,-272],[-376,175],[-145,335],[-316,-206],[163,-474],[-201,-656],[-338,107],[-111,286],[147,353],[-301,402],[-266,658],[-511,-320],[61,-978],[-87,-684],[-789,-610],[-498,472],[-379,563]]]}
