{"type":"Topology","bbox":[-72.58959602024032,6.325436491943768,-72.5776597452051,6.337097718789115],"transform":{"scale":[0.000001193746878210342,0.000001166239308465556],"translate":[-72.58959602024032,6.325436491943768]},"objects":{"municipios":{"type":"GeometryCollection","geometries":[{"type":"Polygon","arcs":[[0,1,2]],"properties":{"codigo":"15097100000000000101","sector":"150971000000000001","pcode":"CO15097","area_m2":162126}},{"type":"Polygon","arcs":[[3,-2,4]],"properties":{"codigo":"15097100000000000102","sector":"150971000000000001","pcode":"CO15097","area_m2":151554}},{"type":"Polygon","arcs":[[-5,-1,5]],"properties":{"codigo":"15097100000000000103","sector":"150971000000000001","pcode":"CO15097","area_m2":211705}}]}},"arcs":[[[3558,7154],[-79,-236],[29,-436],[-118,-248],[-105,96],[-316,-447],[-726,-772]],[[2243,5111],[-438,-575],[-254,-278],[-147,-244]],[[1404,4014],[-219,145],[-41,192],[11,248],[-109,211],[-218,52],[-435,-87],[-393,125],[73,260],[272,4],[-15,79],[214,101],[62,-159],[79,11],[-99,246],[125,254],[408,-130],[382,-196],[389,591],[-151,179],[241,271],[-121,107],[-198,300],[-73,289],[-339,434],[-119,100],[123,152],[-59,43],[44,208],[144,11],[-193,121],[8,299],[82,174],[314,-60],[803,-13],[-96,572],[102,227],[-174,335],[682,-29],[258,176],[49,142],[282,-51],[453,-389],[-177,-490],[-60,-366],[145,-42],[-113,-320],[-162,-253],[51,-491],[-109,-269],[31,-174]],[[6185,2128],[-508,-645],[-452,363],[-341,-325],[-195,118],[1,312],[-286,-31],[-251,-311],[-187,-131],[-352,30],[-109,227],[-278,-334],[-393,-372],[-198,176],[-57,162],[-216,-17],[-145,122],[-18,164],[183,241],[-601,229],[-12,113],[256,9],[-39,150],[-204,112],[-265,419],[472,210],[-586,895]],[[2243,5111],[579,-539],[561,-588],[94,-234],[404,-300],[90,86],[644,-420],[700,-405],[870,-583]],[[3558,7154],[598,-620],[53,-146],[124,-78],[607,-497],[117,-147],[473,-445],[93,54],[76,-279],[-162,-278],[300,-268],[122,-162],[-209,-230],[21,-221],[240,-20],[158,-70],[-222,-256],[-390,-517],[219,-150],[-11,-60],[854,-355],[228,-158],[439,-12],[346,56],[318,7],[253,-271],[319,-4],[410,-42],[214,-93],[129,-157],[45,-204],[94,-111],[144,-315],[-32,-104],[129,-148],[135,-301],[209,-266],[-79,-181],[-154,-105],[-570,229],[-1129,718],[-1201,743],[-681,438]]]}
