{"type":"Topology","bbox":[-73.48679799700915,5.603586907818544,-73.4470652144276,5.642674235979733],"transform":{"scale":[0.000003973675625717804,0.00000390912372849177],"translate":[-73.48679799700915,5.603586907818544]},"objects":{"municipios":{"type":"GeometryCollection","geometries":[{"type":"Polygon","arcs":[[0,1]],"properties":{"codigo":"15232100000000000101","sector":"152321000000000001","pcode":"CO15232","area_m2":71133}},{"type":"Polygon","arcs":[[2]],"properties":{"codigo":"15232200105001000101","sector":"152322001050010001","pcode":"CO15232","area_m2":71906}},{"type":"Polygon","arcs":[[-2,3]],"properties":{"codigo":"15232100000000000102","sector":"152321000000000001","pcode":"CO15232","area_m2":70130}}]}},"arcs":[[[9565,8961],[-143,-96],[34,-68],[-114,-95],[-1,-135],[-45,67],[-229,169],[-302,169],[108,216],[132,150],[206,182]],[[9211,9520],[220,-333],[134,-226]],[[647,984],[65,-46],[67,-166],[-35,-147],[-112,-127],[3,-102],[-50,-55],[26,-104],[-57,-227],[-32,36],[-16,157],[-306,-203],[-115,260],[-85,-20],[65,73],[-58,158],[305,105],[63,-14],[-56,102],[145,125],[-19,47],[202,148]],[[9211,9520],[114,94],[422,280],[129,105],[96,-142],[-160,-122],[62,-127],[110,31],[15,-93],[-140,-5],[-64,-47],[44,-170],[-61,-61],[1,-137],[-69,64],[-145,-229]]]}
