{"type":"Topology","bbox":[-73.40064642036845,5.135848812528373,-73.39310348280048,5.14445775204878],"transform":{"scale":[7.543691937155587e-7,8.609800500457023e-7],"translate":[-73.40064642036845,5.135848812528373]},"objects":{"municipios":{"type":"GeometryCollection","geometries":[{"type":"Polygon","arcs":[[0,1]],"properties":{"codigo":"15511100000000000101","sector":"155111000000000001","pcode":"CO15511","area_m2":188017}},{"type":"Polygon","arcs":[[2,-1]],"properties":{"codigo":"15511100000000000102","sector":"155111000000000001","pcode":"CO15511","area_m2":136897}}]}},"arcs":[[[6998,4716],[-327,-60],[-896,204],[-137,373],[-1048,-939],[-487,-738],[-549,-607],[-362,-221]],[[3192,2728],[-825,743],[252,323],[-778,330],[241,309],[-849,407],[-928,684],[872,694],[-519,784],[-431,-138],[-227,376],[1508,619],[-379,376],[896,647],[372,-233],[1593,730],[1214,608],[457,-488],[-161,-704],[-399,-1029],[-528,-797],[2223,-2172],[202,-81]],[[6998,4716],[518,-471],[656,-398],[289,306],[1156,-358],[-27,-293],[409,-1167],[-144,-441],[-350,-605],[356,-392],[-784,-306],[-423,436],[-911,-1027],[-394,254],[-414,845],[-137,561],[81,156],[-961,842],[-281,-219],[-508,161],[-501,-642],[-1436,770]]]}
