{"type":"Topology","bbox":[-72.98934924266177,5.288071490539908,-72.78238693088804,5.5268011522366765],"transform":{"scale":[0.000020698301007474396,0.000023875353705047372],"translate":[-72.98934924266177,5.288071490539908]},"objects":{"municipios":{"type":"GeometryCollection","geometries":[{"type":"Polygon","arcs":[[0]],"properties":{"codigo":"15047200305007000101","sector":"150472003050070001","pcode":"CO15047","area_m2":15968}},{"type":"Polygon","arcs":[[1,2,3,4]],"properties":{"codigo":"15047100000000000102","sector":"150471000000000001","pcode":"CO15047","area_m2":306028}},{"type":"Polygon","arcs":[[-4,5,6]],"properties":{"codigo":"15047100000000000101","sector":"150471000000000001","pcode":"CO15047","area_m2":197842}},{"type":"Polygon","arcs":[[-3,7,8,-6]],"properties":{"codigo":"15047100000000000103","sector":"150471000000000001","pcode":"CO15047","area_m2":208265}},{"type":"Polygon","arcs":[[-2,9,10,11,12,-8]],"properties":{"codigo":"15047100000000000104","sector":"150471000000000001","pcode":"CO15047","area_m2":242626}},{"type":"Polygon","arcs":[[13,14,-11]],"properties":{"codigo":"15047100000000000105","sector":"150471000000000001","pcode":"CO15047","area_m2":136902}},{"type":"Polygon","arcs":[[15]],"properties":{"codigo":"15047200802004000101","sector":"150472008020040001","pcode":"CO15047","area_m2":23790}},{"type":"Polygon","arcs":[[16]],"properties":{"codigo":"15047200501010000101","sector":"150472005010100001","pcode":"CO15047","area_m2":393424}},{"type":"Polygon","arcs":[[17]],"properties":{"codigo":"15047200606012000101","sector":"150472006060120001","pcode":"CO15047","area_m2":32078}},{"type":"Polygon","arcs":[[18,-12,-15]],"properties":{"codigo":"15047200501014000101","sector":"150472005010140001","pcode":"CO15047","area_m2":168896}}]}},"arcs":[[[9984,9607],[12,-7],[-13,-17],[-57,16],[-14,15],[13,26],[36,-15],[23,-18]],[[5320,9468],[-10,25],[-49,35],[-28,-1],[-34,17]],[[5199,9544],[-40,25],[-50,38],[35,65]],[[5144,9672],[16,25],[-29,185],[51,-19],[7,-7]],[[5189,9856],[-10,-14],[4,-25],[16,-6],[31,3],[-3,-14],[-28,-15],[-8,-17],[6,-17],[51,-13],[41,2],[25,11],[25,21],[19,6],[1,-26],[11,-47],[-40,-22],[-44,-47],[57,-27],[-8,-31],[53,-19],[-9,-15],[-30,-12],[-19,-25],[-21,-12],[22,-14],[-11,-13]],[[5144,9672],[-94,57],[30,46],[-39,27],[-73,41]],[[4968,9843],[32,47],[31,33],[29,-19],[29,1],[-8,9],[3,25],[19,40],[13,-6],[-3,26],[29,-18],[7,11],[30,-25],[3,-43],[-17,-18],[-5,-20],[31,-18],[-2,-12]],[[5199,9544],[-6,-12],[-97,33],[-121,52],[36,58],[-72,52]],[[4939,9727],[-74,50],[7,13],[34,-20],[33,31],[29,42]],[[5320,9468],[-20,-10],[-20,31],[-30,-13],[-5,18],[-60,6],[-9,-3]],[[5176,9497],[-112,42],[-37,11],[-15,-30],[-39,16],[-9,-10],[-71,-33],[-58,-38]],[[4835,9455],[-24,-20]],[[4811,9435],[-29,23],[19,6],[15,17],[58,27],[-49,21],[19,89],[39,-13],[23,45],[29,39],[-17,11],[21,27]],[[5176,9497],[-78,-36],[-19,-3],[-14,-32],[-16,-11],[-45,-8],[-10,40],[-43,-14],[-29,32],[-14,-11],[-8,14],[-47,-38]],[[4853,9430],[-21,17],[3,8]],[[60,64],[3,-11],[32,-3],[-2,-20],[-24,1],[-4,-26],[-36,-5],[-29,5],[11,51],[41,-2],[8,10]],[[4106,9090],[-5,-17],[39,17],[13,-16],[-26,-23],[-19,-3],[15,-27],[-17,-10],[-16,-23],[-20,0],[-17,12],[-3,33],[-51,-17],[-24,-11],[-5,-22],[14,-34],[-33,16],[-28,-18],[8,-13],[-16,-8],[-34,11],[2,-12],[-27,2],[6,-29],[-7,-12],[-29,-9],[-64,2],[-28,-25],[-13,18],[-56,-28],[-4,-17],[-21,29],[3,-17],[-21,-26],[-4,-22],[-9,5],[-27,-32],[-40,6],[-7,18],[-20,15],[-42,-9],[-1,-14],[-30,14],[-22,-6],[5,-19],[-19,0],[4,-11],[-19,-3],[3,-21],[-15,-5],[-8,19],[-10,-8],[-26,5],[-21,-24],[-2,-17],[-29,-10],[7,-14],[-36,1],[-5,9],[-38,-26],[-28,26],[-8,-4],[-16,20],[45,16],[51,10],[24,17],[-13,22],[5,8],[41,11],[17,-8],[16,27],[40,43],[17,26],[28,12],[35,-1],[26,-16],[9,-31],[-19,-18],[-3,-17],[65,13],[27,-4],[16,23],[18,12],[-8,8],[35,27],[-8,16],[36,-2],[-7,24],[15,19],[19,-29],[0,21],[16,-12],[28,12],[-21,29],[16,7],[13,-32],[18,12],[-7,15],[12,12],[21,5],[15,-37],[52,5],[14,-7],[11,13],[-7,48],[35,11],[12,-12],[23,8],[15,-21],[39,39],[-20,29],[21,4],[13,13],[21,-28],[26,-4],[10,8],[-5,19],[42,27],[7,-8]],[[1809,763],[14,-14],[20,1],[-30,-45],[-45,-54],[-24,5],[6,19],[30,25],[-16,19],[-22,40],[23,-14],[44,18]],[[4853,9430],[38,-42],[-14,-8],[5,-12],[-5,-43],[-10,3],[-9,-21],[-29,15],[-20,-3],[-51,6],[-44,-11],[-6,19],[-24,-24],[-10,34],[-22,1],[2,-12],[-26,2],[-17,-24],[16,-30],[-23,-10],[-25,48],[-20,12],[-55,-24],[-35,-7],[29,33],[-7,17],[18,17],[20,-4],[22,14],[30,-3],[13,10],[28,-23],[63,20],[14,-8],[55,25],[12,18],[10,-8],[35,28]]]}
