{"type":"Topology","bbox":[-73.31130556231437,5.5917454751903195,-73.30489907892814,5.59895911885856],"transform":{"scale":[6.40712409863882e-7,7.214365104751096e-7],"translate":[-73.31130556231437,5.5917454751903195]},"objects":{"municipios":{"type":"GeometryCollection","geometries":[{"type":"Polygon","arcs":[[0,1]],"properties":{"codigo":"15500100000000000101","sector":"155001000000000001","pcode":"CO15500","area_m2":224956}},{"type":"Polygon","arcs":[[2,-1]],"properties":{"codigo":"15500100000000000102","sector":"155001000000000001","pcode":"CO15500","area_m2":125777}}]}},"arcs":[[[6807,3228],[-26,-56],[-4126,1338],[-569,-1227],[-809,-6]],[[1277,3277],[-324,260],[-368,965],[-128,920],[-457,826],[50,599],[614,1437],[212,1151],[1161,556],[528,-795],[1150,-992],[283,-446],[385,246],[230,1009],[1426,-218],[2629,-878],[-357,-336],[-304,-1337],[1964,-487],[28,-152],[-1361,-607],[-1068,292],[-763,-2062]],[[6807,3228],[2615,-704],[-290,-1187],[-891,-945],[-433,-193],[-1925,678],[-233,-877],[-4442,1544],[411,911],[-567,655],[225,167]]]}
