{"type":"Topology","bbox":[-72.80299994494578,5.748722454699082,-72.79234766890198,5.759569279038659],"transform":{"scale":[0.0000010653341377937495,0.0000010847909130490004],"translate":[-72.80299994494578,5.748722454699082]},"objects":{"municipios":{"type":"GeometryCollection","geometries":[{"type":"Polygon","arcs":[[0,1,2]],"properties":{"codigo":"15464100000000000101","sector":"154641000000000001","pcode":"CO15464","area_m2":266275}},{"type":"Polygon","arcs":[[3,4,-2]],"properties":{"codigo":"15464100000000000102","sector":"154641000000000001","pcode":"CO15464","area_m2":164243}},{"type":"Polygon","arcs":[[-4,-1,5]],"properties":{"codigo":"15464100000000000103","sector":"154641000000000001","pcode":"CO15464","area_m2":307319}}]}},"arcs":[[[6487,9263],[-143,-570],[219,34],[-272,-363],[-78,-457],[86,-386],[-293,-514],[76,-352],[296,-421],[-108,-596],[85,-194],[-428,355],[-285,109]],[[5642,5908],[282,413],[-573,324],[-331,-403],[-739,-1128],[-148,-33],[-391,-585],[-689,318],[-430,296],[-344,-562],[-1100,-2288]],[[1179,2260],[-769,495],[-410,376],[266,670],[160,228],[-65,341],[210,-31],[81,386],[-76,330],[185,42],[20,319],[-155,261],[375,252],[218,-33],[456,463],[379,-310],[251,140],[167,-71],[353,360],[-121,163],[958,1525],[103,-5],[-201,562],[35,219],[381,1057],[1910,-624],[69,-194],[528,82]],[[5642,5908],[-799,-1122],[-656,-1025],[-257,-477],[-103,-406],[-670,-757],[600,-409],[206,-247]],[[3963,1465],[-67,-374],[-211,-172],[-498,7],[-23,-177],[-511,-195],[-284,48],[-502,-100],[-378,-162],[-222,-340],[-285,87],[119,673],[67,737],[188,656],[-177,107]],[[6487,9263],[312,109],[696,-305],[261,0],[516,-371],[58,-139],[1423,-373],[181,139],[65,-845],[-415,79],[-884,-254],[-110,-562],[-393,-463],[83,-450],[-297,-268],[-288,-458],[771,-56],[298,-266],[-551,-71],[-180,-296],[-373,110],[-729,-639],[61,-277],[-281,-501],[-151,-653],[-10,-313],[-248,-118],[-365,-674],[-507,-296],[-172,-266],[-1134,525],[-161,154]]]}
