{"type":"Topology","bbox":[-72.99041177891144,5.818662075773105,-72.96944181180459,5.883781643110319],"transform":{"scale":[0.0000020972064313281945,0.000006512607994520832],"translate":[-72.99041177891144,5.818662075773105]},"objects":{"municipios":{"type":"GeometryCollection","geometries":[{"type":"Polygon","arcs":[[0,1,2,3]],"properties":{"codigo":"15693100000000000105","sector":"156931000000000001","pcode":"CO15693","area_m2":461761}},{"type":"Polygon","arcs":[[4,5,6]],"properties":{"codigo":"15693100000000000106","sector":"156931000000000001","pcode":"CO15693","area_m2":60074}},{"type":"Polygon","arcs":[[7,-4,8,-6,9]],"properties":{"codigo":"15693100000000000101","sector":"156931000000000001","pcode":"CO15693","area_m2":414779}},{"type":"Polygon","arcs":[[10,-10,-5,11]],"properties":{"codigo":"15693100000000000102","sector":"156931000000000001","pcode":"CO15693","area_m2":292548}},{"type":"Polygon","arcs":[[12,-1,-8,-11,13]],"properties":{"codigo":"15693100000000000103","sector":"156931000000000001","pcode":"CO15693","area_m2":495313}},{"type":"Polygon","arcs":[[14,-2,-13]],"properties":{"codigo":"15693100000000000104","sector":"156931000000000001","pcode":"CO15693","area_m2":306843}},{"type":"Polygon","arcs":[[15]],"properties":{"codigo":"15693200105002000101","sector":"156932001050020001","pcode":"CO15693","area_m2":123251}}]}},"arcs":[[[3722,8665],[-111,-138]],[[3611,8527],[-115,-126],[-722,-638],[-65,-25],[-864,-217],[-124,-20],[-417,-11]],[[1304,7490],[-103,-90],[-717,-213],[-484,310],[316,139],[1403,857],[-153,-7],[43,114],[107,118],[102,27],[-66,43]],[[1752,8788],[165,-16],[270,20],[1535,-127]],[[4893,9925],[-32,-38]],[[4861,9887],[-108,-36],[-915,-200],[-360,-121],[-229,94],[-170,38]],[[3079,9662],[51,13],[418,324],[863,-124],[140,36],[342,14]],[[3892,8878],[-170,-213]],[[1752,8788],[-201,123],[116,61],[90,157],[6,107],[-181,137],[97,58],[-13,108],[354,127],[192,41],[272,104],[154,-71],[46,-73],[395,-5]],[[4861,9887],[-55,-154],[-247,-383],[-170,-112],[-236,-55],[-261,-305]],[[7402,9224],[-590,-101],[-263,-145],[-149,-2],[-1379,144],[-255,-314],[-874,72]],[[4893,9925],[234,30],[578,-59],[-217,-245],[246,-46],[67,-59],[-128,-64],[505,-21],[469,53],[623,-224],[132,-66]],[[4427,7596],[-73,-78],[-443,119],[-315,44],[15,133],[274,189],[105,-12],[275,267],[176,203],[-830,66]],[[7402,9224],[236,48],[11,-35],[-282,-72],[-40,22],[-261,-46],[37,-18],[-258,-125],[-316,-127],[-191,-26],[308,-11],[390,-70],[276,-6],[57,-25],[-111,-224],[-85,-82],[125,-52],[-460,-33],[-271,-171],[-190,58],[-589,87],[-169,-103],[-50,-79],[-222,9],[-267,-144],[-126,-124],[-343,-64],[-197,18],[-166,59],[112,-140],[67,-152]],[[4427,7596],[601,-174],[-268,-92],[238,-54],[-359,-85],[-276,114],[-225,-84],[-250,95],[-165,37],[-189,-76],[-184,-159],[68,-107],[-80,-17],[-202,102],[-198,34],[114,55],[-571,85],[-119,163],[-346,-14],[-269,39],[-279,2],[-164,30]],[[8407,978],[168,-1],[115,-142],[-4,-130],[57,-99],[122,2],[361,-138],[217,-14],[168,-105],[131,-157],[130,13],[127,-123],[-1115,-36],[-354,-48],[-137,224],[226,16],[-132,232],[-90,-4],[54,64],[-125,50],[-18,91],[80,5],[-144,179],[0,125],[163,-4]]]}
