{"type":"Topology","bbox":[-73.17778786169691,4.722538271523746,-73.06325622424976,4.926802764272884],"transform":{"scale":[0.00001145430917563333,0.000020428492124126272],"translate":[-73.17778786169691,4.722538271523746]},"objects":{"municipios":{"type":"GeometryCollection","geometries":[{"type":"Polygon","arcs":[[0]],"properties":{"codigo":"15667200302001000101","sector":"156672003020010001","pcode":"CO15667","area_m2":119310}},{"type":"Polygon","arcs":[[1,2,3,4]],"properties":{"codigo":"15667100000000000102","sector":"156671000000000001","pcode":"CO15667","area_m2":340419}},{"type":"Polygon","arcs":[[5]],"properties":{"codigo":"15667200602003000101","sector":"156672006020030001","pcode":"CO15667","area_m2":25958}},{"type":"Polygon","arcs":[[6]],"properties":{"codigo":"15667200601005000101","sector":"156672006010050001","pcode":"CO15667","area_m2":38247}},{"type":"Polygon","arcs":[[7]],"properties":{"codigo":"15667200204006000101","sector":"156672002040060001","pcode":"CO15667","area_m2":24698}},{"type":"Polygon","arcs":[[8,9,-3]],"properties":{"codigo":"15667100000000000105","sector":"156671000000000001","pcode":"CO15667","area_m2":231472}},{"type":"Polygon","arcs":[[10]],"properties":{"codigo":"15667200403002000101","sector":"156672004030020001","pcode":"CO15667","area_m2":28430}},{"type":"Polygon","arcs":[[11]],"properties":{"codigo":"15667200502004000101","sector":"156672005020040001","pcode":"CO15667","area_m2":29288}},{"type":"Polygon","arcs":[[12,13,-5,14,15]],"properties":{"codigo":"15667100000000000101","sector":"156671000000000001","pcode":"CO15667","area_m2":293549}},{"type":"Polygon","arcs":[[-15,-4,-10,16]],"properties":{"codigo":"15667100000000000103","sector":"156671000000000001","pcode":"CO15667","area_m2":112055}},{"type":"Polygon","arcs":[[-13,17]],"properties":{"codigo":"15667100000000000104","sector":"156671000000000001","pcode":"CO15667","area_m2":192053}}]}},"arcs":[[[8005,9986],[64,-11],[-27,-33],[137,-51],[38,-21],[57,-6],[-41,-29],[-16,6],[-40,-27],[33,-15],[-22,-15],[-28,13],[-59,-5],[-26,-11],[-174,77],[-18,23],[65,21],[-34,45],[49,52],[42,-13]],[[1237,4691],[-58,-32],[-86,-61],[-46,-30],[-98,-34],[-80,-14],[-167,3]],[[702,4523],[-2,30],[-31,52],[7,34],[-35,33],[-55,2],[-45,19]],[[541,4693],[72,36],[77,-12],[40,-1],[92,82],[-124,50]],[[698,4848],[38,25],[70,-25],[181,-68],[117,-39],[133,-50]],[[3554,38],[20,-12],[-24,-20],[-90,25],[-22,-3],[3,63],[16,17],[62,-3],[0,-15],[20,-2],[15,-50]],[[9999,1499],[-29,-33],[-49,-43],[-36,15],[-11,-18],[-54,-37],[-25,-7],[-34,13],[19,21],[-31,13],[-4,23],[52,-8],[8,25],[40,-14],[26,13],[13,24],[18,12],[40,4],[-4,13],[26,5],[35,-21]],[[8775,4934],[23,10],[62,-20],[0,-6],[110,-50],[-12,-11],[-55,24],[-20,-16],[-41,16],[-6,-4],[-123,42],[24,26],[38,-11]],[[702,4523],[-41,0],[-136,-10],[-134,-26],[-59,-7],[-58,-2],[-154,-1],[-120,-4],[3,77],[54,-3],[105,2],[61,5],[57,10],[86,36],[79,44],[-25,28],[75,33]],[[495,4705],[46,-12]],[[2775,1307],[-37,-32],[33,-9],[-42,-36],[-18,-24],[49,-24],[-10,-5],[-67,38],[-20,-11],[-50,15],[37,31],[-23,8],[44,39],[55,-8],[44,29],[5,-11]],[[7637,4090],[72,-5],[30,-7],[8,-15],[-24,-28],[-18,-33],[-27,4],[-15,-24],[-34,5],[8,16],[-30,4],[10,20],[-25,7],[41,57],[4,-1]],[[922,4979],[17,-6],[41,-37],[51,-21],[88,10],[58,-6],[19,-12],[75,-15],[25,-35]],[[1296,4857],[19,-18],[22,-43],[-37,-51],[-46,-44],[-17,-10]],[[698,4848],[-24,11]],[[674,4859],[4,20],[-50,20],[45,19],[14,19],[15,57],[51,-11],[11,20],[25,-3],[-8,-25],[41,-9],[41,1],[59,12]],[[495,4705],[-86,21],[-6,22],[57,42],[42,9],[71,8],[8,12],[37,15],[-14,5],[22,15],[-12,6],[19,13],[41,-14]],[[922,4979],[-11,22],[13,33],[34,2],[75,-14],[63,43],[-10,9],[47,34],[-6,11],[44,2],[35,-20],[-16,-9],[23,-14],[26,20],[30,-19],[158,49],[51,-41],[-131,-54],[-29,9],[-55,-29],[-71,24],[-41,-22],[257,-89],[-112,-69]]]}
