{"type":"Topology","bbox":[-73.17461620165022,5.2805330598235685,-73.16719727301279,5.2873867060497926],"transform":{"scale":[7.419670604495323e-7,6.854331659390025e-7],"translate":[-73.17461620165022,5.2805330598235685]},"objects":{"municipios":{"type":"GeometryCollection","geometries":[{"type":"Polygon","arcs":[[0,1]],"properties":{"codigo":"15897100000000000101","sector":"158971000000000001","pcode":"CO15897","area_m2":92627}},{"type":"Polygon","arcs":[[2,-1]],"properties":{"codigo":"15897100000000000102","sector":"158971000000000001","pcode":"CO15897","area_m2":178359}}]}},"arcs":[[[6996,422],[549,228],[-209,1934],[-1408,1754],[-188,1036],[-161,317],[-1371,925],[-1147,907],[-549,937],[-75,273]],[[2437,8733],[1196,217],[344,-849],[252,130],[287,-680],[361,269],[498,-1014],[572,-228],[716,-1286],[812,-870],[162,167],[1013,-1117],[1114,-51],[235,-382],[-490,-124],[295,-621],[30,-599],[-555,28],[-14,-264],[537,-81],[-295,-287],[-405,-73],[-201,-323],[-1292,-499],[-758,-179],[145,405]],[[6996,422],[-467,61],[-1105,431],[36,357],[-333,-54],[-873,149],[-1472,-824],[-635,-515],[-221,1274],[-9,1391],[86,718],[1619,-138],[511,108],[-208,770],[-1191,1249],[-725,555],[-513,986],[-346,486],[-218,766],[-688,-153],[-244,653],[456,116],[-81,286],[1603,905],[459,-1266]]]}
