{"type":"Topology","bbox":[-73.25078081933128,5.7206890980554626,-73.18061055741862,5.768413172210604],"transform":{"scale":[0.0000070177279640629015,0.000004772884703984522],"translate":[-73.25078081933128,5.7206890980554626]},"objects":{"municipios":{"type":"GeometryCollection","geometries":[{"type":"Polygon","arcs":[[0]],"properties":{"codigo":"15763200305003000101","sector":"157632003050030001","pcode":"CO15763","area_m2":94352}},{"type":"Polygon","arcs":[[1]],"properties":{"codigo":"15763200205002000101","sector":"157632002050020001","pcode":"CO15763","area_m2":113465}},{"type":"Polygon","arcs":[[2,3,4]],"properties":{"codigo":"15763100000000000101","sector":"157631000000000001","pcode":"CO15763","area_m2":52020}},{"type":"MultiPolygon","arcs":[[[5,6,7,-3]],[[8]]],"properties":{"codigo":"15763100000000000102","sector":"157631000000000001","pcode":"CO15763","area_m2":148126}},{"type":"Polygon","arcs":[[9,10,-7]],"properties":{"codigo":"15763100000000000103","sector":"157631000000000001","pcode":"CO15763","area_m2":61242}},{"type":"Polygon","arcs":[[-4,-8,-11,11]],"properties":{"codigo":"15763100000000000104","sector":"157631000000000001","pcode":"CO15763","area_m2":84370}}]}},"arcs":[[[9656,6357],[16,-148],[93,-82],[78,60],[7,-145],[66,-122],[83,-314],[-79,58],[-77,294],[-53,-63],[1,119],[-172,-13],[23,-134],[-250,244],[-117,89],[-196,44],[-182,-69],[-13,37],[130,113],[240,51],[412,24],[-10,-43]],[[3847,754],[-338,-730],[-57,17],[9,148],[-173,28],[41,169],[-19,241],[120,-18],[55,130],[85,55],[48,-44],[88,190],[151,82],[81,-78],[-91,-190]],[[855,9424],[-57,-82],[-351,279]],[[447,9621],[-150,136]],[[297,9757],[-24,85],[82,157],[240,-280],[270,-275],[-10,-20]],[[855,9424],[237,-288],[79,13],[-137,-248],[-77,85],[-81,-77],[-155,54],[-77,81]],[[644,9044],[-302,334]],[[342,9378],[105,243]],[[1535,8919],[91,81],[38,-54],[-128,-325],[-237,234],[-95,21],[177,219],[154,-176]],[[644,9044],[-163,-266],[-309,223]],[[172,9001],[25,93],[145,284]],[[172,9001],[-124,133],[26,37],[-59,123],[63,171],[-78,130],[156,260],[141,-98]]]}
