{"type":"Topology","bbox":[-73.12976213482403,5.225417636230821,-73.12458522415778,5.230866073687706],"transform":{"scale":[5.177428409091388e-7,5.448982355120792e-7],"translate":[-73.12976213482403,5.225417636230821]},"objects":{"municipios":{"type":"GeometryCollection","geometries":[{"type":"Polygon","arcs":[[0]],"properties":{"codigo":"15090100000000000101","sector":"150901000000000001","pcode":"CO15090","area_m2":145160}}]}},"arcs":[[[6386,5945],[619,-835],[439,4],[331,-2598],[1784,750],[440,-828],[-455,-100],[-364,-857],[-1627,-808],[-555,-653],[-1438,534],[-385,-554],[-924,322],[-194,-235],[-1284,832],[-861,278],[-813,1049],[-1099,1053],[569,389],[1380,-408],[945,1693],[675,322],[-948,2429],[515,288],[908,1310],[240,677],[801,-758],[-100,-472],[133,-813],[1268,-2011]]]}
