{"type":"Topology","bbox":[-73.92505238921655,5.68717001036618,-73.92058859233379,5.694306818371958],"transform":{"scale":[4.464243307090816e-7,7.137521757953668e-7],"translate":[-73.92505238921655,5.68717001036618]},"objects":{"municipios":{"type":"GeometryCollection","geometries":[{"type":"Polygon","arcs":[[0]],"properties":{"codigo":"15106100000000000101","sector":"151061000000000001","pcode":"CO15106","area_m2":184461}}]}},"arcs":[[[4949,9692],[271,-579],[-508,-477],[77,-388],[811,-160],[1042,-1002],[43,-283],[2294,384],[1020,-1391],[-1863,-307],[-161,-720],[-1402,70],[-330,-1000],[1140,-1083],[-826,-275],[-1721,413],[-1403,-2332],[391,-16],[-163,-546],[-1156,26],[-104,697],[-913,818],[-187,398],[-607,117],[463,780],[-1157,316],[92,946],[309,-39],[558,1523],[-144,459],[27,1153],[517,894],[746,430],[1433,1298],[439,-156],[499,339],[473,-307]]]}
