{"type":"Topology","bbox":[-72.98647874215578,5.7488142518145136,-72.87266981699867,5.7914238006547265],"transform":{"scale":[0.000011382030718783473,0.000004261381022123508],"translate":[-72.98647874215578,5.7488142518145136]},"objects":{"municipios":{"type":"GeometryCollection","geometries":[{"type":"Polygon","arcs":[[0,1,2]],"properties":{"codigo":"15491200103001000103","sector":"154912001030010001","pcode":"CO15491","area_m2":103813}},{"type":"Polygon","arcs":[[3,-3,4,5]],"properties":{"codigo":"15491200103001000101","sector":"154912001030010001","pcode":"CO15491","area_m2":236690}},{"type":"Polygon","arcs":[[-2,6,7,-5]],"properties":{"codigo":"15491200103001000102","sector":"154912001030010001","pcode":"CO15491","area_m2":211966}},{"type":"Polygon","arcs":[[8,9,10,-7,-1,-4,11]],"properties":{"codigo":"15491200103001000105","sector":"154912001030010001","pcode":"CO15491","area_m2":1833061}},{"type":"Polygon","arcs":[[12,13,14]],"properties":{"codigo":"15491200103002000101","sector":"154912001030020001","pcode":"CO15491","area_m2":294798}},{"type":"Polygon","arcs":[[15]],"properties":{"codigo":"15491200101006000101","sector":"154912001010060001","pcode":"CO15491","area_m2":216897}},{"type":"Polygon","arcs":[[16,17,18]],"properties":{"codigo":"15491200103007000101","sector":"154912001030070001","pcode":"CO15491","area_m2":208830}},{"type":"Polygon","arcs":[[19,-9,20,-17]],"properties":{"codigo":"15491200103007000102","sector":"154912001030070001","pcode":"CO15491","area_m2":167517}},{"type":"Polygon","arcs":[[-20,-19,21,-10]],"properties":{"codigo":"15491200103007000103","sector":"154912001030070001","pcode":"CO15491","area_m2":103963}},{"type":"Polygon","arcs":[[-14,22,23]],"properties":{"codigo":"15491200103009000101","sector":"154912001030090001","pcode":"CO15491","area_m2":286147}},{"type":"Polygon","arcs":[[24,25,26]],"properties":{"codigo":"15491100000000000101","sector":"154911000000000001","pcode":"CO15491","area_m2":48101}},{"type":"Polygon","arcs":[[-27,27,28,29]],"properties":{"codigo":"15491100000000000102","sector":"154911000000000001","pcode":"CO15491","area_m2":221744}},{"type":"Polygon","arcs":[[30]],"properties":{"codigo":"15491200101004000101","sector":"154912001010040001","pcode":"CO15491","area_m2":427478}},{"type":"Polygon","arcs":[[31]],"properties":{"codigo":"15491200101005000101","sector":"154912001010050001","pcode":"CO15491","area_m2":185664}},{"type":"Polygon","arcs":[[32,33,34]],"properties":{"codigo":"15491200102012000101","sector":"154912001020120001","pcode":"CO15491","area_m2":389966}},{"type":"Polygon","arcs":[[-26,35,36,37,-28]],"properties":{"codigo":"15491100000000000105","sector":"154911000000000001","pcode":"CO15491","area_m2":698438}},{"type":"Polygon","arcs":[[38]],"properties":{"codigo":"15491200101003000101","sector":"154912001010030001","pcode":"CO15491","area_m2":282109}},{"type":"MultiPolygon","arcs":[[[39,40]],[[41,42,-34,43]]],"properties":{"codigo":"15491200101010000101","sector":"154912001010100001","pcode":"CO15491","area_m2":235643}},{"type":"Polygon","arcs":[[-23,-13,44]],"properties":{"codigo":"15491200103002000102","sector":"154912001030020001","pcode":"CO15491","area_m2":334903}},{"type":"Polygon","arcs":[[-29,-38,45,-44,-33,46]],"properties":{"codigo":"15491100000000000103","sector":"154911000000000001","pcode":"CO15491","area_m2":255519}},{"type":"Polygon","arcs":[[47,-40,48,-42,-46,-37]],"properties":{"codigo":"15491100000000000104","sector":"154911000000000001","pcode":"CO15491","area_m2":243862}}]}},"arcs":[[[8593,6462],[-337,-554]],[[8256,5908],[-38,174],[27,43],[-29,121],[69,113],[-21,104],[63,100],[-32,138]],[[8295,6701],[92,146],[30,-139],[90,41],[72,-193],[14,-94]],[[8663,6579],[-70,-117]],[[8295,6701],[-66,288],[-66,-100],[-88,411],[-59,-34],[-113,23],[-42,195],[21,114],[-44,-92]],[[7838,7506],[-12,43],[6,212],[-77,117],[-38,161],[13,80],[54,12],[21,-93],[77,-110],[12,-134],[47,-114],[43,33],[108,-28],[35,-77],[67,-57],[42,3],[78,-202],[59,6],[68,-195],[65,-4],[18,-58],[-14,-62],[40,-246],[113,-214]],[[8256,5908],[-43,-57],[-90,-13],[18,-144],[-86,-89]],[[8055,5605],[-1,127],[47,243],[-3,95],[-31,69],[-25,184],[-37,200],[-1,73],[-32,186],[-56,-38],[-9,98],[22,23],[-14,155],[-27,73],[-17,184],[-33,229]],[[8329,3829],[-12,49],[-67,450]],[[8250,4328],[-194,1265]],[[8056,5593],[-1,12]],[[8663,6579],[63,-98],[48,7],[109,-131],[8,164],[39,86],[69,5],[35,69],[75,80],[71,-12],[48,38],[66,-127],[190,-298],[86,-95],[80,64],[48,-108],[301,-461],[-46,-209],[-46,59],[-131,-540],[-100,91],[-125,66],[-95,13],[-133,-47],[-82,-61],[-77,-121],[-35,-20],[-183,-385],[-130,-289],[-71,-177],[-187,-412],[-133,-197],[-90,216],[-6,80]],[[7207,3878],[-59,-28],[-236,-161],[-111,-36],[-112,-76],[-117,-63],[-81,-112]],[[6491,3402],[-23,200],[-11,226],[-16,145],[26,149],[-27,78],[4,198],[-9,149],[21,19],[-3,288]],[[6453,4854],[22,30],[14,-70],[71,163],[13,-158],[51,-221],[50,-65],[36,-137],[43,-251],[49,60],[45,-230],[65,-62],[32,72],[-16,42],[-34,264],[23,4],[77,-83],[3,-55],[46,-166],[57,111],[27,-100],[65,67],[15,-191]],[[4336,1170],[-73,-109],[-8,29],[-214,-320],[42,-189],[-115,-57],[-312,-375],[-65,-90],[-67,-59],[-31,25],[-2,110],[50,32],[-38,52],[1,77],[36,189],[20,46],[25,-39],[-4,127],[22,77],[85,-3],[25,89],[43,-25],[41,37],[67,-47],[45,5],[-12,-74],[167,248],[-42,-23],[26,165],[56,22],[4,185],[163,238],[44,-201],[86,137],[56,-268],[-76,-108],[-12,-52],[-33,149]],[[8075,4586],[-61,-126],[-46,186],[-116,-238],[-76,-176],[33,-73],[99,-119],[135,-133],[-27,-154]],[[8016,3753],[-15,-85],[-185,152],[11,-41],[-19,-166],[17,-53],[-18,-56],[-38,-12],[-15,117],[7,153],[30,264],[-55,84],[21,174],[-42,94],[-57,-423],[-122,102],[30,183],[-43,136],[158,258],[247,527]],[[7928,5161],[120,-454],[27,-121]],[[8075,4586],[102,-397],[73,139]],[[8329,3829],[-29,-117],[-6,-116],[-92,94],[-10,-61],[-115,176],[-17,-89],[-44,37]],[[7928,5161],[31,75],[58,258],[39,99]],[[6491,3402],[5,-42]],[[6496,3360],[-549,-234],[-7,146],[93,186],[13,230],[21,21],[55,215],[24,-24],[16,61],[-32,51],[4,200],[91,-56],[-8,148],[74,306],[51,5],[70,179],[41,60]],[[4498,5431],[-61,-328],[-25,-52],[-161,-127]],[[4251,4924],[21,209]],[[4272,5133],[14,66],[50,47],[62,311],[23,-28],[25,136],[43,-114],[-16,-89],[25,-31]],[[4272,5133],[-27,61],[-60,290]],[[4185,5484],[26,199],[-29,140],[-3,107],[-45,137],[-1,102]],[[4133,6169],[161,106],[28,-82],[47,93],[42,-20],[2,113],[19,69],[92,-120],[-21,-103],[61,34],[46,-268],[33,33],[15,-308],[-36,-15],[6,-54],[-122,-134],[-8,-82]],[[24,8887],[37,-115],[125,115],[39,-182],[104,99],[44,-4],[15,-109],[-28,-23],[14,-210],[173,153],[71,40],[-15,-240],[-4,-218],[-13,-220],[13,-9],[-2,-305],[9,-79],[-6,-578],[-12,-29],[57,-126],[45,-55],[73,86],[103,211],[69,-2],[39,-39],[5,-150],[-32,-36],[-19,-134],[-57,33],[-27,-143],[-1,-92],[-69,57],[-88,-70],[-36,24],[-24,205],[-99,287],[-49,194],[-19,151],[-38,130],[-141,392],[-70,57],[-70,-7],[-71,89],[-15,376],[-46,232],[-6,115],[22,129]],[[1203,5787],[4,-34],[74,8],[37,-124],[20,-117],[-126,14],[9,-163],[-88,-51],[41,-278],[-77,-2],[10,105],[-53,105],[-37,131],[-18,297],[-49,270],[-7,238],[174,250],[32,34],[110,58],[4,-173],[18,-308],[-102,-19],[24,-241]],[[3849,6393],[-42,-48],[43,-255],[-72,-35],[8,-56],[-59,-32]],[[3727,5967],[-5,30]],[[3722,5997],[-47,111],[-30,145],[-115,-110],[-34,287],[17,120],[-91,-126],[-60,2],[0,100],[-25,156],[23,299],[45,-102],[101,106],[30,88],[-13,81],[-55,131],[-47,31],[-86,253],[37,55],[4,213],[32,41],[-4,114],[40,-122],[66,25],[-10,235],[15,75],[79,-210],[33,-134],[51,6],[6,-220],[79,-145],[31,-202],[-28,-199],[35,-434],[41,-174],[7,-100]],[[4251,4924],[12,-184],[42,-169],[104,-331],[205,-41],[38,-90],[25,63],[76,-112],[-3,-124],[73,-201],[46,-17],[13,-153],[38,-7],[26,-91],[-24,-71],[19,-93],[22,18],[32,-113],[177,-201],[41,-63],[-7,-65],[-42,1],[-185,193],[-35,24],[-21,-129],[90,-597],[-325,-490],[-28,583],[-90,-21],[-31,440],[-28,1],[-27,324],[67,62],[-106,424],[-157,-53],[-53,391],[-13,-2]],[[4222,4030],[-28,287],[-28,126],[-31,-26],[-61,582],[-41,353]],[[4033,5352],[152,132]],[[1123,9793],[-10,-208],[81,-34],[19,44],[28,-117],[63,-30],[40,-98],[10,-133],[46,59],[-8,-137],[-22,-51],[13,-133],[-43,-40],[-58,-4],[143,-124],[38,3],[40,-101],[-25,-41],[44,-198],[73,131],[71,52],[21,-142],[-16,-68],[-114,-157],[-30,-90],[-149,-140],[-46,-69],[-30,-103],[-32,60],[3,91],[-40,247],[37,56],[-31,77],[-55,-79],[-19,206],[53,85],[-7,39],[-70,-114],[-21,133],[49,55],[-13,94],[32,21],[-74,502],[-64,-89],[-32,110],[0,115],[53,74],[-17,126],[41,27],[-55,205],[81,94],[2,-206]],[[3757,4846],[19,-130],[24,-63],[11,-149],[34,-95],[35,2],[52,-288],[37,-92],[-17,-143]],[[3952,3888],[-80,-16],[-25,46],[-44,-33],[-1,101],[-34,259],[27,94],[-8,77],[-33,-25],[-13,129],[-99,-62],[-5,74],[-69,-37],[-85,-84],[13,-77],[-23,-26],[-43,266],[-51,380],[159,132],[16,-130],[-47,-37],[31,-255],[219,182]],[[3755,5139],[-2,-10]],[[3753,5129],[-35,92],[-38,-30],[-11,78],[-49,-9],[-28,81],[-43,-18],[-1,144],[-70,175],[-107,23],[15,67],[2,138],[30,-54],[71,-2],[2,-76],[65,12],[11,-31],[55,36],[-14,103],[114,139]],[[3727,5967],[4,-126],[49,-52],[-8,-205],[16,-187],[-33,-258]],[[7207,3878],[39,-347],[-54,-32],[6,-58],[-60,-39],[82,-644],[-251,-268],[-104,-102],[-67,503],[-91,305],[-62,72],[-53,134],[-96,-42]],[[4033,5352],[-278,-213]],[[3849,6393],[71,34],[-28,135],[38,11],[26,-83],[24,12],[42,-130],[62,51],[14,92],[27,16],[8,-362]],[[4222,4030],[-104,-44],[8,-37],[-79,-50],[34,-135],[-78,-37],[-10,102],[-52,-30],[11,89]],[[3757,4846],[-12,245],[8,38]]]}
