{"type":"Topology","bbox":[-73.36465310630916,5.45036489278288,-73.35903174302206,5.458617419142129],"transform":{"scale":[5.621925479652907e-7,8.253351694418665e-7],"translate":[-73.36465310630916,5.45036489278288]},"objects":{"municipios":{"type":"GeometryCollection","geometries":[{"type":"Polygon","arcs":[[0,1,2,3]],"properties":{"codigo":"15104100000000000102","sector":"151041000000000001","pcode":"CO15104","area_m2":101193}},{"type":"Polygon","arcs":[[-4,4]],"properties":{"codigo":"15104100000000000101","sector":"151041000000000001","pcode":"CO15104","area_m2":110703}},{"type":"Polygon","arcs":[[5,-2]],"properties":{"codigo":"15104100000000000103","sector":"151041000000000001","pcode":"CO15104","area_m2":107494}}]}},"arcs":[[[8088,6765],[571,-10],[223,-595],[-116,-1145],[-1294,79],[962,-351],[1389,-686],[176,-428],[-176,-688],[-1872,122],[-105,264]],[[7846,3327],[-326,513],[-849,417],[-1411,-2],[-2613,-128],[-1370,103],[-68,781]],[[1209,5011],[82,1020]],[[1291,6031],[571,-222],[2370,246],[24,-128],[3832,838]],[[1291,6031],[254,460],[-356,695],[-333,23],[293,447],[739,117],[2135,1709],[731,357],[968,160],[659,-1344],[930,-239],[577,12],[573,-451],[993,-278],[-1366,-934]],[[7846,3327],[-1789,-53],[656,-647],[-1449,-308],[412,-873],[963,-314],[-668,-471],[-1824,-661],[-719,567],[-480,597],[-974,-115],[-419,1826],[-556,-453],[-563,976],[-436,234],[752,474],[-103,1058],[560,-153]]]}
