{"type":"Topology","bbox":[-74.05041530744188,5.471459105076743,-74.0426783497876,5.477801688550714],"transform":{"scale":[7.737731427430578e-7,6.343217795750117e-7],"translate":[-74.05041530744188,5.471459105076743]},"objects":{"municipios":{"type":"GeometryCollection","geometries":[{"type":"Polygon","arcs":[[0,1]],"properties":{"codigo":"15212100000000000101","sector":"152121000000000001","pcode":"CO15212","area_m2":153799}},{"type":"Polygon","arcs":[[2,-1]],"properties":{"codigo":"15212100000000000102","sector":"152121000000000001","pcode":"CO15212","area_m2":134108}}]}},"arcs":[[[4655,2856],[1051,1130],[120,367],[1784,650],[-1475,4589]],[[6135,9592],[732,338],[368,-567],[1185,491],[642,-1193],[426,-1544],[-219,-830],[277,-703],[314,-14],[138,-511],[-1042,-780],[-78,-722],[-626,-508],[-254,-436],[731,-1176],[-1029,-933],[-781,-454],[-557,-44],[-428,1327],[-446,-209],[-213,880],[-465,-35],[-155,887]],[[4655,2856],[-687,-791],[-157,146],[151,962],[-355,1213],[13,855],[706,460],[-379,1284],[-668,-379],[-434,1215],[-989,683],[-1256,-71],[-600,225],[166,810],[1304,447],[18,-619],[443,-728],[473,-295],[140,863],[1001,-156],[1366,294],[1047,725],[177,-407]]]}
