{"type":"Topology","bbox":[-72.44899193589055,6.402140762179583,-72.44081924736554,6.41369255976309],"transform":{"scale":[8.173505875595303e-7,0.000001155295287879543],"translate":[-72.44899193589055,6.402140762179583]},"objects":{"municipios":{"type":"GeometryCollection","geometries":[{"type":"Polygon","arcs":[[0,1,2,3]],"properties":{"codigo":"15244100000000000102","sector":"152441000000000001","pcode":"CO15244","area_m2":58246}},{"type":"Polygon","arcs":[[4,-1,5,6]],"properties":{"codigo":"15244100000000000103","sector":"152441000000000001","pcode":"CO15244","area_m2":171301}},{"type":"Polygon","arcs":[[-5,7,8,-2]],"properties":{"codigo":"15244100000000000105","sector":"152441000000000001","pcode":"CO15244","area_m2":170414}},{"type":"Polygon","arcs":[[-6,-4,9,10]],"properties":{"codigo":"15244100000000000101","sector":"152441000000000001","pcode":"CO15244","area_m2":110475}},{"type":"Polygon","arcs":[[-3,-9,11,-10]],"properties":{"codigo":"15244100000000000104","sector":"152441000000000001","pcode":"CO15244","area_m2":134841}}]}},"arcs":[[[6386,5206],[-898,-305]],[[5488,4901],[-965,-295],[-384,637]],[[4139,5243],[-268,475],[61,377],[-166,447],[227,676],[1207,401]],[[5200,7619],[968,-1759],[218,-654]],[[6803,308],[45,1146],[308,643],[-1668,2804]],[[6386,5206],[994,239],[1230,467]],[[8610,5912],[58,-358],[506,-616],[778,-1079],[47,-441],[-100,-579],[-492,-60],[-23,-1351],[226,-571],[-1331,244],[-114,-350],[-289,-218],[-1065,-533],[-8,308]],[[6803,308],[-649,-122],[-309,511],[-730,612],[-423,168],[-376,633],[-1813,-254],[-515,320],[-101,275],[329,1029],[-143,329]],[[2073,3809],[785,235],[-365,687],[1646,512]],[[5200,7619],[-484,944],[-28,494]],[[4688,9057],[251,487],[407,427],[355,-13],[1110,-899],[794,-123],[-169,-557],[-432,-452],[386,-164],[192,-732],[283,-277],[374,5],[48,-504],[323,-343]],[[2073,3809],[-83,450],[-555,423],[155,170],[-151,650],[-1049,78],[-390,330],[571,317],[587,89],[492,735],[-445,681],[260,427],[827,-92],[704,432],[917,136],[560,202],[215,220]]]}
