{"type":"Topology","bbox":[-73.19574435142488,5.735354432843716,-73.06696125492982,5.9000651998493385],"transform":{"scale":[0.000012879597609266507,0.00001647272397295959],"translate":[-73.19574435142488,5.735354432843716]},"objects":{"municipios":{"type":"GeometryCollection","geometries":[{"type":"Polygon","arcs":[[0]],"properties":{"codigo":"15516200204001000101","sector":"155162002040010001","pcode":"CO15516","area_m2":112557}},{"type":"Polygon","arcs":[[1]],"properties":{"codigo":"15516200305005000101","sector":"155162003050050001","pcode":"CO15516","area_m2":134717}},{"type":"Polygon","arcs":[[2,3,4,5,6]],"properties":{"codigo":"15516100000000000111","sector":"155161000000000001","pcode":"CO15516","area_m2":77938}},{"type":"Polygon","arcs":[[7,8,9,10,11]],"properties":{"codigo":"15516100000000000202","sector":"155161000000000002","pcode":"CO15516","area_m2":237384}},{"type":"Polygon","arcs":[[12,13]],"properties":{"codigo":"15516100000000000303","sector":"155161000000000003","pcode":"CO15516","area_m2":189799}},{"type":"Polygon","arcs":[[14,15,16,17,-5]],"properties":{"codigo":"15516100000000000401","sector":"155161000000000004","pcode":"CO15516","area_m2":37777}},{"type":"Polygon","arcs":[[-15,-4,18]],"properties":{"codigo":"15516100000000000402","sector":"155161000000000004","pcode":"CO15516","area_m2":43191}},{"type":"Polygon","arcs":[[19,20,21,22,23]],"properties":{"codigo":"15516100000000000104","sector":"155161000000000001","pcode":"CO15516","area_m2":115568}},{"type":"Polygon","arcs":[[24,25,26,27,28]],"properties":{"codigo":"15516100000000000101","sector":"155161000000000001","pcode":"CO15516","area_m2":84183}},{"type":"Polygon","arcs":[[29,-28,30,31]],"properties":{"codigo":"15516100000000000108","sector":"155161000000000001","pcode":"CO15516","area_m2":258851}},{"type":"Polygon","arcs":[[-12,32,33,34]],"properties":{"codigo":"15516100000000000201","sector":"155161000000000002","pcode":"CO15516","area_m2":235329}},{"type":"Polygon","arcs":[[35,36,37,38,-7,39,-22,40]],"properties":{"codigo":"15516100000000000107","sector":"155161000000000001","pcode":"CO15516","area_m2":698646}},{"type":"Polygon","arcs":[[41,-26,42,-24,43,-8,-35,44]],"properties":{"codigo":"15516100000000000105","sector":"155161000000000001","pcode":"CO15516","area_m2":296925}},{"type":"Polygon","arcs":[[-33,-11,45]],"properties":{"codigo":"15516100000000000203","sector":"155161000000000002","pcode":"CO15516","area_m2":615463}},{"type":"Polygon","arcs":[[46,47,-29,-30,48]],"properties":{"codigo":"15516100000000000109","sector":"155161000000000001","pcode":"CO15516","area_m2":471131}},{"type":"Polygon","arcs":[[-39,49,-16,-19,-3]],"properties":{"codigo":"15516100000000000112","sector":"155161000000000001","pcode":"CO15516","area_m2":170505}},{"type":"Polygon","arcs":[[-37,50,51]],"properties":{"codigo":"15516100000000000301","sector":"155161000000000003","pcode":"CO15516","area_m2":176424}},{"type":"Polygon","arcs":[[-23,-40,-6,-18,52,-9,-44]],"properties":{"codigo":"15516100000000000106","sector":"155161000000000001","pcode":"CO15516","area_m2":193352}},{"type":"Polygon","arcs":[[53,-51,-36,54,55,-13]],"properties":{"codigo":"15516100000000000302","sector":"155161000000000003","pcode":"CO15516","area_m2":172887}},{"type":"Polygon","arcs":[[-31,-27,-42,56]],"properties":{"codigo":"15516100000000000110","sector":"155161000000000001","pcode":"CO15516","area_m2":214528}},{"type":"Polygon","arcs":[[57,-20,-43,-25,-48]],"properties":{"codigo":"15516100000000000102","sector":"155161000000000001","pcode":"CO15516","area_m2":167085}},{"type":"Polygon","arcs":[[-47,58,-55,-41,-21,-58]],"properties":{"codigo":"15516100000000000103","sector":"155161000000000001","pcode":"CO15516","area_m2":208303}}]}},"arcs":[[[46,9995],[41,1],[-34,-45],[69,-33],[35,-22],[26,23],[39,-2],[4,18],[25,-12],[-1,-10],[50,-3],[30,15],[-1,-15],[58,5],[-5,14],[34,5],[9,-19],[19,6],[15,-54],[19,-6],[13,-45],[-27,5],[-110,-6],[-65,-14],[-76,-6],[-37,4],[-4,-19],[-18,4],[1,41],[-26,16],[-23,26],[-7,20],[-23,6],[-25,-5],[-4,65],[-47,26],[18,20],[28,-4]],[[9988,522],[-54,-23],[-76,-59],[-10,-18],[-30,-13],[-38,-9],[-31,-41],[21,-7],[-9,-21],[-26,-19],[-10,-16],[-13,5],[-38,-77],[-5,-28],[43,-3],[-13,-38],[27,-19],[39,-37],[-11,-9],[-27,-50],[-9,-40],[-48,3],[-22,6],[9,9],[27,-3],[11,15],[-12,4],[21,29],[-8,3],[-4,37],[-42,6],[-6,13],[-33,18],[-49,-37],[-29,26],[-19,-4],[-41,-23],[9,-30],[-13,-3],[13,-35],[-24,-10],[-1,38],[-29,9],[19,40],[54,24],[-14,5],[-11,23],[42,-15],[50,6],[-21,30],[23,9],[-8,37],[24,36],[15,1],[-2,50],[16,28],[14,-93],[15,-7],[3,28],[29,-2],[10,21],[22,19],[13,34],[-16,5],[20,31],[17,12],[-88,25],[10,15],[50,-12],[20,63],[34,-10],[-8,-30],[26,-1],[14,22],[10,-3],[23,39],[33,-13],[42,34],[13,-3],[27,13],[21,22],[8,-17],[22,-10],[-11,-5]],[[5897,2498],[-11,1],[-80,-15],[14,-43],[-69,-13],[-14,43]],[[5737,2471],[-13,45]],[[5724,2516],[-11,48]],[[5713,2564],[0,26],[9,57],[172,-25]],[[5894,2622],[13,-70],[-10,-54]],[[5663,2802],[-26,-12]],[[5637,2790],[-195,-90],[-30,-31],[-37,1],[-64,-28],[-36,-9]],[[5275,2633],[-11,0],[-7,25],[8,21],[-5,60],[3,15]],[[5263,2754],[16,2],[40,-7],[24,10],[30,-16],[27,5],[2,138],[-33,-11],[-34,-1],[-8,70],[19,4],[35,39],[-79,21],[-4,18],[85,2]],[[5383,3028],[90,4],[43,10],[18,9],[29,-5],[18,-19],[-16,0],[-7,-35],[-55,-3],[3,-29],[103,-16],[58,35],[-7,-46],[4,-15],[-1,-116]],[[6760,2494],[7,26],[16,23]],[[6783,2543],[81,-5],[62,-27],[37,-6],[2,-38],[19,-1],[71,13],[24,-27],[97,-42],[19,-49],[21,-22],[-4,-16],[-44,-63],[-57,-30],[-59,71],[-17,8],[-45,-1],[-11,34],[1,28],[-103,20],[-13,-42],[-118,19],[1,77],[13,50]],[[5724,2516],[-213,-40],[20,-78]],[[5531,2398],[-11,0]],[[5520,2398],[-5,23],[-43,120],[34,1]],[[5506,2542],[89,17],[18,-34],[34,18],[-1,20],[67,1]],[[5737,2471],[-140,-26],[26,-86],[-69,-14],[-16,54],[-7,-1]],[[6087,2767],[-9,-137]],[[6078,2630],[-5,-38]],[[6073,2592],[-104,15],[-31,7]],[[5938,2614],[5,21],[-89,45],[-20,6],[1,84],[2,6]],[[5837,2776],[0,32],[143,14],[59,-7],[-3,-46],[51,-2]],[[6315,2808],[-61,5],[-48,-8],[-118,1]],[[6088,2806],[-3,107]],[[6085,2913],[115,-12]],[[6200,2901],[32,-7],[32,-15],[18,-16],[37,13],[16,23],[61,19],[14,19],[-18,5],[26,41],[49,-9]],[[6467,2974],[-28,-62],[-56,-78],[16,-28],[-34,-8],[-50,10]],[[6589,3093],[-41,-30],[-55,-31],[-22,-28],[-4,-30]],[[6200,2901],[2,8],[-11,74],[30,6],[5,48],[13,20],[23,15],[31,7],[1,38],[6,22],[23,25],[19,-9],[34,49],[20,2],[-15,47]],[[6381,3253],[25,10],[39,25],[22,32],[-7,21],[24,16],[19,-4],[5,-15],[31,-49],[19,-37],[58,-57],[5,-43],[-17,-42],[-15,-17]],[[5383,3028],[-6,13],[-42,32],[-40,18]],[[5295,3091],[53,8],[139,37],[-2,5],[90,22],[42,21],[25,18]],[[5642,3202],[57,-48],[41,-15],[17,-46],[31,-19],[-8,-29],[27,-31],[41,-5],[-6,-43],[-1,-81],[-178,-83]],[[6306,2456],[26,-21],[24,-42]],[[6356,2393],[-16,-6],[-33,-57],[-2,-16],[33,-37],[26,-42],[29,-12],[118,-17],[51,3],[39,-3]],[[6601,2206],[64,0],[28,-18],[47,-100],[23,-58],[32,17],[68,48],[45,-36],[22,-29],[2,-17],[-79,-43],[-13,9],[-51,2],[-64,40],[-29,5],[-93,-4],[-202,17],[-51,2],[13,-17],[-6,-9],[-154,11],[-45,1],[-163,10],[-20,174],[11,9],[-17,51],[-13,-8],[-42,83]],[[5914,2346],[27,9],[-20,32],[-7,47],[-7,11],[-10,53]],[[5894,2622],[44,-8]],[[6073,2592],[-9,-107],[-9,-47],[77,4],[32,6],[142,8]],[[5872,3200],[44,-57],[34,-34],[23,-15],[61,-27],[35,-34],[24,-56],[1,-23],[-9,-41]],[[6088,2806],[-1,-39]],[[5837,2776],[-150,-62],[-50,76]],[[5642,3202],[-31,28],[91,-7],[28,6],[16,-29],[126,0]],[[5263,2754],[0,10],[-26,10],[-42,-2],[-99,51],[-63,-12],[-33,42],[-44,-11],[5,-13],[-47,-9],[-22,37],[-22,-10],[-14,21],[-85,-24],[-8,36],[-8,132],[-18,35],[9,22],[-5,17],[97,77],[33,18],[44,35],[-12,35],[1,43],[66,14],[25,15],[22,-34],[32,19],[27,-20],[12,1],[64,-49],[-8,-34],[37,-23],[27,-26],[27,-36],[39,-8],[21,-22]],[[7380,2639],[-79,-9],[-560,-14],[-72,12],[-4,16],[-50,9]],[[6615,2653],[-173,70],[-83,37],[-30,26],[-14,22]],[[6589,3093],[38,0],[21,-8],[-12,-15],[-15,-48],[-17,-8],[26,-30],[-8,-2],[15,-54],[21,-14],[3,-45],[15,-16],[-2,-37],[-8,-14],[3,-35],[95,-13],[16,1],[-8,-37],[30,-10],[-2,-20],[21,-10],[3,19],[20,31],[37,0],[7,-19],[64,-20],[20,31],[78,23],[-4,9],[74,28],[4,-8],[54,31],[-2,16],[-20,40],[20,9],[39,-1],[35,-19],[56,-73],[24,-25],[15,-32],[20,-55],[15,-24]],[[5914,2346],[-117,-45],[-41,-25],[-35,-14],[-47,-6],[-54,-13],[-84,0],[-19,19],[-1,47],[4,89]],[[6356,2393],[60,-5],[12,-6],[6,29],[67,16],[120,25]],[[6621,2452],[11,-30],[42,-50],[48,-48],[24,-34],[-35,9],[-27,29],[-15,5],[-5,-49],[-19,-29],[-40,-37],[-4,-12]],[[5506,2542],[-14,51],[-75,-9],[-26,59],[-121,-26],[5,16]],[[6760,2494],[-80,-28],[-14,29],[-54,-16],[9,-27]],[[6306,2456],[-44,59],[54,24],[15,-20],[43,10],[-17,64],[331,9]],[[6688,2602],[11,-29],[20,-17],[64,-13]],[[5872,3200],[-21,28],[2,14],[35,-26],[6,8],[25,-8],[27,-30],[40,10],[0,11],[41,10],[-6,26],[21,5],[13,15],[2,22],[42,-24],[-3,-14],[17,-26],[3,-37],[42,12],[-11,-18],[20,-20],[42,-6],[-4,28],[9,32],[50,25],[71,-1],[46,17]],[[6615,2653],[-159,6],[-111,-24],[-55,-23],[-66,-4],[-146,22]],[[7380,2639],[6,-18],[-98,-25],[-91,-9],[-142,6],[-220,11],[-147,-2]]]}
