{"type":"Topology","bbox":[-72.57581277696636,6.143129184143685,-72.54536124258311,6.155546191189279],"transform":{"scale":[0.000003045457984123045,0.0000012418248870480612],"translate":[-72.57581277696636,6.143129184143685]},"objects":{"municipios":{"type":"GeometryCollection","geometries":[{"type":"Polygon","arcs":[[0]],"properties":{"codigo":"15368200202001000101","sector":"153682002020010001","pcode":"CO15368","area_m2":41107}},{"type":"Polygon","arcs":[[1,2]],"properties":{"codigo":"15368100000000000102","sector":"153681000000000001","pcode":"CO15368","area_m2":94718}},{"type":"MultiPolygon","arcs":[[[3,-2]],[[4]]],"properties":{"codigo":"15368100000000000101","sector":"153681000000000001","pcode":"CO15368","area_m2":151294}}]}},"arcs":[[[9665,9973],[242,-52],[-24,-192],[116,-110],[-143,-154],[111,-138],[27,-381],[-6,-774],[-163,-83],[-33,165],[-184,125],[-194,306],[-140,349],[90,394],[-43,99],[211,-11],[-32,249],[165,208]],[[2147,943],[-110,-255],[-158,70],[167,315],[-730,2669]],[[1316,3742],[208,209],[115,-462],[198,313],[34,-116],[198,291],[-33,336],[253,-153],[-29,-418],[119,-309],[229,54],[-78,-430],[-169,-341],[116,-405],[-151,-252],[-29,-473],[-150,-643]],[[2147,943],[238,300],[172,-551],[-13,-212],[-274,-358],[-52,7],[-223,601],[-244,178],[-52,274],[-93,-370],[-92,-164],[-33,-344],[-153,157],[70,355],[-224,355],[-62,244],[-107,-182],[-81,320],[-249,-255],[-41,151],[49,1047],[184,628],[449,618]],[[173,1292],[201,36],[75,-94],[-5,-643],[-63,-292],[-131,-299],[-250,292],[57,388],[-49,371],[83,342],[82,-101]]]}
