{"type":"Topology","bbox":[-73.40316053286602,5.313110767142186,-73.39202428817896,5.322362418522903],"transform":{"scale":[0.0000011137358422908046,9.252576638380213e-7],"translate":[-73.40316053286602,5.313110767142186]},"objects":{"municipios":{"type":"GeometryCollection","geometries":[{"type":"Polygon","arcs":[[0,1,2]],"properties":{"codigo":"15804100000000000103","sector":"158041000000000001","pcode":"CO15804","area_m2":208726}},{"type":"Polygon","arcs":[[-3,3,4]],"properties":{"codigo":"15804100000000000101","sector":"158041000000000001","pcode":"CO15804","area_m2":234676}},{"type":"Polygon","arcs":[[-4,-2,5]],"properties":{"codigo":"15804100000000000102","sector":"158041000000000001","pcode":"CO15804","area_m2":203828}}]}},"arcs":[[[9396,5023],[-125,-1044],[-124,-314],[511,-136],[303,-222],[-140,-92],[-109,-1506],[-509,-8],[-533,526],[-431,-28],[-260,-539],[-62,-486],[149,-463],[-254,-606],[-142,230],[-428,-283],[-433,682],[-966,-568],[-549,1566]],[[5294,1732],[110,240],[778,389],[-200,500],[-640,1869]],[[5342,4730],[785,336],[684,353],[107,-16],[807,389],[122,-601],[375,8],[274,-156],[450,-91],[450,71]],[[5342,4730],[-703,1547],[-570,-555]],[[4069,5722],[18,136],[-268,653],[544,362],[-266,389],[473,434],[-261,1246],[380,319],[156,-587],[203,-70],[488,376],[735,1019],[275,-399],[281,202],[456,-1047],[759,214],[316,-747],[1124,673],[517,-1074],[-469,-153],[-802,-452],[668,-2193]],[[5294,1732],[-546,-482],[-355,-566],[-864,-684],[-5,577],[-163,475],[-188,-90],[-311,157],[-1040,-479],[-726,599],[-433,-237],[-663,75],[1730,1141],[616,459],[-316,957],[1483,1168],[-153,119],[544,486],[165,315]]]}
