{"type":"Topology","bbox":[-73.33610425462126,5.4966916319084715,-73.32903314315928,5.504471486846406],"transform":{"scale":[7.071818643846967e-7,7.780633001234995e-7],"translate":[-73.33610425462126,5.4966916319084715]},"objects":{"municipios":{"type":"GeometryCollection","geometries":[{"type":"Polygon","arcs":[[0,1]],"properties":{"codigo":"15764100000000000102","sector":"157641000000000001","pcode":"CO15764","area_m2":199952}},{"type":"Polygon","arcs":[[2,-1]],"properties":{"codigo":"15764100000000000101","sector":"157641000000000001","pcode":"CO15764","area_m2":160303}}]}},"arcs":[[[9082,7609],[-871,-944],[-1444,849],[-456,120],[-2218,-2877],[-1680,-2680]],[[2413,2077],[-1024,462],[718,1220],[-618,49],[-283,-147],[-1117,321],[-89,1318],[1100,1806],[580,1086],[2182,287],[692,379],[1208,856],[215,285],[1535,-1167],[2139,-435],[73,-119],[-642,-669]],[[9082,7609],[917,-560],[-1470,-1631],[-1295,-1767],[-790,455],[-212,-530],[-524,-252],[-759,-1056],[1020,-390],[-182,-439],[-278,-10],[248,-734],[-1003,-695],[-598,183],[-882,83],[-224,184],[-63,673],[-929,308],[355,646]]]}
