{"type":"Topology","bbox":[-73.51689343174348,5.933708848035169,-73.50968009260413,5.940208753590256],"transform":{"scale":[7.214060545409498e-7,6.500555610647792e-7],"translate":[-73.51689343174348,5.933708848035169]},"objects":{"municipios":{"type":"GeometryCollection","geometries":[{"type":"Polygon","arcs":[[0,1]],"properties":{"codigo":"15816100000000000101","sector":"158161000000000001","pcode":"CO15816","area_m2":126116}},{"type":"Polygon","arcs":[[-1,2]],"properties":{"codigo":"15816100000000000102","sector":"158161000000000001","pcode":"CO15816","area_m2":112683}}]}},"arcs":[[[3562,8714],[281,-647],[879,-974],[-1325,-1602],[726,-733],[989,-677]],[[5112,4081],[-878,-1596],[-316,-147],[-395,-693],[-795,482],[-575,-641],[-855,-718],[56,-711],[-554,314],[-289,-371],[-285,1192],[379,-280],[408,435],[-418,672],[1114,101],[421,665],[133,552],[-449,1186],[-1003,317],[-308,347],[-99,732],[863,387],[783,576],[-330,416],[-50,598],[-417,1166],[96,335],[661,315],[521,-179],[969,-630],[62,-189]],[[3562,8714],[307,77],[1129,-943],[465,-637],[629,1764],[-357,535],[632,489],[487,-794],[767,221],[1050,-244],[64,-1412],[-1730,-1243],[101,-848],[2206,-1641],[687,-937],[-312,-265],[-952,-347],[147,399],[-299,440],[-303,-256],[-1420,1441],[-973,771],[-775,-1203]]]}
