{"type":"Topology","bbox":[-73.37139607820774,4.886413893008794,-73.36539298002805,4.890370329099451],"transform":{"scale":[6.003698549544868e-7,3.956831773833929e-7],"translate":[-73.37139607820774,4.886413893008794]},"objects":{"municipios":{"type":"GeometryCollection","geometries":[{"type":"Polygon","arcs":[[0,1]],"properties":{"codigo":"15236100000000000101","sector":"152361000000000001","pcode":"CO15236","area_m2":56748}},{"type":"Polygon","arcs":[[-1,2]],"properties":{"codigo":"15236100000000000102","sector":"152361000000000001","pcode":"CO15236","area_m2":76341}}]}},"arcs":[[[5137,4094],[-1793,-621],[-1279,-1104]],[[2065,2369],[-466,1833],[-254,2904],[-1345,1671],[237,536],[1618,686],[359,-1140],[789,-133],[870,-1649],[999,743],[265,-3726]],[[5137,4094],[195,-249],[731,2404],[745,-530],[437,1212],[1459,-1705],[1295,-2863],[-400,-207],[-1823,-2156],[-748,731],[-288,-519],[-1266,1102],[-587,-834],[-797,1326],[-548,-385],[-219,813],[-1258,135]]]}
