{"type":"Topology","bbox":[-72.99037162508455,5.556212755593182,-72.98066823035009,5.564341331412434],"transform":{"scale":[9.704365170975569e-7,8.129388758127784e-7],"translate":[-72.99037162508455,5.556212755593182]},"objects":{"municipios":{"type":"GeometryCollection","geometries":[{"type":"Polygon","arcs":[[0,1]],"properties":{"codigo":"15822100000000000101","sector":"158221000000000001","pcode":"CO15822","area_m2":182358}},{"type":"Polygon","arcs":[[2,3,-1,4]],"properties":{"codigo":"15822100000000000102","sector":"158221000000000001","pcode":"CO15822","area_m2":132742}},{"type":"Polygon","arcs":[[-3,5]],"properties":{"codigo":"15822100000000000103","sector":"158221000000000001","pcode":"CO15822","area_m2":194096}}]}},"arcs":[[[5885,8969],[-102,-134],[-789,-1439],[-568,-788],[-17,-118],[-1014,-1561],[-536,-1042],[-763,-1228],[36,-77],[-507,-681]],[[1625,1901],[-358,21],[-451,153],[-551,-16],[-260,765],[153,467],[-20,142],[301,459],[316,611],[194,566],[404,304],[310,30],[207,313],[29,179],[227,72],[145,407],[-459,423],[164,422],[475,265],[-278,430],[35,383],[167,463],[604,572],[60,180],[379,-132],[384,-297],[159,452],[314,338],[164,78],[323,-230],[677,-635],[179,537],[104,-498],[163,-156]],[[8978,7356],[-1107,-5],[-364,200],[-329,-55],[-201,-211],[-560,-906],[-410,-599],[-447,-806],[-797,-1230],[-14,55],[-710,550],[-297,-404],[-645,-1201],[-460,-758],[-410,-345],[-170,-276]],[[2057,1365],[-432,536]],[[5885,8969],[285,415],[227,-194],[-124,-160],[403,-427],[389,375],[524,-343],[288,646],[203,-512],[-130,-225],[294,-620],[550,335],[184,-903]],[[8978,7356],[766,226],[255,-205],[-360,-513],[-718,-828],[231,-15],[274,-290],[-105,-386],[-861,-211],[-99,168],[-62,-215],[-409,-663],[-309,-796],[47,-145],[-336,133],[-632,-7],[-298,159],[-520,-842],[-455,363],[-39,-273],[-188,-459],[-122,-798],[187,-69],[121,-366],[-114,-249],[-165,-146],[-311,59],[-285,-317],[-65,-305],[-631,-366],[-562,310],[-1008,464],[-245,238],[97,353]]]}
