{"type":"Topology","bbox":[-73.83868581231934,5.592200324920446,-73.7998536571049,5.632482620872632],"transform":{"scale":[0.0000038836038818318,0.000004028632458464426],"translate":[-73.83868581231934,5.592200324920446]},"objects":{"municipios":{"type":"GeometryCollection","geometries":[{"type":"Polygon","arcs":[[0,1,2,3]]},{"type":"Polygon","arcs":[[4,5,6,7,8]]},{"type":"Polygon","arcs":[[9,10,11,12,13]]},{"type":"Polygon","arcs":[[14,-1,15,16,17]]},{"type":"Polygon","arcs":[[18,19,20,-7,21]]},{"type":"Polygon","arcs":[[-6,22,23,-17,24,-22]]},{"type":"Polygon","arcs":[[-3,25,26,27]]},{"type":"Polygon","arcs":[[28,29,30,31,-15]]},{"type":"Polygon","arcs":[[32,33,34,35]]},{"type":"Polygon","arcs":[[36,-9,37,38]]},{"type":"Polygon","arcs":[[39,40,-5,-37,41]]},{"type":"Polygon","arcs":[[42,-35,-23,-41,43,44,45]]},{"type":"Polygon","arcs":[[46,-36,-43]]},{"type":"Polygon","arcs":[[47,-29,-18,-24,-34,48]]},{"type":"Polygon","arcs":[[49,50,-14,51,-30,-48,52]]},{"type":"Polygon","arcs":[[53,-11]]},{"type":"Polygon","arcs":[[54,55,56,-53,-49,-33,-47,-46]]},{"type":"Polygon","arcs":[[-38,-8,-21,57,58]]},{"type":"Polygon","arcs":[[-20,59,60,-58]]},{"type":"Polygon","arcs":[[-60,-19,-25,-16,-4,-28,61]]},{"type":"Polygon","arcs":[[-32,62,63,-26,-2]]},{"type":"Polygon","arcs":[[64,65,66,-63,-31,-52,-13,67]]},{"type":"MultiPolygon","arcs":[[[-10,-51,68,-68,-12,-54]],[[-66,69]]]},{"type":"Polygon","arcs":[[-56,70]]},{"type":"Polygon","arcs":[[-44,-40,71]]}]}},"arcs":[[[5225,6628],[-226,-177],[-59,-76],[142,-279],[-457,-427],[-84,-104],[-178,-83]],[[4363,5482],[-107,177],[-44,135],[34,132],[-89,174]],[[4157,6100],[92,75],[381,616],[138,315],[71,83],[188,72]],[[5027,7261],[31,-145],[127,-256],[-45,-44],[85,-188]],[[7708,7540],[-299,-378],[-123,-207],[-85,-93],[-70,44],[-53,-90],[43,-23],[-62,-79],[-266,-493]],[[6793,6221],[-74,110],[-147,115],[99,186],[89,256],[84,-46],[43,73],[-148,127]],[[6739,7042],[592,573]],[[7331,7615],[227,220]],[[7558,7835],[-3,-68],[54,-48],[-40,-72],[139,-107]],[[3269,2843],[-101,-78],[-178,-50]],[[2990,2715],[9,135],[167,217],[-147,262],[-100,153],[-457,-372]],[[2462,3110],[-66,81]],[[2396,3191],[633,507]],[[3029,3698],[374,-517],[-145,-238],[11,-100]],[[4687,5008],[-324,474]],[[5225,6628],[209,-212]],[[5434,6416],[471,-404]],[[5905,6012],[-105,-101],[-825,-678],[-288,-225]],[[6402,7348],[-95,93],[63,63],[-80,74],[130,161]],[[6420,7739],[329,-315],[153,154],[62,94],[-15,68],[99,121]],[[7048,7861],[283,-246]],[[6739,7042],[-337,306]],[[6793,6221],[-520,-563]],[[6273,5658],[-368,354]],[[5434,6416],[517,491],[451,441]],[[4157,6100],[-116,108],[40,45],[-79,73]],[[4002,6326],[-12,179],[97,280],[-194,145],[-39,129],[270,-66],[224,200],[12,236],[69,-3],[-4,128],[92,4],[1,-88],[66,103],[-14,141],[-42,80],[32,25],[-32,302],[168,193]],[[4696,8314],[5,-35],[322,-414],[-32,-401],[36,-203]],[[4687,5008],[-324,-256]],[[4363,4752],[-655,-515],[-214,-175]],[[3494,4062],[-204,235],[-242,379]],[[3048,4676],[67,69],[255,58],[87,52],[194,223],[196,163],[516,241]],[[5833,4006],[-239,-101],[-148,32],[-72,-16]],[[5374,3921],[-196,378],[-219,314],[676,591],[280,148],[231,172],[127,134]],[[6273,5658],[450,-418]],[[6723,5240],[-189,-186],[-112,3],[3,-134],[-52,-51],[-157,144],[-113,-108],[-41,37],[-232,-142],[-58,-122],[-15,-114],[-109,-68],[-170,-57],[1,-39],[354,-397]],[[9572,8277],[-229,-52],[-398,-148],[-218,-64],[-254,-26],[-244,-45],[-451,-456],[-70,54]],[[7558,7835],[3,51],[261,1062]],[[7822,8948],[46,121],[297,500],[133,192],[83,83],[-127,99],[55,56],[150,-77],[55,54],[107,-94],[-58,-61],[754,-697],[682,-613],[-278,-167],[-149,-67]],[[8448,6721],[-440,-264],[-75,-34],[-491,-132],[-315,-306],[-160,-33]],[[6967,5952],[-174,269]],[[9572,8277],[164,-263],[-377,-239],[-109,-106],[-96,-176],[32,-191],[-84,-184],[-110,-43],[-140,-6],[-196,-82],[-108,-131],[-39,-98],[-61,-37]],[[6464,4242],[199,54],[93,44],[-31,288],[3,144],[-26,25],[24,269],[-3,174]],[[6967,5952],[33,-59],[517,-434]],[[7517,5459],[124,-112],[202,-252],[-216,-234],[-177,-250],[57,-50],[106,-281],[-127,-67],[-139,-193],[-291,-62],[-157,-103]],[[6899,3855],[-127,-84],[-78,-109],[-58,22],[-122,168],[-73,329],[23,61]],[[6464,4242],[-145,-101],[-160,-9],[-326,-126]],[[5010,3809],[-647,943]],[[5374,3921],[-46,-23],[-168,20],[-59,-17],[-91,-92]],[[4015,3256],[-392,-29],[-87,-64],[-204,-385]],[[3332,2778],[-63,65]],[[3029,3698],[465,364]],[[5010,3809],[-294,-173],[-445,-248],[-236,-67],[-20,-65]],[[2990,2715],[-126,-49],[-106,97],[-296,347]],[[6899,3855],[34,-102],[-1007,-463],[0,622],[-728,-137],[-14,-113],[44,-626],[-388,-167]],[[4840,2869],[-117,230],[-167,-65],[70,-155],[-373,-154]],[[4253,2725],[-238,531]],[[7048,7861],[-213,189],[66,74],[-42,31],[-67,-62]],[[6792,8093],[-267,219],[442,474],[189,-4],[43,45],[-52,52],[36,73],[264,-55],[160,29],[102,-42],[16,56],[97,8]],[[6420,7739],[-50,48]],[[6370,7787],[44,35],[65,-48],[313,319]],[[4696,8314],[452,94],[73,1],[189,-68],[31,28],[25,166],[240,26],[32,-68],[-29,-79],[-74,-5],[-1,-68],[-93,-1],[-31,-56],[188,-82],[-149,-174],[278,-113],[18,31],[153,-86],[277,-181],[-2,73],[97,35]],[[3048,4676],[-70,-129],[-67,-40],[-253,-23]],[[2658,4484],[-51,206],[-7,303],[313,75],[61,28],[-42,80],[57,77],[-1,78],[64,15],[9,-55],[106,-96],[235,9],[79,107],[-357,340],[238,294],[255,-227],[110,-21],[-36,-36],[94,-74],[57,27],[169,148],[-29,52],[-129,92],[-59,272],[208,148]],[[861,1212],[28,-110]],[[889,1102],[38,-146],[-298,38]],[[629,994],[16,102],[-68,-33],[-137,-8],[-10,144],[-196,-4],[-152,147],[-57,-25],[-9,63],[83,35],[68,167],[-63,127],[40,12],[-68,76],[97,59],[98,-11],[162,29],[-89,183],[31,34],[-103,125],[-32,96],[-76,548],[-51,320],[1,172],[62,177],[247,313],[232,38],[162,58],[265,59],[319,45],[490,207],[490,129],[277,106]],[[2396,3191],[-1714,-1352],[179,-627]],[[3332,2778],[142,-402],[-310,-18],[75,267],[-291,-62],[-130,13],[-126,107],[-111,-16],[-127,-133],[-345,-223],[-591,-485],[-147,-3],[-210,-274],[-91,-220],[-209,-117]],[[889,1102],[202,59],[2,-156],[-154,-92],[90,-329],[515,136],[121,-362],[106,29],[55,-196],[-287,-94],[-348,-97],[-118,384],[-440,-67],[-81,134],[77,543]],[[4840,2869],[186,-375],[-559,-229],[-104,231],[-15,-5],[-95,234]],[[8448,6721],[114,-322],[227,-581],[-97,-26],[29,-84],[-513,-184],[-174,-55],[-162,-11],[-355,1]]]}