{"type":"Topology","bbox":[-73.5346731230012,5.621875760092861,-73.50797699865598,5.667839504095927],"transform":{"scale":[0.000002669879422464397,0.0000045968340837149515],"translate":[-73.5346731230012,5.621875760092861]},"objects":{"municipios":{"type":"GeometryCollection","geometries":[{"type":"Polygon","arcs":[[0,1,2]],"properties":{"codigo":"15407100000000000108","sector":"154071000000000001","pcode":"CO15407","area_m2":285208}},{"type":"Polygon","arcs":[[3]],"properties":{"codigo":"15407200103003000101","sector":"154072001030030001","pcode":"CO15407","area_m2":129943}},{"type":"Polygon","arcs":[[4,5,6,7]],"properties":{"codigo":"15407100000000000104","sector":"154071000000000001","pcode":"CO15407","area_m2":147572}},{"type":"Polygon","arcs":[[8,9,10,11]],"properties":{"codigo":"15407100000000000101","sector":"154071000000000001","pcode":"CO15407","area_m2":246191}},{"type":"Polygon","arcs":[[12,-7,-9,13,-2]],"properties":{"codigo":"15407100000000000102","sector":"154071000000000001","pcode":"CO15407","area_m2":249054}},{"type":"Polygon","arcs":[[-8,-13,-1,14]],"properties":{"codigo":"15407100000000000103","sector":"154071000000000001","pcode":"CO15407","area_m2":218113}},{"type":"Polygon","arcs":[[15,16,17,-10,-6]],"properties":{"codigo":"15407100000000000105","sector":"154071000000000001","pcode":"CO15407","area_m2":200835}},{"type":"Polygon","arcs":[[-18,18,19,20,-11]],"properties":{"codigo":"15407100000000000106","sector":"154071000000000001","pcode":"CO15407","area_m2":582945}},{"type":"Polygon","arcs":[[21,22,-19,-17]],"properties":{"codigo":"15407100000000000107","sector":"154071000000000001","pcode":"CO15407","area_m2":392034}},{"type":"Polygon","arcs":[[23,-20,-23]],"properties":{"codigo":"15407100000000000109","sector":"154071000000000001","pcode":"CO15407","area_m2":154003}}]}},"arcs":[[[6077,3984],[-10,-181],[143,-95],[-204,-74],[-1265,-632]],[[4741,3002],[-250,155],[28,62],[-279,76],[-737,425],[-165,132]],[[3338,3852],[-95,98],[136,90],[-92,105],[275,-5],[331,-189],[258,86],[181,121],[210,-108],[300,218],[295,-45],[-48,-91],[151,-27],[-70,-154],[526,-74],[20,156],[361,-49]],[[9889,9929],[-260,-591],[356,69],[14,-163],[-134,-48],[-191,-178],[-135,-3],[-151,168],[-528,85],[-110,-197],[-57,10],[64,205],[-122,18],[51,155],[-85,21],[175,365],[1149,154],[-36,-70]],[[5752,2172],[128,-177]],[[5880,1995],[-489,-258],[-1249,700]],[[4142,2437],[859,409]],[[5001,2846],[350,-200],[241,-72],[8,-113],[97,-71],[55,-218]],[[2355,3429],[41,-255],[365,-81],[111,54],[1270,-710]],[[4142,2437],[-536,-258]],[[3606,2179],[-274,141],[-185,-12],[-762,43],[-249,-25],[-469,812],[-295,80]],[[1372,3218],[92,23],[112,177],[342,-83],[230,112],[207,-18]],[[4741,3002],[260,-156]],[[2355,3429],[626,175],[-67,64],[424,184]],[[6077,3984],[11,188],[80,518],[510,-90],[-276,-463],[-99,-256],[242,-77],[394,151],[67,-66],[-277,-78],[-119,-77],[-303,-278],[-151,-88],[46,-90],[-214,-124],[207,-100],[-359,-222],[161,-158],[174,-108],[-40,-90],[-379,-304]],[[5880,1995],[191,-178],[175,-35],[196,-151],[219,-47],[62,-111],[136,-34],[-99,-97],[115,-34],[-400,-172],[-191,27],[-127,186],[-269,91],[-82,-107],[-231,-109],[-51,61]],[[5524,1285],[-176,186],[-955,534],[-280,-135],[-252,156],[-358,-135],[-181,150]],[[3322,2041],[284,138]],[[3322,2041],[-192,-99],[-1123,-755],[-172,-149]],[[1835,1038],[-121,-138]],[[1714,900],[-738,-829],[-94,-71],[-480,175],[296,298],[245,-104],[84,198],[264,265],[-137,91],[-82,-42],[-144,103],[-232,20],[-99,261],[-41,339],[82,27],[73,-93],[104,24],[138,-86],[687,278],[-499,149],[183,142],[-148,68],[-1017,-14],[-42,150],[-116,52],[54,152],[644,162],[173,-278],[468,89],[-122,201],[-198,-38],[-55,96],[196,36],[-373,621],[71,2],[513,-126]],[[5524,1285],[32,-111],[-45,-662],[-492,34],[193,367],[-253,59],[-122,-165],[-74,1],[-323,-221],[-377,349]],[[4063,936],[-324,300],[-124,-56],[-111,89],[-86,-41],[-395,25],[-150,59],[-184,-120],[-204,144],[-308,-173],[-342,-125]],[[4063,936],[-354,-225],[-256,-101],[-60,44],[-769,107],[-61,-44],[-267,92],[-38,-39],[-296,29],[-248,101]]]}
