{"type":"Topology","bbox":[-73.46122994735396,5.216810128626095,-73.45258263626528,5.2250445305616795],"transform":{"scale":[8.648175906270625e-7,8.235225458130037e-7],"translate":[-73.46122994735396,5.216810128626095]},"objects":{"municipios":{"type":"GeometryCollection","geometries":[{"type":"Polygon","arcs":[[0,1]],"properties":{"codigo":"15842100000000000101","sector":"158421000000000001","pcode":"CO15842","area_m2":223140}},{"type":"Polygon","arcs":[[2,-1]],"properties":{"codigo":"15842100000000000102","sector":"158421000000000001","pcode":"CO15842","area_m2":255131}}]}},"arcs":[[[6492,1605],[-392,1023],[376,220],[-112,314],[-773,266],[-266,1523],[-593,2307],[-706,-107],[169,924],[-128,872]],[[4067,8947],[-395,338],[919,79],[1531,635],[903,-1065],[-206,-284],[440,-527],[443,487],[1575,-1219],[477,-837],[245,-906],[-759,-315],[-471,-867],[-11,-784],[-1093,299],[-103,-1061],[-690,100],[393,-1094],[-773,-321]],[[6492,1605],[-948,-187],[-368,-289],[-1275,-272],[-714,122],[-272,-979],[-250,125],[-1152,3043],[437,198],[-682,1829],[-1169,96],[-99,399],[371,140],[-101,368],[311,318],[-13,592],[749,191],[1188,545],[200,396],[1362,707]]]}
