{"type":"Topology","bbox":[-73.4540438783934,5.563127446883167,-73.44672890917172,5.570060522210027],"transform":{"scale":[7.315700791760798e-7,6.933768703730756e-7],"translate":[-73.4540438783934,5.563127446883167]},"objects":{"municipios":{"type":"GeometryCollection","geometries":[{"type":"Polygon","arcs":[[0,1]],"properties":{"codigo":"15762100000000000101","sector":"157621000000000001","pcode":"CO15762","area_m2":130443}},{"type":"Polygon","arcs":[[-2,2]],"properties":{"codigo":"15762100000000000102","sector":"157621000000000001","pcode":"CO15762","area_m2":224488}}]}},"arcs":[[[6504,2275],[-334,-455],[-78,-244],[76,-538],[-323,-33],[-543,-812],[-126,-38],[-173,465],[-524,474],[-987,786],[-109,-158],[-338,-1031],[-2787,2124],[-258,-17],[80,295],[484,262],[237,542],[387,326],[91,489],[220,257],[517,1154],[244,396],[-60,142],[930,901]],[[3130,7562],[876,-1036],[223,-319],[-969,-1015],[897,-811],[91,96],[868,-804],[-82,-87],[899,-843],[571,-468]],[[3130,7562],[-248,304],[-153,408],[291,677],[629,665],[165,-27],[776,-628],[828,831],[1075,-1165],[1242,1316],[731,-122],[338,107],[916,-99],[-392,-426],[-4,-337],[675,-484],[-405,-885],[-96,-29],[-1001,-1247],[1455,-1319],[-526,-112],[-209,-131],[-361,-917],[65,-658],[-540,-200],[-550,-25],[-304,-308],[28,-295],[-570,56],[-481,-237]]]}
