{"type":"Topology","bbox":[-73.72600904380016,5.515189190837419,-73.71911680142682,5.521018516074922],"transform":{"scale":[6.892931666506391e-7,5.829908228325846e-7],"translate":[-73.72600904380016,5.515189190837419]},"objects":{"municipios":{"type":"GeometryCollection","geometries":[{"type":"Polygon","arcs":[[0,1]]},{"type":"Polygon","arcs":[[2,3,-1,4]]},{"type":"Polygon","arcs":[[-3,5]]}]}},"arcs":[[[3569,7577],[891,-3071],[532,-2109]],[[4992,2397],[-1815,1292],[-203,458],[-2100,41],[607,382],[-161,507],[-1023,-85],[-297,1555],[1106,-349],[168,-538],[1975,868],[16,914],[304,135]],[[5604,7907],[224,-443],[2230,-7295]],[[8058,169],[-704,-152],[-371,246],[-1755,1614],[-236,520]],[[3569,7577],[-190,700],[-490,577],[1316,274],[367,585],[407,286],[169,-877],[456,-1215]],[[5604,7907],[1109,591],[586,-777],[173,-548],[1159,1471],[290,243],[30,-1086],[-524,-1073],[1103,-971],[-431,-423],[900,-795],[-88,-262],[-1331,-580],[505,-1818],[-401,-1298],[-626,-412]]]}