{"type":"Topology","bbox":[-73.36825989984646,5.377588795819764,-73.35884016096537,5.393997612843522],"transform":{"scale":[9.420680949187517e-7,0.0000016410458069565138],"translate":[-73.36825989984646,5.377588795819764]},"objects":{"municipios":{"type":"GeometryCollection","geometries":[{"type":"Polygon","arcs":[[0,1,2]],"properties":{"codigo":"15367100000000000101","sector":"153671000000000001","pcode":"CO15367","area_m2":175239}},{"type":"Polygon","arcs":[[3,-2,4]],"properties":{"codigo":"15367100000000000102","sector":"153671000000000001","pcode":"CO15367","area_m2":303766}},{"type":"Polygon","arcs":[[-5,-1,5]],"properties":{"codigo":"15367100000000000103","sector":"153671000000000001","pcode":"CO15367","area_m2":322473}}]}},"arcs":[[[6048,8319],[-390,-369],[-683,-980],[-295,-374],[-393,-592],[-659,-941]],[[3628,5063],[-211,-333],[-529,-761],[-447,-597],[-318,-641],[-40,-134]],[[2083,2597],[-108,-22],[-1065,380],[-512,149],[169,271],[141,342],[863,766],[547,185],[379,-22],[165,77],[-218,110],[-163,203],[-468,135],[-132,69],[-565,174],[-89,238],[124,92],[851,176],[613,32],[180,-13],[151,399],[54,222],[452,-60],[28,281],[-245,143],[650,445],[190,-80],[405,679],[134,-55],[362,227],[281,322],[-176,62],[179,137],[788,-342]],[[6994,4359],[-253,-380],[-91,-189],[-250,-333],[-386,-343],[-576,-733],[-258,-296],[-305,-439],[-164,-290],[-69,-321],[66,-234],[202,-505],[-40,-296],[-593,82],[-237,181],[-1402,201],[-10,-24],[-1022,185],[-612,264],[68,56],[-465,58],[-597,-53],[779,597],[152,194],[361,-36],[-5,79],[721,-68],[162,183],[-24,448],[-63,250]],[[3628,5063],[608,-136],[762,-151],[838,-189],[1158,-228]],[[6048,8319],[141,124],[-752,354],[271,216],[202,-76],[245,234],[-573,302],[435,432],[627,-276],[346,370],[469,-358],[886,-316],[-54,-62],[428,-7],[273,-111],[75,-115],[307,-198],[68,-156],[387,-46],[170,-238],[-318,-170],[-649,-254],[-278,-154],[-278,-320],[-207,-422],[-139,-375],[-19,-254],[-63,-173],[-543,-754],[-177,-579],[-104,-228],[-230,-350]]]}
