{"type":"Topology","bbox":[-73.62609955370169,5.614562212905661,-73.6143558003617,5.624993494229977],"transform":{"scale":[0.0000011744927832782608,0.0000010432324556771155],"translate":[-73.62609955370169,5.614562212905661]},"objects":{"municipios":{"type":"GeometryCollection","geometries":[{"type":"Polygon","arcs":[[0,1]],"properties":{"codigo":"15776100000000000101","sector":"157761000000000001","pcode":"CO15776","area_m2":200562}},{"type":"Polygon","arcs":[[2,3,-1,4]],"properties":{"codigo":"15776100000000000102","sector":"157761000000000001","pcode":"CO15776","area_m2":219921}},{"type":"Polygon","arcs":[[-3,5]],"properties":{"codigo":"15776100000000000103","sector":"157761000000000001","pcode":"CO15776","area_m2":235124}}]}},"arcs":[[[5341,7131],[-1848,-2974],[-962,-1345],[-302,-544]],[[2229,2268],[-116,99],[373,688],[-645,704],[502,827],[-567,375],[70,868],[-1223,1056],[-526,-251],[-79,590],[516,687],[314,-114],[197,274],[-275,419],[1057,-320],[381,643],[648,-560],[-90,-214],[1614,-1213],[143,294],[278,-177],[299,349],[241,-161]],[[7495,6679],[-514,-640],[-191,129],[-2173,-3126],[-765,-781],[-1119,-137],[-414,-240],[-156,-569]],[[2163,1315],[66,953]],[[5341,7131],[-19,907],[-217,861],[290,492],[403,-435],[569,-112],[-328,535],[313,412],[438,208],[285,-268],[448,-967],[-472,-652],[242,-1209],[202,-224]],[[7495,6679],[928,-447],[191,-314],[663,-45],[722,-899],[-204,-500],[-1762,931],[-817,-1167],[-377,289],[-592,-842],[275,-317],[878,-590],[-874,-1719],[-4,-488],[-774,-571],[-942,596],[-328,469],[-300,-457],[-329,665],[-350,203],[-544,10],[-465,-497],[-327,326]]]}
