{"type":"Topology","bbox":[-72.52007894006096,6.113982631617926,-72.46665487301772,6.191015824748666],"transform":{"scale":[0.000005342940998423663,0.000007704089722046202],"translate":[-72.52007894006096,6.113982631617926]},"objects":{"municipios":{"type":"GeometryCollection","geometries":[{"type":"Polygon","arcs":[[0]],"properties":{"codigo":"15183200304002000101","sector":"151832003040020001","pcode":"CO15183","area_m2":30989}},{"type":"Polygon","arcs":[[1,2,3]],"properties":{"codigo":"15183100000000000101","sector":"151831000000000001","pcode":"CO15183","area_m2":99511}},{"type":"Polygon","arcs":[[4,-4,5]],"properties":{"codigo":"15183100000000000102","sector":"151831000000000001","pcode":"CO15183","area_m2":261725}},{"type":"Polygon","arcs":[[6,-2,-5]],"properties":{"codigo":"15183100000000000103","sector":"151831000000000001","pcode":"CO15183","area_m2":201059}}]}},"arcs":[[[369,128],[-50,-21],[39,-77],[-50,-27],[-13,31],[-72,-1],[12,-24],[-41,-9],[-43,11],[-65,119],[-86,60],[98,70],[19,-7],[68,31],[-5,14],[68,14],[39,-88],[-21,-36],[51,-37],[31,22],[21,-45]],[[8745,9628],[-11,-102],[-32,-177],[-6,-145]],[[8696,9204],[-2,-47],[-197,-7],[33,-35],[-39,-3],[-16,-44],[-33,-11],[-109,6],[2,-53],[-19,-57],[-58,-8],[-47,41],[-28,54],[39,41],[90,-2],[42,13],[62,43],[34,50],[16,95],[-16,82],[-85,40],[-84,-6],[-52,-59],[-20,1],[-26,51],[4,42],[22,22],[79,23],[54,81],[-75,7],[-21,53],[25,7]],[[8271,9624],[18,-8],[373,13],[83,-1]],[[9853,9330],[-99,73],[-55,12],[-118,0],[-400,15],[-29,99],[-138,-2],[7,98],[-276,3]],[[8271,9624],[-51,39],[-21,87],[-30,40],[-7,53],[37,23],[109,14],[166,48],[29,-52],[42,27],[30,-20],[105,-42],[58,4],[39,24],[-8,100],[105,30],[48,-38],[5,-43],[32,-6],[16,-73],[86,4],[38,-127],[185,83],[95,11],[98,43],[56,15],[102,-102],[305,-294],[59,-49],[-103,-77],[-43,-16]],[[9853,9330],[-31,-42],[-44,-18],[2,-18],[-95,-37],[-43,-35],[-63,-19],[-54,6],[-22,-35],[-51,-18],[-65,-48],[-45,0],[-156,-66],[-69,26],[-180,100],[-55,73],[-77,21],[-52,-21],[-57,5]]]}
