{"type":"Topology","bbox":[-73.3709476927595,5.574136384023027,-73.36543647020056,5.58127821092031],"transform":{"scale":[5.51177373631051e-7,7.142541151398072e-7],"translate":[-73.3709476927595,5.574136384023027]},"objects":{"municipios":{"type":"GeometryCollection","geometries":[{"type":"Polygon","arcs":[[0]],"properties":{"codigo":"15476100000000000101","sector":"154761000000000001","pcode":"CO15476","area_m2":233441}}]}},"arcs":[[[9338,9999],[153,-1524],[508,-175],[-533,-139],[184,-540],[-644,-712],[549,-1117],[-1689,-486],[1057,-2428],[139,-1157],[-130,-1697],[-135,-24],[-865,1543],[-668,-142],[-740,86],[-303,250],[-2380,534],[-1785,-154],[-2056,2079],[817,527],[-197,147],[943,707],[1799,754],[-553,872],[3030,1392],[151,-331],[1707,413],[56,465],[965,74],[32,764],[588,19]]]}
