{"type":"Topology","bbox":[-72.69026694364163,6.325040124381877,-72.6773629055931,6.339025808555856],"transform":{"scale":[0.0000012905328581390268,0.0000013987082882267834],"translate":[-72.69026694364163,6.325040124381877]},"objects":{"municipios":{"type":"GeometryCollection","geometries":[{"type":"Polygon","arcs":[[0,1,2,3]],"properties":{"codigo":"15753100000000000101","sector":"157531000000000001","pcode":"CO15753","area_m2":285483}},{"type":"Polygon","arcs":[[4,5,-4,6]],"properties":{"codigo":"15753100000000000102","sector":"157531000000000001","pcode":"CO15753","area_m2":120413}},{"type":"Polygon","arcs":[[7,-5,8]],"properties":{"codigo":"15753100000000000103","sector":"157531000000000001","pcode":"CO15753","area_m2":133930}},{"type":"Polygon","arcs":[[9,10,-2]],"properties":{"codigo":"15753100000000000104","sector":"157531000000000001","pcode":"CO15753","area_m2":548067}},{"type":"Polygon","arcs":[[-8,11,-10,-1,-6]],"properties":{"codigo":"15753100000000000105","sector":"157531000000000001","pcode":"CO15753","area_m2":155401}}]}},"arcs":[[[5673,6124],[-597,-1281]],[[5076,4843],[-1216,394],[-106,-250],[-509,257],[-1804,608]],[[1441,5852],[299,330],[11,412],[134,5],[564,467],[718,341],[97,252],[-391,-113],[-920,-88],[-288,353],[282,86],[869,-18],[229,-87],[721,320],[252,211],[793,301],[359,262],[980,-129],[-10,219],[221,15]],[[6361,8991],[554,-18],[123,-113],[-140,-453],[-296,-524],[-405,-845],[-524,-914]],[[9072,9381],[-99,-170],[-731,-449],[-437,-153],[-285,-468],[592,-270],[-460,-824],[-413,-906],[-289,-470]],[[6950,5671],[-244,19],[-1033,434]],[[6361,8991],[14,179],[599,41],[852,448],[92,-243],[251,18],[-26,203],[315,247],[43,-266],[440,381],[131,-618]],[[8269,5233],[-502,140],[-81,149],[-474,-12],[-57,172],[-205,-11]],[[9072,9381],[142,310],[240,-721],[314,46],[-13,-434],[244,12],[-385,-316],[-30,-441],[-294,-623],[63,-90],[-690,-1274],[-309,-307],[-85,-310]],[[5076,4843],[828,-250],[409,-1182],[-76,-465],[-658,-231],[-540,-1096],[37,-125],[336,-60],[222,72]],[[5634,1506],[101,-168],[-506,-702],[-2047,-636],[-2214,804],[-664,431],[577,241],[-268,555],[40,115],[-352,248],[65,179],[-366,393],[13,373],[327,-14],[261,294],[124,287],[-330,413],[169,96],[402,521],[614,514],[-269,295],[130,107]],[[8269,5233],[-168,-315],[1,-325],[403,-26],[11,-272],[-387,-561],[-303,103],[-504,-779],[-790,-448],[-422,-5],[-396,-473],[-149,-282],[69,-344]]]}
