{"type":"Topology","bbox":[-72.71176711571638,6.105783970082675,-72.70321994440383,6.134630862357142],"transform":{"scale":[8.548026115168628e-7,0.000002884977725219168],"translate":[-72.71176711571638,6.105783970082675]},"objects":{"municipios":{"type":"GeometryCollection","geometries":[{"type":"Polygon","arcs":[[0]],"properties":{"codigo":"15720200103001000101","sector":"157202001030010001","pcode":"CO15720","area_m2":82038}},{"type":"Polygon","arcs":[[1,2,3]],"properties":{"codigo":"15720100000000000103","sector":"157201000000000001","pcode":"CO15720","area_m2":91338}},{"type":"Polygon","arcs":[[4,5,-3]],"properties":{"codigo":"15720100000000000102","sector":"157201000000000001","pcode":"CO15720","area_m2":107690}},{"type":"Polygon","arcs":[[6,-5,-2]],"properties":{"codigo":"15720100000000000101","sector":"157201000000000001","pcode":"CO15720","area_m2":81136}}]}},"arcs":[[[9419,970],[351,-102],[-214,-59],[391,-140],[-82,-59],[134,-103],[-202,-83],[-185,-147],[-1252,-277],[-564,206],[-620,257],[-784,-133],[-42,81],[-349,188],[95,17],[-247,238],[-517,103],[-12,130],[412,28],[343,-48],[479,-201],[525,104],[136,-57],[426,92],[170,-59],[368,67],[570,-194],[670,151]],[[4638,9644],[44,-91],[-160,-24],[144,-297],[305,-65],[-1023,-423]],[[3948,8744],[-356,-148],[-889,185],[-646,-272],[-1286,15]],[[771,8524],[100,157],[242,39],[176,102],[637,231],[352,97],[232,105],[-5,156],[649,457],[324,109],[368,14],[366,-43],[426,-304]],[[3948,8744],[1128,-254],[824,220],[231,34],[153,-94]],[[6284,8650],[-349,-206],[147,-42],[-472,-188],[-553,88],[-306,-174],[-259,-94],[-263,49],[-267,-109],[-332,73],[-361,-150],[-608,29],[-185,-207],[-147,-10],[-436,77],[-484,2],[-408,34],[-110,71],[-891,120],[771,511]],[[4638,9644],[680,-42],[59,-134],[230,-38],[415,114],[264,36],[676,-32],[-16,-72],[142,-308],[-165,-218],[558,-55],[670,18],[-198,-374],[-804,87],[-865,24]]]}
