{"type":"Topology","bbox":[-72.85341976570538,5.71657435263446,-72.84493459436652,5.7300434053953895],"transform":{"scale":[8.486019940855705e-7,0.0000013470399800909668],"translate":[-72.85341976570538,5.71657435263446]},"objects":{"municipios":{"type":"GeometryCollection","geometries":[{"type":"Polygon","arcs":[[0,1,2,3]],"properties":{"codigo":"15466100000000000104","sector":"154661000000000001","pcode":"CO15466","area_m2":55594}},{"type":"Polygon","arcs":[[4,5,6]],"properties":{"codigo":"15466100000000000101","sector":"154661000000000001","pcode":"CO15466","area_m2":125556}},{"type":"Polygon","arcs":[[7,8,9,-2]],"properties":{"codigo":"15466100000000000103","sector":"154661000000000001","pcode":"CO15466","area_m2":150305}},{"type":"Polygon","arcs":[[-8,-1,-5,10]],"properties":{"codigo":"15466100000000000102","sector":"154661000000000001","pcode":"CO15466","area_m2":124016}},{"type":"Polygon","arcs":[[-6,-4,11,12]],"properties":{"codigo":"15466100000000000105","sector":"154661000000000001","pcode":"CO15466","area_m2":151297}},{"type":"Polygon","arcs":[[-3,-10,13,-12]],"properties":{"codigo":"15466100000000000106","sector":"154661000000000001","pcode":"CO15466","area_m2":190608}}]}},"arcs":[[[6153,4883],[-449,-1254],[-195,-444]],[[5509,3185],[-716,197],[-856,108],[150,519],[-842,99]],[[3245,4108],[148,528],[284,636]],[[3677,5272],[1653,-225],[823,-164]],[[8870,5425],[-1217,263],[-256,-540],[281,-629],[-215,161],[-1011,195],[-299,8]],[[6153,4883],[188,361],[-12,246],[240,550],[-741,127],[306,384],[70,250],[-186,255],[-124,547],[414,839]],[[6308,8442],[-2,141],[475,-84],[810,456],[200,-206],[-173,-79],[535,-493],[-324,-184],[850,-667],[146,-327],[218,-164],[-105,-382],[311,-368],[425,-159],[-197,-35],[5,-235],[-302,-435],[-310,204]],[[5509,3185],[635,-171],[300,-208],[-372,-302],[384,-523],[878,-648]],[[7334,1333],[331,-251],[160,-319],[741,-498],[-353,-265],[-723,669],[-747,417],[-363,273],[-476,-140],[-339,-213],[-982,-4],[635,-415],[-436,-181],[-278,-257],[-802,1001],[-842,611],[-189,357],[-687,546],[-353,-243],[-657,337],[721,519],[-595,798],[525,-71]],[[1625,4004],[338,-273],[213,-428],[432,-518],[330,-210],[302,-369],[526,-266],[702,-210],[53,126],[-508,205],[-805,813],[-478,1227],[515,7]],[[8870,5425],[-328,-493],[207,-1397],[230,-105],[709,-529],[311,-129],[-487,-308],[-971,696],[-445,-338],[-139,-343],[-38,-593],[-585,-553]],[[3677,5272],[-1009,168],[33,352],[387,233],[706,551],[-204,34],[125,304],[-437,136],[207,320],[-675,124],[577,803],[121,314],[-451,99],[-903,9],[45,177],[-126,752]],[[2073,9648],[-10,248],[449,103],[244,-98],[126,-320],[-229,-24],[-2,-273],[-463,-38],[60,-347],[809,86],[782,-114],[267,-180],[63,-288],[299,207],[382,-149],[218,74],[441,-164],[799,71]],[[1625,4004],[247,317],[-568,461],[-77,411],[-334,267],[-138,361],[-311,248],[-299,641],[95,322],[-204,301],[214,324],[463,308],[169,482],[854,321],[386,11],[-17,460],[-860,30],[-34,288],[862,91]]]}
