{"type":"Topology","bbox":[-73.28554900463985,5.555140482496438,-73.27947167681242,5.56285432917473],"transform":{"scale":[6.077935620988969e-7,7.71461814010579e-7],"translate":[-73.28554900463985,5.555140482496438]},"objects":{"municipios":{"type":"GeometryCollection","geometries":[{"type":"Polygon","arcs":[[0,1]],"properties":{"codigo":"15187100000000000101","sector":"151871000000000001","pcode":"CO15187","area_m2":122954}},{"type":"Polygon","arcs":[[-1,2]],"properties":{"codigo":"15187100000000000102","sector":"151871000000000001","pcode":"CO15187","area_m2":125875}}]}},"arcs":[[[2610,5717],[1956,-928],[883,-279],[1453,-639]],[[6902,3871],[-373,-526],[-1478,-2566],[621,-308],[-849,-471],[-597,208],[-214,289],[-1052,341],[-1009,185],[594,864],[-2545,1092],[619,902],[1608,2030],[383,-194]],[[2610,5717],[1249,1808],[227,451],[788,-348],[632,836],[942,-397],[51,1932],[87,-8],[2285,-1123],[-258,-367],[1386,-679],[-999,-1025],[-1529,-1991],[-569,-935]]]}
