{"type":"Topology","bbox":[-73.30121049282076,5.404722688415571,-73.29090907026045,5.411958189908757],"transform":{"scale":[0.0000010302452805583866,7.236225115697762e-7],"translate":[-73.30121049282076,5.404722688415571]},"objects":{"municipios":{"type":"GeometryCollection","geometries":[{"type":"Polygon","arcs":[[0,1,2]],"properties":{"codigo":"15189100000000000103","sector":"151891000000000001","pcode":"CO15189","area_m2":128617}},{"type":"Polygon","arcs":[[3,-3,4]],"properties":{"codigo":"15189100000000000101","sector":"151891000000000001","pcode":"CO15189","area_m2":160491}},{"type":"Polygon","arcs":[[-1,-4,5]],"properties":{"codigo":"15189100000000000102","sector":"151891000000000001","pcode":"CO15189","area_m2":76733}}]}},"arcs":[[[4756,5769],[1155,-1029],[1875,-1758],[661,145],[347,-122]],[[8794,3005],[1205,-441],[-334,-518],[-607,-182],[-205,-714],[588,-1131],[-1525,1037],[-837,716],[-602,128],[-334,-855],[-411,1004],[-1376,1171],[-359,500]],[[3997,3720],[-614,1142],[805,1511],[568,-604]],[[5860,8017],[-1104,-2248]],[[3997,3720],[-168,-224],[-338,564],[-1006,669],[-158,329],[-367,104],[-627,643],[253,127],[-450,551],[388,490],[-689,760],[498,470],[-1278,1404],[657,-305],[1045,-39],[-110,112],[288,624],[596,-251],[475,-627],[479,751],[1220,-1074],[224,325],[991,-980],[-60,-126]],[[5860,8017],[793,-716],[486,-1294],[614,-1066],[1004,-134],[-447,-763],[-148,-470],[632,-569]]]}
