{"type":"Topology","bbox":[-73.34926324912374,5.253445256228479,-73.2984728945737,5.410709934012656],"transform":{"scale":[0.000005079543409344057,0.00001572804058247602],"translate":[-73.34926324912374,5.253445256228479]},"objects":{"municipios":{"type":"GeometryCollection","geometries":[{"type":"Polygon","arcs":[[0]],"properties":{"codigo":"15599200101006000101","sector":"155992001010060001","pcode":"CO15599","area_m2":80897}},{"type":"Polygon","arcs":[[1,2,3]],"properties":{"codigo":"15599100000000000104","sector":"155991000000000001","pcode":"CO15599","area_m2":180303}},{"type":"Polygon","arcs":[[4,5]],"properties":{"codigo":"15599100000000000101","sector":"155991000000000001","pcode":"CO15599","area_m2":561648}},{"type":"Polygon","arcs":[[-5,6,7,-4,8]],"properties":{"codigo":"15599100000000000102","sector":"155991000000000001","pcode":"CO15599","area_m2":151028}},{"type":"Polygon","arcs":[[9,-2,-8]],"properties":{"codigo":"15599100000000000103","sector":"155991000000000001","pcode":"CO15599","area_m2":506494}},{"type":"Polygon","arcs":[[10]],"properties":{"codigo":"15599200202001000101","sector":"155992002020010001","pcode":"CO15599","area_m2":11006}},{"type":"Polygon","arcs":[[11]],"properties":{"codigo":"15599200201005000101","sector":"155992002010050001","pcode":"CO15599","area_m2":26861}},{"type":"Polygon","arcs":[[12]],"properties":{"codigo":"15599200201004000101","sector":"155992002010040001","pcode":"CO15599","area_m2":12329}}]}},"arcs":[[[700,9862],[9,-35],[-89,-22],[-74,-5],[-86,37],[-104,13],[-119,1],[-237,60],[53,32],[68,29],[131,24],[154,-2],[73,-33],[178,-32],[15,-31],[36,-19],[-8,-17]],[[2755,9357],[-80,-52],[-76,-42],[-85,-25],[-49,6],[-139,6],[-456,-3],[-155,-5],[-99,2]],[[1616,9244],[-70,10],[48,25],[170,54],[-48,15],[148,48],[102,39],[42,-11],[130,45],[41,24],[52,12]],[[2231,9505],[56,-16],[38,6],[12,-24],[64,-22],[244,-66],[110,-26]],[[3533,9196],[-63,24],[-118,22],[-85,24],[-148,50],[42,31],[-25,27],[-55,16],[28,10],[-263,55],[-175,43],[-146,41],[75,18],[-111,23]],[[2489,9580],[35,22],[102,15],[56,17],[56,0],[85,-48],[51,14],[156,24],[126,27],[-30,15],[43,17],[-183,44],[89,20],[20,25],[-70,19],[11,36],[49,15],[-1,34],[57,4],[150,-12],[14,-23],[49,2],[-60,-50],[130,-26],[162,-5],[29,-34],[186,-35],[166,-36],[49,-24],[52,-101],[14,-42],[4,-51],[37,-156],[-153,-3],[-157,-12],[-72,-19],[-71,4],[-24,-10],[24,-16],[-137,-35]],[[3533,9196],[-1,-13],[157,-43],[-166,-43]],[[3523,9097],[-140,36],[-97,32],[-246,111],[-200,53],[-85,28]],[[2231,9505],[51,14],[141,71],[66,-10]],[[3523,9097],[4,-6],[-106,-48],[-166,-60],[-99,-17],[-115,58],[-143,-44],[-29,6],[-95,-38],[-37,26],[-164,3],[-83,38],[-74,9],[-91,-2],[-236,15],[-76,2],[-146,-24],[-190,22],[-175,3],[-124,10],[-99,-6],[-83,6],[-81,-2],[-26,24],[9,26],[62,30],[77,25],[107,45],[272,46]],[[7771,73],[20,-10],[50,10],[34,-8],[40,-32],[-43,-4],[-133,-29],[-40,16],[41,8],[-66,11],[-52,-16],[-18,7],[167,47]],[[9710,2531],[29,-28],[-17,-15],[73,-5],[-8,24],[94,4],[115,-8],[-16,-58],[-109,-12],[-20,-32],[-151,17],[-26,14],[5,61],[-56,11],[57,25],[30,2]],[[4614,5301],[-54,-19],[-74,25],[-45,-9],[7,16],[-97,34],[54,14],[84,-21],[60,21],[98,-19],[-33,-42]]]}
