{"type":"Topology","bbox":[-72.57992268405752,5.559505720639141,-72.57407880879555,5.566306739920762],"transform":{"scale":[5.844459707944402e-7,6.80169945156618e-7],"translate":[-72.57992268405752,5.559505720639141]},"objects":{"municipios":{"type":"GeometryCollection","geometries":[{"type":"Polygon","arcs":[[0,1,2,3]],"properties":{"codigo":"15377100000000000102","sector":"153771000000000001","pcode":"CO15377","area_m2":112241}},{"type":"Polygon","arcs":[[-2,4]],"properties":{"codigo":"15377100000000000103","sector":"153771000000000001","pcode":"CO15377","area_m2":48390}},{"type":"Polygon","arcs":[[-4,5]],"properties":{"codigo":"15377100000000000101","sector":"153771000000000001","pcode":"CO15377","area_m2":114128}}]}},"arcs":[[[8814,5045],[1185,-233],[-1874,-331],[-645,-1274]],[[7480,3207],[-5870,-907],[461,-1910]],[[2071,390],[-1330,-390],[-405,1820],[-336,3314]],[[0,5134],[6798,150],[2016,-239]],[[7480,3207],[77,-951],[-1418,-307],[315,-1588],[-622,-358],[-802,1529],[-2959,-1142]],[[0,5134],[57,2893],[883,-95],[-202,898],[1639,104],[-181,888],[1205,177],[661,-666],[334,-1898],[2221,-279],[1209,-1484],[988,-627]]]}
