{"type":"Topology","bbox":[-73.30030357275012,5.432407617927254,-73.2926644506914,5.440557471259267],"transform":{"scale":[7.639886047324482e-7,8.150668398853342e-7],"translate":[-73.30030357275012,5.432407617927254]},"objects":{"municipios":{"type":"GeometryCollection","geometries":[{"type":"Polygon","arcs":[[0,1]],"properties":{"codigo":"15879100000000000101","sector":"158791000000000001","pcode":"CO15879","area_m2":281659}},{"type":"Polygon","arcs":[[2,-1]],"properties":{"codigo":"15879100000000000102","sector":"158791000000000001","pcode":"CO15879","area_m2":195967}}]}},"arcs":[[[8473,3546],[-952,392],[-202,-363],[-987,436],[-872,331],[-1206,572],[-988,368],[-1016,424],[-276,214],[-358,381],[-119,334],[-781,-633],[-516,290]],[[200,6292],[-200,497],[33,421],[383,792],[168,79],[-419,494],[-128,351],[14,228],[257,263],[262,92],[1280,13],[640,44],[294,-26],[-109,-190],[677,-103],[429,-198],[87,684],[237,-9],[545,85],[-168,-412],[580,-191],[388,-214],[493,57],[55,126],[-4,502],[207,292],[309,28],[628,-180],[-110,-397],[376,-748],[60,-247],[294,-633],[105,-476],[837,9],[-294,-740],[-397,-521],[-202,-340],[787,-375],[268,127],[1137,-321],[-257,-338],[-539,-500],[-730,-771]],[[8473,3546],[-274,-469],[74,-30],[-153,-431],[-286,94],[-152,-426],[388,-353],[-912,8],[-110,-657],[-673,375],[-42,-486],[-378,-479],[-226,-692],[-1002,521],[-1463,807],[-576,669],[-343,263],[-585,175],[-218,193],[-404,183],[-307,262],[-86,256],[-345,1606],[-167,959],[-33,398]]]}
