{"type":"Topology","bbox":[-73.76934317881899,5.693219568550864,-73.73388032844252,5.757143771939769],"transform":{"scale":[0.000003546639701616319,0.000006393059644854978],"translate":[-73.76934317881899,5.693219568550864]},"objects":{"municipios":{"type":"GeometryCollection","geometries":[{"type":"Polygon","arcs":[[0,1,2]]},{"type":"Polygon","arcs":[[3,-2,4]]},{"type":"Polygon","arcs":[[-3,-4,5]]},{"type":"Polygon","arcs":[[6]]}]}},"arcs":[[[2274,433],[-140,-200],[-46,-122],[0,-74],[-235,73],[-97,-27],[-55,-40],[-79,17],[-37,40],[-181,33],[-94,-17],[-54,-68],[-161,-48],[-165,97],[-24,33],[-35,375]],[[871,505],[-20,77],[20,41],[158,168],[-138,42]],[[891,833],[91,124],[603,-164],[-108,-128],[797,-232]],[[473,982],[418,-149]],[[871,505],[-81,-14],[17,35],[-178,63],[-51,-13],[-46,65],[-96,-7],[-31,27],[-217,80],[-24,100],[-89,56],[-71,66],[38,8],[-40,87],[31,53],[267,-63],[173,-66]],[[473,982],[102,94],[98,196],[-101,48],[196,81],[31,-40],[84,-54],[145,-39],[329,-46],[159,131],[151,-50],[424,-57],[18,-26],[-79,-124],[-100,43],[-203,-208],[223,-35],[166,-18],[105,-66],[91,-14],[134,-62],[34,65],[303,-20],[-6,-176],[-47,-86],[-374,72],[-82,-158]],[[9643,9991],[332,-52],[-92,-124],[116,-50],[-59,-85],[-129,-25],[-70,-57],[3,-104],[86,-123],[51,-41],[-132,-12],[-63,8],[-61,-24],[-25,19],[-94,7],[24,58],[-173,-18],[-2,40],[93,15],[-17,121],[43,24],[-40,33],[-18,80],[89,-2],[119,61],[23,48],[-137,21],[21,92],[57,98],[55,-8]]]}
