{"type":"Topology","bbox":[-72.6378806148349,5.99690341221942,-72.58926193472331,6.045642017515397],"transform":{"scale":[0.000004862354246583435,0.0000048743479643941464],"translate":[-72.6378806148349,5.99690341221942]},"objects":{"municipios":{"type":"GeometryCollection","geometries":[{"type":"Polygon","arcs":[[0,1]],"properties":{"codigo":"15755100000000000102","sector":"157551000000000001","pcode":"CO15755","area_m2":66405}},{"type":"Polygon","arcs":[[-1,2]],"properties":{"codigo":"15755100000000000101","sector":"157551000000000001","pcode":"CO15755","area_m2":88004}},{"type":"Polygon","arcs":[[3]],"properties":{"codigo":"15755200102004000101","sector":"157552001020040001","pcode":"CO15755","area_m2":40792}}]}},"arcs":[[[39,8796],[69,32],[97,145],[97,-1],[0,-60],[124,-14],[25,111],[-46,71]],[[405,9080],[80,-50],[62,-107],[9,-55],[-37,-92],[-63,-222],[-11,-133],[-61,-99],[-72,-73],[-59,27],[13,36],[-88,1],[-25,38],[54,67],[16,46],[-19,113],[-24,27],[-58,6],[-119,77],[36,109]],[[39,8796],[-13,39],[52,74],[58,10],[12,48],[-47,24],[3,37],[-46,-3],[-9,61],[18,9],[-23,85],[3,74],[39,24],[-18,91],[17,42],[-6,68],[-28,2],[-31,79],[-20,93],[39,-4],[-3,68],[49,19],[-24,104],[71,8],[-2,22],[50,129],[98,-17],[-9,-59],[31,-142],[44,0],[11,-60],[-42,-72],[3,-45],[52,10],[-5,-76],[-46,-46],[24,-64],[-6,-104],[58,-1],[-23,-130],[25,-20],[-22,-69],[32,-24]],[[9888,444],[48,-63],[42,12],[17,-85],[-27,-107],[-41,-43],[-65,19],[-76,-11],[-58,-51],[-71,28],[-61,-60],[-49,-16],[-44,-55],[-55,-12],[-39,22],[-32,71],[14,58],[32,42],[104,82],[60,10],[8,32],[45,4],[66,41],[-22,62],[49,-6],[58,18],[97,8]]]}
