{"type":"Topology","bbox":[-73.08297847714505,5.22047681378927,-73.07518009264271,5.2275033400313164],"transform":{"scale":[7.799164418778708e-7,7.027228964942632e-7],"translate":[-73.08297847714505,5.22047681378927]},"objects":{"municipios":{"type":"GeometryCollection","geometries":[{"type":"Polygon","arcs":[[0,1]],"properties":{"codigo":"15660100000000000101","sector":"156601000000000001","pcode":"CO15660","area_m2":154542}},{"type":"Polygon","arcs":[[-1,2]],"properties":{"codigo":"15660100000000000102","sector":"156601000000000001","pcode":"CO15660","area_m2":144551}}]}},"arcs":[[[9969,5025],[-1926,-25],[-1221,-32],[-1053,10],[-984,-25],[-782,-92],[-2501,-621]],[[1502,4240],[-13,45],[-1369,-272],[-120,1042],[4623,788],[137,59],[963,125],[44,650],[980,84],[80,1681],[-39,751],[-954,-68],[-49,747],[2002,127],[1600,-147],[168,-1736],[425,217],[-20,-1500],[9,-1808]],[[9969,5025],[24,-401],[-57,-1434],[-55,-117],[-802,341],[-244,-221],[-66,-1310],[-670,-1869],[-531,45],[-69,-59],[-898,458],[324,262],[-46,703],[-1129,78],[-930,-293],[-78,1113],[-311,0],[-170,223],[32,935],[411,266],[-30,72],[-920,0],[-1179,35],[-1008,266],[-65,122]]]}
