{"type":"Topology","bbox":[-72.50395470056236,6.549937089611029,-72.46901530610563,6.57595567348552],"transform":{"scale":[0.0000034942888745602782,0.0000026021185993090826],"translate":[-72.50395470056236,6.549937089611029]},"objects":{"municipios":{"type":"GeometryCollection","geometries":[{"type":"Polygon","arcs":[[0]],"properties":{"codigo":"15180200602005000101","sector":"151802006020050001","pcode":"CO15180","area_m2":176821}},{"type":"Polygon","arcs":[[1,2,3]],"properties":{"codigo":"15180100000000000101","sector":"151801000000000001","pcode":"CO15180","area_m2":43928}},{"type":"Polygon","arcs":[[4,-2,5]],"properties":{"codigo":"15180100000000000102","sector":"151801000000000001","pcode":"CO15180","area_m2":44816}},{"type":"Polygon","arcs":[[-5,6,-3]],"properties":{"codigo":"15180100000000000103","sector":"151801000000000001","pcode":"CO15180","area_m2":98988}}]}},"arcs":[[[9045,9992],[107,-44],[37,-44],[120,34],[-22,-113],[184,48],[110,-70],[110,4],[100,39],[77,-17],[1,-217],[130,-50],[-27,-138],[-35,26],[-3,-356],[39,-19],[-2,-128],[19,-64],[-5,-118],[-24,-45],[2,-124],[-24,-34],[-93,90],[-58,-120],[-23,51],[-241,76],[-25,-69],[-85,110],[-480,-3],[-2,-16],[-140,15],[-210,0],[-4,-28],[-167,25],[-61,-49],[-77,13],[-36,42],[84,105],[137,144],[-48,55],[-13,90],[141,43],[37,107],[-2,80],[40,18],[50,-50],[83,41],[103,-10],[-2,55],[39,236],[19,45],[-28,120],[66,221],[102,-7]],[[1376,1210],[-126,-100],[-17,-43],[-142,-111],[-24,9]],[[1067,965],[-200,475],[169,134],[-121,313],[-42,67],[-167,100]],[[706,2054],[158,151],[202,-85],[52,-40],[100,13],[-38,-81],[140,-333],[-70,-60],[5,-137],[74,-74],[34,-77],[13,-121]],[[826,864],[57,-9],[184,110]],[[1376,1210],[22,-58],[48,51],[31,-91],[-32,-32],[27,-83],[79,-138],[-10,-113],[57,-218],[-71,-119],[10,-46],[-51,-125],[23,-65],[-93,-76],[-27,-92],[-43,132],[-32,-4],[8,103],[-106,150],[-116,262],[-56,21],[-92,136],[-64,0],[-62,59]],[[826,864],[-55,-52],[-76,20],[-79,67],[10,46],[-75,55],[-56,-8],[-30,-61],[-21,51],[-72,-11],[-98,-245],[-39,-181],[-40,1],[-106,-84],[-72,250],[-15,184],[98,207],[219,526],[116,221],[14,118],[55,64],[202,22]]]}
