{"type":"Topology","bbox":[-72.69391408234713,6.227152338462047,-72.68815860497284,6.234116869221998],"transform":{"scale":[5.756052979591564e-7,6.965227282678895e-7],"translate":[-72.69391408234713,6.227152338462047]},"objects":{"municipios":{"type":"GeometryCollection","geometries":[{"type":"Polygon","arcs":[[0,1]],"properties":{"codigo":"15774100000000000101","sector":"157741000000000001","pcode":"CO15774","area_m2":163866}},{"type":"Polygon","arcs":[[-1,2]],"properties":{"codigo":"15774100000000000102","sector":"157741000000000001","pcode":"CO15774","area_m2":79446}}]}},"arcs":[[[6149,187],[-513,2738],[-709,5027]],[[4927,7952],[-8,384],[1353,189],[1542,1474],[614,-2213],[1134,138],[-566,-1557],[661,-153],[-263,-594],[345,-1283],[-397,-1423],[657,-806],[-1742,-1865],[-2108,-56]],[[6149,187],[-398,403],[-1203,-49],[-255,2745],[-1060,-430],[-1645,238],[-65,1637],[-1513,-136],[2,326],[4010,417],[-410,2111],[480,970],[835,-467]]]}
