{"type":"Topology","bbox":[-72.50432390933668,6.4566474581046505,-72.49521784533482,6.461898095361544],"transform":{"scale":[9.106974699325362e-7,5.251162373130988e-7],"translate":[-72.50432390933668,6.4566474581046505]},"objects":{"municipios":{"type":"GeometryCollection","geometries":[{"type":"Polygon","arcs":[[0,1]],"properties":{"codigo":"15317100000000000101","sector":"153171000000000001","pcode":"CO15317","area_m2":127604}},{"type":"Polygon","arcs":[[-2,2]],"properties":{"codigo":"15317100000000000102","sector":"153171000000000001","pcode":"CO15317","area_m2":137013}}]}},"arcs":[[[4921,1652],[-142,-724],[-1603,730],[-857,-201],[-379,-1457],[-210,1600],[-552,1731],[-130,-532],[-1048,621],[519,2135],[-147,241],[459,1437],[134,1413],[1202,-953],[180,1012],[583,1294],[501,-183]],[[3431,9816],[-395,-2410],[1083,-337],[-976,-4656],[1778,-761]],[[3431,9816],[1562,-531],[67,452],[558,66],[89,-721],[915,-215],[-78,-522],[890,-108],[1631,388],[183,-796],[714,-32],[37,-436],[-1657,269],[-676,-389],[-426,-1168],[217,-151],[-167,-1218],[-494,281],[185,941],[-908,271],[-1152,-4545]]]}
