{"type":"Topology","bbox":[-73.32386187212086,4.970461806712684,-73.24067049463531,5.010073121698385],"transform":{"scale":[0.000008319969745529347,0.00000396152765133527],"translate":[-73.32386187212086,4.970461806712684]},"objects":{"municipios":{"type":"GeometryCollection","geometries":[{"type":"Polygon","arcs":[[0,1]],"properties":{"codigo":"15425100000000000101","sector":"154251000000000001","pcode":"CO15425","area_m2":105974}},{"type":"Polygon","arcs":[[-1,2]],"properties":{"codigo":"15425100000000000102","sector":"154251000000000001","pcode":"CO15425","area_m2":127830}},{"type":"Polygon","arcs":[[3]],"properties":{"codigo":"15425200105004000101","sector":"154252001050040001","pcode":"CO15425","area_m2":36482}}]}},"arcs":[[[526,175],[2,245],[38,248],[-27,83]],[[539,751],[98,27],[58,-44],[80,87],[41,92],[22,130],[59,68],[61,14],[17,-43],[-14,-122],[42,-205],[-39,-119],[-18,-231],[-28,-60],[-200,-44],[-68,-87],[-124,-39]],[[526,175],[-42,-52],[-64,-12],[-17,-55],[-80,56],[-60,-94],[-85,-18],[-74,36],[-57,60],[-47,108],[17,110],[43,48],[113,-50],[95,95],[-9,106],[-57,4],[-20,45],[-53,-16],[6,197],[-7,211],[120,-71],[-7,-53],[43,4],[0,-74],[91,-47],[20,94],[144,-56]],[[9827,9960],[34,-14],[55,-294],[75,6],[-27,-125],[-34,-6],[-37,-136],[-78,-4],[-1,95],[-29,-11],[-37,134],[59,43],[-58,151],[-74,50],[69,132],[50,18],[33,-39]]]}
