{"type":"Topology","bbox":[-73.64928716566999,5.575676130884658,-73.64323208463833,5.582647108858538],"transform":{"scale":[6.055686600321335e-7,6.971675141393717e-7],"translate":[-73.64928716566999,5.575676130884658]},"objects":{"municipios":{"type":"GeometryCollection","geometries":[{"type":"Polygon","arcs":[[0,1]],"properties":{"codigo":"15808100000000000101","sector":"158081000000000001","pcode":"CO15808","area_m2":112825}},{"type":"Polygon","arcs":[[-1,2]],"properties":{"codigo":"15808100000000000102","sector":"158081000000000001","pcode":"CO15808","area_m2":134135}}]}},"arcs":[[[6746,5501],[-428,73],[169,525],[-1995,220],[-84,-130],[-3015,467]],[[1393,6656],[-458,121],[422,1757],[534,621],[1204,844],[669,-358],[537,243],[-216,-563],[1428,-388],[2037,-46],[809,1049],[1640,-963],[-594,-264],[165,-563],[-1299,53],[-1236,-1949],[-289,-749]],[[6746,5501],[-69,-410],[-550,-302],[232,-455],[-786,-1183],[-461,622],[-559,-1336],[367,-192],[-259,-925],[-561,105],[23,-1425],[-927,454],[148,508],[-523,-170],[-594,527],[-915,84],[-198,868],[-481,135],[251,445],[-192,500],[1180,381],[231,463],[-562,533],[-651,-592],[-890,757],[248,308],[102,1096],[273,370],[770,-11]]]}
