{"type":"Topology","bbox":[-72.86759293920886,5.90588328176379,-72.80688664656213,5.914077413091496],"transform":{"scale":[0.00000607123638831162,8.194950822787913e-7],"translate":[-72.86759293920886,5.90588328176379]},"objects":{"municipios":{"type":"GeometryCollection","geometries":[{"type":"Polygon","arcs":[[0]],"properties":{"codigo":"15092100000000000101","sector":"150921000000000001","pcode":"CO15092","area_m2":168550}},{"type":"Polygon","arcs":[[1]],"properties":{"codigo":"15092200102001000101","sector":"150922001020010001","pcode":"CO15092","area_m2":34932}}]}},"arcs":[[[9885,8927],[82,5],[28,-293],[4,-642],[-65,-1104],[-24,-948],[-42,-436],[-20,-571],[-43,-478],[-32,68],[-48,-425],[-59,-935],[-33,-999],[-69,-1199],[-76,-633],[-116,-154],[-29,-183],[-59,444],[-41,-1],[10,418],[60,609],[34,1089],[28,318],[73,303],[72,650],[-28,1042],[56,1770],[69,909],[24,703],[175,1745],[30,-177],[-12,-625],[51,-270]],[[292,3124],[-8,-412],[-53,40],[-80,-1082],[-41,-217],[43,-387],[-118,-661],[-35,412],[154,926],[56,767],[-58,184],[-13,773],[-104,154],[25,460],[86,-67],[25,541],[-69,310],[48,448],[88,-676],[14,-385],[170,-362],[13,-643],[51,-519],[-76,369],[-118,27]]]}
