{"type":"Topology","bbox":[-73.44710256011871,5.092234860161799,-73.44151572989529,5.0993838780786955],"transform":{"scale":[5.587388962317889e-7,7.149732890185501e-7],"translate":[-73.44710256011871,5.092234860161799]},"objects":{"municipios":{"type":"GeometryCollection","geometries":[{"type":"Polygon","arcs":[[0,1]],"properties":{"codigo":"15380100000000000101","sector":"153801000000000001","pcode":"CO15380","area_m2":122536}},{"type":"Polygon","arcs":[[-1,2]],"properties":{"codigo":"15380100000000000102","sector":"153801000000000001","pcode":"CO15380","area_m2":157445}}]}},"arcs":[[[4411,8388],[148,-228],[-445,-2120],[-203,-483],[1368,-415],[-359,-664],[-333,-1426],[-1029,-1972]],[[3558,1080],[-1501,489],[320,634],[-651,187],[-673,-535],[-1053,641],[729,748],[747,-471],[1036,1253],[-1345,558],[-111,295],[138,1514],[476,-53],[94,550],[-787,249],[-333,1676],[401,320],[737,190],[433,674],[1457,-35],[-734,-1540],[690,-170],[783,134]],[[4411,8388],[816,758],[1001,-75],[140,-1646],[219,-620],[617,-224],[-17,-387],[1118,-59],[1337,468],[111,-1894],[-90,-671],[311,-375],[-200,-577],[-976,-982],[-1066,560],[-44,-514],[410,-302],[-1004,-1822],[-521,273],[-92,622],[-2941,-148],[18,307]]]}
