{"type":"Topology","bbox":[-73.86805942409649,5.551265903654629,-73.86064909413983,5.5984841468499855],"transform":{"scale":[7.411071063762291e-7,0.0000047222965491905474],"translate":[-73.86805942409649,5.551265903654629]},"objects":{"municipios":{"type":"GeometryCollection","geometries":[{"type":"Polygon","arcs":[[0,1]],"properties":{"codigo":"15131100000000000102","sector":"151311000000000001","pcode":"CO15131","area_m2":115688}},{"type":"MultiPolygon","arcs":[[[2]],[[3]]],"properties":{"codigo":"15131200102001000101","sector":"151312001020010001","pcode":"CO15131","area_m2":66155}},{"type":"Polygon","arcs":[[-1,4]],"properties":{"codigo":"15131100000000000101","sector":"151311000000000001","pcode":"CO15131","area_m2":80753}}]}},"arcs":[[[1918,825],[119,45],[3013,-118]],[[5050,752],[-249,-200],[2276,-53],[-559,-52],[-430,-108],[-834,-44],[-377,-98],[-245,-194],[-511,2],[-733,129],[-119,134],[-1372,-73],[-1048,152],[165,154],[468,30],[436,294]],[[8612,9757],[1297,-60],[10,-163],[-680,8],[56,-38],[-788,-29],[-108,42],[-768,-25],[-316,23],[94,-131],[-529,8],[-525,113],[790,29],[-281,117],[-461,-93],[-994,-24],[4,110],[299,34],[327,143],[601,115],[88,63],[406,-66],[413,-7],[1065,-169]],[[9470,9198],[-1072,-104],[-133,27],[731,78],[573,268],[430,-21],[-529,-248]],[[1918,825],[-1788,108],[-130,48],[911,112],[807,-41],[79,154],[414,91],[688,44],[64,134],[923,41],[126,-322],[-544,-221],[894,-24],[1988,123],[-36,-197],[-447,21],[-166,-92],[-516,21],[-135,-73]]]}
