{"type":"Topology","bbox":[-72.96805940768519,5.578117962181872,-72.90989576613714,5.602027287512023],"transform":{"scale":[0.0000058169458493898265,0.000002391171650180118],"translate":[-72.96805940768519,5.578117962181872]},"objects":{"municipios":{"type":"GeometryCollection","geometries":[{"type":"Polygon","arcs":[[0]],"properties":{"codigo":"15226200102001000101","sector":"152262001020010001","pcode":"CO15226","area_m2":79509}},{"type":"Polygon","arcs":[[1,2]],"properties":{"codigo":"15226100000000000101","sector":"152261000000000001","pcode":"CO15226","area_m2":58837}},{"type":"Polygon","arcs":[[3,-2]],"properties":{"codigo":"15226100000000000102","sector":"152261000000000001","pcode":"CO15226","area_m2":77255}}]}},"arcs":[[[9708,9758],[33,-106],[125,-303],[-42,-219],[175,-523],[-48,-85],[-54,152],[-58,-166],[-87,212],[-29,-29],[-110,185],[5,162],[-177,209],[-40,-207],[-118,120],[-15,-90],[-33,38],[34,286],[17,-13],[33,122],[-10,90],[28,29],[81,-31],[33,105],[84,76],[72,227],[101,-241]],[[555,799],[-302,311],[-22,-23],[-62,85],[-81,-255],[-77,124]],[[11,1041],[67,246],[55,-55],[62,272],[-86,133],[-30,-109],[-52,98],[55,197],[60,-104],[13,152],[163,13],[34,-78],[26,79],[106,-32],[-67,-483],[44,-89],[77,-41],[37,-139],[50,-120],[-31,-28],[-39,-154]],[[555,799],[58,-68],[91,-60],[79,-238],[122,-131],[-104,-184],[-60,9],[-45,-127],[-25,169],[-4,226],[-42,76],[-41,-161],[-29,-31],[-28,-188],[-138,258],[-52,-97],[-36,53],[-53,185],[-58,-4],[-63,40],[-63,-24],[-43,35],[-9,64],[131,144],[-103,-11],[-17,45],[-23,224],[11,38]]]}
