{"type":"Topology","bbox":[-73.2679267531426,4.849954112197996,-73.25879967124126,4.864450027283579],"transform":{"scale":[9.127994700810342e-7,0.0000014497364822064773],"translate":[-73.2679267531426,4.849954112197996]},"objects":{"municipios":{"type":"GeometryCollection","geometries":[{"type":"Polygon","arcs":[[0,1,2]],"properties":{"codigo":"15690100000000000101","sector":"156901000000000001","pcode":"CO15690","area_m2":307667}},{"type":"Polygon","arcs":[[3,-3,4]],"properties":{"codigo":"15690100000000000102","sector":"156901000000000001","pcode":"CO15690","area_m2":83661}},{"type":"Polygon","arcs":[[-4,5,-1]],"properties":{"codigo":"15690100000000000103","sector":"156901000000000001","pcode":"CO15690","area_m2":435241}}]}},"arcs":[[[7653,5681],[-654,-19],[-668,-517],[-250,-373],[-634,-118],[-833,256],[-621,49],[-422,356],[223,392],[-204,743],[222,262],[402,172],[-802,253],[-7,-317],[-380,-353],[-862,-214]],[[2163,6253],[-177,302],[149,704],[-11,902],[-300,35],[118,544],[1213,279],[796,113],[1287,-110],[801,40],[875,-243],[311,47],[357,404],[-417,544],[198,15],[621,-384],[826,192],[695,315]],[[9505,9952],[-36,-217],[-1609,-1058],[-573,-235],[-1565,-523],[358,-383],[566,182],[798,-905],[353,-662],[-144,-470]],[[7959,5089],[156,190],[-462,402]],[[9505,9952],[111,-174],[-893,-1255],[-386,-284],[47,-206],[-755,-546],[33,-469],[211,-448],[502,-649],[-33,-236],[320,-168],[1337,-83],[-138,-231],[84,-383],[-612,-329],[-295,-39],[-445,346],[-634,291]],[[7959,5089],[-487,-98],[-248,-237],[184,-386],[-591,-585],[-13,-376],[253,-240],[866,-51],[810,-292],[-318,-292],[-863,-4],[-572,183],[-649,-368],[-224,-449],[-23,-520],[-175,-180],[-801,-226],[-489,-791],[-622,-177],[-176,539],[-1005,185],[-814,-87],[-860,49],[-923,251],[-219,537],[735,862],[751,645],[469,689],[141,714],[320,345],[431,733],[-55,266],[-629,525]]]}
