{"type":"Topology","bbox":[-73.54722053498767,5.577623565886454,-73.53752690494815,5.5901434929961775],"transform":{"scale":[9.694599499471341e-7,0.0000012521179227646148],"translate":[-73.54722053498767,5.577623565886454]},"objects":{"municipios":{"type":"GeometryCollection","geometries":[{"type":"Polygon","arcs":[[0,1,2,3]],"properties":{"codigo":"15638100000000000102","sector":"156381000000000001","pcode":"CO15638","area_m2":181239}},{"type":"Polygon","arcs":[[-1,4]],"properties":{"codigo":"15638100000000000101","sector":"156381000000000001","pcode":"CO15638","area_m2":277601}},{"type":"Polygon","arcs":[[-3,5]],"properties":{"codigo":"15638100000000000103","sector":"156381000000000001","pcode":"CO15638","area_m2":336180}}]}},"arcs":[[[7220,5861],[-883,-604],[-1161,-829],[-37,-57],[-703,-458],[-1241,-908]],[[3195,3005],[-86,-163],[-126,48],[-514,441],[-419,485],[-209,377]],[[1841,4193],[618,369],[1653,1043],[636,416],[1813,1120]],[[6561,7141],[137,-86],[423,213],[767,328],[1442,522],[368,-470],[92,-423],[209,-499],[-1159,-135],[-894,65],[-726,-795]],[[7220,5861],[327,-851],[209,-432],[352,-438],[338,162],[470,115],[688,-448],[-807,-706],[-475,-529],[-166,-433],[-274,-501],[-132,-18],[10,-214],[-105,-158],[-348,-223],[-1072,-445],[-467,-285],[-347,-11],[-72,-327],[-106,-119],[-330,96],[-921,-76],[-106,162],[259,381],[-102,1179],[8,303],[-198,370],[-658,590]],[[1841,4193],[-209,-27],[-140,113],[5,431],[-113,241],[-261,175],[-276,97],[-509,36],[-338,158],[352,274],[13,1322],[560,96],[283,101],[-216,160],[-600,1193],[859,228],[305,-534],[356,217],[477,63],[-349,940],[332,94],[-52,180],[286,41],[628,207],[747,-673],[1486,513],[235,-551],[645,-1350],[427,106],[257,-428],[-81,-171],[-389,-304]]]}
