{"type":"Topology","bbox":[-72.94632129865158,5.854478490749559,-72.9151456793515,5.867227025806573],"transform":{"scale":[0.0000031178737173803437,0.0000012749810038017811],"translate":[-72.94632129865158,5.854478490749559]},"objects":{"municipios":{"type":"GeometryCollection","geometries":[{"type":"Polygon","arcs":[[0]],"properties":{"codigo":"15276200102001000101","sector":"152762001020010001","pcode":"CO15276","area_m2":93746}},{"type":"Polygon","arcs":[[1,2]],"properties":{"codigo":"15276100000000000101","sector":"152761000000000001","pcode":"CO15276","area_m2":310953}},{"type":"Polygon","arcs":[[-2,3]],"properties":{"codigo":"15276100000000000102","sector":"152761000000000001","pcode":"CO15276","area_m2":158179}}]}},"arcs":[[[706,3151],[-3,-290],[154,-587],[16,-187],[205,-319],[71,73],[22,-310],[-164,-332],[32,-120],[-165,-236],[-71,252],[-215,-142],[-10,129],[-276,-138],[-91,280],[-16,240],[-105,180],[-90,258],[128,275],[179,61],[-105,312],[72,136],[-136,303],[159,152],[169,316],[-67,342],[225,471],[163,-383],[-81,-736]],[[9566,431],[-45,125],[-646,2714],[-436,1980]],[[8439,5250],[232,255],[39,-14],[108,403],[-36,102],[166,477],[-117,434],[-207,876],[-17,158],[111,525],[-224,338],[25,174],[93,189],[40,211],[-131,63],[33,454],[120,-177],[10,279],[121,2],[13,-266],[282,-801],[103,-760],[59,-320],[-156,-289],[196,-447],[-128,-307],[-150,-453],[-75,-323],[167,-919],[139,176],[239,482],[116,-639],[45,-6],[69,-624],[102,99],[70,-186],[49,-1551],[21,-277],[-15,-401],[48,-344],[-54,-166],[45,-231],[-60,-872],[-1,-332],[-363,189]],[[9566,431],[-505,-431],[-418,1959],[-183,816],[-207,-286],[-41,50],[-97,427],[-203,-275],[256,982],[-382,680],[324,1135],[118,-514],[211,276]]]}
