{"type":"Topology","bbox":[-73.25007416084651,5.5059930940131006,-73.24004726096086,5.51598180289201],"transform":{"scale":[0.000001002790267591257,9.989707849694205e-7],"translate":[-73.25007416084651,5.5059930940131006]},"objects":{"municipios":{"type":"GeometryCollection","geometries":[{"type":"Polygon","arcs":[[0,1]],"properties":{"codigo":"15740100000000000101","sector":"157401000000000001","pcode":"CO15740","area_m2":215765}},{"type":"Polygon","arcs":[[-1,2]],"properties":{"codigo":"15740100000000000102","sector":"157401000000000001","pcode":"CO15740","area_m2":247617}}]}},"arcs":[[[6591,8622],[-1221,-2052],[-445,-963],[-83,-586],[-610,-646]],[[4232,4375],[-355,-74],[-1478,-1038],[-879,-733],[369,-636],[-1526,-1894],[-363,649],[1074,1708],[338,738],[764,1147],[840,713],[-226,396],[151,693],[-124,446],[28,1019],[-162,653],[1031,841],[214,743],[584,253],[532,-394],[1585,-883],[-38,-100]],[[6591,8622],[528,-351],[532,884],[1109,-701],[322,352],[267,-193],[-608,-389],[-546,-612],[1804,-1056],[-276,-439],[-528,-260],[-451,-775],[185,-386],[-375,-261],[-480,-853],[-1546,992],[-617,-560],[-451,-691],[1185,-852],[-745,-1119],[-1192,843],[-299,-105],[377,1593],[-673,443],[119,249]]]}
