{"type":"Topology","bbox":[-73.4568728982598,5.019580310743415,-73.44832760891927,5.026627421896623],"transform":{"scale":[8.546143954927274e-7,7.047815934801033e-7],"translate":[-73.4568728982598,5.019580310743415]},"objects":{"municipios":{"type":"GeometryCollection","geometries":[{"type":"Polygon","arcs":[[0,1]],"properties":{"codigo":"15778100000000000101","sector":"157781000000000001","pcode":"CO15778","area_m2":174893}},{"type":"Polygon","arcs":[[2,3,-1,4]],"properties":{"codigo":"15778100000000000102","sector":"157781000000000001","pcode":"CO15778","area_m2":138075}},{"type":"Polygon","arcs":[[-3,5]],"properties":{"codigo":"15778100000000000103","sector":"157781000000000001","pcode":"CO15778","area_m2":101327}}]}},"arcs":[[[4719,9684],[-98,-472],[-375,-1454],[-35,-928],[37,-503],[272,-1081],[182,-593],[490,-1168],[337,-1134],[245,-527],[272,-429],[352,-964]],[[6398,431],[-354,-319],[-582,1524],[-424,-216],[-255,4],[-727,350],[-327,-679],[-910,923],[-369,-228],[-291,-48],[-109,71],[-1364,465],[-119,98],[437,134],[71,764],[103,28],[2,926],[35,642],[245,563],[291,294],[-165,313],[-631,427],[-537,201],[-418,-30],[915,1028],[502,-245],[-74,-218],[775,-511],[-59,-80],[692,-118],[152,250],[387,378],[233,412],[44,245],[-64,307],[-321,301],[-334,72],[849,1377],[585,-154],[437,2]],[[6533,7492],[-155,-472],[6,-564],[231,-979],[-118,-88],[-540,-120],[185,-578],[-690,-386],[232,-519],[61,-6],[364,-487],[277,-448],[410,251],[63,-511],[193,-309],[955,503],[58,352],[-184,643],[421,218],[1499,27]],[[9801,4019],[121,-8],[39,-604],[38,-1235],[-502,-295],[-367,728],[-731,-688],[-327,-265],[-449,-167],[-611,-1189],[-184,-296],[-430,431]],[[4719,9684],[259,20],[547,295],[215,-405],[674,-2111],[119,9]],[[6533,7492],[162,249],[307,116],[441,582],[292,218],[350,13],[323,-1517],[94,-552],[301,-238],[-13,-326],[114,-757],[379,297],[428,-1219],[90,-339]]]}
