{"type":"Topology","bbox":[-73.45789980460194,5.54052908888909,-73.45133532809257,5.5495706879378535],"transform":{"scale":[6.565133022670246e-7,9.042503299093247e-7],"translate":[-73.45789980460194,5.54052908888909]},"objects":{"municipios":{"type":"GeometryCollection","geometries":[{"type":"Polygon","arcs":[[0,1]],"properties":{"codigo":"15224100000000000101","sector":"152241000000000001","pcode":"CO15224","area_m2":174646}},{"type":"Polygon","arcs":[[2,-1]],"properties":{"codigo":"15224100000000000102","sector":"152241000000000001","pcode":"CO15224","area_m2":167420}}]}},"arcs":[[[8423,5749],[-483,150],[-510,-101],[-405,-155],[-349,-42],[-793,-556],[224,-211],[-1059,-547],[427,-480],[-1969,-1310]],[[3506,2497],[-515,284],[-571,356],[-239,88],[-1074,619],[-1107,603],[1424,1234],[-147,95],[802,849],[261,37],[289,231],[19,151],[-185,337],[-224,216],[339,143],[831,277],[-219,351],[-128,794],[-114,316],[826,374],[266,147],[114,-672],[120,-1029],[109,-581],[448,189],[85,-290],[-73,-182],[222,-594],[-519,-232],[172,-117],[481,-147],[83,138],[1227,47],[248,-42],[524,365],[209,74],[210,-292],[-36,-483],[154,176],[-11,219],[905,251],[179,-126],[278,-49],[168,-242],[-159,-217],[-183,-10],[-393,-350],[-179,-54]],[[8423,5749],[425,0],[649,-89],[135,-271],[-172,-283],[-18,-318],[-127,-337],[130,-122],[-262,-440],[335,-345],[-8,-70],[246,-245],[-581,-236],[295,-359],[2,-281],[-463,-203],[333,-328],[657,-25],[-731,-650],[279,-362],[-189,33],[-367,311],[-314,-41],[-261,-244],[-351,-39],[-653,137],[-227,-10],[-433,-292],[-96,-211],[7,-222],[-124,-187],[-565,80],[-421,734],[-257,338],[-285,-7],[-363,-162],[-352,34],[-345,264],[119,81],[-298,222],[-99,201],[-167,692]]]}
