{"type":"Topology","bbox":[-73.4607796700522,5.351036424493283,-73.45242491263696,5.3598649789194805],"transform":{"scale":[8.355592974545059e-7,8.82943736993467e-7],"translate":[-73.4607796700522,5.351036424493283]},"objects":{"municipios":{"type":"GeometryCollection","geometries":[{"type":"Polygon","arcs":[[0,1,2]],"properties":{"codigo":"15494100000000000103","sector":"154941000000000001","pcode":"CO15494","area_m2":137646}},{"type":"Polygon","arcs":[[-2,3,4]],"properties":{"codigo":"15494100000000000101","sector":"154941000000000001","pcode":"CO15494","area_m2":186650}},{"type":"Polygon","arcs":[[5,-4,-1]],"properties":{"codigo":"15494100000000000102","sector":"154941000000000001","pcode":"CO15494","area_m2":105720}}]}},"arcs":[[[3856,1407],[690,265],[631,625],[213,808],[-1067,1632]],[[4323,4737],[601,388],[180,330],[623,573],[985,447],[433,360]],[[7145,6835],[1127,-1194],[507,-965],[-1710,-820],[1026,-1150],[-1112,-682],[-1427,-829],[400,-1181],[-522,186],[-254,-151],[-1324,1358]],[[4323,4737],[-758,-379],[-313,-8],[-1892,-454],[-500,-189]],[[860,3707],[73,371],[540,950],[-483,152],[-5,279],[-540,0],[-53,500],[994,53],[14,647],[-425,104],[230,697],[1482,-177],[678,103],[244,-602],[757,93],[-10,70],[1358,911],[1085,654],[-215,246],[0,335],[509,456],[208,-83],[317,-457],[371,9],[-121,215],[1471,766],[265,-356],[395,-338],[-333,-519],[-466,-552],[-794,-690],[-1170,-616],[-91,-93]],[[3856,1407],[-388,-80],[-26,688],[-114,-52],[-1208,-24],[-451,-105],[-602,-299],[-362,-68],[-549,270],[428,492],[-112,98],[-472,1106],[860,274]]]}
