{"type":"Topology","bbox":[-72.12337877571963,6.965280271788552,-71.97717306408526,7.015372686907286],"transform":{"scale":[0.000014622033366773257,0.000005009742486122042],"translate":[-72.12337877571963,6.965280271788552]},"objects":{"municipios":{"type":"GeometryCollection","geometries":[{"type":"Polygon","arcs":[[0]],"properties":{"codigo":"15223200103011000101","sector":"152232001030110001","pcode":"CO15223","area_m2":113261}},{"type":"Polygon","arcs":[[1,2,3,4]],"properties":{"codigo":"15223100000000000101","sector":"152231000000000001","pcode":"CO15223","area_m2":242094}},{"type":"MultiPolygon","arcs":[[[-4,5]],[[6]]],"properties":{"codigo":"15223100000000000102","sector":"152231000000000001","pcode":"CO15223","area_m2":285727}},{"type":"Polygon","arcs":[[7,-2]],"properties":{"codigo":"15223100000000000103","sector":"152231000000000001","pcode":"CO15223","area_m2":484336}},{"type":"Polygon","arcs":[[8]],"properties":{"codigo":"15223200203005000101","sector":"152232002030050001","pcode":"CO15223","area_m2":94853}},{"type":"Polygon","arcs":[[9]],"properties":{"codigo":"15223200301012000101","sector":"152232003010120001","pcode":"CO15223","area_m2":57728}}]}},"arcs":[[[123,9825],[24,50],[17,-88],[-44,-160],[24,-115],[23,51],[26,-72],[13,41],[44,-104],[-27,-69],[23,-80],[-13,-49],[97,-423],[-16,-28],[-14,85],[-48,-87],[17,-77],[-23,-35],[-36,82],[-60,242],[0,244],[-14,106],[-23,34],[-16,-94],[-27,-13],[-70,165],[16,37],[41,-81],[39,6],[17,194],[-68,209],[22,50],[12,136],[41,-3],[3,-154]],[[1096,6432],[-91,-202],[-14,9]],[[991,6239],[-257,403],[-34,31],[95,548],[86,279]],[[881,7500],[150,-508],[39,-192]],[[1070,6800],[-30,-109],[16,-97],[38,-62],[2,-100]],[[881,7500],[107,265],[43,138],[38,200],[64,-40],[47,-167],[64,83],[55,-143],[-51,-233],[-17,-126],[10,-38],[-44,-90],[32,-188],[15,73],[13,-57],[48,33],[-6,-95],[-57,-35],[-44,-143],[-59,-55],[-41,20],[-28,-102]],[[1470,7385],[-17,-119],[-45,96],[-26,-45],[-18,60],[17,47],[20,-43],[49,201],[18,-48],[-16,-49],[18,-100]],[[1096,6432],[84,-128],[15,-57],[-19,-47],[55,-365],[141,-232],[-78,-369],[-109,-589],[-61,-1],[-29,186],[-38,65],[-95,85],[-54,70],[-27,111],[-10,171],[18,48],[-5,273],[-13,203],[24,126],[47,156],[49,101]],[[6876,9127],[47,61],[49,-33],[-1,-106],[-20,-99],[124,-264],[-21,-121],[28,-200],[-67,125],[-181,364],[-69,86],[13,143],[29,-55],[16,78],[20,203],[33,-182]],[[9777,739],[44,-202],[22,57],[25,-66],[4,-130],[127,-65],[-25,-191],[-23,36],[5,82],[-87,72],[-30,-332],[-18,27],[29,280],[-46,146],[17,43],[-40,203],[-55,-66],[-52,244],[-14,172],[29,145],[88,-455]]]}
