{"type":"Topology","bbox":[-72.69524898980461,6.4121457745955475,-72.68599573133628,6.427059176652246],"transform":{"scale":[9.254183886722697e-7,0.0000014914893546052717],"translate":[-72.69524898980461,6.4121457745955475]},"objects":{"municipios":{"type":"GeometryCollection","geometries":[{"type":"Polygon","arcs":[[0,1]],"properties":{"codigo":"15810100000000000101","sector":"158101000000000001","pcode":"CO15810","area_m2":142717}},{"type":"Polygon","arcs":[[-1,2]],"properties":{"codigo":"15810100000000000102","sector":"158101000000000001","pcode":"CO15810","area_m2":321111}},{"type":"Polygon","arcs":[[3]],"properties":{"codigo":"15810200101005000101","sector":"158102001010050001","pcode":"CO15810","area_m2":76380}}]}},"arcs":[[[4930,6957],[-316,31],[210,-644],[-363,-245],[-91,-278],[-1039,198],[-858,341],[264,501],[-495,112]],[[2242,6973],[43,549],[190,419],[-310,83],[176,206],[-363,588],[-980,206],[41,376],[643,265],[772,-152],[613,29],[-22,-225],[828,-416],[109,-270],[590,-267],[-215,-357],[466,-208],[684,-106],[-8,-425],[-569,-311]],[[4930,6957],[489,-111],[-19,-446],[759,-406],[-581,-247],[-485,59],[-1073,-740],[-1002,-265],[181,-415],[-424,-495],[-180,-426],[886,-131],[536,-677],[455,-195],[1733,-87],[384,-160],[473,-639],[228,56],[231,476],[281,64],[1028,-159],[-112,-488],[257,-1243],[-802,-272],[-552,13],[-176,420],[-570,107],[-7,542],[-541,34],[-116,274],[-469,81],[-483,-133],[-440,91],[-359,234],[-849,-70],[-169,-126],[-346,202],[376,405],[-179,236],[-1002,-679],[-505,259],[-526,-156],[-279,186],[-73,334],[-264,284],[1098,555],[176,223],[-65,318],[-1032,429],[-574,-393],[-190,305],[934,462],[30,232],[-276,307],[392,881],[584,239],[89,351],[432,516]],[[9188,9920],[400,-938],[408,-155],[-952,-270],[-143,134],[-873,-121],[-567,44],[-432,295],[-1198,-553],[-737,398],[362,451],[430,143],[257,251],[338,81],[503,-80],[562,83],[74,232],[1568,5]]]}
