{"type":"Topology","bbox":[-73.64028413042848,5.518500522852273,-73.60354944336092,5.543468091379845],"transform":{"scale":[0.000003673836090365503,0.0000024970065534125283],"translate":[-73.64028413042848,5.518500522852273]},"objects":{"municipios":{"type":"GeometryCollection","geometries":[{"type":"Polygon","arcs":[[0]],"properties":{"codigo":"15600200203002000101","sector":"156002002030020001","pcode":"CO15600","area_m2":99845}},{"type":"Polygon","arcs":[[1,2]],"properties":{"codigo":"15600100000000000101","sector":"156001000000000001","pcode":"CO15600","area_m2":246862}},{"type":"Polygon","arcs":[[-2,3]],"properties":{"codigo":"15600100000000000102","sector":"156001000000000001","pcode":"CO15600","area_m2":396084}}]}},"arcs":[[[9734,1864],[155,-184],[81,-52],[-8,-315],[-21,-56],[58,-77],[-18,-63],[-185,-122],[24,-79],[-49,-29],[-70,-276],[59,-61],[-35,-96],[168,-142],[-64,-312],[-258,113],[-71,56],[-91,203],[-36,-21],[-59,184],[-77,134],[-40,149],[36,119],[85,-9],[23,177],[-18,212],[-100,223],[58,17],[194,156],[52,114],[27,-62],[32,-241],[18,119],[91,204],[39,17]],[[1484,8387],[61,-425],[421,93],[14,-263],[270,25],[217,-3],[192,30],[203,88]],[[2862,7932],[-30,-202],[18,-106],[-102,-50],[0,-82],[-94,46],[-122,-191],[-37,72],[-76,-129],[-93,36],[-83,-72],[3,-214],[-25,-104],[-64,-93],[-100,-61],[-113,35],[-108,114],[-51,364],[-134,34],[-79,-249],[-79,40],[-303,-115],[-68,-45],[-78,-125],[-12,-83],[-90,-79],[-107,230],[-39,197],[-101,6],[-154,-50],[-201,20],[-154,-11],[-9,-252],[-61,56],[-106,5],[-10,85],[106,48],[38,94],[-33,167],[71,-6],[215,155],[-42,83],[85,83],[-9,251],[44,128],[45,-40],[4,103],[111,-104],[61,102],[190,42],[175,-143],[51,-90],[25,136],[130,105],[6,94],[179,215],[32,5]],[[1484,8387],[-217,805],[373,-122],[95,641],[131,-133],[49,-188],[64,58],[-62,156],[-109,186],[53,140],[95,-49],[56,118],[122,-108],[66,-104],[28,-249],[124,-6],[122,44],[391,18],[135,-76],[23,-83],[115,-36],[50,-79],[130,-1],[76,-179],[137,-72],[47,-55],[103,22],[167,-80],[1,-182],[84,-137],[68,-57],[30,-192],[-151,101],[46,-417],[-124,51],[-170,-5],[-249,179],[-139,-17],[-150,-104],[33,-150],[-139,9],[-82,-30],[-44,-72]]]}
