{"type":"Topology","bbox":[-74.78413727569682,5.294458328653364,-74.64927163934487,5.770023315605559],"transform":{"scale":[0.000013487912426437314,0.00004756125482070157],"translate":[-74.78413727569682,5.294458328653364]},"objects":{"municipios":{"type":"GeometryCollection","geometries":[{"type":"Polygon","arcs":[[0,1,2,3]]},{"type":"Polygon","arcs":[[4,5,6,7,8]]},{"type":"Polygon","arcs":[[9]]},{"type":"Polygon","arcs":[[10,11,12,13]]},{"type":"Polygon","arcs":[[14,-7,15]]},{"type":"Polygon","arcs":[[16,-5,17,18,19]]},{"type":"Polygon","arcs":[[20,21,-13,22]]},{"type":"Polygon","arcs":[[23,24]]},{"type":"Polygon","arcs":[[25]]},{"type":"MultiPolygon","arcs":[[[26]],[[27]],[[28]],[[29]],[[30]],[[31]]]},{"type":"Polygon","arcs":[[32,33,34]]},{"type":"Polygon","arcs":[[35]]},{"type":"Polygon","arcs":[[36,37,38,39,-3]]},{"type":"Polygon","arcs":[[40,-37,-2,41,42,43]]},{"type":"Polygon","arcs":[[44,45,46,47,48]]},{"type":"Polygon","arcs":[[49,50,51,52,-44,53,54]]},{"type":"Polygon","arcs":[[55,56]]},{"type":"Polygon","arcs":[[-56,57]]},{"type":"Polygon","arcs":[[58]]},{"type":"Polygon","arcs":[[59,60,61,62,63,64]]},{"type":"Polygon","arcs":[[-42,-1,65,66]]},{"type":"Polygon","arcs":[[-48,67,68,69]]},{"type":"Polygon","arcs":[[70,71,72,73,74]]},{"type":"Polygon","arcs":[[75,-33,76,77,78,-55,79]]},{"type":"Polygon","arcs":[[80,81,-8,-15,82,83,84,85,86,87]]},{"type":"Polygon","arcs":[[88,89,90,91,-39]]},{"type":"Polygon","arcs":[[92,93,-66,-4,-40,-92,94,95]]},{"type":"Polygon","arcs":[[-85,96]]},{"type":"Polygon","arcs":[[97,98,99,-60]]},{"type":"Polygon","arcs":[[100,101,102]]},{"type":"Polygon","arcs":[[103,-64,104,105,-73]]},{"type":"Polygon","arcs":[[106,107,108,109,110]]},{"type":"Polygon","arcs":[[111,112]]},{"type":"Polygon","arcs":[[113,114,-88,115]]},{"type":"Polygon","arcs":[[116,-102,117,118,-81,-115,119]]},{"type":"Polygon","arcs":[[120,-77,-35,121,-68,-47]]},{"type":"Polygon","arcs":[[-101,122,-111,123,124,125,-118]]},{"type":"Polygon","arcs":[[-126,126,-18,-9,-82,-119]]},{"type":"Polygon","arcs":[[-6,-17,127,-11,128,129,-83,-16]]},{"type":"Polygon","arcs":[[130,-49,-70,131,132,133]]},{"type":"Polygon","arcs":[[134,135,-21,136,-19,-127,-125,137]]},{"type":"Polygon","arcs":[[-23,-12,-128,-20,-137]]},{"type":"Polygon","arcs":[[-105,-63,138,139,140]]},{"type":"Polygon","arcs":[[141]]},{"type":"Polygon","arcs":[[-139,-62,142,143,144]]},{"type":"Polygon","arcs":[[145,146,-45,-131]]},{"type":"Polygon","arcs":[[-110,147,-138,-124]]},{"type":"Polygon","arcs":[[148,-75,149,-95,-91]]},{"type":"Polygon","arcs":[[150,-50,-79,151,-52]]},{"type":"Polygon","arcs":[[-122,-34,-76,152,-93,153,-132,-69]]},{"type":"Polygon","arcs":[[-116,-87,154]]},{"type":"Polygon","arcs":[[-104,-72,155,-98,-65]]},{"type":"Polygon","arcs":[[-80,-54,-43,-67,-94,-153]]},{"type":"Polygon","arcs":[[-143,-61,-100,156]]},{"type":"Polygon","arcs":[[-145,-107,-123,-103,-117,157,-140]]},{"type":"Polygon","arcs":[[-108,-144,-157,-99,-156,-71,-149,-90,158]]},{"type":"Polygon","arcs":[[-22,-136,159,-112,160,-129,-14]]},{"type":"Polygon","arcs":[[-146,-134,161]]},{"type":"MultiPolygon","arcs":[[[162]],[[-25,163]]]},{"type":"MultiPolygon","arcs":[[[164]],[[165]]]}]}},"arcs":[[[9066,3328],[-33,-5],[-301,-31]],[[8732,3292],[-109,-11],[-225,-23],[-27,0]],[[8371,3258],[-19,15]],[[8352,3273],[180,18],[468,48],[48,4],[18,-15]],[[8035,3838],[-40,-7]],[[7995,3831],[-49,-3],[-27,9]],[[7919,3837],[138,34],[2,5]],[[8059,3876],[69,18]],[[8128,3894],[82,-29],[-64,-17],[-33,10],[-82,-20],[4,0]],[[3116,24],[9,-11],[-188,-13],[-6,8],[47,3],[-8,11],[138,10],[8,-8]],[[7757,3841],[159,-52],[11,-2]],[[7927,3787],[-31,-7]],[[7896,3780],[-33,-8]],[[7863,3772],[-17,2],[-58,19],[-41,21],[-16,13],[26,14]],[[7970,3881],[60,-6],[29,1]],[[7919,3837],[-44,-10],[-25,8],[8,9],[50,29],[24,5],[33,-1],[5,4]],[[7968,3813],[27,18]],[[8035,3838],[17,-2],[22,5],[41,-9],[-45,-11],[121,-39]],[[8191,3782],[-82,-15]],[[8109,3767],[-61,21],[-80,25]],[[7993,3747],[-92,-15]],[[7901,3732],[-3,19],[-9,14],[-26,7]],[[7896,3780],[97,-33]],[[8201,9894],[1,-2],[-47,-17],[-52,24],[-20,-2],[-15,9],[-34,-7],[-56,-17],[-12,3],[-36,-16],[-10,3],[158,87]],[[8078,9959],[21,-5],[-22,-10],[59,-16],[-28,-9],[93,-25]],[[7122,2453],[23,0],[-19,-12],[23,-8],[-11,-4],[-32,5],[1,-10],[47,-23],[-56,-9],[-55,24],[-21,6],[-56,7],[4,7],[-38,5],[47,7],[52,30],[-27,-2],[13,8],[55,-8],[-12,-8],[50,-6],[27,16],[32,26],[14,18],[-6,0],[65,29],[15,12],[-17,21],[2,17],[12,0],[-5,-18],[17,-17],[6,-12],[-20,-8],[3,-8],[-16,2],[-17,-8],[-31,-9],[-23,-28],[9,-2],[-14,-14],[-29,-14],[10,-11],[-22,-1]],[[4415,9208],[18,4],[9,-8],[-8,-22],[10,-8],[10,-27],[-8,-8],[35,-4],[10,-21],[31,-13],[12,-14],[-15,-15],[-58,11],[-35,4],[-9,31],[-4,28],[-20,15],[0,26],[-17,26],[27,3],[12,-8]],[[4174,8674],[-26,5],[33,8],[-7,-13]],[[4196,8739],[17,1],[9,-7],[-15,-15],[-2,-19],[-33,-4],[7,15],[-7,3],[9,12],[10,0],[5,14]],[[4164,8777],[24,-1],[-13,-17],[-44,10],[3,13],[30,-5]],[[4485,9204],[-22,3],[-7,6],[31,-4],[-2,-5]],[[4466,9231],[-17,0],[-1,13],[18,-1],[0,-12]],[[8848,3151],[-110,43]],[[8738,3194],[141,30],[27,-11]],[[8906,3213],[79,-35],[-137,-27]],[[3382,461],[12,-1],[10,-20],[56,2],[13,-3],[-8,-20],[-17,-5],[-26,1],[10,-18],[7,0],[43,-51],[37,-47],[6,-28],[-2,-9],[-13,19],[-10,5],[-23,34],[-4,12],[-24,1],[4,8],[-20,34],[-21,26],[-16,11],[-20,3],[-47,12],[-55,9],[-12,6],[24,4],[48,-9],[29,3],[-24,50],[21,1],[0,-8],[22,-22]],[[8371,3258],[-48,1],[-86,-4]],[[8237,3255],[-29,27]],[[8208,3282],[126,7]],[[8334,3289],[18,-16]],[[8263,3230],[-26,25]],[[8732,3292],[18,-13]],[[8750,3279],[-121,-13]],[[8629,3266],[-195,-19],[-107,-11],[-64,-6]],[[9236,3115],[-119,-22]],[[9117,3093],[-46,5]],[[9071,3098],[-44,27],[-29,2],[-52,10],[161,32]],[[9107,3169],[58,-24]],[[9165,3145],[71,-30]],[[8502,3207],[-52,-10],[-93,-4],[-31,2],[-22,-3]],[[8304,3192],[-22,1]],[[8282,3193],[-47,-6],[-51,-2],[6,25],[-69,2]],[[8121,3212],[27,14],[114,0],[1,4]],[[8629,3266],[26,-21]],[[8655,3245],[-28,-6],[-125,-32]],[[3652,1064],[-96,-26],[-50,-24],[-70,-38]],[[3436,976],[-149,26],[-28,-17],[12,-2],[-41,-23],[-100,11],[45,27],[46,-5],[15,11],[46,-6],[4,4],[-26,6],[74,53],[-19,3],[24,13],[63,-9],[8,6],[102,-15],[8,1],[1,17],[-14,37],[-2,25],[-8,11],[61,21],[15,-4],[26,11],[9,-9],[23,-4],[-13,-5],[87,-18],[-110,-46],[34,-8],[26,0],[32,-10],[-35,-14]],[[3652,1064],[4,-4],[-57,-25],[22,-3],[-5,-12],[50,13],[1,-6],[-24,-13],[-13,-27],[23,-8],[8,-11],[-12,-11],[-26,-7],[1,-9],[-41,1],[-9,8],[-106,2],[-8,-9],[-27,1],[-25,-8],[-26,3],[-39,-22],[-23,-17],[-8,1],[-13,-14],[-50,4],[10,14],[34,-3],[32,23],[111,51]],[[199,7315],[-67,-2],[6,-6],[57,-11],[-14,-30],[-21,-20],[-18,-6],[-47,-5],[-45,10],[-6,-9],[-14,11],[-30,2],[19,8],[61,16],[11,7],[-36,16],[-4,18],[24,16],[10,14],[93,52],[41,6],[64,-8],[21,-8],[69,-8],[-86,-22],[-15,-9],[-7,-11],[-31,-7],[-35,-14]],[[8406,3394],[-19,15],[-63,-7],[-21,16],[20,3]],[[8323,3421],[160,18]],[[8483,3439],[67,10],[110,8],[60,6]],[[8720,3463],[25,-16]],[[8745,3447],[20,-17],[-119,-13]],[[8646,3417],[-103,-11],[-137,-12]],[[9066,3328],[19,-15],[2,-9]],[[9087,3304],[1,-8],[-19,-4],[-297,-31],[-22,18]],[[9107,3169],[27,5],[-136,57]],[[8998,3231],[37,13],[98,19]],[[9133,3263],[11,-11],[179,-73],[-38,-6],[-93,-21],[-27,-7]],[[8172,3311],[-18,18]],[[8154,3329],[295,31],[301,30]],[[8750,3390],[223,22],[13,2],[82,8]],[[9068,3422],[17,-18]],[[9085,3404],[-230,-22],[-80,-9],[-401,-41],[-202,-21]],[[8709,3206],[29,-12]],[[8848,3151],[-30,-7],[-30,-16]],[[8788,3128],[-113,5],[-110,-6]],[[8565,3127],[-2,21],[-10,25],[16,4],[-67,30]],[[8655,3245],[51,-39],[3,0]],[[8302,3918],[27,-31],[4,-20]],[[8333,3867],[-55,10],[-67,21],[-24,3],[-34,-1],[-25,-6]],[[7970,3881],[-64,5],[-136,16]],[[7770,3902],[5,2]],[[7775,3904],[34,4],[59,0],[45,6],[37,13],[7,11],[19,10]],[[7976,3948],[29,6],[43,4],[43,0],[61,9],[5,14],[-28,-1],[-19,7],[-35,16],[108,11]],[[8183,4014],[10,-22]],[[8193,3992],[11,-14],[49,-23],[49,-37]],[[8208,3282],[-1,1]],[[8207,3283],[-13,10]],[[8194,3293],[122,12],[79,9],[183,18],[64,8],[363,37]],[[9005,3377],[22,-17],[-102,-9],[-225,-23],[-123,-15],[-135,-14],[-108,-10]],[[9170,3297],[-42,1],[-31,-2]],[[9097,3296],[-10,8]],[[9005,3377],[95,11]],[[9100,3388],[60,-66],[10,-25]],[[7775,3904],[-155,21],[-74,3],[39,29],[65,-2],[149,16],[72,-8],[10,3],[-559,209],[-218,87],[-40,43],[-20,46],[-78,120],[-19,27],[-255,-2],[-1,29],[245,0],[16,2],[12,-11],[43,-58],[57,-42],[95,-74],[-43,0],[28,-28],[12,-26],[18,-17],[24,-13],[375,-142],[47,8],[219,0],[62,-24],[6,-9],[-28,-12],[-14,-10],[17,-23],[22,-10],[-37,5],[-95,27],[-66,-2],[255,-97],[13,-5],[-18,-4],[20,-12]],[[8406,3394],[-153,-14],[-81,-8],[-42,-2]],[[8130,3370],[16,32],[18,11],[25,7],[104,22]],[[8293,3442],[30,-21]],[[8589,3774],[-103,38]],[[8486,3812],[126,21],[51,-35],[18,-7]],[[8681,3791],[-92,-17]],[[8750,3390],[-23,16],[-59,-5],[-22,16]],[[8745,3447],[118,11],[80,9],[87,6]],[[9030,3473],[7,-12],[31,-39]],[[8627,3591],[5,-34],[-8,-13],[-134,-58]],[[8490,3486],[-23,2]],[[8467,3488],[127,56],[17,15],[-22,43],[-20,5],[2,16],[13,1],[-11,43],[-4,2],[-37,-13],[-26,-1],[3,8],[-58,7],[-35,14],[-54,50],[3,1]],[[8365,3735],[84,15]],[[8449,3750],[68,-20],[68,-32],[12,-24],[14,-44],[16,-39]],[[7757,3852],[-45,-22],[0,-6],[-159,-26],[-27,-3],[-41,2],[-24,7],[-34,-6],[-8,-6],[0,-21],[-78,2]],[[7341,3773],[-11,2],[-44,20],[29,12],[-6,9],[-37,5],[-6,4],[13,12],[5,14],[19,10],[25,8],[22,19],[5,12],[-5,18],[45,0],[35,2],[-7,-19],[34,-8],[58,-3],[242,-38]],[[8371,3995],[19,-18]],[[8390,3977],[41,-15],[14,-11],[12,2],[77,-35],[27,-21],[-3,-5],[22,-11],[0,-9],[25,-17],[-23,-4],[-28,30],[-25,15],[-14,18],[-12,7],[-201,-3]],[[8193,3992],[102,3],[76,0]],[[8813,3799],[-91,-4],[-41,-4]],[[8486,3812],[-90,29]],[[8396,3841],[-53,19],[-10,7]],[[8390,3977],[48,9],[158,44],[15,3],[105,-13],[62,-48],[14,-46],[16,-120],[5,-7]],[[9071,3098],[-127,17],[-156,13]],[[8906,3213],[92,18]],[[8589,3774],[40,-21],[23,-7],[99,-51],[-8,-5],[-5,-15],[8,-4],[-37,-10],[-12,-18],[14,-8],[-70,-34],[-14,-10]],[[8449,3750],[-127,40]],[[8322,3790],[-31,9]],[[8291,3799],[-29,10],[86,20],[48,12]],[[8291,3799],[-100,-17]],[[7968,3813],[-41,-26]],[[7757,3841],[12,9]],[[7769,3850],[9,5],[-19,2],[-16,13],[-23,12],[-5,14],[10,13],[45,-7]],[[9477,3143],[-28,3],[-37,-3],[-25,9],[-114,-23],[12,-5],[-49,-9]],[[9133,3263],[-2,3],[72,7]],[[9203,3273],[33,-19],[77,-18],[153,-21],[78,-9]],[[9544,3206],[-26,-23],[-25,-16],[11,-12],[-27,-12]],[[8204,3768],[-13,4],[-84,-15],[-9,1],[-66,-11],[-10,-11],[-74,-14],[-19,-2],[-43,5],[3,2]],[[7889,3727],[12,5]],[[7993,3747],[116,20]],[[8322,3790],[-118,-22]],[[8720,3463],[-5,3]],[[8715,3466],[23,7],[10,15],[-5,18],[10,7],[41,4],[4,17],[-3,26],[12,2],[25,41],[4,18],[-12,11],[-21,5],[-22,19],[1,10],[21,8],[24,3],[92,8]],[[8919,3685],[25,-19],[48,-67],[6,-48],[-2,-20],[34,-58]],[[7710,3050],[21,-2],[53,1],[10,-4],[5,-20],[-12,-38],[-16,-22],[-13,-10],[-6,-26],[-7,-11],[-50,4],[-5,-7],[64,-3],[-6,-13],[8,-29],[-47,-14],[-76,3],[35,35],[-82,7],[23,25],[-48,3],[37,18],[65,26],[79,-6],[13,18],[8,25],[-72,-4],[-18,12],[2,17],[35,15]],[[8483,3439],[-28,18],[-59,-6],[1,8]],[[8397,3459],[57,12],[36,15]],[[8490,3486],[27,-7],[27,-2],[64,0],[22,-10],[85,-1]],[[9477,3143],[34,-12],[-46,-11],[24,-10],[-46,-9],[17,-8],[-8,-3],[0,-23]],[[9452,3067],[-162,8],[-173,18]],[[8365,3735],[-28,5],[-27,7],[-22,-9],[-29,13],[-55,17]],[[8194,3293],[-22,18]],[[9085,3404],[15,-16]],[[8282,3193],[22,-1]],[[8565,3127],[-69,-3],[-113,-16],[-163,-31],[-167,-36],[-168,5],[-26,-3],[-32,2],[-34,15],[16,16],[40,31],[-43,4],[28,31],[64,24],[36,11],[91,16],[74,7],[1,8],[21,4]],[[8709,3206],[120,24],[54,15],[12,-5],[150,30],[38,9],[-9,3],[23,14]],[[9170,3297],[33,-24]],[[8183,4014],[-42,17],[-55,11],[6,9],[136,10],[3,3],[49,4],[29,-25],[11,-2],[16,-25],[25,-11],[0,-10],[10,0]],[[8154,3329],[-27,26],[3,15]],[[8293,3442],[68,12],[-24,6],[32,9],[-2,-6],[30,-4]],[[8813,3799],[47,-66],[59,-48]],[[8207,3283],[-103,4],[-33,5],[-21,8],[-9,13],[-15,6],[43,14],[-21,6],[2,8],[-32,3],[-2,7],[37,10],[51,-2],[8,24],[-17,4],[24,6],[35,22],[28,6],[-20,2],[31,9],[11,8],[20,-1],[73,3],[13,8],[27,8],[11,6],[-30,5],[-3,18],[13,5],[58,0],[35,-7],[46,-3]],[[7889,3727],[-5,2],[-80,-14],[-39,-5],[-28,-7],[-30,-1],[-40,-7],[-14,-11],[-46,8],[-54,6],[5,11],[-11,11],[-23,3],[8,14],[-20,7],[0,7],[-37,-6],[-63,-3],[-48,8],[-23,23]],[[7757,3852],[12,-2]],[[9544,3206],[95,-11],[98,-9],[77,-5],[138,-1],[27,-4],[16,-10],[4,-10],[-11,-19],[5,-15],[-127,-42],[-101,-14],[-157,-7],[-156,8]],[[8313,9981],[-32,4],[10,5],[22,-9]],[[8078,9959],[73,40],[120,-20],[-9,-5],[25,-8],[-9,-15],[67,-16],[-25,-10],[-36,10],[-17,-11],[-66,-30]],[[9483,7680],[4,-8],[16,1],[16,-33],[11,-8],[-2,-28],[-15,0],[-12,35],[-16,2],[-4,11],[-35,11],[18,4],[-3,13],[22,0]],[[9472,7715],[13,2],[11,-14],[-50,-3],[10,7],[-10,9],[26,-1]]]}
