{"type":"Topology","bbox":[-75.70229715339195,4.930612706583499,-75.5927673699756,5.001937622557745],"transform":{"scale":[0.00001095407374900979,0.000007133204917916342],"translate":[-75.70229715339195,4.930612706583499]},"objects":{"municipios":{"type":"GeometryCollection","geometries":[{"type":"Polygon","arcs":[[0,1,2,3]]},{"type":"Polygon","arcs":[[4,5,6,7,-1,8]]},{"type":"Polygon","arcs":[[9,10,11,12,13,-8]]},{"type":"Polygon","arcs":[[-2,-14,14,15,16]]},{"type":"Polygon","arcs":[[17]]},{"type":"Polygon","arcs":[[18,19,20,-6,21]]},{"type":"Polygon","arcs":[[22]]},{"type":"Polygon","arcs":[[23,-10,-7,-21]]},{"type":"Polygon","arcs":[[24,-22,-5,25,26]]},{"type":"Polygon","arcs":[[27,28,29,30,31,-12,32]]},{"type":"Polygon","arcs":[[33,34,35,36,-29,37]]},{"type":"Polygon","arcs":[[38]]},{"type":"Polygon","arcs":[[39]]},{"type":"Polygon","arcs":[[40]]},{"type":"Polygon","arcs":[[41]]},{"type":"Polygon","arcs":[[-32,42,43,-15,-13]]},{"type":"Polygon","arcs":[[-16,-44,44,45,46]]},{"type":"Polygon","arcs":[[47,-26,-9,-4,48,49]]},{"type":"Polygon","arcs":[[-3,-17,-47,50,-49]]},{"type":"Polygon","arcs":[[51,52,53,-36,54]]},{"type":"Polygon","arcs":[[-43,-31,55,56,-45]]},{"type":"Polygon","arcs":[[-37,-54,57,58,-56,-30]]},{"type":"Polygon","arcs":[[59,60,-33,-11,-24,-20,61]]},{"type":"Polygon","arcs":[[-61,62,-38,-28]]},{"type":"Polygon","arcs":[[63,-55,-35]]},{"type":"Polygon","arcs":[[64,-58,-53]]},{"type":"Polygon","arcs":[[65,-27,-48,66]]},{"type":"Polygon","arcs":[[67,-62,-19,-25,-66]]},{"type":"MultiPolygon","arcs":[[[68]],[[69]],[[70]],[[71]],[[72]]]},{"type":"Polygon","arcs":[[73]]}]}},"arcs":[[[8757,7968],[-42,-193],[-35,-156]],[[8680,7619],[-120,71],[-72,45]],[[8488,7735],[73,341]],[[8561,8076],[32,-33],[164,-75]],[[8780,7954],[76,-42],[142,-84],[74,-40]],[[9072,7788],[-17,-73],[-26,-123],[-5,-33]],[[9024,7559],[-25,-109]],[[8999,7450],[-6,-1],[-151,81],[-162,89]],[[8757,7968],[23,-14]],[[8999,7450],[-9,-31],[-43,-191]],[[8947,7228],[-6,-26]],[[8941,7202],[-20,-87]],[[8921,7115],[-77,42],[-65,38],[-51,26],[-96,53],[11,58],[-10,34],[0,31]],[[8633,7397],[6,36],[41,186]],[[8633,7397],[-121,66]],[[8512,7463],[-145,79],[12,56],[-54,33],[-31,10],[-95,55],[-52,33]],[[8147,7729],[25,93],[72,-43],[8,21],[36,-32],[59,113],[93,-111],[19,-18],[29,-17]],[[4668,6641],[7,-14],[-54,-52],[-5,13],[-45,-49],[3,-6],[-40,-41],[-5,-21],[-84,-15],[-41,27],[-39,20],[-5,-21],[-24,12],[4,21],[-8,12],[5,19],[86,-64],[27,-4],[72,17],[48,45],[26,33],[-4,27],[16,13],[1,23],[10,-1],[12,-29],[37,35]],[[9353,7584],[48,-28],[26,4],[-20,-81],[154,-83]],[[9561,7396],[-15,-24],[-21,-8],[-48,-3],[-62,-17]],[[9415,7344],[6,23],[-43,2],[-205,108],[-149,82]],[[9072,7788],[68,-36],[139,-79],[10,-12],[-7,-38],[71,-39]],[[9224,90],[34,-22],[22,0],[2,22],[43,-9],[-1,-37],[-40,-4],[-9,-34],[-32,7],[-2,-13],[-23,21],[-3,45],[-17,10],[4,29],[22,-15]],[[9415,7344],[-56,-11],[-23,-11],[-8,-37],[46,-30],[-26,-116],[22,-13],[7,-29],[-4,-71],[2,-32],[-89,54],[-200,107],[-139,73]],[[9387,7738],[-6,-34],[-28,-120]],[[8780,7954],[15,68]],[[8795,8022],[30,8],[23,-10],[30,-28],[82,-94],[42,-24],[76,-31],[28,2],[61,47],[45,14],[17,-4],[24,-18],[68,-88],[22,-23],[44,-35]],[[9118,6901],[-13,0],[-60,30],[-10,-43],[-5,-3],[-68,36],[-22,-125],[-6,-39],[0,-42],[25,-165],[-1,-67]],[[8958,6483],[-1,-31]],[[8957,6452],[-9,-16],[-26,16],[-13,-25],[-30,-29],[-14,-6],[-55,14],[9,37],[-44,23],[2,9],[-66,34]],[[8711,6509],[19,38],[16,79],[40,49],[12,43],[37,118],[8,44],[18,49],[10,-18],[8,12]],[[8879,6923],[15,74],[27,118]],[[8941,7202],[40,-27],[9,-14],[67,-131],[61,-129]],[[9058,5998],[-13,10],[-23,-5],[-5,10],[-27,-20],[-26,-5]],[[8964,5988],[-15,2]],[[8949,5990],[-35,20],[-48,65]],[[8866,6075],[25,68],[14,72],[37,132],[10,43],[5,62]],[[8958,6483],[34,6],[34,-11],[6,47],[94,-32],[4,-47],[-56,-51],[-28,-66],[10,-135],[4,-73],[-7,-46],[-3,-50],[8,-27]],[[5209,5590],[6,-3],[-5,-105],[-38,-79],[-36,-37],[-120,-112],[-54,-59],[-50,-68],[-91,-114],[-21,-43],[12,-13],[-12,-28],[13,-12],[-22,-51],[-10,-40],[-24,-25],[27,-5],[42,5],[-2,-28],[15,-8],[17,-64],[-3,-18],[31,-74],[-10,-6],[-6,-39],[-15,-28],[-19,20],[-8,-21],[-14,10],[-10,29],[-27,30],[-3,16],[-10,-6],[-22,36],[9,13],[12,-20],[23,4],[-22,41],[-19,11],[-10,-35],[-19,14],[-14,-26],[-27,29],[-9,-25],[3,-47],[-22,-6],[-7,-13],[-24,1],[-10,-12],[-12,7],[12,30],[30,-3],[2,23],[-3,46],[-13,13],[14,42],[10,-20],[13,31],[-20,36],[-19,-35],[-20,50],[4,17],[-12,25],[9,15],[-18,27],[22,0],[35,-23],[16,-19],[24,-12],[10,4],[13,36],[40,-31],[51,115],[-22,17],[33,69],[-4,22],[50,122],[-2,33],[87,140],[8,9],[8,52],[25,-2],[2,51],[-25,19],[0,19],[24,0],[62,-33],[-1,56],[-24,23],[-5,23],[27,19],[10,-31],[23,3],[38,-35],[14,32],[15,-6],[8,36],[27,5],[39,-6]],[[3814,3319],[-14,-5],[-15,-57],[32,-61],[-11,-6],[-2,-56],[-13,-93],[-11,-32],[-11,-48],[-13,-21],[-9,-48],[2,-38],[9,-12],[2,-40],[-15,-37],[-30,-1],[17,-32],[6,-28],[-6,-43],[0,-70],[6,-18],[-26,-13],[-1,16],[9,57],[-16,0],[0,37],[10,16],[12,-6],[6,36],[-23,43],[1,10],[-73,22],[5,80],[39,-6],[9,19],[16,-9],[11,58],[-10,34],[-21,17],[-1,28],[22,-21],[7,14],[22,-12],[16,57],[-7,5],[12,34],[8,51],[-13,11],[-3,21],[-12,-3],[-24,49],[-2,43],[18,32],[16,11],[28,-5],[4,29],[20,3],[17,16],[0,-28]],[[8390,4271],[-2,-42],[-33,15],[-7,-81],[-15,0],[-4,-77],[29,-33],[6,7],[47,-1],[-4,-45],[42,-38],[5,-43],[-20,4],[-31,-7],[-22,-33],[27,-10],[-1,-9],[62,-27],[4,-22],[-10,-48],[-71,78],[-25,22],[-20,35],[-35,43],[-33,-43],[1,-44],[-19,16],[-22,-21],[-25,2],[-18,-9],[-17,5],[74,205],[31,79],[8,46],[12,114],[15,5],[29,29],[17,-1],[-6,-61],[31,-10]],[[3757,6905],[-9,-19],[-13,16],[-2,-25],[-9,-15],[7,-19],[-29,-11],[9,-60],[-6,-25],[-6,7],[-12,60],[-42,-21],[-24,0],[-18,9],[1,-16],[-53,-48],[10,-39],[-12,-8],[-10,29],[-40,-37],[-19,-50],[-16,-32],[-54,-37],[-42,-20],[-79,-52],[-10,27],[-30,10],[18,33],[54,2],[16,-6],[37,25],[0,39],[8,2],[9,-26],[24,13],[14,-16],[30,25],[10,54],[-14,27],[1,36],[15,-3],[11,35],[9,7],[22,-53],[91,88],[9,23],[14,87],[25,49],[44,70],[65,-36],[-13,-59],[11,-21],[-2,-19]],[[8879,6923],[-33,62],[-32,44],[-86,100],[-24,31],[-21,20],[-19,-4],[-36,-36],[-19,-32],[-15,-5],[-23,26],[23,18],[15,49],[-64,28],[-42,-1],[-92,8],[13,86]],[[8424,7317],[48,-22],[21,97],[19,71]],[[8424,7317],[-96,37],[-8,-41],[-17,18],[-20,77],[-21,23],[-27,-2],[-37,-14],[-41,-20],[-18,10],[-7,22],[2,72],[-4,19],[-29,63],[-18,49],[-27,22],[-39,15],[-87,-6]],[[7930,7661],[-31,81],[-34,66],[-8,37]],[[7857,7845],[30,-1],[35,-40],[50,-12],[20,-19],[5,-48],[6,-13],[42,-30],[42,-23],[24,-38],[61,-47],[6,25],[-54,34],[23,96]],[[9206,9188],[-16,-49],[-22,-45],[-60,-137],[-36,-67],[-21,-50],[-53,-97],[-28,-57],[-14,-37],[-32,-101],[-44,-170],[-73,-300],[-11,-34],[-1,-22]],[[8561,8076],[-15,22],[-60,127],[-23,34],[-32,34],[-158,152],[-60,59],[-184,178],[-48,51],[-93,85],[-16,24],[-5,21],[6,50],[36,242],[0,42],[-8,35],[-15,31],[-68,124]],[[7818,9387],[13,48],[-9,23],[-26,50],[20,66],[8,37],[25,48],[27,67],[22,23],[20,-7],[8,-22],[10,32],[11,19],[-4,41],[42,35],[-8,-33],[13,-2],[11,18],[4,43],[14,1],[33,42],[24,12],[-6,33],[3,38],[28,-13],[36,13],[109,-254],[-85,-125],[26,-55],[-18,-26],[-34,-1],[-22,-20],[-10,-30],[-30,-61],[-26,-35],[-23,-60],[-4,-28],[11,-66],[8,-23],[-7,-24],[20,-57],[7,12],[38,33],[41,-61],[45,-92],[-60,-123],[-35,-87],[43,-52],[42,-19],[34,-41],[20,-10],[14,16],[19,-5],[16,-28],[0,-14],[35,-24],[18,-24],[13,-50],[37,-39],[25,-16],[-9,-22],[67,2],[33,-15],[15,12],[18,-3],[6,13],[14,-6],[80,81],[32,69],[23,9],[30,26],[33,38],[17,36],[7,41],[12,33],[-5,29],[7,11],[3,53],[25,-12],[47,-10],[28,4],[52,26],[12,84],[25,54],[32,55],[38,49],[27,27],[24,-13],[29,1],[18,-6],[16,-36],[46,48]],[[7857,7845],[-18,-29],[1,-22],[-18,-74],[6,-68],[-31,-5],[-31,45],[-45,28],[-13,-30],[-35,26],[34,102],[41,100],[21,42],[-29,61],[-11,39],[-30,27],[-19,34],[-12,88],[8,55],[-10,44],[-37,-9],[-13,11],[-4,50],[10,18],[-6,25],[-26,32],[-7,29],[16,22],[0,45],[-8,18],[-14,-3],[-12,11],[-1,21],[-12,25],[3,20],[-9,19],[6,31],[-15,32],[-17,62],[-13,35],[-9,7],[-6,34],[-15,24],[1,48],[15,55],[5,39],[-17,62],[-14,40],[18,19],[12,26],[7,30],[-9,6],[-12,34],[-41,13],[-9,-2],[-33,-31],[-17,0],[-15,12],[-6,44],[24,10],[50,53],[57,-4],[22,9],[22,30],[19,66],[8,38],[4,70],[-8,41],[11,31],[27,27],[27,4],[27,-15],[19,-24],[100,-142],[47,-69]],[[8870,5194],[10,-25],[-12,-59],[-116,102]],[[8752,5212],[-22,34],[-2,31],[12,42],[10,73],[18,65],[4,36],[-1,56],[-67,45]],[[8704,5594],[29,26],[12,45],[2,78],[9,46],[25,65],[39,93],[46,128]],[[8949,5990],[-8,-76],[7,-61],[-11,-24],[-27,-34],[-37,-82],[-16,-19],[-29,5],[-5,-12],[-7,-58],[4,-40],[-11,-55],[-6,-63],[-5,-77],[13,-48],[48,-115],[11,-37]],[[8711,6509],[-23,-35],[-35,-81],[-16,-21],[-72,-4],[-25,1],[-71,25],[-24,-3],[-30,-21],[-14,-21],[6,-33],[-5,-37]],[[8402,6279],[-12,-17],[-18,0],[-15,20],[-15,-15],[-41,-17],[2,-38],[-21,-30],[-43,3],[-21,26],[-14,-3],[-16,12],[-13,22],[-1,18],[-10,25],[-11,4],[-8,21],[25,25],[19,105],[32,58],[51,41],[15,79],[-9,14],[-18,7],[-7,-11],[-35,-17],[-118,-109],[-13,-37],[6,-35],[-30,-20],[-31,61],[-1,14],[-37,-24],[-18,-17],[-23,-52],[-14,-62],[-5,-44],[-14,-43],[-9,33],[1,25],[14,46],[-1,18],[9,42],[14,36],[33,34],[51,34],[63,51],[29,21],[29,29],[20,31],[37,5],[35,18],[22,1],[17,14],[25,8],[1,18],[30,32],[17,55],[22,42],[35,19],[-11,13],[-13,61],[-20,-16],[-20,-24],[-49,-38],[-30,-32],[-13,29],[5,92],[9,21],[29,17],[17,19],[13,34],[22,-42],[53,91],[9,22],[11,73],[-44,8],[-19,16],[-8,37],[-32,-1],[-35,24],[-34,64],[-11,10],[-18,-4],[-49,-28],[-24,-3],[-30,17],[-22,39],[-31,63],[-16,6],[-12,67],[1,30],[-78,10],[-20,-2],[-42,12],[8,41],[19,38],[1,42]],[[8704,5594],[-13,-3]],[[8691,5591],[0,25],[-58,52],[-39,48],[17,72],[1,42],[67,52],[-132,117],[6,22],[-2,78],[14,19],[-3,15],[-38,38],[-24,-8],[-10,14],[22,37],[-2,13],[-49,2],[-18,17],[-34,20],[-7,13]],[[9659,7373],[21,-67],[-12,-7],[-9,33],[-45,-9],[-13,6],[3,-55],[-43,19],[-11,-1],[-7,40],[-69,1],[-7,-22],[8,-19],[-4,-27],[38,-111],[-4,-20],[-24,-18],[-17,-3],[-41,-46],[-35,-75],[9,-5],[-7,-42],[-14,-21],[0,-26],[8,-32],[-3,-39],[3,-23],[-12,-21],[46,-48],[16,-59],[14,-23],[-4,-76],[5,-13],[-5,-33],[-21,-2],[-6,-11],[5,-29],[22,-39],[-8,-28],[-25,-22],[-18,-8],[-20,-49],[-34,-7],[-12,-17],[-23,-2],[-17,-27],[-15,-8]],[[9272,6282],[2,39],[-8,72],[-4,80],[-19,51],[-10,63],[3,23],[-22,70],[-11,17],[-14,39],[-17,67],[-12,14],[-42,84]],[[9561,7396],[70,-32],[28,9]],[[9272,6282],[-18,-7],[-37,39],[-25,-30],[-10,-1],[17,-31],[-38,-49],[-21,-21],[-22,-13],[-9,-28],[14,-29],[12,-95],[0,-30],[-8,-26],[-21,21],[-27,2],[-21,14]],[[8964,5988],[-7,-78],[5,-49],[-12,2],[-10,-30],[12,-34],[15,-20],[23,2],[13,-25],[18,-13],[-20,-38],[14,-27],[-13,-25],[-20,13],[-31,-25],[-9,-36],[3,-23],[-6,-57],[11,-48],[-27,12],[-36,31],[-11,-17],[-17,-7],[-12,-17],[19,-33],[8,-47],[15,-44],[1,-48],[-7,-18],[4,-60],[-17,-35]],[[8752,5212],[17,-99],[-2,-24],[-12,-28],[6,-42],[-9,-17],[7,-43],[-11,-40],[-27,-25],[-29,-16],[-107,-48],[-18,2],[-6,-14],[-30,-21],[-41,1],[-40,-4],[25,113],[-38,103],[-38,32],[-41,-21],[-7,25],[10,18],[-11,58],[-26,28],[0,14],[23,28],[6,42],[-10,21],[4,54],[61,-10],[15,37],[37,35],[33,10],[43,-20],[8,9],[1,30],[13,18],[68,14],[22,15],[8,20],[-2,22],[-12,40],[5,38],[17,15],[27,9]],[[9737,7569],[0,-9],[-70,-49],[-42,-3],[-31,2],[-21,58],[2,50],[-3,30],[-29,62],[-64,9],[-34,0],[-58,19]],[[9206,9188],[5,35],[0,42],[11,17],[23,2],[37,-35],[25,-1],[107,58],[19,6],[39,31],[56,51],[6,94],[6,44],[19,57],[31,63],[37,-125],[20,-86],[4,-37],[0,-108],[-8,-73],[-15,-85],[-13,-49],[-22,-52],[-20,-21],[-62,-34],[-29,-39],[-61,-58],[-25,-19],[-18,-26],[-17,-53],[1,-45],[-17,-47],[-50,-42],[-28,-14],[-32,-40],[2,-20],[12,-20],[63,-70],[22,-57],[7,-36],[-4,-71],[-22,-59],[-7,-42],[2,-55],[32,-65],[38,-31],[34,-22],[61,-48],[75,-64],[30,-35],[21,-30],[14,-34],[51,-69],[24,34],[17,68],[17,-14],[21,-4],[14,-20],[-3,-34],[8,-35],[-26,-34],[5,-59],[-1,-38],[-6,-41],[1,-25]],[[9737,7569],[73,50],[19,48],[10,14],[39,9],[47,-23],[66,-53],[8,-20],[-2,-38],[-26,7],[-53,-34],[-21,-44],[-13,-8],[-31,-6],[-16,-13],[-30,-63],[-18,-1],[-28,24],[-39,4],[-27,-9],[-36,-40]],[[251,7251],[-7,-38],[12,-32],[26,3],[48,-21],[18,1],[32,-49],[40,-44],[16,9],[-11,25],[8,42],[17,-13],[1,-21],[33,34],[9,-60],[17,-42],[-11,-72],[-6,-18],[-39,-89],[-23,14],[-27,41],[-19,-27],[-2,16],[7,29],[21,31],[8,31],[2,34],[-39,37],[-11,21],[-14,-11],[-23,1],[-25,-7],[-31,2],[-41,37],[-2,12],[-14,-29],[-14,14],[12,34],[-6,23],[12,27],[-17,10],[5,50],[14,-6],[9,23],[15,-22]],[[440,7174],[-27,79],[-24,36],[-9,22],[12,7],[28,-2],[40,-19],[17,-2],[2,-33],[-19,-20],[26,-50],[-17,-3],[-29,-15]],[[30,7365],[24,-10],[37,7],[-1,-65],[25,-19],[27,-43],[-25,9],[-48,-3],[-34,16],[-34,5],[3,21],[20,20],[6,62]],[[280,7580],[17,5],[13,-24],[-30,-59],[-8,-36],[6,-80],[14,8],[10,-13],[-7,-35],[-45,32],[2,21],[13,4],[-2,19],[-29,32],[0,22],[22,3],[18,45],[-9,23],[15,10],[-20,39],[8,9],[12,-25]],[[402,7676],[-22,-9],[0,-9],[-26,-17],[-1,66],[44,20],[5,-51]],[[1660,6410],[8,-66],[-5,-44],[5,-43],[-3,-23],[-26,-54],[4,-21],[-10,-18],[-17,-3],[-1,-29],[-7,-1],[-6,-42],[-10,1],[3,22],[-6,74],[14,4],[-9,51],[-30,10],[11,29],[-3,23],[-21,38],[25,13],[9,-6],[7,35],[-5,38],[35,9],[3,-20],[35,23]]]}
