{"type":"Topology","bbox":[-75.70563002163476,5.009184847972992,-75.617243212902,5.134490167968917],"transform":{"scale":[0.000008839564829759393,0.000012531785178110386],"translate":[-75.70563002163476,5.009184847972992]},"objects":{"municipios":{"type":"GeometryCollection","geometries":[{"type":"Polygon","arcs":[[0]],"properties":{"codigo":"17524200102003000101","sector":"175242001020030001","pcode":"CO17524","area_m2":59325}},{"type":"Polygon","arcs":[[1,2]],"properties":{"codigo":"17524100000000000103","sector":"175241000000000001","pcode":"CO17524","area_m2":16770}},{"type":"Polygon","arcs":[[3]],"properties":{"codigo":"17524200101009000101","sector":"175242001010090001","pcode":"CO17524","area_m2":68831}},{"type":"Polygon","arcs":[[4]],"properties":{"codigo":"17524200103002000101","sector":"175242001030020001","pcode":"CO17524","area_m2":10497}},{"type":"Polygon","arcs":[[5]],"properties":{"codigo":"17524200101006000101","sector":"175242001010060001","pcode":"CO17524","area_m2":1621861}},{"type":"Polygon","arcs":[[6,7,8]],"properties":{"codigo":"17524100000000000302","sector":"175241000000000003","pcode":"CO17524","area_m2":370021}},{"type":"Polygon","arcs":[[9,10,11,12]],"properties":{"codigo":"17524200101001000101","sector":"175242001010010001","pcode":"CO17524","area_m2":111321}},{"type":"Polygon","arcs":[[-12,13,14,15]],"properties":{"codigo":"17524200101001000102","sector":"175242001010010001","pcode":"CO17524","area_m2":155073}},{"type":"Polygon","arcs":[[16,17,18,-8,19,20]],"properties":{"codigo":"17524100000000000101","sector":"175241000000000001","pcode":"CO17524","area_m2":214949}},{"type":"Polygon","arcs":[[-2,21,-17,22,23,24]],"properties":{"codigo":"17524100000000000102","sector":"175241000000000001","pcode":"CO17524","area_m2":73396}},{"type":"Polygon","arcs":[[25,-24,26,27]],"properties":{"codigo":"17524100000000000201","sector":"175241000000000002","pcode":"CO17524","area_m2":551239}},{"type":"Polygon","arcs":[[28]],"properties":{"codigo":"17524200104005000101","sector":"175242001040050001","pcode":"CO17524","area_m2":228996}},{"type":"Polygon","arcs":[[-18,-22,-3,-25,-26,29]],"properties":{"codigo":"17524100000000000202","sector":"175241000000000002","pcode":"CO17524","area_m2":616674}},{"type":"Polygon","arcs":[[-21,30,31,-27,-23]],"properties":{"codigo":"17524100000000000203","sector":"175241000000000002","pcode":"CO17524","area_m2":145061}},{"type":"Polygon","arcs":[[-7,32,-31,-20]],"properties":{"codigo":"17524100000000000301","sector":"175241000000000003","pcode":"CO17524","area_m2":251876}},{"type":"Polygon","arcs":[[33,34,-10,35]],"properties":{"codigo":"17524200101001000103","sector":"175242001010010001","pcode":"CO17524","area_m2":17995}},{"type":"Polygon","arcs":[[36,-14,-11,-35]],"properties":{"codigo":"17524200101001000104","sector":"175242001010010001","pcode":"CO17524","area_m2":23631}},{"type":"Polygon","arcs":[[-15,-37,-34,37]],"properties":{"codigo":"17524200101001000105","sector":"175242001010010001","pcode":"CO17524","area_m2":41173}}]}},"arcs":[[[3108,2402],[-45,-19],[-1,-19],[55,-40],[-30,-37],[54,-39],[-16,-34],[69,-60],[-25,-13],[128,-23],[-32,-48],[-53,7],[62,-30],[-14,-33],[-82,45],[-67,9],[-27,124],[-25,0],[-11,42],[22,1],[-18,38],[-47,0],[-10,24],[-73,94],[130,31],[56,-20]],[[9332,806],[-45,60],[142,54]],[[9429,920],[38,-52],[55,0],[-118,-44],[-72,-18]],[[1720,9998],[69,-22],[31,-25],[48,43],[310,-160],[150,-47],[77,-18],[5,-72],[-95,27],[-16,-25],[-82,23],[21,29],[-52,20],[-12,-17],[-40,16],[12,16],[-151,57],[-90,44],[-18,-15],[-134,95],[-47,13],[14,18]],[[6602,2677],[-23,71],[-32,53],[93,-4],[-9,-62],[41,-47],[-70,-11]],[[2302,5472],[-53,27],[23,56],[48,31],[-58,45],[-6,-15],[-154,11],[-4,-58],[-105,2],[-10,88],[-28,33],[-15,54],[-185,-3],[-62,33],[-20,37],[-22,112],[70,72],[20,72],[57,15],[-41,261],[-19,0],[17,64],[-2,67],[46,6],[34,-24],[66,-9],[28,12],[71,6],[13,30],[29,-27],[281,-1],[55,-9],[-22,24],[19,24],[144,6],[70,-18],[145,14],[9,-20],[233,52],[80,-156],[93,-21],[59,-117],[-19,-19],[-6,-56],[14,-104],[26,-12],[21,-97],[-35,-13],[33,-70],[52,-35],[89,-22],[-2,-39],[-59,-20],[-38,-32],[39,-6],[26,-137],[-13,-28],[-56,-5],[-71,53],[-47,126],[32,15],[-70,22],[-352,-32],[-191,19],[-82,1],[-52,-128],[-43,-71],[-100,-86]],[[8157,543],[19,-34],[44,-23],[0,-43],[24,-33],[74,-40],[33,5],[32,28],[32,-2],[65,-31],[37,-50],[57,12],[-3,-24],[34,-11],[83,6],[46,22],[47,-23],[-24,-27],[37,-10],[51,-85],[77,9]],[[8922,189],[41,-13],[29,42],[27,8],[76,-5],[22,-41],[45,0],[59,-20]],[[9221,160],[-46,-101],[-84,-32],[-103,-3],[-47,17],[-111,-10],[-75,-31],[-106,40],[-69,71],[-74,15],[-51,27],[-78,16],[-24,-75],[-51,21],[-41,2],[-160,37],[-45,27],[57,92],[-22,21],[-77,112],[20,15],[8,80],[66,54],[49,-12]],[[544,8205],[0,-10]],[[544,8195],[-70,-11],[-115,-7]],[[359,8177],[-56,62],[-151,-10]],[[152,8229],[-29,154],[-110,310],[-13,57],[86,8],[3,-43],[46,-136],[53,-139],[15,-60],[44,10],[15,-14],[50,28],[9,-23],[74,-75],[72,-37],[77,-64]],[[359,8177],[20,-46],[26,-109]],[[405,8022],[-14,-19],[-55,-21],[6,-68],[23,-109]],[[365,7805],[-11,-62],[-40,1],[30,-39],[112,-103],[-88,-50],[-101,108],[-77,121],[-22,82],[10,75],[-6,122],[-20,169]],[[9092,759],[29,-2],[65,-91],[51,-31]],[[9237,635],[30,-35],[9,-149],[-49,-6],[-12,-32],[24,-31],[19,-74]],[[9258,308],[-8,-78],[-29,-70]],[[8922,189],[50,45],[50,80],[-5,19],[43,28],[1,25],[-30,23],[-5,65],[-18,27],[26,42],[-43,89],[-68,-29],[-61,4],[-73,-39],[10,-36],[-62,-89],[1,-34],[-29,-38],[-49,39],[-21,-43],[-59,28],[8,52],[44,5],[-6,33],[15,33],[40,31]],[[8681,549],[59,9],[123,68],[130,64],[2,36],[40,7],[24,25],[33,1]],[[9332,806],[-57,-37],[-58,-87],[20,-47]],[[9092,759],[47,40],[-45,26],[33,66]],[[9127,891],[109,56],[41,1],[129,63],[10,31],[31,-2],[6,-68]],[[9453,972],[-47,-18],[23,-34]],[[9903,1448],[-33,-24],[-80,-130],[-13,-74],[22,-74],[2,-80],[-73,-128],[-180,-17],[-48,-17],[-47,68]],[[9127,891],[-57,-34]],[[9070,857],[-42,25],[-16,42],[-24,9],[20,43],[-39,57],[22,17],[-59,63],[72,18],[47,42],[8,51],[48,31],[17,49],[-18,32],[26,39],[29,3],[-19,52],[50,58],[62,-10],[49,-22],[27,20],[34,-18],[35,7],[5,33],[144,-24],[7,25],[71,36],[-11,-36],[54,-19],[46,-42],[23,-3],[12,37],[37,16],[79,-17],[37,-23]],[[7603,1521],[53,-56],[35,-8],[-30,-31],[83,-26],[67,-74],[-4,-16],[-113,-42],[3,-58],[143,-148],[20,-51],[54,-91],[-36,-18],[1,38],[-60,-2],[3,-12],[-70,-4],[-24,41],[42,6],[-36,46],[-44,12],[-124,140],[-87,79],[-46,6],[-97,48],[-24,39],[-97,-1],[-32,-10],[-9,55],[-58,11],[-6,37],[225,-47],[43,72],[20,70],[25,-18],[76,20],[-14,61],[24,12],[24,-28],[70,-52]],[[9903,1448],[35,-45],[-66,-64],[-16,-34],[33,-26],[42,-56],[33,8],[35,-91],[-33,-85],[26,-44],[-30,-133],[-37,-38],[20,-51],[-75,-48],[5,-41],[42,-55],[-11,-31],[-64,-63],[-3,-34],[49,-21],[-18,-21],[-11,-67],[9,-73],[49,-37],[2,-51],[-228,7],[-82,-12],[14,29],[3,65],[-163,18],[-64,25],[-42,4],[-65,-38],[-34,-37]],[[8681,549],[-65,-20],[-63,-5],[-53,19],[-53,-40],[-46,38],[-85,7],[-42,15],[-60,40],[16,13]],[[8230,616],[118,-25],[82,46],[49,7],[68,36],[133,16],[94,40],[67,50],[62,8],[36,16],[77,-3],[54,50]],[[8157,543],[14,17],[-16,48],[75,8]],[[556,8026],[-71,11],[-11,-22],[-29,6]],[[445,8021],[49,96],[15,10],[35,68]],[[544,8205],[37,3],[3,-41],[-28,-141]],[[445,8021],[-40,1]],[[556,8026],[-4,-75],[-36,10],[-13,-29],[34,-46],[-27,-34],[-25,13],[2,35],[-58,22],[-1,-51],[-22,-78],[-41,12]]]}
