{"type":"Topology","bbox":[-75.66682476379793,5.1316292471048905,-75.51048337160017,5.275788471817315],"transform":{"scale":[0.000015635702790054995,0.000014417364207663248],"translate":[-75.66682476379793,5.1316292471048905]},"objects":{"municipios":{"type":"GeometryCollection","geometries":[{"type":"Polygon","arcs":[[0]],"properties":{"codigo":"17486200102013000101","sector":"174862001020130001","pcode":"CO17486","area_m2":60428}},{"type":"Polygon","arcs":[[1,2,3,4,5]],"properties":{"codigo":"17486100000000000109","sector":"174861000000000001","pcode":"CO17486","area_m2":28456}},{"type":"Polygon","arcs":[[6,7,8,9,10]],"properties":{"codigo":"17486100000000000103","sector":"174861000000000001","pcode":"CO17486","area_m2":61357}},{"type":"Polygon","arcs":[[11,12]],"properties":{"codigo":"17486100000000000108","sector":"174861000000000001","pcode":"CO17486","area_m2":19008}},{"type":"Polygon","arcs":[[13,-10,14,15,16]],"properties":{"codigo":"17486100000000000102","sector":"174861000000000001","pcode":"CO17486","area_m2":142016}},{"type":"Polygon","arcs":[[-2,17,18]],"properties":{"codigo":"17486100000000000202","sector":"174861000000000002","pcode":"CO17486","area_m2":25923}},{"type":"Polygon","arcs":[[-9,19,20,-15]],"properties":{"codigo":"17486100000000000104","sector":"174861000000000001","pcode":"CO17486","area_m2":67582}},{"type":"Polygon","arcs":[[-8,21,22,23,-20]],"properties":{"codigo":"17486100000000000105","sector":"174861000000000001","pcode":"CO17486","area_m2":136132}},{"type":"Polygon","arcs":[[24,-5,25,-11,-14,26,-13]],"properties":{"codigo":"17486100000000000107","sector":"174861000000000001","pcode":"CO17486","area_m2":97818}},{"type":"Polygon","arcs":[[27,-22,-7,-26,-4]],"properties":{"codigo":"17486100000000000106","sector":"174861000000000001","pcode":"CO17486","area_m2":131811}},{"type":"Polygon","arcs":[[28]],"properties":{"codigo":"17486200103012000101","sector":"174862001030120001","pcode":"CO17486","area_m2":178998}},{"type":"MultiPolygon","arcs":[[[29]],[[30]]],"properties":{"codigo":"17486200104010000101","sector":"174862001040100001","pcode":"CO17486","area_m2":20577}},{"type":"Polygon","arcs":[[31]],"properties":{"codigo":"17486200203004000101","sector":"174862002030040001","pcode":"CO17486","area_m2":348717}},{"type":"Polygon","arcs":[[-18,-6,-25,32]],"properties":{"codigo":"17486100000000000201","sector":"174861000000000002","pcode":"CO17486","area_m2":23078}},{"type":"Polygon","arcs":[[-16,-21,-24,33]],"properties":{"codigo":"17486100000000000101","sector":"174861000000000001","pcode":"CO17486","area_m2":165286}},{"type":"Polygon","arcs":[[34]],"properties":{"codigo":"17486200303009000101","sector":"174862003030090001","pcode":"CO17486","area_m2":11870}},{"type":"Polygon","arcs":[[35]],"properties":{"codigo":"17486200103011000101","sector":"174862001030110001","pcode":"CO17486","area_m2":64923}},{"type":"Polygon","arcs":[[36]],"properties":{"codigo":"17486200101005000101","sector":"174862001010050001","pcode":"CO17486","area_m2":115174}}]}},"arcs":[[[1576,6426],[6,35],[28,-1],[35,14],[37,-24],[34,-16],[39,2],[38,7],[10,-3],[11,-26],[42,-78],[19,-25],[-4,-31],[-21,-28],[-18,-14],[-23,-31],[-44,-27],[-20,12],[59,75],[12,26],[4,36],[-5,21],[-29,42],[-32,16],[-25,1],[-79,-18],[-41,1],[-18,9],[-15,25]],[[9621,2281],[15,-52],[14,-30]],[[9650,2199],[6,-26],[-1,-27]],[[9655,2146],[-50,38],[-49,79],[-46,24]],[[9510,2287],[36,6],[32,38]],[[9578,2331],[22,7],[-7,-13],[15,-8],[13,-36]],[[9499,2327],[-18,3],[-121,-10]],[[9360,2320],[-2,0]],[[9358,2320],[-3,90],[-4,51]],[[9351,2461],[150,10],[4,-1]],[[9505,2470],[17,-37],[-3,-32],[-20,-74]],[[9578,2621],[46,-10],[29,-16],[6,-22],[26,-20],[-9,-34],[-38,-70]],[[9638,2449],[-18,45],[1,10],[21,37],[-39,46],[-13,7],[-12,27]],[[9485,2600],[7,-21],[-2,-28],[15,-81]],[[9351,2461],[0,0]],[[9351,2461],[-7,117],[-4,30],[12,66],[-4,19],[-12,8],[11,105],[-33,18],[-25,45],[-2,25],[-16,23],[-5,18],[6,30],[-28,13],[12,23]],[[9256,3001],[34,-17],[22,-17],[-5,-34],[17,-52],[52,-13],[19,-11],[17,-26],[14,-10],[5,-17],[-8,-63],[-19,-44],[13,-14],[53,-8],[6,-50],[9,-25]],[[9621,2281],[22,32],[54,30]],[[9697,2343],[30,5],[15,-23],[-9,-9],[20,-23],[-99,-64],[-4,-30]],[[9358,2320],[-84,-5],[-3,48],[-64,-2],[-20,9],[7,-26],[-30,-9],[-22,17]],[[9142,2352],[3,10],[-5,45],[8,41],[203,13]],[[9360,2320],[6,-156],[4,-14],[-18,4],[1,-17],[-13,14],[-25,-45],[-4,-39],[19,-13]],[[9330,2054],[-32,12],[-26,26],[-26,58],[-31,21],[-10,16],[-10,34],[-33,42],[-53,-57],[-26,32],[-54,52],[38,19],[23,21]],[[9090,2330],[43,26],[9,-4]],[[9638,2449],[-5,-31],[-21,-27],[-16,-42],[-18,-18]],[[9510,2287],[-12,8],[1,32]],[[9485,2600],[6,-4],[44,10],[5,11],[24,15],[21,34],[13,-9],[-20,-36]],[[9655,2146],[-15,-14],[-35,5],[-34,-21],[-33,0],[-30,12],[-10,-12],[54,-29],[-18,-13],[-28,19],[-4,-11],[-16,7],[8,27],[-42,18],[3,-13],[-22,-18],[-66,25],[-26,-36],[-1,-19],[12,-25],[-2,-13],[-20,19]],[[283,3084],[20,-1],[12,-35],[-16,0],[2,-30],[-29,5],[1,-18],[-25,12],[-11,-21],[13,-28],[62,-20],[-8,45],[18,3],[2,-16],[25,-23],[16,5],[35,-25],[19,-32],[-39,-17],[27,-53],[-7,-12],[-34,-22],[-42,20],[-34,-47],[26,-41],[0,-17],[21,-20],[-6,-29],[-53,40],[-27,7],[-46,72],[-18,56],[-1,23],[6,42],[14,30],[-49,23],[40,104],[12,38],[8,43],[1,56],[-3,34],[-12,27],[52,12],[7,10],[13,-94],[8,-106]],[[3574,1953],[2,-31],[14,-6],[7,-57],[-12,-17],[12,-6],[-6,-38],[-79,-17],[-14,-17],[-7,11],[16,30],[39,3],[-5,24],[26,13],[8,29],[-10,31],[-14,17],[15,3],[8,28]],[[3613,2085],[-9,-26],[1,-24],[14,-8],[-44,-31],[17,47],[16,52],[5,-10]],[[9433,886],[48,0],[-5,-26],[-17,-1],[-9,-31],[-9,3],[-5,-34],[33,-20],[-5,-20],[-9,6],[10,-45],[-15,-2],[10,-65],[0,-19],[15,-32],[15,-16],[42,-10],[26,-54],[-6,-27],[-47,-19],[-40,-4],[24,-17],[12,-23],[-18,-9],[-1,-12],[-21,-9],[-1,-13],[-34,-7],[-6,-18],[-29,5],[-18,-19],[-8,-22],[12,-1],[-10,-55],[-9,1],[31,-36],[9,-27],[18,-22],[-59,2],[-15,-15],[30,-23],[-25,-10],[1,-11],[-18,-16],[16,-33],[5,-30],[19,3],[34,21],[-2,-54],[-8,-7],[-44,3],[-2,-16],[-46,1],[-9,18],[-48,7],[-2,21],[-28,42],[-13,-8],[-14,22],[40,21],[69,43],[-8,19],[6,64],[-20,1],[1,19],[-17,-3],[-4,19],[-35,26],[-3,-5],[-33,16],[7,10],[-24,13],[-23,-5],[-10,18],[-28,-7],[-17,19],[-4,14],[13,32],[-8,15],[15,17],[-7,43],[-27,5],[26,13],[14,-4],[15,-34],[36,14],[11,-7],[72,23],[11,-10],[4,-22],[20,-10],[-1,-10],[35,17],[-1,12],[23,28],[16,10],[40,2],[14,21],[-4,24],[6,20],[-9,24],[25,21],[12,18],[-3,20],[-22,-4],[-5,36],[26,2],[1,29],[-17,9],[-17,45],[11,26],[-24,5],[-18,25],[27,17],[12,42],[-18,41],[6,35],[19,2],[24,-8],[-5,-83]],[[9638,2449],[29,-8],[12,-29],[-14,-8],[13,-51],[19,-10]],[[9090,2330],[-11,49],[-10,22],[21,70],[-16,20],[20,6],[50,-9],[13,22],[12,-5],[15,27],[5,21],[15,0],[-3,23],[12,31],[39,-17],[27,-2],[3,54],[10,-1],[16,21],[18,48],[-21,72],[14,21],[-27,49],[-12,12],[3,27],[-19,26],[-7,42],[-39,9],[12,20],[-3,31],[10,2],[10,23],[-15,10],[-25,78],[20,19],[5,19],[18,-8],[18,27],[37,6],[5,18],[45,-16],[12,-12],[-14,-18],[-35,-68],[-59,-50],[-3,-48]],[[9767,1803],[10,-12],[29,-14],[51,-16],[25,3],[7,-11],[19,4],[39,-10],[-60,-2],[-1,7],[-34,-1],[-22,12],[-39,11],[-3,-9],[32,-33],[37,-29],[-12,-14],[-89,79],[16,14],[-5,21]],[[501,2406],[-2,-8],[30,9],[52,4],[20,9],[6,-50],[-10,-48],[-43,35],[-38,-35],[-31,12],[-37,-12],[-11,19],[-9,39],[-23,23],[-19,-6],[-25,-27],[-47,10],[-29,19],[17,54],[45,-14],[22,-11],[15,3],[49,-27],[16,18],[-32,51],[27,21],[36,-38],[-2,-11],[26,-18],[-3,-21]],[[75,9999],[49,-17],[0,-14],[50,-19],[2,-17],[31,4],[27,-37],[26,-24],[-75,25],[-22,-18],[13,-154],[11,-83],[-21,-23],[-18,3],[-9,-40],[-29,-72],[-39,-55],[-21,0],[-18,22],[42,66],[41,88],[14,42],[-5,45],[-30,107],[-79,138],[-15,20],[49,12],[26,1]]]}
