{"type":"Topology","bbox":[-75.63485674803906,5.462533611574315,-75.58395409500594,5.521587929841201],"transform":{"scale":[0.0000050907743807500556,0.000005906022428931438],"translate":[-75.63485674803906,5.462533611574315]},"objects":{"municipios":{"type":"GeometryCollection","geometries":[{"type":"Polygon","arcs":[[0]]},{"type":"Polygon","arcs":[[1]]},{"type":"Polygon","arcs":[[2]]},{"type":"Polygon","arcs":[[3,4,5]]},{"type":"Polygon","arcs":[[6,7,-5]]},{"type":"Polygon","arcs":[[-7,-4,8]]},{"type":"Polygon","arcs":[[9]]},{"type":"Polygon","arcs":[[10]]},{"type":"Polygon","arcs":[[11]]},{"type":"Polygon","arcs":[[12]]},{"type":"Polygon","arcs":[[13]]},{"type":"Polygon","arcs":[[14]]},{"type":"Polygon","arcs":[[15]]},{"type":"Polygon","arcs":[[16]]}]}},"arcs":[[[9423,1240],[-30,-58],[-88,112],[-119,18],[-34,-20],[-46,21],[-6,-42],[-28,-9],[-45,50],[-37,71],[19,112],[-89,13],[-91,35],[-30,-1],[-33,42],[-54,-47],[30,6],[22,-57],[-63,-7],[-105,34],[-96,-44],[-10,59],[-27,11],[47,19],[-11,49],[-34,4],[-3,32],[70,-19],[2,43],[24,-2],[6,57],[45,-13],[-17,-40],[95,46],[8,-14],[56,38],[141,-58],[-1,25],[117,21],[58,-39],[1,23],[56,25],[4,71],[53,67],[-56,55],[127,73],[36,-26],[49,7],[52,27],[83,14],[-28,54],[32,-1],[27,-48],[68,-5],[99,-26],[90,10],[5,-41],[72,-13],[163,-42],[-15,-19],[-111,-77],[-99,-15],[-34,-18],[-44,-66],[-15,-52],[84,-57],[59,-77],[-27,-20],[26,-14],[14,-66],[-32,-49],[-67,-9],[10,-88],[-84,-6],[-46,48],[3,-58],[34,-50],[42,-17],[-1,-21],[-63,-142],[-44,-17],[-14,52],[-39,30],[-60,-7],[-43,26],[-66,5],[-14,26],[75,23],[24,22],[-29,41]],[[6646,1368],[162,-54],[77,57],[49,-8],[54,-38],[68,31],[47,-79],[47,-27],[78,-16],[52,-45],[6,-48],[69,-52],[-49,-21],[-37,47],[-42,-14],[18,-23],[-83,-36],[-53,12],[-157,-18],[-2,25],[-51,4],[-32,33],[49,24],[-38,46],[-36,-14],[-11,61],[-43,-17],[-30,33],[39,8],[-8,32],[-68,-9],[-91,47],[16,59]],[[7488,4179],[-2,-45],[96,44],[37,-71],[-18,-26],[-162,2],[-47,43],[-4,-38],[-90,13],[21,-116],[-42,-65],[-87,-14],[-44,20],[-44,52],[20,25],[9,58],[-31,1],[-47,-58],[-27,21],[-32,-18],[-27,47],[-57,3],[-30,-16],[-30,39],[68,32],[51,5],[23,26],[33,-26],[64,58],[58,-6],[5,23],[81,22],[101,-27],[86,19],[30,62],[7,-41],[31,-48]],[[7116,2186],[-40,-33],[-71,0],[-20,-28]],[[6985,2125],[-20,-22],[-64,-22],[-58,30],[-58,-14],[-73,7],[-133,28],[-55,39]],[[6524,2171],[18,16],[-118,123],[-14,26],[30,32],[-18,23],[55,26],[80,-20],[57,-3],[90,-43],[14,25],[67,-13],[26,-42],[38,15],[41,-21],[52,85],[92,-24],[47,-35],[59,20],[72,-9],[-3,-26],[-44,-11],[5,-30],[-27,-40],[19,-9],[-9,-57],[-37,7]],[[6985,2125],[-4,-56],[-77,-41],[-9,-19],[41,-89],[-12,-34],[39,-55],[60,-170],[-45,-39],[-21,-47],[19,-82]],[[6976,1493],[-61,11],[-80,95],[-86,89],[-34,19],[-108,21],[-92,-18],[-64,-37],[-10,48],[70,69],[80,49],[-10,36],[-52,48],[-74,17],[-79,-70],[-29,48],[-29,4],[31,56],[-31,23],[-52,9],[-32,-44],[-28,15],[-28,47],[4,49],[61,9],[22,20],[59,-24],[33,2],[124,55],[43,32]],[[7116,2186],[7,-39],[68,36],[18,-38],[98,-72],[-76,-131],[-29,-92],[43,-23],[-34,-45],[-32,8],[-49,-18],[63,-69],[22,-49],[-17,-51],[28,-65],[-38,-57],[-62,-21],[-88,10],[-62,23]],[[6087,6753],[76,-54],[111,-8],[63,-15],[39,31],[45,-2],[16,-56],[161,46],[40,-24],[-9,-77],[-52,-4],[-31,23],[-112,-38],[-61,21],[-73,-48],[-19,-47],[57,15],[26,-40],[-10,-25],[76,-12],[42,-20],[-10,-37],[26,-14],[13,-44],[-38,-27],[-65,12],[-31,-28],[-16,-45],[-48,41],[-110,74],[-52,99],[-19,12],[-36,-28],[-7,-48],[24,-50],[-62,0],[48,107],[-34,62],[-130,17],[-29,-20],[32,-76],[-62,-43],[-28,11],[-38,57],[20,25],[-11,47],[-72,46],[17,41],[84,-3],[37,15],[51,-12],[43,-33],[40,-7],[47,58],[9,36],[-147,34],[-25,-20],[-72,21],[9,54],[104,-27],[85,37],[59,43],[-13,-36],[22,-17]],[[4521,740],[118,-32],[65,-38],[3,-45],[-47,-59],[58,-41],[40,-10],[4,-57],[51,-38],[111,-6],[43,-58],[-29,-36],[88,-23],[55,18],[97,-81],[88,-52],[19,-50],[134,48],[29,-1],[-9,-50],[-23,-30],[75,-47],[12,-40],[-132,13],[-121,-25],[-67,19],[-27,-11],[-38,47],[19,97],[-48,-11],[-9,-34],[-89,-35],[-54,87],[-21,-8],[-87,36],[-7,40],[-57,66],[-62,53],[6,10],[-66,61],[-41,15],[-66,46],[-61,23],[-153,75],[95,67],[35,79],[69,18]],[[225,9983],[54,4],[142,-76],[-27,-26],[105,-86],[22,-63],[-50,-59],[-17,-95],[13,-48],[-20,-87],[26,-39],[-20,-31],[15,-32],[-57,22],[-43,-7],[-61,-43],[-125,-20],[-11,-69],[-45,27],[-12,49],[-29,16],[-39,-44],[-29,26],[73,49],[-30,17],[17,44],[-13,68],[-42,54],[33,-3],[49,-72],[2,-88],[-18,-28],[78,-38],[141,13],[43,23],[31,45],[64,-3],[24,13],[-24,61],[-49,8],[-63,69],[54,27],[64,-72],[14,46],[-13,46],[13,71],[-76,40],[8,31],[-38,19],[-2,27],[114,-11],[48,-19],[-25,62],[-42,-8],[-36,39],[18,21],[-111,85],[-88,26],[-63,-73],[36,-63],[93,-26],[-37,-55],[-127,-30],[-25,31],[-86,-1],[-26,53],[91,11],[-12,31],[31,20],[-15,55],[48,3],[21,-26],[36,69],[-6,36],[31,-16]],[[1590,9158],[-35,-29],[-49,-94],[-15,-109],[9,-36],[-12,-76],[29,-146],[65,-36],[0,-38],[-32,-10],[-4,-35],[36,15],[28,-26],[0,-41],[-31,-8],[72,-115],[9,-28],[33,-5],[0,-40],[32,-46],[16,-63],[46,-22],[10,-28],[-97,-28],[-17,-43],[-52,26],[-27,32],[-34,3],[21,42],[-101,65],[58,72],[-9,31],[-48,47],[14,16],[-63,43],[35,29],[11,56],[55,5],[-4,80],[-67,71],[-31,-1],[0,66],[-13,44],[23,64],[-10,45],[27,93],[-13,27],[12,45],[-49,67],[108,17],[55,48],[14,57],[39,-26],[-60,-60],[16,-17]],[[6235,1602],[31,-6],[26,-49],[72,-40],[57,-3],[47,18],[-51,-58],[6,-68],[-17,-39],[80,-35],[37,3],[6,-32],[-37,-28],[-127,-3],[-54,-37],[-51,-3],[-23,29],[4,34],[50,-14],[19,31],[41,11],[25,59],[35,36],[-52,-15],[-58,11],[-14,53],[-47,6],[3,-66],[33,-28],[-10,-33],[-42,-3],[-88,28],[3,19],[-78,4],[-69,-14],[-29,9],[1,50],[138,58],[49,9],[63,-34],[95,31],[-79,77],[5,32]],[[8188,2741],[15,-25],[71,-23],[40,-1],[-44,-38],[47,-23],[37,-40],[33,6],[58,-19],[40,-79],[12,-116],[-44,12],[-45,-10],[17,-68],[56,-54],[17,-74],[-29,-46],[35,5],[-15,-46],[53,-42],[-18,-56],[-91,15],[-35,-73],[-4,-79],[9,-43],[-12,-54],[-69,-11],[-38,88],[4,39],[75,12],[8,65],[-80,18],[-28,27],[23,36],[-25,20],[-30,-12],[-78,7],[-11,44],[78,-7],[120,27],[108,11],[5,119],[-25,57],[-50,16],[15,36],[-36,-7],[-21,42],[36,25],[-11,89],[-23,6],[-37,-50],[-98,-4],[-38,48],[52,32],[68,-24],[35,9],[63,-10],[-39,51],[-29,-17],[-30,62],[-32,27],[-80,-22],[-81,25],[-51,-94],[36,-21],[-26,-29],[10,-28],[88,-51],[-54,17],[-64,-6],[-34,-39],[20,-8],[-19,-54],[14,-27],[-37,-26],[23,-61],[33,13],[13,-56],[-22,-15],[2,-51],[-20,36],[-25,-19],[-11,37],[35,36],[-42,53],[-11,61],[-29,57],[-51,17],[-42,-7],[-74,20],[-14,53],[79,4],[25,-27],[61,33],[2,-26],[60,-12],[33,48],[-28,6],[-22,52],[37,-9],[20,38],[-63,54],[76,76],[7,27],[75,33],[2,67],[32,-7],[52,-68]],[[4537,6428],[67,-7],[10,14],[66,0],[14,-17],[62,-7],[71,8],[39,21],[134,-35],[41,-27],[6,29],[42,17],[13,-43],[136,33],[48,-36],[-59,-39],[-11,-41],[-24,-2],[-97,78],[-60,-24],[-98,13],[-14,-18],[-71,7],[-58,44],[-38,4],[-14,-33],[-41,-20],[9,59],[-130,16],[1,-21],[-51,-9],[-38,23],[-40,-2],[78,34],[7,-19]],[[8030,1969],[29,24],[44,-6],[-23,-57],[22,-18],[12,-65],[-10,-28],[42,-65],[17,-59],[22,-23],[-4,-47],[-60,-20],[23,-42],[-4,-39],[70,-60],[-22,-15],[-124,89],[-32,106],[-63,19],[-45,-60],[-46,5],[-22,34],[-19,-73],[-41,-30],[-5,80],[-21,38],[29,120],[17,-23],[33,16],[42,-33],[63,96],[-3,44],[54,37],[-21,29],[7,51],[39,-25]]]}