{"type":"Topology","bbox":[-74.92563124984252,5.567538275461127,-74.88332107289278,5.584553543819793],"transform":{"scale":[0.000004231440839057976,0.0000017016970055672192],"translate":[-74.92563124984252,5.567538275461127]},"objects":{"municipios":{"type":"GeometryCollection","geometries":[{"type":"Polygon","arcs":[[0]]},{"type":"Polygon","arcs":[[1]]},{"type":"Polygon","arcs":[[2,3,4,5]]},{"type":"Polygon","arcs":[[-4,6]]},{"type":"Polygon","arcs":[[-6,7,8,9]]},{"type":"MultiPolygon","arcs":[[[10]],[[11]],[[12]],[[-9,13]],[[14]]]}]}},"arcs":[[[198,9997],[84,-97],[74,-316],[94,-46],[157,-333],[31,-187],[-21,-469],[-65,-103],[15,-360],[66,-211],[87,-60],[37,-141],[137,54],[114,-384],[-62,-347],[31,-117],[-19,-201],[108,-135],[23,-125],[106,46],[89,-297],[110,186],[44,168],[21,314],[67,119],[321,109],[165,151],[71,117],[59,-58],[17,193],[66,21],[7,-287],[56,-94],[-36,-90],[-134,-6],[19,154],[-133,33],[-76,-83],[34,-170],[-11,-183],[-68,-1],[-207,-218],[-95,-341],[-77,-80],[-2,-201],[-88,-384],[-118,-27],[-151,111],[-99,303],[-72,-39],[-38,307],[29,69],[-176,386],[-111,298],[-50,498],[-97,313],[-105,163],[5,313],[75,522],[1,250],[-99,14],[-84,348],[-71,10],[-58,198],[-195,33],[52,318],[146,72]],[[2928,7145],[4,-156],[100,-312],[30,-306],[177,-241],[64,-436],[43,-149],[123,-121],[44,-109],[69,125],[58,-33],[17,-191],[93,-291],[40,-225],[-9,-329],[170,-453],[90,-2],[110,159],[85,-104],[6,-221],[40,-191],[178,-270],[6,-130],[81,-294],[138,130],[53,-195],[-40,-205],[-193,-101],[-254,126],[-60,96],[-72,255],[-113,-30],[-87,360],[-49,-82],[-87,261],[-148,92],[-143,-63],[-109,102],[-19,332],[77,293],[-26,47],[47,223],[-51,221],[30,45],[-22,311],[-141,110],[-166,291],[17,276],[133,175],[-31,196],[-174,226],[-45,-140],[-47,194],[57,78],[2,221],[-86,254],[-61,-90],[-18,152],[69,119]],[[8185,4469],[-6,285],[61,87],[-2,342],[71,105],[187,462]],[[8496,5750],[-3,-289],[34,-103],[60,68],[187,-144],[-78,-193],[471,-1269],[-67,-179]],[[9100,3641],[-126,-303],[-109,-87],[-122,192],[-128,-102],[-178,67]],[[8437,3408],[138,65],[109,229],[-184,463],[-114,-118],[-139,197],[-62,225]],[[8496,5750],[-17,199],[56,-231],[4,-248],[65,30],[127,-68],[113,326],[41,-102],[67,37],[236,589],[134,30],[91,244],[-19,729],[-40,27],[25,259],[-97,60],[6,247],[46,-34],[17,502],[107,40],[114,142],[123,-387],[18,-164],[223,-171],[1,-147],[62,-173],[-36,-292],[24,-242],[-140,-287],[17,-111],[-87,-65],[-5,98],[-115,-65],[-43,-155],[20,-158],[56,39],[97,-445],[-98,-109],[-25,-105],[11,-299],[-79,107],[-90,-192],[-72,-418],[-77,-218],[-62,-80],[-23,-530],[-127,-423],[-45,105]],[[8437,3408],[24,-211],[-49,-294],[-64,68],[-113,-549],[-175,-382],[104,-310],[-14,-292],[-61,-217],[29,-138],[-58,-824],[-99,-259],[-105,99],[-57,445],[-3,283],[40,96],[35,559],[-67,85],[-158,-183],[-65,159],[-185,141],[-42,374],[59,136],[-141,386],[85,151],[-75,141],[-73,-21],[-163,208],[53,392],[-19,328],[-64,537],[177,-317],[107,405]],[[7300,4404],[31,-81]],[[7331,4323],[108,-223],[75,-80],[-4,-520],[180,16],[61,-60],[22,373],[-18,289],[13,391],[29,14],[43,-461],[37,-165],[50,-19],[159,226],[99,365]],[[6689,4478],[-23,-165],[67,0],[-61,-213],[-67,124],[-110,38],[-105,-555],[-136,-6],[109,63],[88,449],[-63,69],[25,108],[167,-40],[15,211],[48,38],[46,-121]],[[5988,3638],[-17,74],[125,27],[-108,-101]],[[7052,4434],[-149,-64],[53,-158],[-99,-126],[-87,340],[57,5],[32,-132],[33,184],[80,70],[80,-119]],[[7300,4404],[31,-81]],[[7190,4274],[-57,-148],[49,437],[60,79],[-52,-368]]]}
