{"type":"Topology","bbox":[-75.58634304783021,4.9440618876962406,-75.4359635570404,5.052267516494167],"transform":{"scale":[0.000015039453024284111,0.00001082164504429708],"translate":[-75.58634304783021,4.9440618876962406]},"objects":{"municipios":{"type":"GeometryCollection","geometries":[{"type":"Polygon","arcs":[[0]]},{"type":"Polygon","arcs":[[1]]},{"type":"Polygon","arcs":[[2]]},{"type":"Polygon","arcs":[[3]]},{"type":"MultiPolygon","arcs":[[[4]],[[5]],[[6]],[[7]],[[8]]]},{"type":"Polygon","arcs":[[9]]},{"type":"Polygon","arcs":[[10]]},{"type":"Polygon","arcs":[[11,12,13,14]]},{"type":"Polygon","arcs":[[15]]},{"type":"Polygon","arcs":[[16,17,18,19,20,21,22,23]]},{"type":"Polygon","arcs":[[-23,24,25,26]]},{"type":"Polygon","arcs":[[-14,27,-25,-22,28]]},{"type":"Polygon","arcs":[[29,-29,-21,30]]},{"type":"Polygon","arcs":[[-24,-27,31,32,33]]},{"type":"Polygon","arcs":[[34]]},{"type":"MultiPolygon","arcs":[[[35]],[[36]],[[37]],[[38]],[[39]],[[40]],[[41]],[[42]]]},{"type":"MultiPolygon","arcs":[[[43]],[[44]],[[45]],[[46]]]},{"type":"MultiPolygon","arcs":[[[47]],[[48]],[[49]],[[50]],[[51]]]},{"type":"MultiPolygon","arcs":[[[52]],[[53]]]},{"type":"Polygon","arcs":[[54,55,56,57,58]]},{"type":"Polygon","arcs":[[59,60,61]]},{"type":"MultiPolygon","arcs":[[[62]],[[63]]]},{"type":"Polygon","arcs":[[64,65,-56,66]]},{"type":"Polygon","arcs":[[67,68,69]]},{"type":"Polygon","arcs":[[70,71,-32,-26,-28]]},{"type":"Polygon","arcs":[[72,73,-71,-13]]},{"type":"Polygon","arcs":[[74,-70,75,76,77]]},{"type":"Polygon","arcs":[[-78,78,79,-18,80]]},{"type":"Polygon","arcs":[[-12,81,82,-67,-55,83,84,-73]]},{"type":"Polygon","arcs":[[-69,85,86,-76]]},{"type":"Polygon","arcs":[[87,88,89,-31,-20]]},{"type":"Polygon","arcs":[[90,91]]},{"type":"MultiPolygon","arcs":[[[92]],[[-57,-66,93,94,95]]]},{"type":"Polygon","arcs":[[-72,96,97,-33]]},{"type":"Polygon","arcs":[[98,99,-91,100,-82,-15,-30,-90]]},{"type":"Polygon","arcs":[[101,-84,-59,102,-60]]},{"type":"Polygon","arcs":[[-89,103,-99]]},{"type":"Polygon","arcs":[[-87,104,-79,-77]]},{"type":"Polygon","arcs":[[-74,-85,-102,-62,105,-95,106,-97]]},{"type":"Polygon","arcs":[[-61,-103,-58,-96,-106]]}]}},"arcs":[[[1019,3332],[24,-58],[-9,-56],[-31,-4],[-21,-32],[2,-24],[-11,-81],[-12,-9],[-15,-39],[-4,-66],[-37,4],[-7,30],[-28,-13],[-33,-90],[-34,65],[-14,37],[12,23],[0,48],[-12,45],[7,34],[-15,6],[3,33],[-19,-2],[5,-32],[-40,-22],[-14,-29],[-15,13],[-18,-34],[-11,-42],[-25,-27],[-24,2],[-24,40],[3,29],[-16,22],[3,31],[16,16],[89,46],[36,25],[78,-6],[50,-40],[2,-31],[23,-57],[-4,46],[27,18],[10,-33],[32,12],[-8,26],[-30,13],[0,40],[12,20],[30,2],[20,22],[8,76],[9,35],[30,-32]],[[2187,4571],[89,65],[4,-11],[50,31],[18,-56],[-5,-34],[10,-5],[-13,-66],[-19,-17],[-12,-30],[-17,-16],[-28,32],[-18,-7],[-38,42],[-37,-13],[-6,31],[1,54],[21,0]],[[9986,7127],[13,-1],[-29,-52],[-54,-43],[-11,-54],[16,-75],[14,1],[-1,-76],[-11,-4],[18,-56],[-3,-39],[-22,-43],[-24,-8],[-41,41],[-1,41],[-22,63],[35,156],[3,133],[39,-17],[18,8],[7,-18],[56,43]],[[1073,4368],[19,-98],[46,-38],[-1,-41],[-14,-20],[-30,-17],[-20,19],[-32,-30],[-16,-2],[6,74],[-58,-21],[-4,-40],[-21,-2],[-21,23],[-5,31],[-29,62],[-7,49],[26,44],[19,-1],[11,-26],[43,-29],[17,7],[-16,79],[0,30],[31,13],[-2,13],[35,10],[14,-90],[9,1]],[[2301,1546],[13,-31],[32,4],[9,-58],[-52,16],[-24,38],[-9,-8],[-4,37],[-52,54],[11,28],[41,30],[14,-67],[21,-43]],[[2252,1793],[-26,-31],[-14,7],[-7,-74],[-16,-5],[6,74],[42,44],[39,66],[4,-30],[-28,-51]],[[2173,1704],[5,-25],[-29,-25],[-27,-4],[-5,29],[19,21],[37,4]],[[2149,1808],[-23,-11],[3,37],[20,-26]],[[2317,1399],[0,0]],[[5407,2209],[9,-22],[27,13],[5,-61],[9,-16],[-17,-8],[-7,-28],[-64,5],[-2,-18],[-20,17],[-4,46],[29,48],[35,24]],[[2298,4255],[33,2],[18,-53],[28,-14],[-5,-46],[-17,3],[-11,-21],[-17,23],[-24,-51],[-36,-13],[-15,13],[-13,46],[16,27],[-29,42],[57,72],[15,-30]],[[4790,8959],[-8,26],[-30,37],[-60,86]],[[4692,9108],[143,218]],[[4835,9326],[119,-156]],[[4954,9170],[-72,-110],[-5,-34],[-26,-24],[-6,-23],[-16,0],[-48,-63],[9,43]],[[2473,4107],[15,10],[23,-13],[17,5],[-7,-22],[77,-17],[2,-39],[-59,34],[2,-26],[-15,1],[-62,38],[3,12],[-42,32],[-10,25],[56,-40]],[[5412,9254],[-3,-52],[16,-116],[18,-24],[95,-2],[17,-13],[17,-53]],[[5572,8994],[-23,-34],[-30,-17],[-29,6]],[[5490,8949],[-23,14],[-57,66]],[[5410,9029],[-22,62],[-20,17],[-28,46],[-12,33],[-36,55],[-17,-19],[28,-85],[-25,-23],[-20,23],[-28,52],[-14,41]],[[5216,9231],[-66,103],[-50,59]],[[5100,9393],[-78,101]],[[5022,9494],[37,45],[7,23],[-6,33],[3,55]],[[5063,9650],[37,-38],[18,-34],[29,-99],[14,-26],[41,-47],[136,-217],[57,59],[17,6]],[[5022,9494],[-42,50]],[[4980,9544],[-79,104]],[[4901,9648],[32,50],[24,12],[34,-39],[21,10],[-1,30],[52,-61]],[[4835,9326],[39,56],[106,162]],[[5100,9393],[-146,-223]],[[5073,9015],[-119,155]],[[5216,9231],[-40,-53],[-103,-163]],[[4901,9648],[-38,50]],[[4863,9698],[32,48],[-66,82],[-56,50],[-97,13],[-11,27],[8,13],[-19,30]],[[4654,9961],[51,12],[59,26],[26,-7],[65,-58],[71,-33],[76,-14],[54,-41],[30,-38],[25,-66],[11,-115],[12,-22],[38,-5],[25,-25],[7,-38],[-3,-39],[18,-75],[42,-36],[41,-24],[35,-33],[68,-49],[7,-27]],[[3030,5109],[26,-14],[14,-24],[-39,-17],[-4,-40],[11,-25],[60,-43],[9,-23],[-27,-18],[11,-41],[41,-28],[17,3],[0,-44],[27,-52],[25,-67],[4,-77],[-55,51],[-5,-14],[38,-41],[5,-42],[13,-36],[1,-48],[47,9],[-5,46],[22,25],[29,-18],[11,-20],[21,18],[25,-57],[19,-25],[-12,-3],[-18,-42],[15,-23],[-18,-34],[-31,11],[-8,-24],[-21,27],[-25,-27],[14,-56],[33,-20],[-1,28],[31,26],[26,-33],[5,-57],[-23,12],[-25,-25],[-22,21],[-8,23],[-51,28],[-31,-28],[-64,7],[-12,-24],[-13,13],[-6,37],[-28,22],[7,19],[-12,26],[22,59],[3,25],[-14,102],[6,55],[-7,35],[-20,18],[6,27],[-10,21],[10,35],[-30,60],[55,20],[-2,37],[-13,0],[-3,28],[-20,8],[2,69],[-20,38],[-31,-5],[-9,-17],[-15,26],[2,39],[-7,20],[-29,-10],[-26,44],[-8,49],[22,7],[20,-32],[37,26],[24,6],[12,-32]],[[1268,2670],[15,-5],[25,-96],[29,-21],[16,-29],[3,-44],[-10,-20],[-44,32],[-18,30],[-18,52],[3,56],[-11,26],[10,19]],[[1288,1271],[11,-9],[2,-69],[-37,-2],[-2,68],[6,2],[5,79],[15,-5],[0,-64]],[[1329,1544],[-10,-83],[-8,-6],[-3,55],[26,70],[-5,-36]],[[1352,1625],[-9,-3],[8,69],[-8,26],[17,46],[29,17],[4,-65],[-10,-41],[-31,-49]],[[1384,2058],[-22,-1],[-13,-48],[10,-71],[-9,-5],[-9,39],[2,69],[25,68],[12,13],[4,-64]],[[1369,2199],[-9,-16],[-1,38],[10,-22]],[[1302,2699],[-11,-21],[-25,9],[-28,-9],[5,31],[16,10],[43,-20]],[[1268,2893],[35,-33],[-40,-59],[4,-33],[-55,-49],[-2,19],[30,97],[8,55],[20,3]],[[2221,3155],[-9,-76],[-16,-47],[35,-9],[-21,-64],[-32,18],[-9,-30],[-14,7],[-6,-88],[-11,6],[8,40],[-8,6],[-6,58],[24,73],[13,-4],[16,37],[-17,21],[20,7],[2,40],[13,-1],[-4,78],[10,21],[0,-43],[12,-50]],[[2098,2416],[11,-5],[21,-55],[20,14],[15,-28],[-31,-33],[45,-109],[4,-48],[-11,0],[-4,43],[-21,10],[-13,33],[8,6],[-19,47],[-21,12],[19,12],[-33,107],[10,-6]],[[2124,2495],[-3,-21],[-28,13],[1,-24],[-30,-1],[18,16],[8,26],[34,-9]],[[2145,2826],[13,-6],[-35,-140],[18,-58],[-37,13],[-6,-21],[6,-46],[-9,7],[-17,114],[25,11],[22,81],[-3,40],[23,5]],[[2722,3390],[14,1],[5,-23],[30,21],[8,-14],[-23,-15],[-5,-36],[30,18],[23,-45],[-41,-42],[7,-24],[-19,-62],[-50,-12],[-12,27],[1,37],[25,5],[-9,13],[10,45],[19,5],[-20,25],[5,51],[-12,36],[14,-11]],[[2802,3050],[-2,-45],[-21,32],[-23,-12],[-12,-35],[-14,5],[3,24],[-27,9],[12,34],[46,-14],[-7,16],[40,38],[5,-52]],[[2813,3203],[44,-34],[34,-42],[9,-37],[-22,-15],[-38,77],[-43,44],[16,7]],[[2659,3642],[12,-20],[-18,-18],[26,-41],[17,-50],[26,23],[21,-41],[-17,-44],[-9,25],[-48,45],[-5,19],[-34,58],[22,20],[7,24]],[[2588,3608],[20,-20],[-41,15],[5,15],[-25,22],[7,17],[27,-26],[7,-23]],[[165,819],[68,2],[20,-18],[-7,-26],[-28,-13],[6,-33],[13,-7],[7,-29],[-18,-50],[-2,-38],[-19,-8],[-22,-43],[-25,34],[-33,68],[-14,-8],[-3,35],[11,60],[-8,34],[11,6],[-4,44],[29,24],[18,-34]],[[182,392],[7,-7],[-24,-40],[-25,-11],[17,-10],[-16,-49],[4,-51],[-6,-46],[9,-58],[-25,-18],[5,-57],[-13,-15],[-23,49],[-28,13],[-26,-68],[-15,-23],[-22,68],[47,53],[8,76],[13,37],[27,17],[8,40],[18,29],[0,22],[29,44],[31,5]],[[4493,9138],[40,-51]],[[4533,9087],[-13,-16],[-56,1],[-9,-26],[6,-55]],[[4461,8991],[-36,1],[-76,31],[-62,80],[-1,72],[8,15]],[[4294,9190],[43,1]],[[4337,9191],[107,3],[16,-11],[33,-45]],[[4499,9259],[-48,49],[-46,-34],[-19,5],[-7,64]],[[4379,9343],[14,21],[-40,56],[-12,-7],[-12,41],[28,5],[32,40],[19,12],[26,35]],[[4434,9546],[93,-130],[41,-51],[-69,-106]],[[4360,8797],[32,-39],[42,-17],[-11,-8],[-25,12],[-34,-10],[12,-56],[-5,-30],[21,-64],[-47,-30],[28,-49],[-33,-21],[-23,-1],[1,-18],[-31,-1],[-21,-25],[-7,32],[-40,-4],[-28,-12],[-36,49],[39,30],[51,52],[-25,26],[-6,-9],[-32,66],[-22,12],[0,37],[25,28],[38,-44],[13,11],[11,-22],[23,8],[28,-27],[26,22],[19,-10],[1,49],[-28,17],[21,72],[23,-26]],[[4205,8344],[-53,2],[0,31],[15,28],[-8,11],[9,45],[10,-64],[31,-30],[-4,-23]],[[4588,8783],[-78,57],[-41,11]],[[4469,8851],[14,55],[-27,56],[5,29]],[[4533,9087],[4,8],[41,-53],[8,-1],[7,-73],[12,-40],[-18,-62],[-25,-18],[23,-41],[3,-24]],[[7205,7890],[-41,-30],[-24,-66],[0,-57],[-30,-28],[-2,-24],[12,-46],[21,-35],[-1,-42],[15,-54],[32,-60],[24,-36],[-1,-29],[-29,-23],[-7,-50],[-13,-20],[-24,1],[-25,28],[-26,-20],[-21,3],[-37,-14],[-20,42],[-31,-53],[-21,-21],[-24,-51],[-14,-47],[-42,-63],[-22,13],[-24,-15],[-102,61],[-54,24],[-9,11],[26,64],[3,73],[-11,37],[-6,59],[-14,41],[-45,29],[-8,36],[19,10],[71,58],[-3,18],[-27,-7],[20,27],[-3,44],[41,18],[40,52],[15,35],[50,20]],[[6833,7803],[8,8],[67,203],[-4,45],[6,59],[-17,86]],[[6893,8204],[52,-62],[38,-25],[30,-32],[47,-32],[32,-47],[28,-28],[16,-68],[31,-15],[38,-5]],[[4835,9326],[-120,154]],[[4715,9480],[148,218]],[[4692,9108],[-121,150]],[[4571,9258],[38,55],[106,167]],[[7174,8058],[-2,-42],[21,-52],[16,-16],[4,-40],[-8,-18]],[[6893,8204],[-42,52],[-165,216],[-17,19],[-40,14],[-84,87]],[[6545,8592],[-32,29],[-31,18],[-61,14],[-79,34],[-107,13],[-33,11],[-24,-2],[-46,-27],[-62,-22],[-58,7],[29,53],[0,18],[-19,38],[-36,-10],[-40,-46],[-20,15]],[[5926,8735],[5,19],[88,70],[9,13],[99,-7],[31,3],[44,31],[56,67],[31,25],[24,8],[44,0],[98,-30],[44,-21],[56,-36],[51,-13],[72,-33],[40,-33],[22,-29],[37,-83],[79,-95],[18,-46],[16,-63],[99,-203],[32,-82],[75,-112],[36,-19],[42,-8]],[[5926,8735],[-18,7],[-38,-7]],[[5870,8735],[-22,10],[-46,6],[-42,-10],[-41,20],[-19,-24],[-20,18],[-21,48],[-49,39],[-22,32],[-21,-29],[-11,13],[9,29],[-14,27],[-56,23],[-5,12]],[[5572,8994],[24,-94],[34,-48],[34,-22],[34,-12],[144,-35],[75,15],[23,17],[14,45],[34,31],[23,3],[58,-17],[37,2],[45,33],[27,47],[16,79],[26,12],[20,-33],[21,-12],[73,13],[52,51],[40,14],[52,-32],[72,-64],[36,-8],[36,-37],[63,-17],[60,-34],[76,-89],[25,-43],[34,-110],[22,-105],[45,-119],[29,-26],[30,-6],[12,-26],[20,-84],[67,-164],[22,-16],[36,19],[17,-12],[-6,-52]],[[4790,8959],[-28,-67],[-20,-11],[-61,81],[-11,-1],[-13,-90],[5,-28],[-15,-72],[-24,-32]],[[4623,8739],[-35,44]],[[4493,9138],[46,69]],[[4539,9207],[32,51]],[[6833,7803],[-43,83],[-38,9],[-40,27],[-7,33],[-51,48],[-16,6],[1,21],[-32,-4],[-44,-21],[-27,28],[-8,24],[15,61],[-1,30],[14,24],[6,34],[-8,39],[14,55],[17,21],[65,24],[7,10]],[[6657,8355],[5,15],[-9,37],[-19,34],[-48,49],[-24,7],[-26,40],[9,55]],[[5410,9029],[-19,-14],[3,-18],[-50,-41],[-12,-47],[-26,-51],[-22,-23],[-15,-52],[8,-45],[-1,-125],[-9,-43],[-18,-21],[-34,-3],[-35,12],[-23,-38],[-18,-64],[3,-54],[38,-93],[-5,-49],[20,-13],[-4,-49],[12,-40],[4,-58],[-17,-10],[-9,58],[-20,7],[-18,-38],[-15,1]],[[5128,8118],[-8,42],[29,128],[-11,97],[-17,69],[-1,62]],[[5120,8516],[2,31],[-11,68],[32,137],[-34,59],[-11,71],[1,48],[10,41],[-36,44]],[[4698,8584],[13,2],[60,46],[52,81],[19,52],[-10,79],[18,40],[0,69],[27,-27],[9,-41],[27,-51],[-11,-40],[10,-50],[15,-2],[21,-48],[5,-73],[-14,-26],[15,-81]],[[4954,8514],[-48,-53],[-32,7],[-27,-16],[-35,-34],[28,-27],[-5,-31],[-17,1],[-20,44],[-20,-8],[24,28],[22,54],[-66,81],[-60,24]],[[4410,8871],[18,-2],[11,-39],[-14,-18],[0,-25],[-16,6],[5,21],[-15,47],[11,10]],[[4469,8851],[-39,38],[-13,23],[-18,-16],[-31,25],[-13,-2],[-12,-33],[-17,0],[-32,-37],[-60,-13],[-62,1],[-49,-20],[-29,4],[-37,22],[35,83],[1,74],[-10,40],[-43,36],[-10,27],[14,131]],[[4044,9234],[27,-4]],[[4071,9230],[34,-25],[68,36],[6,-27],[55,18],[26,-18],[28,-4],[6,-20]],[[4715,9480],[-99,122],[-27,17],[-44,47],[-10,27],[-35,-7],[0,-37],[-36,49],[-3,21],[-46,46]],[[4415,9765],[18,23],[21,47],[21,5],[45,-18],[35,-5],[41,13],[26,37],[8,57],[24,37]],[[5120,8516],[-20,1],[-5,68],[-28,-43],[3,-113],[-14,3],[-7,-29],[-19,-20],[0,-46]],[[5030,8337],[-10,2],[-35,64],[-1,46],[-30,65]],[[4698,8584],[-18,7],[-45,46],[-18,40],[-19,19],[-43,-94],[-12,8],[-61,-56],[38,65],[36,25],[36,59],[31,36]],[[4499,9259],[40,-52]],[[4337,9191],[-18,67],[-33,2],[-13,18],[0,73],[97,1],[9,-9]],[[5128,8118],[-13,-51],[-21,-18],[-36,-2],[-19,-14],[-15,18],[29,35],[19,-15],[-1,21],[22,27],[7,28],[-12,8],[3,53],[-26,18],[-8,43],[-27,68]],[[6657,8355],[-21,44],[-23,5],[-15,-16],[-6,23],[-27,-10],[4,27],[-17,-6],[9,25],[-21,9],[-13,21],[-13,-8],[-51,10],[6,23],[-41,17],[-36,-41],[-32,-7],[-17,-23],[-30,-7],[-13,18],[-42,25],[-14,-13],[17,-66],[20,-118],[17,-44],[10,-46],[40,20],[7,-75],[-26,-9],[-58,11],[-40,65],[27,36],[-26,40],[-35,88],[-15,63],[-45,75],[7,7],[-56,34],[-31,2],[-41,46],[-1,29],[-16,9],[-42,44],[-23,8],[-29,-23],[-35,68]],[[4434,9546],[-47,47],[-22,40],[-71,-80],[-18,-53],[-22,-34],[-46,-26],[-28,-6],[-31,-32],[-16,-55],[-43,-51],[-19,-66]],[[4044,9234],[3,122],[9,33],[59,52],[13,21],[11,57],[18,-4],[51,-30],[29,10],[19,55],[2,58],[15,47],[32,29],[52,19],[45,57],[13,5]]]}
