{"type":"Topology","bbox":[-75.26262916573705,5.161455717044686,-75.19802568632969,5.286668949769146],"transform":{"scale":[0.000006460994040140724,0.000012522575529998972],"translate":[-75.26262916573705,5.161455717044686]},"objects":{"municipios":{"type":"GeometryCollection","geometries":[{"type":"Polygon","arcs":[[0,1,2,3]],"properties":{"codigo":"17446100000000000101","sector":"174461000000000001","pcode":"CO17446","area_m2":62982}},{"type":"Polygon","arcs":[[-3,4,5]],"properties":{"codigo":"17446100000000000102","sector":"174461000000000001","pcode":"CO17446","area_m2":33479}},{"type":"Polygon","arcs":[[6,-1,7]],"properties":{"codigo":"17446100000000000103","sector":"174461000000000001","pcode":"CO17446","area_m2":26156}},{"type":"Polygon","arcs":[[-7,8,-5,-2]],"properties":{"codigo":"17446100000000000104","sector":"174461000000000001","pcode":"CO17446","area_m2":56388}},{"type":"MultiPolygon","arcs":[[[9]],[[10]]],"properties":{"codigo":"17446200404001000101","sector":"174462004040010001","pcode":"CO17446","area_m2":44988}}]}},"arcs":[[[728,9842],[-115,-75]],[[613,9767],[-63,24],[-97,42],[-36,-22],[-51,-7]],[[366,9804],[-145,63],[-113,54],[32,17],[-58,37]],[[82,9975],[7,24],[74,-3],[-6,-12],[46,11],[96,3],[1,-22],[103,-29],[21,-15],[-4,-22],[36,-6],[82,-1],[84,-19],[34,-15],[-54,-31],[34,-18],[36,29],[56,-7]],[[366,9804],[-46,-50],[-37,-24]],[[283,9730],[-58,19],[-15,-9],[-46,21],[-65,3],[41,23],[-20,14],[-37,1],[3,21],[-15,34],[40,-6],[24,17],[-28,29],[-37,23],[-65,27],[-5,17],[39,10],[43,1]],[[828,9713],[-10,-11],[-63,4],[-63,24],[-79,37]],[[728,9842],[10,15],[60,28],[40,-18],[-35,-14],[84,-29],[-16,-16],[15,-12],[-59,-33],[1,-50]],[[828,9713],[28,-3],[46,-51],[-52,7],[-61,-11],[-37,31],[-66,-13],[-21,-33],[-27,-8],[-77,24],[0,-14],[-61,10],[-71,-13],[6,18],[-64,46],[-88,27]],[[9756,311],[-54,-10],[-22,-22],[-38,-10],[-5,-21],[18,-6],[-64,-23],[-63,-2],[-21,-35],[39,7],[11,-10],[-64,-22],[15,-21],[-36,-6],[-17,34],[-41,4],[-39,-11],[-34,11],[-65,-48],[-24,-54],[-37,-7],[-75,-30],[30,-12],[-40,1],[-33,-18],[-17,6],[26,21],[-11,19],[-70,-30],[19,23],[68,17],[11,14],[67,-2],[81,60],[32,29],[35,16],[23,45],[-22,50],[-20,-3],[-28,17],[20,13],[23,-13],[35,0],[-18,30],[-33,11],[20,13],[55,-51],[9,-34],[51,0],[6,-15],[80,24],[54,64],[-4,20],[27,6],[-11,-35],[17,-13],[41,-2],[19,19],[37,-4],[119,61],[45,10],[67,49],[20,23],[29,-10],[-80,-53],[-75,-34],[0,-14],[-68,-20],[-20,-16]],[[9778,380],[-6,10],[55,39],[-49,-49]]]}
