{"type":"Topology","bbox":[-75.77360153476303,5.080383124747406,-75.72062095644753,5.172786918761295],"transform":{"scale":[0.000005298587690318873,0.000009241303531742106],"translate":[-75.77360153476303,5.080383124747406]},"objects":{"municipios":{"type":"GeometryCollection","geometries":[{"type":"Polygon","arcs":[[0]]},{"type":"Polygon","arcs":[[1]]},{"type":"Polygon","arcs":[[2,3,4]]},{"type":"Polygon","arcs":[[5,6,7,8,-3]]},{"type":"MultiPolygon","arcs":[[[9]],[[10]],[[11]]]},{"type":"Polygon","arcs":[[-6,-5,12]]},{"type":"Polygon","arcs":[[13,14]]},{"type":"Polygon","arcs":[[15,-15,16,-8]]}]}},"arcs":[[[1550,222],[-64,-12],[-3,-73],[75,47],[47,-42],[16,-73],[-86,8],[-60,-62],[-197,16],[-96,-7],[-88,-24],[65,36],[13,50],[39,7],[105,-20],[39,19],[-16,41],[48,19],[10,-30],[56,14],[-16,85],[74,52],[39,-51]],[[128,7903],[49,3],[113,-29],[18,-104],[49,-65],[70,-21],[-34,-42],[-79,37],[-60,-13],[-11,43],[40,5],[-2,55],[-90,-1],[-37,37],[89,13],[-49,44],[-95,-19],[-99,58],[66,20],[-15,42],[33,12],[69,-67],[-25,-8]],[[1359,9046],[-214,102]],[[1145,9148],[-102,45],[199,150]],[[1242,9343],[267,-119],[46,-14],[-26,-39],[-170,-125]],[[1359,9046],[70,-31],[62,31]],[[1491,9046],[17,-29],[64,-25],[-36,-35],[-102,-24],[-102,5],[-43,-32]],[[1289,8906],[-73,34],[-117,-85],[-137,56],[41,67],[31,15],[-84,25]],[[950,9018],[75,13],[66,58],[-4,34],[58,25]],[[9173,4309],[154,-4],[66,-53],[217,-84],[142,-132],[-4,-74],[59,-30],[192,-51],[-36,-51],[-148,12],[-166,120],[-33,69],[-87,76],[-9,51],[-95,52],[-55,0],[-47,34],[-151,2],[1,63]],[[9096,4575],[63,-46],[-71,-1],[-51,62],[59,-15]],[[8720,4831],[246,-67],[-25,-25],[42,-85],[-65,87],[-86,-12],[16,40],[-179,45],[51,17]],[[1242,9343],[-66,41],[60,27],[56,-6],[-64,90],[136,31],[65,-26],[31,56],[133,76],[-12,126],[-144,118],[-55,11],[72,16],[-40,33],[-156,14],[-47,-29],[-84,19],[51,59],[99,-33],[157,-19],[55,-53],[76,21],[72,-91],[-58,-11],[46,-40],[80,20],[29,-126],[140,14],[-84,-108],[-58,-159],[-37,-50],[44,5],[87,-28],[78,16],[-23,-38],[-124,-1],[-20,-77],[-129,8],[-16,-57],[-84,-98],[-52,-33],[35,-15]],[[1006,8551],[-44,-16],[-38,55],[-71,12],[-48,-87],[-75,-8],[-120,35],[-56,-40],[-56,27],[-99,-31],[-53,47],[-39,-15],[-58,63],[66,34],[-20,31],[95,-35],[109,47],[8,21],[159,-11],[-22,49],[98,-6],[32,52]],[[774,8775],[68,-35],[79,-14],[-8,-67],[93,-108]],[[1289,8906],[-48,2],[-161,-108],[-6,-33],[-76,-16],[-1,-52],[-63,-40],[178,-140],[-42,-5],[30,-57],[143,-62],[-53,-21],[-174,64],[-10,113]],[[774,8775],[-106,111],[40,31],[65,0],[71,52],[44,-3],[62,52]]]}
