{"type":"Topology","bbox":[-74.94463102221334,5.31221067517149,-74.78639233092804,5.5789103730136675],"transform":{"scale":[0.000015825451673697902,0.000026672637047922577],"translate":[-74.94463102221334,5.31221067517149]},"objects":{"municipios":{"type":"GeometryCollection","geometries":[{"type":"Polygon","arcs":[[0]],"properties":{"codigo":"17867200505009000101","sector":"178672005050090001","pcode":"CO17867","area_m2":18245}},{"type":"Polygon","arcs":[[1]],"properties":{"codigo":"17867200106007000101","sector":"178672001060070001","pcode":"CO17867","area_m2":55235}},{"type":"Polygon","arcs":[[2]],"properties":{"codigo":"17867200601008000101","sector":"178672006010080001","pcode":"CO17867","area_m2":40318}},{"type":"Polygon","arcs":[[3]],"properties":{"codigo":"17867200402004000101","sector":"178672004020040001","pcode":"CO17867","area_m2":60820}},{"type":"Polygon","arcs":[[4]],"properties":{"codigo":"17867200605005000101","sector":"178672006050050001","pcode":"CO17867","area_m2":52044}},{"type":"Polygon","arcs":[[5]],"properties":{"codigo":"17867200601001000101","sector":"178672006010010001","pcode":"CO17867","area_m2":15320}},{"type":"Polygon","arcs":[[6,7,8,9,10]],"properties":{"codigo":"17867100000000000101","sector":"178671000000000001","pcode":"CO17867","area_m2":197660}},{"type":"Polygon","arcs":[[11,12,-9]],"properties":{"codigo":"17867100000000000102","sector":"178671000000000001","pcode":"CO17867","area_m2":131782}},{"type":"Polygon","arcs":[[13,-12,-8,14,15]],"properties":{"codigo":"17867100000000000103","sector":"178671000000000001","pcode":"CO17867","area_m2":75074}},{"type":"Polygon","arcs":[[16]],"properties":{"codigo":"17867200102003000101","sector":"178672001020030001","pcode":"CO17867","area_m2":153731}},{"type":"Polygon","arcs":[[17,-15,-7,18,19]],"properties":{"codigo":"17867100000000000104","sector":"178671000000000001","pcode":"CO17867","area_m2":354885}},{"type":"Polygon","arcs":[[20,-16,-18]],"properties":{"codigo":"17867100000000000105","sector":"178671000000000001","pcode":"CO17867","area_m2":184819}},{"type":"Polygon","arcs":[[-19,-11,21]],"properties":{"codigo":"17867100000000000106","sector":"178671000000000001","pcode":"CO17867","area_m2":89262}}]}},"arcs":[[[9939,2642],[26,-28],[29,-17],[5,-7],[-20,-6],[-19,16],[-36,-14],[-15,5],[-24,32],[-12,4],[66,15]],[[7046,7111],[12,3],[37,-16],[69,4],[2,-10],[42,-9],[8,-4],[-16,-16],[16,-10],[-21,-14],[38,-7],[22,-9],[-23,-9],[-18,12],[-19,0],[-35,4],[-27,8],[-55,34],[-78,26],[-12,-11],[-13,4],[7,16],[-9,5],[11,12],[62,-13]],[[931,512],[11,-8],[-86,-12],[-32,-10],[-30,-15],[-18,-12],[-26,-24],[-37,-11],[-6,-5],[-34,-6],[-37,3],[-27,9],[11,12],[-44,6],[26,5],[-4,5],[36,10],[8,-9],[-13,-12],[65,-12],[20,9],[-3,7],[40,26],[-11,22],[11,3],[7,-22],[5,8],[63,26],[60,4],[41,7],[4,-4]],[[2383,4528],[21,-6],[-2,-25],[-12,-1],[14,-13],[1,-15],[-13,1],[-12,-24],[-13,-3],[4,-18],[39,6],[16,-12],[14,-22],[31,-7],[13,-20],[-61,-2],[0,-11],[-16,-3],[5,-14],[21,1],[19,-48],[-24,-6],[-41,14],[0,24],[25,9],[-9,29],[-14,0],[0,19],[-23,-6],[0,14],[32,1],[-6,11],[-26,4],[-18,17],[-3,9],[23,33],[-10,2],[-7,17],[-20,21],[16,12],[4,11],[11,-4],[19,14],[2,-9]],[[6776,241],[76,9],[5,-10],[-1,-18],[-35,-1],[-6,22],[-115,-13],[-45,-2],[-151,25],[-46,0],[1,-18],[-29,-5],[-8,18],[-41,-6],[14,-20],[-49,-7],[-46,-2],[-9,17],[-4,-8],[-23,2],[-6,14],[41,6],[91,21],[18,-15],[50,7],[46,1],[105,-18],[37,-5],[51,2],[1,23],[86,12],[-8,-31]],[[203,388],[16,-17],[-29,4],[-29,-10],[-25,4],[-32,-2],[-57,-23],[-11,-16],[-36,14],[5,17],[22,9],[12,-9],[20,3],[10,-5],[39,13],[39,2],[15,6],[-17,9],[5,4],[26,-5],[22,8],[5,-6]],[[2075,310],[-28,-44],[-22,-44],[-14,-24]],[[2011,198],[-15,-23]],[[1996,175],[-150,33],[-40,14],[-32,14],[-32,3],[-20,13],[-36,6],[-35,11],[-41,3]],[[1610,272],[-66,5],[16,34],[12,15],[21,-1],[59,-16],[95,-4],[15,4],[16,19]],[[1778,328],[26,-13],[53,-9],[34,-15],[36,-8],[13,12],[33,-2],[46,5],[56,12]],[[1996,175],[38,-8],[-28,-47],[-24,-30]],[[1982,90],[-19,-17],[-15,-4],[-30,-26],[-12,-2],[-17,14],[-3,21],[29,25],[10,29],[-26,1],[-15,9],[9,6],[8,23],[-14,2],[-26,-3],[-17,-18],[-13,2],[-51,27],[-20,7],[6,22],[-41,-6],[-35,21],[-41,3],[-26,8],[-8,6],[-17,-1],[-6,10],[9,5],[9,18]],[[2189,7],[-16,-7],[-25,27],[-16,10],[-44,12],[-12,12],[1,16],[-16,15],[-8,0],[-25,-24],[-33,13],[5,5],[-18,4]],[[2011,198],[115,-25]],[[2126,173],[-28,-47],[-2,-12],[10,-15],[38,-40],[35,-21],[-1,-23],[11,-8]],[[8017,9977],[56,-23],[9,-13],[45,-13],[14,5],[12,16],[11,-5],[-7,-15],[26,-7],[4,7],[17,-1],[2,22],[19,-2],[26,9],[66,-6],[43,6],[41,1],[25,-8],[19,-25],[25,-7],[2,-19],[9,-5],[-19,-17],[-26,11],[-19,4],[-27,-10],[-16,-1],[-10,18],[-13,-7],[-54,10],[-21,1],[-2,-15],[-13,1],[1,-18],[-15,1],[8,-21],[-11,-11],[-17,-7],[-48,7],[-9,-9],[16,1],[18,-10],[-7,-8],[-16,4],[-23,-2],[-21,49],[5,13],[-18,12],[-2,19],[-25,2],[-49,18],[16,6],[-12,16],[-36,15],[-60,8],[-22,-2],[9,12],[26,11],[21,4],[18,-8],[-6,-11],[15,-3]],[[2475,111],[-50,1],[-33,2],[-33,7],[-78,19],[-155,33]],[[2075,310],[45,7],[44,2],[40,9]],[[2204,328],[25,7],[22,-16],[-7,-8],[17,-8],[-9,-9],[22,-7],[-27,-22],[14,-7],[-1,-16],[25,-6],[67,-9],[39,-3],[9,-5],[27,18],[9,2],[46,-17],[21,1],[-4,-27],[55,-10],[-28,-19],[1,-12],[-12,-10],[30,5],[47,24],[75,21],[34,2],[22,15],[13,-8],[17,0],[22,-16],[18,-3],[34,9],[12,-10],[-22,3],[-36,-10],[-33,-2],[-20,8],[-23,-16],[-13,-15],[-4,-13],[-8,9],[-28,2],[-24,-4],[-5,16],[-148,-48],[0,-3]],[[2475,111],[1,-1],[94,-37],[5,-6],[-16,-13],[-25,3],[-27,11],[-22,4],[-6,-8],[-30,-8],[-13,4],[8,19],[-27,5],[0,12],[-15,-12],[0,-16],[-11,-2],[1,-20],[5,-11],[-1,-21],[-7,-7],[-41,9],[-19,12],[-19,1],[-41,19],[-13,-4],[-29,21],[-10,13],[-22,2],[-5,-10],[9,-33],[13,-15],[-8,-14],[-15,-1]],[[1778,328],[9,4],[33,-2],[33,15],[39,-2],[-20,19],[10,6],[9,-4],[16,9],[23,-11],[9,13],[24,0],[35,11],[16,23],[28,1],[12,-10],[-2,-12],[-17,-10],[-2,-15],[-24,-30],[32,-12],[33,-7],[52,10],[40,0],[38,4]]]}
