{"type":"Topology","bbox":[-75.59852659063267,5.57346860375644,-75.42663504574244,5.734841584239291],"transform":{"scale":[0.00001719087357638058,0.00001613891193947909],"translate":[-75.59852659063267,5.57346860375644]},"objects":{"municipios":{"type":"GeometryCollection","geometries":[{"type":"Polygon","arcs":[[0,1,2,3]]},{"type":"Polygon","arcs":[[4,5,-2]]},{"type":"Polygon","arcs":[[-3,-6,6,7,8,9]]},{"type":"Polygon","arcs":[[10,-8,11]]},{"type":"Polygon","arcs":[[12,13,14,15,16,-11]]},{"type":"Polygon","arcs":[[17]]},{"type":"MultiPolygon","arcs":[[[18]],[[19]]]},{"type":"Polygon","arcs":[[20]]},{"type":"Polygon","arcs":[[21]]},{"type":"Polygon","arcs":[[22,-13,-12,-7,-5,-1,23]]},{"type":"Polygon","arcs":[[-9,-17,24]]},{"type":"MultiPolygon","arcs":[[[25]],[[26]]]},{"type":"Polygon","arcs":[[27,-14,-23,28]]},{"type":"Polygon","arcs":[[29,30,31,-28]]},{"type":"Polygon","arcs":[[32,33,-15,-32]]},{"type":"Polygon","arcs":[[34,35,-33,-31,36]]},{"type":"Polygon","arcs":[[-35,37]]},{"type":"Polygon","arcs":[[38]]},{"type":"MultiPolygon","arcs":[[[39]],[[40]]]},{"type":"MultiPolygon","arcs":[[[41,42]],[[43]]]},{"type":"Polygon","arcs":[[-42,44]]},{"type":"MultiPolygon","arcs":[[[45]],[[46]],[[47]],[[48]]]}]}},"arcs":[[[8460,2575],[-15,10],[-14,-4],[-17,-28],[-33,-2],[-15,-8],[-17,4],[-32,-24],[-22,29]],[[8295,2552],[-43,71],[-12,-1],[-85,-14]],[[8155,2608],[-19,20],[-40,6]],[[8096,2634],[-1,11],[18,7],[9,-9],[21,-2],[9,10],[41,2],[24,-21],[33,3],[16,17],[29,16],[5,15],[41,-10],[17,42],[1,20],[-15,17],[6,52],[32,-7],[-8,-26],[1,-27],[6,-29],[4,23],[6,-2],[15,-30],[19,-13],[8,-29],[-6,-27],[-12,-19],[18,-19],[23,-15],[4,-9]],[[8295,2552],[-33,-23],[-64,-52]],[[8198,2477],[-68,105],[-15,19],[40,7]],[[8198,2477],[1,-2]],[[8199,2475],[-32,-23],[-66,-52]],[[8101,2400],[-37,55],[-57,72],[-30,53],[-40,20]],[[7937,2600],[6,7],[40,-14],[20,-2],[12,18],[6,41],[37,-4],[38,-12]],[[8291,2340],[-35,-26],[-61,-51],[-42,50],[-52,87]],[[8199,2475],[66,-101],[26,-34]],[[8291,2340],[62,50],[14,-15]],[[8367,2375],[8,-18],[-23,-29],[-6,-42],[-11,-12],[27,-43]],[[8362,2231],[-27,-27],[-18,-23],[27,-28],[-12,-13]],[[8332,2140],[-16,10],[6,7],[-30,27],[-26,7],[-13,-29],[-17,7],[4,17],[-40,37],[-14,-5],[-21,26],[-14,4],[4,20],[-5,12],[-20,19],[-22,-8],[-23,16],[29,22],[-24,33],[-20,-2]],[[8070,2360],[-1,13],[32,27]],[[8495,3418],[10,59],[-3,44],[11,3],[0,-50],[13,-8],[3,-24],[-24,-1],[-6,-30],[0,-31],[-5,-19],[5,-29],[9,-24],[20,-22],[15,-7],[-9,-15],[-16,4],[4,-23],[-16,-11],[1,-23],[-11,-56],[-26,-5],[3,-10],[-29,-6],[-15,-21],[-8,-22],[5,-30],[17,5],[5,-28],[-18,-6],[-3,24],[-8,-2],[-4,28],[3,33],[33,44],[9,-3],[24,32],[2,27],[-10,0],[10,74],[14,8],[-11,30],[-3,36],[9,55]],[[9944,6248],[13,-14],[12,2],[8,-52],[-24,-6],[3,-12],[-21,-6],[-8,67],[7,1],[-2,20],[12,0]],[[9973,6103],[24,-5],[-10,-28],[-23,2],[-1,34],[10,-3]],[[6869,3551],[36,-17],[31,-20],[18,11],[18,-19],[15,-36],[20,-22],[12,-1],[9,-16],[-5,-10],[-33,21],[-42,49],[-62,28],[-24,1],[-5,24],[-38,34],[1,22],[23,-6],[14,-33],[12,-10]],[[6729,1970],[11,-17],[10,3],[11,-20],[2,-52],[14,-68],[20,-50],[-28,-10],[-10,27],[-14,22],[-13,40],[-8,45],[-24,43],[-8,-4],[1,17],[-10,30],[-1,26],[4,47],[-6,41],[16,11],[-8,13],[16,11],[14,-24],[7,-42],[-5,-75],[9,-14]],[[8471,2536],[-25,-40],[-12,-8],[-19,7],[-4,-14],[-21,-27],[-3,-17],[-21,-15],[1,-47]],[[8460,2575],[11,-39]],[[8070,2360],[8,-13],[-31,-25],[-18,-27],[-38,38],[-24,37],[25,50],[-28,26],[5,5],[-17,31],[-42,26],[-23,10],[-16,20],[22,29],[-36,2],[1,22],[-9,22],[-26,28],[-36,18],[4,18],[25,5],[11,-6],[42,-45],[33,-18],[35,-13]],[[6527,3089],[14,-6],[-14,-8],[-1,-16],[8,-26],[-8,-32],[6,-28],[-4,-38],[6,-24],[0,-34],[-5,-29],[32,-82],[3,-15],[22,-32],[19,-17],[39,-18],[35,-3],[2,-9],[-42,5],[-30,13],[-24,17],[-17,1],[-16,28],[-5,28],[-35,80],[8,47],[-2,61],[-3,21],[13,-1],[-9,30],[4,41],[-6,1],[-4,33],[14,12]],[[6878,2764],[26,-2],[57,3],[22,-5],[-4,-13],[-18,11],[-44,-3],[-49,-9],[-45,-17],[-16,-14],[2,-26],[-19,14],[-25,-9],[-10,5],[-26,-5],[-4,6],[-16,-14],[-8,17],[34,13],[17,11],[24,-4],[72,38],[29,10],[1,-7]],[[8596,2296],[-15,-25],[-27,-4],[-30,22],[-1,20],[-22,7],[-21,-5],[-11,7],[12,46],[-11,-17],[-13,-4],[-17,-22],[2,-22],[-10,0],[-16,16],[0,26],[-10,-6],[-3,-16],[11,-34],[-9,-19],[-43,-35]],[[8471,2536],[27,14],[44,-3],[10,-47],[22,10],[32,-39],[1,-22],[-10,-40],[-9,-17],[-15,-5],[-41,10],[19,-42],[22,-34],[23,-25]],[[8596,2296],[4,-11],[54,-19],[-3,-9],[-29,5],[4,-11],[-38,14],[-9,-29]],[[8579,2236],[-20,-19],[4,-27],[-10,-91],[-23,-40]],[[8530,2059],[-47,37],[-19,39],[-9,26],[-36,-21],[-57,91]],[[8530,2059],[-28,-51],[-16,-19],[-4,-32],[-16,-83],[3,-12],[-19,-14]],[[8450,1848],[-5,19],[12,36],[-4,43],[4,28],[8,19],[-11,2],[18,28],[-6,21],[-28,19],[-1,10],[-26,12],[-9,-7],[-30,20],[-15,15],[-17,-4],[-23,11],[15,20]],[[8650,1933],[-19,4],[10,-31],[-1,-14],[-25,-31],[-15,2],[-7,21],[-41,10],[9,-22],[6,-57],[16,-66],[-3,-15],[-29,-22],[36,-51],[57,-76],[12,-7]],[[8656,1578],[6,-6],[38,-12],[5,-11],[-20,6],[-35,3],[3,-18],[-12,-4],[-18,14],[-12,-8],[-12,14],[-19,4],[-11,26],[10,20],[6,48],[-38,23],[-20,-8],[-17,22],[-4,18],[10,8],[10,47],[-12,-2],[-5,22],[-17,17],[-22,0],[-20,47]],[[8579,2236],[5,-10],[-16,-12],[5,-33],[-8,-74],[5,-7],[49,-26],[14,-11],[18,5],[18,-31],[-7,-11],[9,-45],[0,-36],[-21,-12]],[[8650,1933],[9,-8],[17,1],[4,-23],[-10,-30],[3,-18],[-5,-27],[-15,-31],[15,-11],[13,-64],[7,3],[13,-23],[-52,-33],[-4,-15],[5,-33],[13,-17],[-7,-26]],[[7655,379],[41,7],[29,-1],[26,-17],[26,0],[12,-5],[-1,-15],[-16,-20],[13,-10],[-16,-5],[-34,22],[9,16],[-21,20],[-21,2],[-1,-15],[-17,-4],[-20,15],[-38,-7],[-19,-13],[-48,-17],[-23,-2],[-22,-24],[-35,-12],[-8,-11],[33,-46],[-17,-17],[-4,-21],[-12,6],[-13,-29],[-5,2],[-14,-40],[-4,-23],[-28,10],[-31,-14],[-15,-21],[8,-14],[-35,-19],[-3,-6],[-30,11],[-28,-29],[2,-24],[-14,-8],[-22,10],[8,19],[-11,15],[19,14],[57,21],[39,21],[-3,19],[32,9],[25,32],[23,66],[0,17],[26,33],[7,17],[26,15],[16,-3],[14,11],[22,26],[24,6],[19,14],[17,-4],[6,10],[35,6],[14,13],[1,-9]],[[53,9940],[-19,-3],[-8,-11],[16,-12],[-33,-45],[4,23],[9,18],[-11,18],[-11,-2],[6,40],[48,-16],[-1,-10]],[[113,9956],[-12,-15],[-11,8],[-9,44],[23,6],[9,-43]],[[3367,2530],[18,5],[2,8],[60,10],[61,14]],[[3508,2567],[2,-45],[-22,-1],[1,-11],[17,-1],[2,-23],[17,-4],[16,-46],[-26,-17],[-15,22],[-19,-17],[-18,32],[-52,3],[-46,-2],[-34,9],[-15,11],[-15,20],[40,18],[26,15]],[[3431,2356],[-3,-19],[16,-16],[-10,-7],[-14,17],[-33,-10],[-14,-22],[-8,6],[0,-30],[-31,-20],[-11,15],[8,26],[10,7],[-42,33],[3,22],[23,-3],[21,19],[63,8],[12,17],[-1,-24],[11,-19]],[[3367,2530],[11,29],[-8,15],[-21,-8],[-3,7],[22,9],[-2,9],[26,12],[-17,40],[-5,30],[-8,16],[14,7],[-4,21],[-32,-6],[-4,33],[32,3],[-1,34],[-17,31],[14,11],[11,-17],[4,-42],[10,-27],[-6,-5],[5,-39],[14,-2],[7,15],[-3,37],[-7,20],[8,21],[18,-12],[0,-13],[16,-11],[14,16],[13,-4],[-3,-15],[-16,-6],[-17,6],[-16,-8],[6,-47],[-9,-32],[1,-37],[15,-34],[23,-13],[33,-6],[35,13],[56,13],[23,9],[4,-13],[-95,-23]],[[5726,1879],[13,-5],[-3,-13],[12,-3],[-4,-21],[-20,0],[3,-28],[8,0],[-3,-37],[-12,0],[-9,-17],[-8,7],[11,23],[7,0],[1,35],[-11,0],[-2,24],[5,24],[-6,2],[6,26],[13,-5],[-1,-12]],[[5646,1617],[-13,-11],[-27,-5],[-21,-17],[-19,27],[27,20],[31,3],[17,-5],[5,-12]],[[5689,1648],[-12,-6],[13,18],[-1,-12]],[[5716,1751],[6,-23],[10,-11],[-18,-2],[4,-34],[17,-6],[-5,-8],[-30,3],[7,21],[-18,5],[-2,50],[21,-1],[8,6]]]}