{"type":"Topology","bbox":[-75.54437232832714,5.472909443445192,-75.45399460430144,5.557474805131443],"transform":{"scale":[0.000009038676270197018,0.000008457381906815799],"translate":[-75.54437232832714,5.472909443445192]},"objects":{"municipios":{"type":"GeometryCollection","geometries":[{"type":"Polygon","arcs":[[0,1,2]]},{"type":"Polygon","arcs":[[-1,3,4]]},{"type":"Polygon","arcs":[[-3,5,6,7]]},{"type":"Polygon","arcs":[[8]]},{"type":"Polygon","arcs":[[9]]},{"type":"Polygon","arcs":[[10]]},{"type":"Polygon","arcs":[[11]]},{"type":"Polygon","arcs":[[12]]},{"type":"Polygon","arcs":[[13]]},{"type":"Polygon","arcs":[[14]]},{"type":"Polygon","arcs":[[15]]},{"type":"Polygon","arcs":[[16,17,18,19]]},{"type":"Polygon","arcs":[[-19,20,21,22]]},{"type":"Polygon","arcs":[[-7,23,-21,-18,24,25]]},{"type":"Polygon","arcs":[[-20,-23,26]]},{"type":"Polygon","arcs":[[-4,-8,-26,27]]}]}},"arcs":[[[9476,6130],[107,-255],[17,-49],[-11,-50],[29,-55],[-11,-137],[-56,-112],[-44,-199],[-32,-33]],[[9475,5240],[-35,-22],[-71,41],[5,13],[-88,28],[-45,-26],[-43,-6],[-63,18],[-46,1],[-61,73],[57,16],[60,83],[79,33],[66,55],[21,-4],[27,53],[-74,33],[0,41],[35,144],[18,30],[-32,113],[-37,-29],[-36,-9],[-23,71],[28,20],[-3,40]],[[9214,6050],[26,12],[-15,47],[69,33],[35,-84],[147,72]],[[9476,6130],[227,120]],[[9703,6250],[-18,-126],[23,29],[94,-1],[76,27],[18,-14],[54,46],[49,-88],[-52,-59],[18,-33],[-34,-41],[18,-87],[-33,-77],[9,-68],[24,-5],[-70,-55],[-194,-3],[-8,-75],[-47,-57],[2,-27],[-44,-69],[10,-30],[-2,-72],[-23,-44],[2,-31],[-41,-21],[-10,-31],[-49,2]],[[9214,6050],[-30,48],[-76,-50],[-25,-32],[-83,-17],[-145,-44],[-18,14],[-3,58],[17,17],[-44,20],[-3,31],[42,84],[67,36],[17,39],[46,23]],[[8976,6277],[56,-11],[85,45],[23,-10],[68,16],[6,-11],[149,80]],[[9363,6386],[113,-256]],[[2050,7303],[-5,-38],[33,-9],[-2,-108],[-11,-36],[28,-20],[-21,-23],[63,-14],[9,43],[57,-15],[-21,-67],[4,-54],[-16,-78],[6,-23],[-34,-49],[43,-29],[-51,-6],[-8,-32],[-27,5],[5,35],[-73,22],[17,-133],[-17,-4],[0,-46],[-34,8],[15,41],[-16,85],[-21,42],[-33,11],[0,69],[21,-6],[14,29],[25,0],[13,67],[-16,64],[5,61],[-3,117],[36,-5],[-12,33],[11,77],[16,-14]],[[7506,896],[-27,-71],[-25,21],[-59,-113],[29,-9],[4,-76],[-38,-37],[-16,82],[-28,-11],[0,-76],[68,-33],[-15,-47],[-90,39],[-82,-125],[38,-27],[-46,-132],[33,-49],[-18,-20],[1,-65],[31,-7],[-18,-40],[28,-1],[-3,-35],[-22,-1],[2,-49],[-13,-14],[-19,113],[-44,60],[-43,40],[20,29],[-16,49],[7,40],[-17,9],[14,69],[38,3],[-22,33],[-2,57],[44,28],[-24,32],[24,25],[48,-13],[7,56],[63,14],[21,28],[-15,50],[35,12],[30,57],[4,36],[36,40],[55,25],[16,26],[-13,40],[17,60],[2,-122]],[[370,2194],[45,-4],[-32,-36],[-35,-18],[-13,-37],[-7,-130],[-13,-44],[-23,-14],[6,-42],[-24,-9],[-3,-75],[-50,-70],[-7,-52],[-62,-87],[-23,-88],[-70,-75],[12,-46],[-23,-78],[-37,7],[-11,28],[18,69],[49,51],[-9,8],[41,49],[3,81],[29,-5],[18,58],[-27,38],[24,4],[-1,49],[25,32],[-24,19],[18,35],[31,-10],[4,61],[23,12],[8,68],[-11,43],[41,-11],[12,19],[20,90],[-8,59],[22,9],[-17,67],[30,21],[51,-46]],[[5791,335],[55,9],[60,-35],[39,13],[-2,-18],[108,-21],[49,-30],[64,1],[4,-53],[-77,8],[-30,40],[-58,14],[-67,-11],[-106,55],[-106,13],[-68,-12],[15,-16],[-41,-20],[-54,-9],[-37,-29],[-80,-27],[-62,-31],[-11,-25],[-53,-18],[-24,10],[-24,-18],[-15,26],[50,11],[70,37],[-4,17],[109,52],[53,4],[90,42],[42,34],[42,11],[69,-24]],[[5353,4095],[-29,-11],[15,-20],[-42,-73],[-12,-63],[12,-34],[-31,4],[-27,-80],[22,-26],[-24,-54],[-45,-14],[-36,-34],[-41,8],[-67,-38],[-41,-76],[22,-14],[-5,-48],[59,-3],[24,-25],[-9,-37],[-37,-17],[-39,2],[9,-46],[-17,-36],[18,-14],[44,-121],[-55,3],[-20,28],[7,25],[-45,-1],[-40,23],[18,68],[-38,94],[71,25],[-1,97],[14,41],[-22,60],[47,-27],[12,21],[82,58],[63,66],[22,66],[32,-14],[19,44],[8,89],[28,-19],[5,33],[-9,93],[27,-7],[21,30],[31,-26]],[[4058,9893],[15,-4],[25,-127],[72,-52],[9,-51],[-34,40],[-6,-28],[-41,31],[-41,102],[-5,45],[-36,92],[-21,14],[-5,37],[21,7],[5,-33],[42,-73]],[[7529,9519],[-26,-19],[12,-46],[-27,-40],[35,-19],[-11,-15],[59,-22],[-13,-23],[21,-29],[13,17],[27,-66],[-9,-25],[42,-81],[-6,-16],[24,-56],[20,-87],[-23,-61],[3,-83],[19,4],[21,-85],[27,-1],[-22,-25],[31,-62],[-19,-9],[1,-36],[38,-129],[-13,-10],[10,-78],[-18,-1],[-2,-92],[45,-74],[4,-32],[-27,-18],[-16,-49],[-16,19],[3,-96],[-37,32],[-1,53],[21,44],[-6,50],[-18,29],[29,31],[2,104],[-31,4],[17,36],[-19,197],[-33,67],[-10,89],[-11,-2],[-32,75],[44,104],[-33,65],[12,14],[-14,73],[-50,135],[-17,-4],[-12,46],[-51,38],[-31,-4],[11,36],[-23,2],[-6,45],[71,124],[23,-3],[-2,-35]],[[1049,2413],[-29,-118],[-84,-115],[-11,-39],[7,-47],[39,-80],[-76,-27],[-15,107],[-30,-19],[4,41],[19,3],[-25,98],[-50,21],[102,19],[18,13],[12,48],[25,15],[-42,66],[14,32],[45,-29],[35,61],[48,106],[28,-7],[-19,-52],[-15,-97]],[[9599,7224],[1,-34],[-23,-42],[22,-62],[43,-42],[6,-44],[-5,-95],[12,-28],[2,-111]],[[9657,6766],[-72,-51],[-73,-30],[8,-19],[-159,-82]],[[9361,6584],[-108,239]],[[9253,6823],[-38,89],[121,58],[18,-40],[1,69],[-17,55],[8,52],[-46,55],[-19,51],[-26,19],[11,31],[81,10],[74,-7],[4,-79],[57,14],[16,-16],[30,23],[71,17]],[[9361,6584],[-275,-142],[31,-61],[-80,-8],[-52,24]],[[8985,6397],[39,21],[7,36],[-15,79],[-29,17],[-11,86],[-31,70],[-26,36],[40,28],[-36,16],[-26,37],[12,50]],[[8909,6873],[70,-6],[72,-37],[35,-54],[49,-12],[118,59]],[[8976,6277],[46,17],[-37,103]],[[9657,6766],[4,-52],[34,-55],[-7,-65]],[[9688,6594],[-51,-50],[-57,-23],[9,-24],[-151,-77],[-75,-34]],[[8909,6873],[-22,17],[-29,62],[-40,28],[-45,2],[-45,35],[58,56],[-33,55],[100,-55],[47,-88],[20,45],[58,55],[34,-3],[115,34],[43,27],[7,95],[20,66],[-9,44],[-21,25],[54,66],[81,26],[42,70],[-8,68],[-27,34],[-19,-34],[-30,11],[-45,40],[47,71],[70,-32],[-13,66],[38,29],[34,-44],[43,-10],[-13,-56],[31,-4],[68,-63],[21,-78],[31,-6],[-10,-155],[33,-86],[4,-62]],[[9688,6594],[7,-9],[-7,-96],[-57,-47],[-10,-43],[43,-57],[37,-64],[2,-28]]]}
