{"type":"Topology","bbox":[-75.57440142871309,5.227633011945944,-75.52521896637819,5.335663503259876],"transform":{"scale":[0.0000049187381073004835,0.00001080412954434764],"translate":[-75.57440142871309,5.227633011945944]},"objects":{"municipios":{"type":"GeometryCollection","geometries":[{"type":"Polygon","arcs":[[0,1,2]]},{"type":"Polygon","arcs":[[3]]},{"type":"Polygon","arcs":[[4]]},{"type":"Polygon","arcs":[[5]]},{"type":"Polygon","arcs":[[6]]},{"type":"Polygon","arcs":[[7,8,9,-2]]},{"type":"Polygon","arcs":[[10,11,-8,-1]]},{"type":"Polygon","arcs":[[-12,12,-9]]},{"type":"MultiPolygon","arcs":[[[13]],[[14]]]},{"type":"Polygon","arcs":[[15,16]]},{"type":"Polygon","arcs":[[17,-16]]}]}},"arcs":[[[2964,6496],[-378,-80]],[[2586,6416],[-71,67],[-103,79],[-18,29],[-163,102]],[[2231,6693],[246,42],[137,41],[148,3],[123,35],[60,-24],[36,11],[78,-26],[-57,-15],[22,-20],[-68,-28],[11,-23],[-77,-9],[-20,-20],[-109,-32],[114,-57],[45,-41],[27,6],[17,-40]],[[5663,9996],[-13,-88],[-65,-20],[-184,4],[-9,-75],[17,-19],[97,-8],[42,65],[63,-12],[29,-59],[60,-5],[-16,-34],[-51,-5],[-97,-69],[-32,-2],[19,86],[-85,-52],[-83,-7],[-68,21],[10,46],[-97,20],[132,45],[24,45],[13,92],[138,0],[52,32],[104,-1]],[[9321,6154],[77,0],[8,-74],[73,-37],[106,-102],[9,-55],[26,5],[48,-75],[25,-171],[-42,-2],[-65,121],[37,52],[-69,66],[-12,62],[-77,89],[-83,39],[-33,51],[-92,36],[64,-5]],[[2963,783],[26,1],[-93,-80],[-119,-78],[-235,-32],[-74,11],[2,50],[67,-12],[23,-23],[90,27],[-19,22],[106,26],[40,22],[34,-21],[51,47],[76,47],[25,-7]],[[6032,3989],[22,-35],[102,-71],[113,-32],[-43,-35],[-74,-5],[-104,-48],[-29,-35],[138,9],[27,-34],[-48,-13],[-10,-72],[-146,3],[-2,47],[-45,5],[-35,-31],[25,-23],[5,-61],[43,3],[25,-54],[-14,-51],[-85,3],[46,-19],[-7,-44],[-105,2],[-86,49],[10,57],[152,3],[3,26],[-63,1],[-26,72],[-82,77],[62,19],[84,3],[30,74],[65,90],[10,113],[42,7]],[[2586,6416],[-111,-25]],[[2475,6391],[-444,-78],[54,-67],[-112,-24]],[[1973,6222],[-22,-4],[-46,59],[62,20],[-13,26],[-127,93],[-55,-11],[87,-43],[-93,-10],[-11,21],[-139,-19],[-65,-30],[13,53],[-107,41],[-61,0],[-56,-42],[13,41],[85,16],[123,-13],[146,94],[14,40],[90,-10],[85,43],[141,2],[194,104]],[[2964,6496],[115,-6],[34,-17],[-62,-10],[-49,-30],[74,-52],[71,9],[42,-72],[-189,-28],[-111,-26],[17,-26],[-79,-21],[-55,-33],[-80,-15]],[[2692,6169],[-148,161],[-69,61]],[[2692,6169],[-79,-44],[22,-20],[90,-20],[2,42],[64,3],[2,-19],[161,-19],[16,-50],[-42,29],[-123,27],[-90,-33],[-50,2],[-81,39],[-47,45],[-125,-13],[35,-42],[43,-9],[-45,-45],[9,-35],[-81,14],[11,85],[-89,-16],[-96,28],[-106,11],[-1,36],[91,-1],[-30,33],[-102,-4],[-36,-18],[-42,47]],[[9935,8721],[64,-22],[-139,21],[-59,-10],[-64,-34],[-61,-82],[-31,7],[52,47],[8,50],[103,34],[79,6],[48,-17]],[[9338,8475],[-41,-55],[-55,35],[155,57],[-59,-37]],[[948,309],[-79,38],[-298,39]],[[571,386],[42,33],[-152,68],[-97,23],[-46,53],[-168,-13],[-21,-11],[-86,11],[-40,39],[96,21],[51,-35],[184,0],[29,37],[56,-52],[14,-39],[110,21],[23,-49],[135,35],[34,-63],[-69,-17],[121,-49],[66,16],[199,-28],[12,22],[69,-8],[24,-65],[-188,-40],[-21,13]],[[948,309],[-92,16],[-68,-12],[-68,-70],[123,-91],[-24,-12],[43,-79],[-7,-28],[-107,25],[-109,-21],[-94,-37],[-15,15],[94,31],[36,35],[73,25],[-13,38],[-97,68],[-11,105],[-187,-3],[-19,36],[146,10],[19,26]]]}
