{"type":"Topology","bbox":[-75.60732107283161,5.34090895184353,-75.52445582088507,5.40743993172034],"transform":{"scale":[0.000008287353930047364,0.0000066537633640174135],"translate":[-75.60732107283161,5.34090895184353]},"objects":{"municipios":{"type":"GeometryCollection","geometries":[{"type":"Polygon","arcs":[[0,1,2]],"properties":{"codigo":"17388100000000000101","sector":"173881000000000001","pcode":"CO17388","area_m2":135852}},{"type":"Polygon","arcs":[[3,4,-2,5]],"properties":{"codigo":"17388100000000000102","sector":"173881000000000001","pcode":"CO17388","area_m2":36912}},{"type":"Polygon","arcs":[[6,-4,7]],"properties":{"codigo":"17388100000000000103","sector":"173881000000000001","pcode":"CO17388","area_m2":60913}},{"type":"Polygon","arcs":[[-8,-6,-1,8]],"properties":{"codigo":"17388100000000000104","sector":"173881000000000001","pcode":"CO17388","area_m2":167208}},{"type":"MultiPolygon","arcs":[[[9]],[[10]],[[11]]],"properties":{"codigo":"17388200104001000101","sector":"173882001040010001","pcode":"CO17388","area_m2":62439}},{"type":"Polygon","arcs":[[12]],"properties":{"codigo":"17388200103002000101","sector":"173882001030020001","pcode":"CO17388","area_m2":339835}},{"type":"Polygon","arcs":[[13]],"properties":{"codigo":"17388200104007000101","sector":"173882001040070001","pcode":"CO17388","area_m2":82010}},{"type":"Polygon","arcs":[[14]],"properties":{"codigo":"17388200104008000101","sector":"173882001040080001","pcode":"CO17388","area_m2":27197}},{"type":"Polygon","arcs":[[15]],"properties":{"codigo":"17388200101009000101","sector":"173882001010090001","pcode":"CO17388","area_m2":109400}}]}},"arcs":[[[7413,8986],[-28,8],[-34,-149]],[[7351,8845],[-175,30],[-8,-26],[-63,-5],[-39,-22]],[[7066,8822],[-11,20],[61,64],[105,68],[23,30],[-27,19],[-37,65],[17,33],[-62,59],[65,82],[18,45],[45,2],[35,-21],[44,-147],[65,-1],[6,213],[-19,35],[77,241],[-15,74],[37,0],[44,89],[42,-30],[-21,-115],[38,-14],[69,-178],[-44,-77],[-11,-51],[27,-36],[-111,-114],[-29,6],[9,-62],[-45,-59],[1,-72],[-49,-4]],[[7290,8615],[-143,16]],[[7147,8631],[-38,22],[3,62],[-57,53],[11,54]],[[7351,8845],[-36,-150],[-25,-80]],[[7228,7938],[-34,-6],[-3,88],[-95,-57],[-12,-39],[-51,22],[-19,108],[41,137],[55,8],[21,44],[64,-37],[44,24],[67,74],[0,28],[-67,122],[-47,41],[4,57],[-36,26],[-13,53]],[[7290,8615],[-35,-127],[70,-136],[6,-110],[-54,-87],[-2,-90],[15,-104],[-62,-23]],[[7413,8986],[-18,-27],[-33,-155],[26,-9],[-44,-79],[-2,-123],[-19,5],[10,-92],[22,-36],[42,135],[12,-39],[45,-58],[-81,-43],[11,-16],[-29,-102],[1,-65],[17,-52],[-42,-1],[-3,-38],[31,-12],[7,-37],[-22,-54],[-65,8],[23,-72],[13,1],[1,-97],[84,-73],[8,25],[65,-42],[34,39],[29,69],[27,-21],[-16,-35],[6,-54],[-38,-21],[19,-89],[-25,0],[5,-85],[-9,-110],[-46,-429],[-49,26],[-61,-7],[-2,-64],[33,-69],[1,-103],[61,-126],[10,-36],[-29,-23],[-78,14],[-61,-116],[37,200],[-49,-14],[0,21],[-47,62],[54,134],[-28,17],[50,149],[28,-17],[10,59],[-11,58],[-32,35],[-18,70],[52,30],[20,121],[39,131],[-110,131],[-42,19],[12,81],[-21,53]],[[9527,296],[-18,-37],[54,-59],[101,51],[7,-13],[63,42],[14,-28],[70,-14],[24,-19],[58,35],[-11,27],[60,37],[-25,-72],[-49,-27],[29,-18],[37,59],[13,-32],[45,3],[-93,-61],[-2,-47],[23,-24],[37,12],[6,-32],[-49,-79],[-40,158],[-31,5],[-108,52],[-26,26],[-135,-59],[-65,-3],[-17,16],[-34,-39],[-41,-9],[-60,-118],[-12,20],[44,114],[-15,114],[56,22],[11,-13],[49,54],[30,-44]],[[9460,537],[70,-105],[-9,-33],[-100,-59],[-40,-3],[-37,25],[-4,53],[-38,31],[-38,65],[85,-6],[111,32]],[[9988,548],[-59,-102],[-105,-124],[-26,27],[121,184],[69,15]],[[703,6170],[3,-59],[-55,-22],[-24,38],[-57,-6],[-83,-134],[-68,58],[-4,-38],[-24,13],[-98,-188],[-30,-121],[14,-125],[-25,-131],[37,-53],[-25,-53],[2,-50],[58,-181],[-7,-87],[-52,14],[-82,65],[-33,89],[-3,42],[-147,242],[18,84],[26,259],[30,76],[95,123],[74,109],[185,163],[38,54],[32,76],[32,129],[118,200],[117,117],[79,139],[29,93],[2,77],[76,1],[17,-140],[-18,-92],[-46,-91],[-90,-87],[41,-109],[-25,-166],[-6,-84],[6,-80],[-48,-58],[-70,-36],[-9,-70]],[[7691,5655],[5,-171],[-38,-166],[38,-22],[3,-53],[-27,-50],[50,-135],[-41,-123],[51,-47],[20,11],[49,-145],[40,17],[-21,-37],[44,-65],[-30,-20],[-20,-56],[-66,22],[8,37],[-44,22],[-1,44],[-69,17],[21,158],[-20,41],[-73,60],[-33,83],[-51,-3],[18,50],[51,82],[17,-15],[25,42],[-28,27],[14,81],[56,0],[32,174],[-98,129],[-12,65],[111,68],[25,-70],[-6,-52]],[[6738,4561],[79,-78],[-7,-94],[9,-151],[-43,-17],[-48,15],[-27,-14],[-36,22],[25,45],[-17,10],[19,105],[-17,69],[63,88]],[[5467,9982],[-45,-111],[-1,-49],[30,-27],[15,-59],[-41,-38],[21,-89],[99,-41],[-3,-46],[61,-2],[0,-51],[57,-39],[-31,-87],[38,-83],[-20,-87],[-62,-106],[-40,44],[-45,10],[-22,67],[29,16],[-38,32],[-18,-24],[-27,26],[10,34],[-26,39],[-22,-22],[-12,73],[-84,14],[-1,31],[42,39],[59,-29],[23,28],[-24,69],[-16,95],[-10,-20],[-70,57],[-49,69],[21,28],[1,67],[42,51],[2,77],[71,3],[-11,31],[37,21],[9,-29],[51,18]]]}
