{"type":"Topology","bbox":[-75.16430936078507,5.181803711712065,-75.08805869700763,5.274617783711169],"transform":{"scale":[0.000007625828960640425,0.000009282335433453764],"translate":[-75.16430936078507,5.181803711712065]},"objects":{"municipios":{"type":"GeometryCollection","geometries":[{"type":"Polygon","arcs":[[0,1,2,3,4]]},{"type":"Polygon","arcs":[[5,6,7,8]]},{"type":"Polygon","arcs":[[9,10,11,12]]},{"type":"Polygon","arcs":[[-7,13,-4,14,15]]},{"type":"Polygon","arcs":[[-15,-3,16,17]]},{"type":"Polygon","arcs":[[-17,-2,18]]},{"type":"Polygon","arcs":[[-14,-6,19,20,21]]},{"type":"Polygon","arcs":[[22,-5,-22]]},{"type":"Polygon","arcs":[[-12,23,-10,24,-20,-9,25]]},{"type":"Polygon","arcs":[[-11,-24]]},{"type":"Polygon","arcs":[[26]]},{"type":"Polygon","arcs":[[27]]},{"type":"Polygon","arcs":[[28]]},{"type":"MultiPolygon","arcs":[[[29]],[[30]],[[31]],[[32]],[[33]]]}]}},"arcs":[[[1392,7487],[-45,-48],[-30,-19],[-62,21],[-127,-49],[-62,-16],[-28,-19],[-83,-30],[-40,1],[-36,-47]],[[879,7281],[-67,81],[-29,61]],[[783,7423],[33,26],[48,21],[132,44],[58,7],[-29,85]],[[1025,7606],[311,51]],[[1336,7657],[37,-123],[19,-47]],[[1848,8049],[-72,-127],[-306,-57],[-180,-40]],[[1290,7825],[-47,168],[-16,30]],[[1227,8023],[12,13],[-12,35],[89,31],[7,-10],[79,22],[-20,80],[17,18],[31,-9],[5,44],[-24,78],[48,21],[49,-156],[40,-81],[40,16],[45,40],[74,11],[45,31],[40,2],[20,74],[26,23],[48,17],[91,128]],[[1977,8451],[58,-12],[47,1],[8,-29],[51,-50],[17,-54],[-26,-29],[-88,-75],[-84,-32],[-23,-58],[-61,-30],[-28,-34]],[[2429,8495],[-38,-9]],[[2391,8486],[-36,22],[-21,118],[17,27],[-35,15]],[[2316,8668],[-74,35],[-21,27],[5,49],[-41,20],[75,68],[-2,57],[32,40],[64,54],[-35,60]],[[2319,9078],[1,43],[22,12],[10,37],[48,-9],[31,22],[-5,46],[33,-27],[3,-41],[30,7],[43,-8],[58,5],[26,21],[39,3],[10,-19],[84,2],[-15,-40],[-55,-68],[-20,-65],[-61,-33],[-7,-17],[-14,-107],[36,-15],[33,-66],[-55,-17],[-19,15],[-93,14],[-7,-5],[18,-70],[-7,-33],[-47,-125],[18,-29],[-28,-16]],[[1290,7825],[46,-168]],[[1025,7606],[-24,86],[-36,-3],[-39,17],[12,56]],[[938,7762],[43,36],[-20,38],[-63,19],[-22,61],[-25,15],[-14,34],[2,46],[65,-29],[30,-28],[12,-55],[64,-23],[-7,38],[45,5],[12,-40],[33,2],[-5,33],[-35,19],[-19,62],[85,2],[0,37],[53,4],[12,-25],[43,10]],[[783,7423],[-92,120],[13,11],[-90,71],[9,21]],[[623,7646],[40,15],[-3,22],[59,4],[39,17],[15,-9],[63,18],[47,29],[-4,11],[59,9]],[[879,7281],[87,-25],[21,-53],[-14,-31],[29,-28],[23,5],[12,-26],[36,12],[75,51],[40,13],[23,-9],[12,-48],[-58,-19],[-4,-38],[-49,7],[-8,-143],[9,-33],[-13,-21],[-25,58],[-16,-2],[-26,41],[-152,81],[-30,33],[-30,-13],[-38,16],[-44,36],[-45,16],[-7,44],[-46,-1],[-40,-16],[-11,57],[-29,14],[-46,-25],[-28,29],[-53,20],[-19,18],[-72,-15],[-44,6],[-10,45],[-20,11],[-59,-7],[38,27],[-8,12],[-58,1],[-29,19],[26,16],[23,-7],[52,24],[40,6],[34,22],[-29,26],[-6,37],[-33,4],[-23,-18],[-33,8],[-31,60],[-64,11],[-59,-16],[-36,18],[-13,23],[33,13],[100,20],[99,-40],[129,0],[83,-20],[12,15],[19,93],[16,9],[47,-19],[18,-22],[66,-17]],[[1848,8049],[37,20],[-13,-46],[13,-54]],[[1885,7969],[-8,-88],[-17,-15]],[[1860,7866],[-86,-114],[-21,-46],[-38,6],[-47,30],[-9,-13],[-162,-41],[-161,-31]],[[1860,7866],[34,-22],[78,-19],[52,-57],[-53,-15],[-51,8],[5,-25],[-44,-83],[-4,37],[-71,49],[-84,-71],[-28,-3],[32,-38],[15,-58],[48,24],[52,-95],[53,-50],[-9,-32],[18,-40],[-33,-12],[-53,-39],[9,-9],[-47,-33],[-46,-12],[0,19],[34,8],[73,43],[-5,29],[-71,-18],[7,61],[-38,39],[-56,-22],[10,15],[-40,33],[-104,-28],[-40,5],[-72,-57],[-42,-82],[-2,-61],[-58,-8],[18,28],[4,36],[28,32],[16,-3],[49,92],[-29,52],[-23,3]],[[2316,8668],[-50,-70],[-61,-10],[1,-46],[41,-38],[-45,-25],[-23,-25],[15,-39],[79,7],[5,-8],[113,3],[0,69]],[[2429,8495],[-21,-51],[6,-65],[-18,-34],[-49,-47],[-3,-31],[25,-11],[-76,0],[-50,24],[-56,10],[-56,-29],[-67,-67],[-80,-36],[-40,-75],[84,-48],[70,-2],[9,-36],[54,4],[-14,-35],[-54,1],[-28,-16],[-12,32],[-168,-14]],[[1977,8451],[-11,58],[9,21],[42,25],[40,54],[-7,42],[-20,44],[10,42],[28,20],[4,28],[37,59],[71,68],[30,76],[-5,67],[-18,76],[10,41],[-7,33],[-28,50],[33,21],[58,-46],[-27,-49],[20,-25],[-34,-29],[11,-42],[45,0],[20,13],[31,-20]],[[8627,3749],[-26,-63],[-71,-84],[-22,13],[-18,-67],[-55,-46],[-25,-57],[-36,-60],[-78,-45],[-35,-41],[-56,-40],[21,-23],[-63,-39],[-14,-28],[-42,-43],[-20,22],[23,29],[11,38],[79,125],[-33,14],[23,23],[109,3],[42,20],[30,65],[-18,4],[31,23],[15,41],[87,59],[64,66],[-12,6],[26,55],[-20,17],[23,31],[28,-19],[32,64],[25,31],[23,-14],[-48,-80]],[[7048,9956],[41,-98],[-40,-27],[49,-55],[95,-27],[7,17],[45,-25],[36,-56],[56,-28],[130,-44],[33,-70],[23,-27],[-1,-34],[-20,-20],[-29,39],[-22,12],[42,16],[-12,67],[-19,19],[-107,35],[-37,-49],[-68,24],[-48,-27],[-14,91],[24,2],[-22,30],[-93,21],[-14,19],[-58,17],[-22,21],[-2,36],[-63,8],[27,-52],[3,-43],[-59,-19],[-35,53],[-20,102],[33,52],[-30,-12],[-43,21],[1,18],[82,25],[58,-36],[34,47],[59,-43]],[[5055,469],[-11,-35],[24,-42],[32,16],[34,-59],[5,-28],[-55,0],[-107,-59],[-159,-126],[34,-18],[-28,-37],[-42,20],[-2,-32],[-23,-21],[-100,-48],[16,45],[-20,31],[35,17],[50,-9],[20,22],[21,-3],[-15,34],[32,23],[14,34],[54,49],[15,-14],[24,18],[15,81],[27,14],[47,-31],[70,42],[-47,75],[-43,17],[5,22],[38,-2],[17,21],[23,-17]],[[9619,6953],[-21,-11],[9,-29],[-26,-14],[9,-41],[-11,-59],[15,-2],[-7,-38],[16,-7],[-12,-28],[-94,3],[-6,20],[-43,-25],[25,-24],[-98,-84],[4,-9],[-55,-38],[-50,-19],[-26,30],[116,69],[-33,62],[35,12],[24,-42],[31,47],[54,40],[82,-3],[24,120],[-47,50],[3,14],[48,-13],[5,21],[29,-2]],[[9195,6540],[-7,-35],[-89,-35],[-9,13],[30,16],[-13,35],[33,-5],[55,11]],[[9651,6866],[32,-5],[7,-42],[-48,-11],[-10,51],[19,7]],[[9642,6934],[29,-17],[83,-1],[-9,-23],[-49,6],[-38,-7],[-16,42]],[[9951,6996],[-27,-47],[-70,-49],[-60,-11],[-9,24],[31,0],[52,19],[31,33],[-19,23],[22,25],[16,-19],[71,47],[10,-16],[-48,-29]]]}
