{"type":"Topology","bbox":[-75.88288431631378,5.0532531047918745,-75.86156587087095,5.070512989987241],"transform":{"scale":[0.0000021320577500580185,0.000001726161135650257],"translate":[-75.88288431631378,5.0532531047918745]},"objects":{"municipios":{"type":"GeometryCollection","geometries":[{"type":"Polygon","arcs":[[0,1,2]]},{"type":"Polygon","arcs":[[3,4,5,-3,6,7]]},{"type":"Polygon","arcs":[[8,9,10,11,-6]]},{"type":"Polygon","arcs":[[-1,-12,12,13,14]]},{"type":"Polygon","arcs":[[-11,15,16,-13]]},{"type":"Polygon","arcs":[[17,18,-16,-10]]},{"type":"Polygon","arcs":[[-7,-2,-15,19]]},{"type":"Polygon","arcs":[[20,-4,21]]},{"type":"Polygon","arcs":[[22,-18,-9,-5,-21]]}]}},"arcs":[[[4852,5328],[-720,250],[-418,163]],[[3714,5741],[159,572],[269,1268]],[[4142,7581],[269,-295],[82,16],[-32,-302],[63,-122],[223,16],[228,-168],[142,99],[146,7],[-88,-217],[-323,-1287]],[[5702,7763],[85,-201],[118,-147],[372,-330],[157,221],[671,548],[-205,-900]],[[6900,6954],[-499,-2115]],[[6401,4839],[-726,245],[-87,0],[-736,244]],[[4142,7581],[120,516]],[[4262,8097],[33,181],[-84,195],[343,-68],[354,3],[624,-393],[170,-252]],[[6401,4839],[383,-118],[-243,-982],[-372,122]],[[6169,3861],[-392,122],[-123,-449],[-39,-11],[-729,237]],[[4886,3760],[-389,121]],[[4497,3881],[355,1447]],[[4497,3881],[-759,250],[-1,123],[103,379],[-385,138],[-87,-335]],[[3368,4436],[-59,102],[-164,24]],[[3145,4562],[-41,276],[147,120],[37,161],[184,222],[-139,266],[-50,301],[431,-167]],[[4886,3760],[-240,-916],[-397,99],[-97,-320],[25,-510]],[[4177,2113],[-96,49],[-27,195],[-204,57],[59,285],[-88,157],[24,213],[-69,150],[-421,-104],[-121,86],[8,158],[162,190],[51,174],[-43,145],[-3,461],[-41,107]],[[6169,3861],[-124,-147],[34,-318],[88,-23],[122,-448],[-118,-71],[50,-152],[85,37],[81,-139],[-97,-145],[-13,-245],[-112,-74],[-8,-388],[132,-224]],[[6289,1524],[-305,90],[-88,-75],[118,-214],[-29,-55],[-310,69],[-70,-192],[-233,-29],[-109,86],[-141,257],[-4,144],[-202,-8],[-125,50],[-98,118],[-76,240],[-128,85],[-230,-28],[-82,51]],[[3145,4562],[-331,-182],[-132,-10],[-313,142],[-130,-39],[-204,-138],[-28,181],[-250,-52],[-146,17],[-159,-70],[-43,141],[-168,41],[-101,145],[-109,-27],[-133,132],[-129,-158],[-146,72],[-74,187],[27,213],[-57,15],[-193,-177],[-109,49],[-44,-130],[73,-158],[-238,-34],[-5,201],[62,264],[120,107],[45,362],[95,173],[321,478],[-34,319],[103,319],[410,453],[-95,55],[52,117],[743,901],[-223,317],[262,527],[370,-519],[223,247],[602,-329],[1203,-617]],[[9999,6860],[-479,-238],[-142,17],[-849,272],[-68,-33],[-151,-262],[-141,-69],[-506,165],[-9,-42],[-754,284]],[[5702,7763],[109,140],[71,271],[297,599],[470,1015],[273,211],[283,-30],[159,-291],[321,-240],[159,-157],[265,-575],[472,377],[203,127],[203,69],[584,82],[138,-537],[-14,-336],[11,-466],[54,-232],[145,-347],[94,-421],[0,-162]],[[9999,6860],[-45,-179],[-224,-273],[-147,-362],[-58,-381],[30,-463],[132,-557],[-25,-274],[-98,-219],[-206,-183],[-413,-156],[-241,-127],[-268,-292],[-63,-162],[-48,-275],[34,-170],[141,-243],[151,-157],[439,-350],[209,-377],[24,-297],[-98,-315],[-355,-387],[-116,-69],[-422,-126],[-349,-251],[-84,-215],[-383,309],[-41,126],[-197,168],[-54,295],[-217,91],[-238,-30],[-136,88],[-54,260],[-179,173],[-111,44]]]}