{"type":"Topology","bbox":[-75.84032002014067,4.937530449452966,-75.79582639003308,5.046880570564102],"transform":{"scale":[0.000004449807991557289,0.000010936105721685797],"translate":[-75.84032002014067,4.937530449452966]},"objects":{"municipios":{"type":"GeometryCollection","geometries":[{"type":"Polygon","arcs":[[0,1,2,3,4]],"properties":{"codigo":"17088100000000000205","sector":"170881000000000002","pcode":"CO17088","area_m2":18241}},{"type":"Polygon","arcs":[[5]],"properties":{"codigo":"17088200103008000101","sector":"170882001030080001","pcode":"CO17088","area_m2":75293}},{"type":"Polygon","arcs":[[-3,6,7,8,9,10]],"properties":{"codigo":"17088100000000000201","sector":"170881000000000002","pcode":"CO17088","area_m2":22202}},{"type":"Polygon","arcs":[[11,-4,-11,12]],"properties":{"codigo":"17088100000000000202","sector":"170881000000000002","pcode":"CO17088","area_m2":88025}},{"type":"Polygon","arcs":[[13,14,-7,-2]],"properties":{"codigo":"17088100000000000204","sector":"170881000000000002","pcode":"CO17088","area_m2":9396}},{"type":"Polygon","arcs":[[-9,15,16,17,18,19]],"properties":{"codigo":"17088100000000000103","sector":"170881000000000001","pcode":"CO17088","area_m2":26385}},{"type":"Polygon","arcs":[[20,-16,-8]],"properties":{"codigo":"17088100000000000104","sector":"170881000000000001","pcode":"CO17088","area_m2":7660}},{"type":"Polygon","arcs":[[21,22,-18,23]],"properties":{"codigo":"17088100000000000106","sector":"170881000000000001","pcode":"CO17088","area_m2":26067}},{"type":"Polygon","arcs":[[24]],"properties":{"codigo":"17088200101002000101","sector":"170882001010020001","pcode":"CO17088","area_m2":24023}},{"type":"Polygon","arcs":[[25]],"properties":{"codigo":"17088200101003000101","sector":"170882001010030001","pcode":"CO17088","area_m2":31381}},{"type":"Polygon","arcs":[[26,27,-24,-17,-21,-15]],"properties":{"codigo":"17088100000000000105","sector":"170881000000000001","pcode":"CO17088","area_m2":25513}},{"type":"Polygon","arcs":[[-5,-12,28,29]],"properties":{"codigo":"17088100000000000203","sector":"170881000000000002","pcode":"CO17088","area_m2":55679}},{"type":"Polygon","arcs":[[30,31]],"properties":{"codigo":"17088100000000000101","sector":"170881000000000001","pcode":"CO17088","area_m2":166089}},{"type":"Polygon","arcs":[[32,-31,33,-19,-23]],"properties":{"codigo":"17088100000000000102","sector":"170881000000000001","pcode":"CO17088","area_m2":34472}},{"type":"Polygon","arcs":[[34,35,-27,-14,-1,-30,36]],"properties":{"codigo":"17088100000000000206","sector":"170881000000000002","pcode":"CO17088","area_m2":46480}},{"type":"Polygon","arcs":[[-35,37]],"properties":{"codigo":"17088100000000000301","sector":"170881000000000003","pcode":"CO17088","area_m2":68638}},{"type":"MultiPolygon","arcs":[[[38]],[[39]],[[40]]],"properties":{"codigo":"17088200106001000101","sector":"170882001060010001","pcode":"CO17088","area_m2":35777}}]}},"arcs":[[[6529,5363],[-37,-32],[73,-13],[-65,-58]],[[6500,5260],[-154,26]],[[6346,5286],[-136,26]],[[6210,5312],[29,28],[-73,15],[42,35],[61,-21],[28,28]],[[6297,5397],[232,-34]],[[635,5445],[9,-34],[209,-44],[-71,-85],[-60,-30],[-37,-8],[-117,27],[-21,-34],[-59,-34],[-69,-11],[-95,-26],[-120,-10],[-19,4],[-32,113],[-115,13],[-35,42],[142,1],[84,19],[76,9],[47,16],[36,38],[89,10],[-8,9],[128,16],[38,-1]],[[6346,5286],[-84,-85]],[[6262,5201],[-71,12],[-64,-63],[-69,12]],[[6058,5162],[-5,1]],[[6053,5163],[19,16],[-34,40],[-40,8],[21,20],[-72,22],[73,1],[56,12],[-74,19],[-6,15]],[[5996,5316],[49,0],[22,21],[143,-25]],[[6205,5477],[21,5],[138,-28],[-67,-57]],[[5996,5316],[-12,39],[-30,27],[-91,9],[-151,-73],[-131,-55],[-35,-28],[-120,10],[-62,28],[-31,-29],[-48,15],[-59,38],[-20,42],[34,-2],[87,24],[78,31],[63,52],[153,8],[92,-8],[105,1],[-4,20],[128,47],[24,-26],[99,-12],[71,6],[69,-3]],[[6500,5260],[-65,-61]],[[6435,5199],[-33,-32],[-74,13],[-66,21]],[[6058,5162],[-71,-61],[69,-12],[33,30],[72,-14]],[[6161,5105],[64,-11]],[[6225,5094],[-101,-114]],[[6124,4980],[-73,16],[22,25],[-83,11]],[[5990,5032],[-80,5],[-46,37],[-42,-9],[-62,11],[-187,-20],[-38,19],[27,16],[205,4],[77,5],[76,66],[108,-10],[25,7]],[[6262,5201],[-101,-96]],[[6525,5039],[-24,-29],[-77,-50],[-46,-3],[-23,-26],[46,2],[1,-16],[49,-8],[-29,-28],[-85,9]],[[6337,4890],[-30,63],[-204,4],[21,23]],[[6225,5094],[222,-38],[78,-17]],[[9911,9866],[63,-2],[25,-36],[-102,-50],[-78,-31],[8,-34],[93,5],[0,-23],[-96,4],[21,-26],[-61,-63],[-52,-33],[-70,26],[64,31],[3,18],[-42,24],[19,9],[1,43],[-23,19],[42,-2],[55,49],[73,41],[70,9],[-53,19],[7,44],[59,43],[-34,4],[-8,20],[82,25],[8,-31],[-52,-28],[23,-7],[-57,-45],[12,-22]],[[9094,8579],[-82,-94],[8,-31],[-52,-15],[34,-21],[-19,-47],[-47,-62],[-72,-39],[25,-29],[-177,-42],[-42,-42],[-72,4],[-19,-9],[-60,15],[19,17],[101,39],[-112,45],[43,20],[139,-51],[91,40],[37,-8],[24,37],[-121,15],[-4,37],[162,-8],[21,66],[48,30],[-37,6],[32,77],[36,52],[51,-3],[25,62],[65,-4],[-45,-57]],[[6435,5199],[83,-16]],[[6518,5183],[13,-5],[-44,-54],[78,-43],[42,2],[75,-44],[-44,-4],[-113,4]],[[6205,5477],[-31,22],[39,44],[-11,22],[47,11],[106,-41],[37,7],[43,-16],[32,35],[105,14],[63,-16],[82,34],[-1,17],[122,25]],[[6838,5635],[-35,-33],[140,-44],[-207,-87],[-64,-40],[-58,10],[-85,-78]],[[5845,4868],[93,1],[252,-43],[94,-8]],[[6284,4818],[17,-16],[105,13],[-10,-33],[89,6],[48,-20],[-39,-17],[9,-20],[-29,-26],[-45,-12],[-18,-36],[83,23],[99,-5],[144,-50],[-72,-13],[47,-19],[-63,-29],[-21,-42],[23,-36],[-9,-37],[-97,-2],[-71,28],[-39,24],[-108,29],[45,-46],[-72,-39],[-164,-43],[36,-10],[-112,-43],[-58,-37],[-53,6],[-8,-21],[60,-13],[51,-25],[-113,-6],[-12,-20],[52,-6],[-30,-31],[-60,-25],[-7,-32],[-40,1],[-9,-37],[-71,-51],[-71,21],[-34,32],[-69,-2],[-39,-15],[-79,17],[-37,48],[180,-9],[80,7],[63,-12],[8,27],[59,21],[0,26],[-41,7],[9,34],[29,32],[-46,8],[39,17],[17,32],[95,38],[114,9],[-5,42],[28,53],[53,45],[64,40],[-80,32],[24,38],[-74,0],[27,31],[35,0],[-15,30],[37,21],[52,0],[-54,17],[-103,0],[-4,7],[-100,1],[-97,19],[50,24],[-52,9],[20,12],[-40,19],[40,40]],[[6337,4890],[-53,-72]],[[5845,4868],[-16,6],[73,45],[-77,14],[82,2],[100,93],[-17,4]],[[7289,5705],[49,-4],[-21,-29],[94,-3]],[[7411,5669],[-28,-56],[-48,-18],[-51,27],[-178,-10],[-78,-18],[17,-15],[-105,-54],[-51,-16],[-16,-25],[-40,6],[-36,-22],[-46,-8],[-13,-19],[35,-8],[-48,-58],[-56,-29],[19,-7],[-50,-48],[-27,-7],[-41,-50],[-56,-29],[4,-22]],[[6838,5635],[115,4],[33,11],[106,9],[54,14],[28,-8],[115,40]],[[7289,5705],[45,21],[-32,2],[-68,-19],[11,29],[59,57],[102,-8],[33,24],[79,25],[37,19],[-2,29],[-48,47],[25,48],[67,28],[13,16],[67,15],[95,-2],[96,18],[-41,19],[93,33],[20,18],[-30,7],[31,25],[42,-7],[18,21],[42,-6],[-101,-89],[46,18],[16,-25],[-26,-21],[60,-31],[-34,-32],[-49,14],[-59,0],[-57,11],[-23,-42],[-80,-59],[16,-40],[-54,-45],[-8,-19],[92,-56],[-257,-16],[-114,-63]],[[3499,540],[47,-10],[31,10],[56,-18],[73,-45],[-34,-13],[54,-17],[108,-7],[15,-37],[-45,2],[-33,19],[-23,-10],[-110,33],[-51,-22],[-23,11],[-82,-41],[-29,7],[24,58],[-32,52],[-38,18],[35,20],[57,-10]],[[3917,266],[0,-14],[76,4],[3,-51],[59,-44],[-34,-55],[-22,-3],[67,-37],[124,-4],[-23,-14],[38,-36],[-90,-12],[-2,14],[-52,22],[18,24],[-44,-13],[-69,2],[-16,46],[36,10],[-15,15],[28,46],[-68,38],[-73,-9],[2,33],[31,13],[-50,68],[-8,47],[35,1],[44,-61],[5,-30]],[[3376,562],[-78,26],[40,16],[81,-22],[-43,-20]]]}
