{"type":"Topology","bbox":[-75.05108435540097,1.6319944430750672,-74.15823925704626,2.745677392121673],"transform":{"scale":[0.00008929343917938916,0.00011137943284794537],"translate":[-75.05108435540097,1.6319944430750672]},"objects":{"municipios":{"type":"GeometryCollection","geometries":[{"type":"Polygon","arcs":[[0]]},{"type":"Polygon","arcs":[[1]]},{"type":"Polygon","arcs":[[2,3,4,5,6]]},{"type":"Polygon","arcs":[[7,-3,8,9,10]]},{"type":"Polygon","arcs":[[11,12,13,-4,14]]},{"type":"Polygon","arcs":[[15,-15,-8,16,17,18]]},{"type":"Polygon","arcs":[[19,20,21,22,23]]},{"type":"Polygon","arcs":[[-6,24,25,26]]},{"type":"Polygon","arcs":[[27,28,29,-10,30,31]]},{"type":"Polygon","arcs":[[32,33,34,-28,35,36]]},{"type":"Polygon","arcs":[[37]]},{"type":"Polygon","arcs":[[38,39,40,41]]},{"type":"Polygon","arcs":[[-26,42]]},{"type":"Polygon","arcs":[[43,44,45,46]]},{"type":"Polygon","arcs":[[47,48,-42,49,-33,50,-44]]},{"type":"Polygon","arcs":[[-50,-41,51,52,-34]]},{"type":"Polygon","arcs":[[-53,53,-29,-35]]},{"type":"Polygon","arcs":[[54,55]]},{"type":"Polygon","arcs":[[56,-23,57,-56]]},{"type":"Polygon","arcs":[[58,59,60,-18,61,-39,-49,62]]},{"type":"Polygon","arcs":[[-40,-62,-17,-11,-30,-54,-52]]},{"type":"Polygon","arcs":[[-59,63]]},{"type":"Polygon","arcs":[[64,-19,-61]]},{"type":"Polygon","arcs":[[65,-20,66]]},{"type":"Polygon","arcs":[[67,68,-46]]},{"type":"Polygon","arcs":[[69,-68,-45,-51,-37,70,-66]]},{"type":"Polygon","arcs":[[-71,-36,-32,71,-21]]},{"type":"Polygon","arcs":[[72]]},{"type":"MultiPolygon","arcs":[[[73]],[[74]]]},{"type":"Polygon","arcs":[[75]]},{"type":"Polygon","arcs":[[76]]},{"type":"Polygon","arcs":[[77]]},{"type":"Polygon","arcs":[[78]]},{"type":"Polygon","arcs":[[79]]},{"type":"Polygon","arcs":[[80]]},{"type":"Polygon","arcs":[[81]]},{"type":"Polygon","arcs":[[82]]},{"type":"Polygon","arcs":[[83]]},{"type":"Polygon","arcs":[[84]]},{"type":"Polygon","arcs":[[85]]},{"type":"Polygon","arcs":[[86]]},{"type":"Polygon","arcs":[[87,-13]]}]}},"arcs":[[[5484,36],[11,-7],[6,-7],[-3,-2],[2,-1],[-5,-4],[-4,3],[-7,-5],[-2,1],[-7,-6],[-6,-1],[-7,0],[-14,-1],[1,-6],[-6,0],[0,10],[9,-2],[3,0],[-4,8],[5,2],[-3,1],[1,4],[9,2],[3,3],[5,-4],[3,2],[-1,1],[11,9]],[[25,9979],[-4,0],[-15,-5],[-6,17],[6,2],[-1,3],[7,3],[8,-6],[3,-3],[2,-6],[2,-2],[-2,-3]],[[3136,4352],[-4,-4],[-2,0],[-5,-4],[3,-3],[6,4],[5,-4],[13,-15]],[[3152,4326],[-12,-6],[-22,-13]],[[3118,4307],[-31,21],[-16,6],[-4,-1]],[[3067,4333],[0,9],[6,2],[6,5],[5,1],[-1,5],[0,4],[3,4]],[[3086,4363],[6,-1],[4,-2],[5,1],[7,0],[5,-2],[5,3],[2,-1],[4,1],[2,-1],[1,-3],[-1,-3],[6,0],[4,-3]],[[3178,4349],[-8,-5],[5,-5],[-23,-13]],[[3136,4352],[6,9],[0,2]],[[3142,4363],[7,-2],[8,2],[2,2],[-1,5]],[[3158,4370],[3,-2],[1,-2],[4,-3],[3,-5],[3,-2],[6,-7]],[[3170,4276],[-2,-2],[5,-9],[1,-11],[6,-15],[9,-9],[8,-5],[-4,-14],[2,-4],[-1,-3],[-2,-4],[-4,0],[-10,2],[-7,-2],[-6,1],[1,4],[-3,1],[2,4],[-7,1],[0,3],[7,1],[6,3],[-1,7],[-5,-3],[-6,6],[-2,0]],[[3157,4228],[-10,12],[14,8],[-2,6],[-2,5],[-7,-4],[-2,3],[6,4],[-2,3],[-5,5],[5,3],[-4,0]],[[3148,4273],[-4,-1],[-1,1],[5,3],[-5,1],[1,5],[3,-2],[5,6],[-5,2],[-15,9],[-14,10]],[[3152,4326],[17,-19],[7,-6],[-9,-1],[-2,-4],[3,-4],[1,-5],[-5,-7],[6,-4]],[[3212,4305],[3,-5],[-3,-6],[4,-1],[2,1],[3,0],[-5,-3],[-3,0],[-2,-2],[-3,2],[-7,0],[-5,5],[-1,-1],[-13,-7],[0,-1],[-12,-11]],[[3178,4349],[5,-6],[10,-4],[5,2],[2,2],[0,8],[3,2],[7,5]],[[3210,4358],[-1,-5],[5,-10]],[[3214,4343],[-2,-5],[1,-9],[-1,-3],[-7,-14],[-5,-3],[3,-2],[4,0],[5,-2]],[[3201,4490],[-1,-4],[1,-8],[0,-12]],[[3201,4466],[-5,0],[-5,-2],[-3,1],[-3,-1]],[[3185,4464],[-1,17],[1,10],[-9,-1],[-2,4]],[[3174,4494],[15,3],[12,2]],[[3201,4499],[0,-9]],[[3067,4333],[-20,-1],[-16,-8],[-6,3],[-13,5],[-2,-3],[-5,2],[1,4],[-1,5],[-1,9],[-4,-1],[-5,0]],[[2995,4348],[2,2],[8,4],[4,1],[10,-1],[11,-4],[8,-1],[3,2],[5,2],[-1,1],[0,6],[-1,2]],[[3044,4362],[0,2],[7,5],[5,6],[-4,8],[-7,-5],[-2,3],[3,3],[11,8],[0,3],[3,2],[-5,5],[-5,5],[1,2],[7,-6],[6,-7],[7,-10],[0,-9],[5,-5],[-2,-3],[2,-2],[4,1],[2,-4],[4,-1]],[[3188,4418],[-1,-3]],[[3187,4415],[-1,-1]],[[3186,4414],[-1,-3],[-2,-10],[-2,-4],[-5,-3],[-8,-3],[-6,-5],[-4,-4],[-1,-4],[1,-8]],[[3142,4363],[-3,2],[1,3],[4,-1],[8,19],[-2,5],[4,2],[1,5],[11,8],[5,-4],[3,3],[0,6],[-3,10]],[[3171,4421],[11,2],[2,-6],[4,1]],[[3241,4453],[-1,-3],[-3,1],[-5,-13]],[[3232,4438],[-16,0]],[[3216,4438],[-9,1],[-1,-3],[-2,-5],[-2,-1],[4,-2],[-10,-18],[-9,5]],[[3188,4418],[5,10],[2,15],[4,10]],[[3199,4453],[4,1],[38,-1]],[[2806,4342],[5,-2],[-1,-1],[15,-6],[-5,-10],[-2,-3],[-2,1],[-13,-13],[-19,-4],[-11,0],[1,17],[3,2],[0,6],[-2,0],[-1,5],[-4,16],[2,0],[21,-4],[13,-4]],[[3288,4402],[-13,-4],[-7,-1],[-8,0],[-20,2],[-6,2]],[[3234,4401],[-2,4]],[[3232,4405],[0,2]],[[3232,4407],[1,6],[13,5],[2,-3],[7,2],[-1,2],[3,1],[1,-2],[9,3],[3,2],[4,-7],[7,2],[6,-11],[1,-5]],[[2995,4348],[-3,0],[-1,5],[-2,3],[2,1],[-1,11],[4,0],[0,6],[2,1],[7,0],[-3,-3],[0,-5],[3,-1],[2,2],[3,-1],[-1,-4],[5,-2],[1,2],[8,-3],[9,3],[10,-10],[3,1],[1,5],[0,3]],[[3279,4440],[-2,0],[-2,-4],[1,-3],[-3,-1],[0,5],[-2,2],[0,7],[-10,2],[-7,2],[-7,1],[0,2]],[[3247,4453],[3,0]],[[3250,4453],[9,0],[23,0],[0,21]],[[3282,4474],[5,1],[3,-2],[0,-4],[4,0],[3,-2],[2,-7],[-3,-1],[1,-5],[3,-2],[-1,-3],[-2,0],[0,-3],[2,0],[2,-3],[-2,-2],[-9,0],[0,4],[-4,0],[0,-2],[-4,0],[0,-3],[-3,0]],[[3279,4440],[-1,-2],[4,-10],[17,5],[4,-10],[13,4],[2,4],[3,-1],[-1,-5],[-3,-2],[-4,-13]],[[3313,4410],[-1,0],[-17,-5],[-7,-3]],[[3232,4407],[-1,8],[-2,3],[1,4],[-2,1],[-1,5],[5,8],[0,2]],[[3241,4453],[6,0]],[[3232,4405],[-4,0],[-12,-4],[-11,4]],[[3205,4405],[12,23],[-5,2],[4,8]],[[3205,4405],[-6,1],[-4,2],[-5,4],[-4,2]],[[3171,4585],[1,9],[8,8],[11,12],[9,12],[26,-16],[-24,-23],[-1,-2]],[[3201,4585],[-6,-2],[-3,-3],[-6,0],[-15,5]],[[3201,4585],[-1,-9],[7,-32],[1,-4],[-5,-14],[-1,-9],[-1,-18]],[[3174,4494],[0,2],[4,10],[5,7],[-2,2],[5,3],[0,3],[3,0],[7,9],[1,7],[2,6],[-3,15],[-1,0],[-4,16],[-10,-3],[-1,-6],[-10,2],[-1,9],[2,9]],[[3307,4368],[-4,-2]],[[3303,4366],[-3,5],[-3,1],[-8,5],[-4,1],[0,2],[-10,6],[-1,-3],[3,-2],[-1,-3],[-8,-2],[-2,-2],[-8,-4],[-4,-3],[-4,-2],[-6,0],[-4,2],[-7,-1],[-3,-2],[-2,-6],[-7,-7],[3,-5],[-2,-6]],[[3222,4340],[-8,3]],[[3210,4358],[1,6],[0,4],[-4,7],[4,5],[10,3],[9,8],[5,3],[1,3],[-2,4]],[[3313,4410],[4,2],[4,-9],[3,1],[3,-4],[-4,0],[0,-7],[-6,-9],[-2,-5],[-12,0],[1,-7],[3,-4]],[[3307,4368],[1,1],[3,-3],[15,2],[2,-10],[2,-1],[12,2],[3,-2],[1,-11],[-3,-1],[3,-14],[-4,0],[0,-2],[-6,-2],[-2,-1],[0,-7],[-25,0],[-1,8],[-3,17],[1,5],[-3,17]],[[3222,4340],[4,-5],[13,-4],[1,3],[12,1],[1,-2],[-1,-4],[1,-3],[1,-7],[-24,1],[-6,1],[-3,-2],[-2,-6],[-4,-3],[-2,-5],[-1,0]],[[3246,4465],[-7,1],[-8,-1],[-6,2],[-6,0],[-5,-3],[-7,2],[-4,2],[-2,-2]],[[3201,4490],[6,-2],[10,-2],[0,-2],[3,-2],[8,0],[0,-1],[9,0],[10,2],[3,0],[2,2],[14,8],[10,1],[1,-11],[-17,-2],[1,-7],[-5,-4],[-10,-1],[0,-4]],[[3250,4453],[0,12]],[[3250,4465],[13,0],[0,3],[7,4],[7,2],[5,0]],[[3246,4465],[4,0]],[[3199,4453],[1,7],[1,6]],[[3171,4421],[-1,5],[-2,2],[-21,-4],[-4,1],[-2,-1],[-6,0],[-4,2],[-6,-1],[3,7],[0,5],[3,-2],[8,-3],[6,1],[1,7],[4,1],[0,4],[17,1],[2,4],[3,1],[0,5],[3,3],[3,0],[2,3],[4,0],[1,2]],[[1374,6626],[2,-2],[11,3],[7,-3],[6,-1],[1,2],[9,-1],[-1,-4],[-3,-9],[1,1],[0,-5],[-2,0],[3,-7],[4,-4],[-2,-1],[1,-3],[5,-3],[0,-9],[2,-4],[-1,-4],[-7,1],[-13,4],[-6,5],[-1,0],[-23,16],[-13,10],[0,1],[-6,0],[0,8],[-1,4],[7,1],[1,3],[3,-2],[7,0],[0,7],[9,-4]],[[7360,1891],[6,0],[2,-1],[1,3],[4,0],[7,-15],[-19,-3],[1,2],[-3,3],[0,4],[-3,2],[-1,4],[3,4],[0,-3],[2,0]],[[7387,1889],[3,0],[-2,-3],[-6,0],[3,1],[0,2],[2,0]],[[4017,2635],[21,-4],[2,1],[-1,4],[3,-1],[-1,-3],[2,-1],[-1,-4],[4,-1],[-1,-2],[3,-2],[-1,-3],[3,-2],[1,-2],[-5,-11],[6,-2],[4,-2],[3,-5],[2,-2],[1,2],[4,-2],[-3,-3],[-1,1],[-4,-3],[6,-9],[-6,-8],[-6,3],[1,4],[-2,4],[-3,1],[-4,-6],[-3,0],[-12,5],[2,-6],[-4,-5],[-9,8],[1,4],[-7,3],[-3,4],[-2,-1],[2,-5],[-6,-1],[-1,3],[-2,-1],[-2,7],[7,2],[7,4],[2,4],[-1,4],[9,4],[1,1],[3,-1],[5,8],[-6,2],[1,4],[-3,1],[0,4],[-2,1],[0,3],[-13,2],[-2,-8],[0,-9],[-2,-1],[-3,7],[-5,14],[0,1],[21,-4]],[[2682,2138],[5,-3],[1,-6],[2,0],[2,-2],[1,-15],[1,-1],[-3,-9],[-4,0],[0,5],[-3,2],[-15,0],[0,8],[-10,0],[-3,3],[0,4],[-4,0],[-1,3],[-4,0],[-1,9],[4,0],[0,-3],[11,0],[0,1],[5,0],[0,3],[10,0],[6,1]],[[3124,414],[9,-3],[2,3],[6,-2],[-2,-5],[-3,-2],[1,-3],[3,1],[-2,-5],[3,-1],[-5,-10],[-2,-2],[-5,0],[-1,-5],[7,-8],[-6,0],[-4,4],[2,-4],[-5,1],[-7,3],[-3,-6],[-9,2],[5,8],[-2,1],[2,3],[-2,4],[2,6],[-1,3],[2,3],[1,-1],[5,9],[2,-1],[6,7],[1,0]],[[2929,6632],[7,-1],[3,3],[-7,-20],[5,-1],[-1,-2],[-5,2],[0,-2],[-15,4],[3,8],[-2,0],[1,3],[-2,0],[3,7],[7,-2],[1,4],[2,-3]],[[5536,4426],[1,-1],[4,5],[3,-2],[5,7],[4,-2],[-2,-4],[11,-5],[-2,-2],[6,-4],[9,5],[6,-6],[-8,-5],[-2,0],[0,-2],[-5,-4],[-6,2],[-1,-2],[-6,-7],[1,-1],[-3,-4],[-2,-1],[-9,5],[-3,-2],[-1,2],[2,3],[1,4],[-2,2],[-3,-1],[-3,-3],[-5,0],[-5,-3],[-3,4],[1,2],[-2,2],[-7,4],[-9,9],[-4,6],[-3,2],[14,7],[-8,7],[6,4],[15,-16],[0,-1],[10,-2],[5,-2]],[[2988,937],[23,-25],[-16,-5],[-3,2],[-6,3],[-11,0],[0,3],[-7,-1],[0,2],[-4,0],[1,1],[-1,9],[8,2],[-1,4],[8,2],[-1,1],[4,2],[6,0]],[[1365,4436],[4,-3],[3,2],[2,-3],[10,-4],[-1,-2],[-4,1],[-11,-6],[-5,-2],[-1,-2],[-2,3],[-6,-2],[-7,3],[-6,-3],[0,3],[9,6],[-2,2],[4,6],[4,0],[9,1]],[[1900,9592],[3,-1],[-2,-6],[0,-1],[-3,-2],[0,-3],[-4,0],[-3,2],[-4,-1],[-3,-3],[2,-8],[1,-2],[6,-2],[-1,-6],[-7,-10],[1,0],[-3,-8],[1,-3],[-3,1],[0,4],[8,15],[2,4],[-1,2],[-4,2],[0,-2],[-5,3],[-1,5],[3,1],[-1,4],[-3,1],[0,5],[-3,3],[4,4],[4,1],[8,3],[5,1],[3,-3]],[[9996,1453],[3,-4],[-2,-3],[-7,-1],[0,-1],[2,-9],[-2,-4],[-8,-1],[-9,5],[-5,-3],[-2,2],[5,2],[3,0],[-2,3],[-1,5],[-4,0],[2,5],[-1,2],[12,6],[-2,3],[4,2],[7,-3],[5,-3],[2,-3]],[[3290,8288],[-8,-8],[-2,2],[-2,-2],[4,-3],[-8,-6],[3,-6],[-9,0],[0,-3],[-4,0],[2,5],[-2,5],[7,1],[-2,1],[3,3],[-6,4],[2,1],[7,-2],[-2,2],[2,5],[2,0],[9,9],[2,5],[-3,9],[-1,3],[2,4],[8,2],[2,-9],[-6,-16],[-2,-4],[2,-2]],[[2270,9245],[1,-2],[9,2],[3,4],[12,-2],[6,0],[5,-5],[-5,-3],[-1,-5],[4,0],[5,-3],[3,-6],[-2,-1],[-3,1],[0,4],[-3,3],[-7,0],[-2,5],[-1,4],[-5,-1],[-3,1],[0,-4],[-7,0],[-1,3],[-5,1],[-3,-1],[-3,4],[-3,0],[-1,-5],[-3,-2],[-5,1],[-3,-1],[0,2],[3,1],[5,-1],[2,5],[3,2],[0,6],[2,0],[0,-3],[3,-4]],[[3323,7988],[0,-1],[9,0],[0,2],[11,-5],[3,-5],[2,-5],[-6,-1],[-7,1],[0,-6],[-5,-1],[0,-4],[-3,1],[0,10],[-4,2],[-6,0],[-7,4],[4,1],[0,6],[9,1]],[[3157,4228],[-6,-2],[-8,-2],[-10,-3],[-12,-4],[-4,0],[1,6],[-3,5],[-18,14],[-21,10],[5,9],[5,2],[7,0],[7,-2],[8,-1],[22,5],[4,-1],[3,0],[5,5],[6,4]]]}
