{"type":"Topology","bbox":[-75.77015621622172,1.0588349712757499,-75.59526501903588,1.1985844471858982],"transform":{"scale":[0.00001749086880546488,0.000013976345225537384],"translate":[-75.77015621622172,1.0588349712757499]},"objects":{"municipios":{"type":"GeometryCollection","geometries":[{"type":"Polygon","arcs":[[0,1,2]],"properties":{"codigo":"18860100000000000103","sector":"188601000000000001","pcode":"CO18860","area_m2":64774}},{"type":"Polygon","arcs":[[3]],"properties":{"codigo":"18860200704001000101","sector":"188602007040010001","pcode":"CO18860","area_m2":126763}},{"type":"Polygon","arcs":[[4]],"properties":{"codigo":"18860200707002000101","sector":"188602007070020001","pcode":"CO18860","area_m2":45976}},{"type":"Polygon","arcs":[[5]],"properties":{"codigo":"18860200602005000101","sector":"188602006020050001","pcode":"CO18860","area_m2":71420}},{"type":"Polygon","arcs":[[6,7,8,9,10]],"properties":{"codigo":"18860100000000000101","sector":"188601000000000001","pcode":"CO18860","area_m2":177062}},{"type":"Polygon","arcs":[[11,-7,12,-1,13]],"properties":{"codigo":"18860100000000000102","sector":"188601000000000001","pcode":"CO18860","area_m2":111258}},{"type":"Polygon","arcs":[[-2,-13,-11,14]],"properties":{"codigo":"18860100000000000104","sector":"188601000000000001","pcode":"CO18860","area_m2":73750}},{"type":"Polygon","arcs":[[15,16,-9]],"properties":{"codigo":"18860100000000000105","sector":"188601000000000001","pcode":"CO18860","area_m2":69519}},{"type":"Polygon","arcs":[[-16,-8,-12,17]],"properties":{"codigo":"18860100000000000106","sector":"188601000000000001","pcode":"CO18860","area_m2":103934}}]}},"arcs":[[[3853,9858],[-39,38],[-43,15],[-119,3]],[[3652,9914],[2,83]],[[3654,9997],[80,-2],[125,-16],[55,-16],[-61,-105]],[[113,234],[38,-30],[44,-18],[8,-20],[-9,-91],[-28,-14],[9,-37],[-61,11],[-4,-34],[-52,21],[5,20],[-62,35],[16,15],[-11,54],[-4,88],[58,-1],[15,47],[-12,26],[10,51],[27,19],[21,-22],[-8,-120]],[[7105,246],[39,-10],[5,-19],[-24,-14],[35,-48],[49,-145],[-23,-10],[-28,26],[-32,73],[-23,-13],[-13,39],[-18,-14],[-25,23],[33,34],[-22,35],[34,-10],[-3,52],[16,1]],[[9930,891],[16,-15],[26,20],[27,-3],[-18,-49],[-40,-68],[-78,-79],[-18,30],[-54,27],[4,34],[23,0],[7,23],[-10,58],[19,-13],[9,28],[44,4],[27,19],[16,-16]],[[3651,9851],[-6,-173]],[[3645,9678],[8,-75],[-41,-27],[-17,-84]],[[3595,9492],[-123,57],[7,113],[-21,1]],[[3458,9663],[-7,6],[6,90],[-7,39]],[[3450,9798],[12,0],[4,58],[185,-5]],[[3783,9739],[-22,-41],[-44,19],[-21,-38],[-51,-1]],[[3651,9851],[1,63]],[[3853,9858],[13,-11],[-45,-63],[-8,-32],[-30,-13]],[[3450,9798],[10,116],[-15,1],[12,55],[42,-22],[59,-5],[3,54],[93,0]],[[3595,9492],[46,-27],[-75,-70],[7,-36]],[[3573,9359],[-16,-19],[-38,59],[-24,9],[-65,63],[17,55],[10,80],[1,57]],[[3783,9739],[-16,-57],[-4,-93],[-30,22],[-13,-31],[-22,6],[0,-63],[-39,-165],[-20,-65],[-66,66]]]}
