{"type":"Topology","bbox":[-75.65249509017252,1.5273708870563654,-75.43743788673436,1.80650990072357],"transform":{"scale":[0.000021507871130929486,0.000027916693036024075],"translate":[-75.65249509017252,1.5273708870563654]},"objects":{"municipios":{"type":"GeometryCollection","geometries":[{"type":"Polygon","arcs":[[0,1,2,3]],"properties":{"codigo":"18001100000000030106","sector":"180011000000000301","pcode":"CO18001","area_m2":56138}},{"type":"Polygon","arcs":[[4,5,6,7]],"properties":{"codigo":"18001100000000020402","sector":"180011000000000204","pcode":"CO18001","area_m2":33314}},{"type":"Polygon","arcs":[[8,9,10,11,12]],"properties":{"codigo":"18001100000000040401","sector":"180011000000000404","pcode":"CO18001","area_m2":53056}},{"type":"Polygon","arcs":[[13,14,15]],"properties":{"codigo":"18001100000000010205","sector":"180011000000000102","pcode":"CO18001","area_m2":33895}},{"type":"Polygon","arcs":[[16,17,18,19]],"properties":{"codigo":"18001100000000020503","sector":"180011000000000205","pcode":"CO18001","area_m2":25217}},{"type":"Polygon","arcs":[[20,21,-4,22]],"properties":{"codigo":"18001100000000030107","sector":"180011000000000301","pcode":"CO18001","area_m2":104730}},{"type":"Polygon","arcs":[[23,24,25,26,27,28,29]],"properties":{"codigo":"18001100000000030301","sector":"180011000000000303","pcode":"CO18001","area_m2":76009}},{"type":"Polygon","arcs":[[30,-24,31,32]],"properties":{"codigo":"18001100000000030201","sector":"180011000000000302","pcode":"CO18001","area_m2":24693}},{"type":"Polygon","arcs":[[33,34,35,-26,36,37,38]],"properties":{"codigo":"18001100000000030302","sector":"180011000000000303","pcode":"CO18001","area_m2":75266}},{"type":"Polygon","arcs":[[39,40,41,-35,42]],"properties":{"codigo":"18001100000000030303","sector":"180011000000000303","pcode":"CO18001","area_m2":47790}},{"type":"Polygon","arcs":[[43,44,45,46]],"properties":{"codigo":"18001100000000040302","sector":"180011000000000403","pcode":"CO18001","area_m2":88586}},{"type":"Polygon","arcs":[[47,48,49,50]],"properties":{"codigo":"18001100000000040503","sector":"180011000000000405","pcode":"CO18001","area_m2":31622}},{"type":"Polygon","arcs":[[-51,51,52,-9,53,54]],"properties":{"codigo":"18001100000000040504","sector":"180011000000000405","pcode":"CO18001","area_m2":60652}},{"type":"Polygon","arcs":[[55,56,57,58,59,60]],"properties":{"codigo":"18001100000000010301","sector":"180011000000000103","pcode":"CO18001","area_m2":75807}},{"type":"Polygon","arcs":[[61,62,63,64,65,66,67]],"properties":{"codigo":"18001100000000020102","sector":"180011000000000201","pcode":"CO18001","area_m2":97443}},{"type":"Polygon","arcs":[[68,-29,69,70,-64,71]],"properties":{"codigo":"18001100000000020103","sector":"180011000000000201","pcode":"CO18001","area_m2":53403}},{"type":"Polygon","arcs":[[72,-72,-63,73]],"properties":{"codigo":"18001100000000020104","sector":"180011000000000201","pcode":"CO18001","area_m2":49318}},{"type":"Polygon","arcs":[[74,75,76,-56,77]],"properties":{"codigo":"18001100000000010302","sector":"180011000000000103","pcode":"CO18001","area_m2":120013}},{"type":"Polygon","arcs":[[78,-74,-62,79]],"properties":{"codigo":"18001100000000020105","sector":"180011000000000201","pcode":"CO18001","area_m2":52633}},{"type":"Polygon","arcs":[[80,-78,-61,81,82,83]],"properties":{"codigo":"18001100000000010401","sector":"180011000000000104","pcode":"CO18001","area_m2":138352}},{"type":"Polygon","arcs":[[84,-32,-30,-69,-73,-79,85,86]],"properties":{"codigo":"18001100000000030203","sector":"180011000000000302","pcode":"CO18001","area_m2":92988}},{"type":"Polygon","arcs":[[-71,87,88,-65]],"properties":{"codigo":"18001100000000020203","sector":"180011000000000202","pcode":"CO18001","area_m2":98750}},{"type":"Polygon","arcs":[[89,90,-8,91,92]],"properties":{"codigo":"18001100000000020404","sector":"180011000000000204","pcode":"CO18001","area_m2":29545}},{"type":"Polygon","arcs":[[-70,-28,93,94,95,96,97,-88]],"properties":{"codigo":"18001100000000020301","sector":"180011000000000203","pcode":"CO18001","area_m2":179467}},{"type":"Polygon","arcs":[[98,-93,99,100]],"properties":{"codigo":"18001100000000020405","sector":"180011000000000204","pcode":"CO18001","area_m2":18704}},{"type":"Polygon","arcs":[[101,-90,-99,102]],"properties":{"codigo":"18001100000000020406","sector":"180011000000000204","pcode":"CO18001","area_m2":28635}},{"type":"Polygon","arcs":[[103,-95,104]],"properties":{"codigo":"18001100000000020302","sector":"180011000000000203","pcode":"CO18001","area_m2":50603}},{"type":"Polygon","arcs":[[-42,105,106,107,-105,-94,-27,-36]],"properties":{"codigo":"18001100000000020501","sector":"180011000000000205","pcode":"CO18001","area_m2":61012}},{"type":"Polygon","arcs":[[108,-18,109,-100,-92,-7,110,-96,-104,-108]],"properties":{"codigo":"18001100000000020303","sector":"180011000000000203","pcode":"CO18001","area_m2":143929}},{"type":"Polygon","arcs":[[111,112,113,114,115,116,117]],"properties":{"codigo":"18001100000000030103","sector":"180011000000000301","pcode":"CO18001","area_m2":134420}},{"type":"Polygon","arcs":[[-116,118,119]],"properties":{"codigo":"18001100000000030104","sector":"180011000000000301","pcode":"CO18001","area_m2":103306}},{"type":"Polygon","arcs":[[120,-33,-85,121]],"properties":{"codigo":"18001100000000030204","sector":"180011000000000302","pcode":"CO18001","area_m2":60391}},{"type":"Polygon","arcs":[[122,-117,-120,123,-2]],"properties":{"codigo":"18001100000000030105","sector":"180011000000000301","pcode":"CO18001","area_m2":75038}},{"type":"Polygon","arcs":[[124,125,-38,126,127,128]],"properties":{"codigo":"18001100000000030202","sector":"180011000000000302","pcode":"CO18001","area_m2":133865}},{"type":"Polygon","arcs":[[-127,-37,-25,-31,-121,129]],"properties":{"codigo":"18001100000000030205","sector":"180011000000000302","pcode":"CO18001","area_m2":63096}},{"type":"Polygon","arcs":[[130,131,132]],"properties":{"codigo":"18001100000000040103","sector":"180011000000000401","pcode":"CO18001","area_m2":104314}},{"type":"Polygon","arcs":[[133,134,135,136,137]],"properties":{"codigo":"18001100000000040106","sector":"180011000000000401","pcode":"CO18001","area_m2":137438}},{"type":"Polygon","arcs":[[138,139]],"properties":{"codigo":"18001100000000040107","sector":"180011000000000401","pcode":"CO18001","area_m2":110858}},{"type":"Polygon","arcs":[[140,141,142,-139,143]],"properties":{"codigo":"18001100000000040108","sector":"180011000000000401","pcode":"CO18001","area_m2":110332}},{"type":"Polygon","arcs":[[144,145,146,147,148]],"properties":{"codigo":"18001100000000040201","sector":"180011000000000402","pcode":"CO18001","area_m2":60731}},{"type":"Polygon","arcs":[[149,-146,150,-82,-60]],"properties":{"codigo":"18001100000000040202","sector":"180011000000000402","pcode":"CO18001","area_m2":57801}},{"type":"Polygon","arcs":[[151,-147,-150,-59]],"properties":{"codigo":"18001100000000040204","sector":"180011000000000402","pcode":"CO18001","area_m2":58079}},{"type":"Polygon","arcs":[[152,-83,-151,-145,153,-46]],"properties":{"codigo":"18001100000000040301","sector":"180011000000000403","pcode":"CO18001","area_m2":64156}},{"type":"Polygon","arcs":[[-53,154,-10]],"properties":{"codigo":"18001100000000040403","sector":"180011000000000404","pcode":"CO18001","area_m2":56460}},{"type":"Polygon","arcs":[[155,-44,156,-49]],"properties":{"codigo":"18001100000000040502","sector":"180011000000000405","pcode":"CO18001","area_m2":37349}},{"type":"Polygon","arcs":[[157,158,159,-54,-13,160,161,162]],"properties":{"codigo":"18001100000000040601","sector":"180011000000000406","pcode":"CO18001","area_m2":254295}},{"type":"Polygon","arcs":[[-161,-12,163,164,165,166]],"properties":{"codigo":"18001100000000040603","sector":"180011000000000406","pcode":"CO18001","area_m2":153581}},{"type":"Polygon","arcs":[[167,168,169,170,171,172]],"properties":{"codigo":"18001100000000040605","sector":"180011000000000406","pcode":"CO18001","area_m2":328986}},{"type":"Polygon","arcs":[[173,174]],"properties":{"codigo":"18001100000000040703","sector":"180011000000000407","pcode":"CO18001","area_m2":72443}},{"type":"Polygon","arcs":[[175,176,177,178]],"properties":{"codigo":"18001100000000040802","sector":"180011000000000408","pcode":"CO18001","area_m2":63810}},{"type":"Polygon","arcs":[[179,-178,180,-112,181,182]],"properties":{"codigo":"18001100000000040805","sector":"180011000000000408","pcode":"CO18001","area_m2":150806}},{"type":"Polygon","arcs":[[183,-182,-118,-123,-1,-22,184,185]],"properties":{"codigo":"18001100000000040806","sector":"180011000000000408","pcode":"CO18001","area_m2":149565}},{"type":"Polygon","arcs":[[186,187,188,189,190,-185,-21,191,192,193]],"properties":{"codigo":"18001100000000040807","sector":"180011000000000408","pcode":"CO18001","area_m2":274466}},{"type":"Polygon","arcs":[[194,195,196,-186,-191]],"properties":{"codigo":"18001100000000040808","sector":"180011000000000408","pcode":"CO18001","area_m2":136109}},{"type":"Polygon","arcs":[[197,198,-195,-190]],"properties":{"codigo":"18001100000000040809","sector":"180011000000000408","pcode":"CO18001","area_m2":73205}},{"type":"Polygon","arcs":[[-196,-199,199]],"properties":{"codigo":"18001100000000040902","sector":"180011000000000409","pcode":"CO18001","area_m2":67580}},{"type":"Polygon","arcs":[[200,201,202,203]],"properties":{"codigo":"18001100000000050104","sector":"180011000000000501","pcode":"CO18001","area_m2":297810}},{"type":"Polygon","arcs":[[204]],"properties":{"codigo":"18001200509025000101","sector":"180012005090250001","pcode":"CO18001","area_m2":102017}},{"type":"Polygon","arcs":[[205,-75,-81,206,207,208]],"properties":{"codigo":"18001100000000010402","sector":"180011000000000104","pcode":"CO18001","area_m2":96673}},{"type":"Polygon","arcs":[[209,210,211,-6]],"properties":{"codigo":"18001100000000020401","sector":"180011000000000204","pcode":"CO18001","area_m2":31101}},{"type":"Polygon","arcs":[[212,213,214,215,216]],"properties":{"codigo":"18001100000000040701","sector":"180011000000000407","pcode":"CO18001","area_m2":34267}},{"type":"Polygon","arcs":[[217,-215,218,219,-176,220]],"properties":{"codigo":"18001100000000040803","sector":"180011000000000408","pcode":"CO18001","area_m2":49390}},{"type":"Polygon","arcs":[[221,-209,222,223]],"properties":{"codigo":"18001100000000010403","sector":"180011000000000104","pcode":"CO18001","area_m2":176701}},{"type":"Polygon","arcs":[[224,225,-43,-34,226]],"properties":{"codigo":"18001100000000030305","sector":"180011000000000303","pcode":"CO18001","area_m2":44141}},{"type":"Polygon","arcs":[[227,228,229,-210,-5,-91,-102,230]],"properties":{"codigo":"18001100000000020403","sector":"180011000000000204","pcode":"CO18001","area_m2":163996}},{"type":"Polygon","arcs":[[231,232,-229]],"properties":{"codigo":"18001100000000020407","sector":"180011000000000204","pcode":"CO18001","area_m2":136940}},{"type":"Polygon","arcs":[[-111,-212,233,234,-97]],"properties":{"codigo":"18001100000000020304","sector":"180011000000000203","pcode":"CO18001","area_m2":225054}},{"type":"Polygon","arcs":[[-80,-68,235,-224,236,237,-86]],"properties":{"codigo":"18001100000000020101","sector":"180011000000000201","pcode":"CO18001","area_m2":65935}},{"type":"Polygon","arcs":[[-19,-109,-107,238]],"properties":{"codigo":"18001100000000020502","sector":"180011000000000205","pcode":"CO18001","area_m2":39394}},{"type":"Polygon","arcs":[[239,240,241,-236,-67,242]],"properties":{"codigo":"18001100000000020201","sector":"180011000000000202","pcode":"CO18001","area_m2":113193}},{"type":"Polygon","arcs":[[-98,-235,243,244,-243,-66,-89]],"properties":{"codigo":"18001100000000020202","sector":"180011000000000202","pcode":"CO18001","area_m2":158695}},{"type":"Polygon","arcs":[[245,246,-101,-110,-17]],"properties":{"codigo":"18001100000000020504","sector":"180011000000000205","pcode":"CO18001","area_m2":24053}},{"type":"Polygon","arcs":[[247,-231,-103,-247,248,249]],"properties":{"codigo":"18001100000000020505","sector":"180011000000000205","pcode":"CO18001","area_m2":30233}},{"type":"Polygon","arcs":[[250,251,252,253,-249,-246,-20,-239,-106,-41]],"properties":{"codigo":"18001100000000020601","sector":"180011000000000206","pcode":"CO18001","area_m2":216500}},{"type":"Polygon","arcs":[[-250,-254,254,255]],"properties":{"codigo":"18001100000000020602","sector":"180011000000000206","pcode":"CO18001","area_m2":83810}},{"type":"Polygon","arcs":[[256,257,-251,-40,-226,258]],"properties":{"codigo":"18001100000000030304","sector":"180011000000000303","pcode":"CO18001","area_m2":47774}},{"type":"Polygon","arcs":[[-219,-214,259,-129,260,261]],"properties":{"codigo":"18001100000000030208","sector":"180011000000000302","pcode":"CO18001","area_m2":93393}},{"type":"Polygon","arcs":[[262,263,-76,-206,-222,-242]],"properties":{"codigo":"18001100000000010303","sector":"180011000000000103","pcode":"CO18001","area_m2":151058}},{"type":"Polygon","arcs":[[264,265,266,267,268,269,270,271]],"properties":{"codigo":"18001100000000010101","sector":"180011000000000101","pcode":"CO18001","area_m2":1691622}},{"type":"Polygon","arcs":[[-77,-264,272,273,-272,274,-57]],"properties":{"codigo":"18001100000000010201","sector":"180011000000000102","pcode":"CO18001","area_m2":315393}},{"type":"Polygon","arcs":[[275,-265,-274,276,-15]],"properties":{"codigo":"18001100000000010202","sector":"180011000000000102","pcode":"CO18001","area_m2":74032}},{"type":"Polygon","arcs":[[-14,277,278,-266,-276]],"properties":{"codigo":"18001100000000010203","sector":"180011000000000102","pcode":"CO18001","area_m2":81690}},{"type":"Polygon","arcs":[[-267,-279,279,-240,-245,280]],"properties":{"codigo":"18001100000000010204","sector":"180011000000000102","pcode":"CO18001","area_m2":241115}},{"type":"Polygon","arcs":[[-241,-280,-278,-16,-277,-273,-263]],"properties":{"codigo":"18001100000000010206","sector":"180011000000000102","pcode":"CO18001","area_m2":150297}},{"type":"Polygon","arcs":[[-232,-228,-248,-256,281,282]],"properties":{"codigo":"18001100000000020701","sector":"180011000000000207","pcode":"CO18001","area_m2":417242}},{"type":"Polygon","arcs":[[283,284,285]],"properties":{"codigo":"18001100000000020702","sector":"180011000000000207","pcode":"CO18001","area_m2":154372}},{"type":"Polygon","arcs":[[286,-285,287,-282,-255,-253,288]],"properties":{"codigo":"18001100000000020704","sector":"180011000000000207","pcode":"CO18001","area_m2":384201}},{"type":"Polygon","arcs":[[-114,289,290,-237,-223,-208,291]],"properties":{"codigo":"18001100000000030101","sector":"180011000000000301","pcode":"CO18001","area_m2":215607}},{"type":"Polygon","arcs":[[-23,-3,-124,-119,-115,-292,292,-159,293,-192]],"properties":{"codigo":"18001100000000030102","sector":"180011000000000301","pcode":"CO18001","area_m2":342900}},{"type":"Polygon","arcs":[[294,-227,-39,-126,295]],"properties":{"codigo":"18001100000000030206","sector":"180011000000000302","pcode":"CO18001","area_m2":91340}},{"type":"Polygon","arcs":[[-128,-130,-122,-87,-238,-291,-261]],"properties":{"codigo":"18001100000000030207","sector":"180011000000000302","pcode":"CO18001","area_m2":76542}},{"type":"Polygon","arcs":[[296,297,-296,-125,-260,-213]],"properties":{"codigo":"18001100000000030209","sector":"180011000000000302","pcode":"CO18001","area_m2":98713}},{"type":"Polygon","arcs":[[298,-289,-252,-258,299,300]],"properties":{"codigo":"18001100000000030401","sector":"180011000000000304","pcode":"CO18001","area_m2":545083}},{"type":"Polygon","arcs":[[-286,-287,-299,301]],"properties":{"codigo":"18001100000000030403","sector":"180011000000000304","pcode":"CO18001","area_m2":341371}},{"type":"Polygon","arcs":[[302,303,304,-271,305,306,307]],"properties":{"codigo":"18001100000000040101","sector":"180011000000000401","pcode":"CO18001","area_m2":660654}},{"type":"Polygon","arcs":[[308,309,310,-165,311,312,313]],"properties":{"codigo":"18001100000000040404","sector":"180011000000000404","pcode":"CO18001","area_m2":185785}},{"type":"Polygon","arcs":[[-270,314,-202,315,-131,316,-306]],"properties":{"codigo":"18001100000000040102","sector":"180011000000000401","pcode":"CO18001","area_m2":361766}},{"type":"Polygon","arcs":[[-307,-317,-133,317,-135,318,319]],"properties":{"codigo":"18001100000000040104","sector":"180011000000000401","pcode":"CO18001","area_m2":184971}},{"type":"Polygon","arcs":[[-134,320,321,-319]],"properties":{"codigo":"18001100000000040105","sector":"180011000000000401","pcode":"CO18001","area_m2":82536}},{"type":"Polygon","arcs":[[-321,-138,322,323,-141,324]],"properties":{"codigo":"18001100000000040109","sector":"180011000000000401","pcode":"CO18001","area_m2":122035}},{"type":"Polygon","arcs":[[-303,325]],"properties":{"codigo":"18001100000000040110","sector":"180011000000000401","pcode":"CO18001","area_m2":579723}},{"type":"Polygon","arcs":[[-148,-152,-58,-275,-305,326,327,328]],"properties":{"codigo":"18001100000000040203","sector":"180011000000000402","pcode":"CO18001","area_m2":163389}},{"type":"Polygon","arcs":[[-11,-155,-52,-50,-157,-47,-154,-149,-329,329,-312,-164]],"properties":{"codigo":"18001100000000040402","sector":"180011000000000404","pcode":"CO18001","area_m2":380350}},{"type":"Polygon","arcs":[[-330,-328,330,-313]],"properties":{"codigo":"18001100000000040405","sector":"180011000000000404","pcode":"CO18001","area_m2":318453}},{"type":"Polygon","arcs":[[-293,-207,-84,-153,-45,-156,-48,-55,-160]],"properties":{"codigo":"18001100000000040501","sector":"180011000000000405","pcode":"CO18001","area_m2":155509}},{"type":"Polygon","arcs":[[-167,331,-168,332,-162]],"properties":{"codigo":"18001100000000040602","sector":"180011000000000406","pcode":"CO18001","area_m2":207383}},{"type":"Polygon","arcs":[[-163,-333,-173,333,334]],"properties":{"codigo":"18001100000000040604","sector":"180011000000000406","pcode":"CO18001","area_m2":763750}},{"type":"Polygon","arcs":[[-310,335,-170,336]],"properties":{"codigo":"18001100000000040606","sector":"180011000000000406","pcode":"CO18001","area_m2":139338}},{"type":"Polygon","arcs":[[-171,-336,-309,337,338]],"properties":{"codigo":"18001100000000040607","sector":"180011000000000406","pcode":"CO18001","area_m2":239697}},{"type":"Polygon","arcs":[[-172,-339,339,-334]],"properties":{"codigo":"18001100000000040608","sector":"180011000000000406","pcode":"CO18001","area_m2":160632}},{"type":"Polygon","arcs":[[-332,-166,-311,-337,-169]],"properties":{"codigo":"18001100000000040609","sector":"180011000000000406","pcode":"CO18001","area_m2":176788}},{"type":"Polygon","arcs":[[340,-174,341,-216,-218,342,343,344,345]],"properties":{"codigo":"18001100000000040702","sector":"180011000000000407","pcode":"CO18001","area_m2":160958}},{"type":"Polygon","arcs":[[346,-297,-217,-342,-175,-341,347]],"properties":{"codigo":"18001100000000040704","sector":"180011000000000407","pcode":"CO18001","area_m2":456249}},{"type":"Polygon","arcs":[[348,-259,-225,-295,-298,-347,349]],"properties":{"codigo":"18001100000000040705","sector":"180011000000000407","pcode":"CO18001","area_m2":198647}},{"type":"Polygon","arcs":[[-300,-257,-349,350]],"properties":{"codigo":"18001100000000040706","sector":"180011000000000407","pcode":"CO18001","area_m2":194435}},{"type":"Polygon","arcs":[[-177,-220,-262,-290,-113,-181]],"properties":{"codigo":"18001100000000040801","sector":"180011000000000408","pcode":"CO18001","area_m2":112526}},{"type":"Polygon","arcs":[[-343,-221,-179,-180,351]],"properties":{"codigo":"18001100000000040804","sector":"180011000000000408","pcode":"CO18001","area_m2":86494}},{"type":"Polygon","arcs":[[352,353,-142,-324]],"properties":{"codigo":"18001100000000050102","sector":"180011000000000501","pcode":"CO18001","area_m2":510684}},{"type":"Polygon","arcs":[[-194,354]],"properties":{"codigo":"18001100000000040810","sector":"180011000000000408","pcode":"CO18001","area_m2":574897}},{"type":"Polygon","arcs":[[-344,-352,-183,-184,-197,-200,-198,-189,355]],"properties":{"codigo":"18001100000000040901","sector":"180011000000000409","pcode":"CO18001","area_m2":295704}},{"type":"Polygon","arcs":[[356,-345,-356,-188]],"properties":{"codigo":"18001100000000040903","sector":"180011000000000409","pcode":"CO18001","area_m2":242221}},{"type":"Polygon","arcs":[[357,358,-353,-323,-137]],"properties":{"codigo":"18001100000000050101","sector":"180011000000000501","pcode":"CO18001","area_m2":155938}},{"type":"Polygon","arcs":[[-316,-201,359,-358,-136,-318,-132]],"properties":{"codigo":"18001100000000050103","sector":"180011000000000501","pcode":"CO18001","area_m2":286602}},{"type":"Polygon","arcs":[[360]],"properties":{"codigo":"18001200539004000101","sector":"180012005390040001","pcode":"CO18001","area_m2":97306}},{"type":"Polygon","arcs":[[361]],"properties":{"codigo":"18001200305009000101","sector":"180012003050090001","pcode":"CO18001","area_m2":95786}},{"type":"Polygon","arcs":[[362]],"properties":{"codigo":"18001200710024000101","sector":"180012007100240001","pcode":"CO18001","area_m2":124522}},{"type":"Polygon","arcs":[[-269,363,-203,-315]],"properties":{"codigo":"18001100000000010102","sector":"180011000000000101","pcode":"CO18001","area_m2":619966}},{"type":"Polygon","arcs":[[364]],"properties":{"codigo":"18001200506005000101","sector":"180012005060050001","pcode":"CO18001","area_m2":83339}},{"type":"Polygon","arcs":[[365]],"properties":{"codigo":"18001200504006000101","sector":"180012005040060001","pcode":"CO18001","area_m2":63710}},{"type":"MultiPolygon","arcs":[[[366]],[[367]]],"properties":{"codigo":"18001200702007000101","sector":"180012007020070001","pcode":"CO18001","area_m2":105466}},{"type":"MultiPolygon","arcs":[[[368]],[[369]],[[370]]],"properties":{"codigo":"18001200607008000101","sector":"180012006070080001","pcode":"CO18001","area_m2":314554}},{"type":"Polygon","arcs":[[371]],"properties":{"codigo":"18001200401011000101","sector":"180012004010110001","pcode":"CO18001","area_m2":357571}},{"type":"Polygon","arcs":[[372]],"properties":{"codigo":"18001200602018000101","sector":"180012006020180001","pcode":"CO18001","area_m2":315725}}]}},"arcs":[[[2535,3513],[1,-19],[-33,-48]],[[2503,3446],[-33,16],[-52,40]],[[2418,3502],[18,9],[36,52]],[[2472,3563],[23,-4],[22,-18],[18,-28]],[[2351,2541],[0,-11],[-53,2]],[[2298,2532],[-4,22],[0,47]],[[2294,2601],[62,13]],[[2356,2614],[0,-51],[-5,-22]],[[2336,3613],[-14,-34]],[[2322,3579],[-5,11],[-69,-18],[-22,20]],[[2226,3592],[-6,12],[33,20]],[[2253,3624],[61,37],[-28,13],[18,14]],[[2304,3688],[42,-41],[-10,-34]],[[1692,2914],[-24,25],[-30,50],[-2,17]],[[1636,3006],[24,46]],[[1660,3052],[-8,-31],[13,-3],[46,-64],[-3,-27],[-16,-13]],[[2483,2662],[-11,11],[-47,1]],[[2425,2674],[-37,36]],[[2388,2710],[-1,15],[56,4],[13,-4]],[[2456,2725],[27,-63]],[[2591,3658],[23,-30],[29,14],[10,-14],[-36,-18],[21,-34]],[[2638,3576],[-2,-10],[-101,-53]],[[2472,3563],[-6,16],[57,37],[52,46],[16,-4]],[[2299,2961],[30,-7]],[[2329,2954],[37,-16]],[[2366,2938],[30,-13],[5,-10],[-41,-53]],[[2360,2862],[0,-2]],[[2360,2860],[-140,50]],[[2220,2910],[22,11],[8,43]],[[2250,2964],[45,-18],[4,15]],[[2334,3027],[20,-45],[-25,-28]],[[2299,2961],[4,22],[-9,39]],[[2294,3022],[7,16],[33,-11]],[[2495,2970],[2,-24],[-24,-29]],[[2473,2917],[-39,-79]],[[2434,2838],[-74,24]],[[2366,2938],[17,11]],[[2383,2949],[38,4],[7,12],[35,2]],[[2463,2967],[32,3]],[[2560,2839],[-34,4],[-32,-9]],[[2494,2834],[-57,3]],[[2437,2837],[-3,1]],[[2473,2917],[22,-7],[46,-40],[30,-7],[-11,-24]],[[2137,3449],[-39,-19],[-25,-43]],[[2073,3387],[-35,-31],[-63,-10]],[[1975,3346],[-24,93]],[[1951,3439],[152,21],[34,-11]],[[2255,3457],[10,-11],[-31,-17],[-9,11],[-30,-18]],[[2195,3422],[-38,42]],[[2157,3464],[23,24]],[[2180,3488],[11,-12],[32,16],[32,-35]],[[2180,3488],[56,16],[41,30]],[[2277,3534],[45,45]],[[2336,3613],[45,28]],[[2381,3641],[-4,-36],[-20,-36],[-81,-84],[15,-8],[-36,-20]],[[1799,3282],[-120,-29]],[[1679,3253],[-34,-1],[-15,11],[-25,37]],[[1605,3300],[52,12]],[[1657,3312],[51,13],[47,6]],[[1755,3331],[32,4]],[[1787,3335],[2,-28],[10,-25]],[[2057,3072],[-8,-15],[37,-14]],[[2086,3043],[-17,-48]],[[2069,2995],[-8,-20]],[[2061,2975],[-72,28]],[[1989,3003],[-46,21]],[[1943,3024],[-26,13],[-24,24]],[[1893,3061],[55,33],[56,-1],[53,-21]],[[2236,2981],[14,-17]],[[2220,2910],[-59,24]],[[2161,2934],[-100,41]],[[2069,2995],[78,-16],[72,-24],[17,26]],[[2212,3003],[24,-22]],[[2086,3043],[123,-44],[3,4]],[[1862,3232],[13,-37]],[[1875,3195],[-165,-33]],[[1710,3162],[-31,91]],[[1799,3282],[46,-1],[17,-49]],[[2183,3100],[-26,-29],[5,-21],[50,-47]],[[2057,3072],[11,-4],[18,29],[26,-8],[8,13],[63,-2]],[[2052,3315],[-11,-36],[-31,-10],[-148,-37]],[[1787,3335],[13,4],[104,-4]],[[1904,3335],[68,10]],[[1972,3345],[4,-11],[76,-19]],[[2230,3124],[3,-46],[61,-56]],[[2183,3100],[43,32]],[[2226,3132],[4,-8]],[[2161,2934],[-66,-80],[-33,17]],[[2062,2871],[9,11],[-68,32],[-20,-7],[6,96]],[[2429,2582],[-34,-25],[0,-9]],[[2395,2548],[-44,-7]],[[2356,2614],[32,6]],[[2388,2620],[41,-38]],[[2360,2860],[-16,-24]],[[2344,2836],[-83,29],[-19,-31],[-14,5],[-19,-29]],[[2209,2810],[-25,-3],[-33,-32]],[[2151,2775],[-17,-11],[-42,21],[-77,25]],[[2015,2810],[47,61]],[[2467,2603],[-33,-25],[-5,4]],[[2388,2620],[42,33]],[[2430,2653],[0,-20],[37,-30]],[[2516,2567],[-4,-23],[-66,6],[-51,-2]],[[2467,2603],[49,-36]],[[2305,2771],[-96,39]],[[2344,2836],[-39,-65]],[[2437,2837],[-11,-22],[19,-9],[-14,-14]],[[2431,2792],[-16,9],[-4,-13],[-30,-2],[3,-34],[-28,17],[-24,-21]],[[2332,2748],[-27,23]],[[2332,2748],[56,-38]],[[2425,2674],[5,-21]],[[2294,2601],[7,34],[34,6],[-11,62],[-66,33],[-80,20],[-6,-15],[-21,34]],[[2544,3433],[11,-12],[-15,-9],[-1,-44]],[[2539,3368],[-23,0],[-1,-47],[-16,1],[3,-18],[-19,-9],[1,-13],[-42,-17],[-30,14],[-57,-41]],[[2355,3238],[-54,39]],[[2301,3277],[26,31]],[[2327,3308],[21,0],[-20,20],[75,-9],[49,41],[13,-8],[-6,41]],[[2459,3393],[2,12],[25,-3],[25,36]],[[2511,3438],[33,-5]],[[2327,3308],[-33,25],[-52,53],[50,4],[47,25]],[[2339,3415],[51,-10],[-4,-3],[73,-9]],[[2350,3106],[-5,-55],[-11,-24]],[[2230,3124],[29,-9],[33,-1],[58,-8]],[[2503,3446],[8,-8]],[[2339,3415],[32,31],[33,44],[14,12]],[[2552,3134],[9,-39],[26,-31],[-14,-12]],[[2573,3052],[-36,-6],[-34,-17],[-33,16],[-20,-42],[13,-14],[0,-22]],[[2383,2949],[5,15],[-13,12],[16,26],[-9,29],[35,5],[8,56]],[[2425,3092],[29,0],[-10,25],[13,13]],[[2457,3130],[29,-12],[11,8],[4,30],[13,-2],[3,-35],[8,14],[27,1]],[[2350,3106],[75,-14]],[[1036,3473],[8,-6],[13,-44],[-93,-17],[3,-25],[-17,-8]],[[950,3373],[-53,76]],[[897,3449],[-26,33],[-9,27],[68,13],[25,-23],[40,-11],[10,-22],[31,7]],[[708,3596],[-7,-12],[14,-23],[75,-24]],[[790,3537],[14,-40],[-20,-10],[13,-23],[58,3],[18,-22]],[[873,3445],[-34,-12],[-47,6],[-2,-13]],[[790,3426],[-28,3],[1,10],[-29,2],[2,73],[-75,-3],[-23,8],[-62,55]],[[576,3574],[56,34],[76,-12]],[[314,3742],[1,-11],[-28,-14],[30,-40],[24,-25],[8,3],[24,-33]],[[373,3622],[-16,11],[-29,-8],[-27,3],[-28,30],[-60,38],[-38,15],[14,32],[-13,20],[49,42],[79,-52],[10,-11]],[[552,3642],[-6,-13],[-35,-27],[-23,19],[-48,-33]],[[440,3588],[-19,11]],[[421,3599],[-22,12],[-7,26],[-19,-15]],[[314,3742],[63,-34],[41,-33],[83,-23],[22,4],[29,-14]],[[1867,3426],[2,-17]],[[1869,3409],[-110,-16]],[[1759,3393],[-6,32]],[[1753,3425],[-6,35]],[[1747,3460],[28,4],[34,15],[13,-4],[37,8],[8,-57]],[[1755,3331],[-2,37],[6,25]],[[1869,3409],[6,-63],[29,-11]],[[1657,3312],[-11,31],[37,1],[-6,71],[76,10]],[[1975,3346],[-3,-1]],[[1867,3426],[84,13]],[[2277,3534],[-18,10],[-25,-28],[-67,-5],[0,56],[59,25]],[[2195,3422],[-86,-47],[-20,22],[-16,-10]],[[2137,3449],[20,15]],[[2192,3900],[56,-64],[62,-44],[8,6],[83,-65],[36,-19],[25,-19],[10,-22]],[[2472,3673],[-35,-46]],[[2437,3627],[-25,-9],[3,21],[-34,2]],[[2304,3688],[-56,45]],[[2248,3733],[-124,102]],[[2124,3835],[17,25],[-13,5],[29,42],[25,-19],[10,12]],[[2253,3624],[-14,19],[26,12],[-10,10],[-39,-22],[-1,-11],[-27,17],[-19,-10],[-30,18],[-41,-30],[-43,10],[-12,-12]],[[2043,3625],[-17,4]],[[2026,3629],[2,16]],[[2028,3645],[7,25],[-22,6],[10,31],[23,-4],[7,21],[35,-18],[40,-14],[73,54],[32,-24],[15,11]],[[2101,3855],[-35,-24],[-53,-50],[-71,8]],[[1942,3789],[-47,14],[-31,0]],[[1864,3803],[-95,10],[-15,95]],[[1754,3908],[2,28]],[[1756,3936],[21,15]],[[1777,3951],[118,4],[35,-1],[60,-16],[33,-20],[78,-63]],[[2696,3221],[42,47],[37,13],[40,5],[29,45]],[[2844,3331],[42,-41],[-58,-49],[-20,-2],[21,-15],[-13,-8],[-30,19],[1,-12],[-39,-21],[-20,-5],[-32,24]],[[2647,3249],[-56,-1],[-26,-12],[-26,-1]],[[2539,3235],[31,18],[-34,0],[14,26],[0,34]],[[2550,3313],[11,27],[32,-4],[2,8],[45,6]],[[2640,3350],[-8,-38],[15,-63]],[[2715,3363],[-75,-13]],[[2550,3313],[-14,6],[3,49]],[[2544,3433],[63,8],[69,42],[38,8]],[[2714,3491],[13,-84],[-12,-44]],[[2724,3490],[-10,1]],[[2638,3576],[67,35]],[[2705,3611],[5,-7],[-2,-58],[16,-11],[0,-45]],[[3139,3686],[-2,-29],[20,-20],[-13,-25]],[[3144,3612],[-18,-5],[-23,20],[-38,1],[-5,-13]],[[3060,3615],[-44,15],[-30,26],[-40,0]],[[2946,3656],[-61,5],[-29,-7]],[[2856,3654],[-64,1],[-37,-13],[-50,-31]],[[2591,3658],[-26,27],[16,16]],[[2581,3701],[50,19],[33,-4]],[[2664,3716],[50,-15],[49,-3],[49,4],[39,-2],[1,-10],[64,3],[35,-4],[24,7],[21,23],[13,-4],[20,13],[7,-23],[47,-20],[56,1]],[[2856,3654],[-12,-15],[-3,-52],[-14,-5],[-2,-25]],[[2825,3557],[-5,-71],[-33,1]],[[2787,3487],[-63,3]],[[2946,3656],[0,-54],[-20,-44],[-45,1]],[[2881,3559],[-56,-2]],[[2881,3559],[1,-123],[-30,4],[-1,-10],[-51,-1],[-8,13],[-5,45]],[[803,3250],[26,-42],[87,-52]],[[916,3156],[-6,-12],[-13,-82]],[[897,3062],[-2,-1]],[[895,3061],[-23,33],[-11,26],[-112,-7],[-10,18],[-93,-1],[-7,-6],[-61,-4],[-46,21],[0,74],[125,1],[-8,15],[5,32],[54,-7],[28,8],[34,-5],[-10,-21],[12,-3],[31,15]],[[2151,4778],[13,-6],[42,27],[5,-6],[25,13],[-10,10],[36,22],[21,4],[20,20],[6,-10],[-37,-31],[9,-10],[29,-2],[4,7],[37,-5],[-23,-12],[-81,3],[-16,-9],[8,-16],[-38,1],[-5,-35],[10,-45],[-56,-21],[-18,-49],[11,0],[-28,-44],[-3,-15],[13,-16],[-28,15],[19,34],[-18,25],[22,22],[-8,33],[-17,-2],[-12,21],[9,7],[33,0],[9,20],[3,39],[14,11]],[[1885,3166],[-10,29]],[[2052,3315],[23,-6]],[[2075,3309],[-28,-56],[-1,-19]],[[2046,3234],[-20,-9],[10,-24],[-151,-35]],[[2298,2532],[-34,-1],[-1,10],[-34,-1]],[[2229,2540],[-4,34]],[[2225,2574],[0,23],[69,4]],[[2653,3150],[7,-24],[-18,22],[-20,-7],[-22,16],[-37,-5],[-17,15]],[[2546,3167],[-5,25]],[[2541,3192],[91,10]],[[2632,3202],[2,-11]],[[2634,3191],[19,-41]],[[2695,3247],[-7,-16],[-34,-27],[-22,-2]],[[2541,3192],[-8,-6]],[[2533,3186],[-4,23],[10,26]],[[2647,3249],[48,-2]],[[1879,3073],[-18,20],[-12,34],[46,10],[-10,29]],[[2046,3234],[22,-21],[72,-29],[21,-21],[6,-21]],[[2167,3142],[-9,-10],[-53,-19],[-36,-5],[-95,-2],[-58,10],[-14,-8],[-23,-35]],[[2550,2933],[28,-19],[9,-16],[-11,-22],[6,-12]],[[2582,2864],[-8,-26],[-14,1]],[[2495,2970],[31,-16],[-9,-11],[33,-10]],[[2581,2560],[-13,-71]],[[2568,2489],[-74,32],[-47,7],[-18,-37],[-8,0],[-7,-59]],[[2414,2432],[-84,8],[3,21],[-22,11],[-30,4],[-21,-6],[-27,20],[-4,50]],[[2516,2567],[65,-7]],[[2568,2489],[-18,-105],[-12,-7]],[[2538,2377],[-130,17],[6,38]],[[2225,2574],[-16,-6],[-37,12],[-34,-18],[-23,44],[1,35],[42,21],[14,25],[-12,27],[-31,26],[-31,17],[-91,42]],[[2007,2799],[8,11]],[[1893,3061],[-14,12]],[[2167,3142],[22,7],[45,-11]],[[2234,3138],[-8,-6]],[[2431,2792],[-7,-11],[25,-35],[7,-21]],[[1846,2883],[-19,38]],[[1827,2921],[-8,24],[3,42]],[[1822,2987],[17,39],[40,47]],[[1943,3024],[-12,-17],[-3,-52],[13,0],[-2,-38],[-56,4],[-6,-20],[-31,-18]],[[2007,2799],[-42,27],[-34,6],[-38,-6]],[[1893,2826],[-37,39],[-10,18]],[[2483,2662],[14,-38]],[[2497,2624],[-30,-21]],[[2613,2582],[-7,-23],[-25,1]],[[2497,2624],[12,-18]],[[2509,2606],[31,-14],[35,0],[38,-10]],[[2494,2834],[52,-39],[86,-40]],[[2632,2755],[23,-9]],[[2655,2746],[-13,-18]],[[2642,2728],[-21,-24],[-35,-69],[-15,3],[-6,-19],[-18,-12],[-36,7],[-2,-8]],[[2642,2728],[1,-7],[68,-46],[3,-15]],[[2714,2660],[-28,-16],[-26,-3],[-47,-59]],[[2602,2807],[78,-13]],[[2680,2794],[-10,-23],[-23,3],[-15,-19]],[[2582,2864],[11,-12],[-19,-39],[28,-6]],[[2546,3167],[6,-33]],[[2457,3130],[-25,9],[-91,41]],[[2341,3180],[25,11],[13,35],[50,2],[22,-18],[70,-14],[-5,-19],[17,9]],[[1822,2987],[-24,61],[-37,-8],[-9,29],[-20,34]],[[1732,3103],[-22,59]],[[1480,3047],[12,-17],[52,-33]],[[1544,2997],[48,-24],[35,-29],[1,-25],[-26,-60],[-8,-39]],[[1594,2820],[7,-30],[30,-33]],[[1631,2757],[-78,-6],[-51,0]],[[1502,2751],[-48,9],[-12,7],[4,28],[-13,24],[-78,42],[-23,1],[-72,-5],[-91,1],[-43,6],[-19,14],[-16,34],[-24,33],[-20,11],[-48,3],[-16,11],[-23,32]],[[960,3002],[2,29],[22,13],[6,18],[-27,22],[35,62],[57,4],[34,-14],[23,5],[35,26],[6,20],[-49,15],[-45,41]],[[1059,3243],[20,5],[81,-5],[59,-22],[18,1],[26,29],[40,28],[70,26],[46,23],[52,7],[90,18]],[[1561,3353],[-12,-77],[-29,-71],[-39,-72],[-16,-37],[15,-49]],[[1732,3103],[-78,-17]],[[1654,3086],[-174,-39]],[[1561,3353],[18,-3],[26,-50]],[[1636,3006],[-27,-16],[-36,21],[-29,-14]],[[1654,3086],[6,-34]],[[1692,2914],[35,-15]],[[1727,2899],[-66,-40],[-25,-26],[-42,-13]],[[1727,2899],[12,35],[88,-13]],[[1893,2826],[-35,-18],[-48,-34],[-73,-22],[-63,5],[-43,0]],[[2714,2660],[10,-17]],[[2724,2643],[9,-13],[31,-14],[-9,-52],[22,-78],[22,-62],[37,-28],[36,-13],[25,-20],[-6,-21],[-57,24],[-81,15],[-70,-8],[-60,-17],[-60,-6],[-24,1],[-1,26]],[[3220,2508],[62,-91],[-1,-18],[-31,-24],[-72,2],[-48,-28],[-31,26],[-4,16],[12,8],[13,33],[-7,39],[5,11],[40,32],[6,-3],[30,34]],[[3194,2545],[20,-8]],[[3214,2537],[6,-29]],[[3236,2727],[-4,-13],[-18,-177]],[[3194,2545],[-99,39],[-17,25],[-104,10],[-29,8],[-14,-20],[-58,24],[-3,-14],[-79,-36],[-6,31],[-30,27],[-31,4]],[[2655,2746],[37,-12],[153,-56],[49,-5],[342,54]],[[2355,3238],[-18,-9],[14,-23],[-18,-19],[8,-7]],[[2341,3180],[-31,-12],[1,-31],[-40,19],[-4,-26],[-33,8]],[[2075,3309],[38,-11],[18,-12],[57,-64],[34,27],[50,26],[0,-21],[29,23]],[[2075,3309],[27,31],[68,45],[67,21],[30,-1],[27,10],[22,16],[6,22],[-3,31],[19,22],[63,51],[36,70]],[[2472,3673],[30,6],[41,16],[38,6]],[[2608,3045],[18,-15],[-41,-13],[2,-45],[-25,-33],[-12,-6]],[[2573,3052],[20,7],[15,-14]],[[2653,3150],[10,4],[41,-21],[66,-8],[25,-15]],[[2795,3110],[-14,1],[-65,-14],[-91,-31],[-17,-21]],[[3513,2672],[-104,72],[-38,3],[-135,-20]],[[2680,2794],[-1,11],[48,-1],[22,30],[35,-8]],[[2784,2826],[0,-36],[12,-11],[81,4],[-1,-69],[26,16],[15,0],[5,16],[81,13],[21,20],[34,8],[30,-10],[49,11],[-3,9],[60,11],[-3,-20],[23,4],[192,1],[31,-7],[6,5],[-18,18],[42,48],[0,15],[22,3],[1,-17],[46,-98],[29,4],[0,-18],[-14,-24],[20,-7],[0,-22],[-13,-19],[-31,-11],[-14,9]],[[3513,2672],[-59,-33],[-18,-21],[-29,13],[-14,-13],[22,-14],[-4,-10],[-104,-30],[44,-40],[-62,-24],[46,-21],[-9,-11],[-34,10],[-12,-21],[-31,30],[-29,21]],[[955,3644],[15,-18],[28,-56],[59,-68],[33,-26],[22,-43],[77,17],[26,-19],[91,30]],[[1306,3461],[7,-16],[40,19],[21,22],[23,9],[42,-51],[45,20],[42,-46]],[[1526,3418],[-10,-26],[34,-13],[11,-26]],[[1059,3243],[-17,17],[6,13],[27,-4],[8,13],[-21,22],[-22,-2],[-10,18],[13,27],[-11,30],[27,14],[42,12],[-20,72],[-26,16],[-29,0]],[[1026,3491],[-15,-1],[0,52],[-45,45],[-13,24],[-19,11],[-65,18],[-36,28]],[[833,3668],[-26,13],[13,6],[71,-25],[64,-18]],[[1624,3728],[72,-26]],[[1696,3702],[80,-23]],[[1776,3679],[36,-11],[114,-27],[100,-12]],[[2043,3625],[41,-23],[5,-16],[-18,-7]],[[2071,3579],[-19,10],[-83,24],[-50,-8],[-52,1],[-49,-11],[-35,16],[-76,25],[-74,30],[-58,20],[-41,28]],[[1534,3714],[-8,11],[91,-5],[7,8]],[[960,3002],[-13,5],[-24,-22],[-25,3],[-8,13],[39,53],[-10,17],[-22,-9]],[[916,3156],[75,51],[-33,37],[-24,62],[-31,3],[-4,34],[13,4],[-6,18],[44,8]],[[1036,3473],[9,13],[-19,5]],[[897,3449],[-24,-4]],[[790,3537],[60,12],[-22,64],[53,14],[-48,18],[-18,-7],[-7,11],[-21,-13]],[[787,3636],[-6,7],[18,20],[34,5]],[[708,3596],[14,3],[25,23]],[[747,3622],[40,14]],[[576,3574],[-18,-11],[30,-35],[-13,-4],[-18,-37]],[[557,3487],[-10,14],[-35,23],[-20,-5],[-23,12],[10,8],[-6,24],[-33,25]],[[552,3642],[30,-24],[140,20],[25,-16]],[[955,3644],[169,35],[8,-5],[51,15],[78,31],[64,-69],[24,33],[99,-41],[-5,-30],[-43,-6],[-40,-28],[-11,-18],[-64,-37],[21,-63]],[[1526,3418],[41,18],[59,5],[45,11],[22,19],[6,37],[17,14]],[[1716,3522],[40,4]],[[1756,3526],[2,-10],[-27,-18],[40,-2],[-22,-12],[-2,-24]],[[1756,3526],[76,1],[42,12],[38,4],[60,-9],[32,0],[37,12],[30,33]],[[1716,3522],[0,25],[-18,4],[-7,15],[-52,10],[-46,14],[-44,4],[-13,36],[-34,10],[2,16],[17,13],[-13,26],[26,19]],[[2028,3645],[-36,46],[-40,3],[1,16],[-24,1],[2,27],[20,5],[-11,16],[2,30]],[[2101,3855],[23,-20]],[[1777,3951],[-78,-3],[-23,2],[-35,15],[-16,17],[-9,24],[4,23],[47,65]],[[1667,4094],[32,-35],[44,-14],[42,1],[78,16],[40,15],[50,36],[31,57],[43,19],[18,22],[61,0],[20,14],[55,-22],[19,-18],[-16,-13],[-2,-36],[-9,-20],[0,-28],[-9,-17],[1,-34],[10,-32],[-23,-42],[25,0],[23,-17],[-11,-9],[3,-37]],[[1696,3702],[17,42],[2,47],[-28,18],[-2,30],[17,2],[-5,46],[12,18],[45,3]],[[1864,3803],[-51,-64],[-18,4],[-18,-23],[-1,-41]],[[1624,3728],[-65,29],[-14,13],[-21,47],[-10,37],[-3,31],[8,33],[15,17]],[[1534,3935],[41,-43],[46,-3],[49,18],[-4,5],[64,24],[26,0]],[[1534,3935],[43,34],[-15,30],[-16,17],[-10,41],[27,41],[29,12],[56,-3],[19,-13]],[[3263,3381],[-14,-10],[-25,5],[-53,0],[-45,-6],[-28,2],[-51,-12],[-48,-4],[-66,-15],[-56,0],[-33,-10]],[[2696,3221],[-19,-18],[-43,-12]],[[2695,3247],[20,23],[26,53],[54,28],[25,7]],[[2820,3358],[51,13]],[[2871,3371],[121,0],[33,9],[32,18],[27,27],[56,19]],[[3140,3444],[32,7],[-18,-63],[17,-6],[29,4],[63,-5]],[[2798,3110],[-3,0]],[[3263,3381],[14,-3],[-23,-25],[-24,2],[-8,12],[-35,-1],[-16,-17],[-2,-18],[-19,28],[-9,-2],[17,-32],[-33,-13],[-21,8],[-13,27],[6,16],[-40,-11],[4,-14],[25,-7],[13,-18],[-26,-11],[9,-9],[-18,-14],[2,-88],[-32,4],[-36,-6],[-37,-27],[-44,-15],[-65,-4],[-29,-24],[-25,-9]],[[2768,2993],[-32,15],[-19,-22],[-29,2],[-23,-18],[33,-17],[1,-26],[-14,-10],[-46,-10],[-35,-52],[-8,-41],[6,-7]],[[2798,3110],[-5,-15],[-23,-6],[-1,-34],[-11,-18],[10,-44]],[[2768,2993],[20,-10],[1,-93],[-5,-64]],[[2715,3363],[40,-8],[50,12],[-8,36],[-15,23],[11,2],[27,-70]],[[557,3487],[28,5],[-14,-19],[35,-16],[3,-53],[-8,-13],[15,-5],[76,4]],[[692,3390],[29,-38],[-19,-7],[-50,-34],[-120,28],[-19,-28],[-19,-10],[-13,13],[-27,-5],[-42,44],[-36,7],[-19,21],[-38,16],[-27,5],[-8,-15],[-16,3],[-8,19],[-31,9],[9,39],[17,23],[16,-3],[28,16],[70,58],[52,48]],[[2664,3716],[7,9],[40,-11],[90,-3],[14,4],[35,-10],[0,13],[-18,-5],[-64,39],[-6,-10],[-47,13],[13,34],[43,38],[38,-34],[20,29],[16,8],[34,-7],[40,16],[33,24],[7,-7],[54,37],[22,1],[-6,26],[28,20],[14,34],[-4,26],[9,44],[14,18],[-2,26],[10,11],[38,0],[-16,-42],[-31,-31],[-1,-61],[-22,-34],[-10,-37],[-73,-48],[-20,-42],[-35,-14],[-22,-62],[34,0],[-5,26],[10,23],[50,26],[16,22],[60,56],[21,14],[19,53],[28,41],[16,-7],[-3,-15],[24,-8],[16,47],[20,20],[-10,-28],[-11,-49],[14,-66],[-23,-50],[12,-40],[-21,-18],[6,-11],[-23,-16],[22,-14],[2,-25],[-41,-23]],[[3060,3615],[5,-69],[-41,6],[-48,-123],[-31,-9],[-23,12],[-50,-13],[-9,-31],[8,-17]],[[3144,3612],[5,-24],[-12,-49],[9,-24],[-9,-34],[3,-37]],[[790,3426],[-32,-27]],[[758,3399],[-21,13],[-45,-22]],[[803,3250],[-12,44],[-22,18],[0,49],[-11,38]],[[4866,4990],[7,-1],[3,-40],[-8,-41],[-8,-16],[2,-32],[8,-1],[0,-42],[-48,-6],[-8,23],[17,2],[-7,57],[-49,-7],[3,23],[-34,0],[4,32],[30,-5],[-8,43],[17,5],[13,-10],[66,16]],[[9929,9919],[61,1],[5,-14],[4,-68],[-21,-14],[-90,-1],[-21,29],[-19,73],[25,2],[30,-9],[25,14],[1,-13]],[[5955,231],[-1,-23],[-17,-11],[-17,-57],[19,2],[5,14],[37,13],[-5,-15],[49,3],[-9,-23],[-33,5],[-19,-6],[-1,-75],[-22,0],[-39,9],[-15,-26],[6,-38],[-16,5],[-45,-3],[5,35],[-17,18],[-8,34],[21,0],[35,14],[21,33],[28,68],[4,24],[34,0]],[[1502,2751],[-2,-23],[-26,-1],[-12,-11],[-40,13],[-37,36],[-29,-14],[-1,-10],[-27,-28],[-42,11],[0,20],[-110,1],[-33,7],[-23,-4],[-23,13],[-37,-35],[-10,-1],[-19,29],[15,12],[-43,26],[-12,-12],[-33,21],[9,10],[-60,13],[8,15],[-45,6],[-47,15],[30,55],[102,-29],[-2,14],[-76,58],[-24,22],[4,33],[38,48]],[[4930,7173],[52,3],[31,10],[6,-22],[11,12],[46,-10],[-28,-68],[-18,0],[-35,-87],[-16,3],[22,54],[20,32],[-29,-3],[-46,38],[-25,3],[-21,19],[9,10],[-19,11],[7,14],[34,-6],[-1,-13]],[[7092,9999],[50,-39],[-9,-6],[4,-47],[13,-9],[26,2],[-32,-25],[-6,18],[-34,29],[-15,2],[-21,-13],[-8,8],[-21,-13],[-28,30],[27,16],[-14,15],[37,29],[10,-9],[21,12]],[[9706,7763],[-20,-11],[41,-23],[52,-14],[-18,-17],[34,-21],[-25,-23],[12,-10],[-15,-17],[-11,13],[-30,-26],[-25,26],[-56,35],[18,29],[-18,20],[-29,17],[22,23],[33,7],[8,-13],[35,16],[-8,-11]],[[9758,7785],[-18,-4],[-27,15],[45,-11]],[[5748,1529],[22,-7],[42,-2],[6,-52],[-9,-34],[-14,-29],[-52,-68],[-5,-14],[-33,-44],[-20,-19],[-26,-65],[3,-47],[-25,0],[-7,67],[13,32],[-11,2],[18,44],[-11,3],[7,18],[-19,6],[15,53],[-13,20],[16,13],[25,63],[2,38],[-7,21],[13,34],[27,4],[9,-17],[34,-20]],[[5833,1175],[-10,13],[34,13],[-24,-26]],[[5812,1192],[-46,0],[24,-20],[-34,-24],[-35,23],[30,18],[-25,23],[10,27],[28,-31],[48,-16]],[[183,7495],[23,-51],[36,-18],[107,0],[34,-7],[72,7],[38,12],[6,-55],[-8,-26],[-48,-40],[-12,-35],[-29,-32],[7,-28],[31,-22],[28,-1],[28,11],[28,-10],[24,-34],[-11,-16],[-29,15],[-109,30],[-47,15],[-21,31],[-60,-26],[-48,11],[-15,-11],[-23,-34],[-48,9],[-66,-37],[-71,11],[19,16],[54,23],[55,-3],[45,16],[17,17],[47,2],[54,33],[43,-6],[32,38],[-22,14],[19,25],[27,-1],[-8,26],[-29,22],[-56,12],[-3,-19],[-29,-8],[-16,9],[8,26],[-29,6],[-17,-14],[-35,22],[-24,9],[-36,3],[5,32],[-56,6],[-4,14],[24,3],[17,15],[18,-12],[-4,28],[47,-8],[20,-15]],[[4170,2213],[43,6],[25,35],[118,-56],[32,-1],[43,-25],[0,-9],[34,-8],[30,-25],[-4,-13],[53,-26],[-13,-14],[-44,11],[-24,37],[-23,16],[-65,-19],[45,-14],[-43,-10],[-65,20],[-31,0],[-7,10],[-42,14],[-269,103],[-143,51],[-18,23],[12,29],[158,-61],[198,-74]]]}
