{"type":"Topology","bbox":[-76.091038478722,1.028009753607175,-75.91391663085568,1.1192406748104327],"transform":{"scale":[0.00001771395618224995,0.000009124004520777837],"translate":[-76.091038478722,1.028009753607175]},"objects":{"municipios":{"type":"GeometryCollection","geometries":[{"type":"Polygon","arcs":[[0]],"properties":{"codigo":"18205200109003000101","sector":"182052001090030001","pcode":"CO18205","area_m2":21406}},{"type":"Polygon","arcs":[[1,2,3]],"properties":{"codigo":"18205100000000000101","sector":"182051000000000001","pcode":"CO18205","area_m2":111538}},{"type":"Polygon","arcs":[[4,-4,5,6,7,8]],"properties":{"codigo":"18205100000000000102","sector":"182051000000000001","pcode":"CO18205","area_m2":97526}},{"type":"Polygon","arcs":[[9,-8,10,11,12]],"properties":{"codigo":"18205100000000000103","sector":"182051000000000001","pcode":"CO18205","area_m2":75540}},{"type":"Polygon","arcs":[[-11,-7,13,14,15]],"properties":{"codigo":"18205100000000000104","sector":"182051000000000001","pcode":"CO18205","area_m2":162605}},{"type":"Polygon","arcs":[[-6,-3,16,17,18,-14]],"properties":{"codigo":"18205100000000000105","sector":"182051000000000001","pcode":"CO18205","area_m2":107530}},{"type":"Polygon","arcs":[[19,-18,20]],"properties":{"codigo":"18205100000000000106","sector":"182051000000000001","pcode":"CO18205","area_m2":74658}},{"type":"Polygon","arcs":[[-15,-19,-20,21]],"properties":{"codigo":"18205100000000000107","sector":"182051000000000001","pcode":"CO18205","area_m2":36952}},{"type":"Polygon","arcs":[[22,-13,23]],"properties":{"codigo":"18205100000000000201","sector":"182051000000000002","pcode":"CO18205","area_m2":74309}},{"type":"Polygon","arcs":[[24,-9,-10,-23]],"properties":{"codigo":"18205100000000000202","sector":"182051000000000002","pcode":"CO18205","area_m2":32580}},{"type":"Polygon","arcs":[[25]],"properties":{"codigo":"18205200206001000101","sector":"182052002060010001","pcode":"CO18205","area_m2":32165}},{"type":"Polygon","arcs":[[26]],"properties":{"codigo":"18205200108002000101","sector":"182052001080020001","pcode":"CO18205","area_m2":81158}}]}},"arcs":[[[3018,2842],[1,29],[23,27],[9,-12],[-18,-24],[27,-42],[9,21],[19,-28],[-9,-23],[43,-60],[-5,-25],[-35,24],[-20,-41],[-66,119],[22,35]],[[9642,112],[-58,92],[-26,48],[-39,41],[-34,230]],[[9485,523],[31,36],[-6,26],[67,65],[46,-177],[13,-41],[17,-69]],[[9653,363],[28,-145],[6,-39],[-12,-9],[-33,-58]],[[9819,210],[-23,-63],[-7,-12],[5,-39],[-21,-10],[-5,22],[-16,-17],[2,-44],[-71,-47],[-20,66],[-21,46]],[[9653,363],[63,69]],[[9716,432],[49,50],[11,-74]],[[9776,408],[8,-73],[-3,-17]],[[9781,318],[-1,-24],[10,-33],[17,14],[12,-65]],[[9891,426],[-88,-90],[-22,-18]],[[9776,408],[29,20],[-15,100],[35,31],[-13,80],[-21,92],[-19,-17],[-10,35],[74,97]],[[9836,846],[7,-4]],[[9843,842],[15,-23],[30,-90],[-3,-29],[10,-54],[-18,-13],[5,-30],[-18,-14],[15,-82],[12,-81]],[[9716,432],[-29,174],[-1,17],[-13,38],[-43,163]],[[9630,824],[67,67]],[[9697,891],[1,-3],[49,73],[13,1],[12,-14],[63,211],[12,14],[38,-30],[12,-20],[-14,-46],[-22,-100],[-19,-75],[-6,-56]],[[9485,523],[-15,80],[-13,106],[-9,29],[-18,30],[6,18]],[[9436,786],[21,24],[15,-74],[32,28],[13,-50],[75,72]],[[9592,786],[38,38]],[[9547,960],[45,-174]],[[9436,786],[-17,69],[-19,21],[-21,57],[36,87],[-5,19],[2,39],[14,-6],[0,-44],[-6,-16],[16,-33],[-3,33],[6,56],[28,-8],[-3,-24],[10,-83],[17,10],[10,-39],[46,36]],[[9547,960],[1,12],[42,37],[8,-18],[22,11],[6,-22],[10,-7],[8,11],[17,-45],[7,9],[14,-17],[15,-40]],[[9907,313],[-8,57],[7,0],[-3,39],[4,20],[-16,-3]],[[9843,842],[26,34],[22,51],[-10,17],[7,15],[18,-28],[15,-59],[-7,-13],[14,-13],[19,-67],[-2,-14],[18,-6],[14,-20],[22,-63],[-49,-46],[4,-36],[7,-20],[-1,-33],[-16,-46],[-30,-45],[-4,-100],[5,-35],[-8,-2]],[[9907,313],[3,-33],[-43,-43],[-48,-27]],[[4269,9987],[25,-6],[3,17],[21,-2],[-2,-69],[2,-18],[-20,-24],[0,-20],[-36,-15],[-49,-27],[-6,20],[-12,68],[1,22],[10,0],[1,36],[-14,11],[0,19],[76,-12]],[[180,4799],[19,-43],[-41,-58],[14,-50],[-40,-59],[29,-76],[33,-11],[11,-49],[-25,-9],[1,-9],[-18,-51],[-44,75],[-18,-31],[-57,149],[-44,73],[22,44],[-15,39],[0,38],[27,0],[18,-52],[31,-19],[17,-16],[22,35],[-13,32],[21,32],[50,16]]]}
