{"type":"Topology","bbox":[-75.2897098744333,1.5052581757598775,-74.99228117933626,1.7162704248383338],"transform":{"scale":[0.000029745844094113363,0.000021103335241369764],"translate":[-75.2897098744333,1.5052581757598775]},"objects":{"municipios":{"type":"GeometryCollection","geometries":[{"type":"Polygon","arcs":[[0,1,2,3]],"properties":{"codigo":"18247100000000000102","sector":"182471000000000001","pcode":"CO18247","area_m2":73265}},{"type":"Polygon","arcs":[[-2,4,5,6]],"properties":{"codigo":"18247100000000000103","sector":"182471000000000001","pcode":"CO18247","area_m2":84717}},{"type":"Polygon","arcs":[[-5,-1,7,8,9]],"properties":{"codigo":"18247100000000000104","sector":"182471000000000001","pcode":"CO18247","area_m2":78934}},{"type":"Polygon","arcs":[[10,11]],"properties":{"codigo":"18247100000000000106","sector":"182471000000000001","pcode":"CO18247","area_m2":37229}},{"type":"Polygon","arcs":[[12]],"properties":{"codigo":"18247200802002000101","sector":"182472008020020001","pcode":"CO18247","area_m2":82220}},{"type":"Polygon","arcs":[[13]],"properties":{"codigo":"18247201003004000101","sector":"182472010030040001","pcode":"CO18247","area_m2":34791}},{"type":"Polygon","arcs":[[14]],"properties":{"codigo":"18247200704001000101","sector":"182472007040010001","pcode":"CO18247","area_m2":47368}},{"type":"Polygon","arcs":[[15,16,17]],"properties":{"codigo":"18247100000000000209","sector":"182471000000000002","pcode":"CO18247","area_m2":180936}},{"type":"Polygon","arcs":[[-11,18,19,20,-8,-4,21]],"properties":{"codigo":"18247100000000000101","sector":"182471000000000001","pcode":"CO18247","area_m2":276156}},{"type":"Polygon","arcs":[[-20,22]],"properties":{"codigo":"18247100000000000105","sector":"182471000000000001","pcode":"CO18247","area_m2":67415}},{"type":"Polygon","arcs":[[23,24,25,26,27,-6,-10,28]],"properties":{"codigo":"18247100000000000201","sector":"182471000000000002","pcode":"CO18247","area_m2":152408}},{"type":"Polygon","arcs":[[29,30,31,-27,32]],"properties":{"codigo":"18247100000000000202","sector":"182471000000000002","pcode":"CO18247","area_m2":104487}},{"type":"Polygon","arcs":[[33,34,-33,-26]],"properties":{"codigo":"18247100000000000203","sector":"182471000000000002","pcode":"CO18247","area_m2":78260}},{"type":"Polygon","arcs":[[35,-34,-25,36]],"properties":{"codigo":"18247100000000000204","sector":"182471000000000002","pcode":"CO18247","area_m2":77039}},{"type":"Polygon","arcs":[[37,38,39,-30,-35,-36]],"properties":{"codigo":"18247100000000000205","sector":"182471000000000002","pcode":"CO18247","area_m2":86220}},{"type":"Polygon","arcs":[[40,41,-17,42,-38,-37,-24,43]],"properties":{"codigo":"18247100000000000206","sector":"182471000000000002","pcode":"CO18247","area_m2":342068}},{"type":"Polygon","arcs":[[44,45,-31,-40]],"properties":{"codigo":"18247100000000000207","sector":"182471000000000002","pcode":"CO18247","area_m2":181422}},{"type":"Polygon","arcs":[[-43,-16,46,-45,-39]],"properties":{"codigo":"18247100000000000208","sector":"182471000000000002","pcode":"CO18247","area_m2":210709}},{"type":"Polygon","arcs":[[-41,47]],"properties":{"codigo":"18247100000000000210","sector":"182471000000000002","pcode":"CO18247","area_m2":122894}},{"type":"Polygon","arcs":[[48,49]],"properties":{"codigo":"18247200904005000101","sector":"182472009040050001","pcode":"CO18247","area_m2":154515}},{"type":"Polygon","arcs":[[-50,50]],"properties":{"codigo":"18247200904005000102","sector":"182472009040050001","pcode":"CO18247","area_m2":112552}}]}},"arcs":[[[157,8568],[-9,-12],[-20,-16],[-3,-6],[-22,-14]],[[103,8520],[-6,0],[-23,-16],[-24,-13],[-8,23],[5,28]],[[47,8542],[-7,70],[4,0],[-3,29]],[[41,8641],[30,-14],[23,-14],[30,-24],[33,-21]],[[103,8520],[32,-107]],[[135,8413],[-2,-2],[-74,-44],[-18,76],[-4,-24],[-7,-15]],[[30,8404],[-11,-3],[2,15],[-9,14],[3,22],[12,-6],[3,-6],[2,20],[10,-1],[-6,36],[-5,45],[1,7],[15,-5]],[[157,8568],[10,-13],[8,-21],[11,-20],[31,-14],[8,-6]],[[225,8494],[10,-9]],[[235,8485],[-3,-8],[-13,-17],[-18,-6],[-24,-15],[-27,-15],[-15,-11]],[[211,8776],[-93,-58],[-9,30],[10,7],[-3,10],[16,10],[0,21],[14,0],[1,8]],[[147,8804],[47,4],[4,2],[13,-34]],[[5644,9751],[-1,-23],[-5,7],[-6,23],[-13,60],[16,36],[6,-3],[3,11],[7,-3],[3,12],[7,-4],[5,19],[1,16],[6,4],[11,40],[-1,21],[15,2],[-2,28],[12,2],[3,-25],[16,2],[5,-5],[0,-14],[6,-11],[1,-30],[-3,-15],[-20,8],[-11,-47],[1,0],[-9,-37],[-30,15],[-23,-89]],[[8209,13],[19,58],[-1,10],[-7,5],[4,10],[-6,3],[5,29],[7,-5],[2,8],[21,-11],[9,-9],[-2,-9],[10,-6],[3,9],[7,-4],[-4,-33],[4,-1],[-1,-13],[-14,-4],[-20,11],[-17,-61],[-11,6],[-3,-5],[-5,12]],[[4400,6493],[6,-19],[2,-16],[12,6],[21,15],[10,12],[8,-15],[-22,-10],[3,-34],[-35,-12],[0,-6],[-14,3],[-29,-16],[1,-8],[-13,-2],[-6,4],[1,25],[3,1],[-1,26],[3,20],[12,0],[6,26],[15,-2],[17,2]],[[132,7924],[0,14],[12,32],[3,15],[18,10],[49,24],[-3,11],[79,36]],[[290,8066],[24,-97],[3,-23]],[[317,7946],[1,-7],[-50,-28],[-28,-20],[-7,-9],[-5,13],[-3,-22],[-9,-5],[-3,22],[-65,-31],[-6,14],[-7,26],[-3,25]],[[211,8776],[13,-36]],[[224,8740],[5,-18],[16,-47],[17,-54]],[[262,8621],[-19,-62],[2,-7],[-6,-25],[-12,-20],[-2,-13]],[[41,8641],[7,27],[-8,8],[6,11],[12,-5],[15,-13],[4,-7],[14,-11],[2,7],[-23,29],[-14,-1],[-6,17],[9,32],[10,20],[11,-17],[5,-2],[3,15],[16,6],[5,15],[9,14],[3,20],[26,-2]],[[224,8740],[63,40],[8,-40],[21,-46],[-7,-13],[8,-27],[-7,-6],[-48,-27]],[[361,8351],[-7,1],[-20,12],[-26,3],[-20,-24],[-14,-10]],[[274,8333],[-8,25]],[[266,8358],[0,8],[-10,13],[-13,23],[-5,-6],[-17,25],[-101,-61]],[[120,8360],[-51,-31],[-20,-15],[-16,5]],[[33,8319],[-4,14],[8,0],[3,30],[-9,18],[-1,23]],[[235,8485],[15,-11],[30,-9],[8,-17],[21,-13],[27,-28],[19,-36],[6,-20]],[[135,8309],[-22,-80],[-3,-9]],[[110,8220],[-1,-6],[-19,-67],[-12,-45],[-33,22]],[[45,8124],[-11,20],[10,2],[2,24],[6,24],[9,25],[13,25],[8,4],[-13,20],[-14,13],[-22,11],[-8,1],[-4,13],[12,13]],[[120,8360],[15,-51]],[[266,8358],[-42,-25],[-4,-1],[-77,-46]],[[143,8286],[-8,23]],[[261,8201],[-18,57],[-61,-37],[-8,2],[-31,63]],[[274,8333],[2,-10],[-14,-9],[8,-29],[-20,-12],[3,-14],[18,-61],[-10,3]],[[261,8201],[3,-13]],[[264,8188],[-56,-26],[-7,29],[-13,-6],[-48,-6],[1,-45],[-20,-11],[5,-29],[-12,-5]],[[114,8089],[-2,15],[3,37],[16,41],[-1,11],[-12,19],[-8,8]],[[395,8051],[-8,-7],[-9,7],[-1,-12],[-7,-10],[8,-8],[-3,-8],[-10,9],[-8,-20],[17,-13],[-12,-21],[8,-9],[-8,-14]],[[362,7945],[-14,7],[-10,1],[-6,-7],[-15,0]],[[290,8066],[-26,122]],[[361,8351],[10,-13],[8,-4],[13,-14],[19,-16],[5,-34],[7,-13],[-6,-16],[-19,-29],[-6,-14],[-10,-31],[-11,2],[0,-5],[13,-13],[3,-37],[8,-63]],[[114,8089],[-13,-44],[10,-54],[3,-8],[3,-21],[-4,-23],[5,-13]],[[118,7926],[4,-25],[-13,-23],[-34,7],[-12,1],[-1,-11],[-14,6],[1,8],[-20,3],[-1,-11],[-9,5],[10,34],[-10,4],[-1,10],[-18,4],[18,83],[8,-3],[7,27],[-7,6],[10,21],[2,41],[7,11]],[[132,7924],[-14,2]],[[395,8051],[23,2],[67,-3],[7,-25],[-4,-9],[8,-10],[8,-33],[-3,-9],[-24,-10],[-31,-17],[-14,-5],[-5,-11],[-8,-4],[26,-97],[-11,15],[-21,79],[0,8],[-10,1],[0,-9],[-28,-12],[-6,7],[3,9],[-5,14],[-8,9],[3,4]],[[9966,5065],[10,-25],[23,-37],[-35,-5],[-27,-1],[-9,-6],[-24,3],[-9,-7],[-4,-10],[1,-21],[-40,-17],[-10,64],[-30,-2],[-4,-25],[-12,-12],[-4,7],[-22,-28],[-9,-8],[-8,13],[-5,-9],[-8,12],[4,6]],[[9744,4957],[88,121],[9,9],[96,17],[8,-46],[21,7]],[[9744,4957],[-2,32],[-3,9],[36,72],[8,0],[-2,34],[15,30],[117,23],[4,-6],[37,4],[1,-30],[5,-37],[6,-23]]]}
