{"type":"Topology","bbox":[-75.4721176660704,1.0517868387372515,-75.00238139258732,1.683030301097975],"transform":{"scale":[0.00004697832518082598,0.00006313065930200255],"translate":[-75.4721176660704,1.0517868387372515]},"objects":{"municipios":{"type":"GeometryCollection","geometries":[{"type":"Polygon","arcs":[[0]],"properties":{"codigo":"18410200307005000101","sector":"184102003070050001","pcode":"CO18410","area_m2":39830}},{"type":"Polygon","arcs":[[1]],"properties":{"codigo":"18410200806006000101","sector":"184102008060060001","pcode":"CO18410","area_m2":44476}},{"type":"Polygon","arcs":[[2]],"properties":{"codigo":"18410200301001000101","sector":"184102003010010001","pcode":"CO18410","area_m2":263513}},{"type":"Polygon","arcs":[[3]],"properties":{"codigo":"18410200901014000101","sector":"184102009010140001","pcode":"CO18410","area_m2":22701}},{"type":"Polygon","arcs":[[4,5]],"properties":{"codigo":"18410200802002000102","sector":"184102008020020001","pcode":"CO18410","area_m2":171631}},{"type":"Polygon","arcs":[[6,7,8]],"properties":{"codigo":"18410100000000000101","sector":"184101000000000001","pcode":"CO18410","area_m2":131311}},{"type":"Polygon","arcs":[[-7,9,10]],"properties":{"codigo":"18410100000000000102","sector":"184101000000000001","pcode":"CO18410","area_m2":161771}},{"type":"Polygon","arcs":[[-10,-9,11]],"properties":{"codigo":"18410100000000000103","sector":"184101000000000001","pcode":"CO18410","area_m2":123636}},{"type":"Polygon","arcs":[[12,-5]],"properties":{"codigo":"18410200802002000101","sector":"184102008020020001","pcode":"CO18410","area_m2":193859}},{"type":"Polygon","arcs":[[13]],"properties":{"codigo":"18410201205013000101","sector":"184102012050130001","pcode":"CO18410","area_m2":7013}},{"type":"Polygon","arcs":[[14]],"properties":{"codigo":"18410200707007000101","sector":"184102007070070001","pcode":"CO18410","area_m2":44052}},{"type":"Polygon","arcs":[[15]],"properties":{"codigo":"18410201302008000101","sector":"184102013020080001","pcode":"CO18410","area_m2":19215}},{"type":"MultiPolygon","arcs":[[[16]],[[17]],[[18]]],"properties":{"codigo":"18410201309009000101","sector":"184102013090090001","pcode":"CO18410","area_m2":10706}},{"type":"Polygon","arcs":[[19]],"properties":{"codigo":"18410200710010000101","sector":"184102007100100001","pcode":"CO18410","area_m2":40604}},{"type":"Polygon","arcs":[[20]],"properties":{"codigo":"18410200813012000101","sector":"184102008130120001","pcode":"CO18410","area_m2":28068}}]}},"arcs":[[[2821,5310],[0,11],[14,23],[1,6],[-7,4],[-16,1],[-8,-3],[1,9],[7,6],[4,-3],[19,1],[11,-2],[2,-5],[-7,-14],[7,1],[-8,-14],[1,-8],[8,-2],[-4,-8],[-20,7],[-1,-10],[-4,0]],[[3187,2688],[-39,20],[3,2],[-20,15],[-4,24],[7,-4],[8,-16],[11,7],[14,-8],[7,1],[-6,-5],[9,-1],[-13,-5],[1,-7],[13,-4],[-3,-3],[19,-13],[-7,-3]],[[23,7243],[17,19],[9,15],[15,10],[9,1],[19,-14],[23,20],[77,-83],[-8,-1],[-31,7],[-10,12],[11,5],[-9,11],[-21,-4],[-19,14],[-9,-8],[5,-16],[-9,-10],[5,-2],[-5,-5],[13,-7],[-4,-7],[-40,23],[-17,3],[-26,-11],[-6,-5],[-12,10],[13,17],[10,6]],[[2205,9999],[8,-3],[16,-1],[-9,-8],[-8,3],[-17,-17],[-5,7],[-10,5],[0,6],[12,8],[13,0]],[[5729,3617],[1,13],[-32,4],[-13,3],[-21,12],[-12,-10]],[[5652,3639],[-6,-1],[-5,14],[-14,3],[-14,6],[8,9],[-18,12],[-28,13],[-15,0],[-9,14],[17,3],[10,-11],[12,0],[12,-4],[4,5],[6,12],[-4,4],[25,1],[6,-15],[21,-13],[-9,-16],[0,-8],[-5,-7],[18,-11],[10,6],[9,0],[6,-8],[3,7],[7,-3],[6,9],[18,-4],[-1,-5],[12,-3],[7,-12],[-5,-14],[-7,-5]],[[774,6794],[-27,-40],[-12,-19],[0,-4],[9,-10],[7,-2],[-7,-10],[-5,1],[2,7],[-9,2]],[[732,6719],[-5,3],[-7,-4],[-6,1],[1,6],[13,10],[-1,10],[-14,0],[-3,4],[-16,6],[6,4],[1,9],[-8,15],[5,5],[26,4],[16,8],[2,12]],[[742,6812],[15,-6],[17,-12]],[[774,6794],[7,-9]],[[781,6785],[7,-8],[18,-14],[-4,-10],[-15,-6],[-11,-13],[6,-11],[7,-3],[-9,-17],[-7,-1],[1,-8],[-14,-3],[-3,-4],[-16,-8],[-3,6],[-13,10],[-8,0],[-4,5],[14,11],[5,8]],[[742,6812],[11,13],[8,20],[11,-1],[7,17],[22,-23],[28,-28],[12,0],[-2,-9],[-16,-1],[-21,-5],[-21,-10]],[[5729,3617],[-3,-10],[1,-11],[-7,0],[3,-5],[-11,-14],[0,-8],[-8,1],[-5,-18],[14,-2],[14,0],[-2,-4],[-36,4],[-29,-18],[-3,5],[4,7],[11,7],[-5,6],[4,19],[-7,5],[12,-1],[5,11],[2,10],[-5,2],[-20,-4],[-4,7],[9,8],[5,9],[-7,-6],[-14,-9],[-5,4],[-4,-3],[0,9],[7,7],[-1,5],[6,2],[2,7]],[[9324,21],[2,-3],[-4,-13],[2,-4],[-11,0],[-4,5],[10,7],[0,13],[5,-5]],[[7825,2441],[14,1],[1,-5],[-9,-2],[-6,-4],[17,-27],[9,-8],[5,0],[11,-9],[14,-21],[-5,-2],[-8,11],[-2,-1],[-22,18],[-18,14],[-6,18],[-6,5],[-14,6],[0,5],[9,-1],[13,5],[3,-3]],[[8330,1653],[5,1],[0,-7],[-22,-18],[0,-11],[-5,-3],[-12,12],[3,5],[16,7],[9,13],[-8,8],[8,2],[6,-9]],[[6104,360],[3,-4],[-9,-15],[-10,3],[4,4],[6,12],[6,0]],[[6122,362],[-5,-1],[6,12],[5,-7],[-6,-4]],[[6114,376],[-3,-5],[-5,2],[8,3]],[[9943,1590],[20,-12],[8,0],[7,5],[15,-4],[6,-7],[-2,-14],[-5,3],[-2,-7],[-15,3],[-27,11],[5,3],[-8,14],[-4,-6],[-6,3],[8,8]],[[4837,1635],[10,1],[1,-4],[13,-15],[4,-10],[5,-8],[8,-16],[-4,-6],[8,-4],[-8,-4],[-9,5],[-3,9],[5,2],[-7,13],[-8,2],[-3,11],[4,2],[-11,10],[2,2],[-9,7],[2,3]]]}
