{"type":"Topology","bbox":[-76.68097430457271,2.39198838407275,-76.53564671389637,2.5416059816169714],"transform":{"scale":[0.000014534212488883404,0.000014963256080030135],"translate":[-76.68097430457271,2.39198838407275]},"objects":{"municipios":{"type":"GeometryCollection","geometries":[{"type":"Polygon","arcs":[[0,1,2,3,4,5]]},{"type":"Polygon","arcs":[[6,7,8,9]]},{"type":"Polygon","arcs":[[10,11,12,13,14]]},{"type":"Polygon","arcs":[[15,-15,16,-3,17,18]]},{"type":"Polygon","arcs":[[19,20,21,22,23]]},{"type":"Polygon","arcs":[[24,-18,-2,25]]},{"type":"Polygon","arcs":[[26,27,28,29,30,31,32]]},{"type":"Polygon","arcs":[[33,34,35,36,37,38]]},{"type":"Polygon","arcs":[[39,40,41,42,43]]},{"type":"Polygon","arcs":[[-36,44,45,46]]},{"type":"Polygon","arcs":[[47,48,-10,49,-37,-47,50]]},{"type":"Polygon","arcs":[[51,52,53,54,55,56]]},{"type":"Polygon","arcs":[[57,-55,58,-39,59,60]]},{"type":"Polygon","arcs":[[61,-60,-38,-50,-9]]},{"type":"Polygon","arcs":[[62,-52,63,64]]},{"type":"Polygon","arcs":[[65,-57,66,67,-13]]},{"type":"Polygon","arcs":[[68,-67,-56,-58,69,70]]},{"type":"Polygon","arcs":[[-70,-61,-62,71,72]]},{"type":"Polygon","arcs":[[-71,-73,73,74,75]]},{"type":"Polygon","arcs":[[-74,76,77,78,79]]},{"type":"Polygon","arcs":[[-72,-8,80,-77]]},{"type":"Polygon","arcs":[[81,82,-64,-66,-12]]},{"type":"Polygon","arcs":[[83,84,85,-82,-11,-16,86,87]]},{"type":"Polygon","arcs":[[-14,-68,-69,-76,88,89,90]]},{"type":"Polygon","arcs":[[91,92,-89,-75,-80,93]]},{"type":"Polygon","arcs":[[94,-84,95,96]]},{"type":"Polygon","arcs":[[97,98,99,-65,-83,-86]]},{"type":"Polygon","arcs":[[100,101,-6,102,103,104,105]]},{"type":"Polygon","arcs":[[106,107,108,109]]},{"type":"Polygon","arcs":[[110,111,112,-107,113]]},{"type":"Polygon","arcs":[[114,115,-106,116]]},{"type":"Polygon","arcs":[[117,118]]},{"type":"Polygon","arcs":[[-4,-17,-91,119,120]]},{"type":"Polygon","arcs":[[-120,-90,-93,121,-113]]},{"type":"Polygon","arcs":[[122,123,-108,-122,-92,124]]},{"type":"Polygon","arcs":[[125,126,-109,-124,127,128]]},{"type":"Polygon","arcs":[[129,-103,-5,-121,-112]]},{"type":"Polygon","arcs":[[130,131,-104,-130,-111,132]]},{"type":"Polygon","arcs":[[133,134,-131,135,136]]},{"type":"Polygon","arcs":[[-133,-114,137,-136]]},{"type":"Polygon","arcs":[[138,-126,139]]},{"type":"Polygon","arcs":[[140,141,-117,-105,-132,-135]]},{"type":"Polygon","arcs":[[142,143,144,145,146]]},{"type":"Polygon","arcs":[[147,148,149,150]]},{"type":"Polygon","arcs":[[151,152,-30,153,154,-146,155,-151]]},{"type":"Polygon","arcs":[[156,-154,-29,157,158,159,160]]},{"type":"Polygon","arcs":[[161,-147,-155,-157]]},{"type":"Polygon","arcs":[[162,-96,-88,163,164]]},{"type":"Polygon","arcs":[[165,-23,166,167,168,169]]},{"type":"Polygon","arcs":[[170,171,172,173,-24,-166]]},{"type":"Polygon","arcs":[[174,175,176]]},{"type":"Polygon","arcs":[[177,178,179,-168,180]]},{"type":"Polygon","arcs":[[181,182,183]]},{"type":"Polygon","arcs":[[184,185,186,187,188]]},{"type":"Polygon","arcs":[[-189,189,190,191,192,193]]},{"type":"Polygon","arcs":[[194,-192,195,196]]},{"type":"Polygon","arcs":[[197,198,199,200,201]]},{"type":"Polygon","arcs":[[202,203,-197,204,205]]},{"type":"Polygon","arcs":[[206,207,208,209]]},{"type":"Polygon","arcs":[[210,211]]},{"type":"Polygon","arcs":[[212,213]]},{"type":"Polygon","arcs":[[214,215]]},{"type":"Polygon","arcs":[[216,217,218,-116,219]]},{"type":"Polygon","arcs":[[220,221]]},{"type":"Polygon","arcs":[[222,223,224,225,226,227,228]]},{"type":"Polygon","arcs":[[229,230]]},{"type":"Polygon","arcs":[[-179,231,232,-33,233,234]]},{"type":"Polygon","arcs":[[-167,-22,235,236,237,-181]]},{"type":"Polygon","arcs":[[238,-20,-174,239]]},{"type":"Polygon","arcs":[[-162,-161,240,-143]]},{"type":"Polygon","arcs":[[-198,241,242,243,244]]},{"type":"Polygon","arcs":[[245,246,247]]},{"type":"Polygon","arcs":[[248,249,-248,250,251,252]]},{"type":"Polygon","arcs":[[253,254,255,256,257,258]]},{"type":"Polygon","arcs":[[259,-223,260]]},{"type":"Polygon","arcs":[[-25,261,-164,-87,-19]]},{"type":"Polygon","arcs":[[262,263,264]]},{"type":"Polygon","arcs":[[265,-244,266,-177,267]]},{"type":"Polygon","arcs":[[268,-199,-245,-266,269]]},{"type":"Polygon","arcs":[[-252,270,271]]},{"type":"Polygon","arcs":[[-258,272,273]]},{"type":"Polygon","arcs":[[274]]},{"type":"MultiPolygon","arcs":[[[275]],[[276]],[[277]]]},{"type":"Polygon","arcs":[[278]]},{"type":"Polygon","arcs":[[279,280]]},{"type":"Polygon","arcs":[[281,282]]},{"type":"Polygon","arcs":[[-234,-32,283,284,285]]},{"type":"Polygon","arcs":[[286,-285,-41,287,288]]},{"type":"Polygon","arcs":[[289,290,-289,291,292,-35]]},{"type":"Polygon","arcs":[[293,294,295,296,297,-240,-173,298]]},{"type":"Polygon","arcs":[[299,-299,-172,300,301]]},{"type":"Polygon","arcs":[[-59,-54,302,-302,303,-290,-34]]},{"type":"Polygon","arcs":[[-284,-31,-153,304,305,-42]]},{"type":"Polygon","arcs":[[306,-292,-288,-40,307]]},{"type":"Polygon","arcs":[[-45,-293,-307,308]]},{"type":"Polygon","arcs":[[309,310,311,312,313,-51,-46,-309,-308,-44,314,315,316]]},{"type":"Polygon","arcs":[[317,318,319,-311,320]]},{"type":"Polygon","arcs":[[-312,-320,321,322]]},{"type":"Polygon","arcs":[[323,-313,-323,324]]},{"type":"Polygon","arcs":[[-315,-43,-306,325,326,327,328]]},{"type":"Polygon","arcs":[[329,330,-294,-300]]},{"type":"Polygon","arcs":[[-100,331,-330,-303,-53,-63]]},{"type":"Polygon","arcs":[[-78,-81,-7,-49,332]]},{"type":"Polygon","arcs":[[333,334,335,336,337,338,339,340,-98,-85,-95]]},{"type":"Polygon","arcs":[[341,342,343,-340]]},{"type":"Polygon","arcs":[[-339,344,-342]]},{"type":"Polygon","arcs":[[345,346,-335]]},{"type":"Polygon","arcs":[[347,348,349,350,-218]]},{"type":"Polygon","arcs":[[351,-119,352,353,354,355,-101,-219,-351]]},{"type":"Polygon","arcs":[[356,357]]},{"type":"Polygon","arcs":[[358,-94,-79,-333,-48,-314,-324]]},{"type":"Polygon","arcs":[[359,360,-137,-138,-110,-127,-139,361]]},{"type":"Polygon","arcs":[[-358,362,-362,-140,-129,363,364,365,366,367]]},{"type":"Polygon","arcs":[[-366,368,369]]},{"type":"Polygon","arcs":[[-152,-150,370,-326,-305]]},{"type":"Polygon","arcs":[[-125,-359,-325,-322,-319,371,372]]},{"type":"Polygon","arcs":[[-364,-128,-123,-373,373,374]]},{"type":"Polygon","arcs":[[-365,-375,375,376,377,378,379,-226,380,-369]]},{"type":"Polygon","arcs":[[-156,-145,381,382,383,384,385,386,-148]]},{"type":"Polygon","arcs":[[-149,-387,387,388,389,390,-328,391]]},{"type":"Polygon","arcs":[[-392,-327,-371]]},{"type":"Polygon","arcs":[[392,393,394,-377]]},{"type":"Polygon","arcs":[[-184,-175,-267,-243,395,396,397,398,399,-185,-194,400]]},{"type":"Polygon","arcs":[[-332,-99,-341,-344,401,402,403,404,-295,-331]]},{"type":"Polygon","arcs":[[-291,-304,-301,-171,-170,405]]},{"type":"Polygon","arcs":[[-376,-374,-372,-318,-393]]},{"type":"Polygon","arcs":[[406,407,-265,408,409,410,411]]},{"type":"Polygon","arcs":[[-287,-406,-169,-180,-235,-286]]},{"type":"Polygon","arcs":[[412,413,414,415,416]]},{"type":"Polygon","arcs":[[417,418,419,420,421]]},{"type":"Polygon","arcs":[[422,-413]]},{"type":"Polygon","arcs":[[423,-270,-268,-176,-183,424,-203,425,426,427]]},{"type":"Polygon","arcs":[[-193,-195,-204,-425,-182,-401]]},{"type":"Polygon","arcs":[[-190,-188,428,429,430]]},{"type":"Polygon","arcs":[[431,-205,-196,-191,-431,432,-207]]},{"type":"Polygon","arcs":[[-426,-206,-432,-210,433]]},{"type":"Polygon","arcs":[[434,-220,-115,-142,435,436]]},{"type":"Polygon","arcs":[[437,438,439,440]]},{"type":"Polygon","arcs":[[441,-439,442,443,-414,-423,-417,444,-216,445]]},{"type":"Polygon","arcs":[[446,-441,447,448,-214,449,-208,-433,-430]]},{"type":"Polygon","arcs":[[-436,-141,-134,-361,450]]},{"type":"Polygon","arcs":[[-211,451,-186,452,453,-443,454]]},{"type":"Polygon","arcs":[[-187,-452,-212,-455,-438,-447,-429]]},{"type":"Polygon","arcs":[[-448,-440,-442,455]]},{"type":"Polygon","arcs":[[456,-348,-217,-435,457]]},{"type":"Polygon","arcs":[[458,-221,459,-349,-457]]},{"type":"Polygon","arcs":[[-228,460,461,462,463,-317,464,465,466,-420,467]]},{"type":"Polygon","arcs":[[-395,468,-463,469,-378]]},{"type":"Polygon","arcs":[[-470,-462,470,-379]]},{"type":"Polygon","arcs":[[-471,-461,-227,-380]]},{"type":"Polygon","arcs":[[471,-261,-229,-468,-419,472]]},{"type":"Polygon","arcs":[[473,474,-367,-370,-381,-225,475]]},{"type":"Polygon","arcs":[[476,-297,477,478,-237]]},{"type":"Polygon","arcs":[[479,480,-231,481,-474,482,483]]},{"type":"Polygon","arcs":[[-394,-321,-310,-464,-469]]},{"type":"Polygon","arcs":[[-466,484]]},{"type":"Polygon","arcs":[[485,486,-159,487]]},{"type":"Polygon","arcs":[[488,489,-488,-158,-28]]},{"type":"Polygon","arcs":[[-27,-233,490,491,-489]]},{"type":"Polygon","arcs":[[-250,492,493,494,-246]]},{"type":"Polygon","arcs":[[-232,-178,-238,-479,495,496,497,498,499,-491]]},{"type":"Polygon","arcs":[[-486,-490,-492,-500,500,501,502,503]]},{"type":"Polygon","arcs":[[-478,504,505,-496]]},{"type":"Polygon","arcs":[[-239,-298,-477,-236,-21]]},{"type":"Polygon","arcs":[[-480,506,507]]},{"type":"Polygon","arcs":[[508,-411,-399]]},{"type":"Polygon","arcs":[[-144,-241,-160,-487,-504,509,-382]]},{"type":"Polygon","arcs":[[-503,510,511,-383,-510]]},{"type":"MultiPolygon","arcs":[[[512]],[[513,514,515,-493,-249]]]},{"type":"Polygon","arcs":[[-516,516,-494]]},{"type":"Polygon","arcs":[[517,-511,-502,518,519,520,-514,-253,-272,521,522]]},{"type":"Polygon","arcs":[[523,524,-523,525]]},{"type":"Polygon","arcs":[[526,527,528,529,-255]]},{"type":"Polygon","arcs":[[530,-483,-476,-224,-260,-472,531,-407,532]]},{"type":"Polygon","arcs":[[533,-507,-484,-531]]},{"type":"Polygon","arcs":[[-408,-532,-473,-418,534,-263]]},{"type":"Polygon","arcs":[[535,536,-200,-269,-424,537]]},{"type":"Polygon","arcs":[[538,539,540,-346,-334,-97,-163]]},{"type":"Polygon","arcs":[[541,-354,542,-540]]},{"type":"Polygon","arcs":[[-390,543,544,-524,545]]},{"type":"Polygon","arcs":[[-384,-512,-518,-525,-545,546]]},{"type":"Polygon","arcs":[[547,-385,-547,-544,-389]]},{"type":"Polygon","arcs":[[-548,-388,-386]]},{"type":"Polygon","arcs":[[548,549,-527,-254,550,-520]]},{"type":"Polygon","arcs":[[-528,-550,551]]},{"type":"Polygon","arcs":[[552,553,-256,-530]]},{"type":"Polygon","arcs":[[554,555,-273,-257,-554]]},{"type":"Polygon","arcs":[[556,557,-556,558]]},{"type":"Polygon","arcs":[[-242,-202,559,560,-396]]},{"type":"Polygon","arcs":[[-561,561,-397]]},{"type":"Polygon","arcs":[[562]]},{"type":"Polygon","arcs":[[563]]},{"type":"MultiPolygon","arcs":[[[564]],[[565]],[[566]],[[567]]]},{"type":"Polygon","arcs":[[-405,568,569,-505,-296]]},{"type":"MultiPolygon","arcs":[[[570,571]],[[572]]]},{"type":"Polygon","arcs":[[573]]},{"type":"Polygon","arcs":[[574]]},{"type":"Polygon","arcs":[[575]]},{"type":"Polygon","arcs":[[576]]},{"type":"Polygon","arcs":[[577,578,579,580,-403]]},{"type":"Polygon","arcs":[[-569,-404,-581,581]]},{"type":"Polygon","arcs":[[582,-579,583]]},{"type":"Polygon","arcs":[[-338,584,585,-584,-578,-402,-343,-345]]},{"type":"Polygon","arcs":[[586,-585,-337]]},{"type":"Polygon","arcs":[[-572,587]]},{"type":"Polygon","arcs":[[588]]},{"type":"MultiPolygon","arcs":[[[589]],[[590]]]},{"type":"Polygon","arcs":[[-498,591,-557,592]]},{"type":"Polygon","arcs":[[593,-538,-428,594]]},{"type":"Polygon","arcs":[[595,596,-536,-594,597]]},{"type":"Polygon","arcs":[[598,599,-596,600,-281,601]]},{"type":"Polygon","arcs":[[-599,602]]},{"type":"Polygon","arcs":[[-282,603]]},{"type":"Polygon","arcs":[[-499,-593,-559,-555,-553,-529,-552,-549,-519,-501]]},{"type":"Polygon","arcs":[[604]]},{"type":"Polygon","arcs":[[-409,-264,-535,-422,605,-415,-444,-454,606]]},{"type":"Polygon","arcs":[[-400,-410,-607,-453]]},{"type":"Polygon","arcs":[[-542,-539,-165,-262,607,-355]]},{"type":"Polygon","arcs":[[-356,-608,-26,-1,-102]]},{"type":"Polygon","arcs":[[608]]}]}},"arcs":[[[5174,2798],[-135,26]],[[5039,2824],[-120,22]],[[4919,2846],[51,131]],[[4970,2977],[58,-20]],[[5028,2957],[182,-65]],[[5210,2892],[-36,-94]],[[4618,3684],[-37,-92]],[[4581,3592],[-22,-63]],[[4559,3529],[-147,52]],[[4412,3581],[18,37],[14,-6],[46,112],[5,27],[64,-21],[-8,-22],[67,-24]],[[4792,2889],[-106,40]],[[4686,2929],[21,80]],[[4707,3009],[17,70]],[[4724,3079],[38,-11],[-6,-23],[89,-27]],[[4845,3018],[-53,-129]],[[4742,2711],[19,94],[31,84]],[[4845,3018],[125,-41]],[[4919,2846],[-42,-136]],[[4877,2710],[-19,-29],[-56,18],[-7,-10],[-53,22]],[[3731,3373],[-45,-19]],[[3686,3354],[-17,-5],[-54,26],[-21,-10],[-15,35]],[[3579,3400],[65,34],[14,-1],[29,23]],[[3687,3456],[4,-5]],[[3691,3451],[39,-54],[1,-24]],[[4933,2686],[-56,24]],[[5039,2824],[-32,-110],[-62,11],[-12,-39]],[[3527,3689],[-31,49]],[[3496,3738],[-62,149]],[[3434,3887],[-9,22],[-54,66]],[[3371,3975],[5,82]],[[3376,4057],[261,-139],[50,-14]],[[3687,3904],[-32,-75],[-51,-105]],[[3604,3724],[-20,-45],[-57,10]],[[4279,3465],[-30,16],[-33,-66],[-103,52],[-16,-24],[-28,35],[-12,29]],[[4057,3507],[27,17],[22,30],[74,138]],[[4180,3692],[122,-65]],[[4302,3627],[48,-22]],[[4350,3605],[-57,-111]],[[4293,3494],[-14,-29]],[[3798,4190],[-9,-10],[27,-24],[57,-16],[104,-63],[-108,-186],[-18,-26]],[[3851,3865],[-21,12]],[[3830,3877],[16,29],[-10,25],[26,26],[-22,37],[2,25],[-27,5],[-24,39],[-57,-7],[-30,20],[-20,26],[-74,24],[-12,18]],[[3598,4144],[7,21],[-24,14],[83,61],[11,19]],[[3675,4259],[58,-55],[12,-30],[19,13],[11,38],[26,-1],[-3,-34]],[[4180,3692],[15,32],[23,-10],[47,100],[26,-10],[100,36]],[[4391,3840],[14,-12]],[[4405,3828],[-27,-15],[40,-74],[-30,-12],[-11,24],[-24,-10],[-20,-39],[-12,5],[-17,-33],[17,-7],[-19,-40]],[[4651,3736],[0,-1]],[[4651,3735],[-33,-51]],[[4412,3581],[-62,24]],[[4405,3828],[51,-24],[37,-28],[89,-23],[52,-8],[17,-9]],[[4469,3104],[-37,19],[-54,59],[-35,7]],[[4343,3189],[-33,6],[-65,38],[7,22]],[[4252,3255],[28,85]],[[4280,3340],[104,-30],[124,-25]],[[4508,3285],[-12,-56]],[[4496,3229],[-27,-125]],[[4509,3288],[-1,-3]],[[4280,3340],[37,112],[-38,13]],[[4293,3494],[128,-39],[118,-24]],[[4539,3431],[-30,-143]],[[4559,3529],[-20,-98]],[[4434,2926],[-54,20],[-33,21],[-36,73],[32,149]],[[4469,3104],[-17,-88]],[[4452,3016],[-18,-90]],[[4707,3009],[-212,81],[-26,14]],[[4496,3229],[161,-51],[84,-29]],[[4741,3149],[-17,-70]],[[4776,3265],[-35,-116]],[[4509,3288],[94,-20],[8,35]],[[4611,3303],[165,-38]],[[4559,3529],[41,-23],[80,-34]],[[4680,3472],[-18,-46],[-40,-82],[-11,-41]],[[4680,3472],[138,-51]],[[4818,3421],[-17,-32],[-11,-40]],[[4790,3349],[-14,-84]],[[4680,3472],[63,147]],[[4743,3619],[110,6]],[[4853,3625],[17,-26],[62,-19]],[[4932,3580],[-51,-129],[-63,-30]],[[4581,3592],[70,22],[92,5]],[[4686,2929],[-35,13]],[[4651,2942],[-199,74]],[[4703,2606],[-104,32],[-73,43]],[[4526,2681],[-53,81]],[[4473,2762],[59,16],[21,30],[62,25],[36,109]],[[4742,2711],[-30,-82]],[[4712,2629],[-9,-23]],[[4790,3349],[165,-55]],[[4955,3294],[-43,-107]],[[4912,3187],[-67,-169]],[[5049,3548],[-72,-194]],[[4977,3354],[-22,-60]],[[4932,3580],[7,16],[55,-2],[26,-36],[29,-10]],[[4616,2333],[-36,9],[8,35],[-26,5],[8,36],[-54,4],[-27,-10],[5,106],[8,28],[36,87],[-12,48]],[[4703,2606],[-9,-23]],[[4694,2583],[-14,-76],[-46,-44],[-13,-45],[-5,-85]],[[4473,2762],[-55,81]],[[4418,2843],[8,37]],[[4426,2880],[8,46]],[[5364,2594],[-115,28],[-119,45],[-11,1]],[[5119,2668],[55,130]],[[5210,2892],[20,59]],[[5230,2951],[117,-41]],[[5347,2910],[-35,-29],[-38,-94],[52,-28]],[[5326,2759],[11,-99],[27,-66]],[[5340,3240],[-183,57]],[[5157,3297],[65,171]],[[5222,3468],[179,-54]],[[5401,3414],[-61,-174]],[[5293,3119],[-21,-58]],[[5272,3061],[-179,67]],[[5093,3128],[64,169]],[[5340,3240],[-47,-121]],[[5613,2734],[-60,-103],[-17,-7]],[[5536,2624],[-111,7],[-61,-37]],[[5326,2759],[23,-6],[134,5],[54,0],[76,-24]],[[5225,2370],[-27,-46],[-34,0],[-33,-26],[-8,8],[54,54],[13,61]],[[5190,2421],[24,-5],[6,29],[17,-26],[-12,-49]],[[4912,3187],[181,-59]],[[5093,3128],[-65,-171]],[[4977,3354],[180,-57]],[[5182,3512],[40,-2]],[[5222,3510],[0,-42]],[[5049,3548],[111,-34],[22,-2]],[[5488,3474],[-23,-79]],[[5465,3395],[-64,19]],[[5222,3510],[48,0],[43,40],[38,-3],[38,41]],[[5389,3588],[44,-85],[54,-22],[1,-7]],[[5272,3061],[-42,-110]],[[5404,3093],[5,-64],[16,-86]],[[5425,2943],[-58,-18],[-20,-15]],[[5293,3119],[74,-24],[37,-2]],[[5725,2920],[-14,-31],[-82,-129]],[[5629,2760],[-79,28],[5,22],[-47,5],[5,41],[-21,101],[-67,-14]],[[5404,3093],[16,15],[54,86]],[[5474,3194],[45,-29],[46,-39],[-4,-29],[35,-17],[59,-6],[18,-12],[12,-51],[38,-67],[2,-24]],[[5340,3240],[63,-16],[71,-30]],[[5558,3364],[-93,31]],[[5488,3474],[120,-35],[-26,19],[93,-7],[4,-15],[-48,-10],[-51,-50],[-22,-12]],[[5629,2760],[-5,-9]],[[5624,2751],[-11,-17]],[[3186,4037],[-51,10],[-3,17],[-52,-10],[12,41]],[[3092,4095],[2,2]],[[3094,4097],[19,47],[-2,54],[107,-60]],[[3218,4138],[15,-9]],[[3233,4129],[-34,-17],[-3,-24],[15,-39],[-25,-12]],[[3245,4190],[56,102]],[[3301,4292],[20,38]],[[3321,4330],[104,-163]],[[3425,4167],[-49,-32],[-35,6],[-96,49]],[[3425,4167],[31,-49]],[[3456,4118],[-91,-56],[11,-5]],[[3371,3975],[-7,-16],[-34,35],[-23,7]],[[3307,4001],[-7,14],[9,33],[-18,38],[7,11],[-65,32]],[[3218,4138],[27,52]],[[3167,4000],[-15,-18],[77,-31],[10,20],[45,26],[23,4]],[[3434,3887],[-62,-45]],[[3372,3842],[-24,17],[-49,54],[-97,-73]],[[3202,3840],[-41,23],[-43,46],[-5,24],[-23,35],[11,23],[26,16]],[[3127,4007],[40,-7]],[[3167,4000],[19,37]],[[4787,2432],[-4,16],[16,53],[-19,-17],[-4,-21],[-33,-29],[-41,8],[2,12],[-28,6],[38,47],[-8,21],[13,46],[-25,9]],[[4712,2629],[185,-54]],[[4897,2575],[-49,-147],[-46,14],[-15,-10]],[[3930,3458],[-15,-48],[-46,-54],[-32,6],[7,50],[-73,85],[-20,-2],[-45,-25],[-15,-19]],[[3687,3456],[-10,12]],[[3677,3468],[64,51]],[[3741,3519],[48,39]],[[3789,3558],[51,-55],[13,-43],[26,-5],[33,25],[18,-22]],[[3930,3458],[27,19],[41,-9],[21,-28],[14,-1]],[[4033,3439],[-21,-25]],[[4012,3414],[-89,-67],[-53,-45],[-37,-26],[-16,9]],[[3817,3285],[-58,37],[-26,26],[-2,25]],[[8330,5665],[-65,81],[16,13],[-32,38]],[[8249,5797],[52,38],[58,36],[71,-89]],[[8430,5782],[-25,-33],[13,-16],[-88,-68]],[[3544,3518],[23,43]],[[3567,3561],[50,94]],[[3617,3655],[35,-31],[89,-105]],[[3677,3468],[-59,-7],[-34,-19],[-37,47],[-3,29]],[[8181,5722],[-3,6],[-133,54],[-24,112],[-19,66],[141,61]],[[8143,6021],[106,-224]],[[8249,5797],[-31,-25],[-37,-50]],[[7769,5961],[-115,6]],[[7654,5967],[-1,173],[14,148]],[[7667,6288],[4,59]],[[7671,6347],[77,-2]],[[7748,6345],[12,-227],[9,-157]],[[7748,6345],[96,-3]],[[7844,6342],[17,-54]],[[7861,6288],[87,-306]],[[7948,5982],[-16,-4]],[[7932,5978],[-96,-19],[-67,2]],[[8060,6013],[-112,-31]],[[7861,6288],[103,29],[10,-34]],[[7974,6283],[86,-270]],[[8535,5404],[-35,43],[32,24],[-8,11],[33,77]],[[8557,5559],[47,-19]],[[8604,5540],[98,-38],[-33,-80],[-24,-42]],[[8645,5380],[-24,-4]],[[8621,5376],[-35,21],[-51,7]],[[8197,6169],[-19,-46],[-55,-69]],[[8123,6054],[-63,-41]],[[7974,6283],[107,36]],[[8081,6319],[63,-87],[53,-63]],[[7957,6549],[-35,63],[-58,72],[-65,61],[-55,42],[-22,82],[-1,29],[32,44],[-17,27],[-47,14],[-39,1],[-52,25]],[[7598,7009],[-13,15]],[[7585,7024],[71,4],[54,-9],[384,-127],[102,-31],[92,-16],[71,-34],[27,-21],[16,-26],[7,-39]],[[8409,6725],[-64,-147],[-22,-41],[-60,-195],[-92,29],[-10,18],[-77,82],[-25,39],[-43,51],[-59,-12]],[[7576,6313],[-33,12],[-25,-1],[-60,-29]],[[7458,6295],[-27,-24],[-83,9],[30,126],[37,-8],[10,43],[114,-3],[67,-14],[-25,-62],[-5,-49]],[[7276,6887],[-55,46],[-30,7],[-44,57],[4,43],[30,46],[41,41],[12,-41],[32,-72],[9,-34],[51,-70]],[[7326,6910],[-50,-23]],[[6127,6355],[-48,11],[-26,-1],[-25,86],[8,33],[-44,26],[-57,24],[-15,-38],[-142,52],[14,43],[-81,48],[26,72],[101,-28],[239,-93],[106,-53]],[[6183,6537],[-50,-184],[-6,2]],[[5610,2534],[-19,10],[-35,-3],[-10,-20],[-60,-46]],[[5486,2475],[-30,28],[-14,27],[-82,61]],[[5360,2591],[4,3]],[[5536,2624],[1,-19],[69,4],[4,-75]],[[5497,2167],[23,4],[-9,-39],[17,-28],[27,-2],[45,44],[4,30],[22,11]],[[5626,2187],[1,-68],[-23,-11],[24,-11],[-11,-33],[-17,5],[-11,-42],[-44,-2],[-43,27],[-12,22],[-2,78],[9,15]],[[6279,4508],[75,-113],[61,39]],[[6415,4434],[21,-26]],[[6436,4408],[-63,-47],[-9,10],[-166,-124]],[[6198,4247],[-37,68]],[[6161,4315],[-125,187]],[[6036,4502],[38,40]],[[6074,4542],[99,-103],[25,26],[61,74],[20,-31]],[[6899,4030],[28,13],[28,-16],[15,-35],[-78,-59],[-29,-40],[-14,-7],[3,27],[-23,25],[-75,-43],[-11,12]],[[6743,3907],[59,47],[-71,83],[77,62],[74,-83],[17,14]],[[3567,3561],[-26,8],[-17,-42],[-30,3],[-17,-50],[-27,8]],[[3450,3488],[26,97],[17,-7],[32,28],[7,22],[-5,61]],[[3604,3724],[44,-20]],[[3648,3704],[-31,-49]],[[3579,3400],[-25,-22],[-23,-38]],[[3531,3340],[-17,-7],[-54,14]],[[3460,3347],[-7,17],[11,27],[47,71],[33,56]],[[3776,3235],[-16,12],[-30,-2],[-44,109]],[[3817,3285],[-21,-40],[-20,-10]],[[3127,4007],[-33,-3],[-58,17],[1,57],[55,17]],[[8535,5404],[-22,4],[-109,52],[-52,49]],[[8352,5509],[-9,11],[65,50]],[[8408,5570],[87,66]],[[8495,5636],[62,-77]],[[2540,4547],[-73,-17],[-9,36],[-32,-1],[-72,35]],[[2354,4600],[51,106],[135,14],[1,14]],[[2541,4734],[65,-64],[-71,-69],[5,-54]],[[2575,4524],[-10,21],[-22,-6]],[[2543,4539],[-3,8]],[[2541,4734],[-12,14]],[[2529,4748],[33,32]],[[2562,4780],[40,-50],[13,12],[33,-32],[14,14],[22,-21],[-24,-33],[19,-19],[-27,-25],[3,-23],[-80,-79]],[[2832,3972],[-36,-28],[4,-27],[45,-40],[17,-64],[2,-49]],[[2864,3764],[-30,-2],[-34,18],[-17,-14],[21,-74],[-8,-46],[7,-19],[-11,-29],[34,-11],[-21,-57]],[[2805,3530],[-37,38],[-38,-44],[-16,10],[-52,-50],[26,-30]],[[2688,3454],[21,-51],[45,-30]],[[2754,3373],[-46,-51]],[[2708,3322],[-79,48],[-12,85],[-15,55],[7,28],[38,53],[-23,20],[40,56],[12,-6],[32,44],[-3,36],[34,59],[-17,20],[13,12],[-156,-14],[-12,50],[87,21],[84,9],[3,9],[-44,-7],[-3,33],[47,-11],[-18,68],[-11,4],[6,29],[34,3],[46,-9],[20,-41],[14,-4]],[[6497,4589],[24,-28],[-22,-17],[28,-34],[-112,-76]],[[6279,4508],[187,117],[31,-36]],[[4933,2686],[-36,-111]],[[6960,5008],[-24,0],[-22,-22],[-34,4],[-25,-11],[-36,23]],[[6819,5002],[18,75],[38,31],[118,63],[30,21],[81,36],[17,12]],[[7121,5240],[24,-28],[-113,-117],[-72,-87]],[[8614,5701],[-46,-2],[1,-38],[-44,-1],[-30,-24]],[[8408,5570],[-78,95]],[[8430,5782],[28,-35],[37,2],[119,-48]],[[8712,5663],[-21,-51],[-49,20],[-38,-92]],[[8614,5701],[98,-38]],[[2529,4748],[-36,45],[-26,54],[-32,51],[8,41],[30,29],[43,10],[9,45]],[[2525,5023],[25,-4],[-1,-27],[-16,-22],[-29,3],[-13,-38],[4,-27],[25,-33],[10,-29],[-17,-9],[49,-57]],[[2754,3373],[128,-157]],[[2882,3216],[-29,-1],[-32,13],[-43,31],[-25,35],[-45,28]],[[433,5897],[37,-95],[15,-3],[-17,-61],[9,-1],[-17,-51],[-15,4],[-3,-62],[47,-9],[23,11],[72,61],[5,18],[-46,37],[10,7],[35,-25],[29,14],[14,-15],[53,27],[62,63],[30,48],[28,57],[28,-13],[60,4],[9,-6],[-27,-49],[-34,-29],[-40,-16],[-27,-35],[9,-33],[-51,-7],[-50,-19],[-168,-134],[-15,-23],[-16,-2],[-65,25],[-5,33],[-36,11],[-41,31],[-20,36],[-11,-5],[-30,22],[-35,2],[-56,-10],[-25,10],[-35,-36],[-22,4],[-2,-19],[-22,2],[-40,-32],[-4,23],[30,15],[23,30],[-10,29],[-44,-11],[-16,54],[-16,14],[14,35],[13,-2],[69,-56],[16,-20],[50,-11],[4,-16],[49,8],[17,21],[19,62],[29,3],[39,-20],[45,-54],[-17,-18],[34,-11],[-7,-34],[14,-11],[36,34],[13,50],[10,-2],[11,51],[-24,63],[-24,32],[-22,-5],[-9,24],[11,42],[43,-56]],[[6607,3849],[21,-13],[2,-65],[23,-13],[20,30],[54,-29],[20,29],[16,-15],[48,-17],[21,-18],[-29,-7],[13,-50],[68,-23],[18,-12],[17,-38],[-9,-11],[80,-42],[46,-5],[8,29],[20,-34],[71,-39],[-5,-34],[-41,24],[-99,41],[-33,-13],[-59,-1],[-3,46],[-14,-6],[-2,-40],[-21,-15],[-12,20],[6,41],[-16,1],[-16,-24],[-31,17],[-3,69],[-40,29],[-19,-44],[-10,25],[-22,-11],[-31,58],[-25,16],[-22,-47],[32,-36],[-14,-11],[-45,19],[0,29],[-16,20],[32,43],[-14,9],[-6,98],[21,20]],[[6752,3594],[-11,-32],[-11,3],[-1,-31],[13,-9],[-25,-19],[-27,4],[19,13],[3,40],[-11,36],[7,18],[44,-23]],[[6556,3626],[37,-13],[19,-26],[-25,0],[-22,-25],[24,-42],[-26,-4],[-15,-18],[-18,20],[19,23],[-12,24],[-8,-32],[-28,-13],[-17,29],[53,36],[19,41]],[[4179,1783],[-4,30],[44,44],[19,-7],[45,5],[35,13],[66,-2],[-18,-23],[-2,-27],[-58,1],[-3,10],[-44,-3],[-26,-24],[-4,-22],[-19,18],[-31,-13]],[[9222,5288],[86,67],[-27,73],[36,42],[68,-28],[58,35],[22,-30],[109,69],[10,18],[11,-17],[35,23],[56,-80],[33,-36],[12,-25],[-65,-49],[21,-31],[-79,-44],[-17,27],[-248,-160],[-17,26]],[[9326,5168],[-104,120]],[[9423,7930],[73,85]],[[9496,8015],[61,90],[-21,6],[19,81],[16,0],[-15,51],[8,4],[49,63],[58,-22],[-32,-25],[24,-7],[24,26],[4,-13],[32,-1],[43,-33],[-35,-20],[41,-24],[-7,-18],[47,-20],[-37,-67],[-37,-1],[3,-59],[-79,-21],[-183,-70],[-56,-5]],[[3687,3904],[91,-4],[52,-23]],[[3830,3877],[-25,-62],[29,-48],[-62,-71],[-51,-17],[-6,-9],[22,-45]],[[3737,3625],[-17,-14],[-38,39],[2,35],[-36,19]],[[3848,3549],[-23,8],[-88,68]],[[3851,3865],[154,-91]],[[4005,3774],[-115,-216],[-37,4],[-5,-13]],[[4057,3507],[-18,-7]],[[4039,3500],[-8,23],[-33,28],[-36,8],[-100,-14],[-14,4]],[[4005,3774],[76,-38]],[[4081,3736],[99,-44]],[[4000,3287],[-43,-35],[-8,-22],[73,-66],[25,-47],[32,-26]],[[4079,3091],[-33,-23],[-11,4],[-34,-39],[-19,-38],[-34,-30],[6,-27]],[[3954,2938],[-102,89],[-65,40],[-83,15]],[[3704,3082],[-29,68],[74,5],[-28,36]],[[3721,3191],[55,44]],[[4012,3414],[42,-51],[-96,-78],[42,2]],[[4222,3254],[-46,-19],[-66,-40],[-52,1],[20,62],[-14,20],[-64,9]],[[4033,3439],[12,11],[-15,42],[10,6]],[[4040,3498],[71,-126],[23,-11],[16,-23],[66,-63],[6,-21]],[[4252,3255],[-30,-1]],[[4040,3498],[-1,2]],[[3456,4118],[20,11]],[[3476,4129],[30,8],[40,-62],[3,-39],[53,-45],[52,57],[-88,64],[-4,21],[36,11]],[[4181,3953],[-60,-136],[-40,-81]],[[3798,4190],[75,-18],[-1,33],[25,13],[42,-17],[-16,-31],[10,-14],[16,29],[23,17],[13,-20],[2,-43],[54,-1],[11,-8],[-4,-42],[-20,-26],[2,-23],[23,-29],[6,42],[10,1],[18,-51],[14,-8],[20,32],[33,-32],[-1,-21],[28,-20]],[[4181,3953],[35,-15],[38,-30],[31,-9],[28,17],[25,-7],[-8,-31],[34,-14],[27,-24]],[[5730,4378],[-142,-65],[30,-57],[-163,-72],[-35,6],[-45,-11]],[[5375,4179],[-111,-53],[-22,46],[-73,-33],[22,-47],[-21,-12]],[[5170,4080],[-64,-33],[41,-82]],[[5147,3965],[-213,-97]],[[4934,3868],[-269,-121],[-14,-11]],[[3675,4259],[-1,39],[25,30],[29,13],[32,-34],[36,-14],[15,-21],[24,-9],[15,24],[-15,87],[5,23],[20,12],[-2,58],[11,45]],[[3869,4512],[28,-38],[23,-7],[23,11],[39,69],[36,1],[30,-25],[51,-57],[28,-6],[50,29],[15,32],[11,56],[14,17],[41,5],[76,-2],[35,10],[25,-6],[25,-33],[69,-43],[19,-22],[9,-49],[19,-22],[47,-10],[20,82],[22,50],[30,10],[34,-6],[33,-22],[24,-29],[36,-16],[39,-32],[18,76],[13,35],[36,14],[105,-53],[18,-2],[51,27],[30,49],[36,23],[49,5],[38,-54],[42,-30],[25,-5]],[[5281,4544],[5,-12],[64,-67],[260,72],[35,-36],[59,-74],[26,-49]],[[5421,4087],[-203,-94]],[[5218,3993],[0,0]],[[5218,3993],[-13,14],[-35,73]],[[5375,4179],[46,-92]],[[5218,3993],[-4,-1]],[[5214,3992],[-67,-27]],[[5071,3615],[-80,9],[20,66],[-47,17],[9,47],[-39,114]],[[5214,3992],[-15,-44],[-125,-333],[-3,0]],[[3476,4129],[-31,49],[17,10],[-29,46],[14,12],[-53,87],[-43,49]],[[3351,4382],[25,40],[-33,52],[-39,20],[-13,18]],[[3291,4512],[-15,32],[-7,45],[-26,36],[25,70]],[[3268,4695],[43,-41],[28,-13],[90,12],[115,3],[46,20],[8,45],[54,10],[37,29],[26,7],[116,-6],[33,-15],[23,-28],[-15,-61],[-30,-61],[0,-35],[27,-49]],[[4222,3254],[9,-16],[-16,-34],[19,-12],[42,-83],[-190,-56]],[[4086,3053],[-7,38]],[[4426,2880],[-71,12],[-138,51],[-46,1],[-57,18],[-25,62],[-3,29]],[[4651,3735],[95,-9],[92,-42],[20,-27],[9,-31],[-14,-1]],[[4616,2333],[-29,-29],[-17,-41],[4,-50],[-17,-60],[-32,-48],[-9,-83]],[[4516,2022],[-18,80],[-18,-3],[-38,77],[-29,-13]],[[4413,2163],[0,22],[-22,2],[-11,39],[-23,-4],[-21,51],[10,6],[8,49],[21,45]],[[4375,2373],[-32,28]],[[4343,2401],[-5,7]],[[4338,2408],[37,37],[-33,42],[-36,25],[11,17]],[[4317,2529],[12,-8],[43,50],[47,-22],[21,0],[-22,70],[-24,-17],[-30,21],[-13,-14],[-22,34],[23,70],[35,25],[12,21]],[[4399,2759],[19,84]],[[4317,2529],[-41,18],[-74,3]],[[4202,2550],[-9,12]],[[4193,2562],[13,37],[-16,35],[106,56],[91,54],[12,15]],[[4338,2408],[-29,11],[-19,-18],[-22,17],[-22,-10],[-2,39],[-16,4],[-41,59],[15,40]],[[4516,2022],[5,-69],[-37,-47],[-3,-52]],[[4481,1854],[-12,-8],[-26,35],[-7,73],[30,46],[3,26],[-27,47],[-7,53],[-22,37]],[[5486,2475],[25,-36],[27,-58],[16,-12]],[[5554,2369],[12,-13],[-15,-60],[-21,-21],[3,-16]],[[5533,2259],[-25,-2],[0,17],[-22,-3],[0,-27],[-28,-5],[-81,6],[-3,22],[-25,-2],[23,-32],[-11,-48],[-60,8],[-16,-19],[-6,41],[-42,26],[8,68],[16,41]],[[5261,2350],[25,49],[-13,43],[-1,66],[34,17],[11,33],[43,33]],[[5261,2350],[-36,20]],[[5190,2421],[-31,35],[-70,30],[-22,-52],[2,-44],[-7,-36],[37,-62],[-10,-22],[2,-47],[-13,-22],[15,-35],[13,-3],[-7,-28],[34,-28],[-22,-44],[15,-43],[-5,-30],[-53,-27],[3,-35],[41,-76],[52,-59],[3,-29],[38,-39],[29,1],[12,-16],[-8,-24],[5,-29],[33,-40],[-6,-5],[-40,30],[-21,42],[-24,17],[-24,-33],[-31,-14],[-2,-13],[-51,8],[7,19],[31,5],[31,27],[12,30],[-20,3],[1,26],[-30,28],[-34,12],[-22,29],[2,26],[-18,32],[-10,-3],[-34,38],[45,-1],[-9,35],[4,26],[21,35],[-6,21],[14,46],[4,51],[-49,0],[5,27],[-22,17],[-21,34],[11,4],[25,-30],[29,5],[-16,19],[5,38],[-19,74],[-43,69],[-43,-19]],[[4928,2372],[-15,23]],[[4913,2395],[24,-5],[29,16],[24,42],[-17,41],[23,42],[19,52],[28,51],[27,23]],[[5070,2657],[49,11]],[[6396,3692],[-2,-23],[-26,-58],[-77,-157],[-8,-30],[-42,10],[-2,36],[-16,18],[-37,11],[28,29],[-22,25],[29,27],[-2,26]],[[6219,3606],[-1,27],[-20,62],[-25,-4],[-14,44],[-33,-1],[-29,59],[10,19],[33,-52],[35,2],[-7,45],[25,-18],[144,-83],[59,-14]],[[5071,3615],[-22,-67]],[[5670,3383],[32,12],[60,0],[28,-10],[2,-24],[-46,-17],[-21,-15],[-19,-36],[-5,-32],[19,3],[18,49],[17,15],[42,10],[26,24],[31,-11],[-10,-33],[-69,4],[-4,-18],[40,0],[15,-30],[-73,-84],[-27,-7],[-13,-21],[45,-17],[2,-27],[49,-23],[61,-6],[24,-50],[-56,-19],[-33,15],[-49,-74]],[[5756,2961],[-31,-41]],[[5558,3364],[35,-21],[41,3],[36,37]],[[6219,3606],[-75,-31],[-2,-25],[-23,9],[-29,-13],[-36,-28],[-49,-16],[-18,-13],[20,-36],[-5,-22],[-35,-31],[-13,4],[-33,101],[13,36],[-9,19],[-39,2],[-34,-35],[-17,29],[-11,-17],[-64,-17],[-15,-43],[-12,-11],[-41,29],[-36,6],[7,-29],[35,-16],[8,-29],[-44,-31],[8,-15]],[[5389,3588],[51,93],[46,17],[28,39],[31,5],[43,50],[32,13],[41,4],[43,-6]],[[5704,3803],[8,-17],[29,1],[12,63],[15,21],[79,30],[64,17],[32,-1],[67,31]],[[6010,3948],[9,-17],[-37,-21],[47,-81],[57,57],[59,33],[90,31],[23,13]],[[6258,3963],[36,14],[45,-45]],[[6339,3932],[24,-36],[33,-204]],[[6010,3948],[108,63],[11,2],[46,-24],[12,9],[34,71],[45,6]],[[6266,4075],[6,-86],[-14,-26]],[[3321,4330],[30,52]],[[5218,3993],[47,-115],[34,-93],[20,-44]],[[5319,3741],[-118,-119],[-44,-31],[24,-61],[1,-18]],[[5319,3741],[56,61]],[[5375,3802],[19,-19],[1,-30],[41,-44],[58,62],[53,33],[-59,49],[29,41],[52,47],[57,31],[27,-3],[51,-141],[0,-25]],[[5375,3802],[82,91],[38,29],[79,28],[34,20]],[[5608,3970],[18,12],[95,34]],[[5721,4016],[151,48]],[[5872,4064],[60,18],[57,24],[33,35]],[[6022,4141],[54,64],[85,110]],[[6198,4247],[66,-140],[2,-32]],[[3094,4097],[-12,25],[-21,14],[-25,-9],[-61,4]],[[2975,4131],[3,45],[11,13],[64,5],[22,10],[-94,16],[-74,4]],[[2907,4224],[7,78],[50,43],[15,22],[19,4]],[[2998,4371],[14,-1]],[[3012,4370],[63,-43],[95,-37],[12,-8],[22,26],[11,63],[-30,59]],[[3185,4430],[16,0],[36,-65],[6,-42],[58,-31]],[[3185,4430],[-23,-1]],[[3162,4429],[-95,-1],[-4,122],[-63,54]],[[3000,4604],[134,96],[67,53]],[[3201,4753],[67,-58]],[[3291,4512],[-58,-43],[88,-139]],[[5608,3970],[-51,-8],[-62,30],[-21,-8],[-53,103]],[[5421,4087],[229,102]],[[5650,4189],[71,-173]],[[8352,5509],[-12,-10],[-14,16],[-15,-12],[-20,23],[-47,-25],[-50,-45]],[[8194,5456],[-7,6],[-50,-24],[-43,30],[-14,-7],[-42,14],[-11,16],[-35,-18]],[[7992,5473],[-38,16],[-31,1]],[[7923,5490],[-41,3],[-63,55],[-68,67],[-47,52]],[[7704,5667],[53,23],[27,-9],[178,-156],[40,-15],[31,6],[22,21],[11,33],[-12,36],[-16,15],[-117,56],[-25,34],[-15,68],[-18,23],[-156,110],[-29,23],[-24,32]],[[7932,5978],[5,-26],[-134,-28],[-62,-18],[120,-83],[46,-47],[-1,-29],[13,-43],[44,-32],[41,5],[27,-5],[4,-28],[34,-15],[12,-22],[23,18],[27,65],[50,32]],[[4193,2562],[-66,-69]],[[4127,2493],[-24,-12],[-9,55],[-16,50],[2,31],[-54,44],[-18,-21],[-14,4],[-22,-27],[37,5],[36,-51],[-1,-33],[-24,-24],[-56,-27],[-11,-22],[19,-29],[37,-14],[4,-49]],[[4013,2373],[-62,-12],[-23,25],[-52,-29],[-10,26],[-14,-8],[-7,56],[19,7],[-1,41],[30,38],[24,16],[-53,45]],[[3864,2578],[-16,69],[44,10],[19,16],[-28,75],[-3,41],[52,7],[12,-29],[20,-9],[1,48],[21,-2],[9,-31],[21,0],[45,77],[-107,88]],[[3789,3558],[53,-22],[6,13]],[[6796,4659],[-45,26]],[[6751,4685],[59,63],[71,105],[43,96],[36,59]],[[7121,5240],[11,16],[6,51],[-7,85],[21,53],[6,46],[65,47],[28,41],[34,15],[54,12],[53,31],[30,30],[60,80],[34,23]],[[7516,5770],[48,6],[79,-53],[61,-56]],[[7704,5667],[-65,-46],[-216,-138],[-25,-60],[-31,-44],[-72,-58],[-32,-65],[-1,-17],[-117,-172],[-16,-12],[-56,-14]],[[7073,5041],[-31,-11],[-39,-43],[53,-25],[21,-35],[15,1],[34,33],[34,15],[42,-4],[25,-13],[42,-6],[-11,-91],[9,-22],[-11,-50],[-62,31],[-35,6],[-49,-15],[1,-41],[26,-23],[11,-24],[24,-13],[-8,-33],[-24,21],[-45,-1],[-7,15],[-32,16],[-11,-25],[-60,-7],[-12,22],[-44,-22],[-19,0],[-33,22],[-34,2],[-19,-30],[-38,-2],[10,-30]],[[6916,6027],[-9,-22],[-44,15],[-105,61],[-45,9],[-83,0],[-14,-63],[22,-5],[-21,-66],[208,-34],[20,-13],[37,54],[61,-22],[-53,-68],[67,-50],[56,68],[13,-9],[24,31],[51,-40],[54,70],[62,-53],[29,28],[-15,11],[14,18]],[[7245,5947],[51,-30]],[[7296,5917],[-90,-148],[-24,-34],[-75,-73],[-127,-69],[-29,-35],[-14,-35],[-4,-51],[-21,-23],[-16,19],[3,37],[-64,28],[-27,21],[-73,-23],[-32,-19],[-60,10],[-58,-22],[-25,13],[-34,-8],[-49,-44],[-29,-9],[-18,11],[-121,58],[-72,-26]],[[6237,5495],[-38,29],[-6,34],[-26,-3],[-51,-41],[-43,-18],[-34,19],[-30,-12],[-30,14],[-2,38],[-25,-20],[-19,-34],[-40,-16],[-12,50],[71,64],[26,12],[10,-11],[75,-2],[3,55],[24,-11],[46,11],[45,30],[17,31],[16,55],[-4,65],[58,-3],[39,6],[50,29],[34,48],[23,83],[44,168]],[[6458,6165],[45,-17],[49,-7],[41,7],[66,-13],[32,-20],[33,3],[52,-14],[17,-24],[62,-31],[61,-22]],[[6456,4775],[-12,-34],[-45,-16]],[[6399,4725],[-86,24],[-29,24]],[[6284,4773],[-26,42],[-13,36],[-35,24],[-40,13],[-46,30],[-43,17],[-78,8],[-30,-16]],[[5973,4927],[-13,34],[-10,66],[-14,44],[-13,68]],[[5923,5139],[174,73],[78,-65],[159,-144],[90,-79],[-58,-63],[90,-86]],[[6916,6027],[128,-24],[45,-5],[87,-34],[69,-17]],[[8769,5751],[-24,-15],[-33,-73]],[[8143,6021],[-20,33]],[[8197,6169],[12,30],[45,-8],[48,33],[59,77],[20,15],[80,-9]],[[8461,6307],[85,-10],[-15,-28],[31,-29],[4,-21]],[[8566,6219],[14,-52],[6,-70],[-14,-26],[23,-39],[17,-75],[0,-42],[-9,-45],[26,-30],[18,8],[38,-29],[50,-19],[34,-49]],[[7671,6347],[7,125]],[[7678,6472],[17,87],[8,90],[1,90],[-34,162],[-30,54]],[[7640,6955],[52,-11],[15,-25],[3,-81],[9,-29],[-7,-26],[36,-36],[22,-4],[44,-46],[37,-18],[-12,-5],[-30,-62],[-36,-33],[35,-108],[36,-129]],[[7957,6549],[23,-83],[54,-75],[47,-72]],[[7640,6955],[-42,54]],[[8409,6725],[13,-26],[40,0],[18,27],[-16,58],[-26,24],[17,96],[23,-2],[106,-61],[41,-34],[43,-10],[-12,-62],[-41,-41],[-104,-50],[18,-43],[-31,9],[-41,-105],[25,-9],[-14,-36],[-28,10],[-16,-45],[11,-6],[26,-112]],[[5683,2469],[-50,52],[-23,13]],[[5624,2751],[33,-11],[113,-19]],[[5770,2721],[-11,-14],[18,-22],[-62,-12],[-25,-38],[61,-45],[6,-23],[-16,-12],[-44,-56],[10,-13],[-24,-17]],[[7178,6447],[-16,-73],[-65,-6],[-26,-24]],[[7071,6344],[-82,17],[-44,18],[-23,0],[-24,25],[-24,-1],[-33,-18],[-8,-39],[-13,5],[-44,-110],[-73,38],[-77,33],[9,85],[-16,16],[-25,-25],[-32,12],[-3,19],[-22,24],[-27,2],[-16,23],[-2,32],[-29,31]],[[6463,6531],[2,63],[12,17],[102,-28]],[[6579,6583],[222,-62],[142,-43],[156,-26],[79,-5]],[[6367,6522],[-13,-12],[23,-35],[35,8],[4,33],[47,15]],[[7071,6344],[56,-67],[61,-24],[94,-15],[41,-16],[-10,-22],[79,-40],[-6,-28],[-36,-46],[-33,-110],[9,-23]],[[7326,5953],[-30,-36]],[[6458,6165],[-62,39],[-38,6],[-86,29],[-80,1],[-41,28],[-58,62],[34,25]],[[6183,6537],[53,-32],[39,65],[12,1],[37,-25],[31,-1],[12,-23]],[[7678,6472],[-122,28],[-57,19],[-95,42],[-87,46],[-18,-5],[-61,-75],[-60,-80]],[[6579,6583],[56,89],[19,43]],[[6654,6715],[21,13],[28,-17],[52,-7],[36,-40],[119,50],[192,90],[-84,45],[-3,23],[-52,29],[-7,23],[-12,-17],[-42,35],[37,46],[-8,24],[82,-64],[13,9],[37,-13],[86,-53],[59,-4],[25,-21],[43,21]],[[7326,6910],[178,84],[81,30]],[[5756,2961],[21,17],[39,-15],[29,12],[1,-24],[-60,-21],[-40,-21],[-5,-23],[33,-12],[-3,-55],[-59,15],[-13,-29],[55,-20],[30,-18],[79,-15],[13,-21],[18,19],[49,-3],[17,8],[-11,-59],[-121,9],[0,9],[-58,7]],[[7576,6313],[91,-25]],[[7654,5967],[-57,3],[-175,-4]],[[7422,5966],[-84,-6],[-12,-7]],[[7071,6344],[53,-18],[64,-40],[45,-18],[85,6],[36,-8],[81,-3],[23,32]],[[6367,6522],[11,-4],[3,49],[-19,-13],[-33,14],[8,20],[-103,44],[-26,31],[-28,-16],[-11,17],[-70,40],[-10,-26],[-46,9],[-4,19],[-32,17],[25,114],[65,-17],[-15,-46],[55,-16],[69,-41],[51,-38],[32,64],[45,-25],[51,72],[53,-38],[65,-65],[6,-32],[56,93],[29,11],[60,-44]],[[5814,2207],[-3,41],[-24,20],[-43,9],[-39,0],[-25,31],[-43,15],[-76,56],[-7,-10]],[[5683,2469],[30,-64],[68,8],[27,23],[30,-22],[-18,-21],[52,-14],[40,3],[-2,17],[28,3],[4,-35],[26,-11],[-14,-34],[-98,-76],[-17,-27],[-25,-12]],[[5814,2207],[-60,18],[-94,-18],[-7,-17],[-27,-3]],[[5497,2167],[18,19],[-14,20],[23,-3],[-5,35],[14,21]],[[6036,4502],[-142,-155],[-50,-45]],[[5844,4302],[-70,-49]],[[5774,4253],[-30,-18]],[[5744,4235],[5,51],[-19,92]],[[5281,4544],[18,3],[51,38],[34,54],[-17,77],[18,44]],[[5385,4760],[43,14],[97,4],[64,40],[67,27],[67,4],[42,-14]],[[5765,4835],[99,-36],[45,-32],[50,9],[26,39],[-12,112]],[[6284,4773],[-210,-231]],[[5650,4189],[94,46]],[[5774,4253],[67,-108],[31,-81]],[[5844,4302],[178,-161]],[[6722,4656],[-133,-99],[-51,63],[-41,-31]],[[6399,4725],[14,-32],[32,10],[19,-50],[100,76],[13,-20],[67,52],[78,-105]],[[6500,4347],[-23,-18],[12,-24],[-11,-15],[-41,6],[-15,-56],[-39,-33],[-34,-8],[-7,-12],[23,-41],[20,-16],[66,-17],[12,-22],[-31,-49],[1,-32],[67,-83]],[[6500,3927],[-12,-17],[-26,12],[6,13],[-32,20],[-35,42],[-15,-6],[-12,39],[12,33],[36,26],[-5,16],[-56,16],[-19,36],[-40,-5],[-3,-23],[14,-34],[-8,-19],[18,-68],[37,-37],[-21,-39]],[[6436,4408],[10,7],[54,-68]],[[3531,3340],[50,-34],[3,-15],[40,-19],[23,-23],[74,-58]],[[3704,3082],[-139,12],[-59,27],[-38,42],[-69,114]],[[3399,3277],[-12,22],[36,11],[37,37]],[[6522,4271],[-27,-76],[79,-38],[99,-17],[32,13]],[[6705,4153],[23,-3],[40,38],[45,-42],[36,-5],[17,-90],[19,-25],[14,4]],[[6743,3907],[-26,-6],[-62,71],[4,12],[-24,45],[-18,-20],[43,-64],[3,-19],[-22,-25],[-36,-18],[-65,-21],[-25,52],[-15,13]],[[6500,4347],[18,45]],[[6518,4392],[30,-32],[-26,-89]],[[5385,4760],[-12,39],[27,38],[-76,361],[11,2],[55,-38],[89,-19],[10,116],[58,-2],[22,-21],[41,-3],[24,-108],[78,-33],[-24,-59],[26,-13],[-20,-37],[-30,10],[22,-91],[27,-24],[51,-6],[1,-37]],[[3326,3741],[-35,18],[-63,43],[-31,34]],[[3197,3836],[5,4]],[[3372,3842],[27,-41],[-43,-17],[-30,-43]],[[3496,3738],[-26,-10],[-97,-23],[-13,45],[-22,-20]],[[3338,3730],[-12,11]],[[3450,3488],[-17,9],[-11,28],[-20,-9],[-9,35],[5,51],[15,37],[-10,28],[-11,-9]],[[3392,3658],[-22,19],[-32,53]],[[2543,4539],[15,-60]],[[2558,4479],[-103,-22],[-45,-2],[-104,49]],[[2306,4504],[48,96]],[[3399,3277],[-23,20],[-20,0],[-40,-20],[-43,-8],[-51,-66]],[[3222,3203],[-15,-41],[27,-17],[-9,-20],[23,-2],[-35,-60],[-21,-27],[7,-24],[23,-11],[41,-35],[-13,-43],[-60,-37],[-7,46],[-51,72]],[[3132,3004],[-42,34],[54,8],[12,21],[-21,5],[-16,43],[1,47],[14,43],[-10,3]],[[3124,3208],[1,32],[30,67],[47,-4],[17,23],[27,10],[1,39],[-38,31],[12,28],[-24,13],[35,40]],[[3232,3487],[55,28],[20,3],[-13,56],[56,27],[42,1],[7,32],[-7,24]],[[3232,3487],[-17,12],[1,53],[-25,3],[1,24],[49,-9],[-13,62],[41,24],[-42,58],[-141,121],[-89,68],[-79,57]],[[2918,3960],[-32,29]],[[2886,3989],[23,10],[34,-6],[13,-25],[20,-10]],[[2976,3958],[58,-16],[57,-25],[8,-13],[54,-50],[32,-5],[12,-13]],[[3704,3082],[-1,-7]],[[3703,3075],[-19,-21],[-38,11],[-75,7],[-33,-6],[-26,-16],[-36,28],[-22,29],[-14,-11],[-36,10],[-20,35],[32,14],[-19,30],[-18,-12],[-42,16],[-115,14]],[[6522,4271],[63,-2],[21,52],[103,-11]],[[6709,4310],[26,-3],[2,-36],[-32,-2],[-9,-34],[20,-8],[-3,-48],[-8,-26]],[[7923,5490],[26,-37],[31,-137],[25,-13],[-10,-34],[-25,-7],[-20,-26],[-1,-29],[-18,-14],[-26,12],[-23,30],[-5,81],[23,51],[-15,20],[-2,37],[-18,17],[-22,-32],[-22,6],[-4,39],[-11,20],[-68,18],[-70,-33],[-65,-46],[5,-10],[-8,-88],[-30,-48],[-19,-98],[-24,30],[-54,6],[-59,-1],[-36,-34],[-76,40],[-10,-11],[12,-29],[-4,-20],[-25,-29],[-45,29],[-24,-40],[-43,-51],[-59,-41],[-27,6],[-4,17]],[[2976,3958],[18,41],[-21,108],[2,24]],[[2886,3989],[-24,44],[-8,76],[0,116]],[[2854,4225],[53,-1]],[[2580,4114],[46,18],[1,-17],[27,-51],[-3,-18],[-32,-5],[-31,-18],[-18,28],[-64,-41],[-26,42],[-35,2],[3,30],[21,9],[15,24],[5,39],[12,3],[79,-45]],[[2575,4524],[3,-16],[46,-11],[13,-34],[1,-36],[-17,3],[-12,-55],[-14,-9],[41,-90],[-11,-14]],[[2625,4262],[-60,-7],[20,-38],[-17,-10],[-9,16],[-19,-4],[-111,18],[16,18],[1,28],[-63,13],[-64,43],[17,11]],[[2336,4350],[128,14],[85,24],[37,-7],[-28,98]],[[2336,4350],[-66,14],[4,31],[28,10],[-37,18],[41,81]],[[2763,4522],[-11,-62],[-2,-86],[32,-148],[72,-1]],[[2918,3960],[-7,-16]],[[2911,3944],[-74,39]],[[2837,3983],[-15,7],[-22,68],[7,40],[-27,20],[-53,10],[-48,35],[-19,70],[-26,4],[-9,25]],[[2525,5023],[14,22],[26,-15]],[[2565,5030],[2,-43],[-34,-34],[-21,-4],[0,-29],[23,-24],[4,-54],[21,-38],[20,-4],[13,-36],[18,5],[48,-27],[30,4],[75,-56],[-4,-22],[3,-146]],[[2785,4953],[39,-32],[16,-28],[0,-320],[-4,-49]],[[2836,4524],[-73,-2]],[[2565,5030],[98,-54],[66,-13],[26,-41],[25,5],[5,26]],[[2864,3764],[14,-37],[21,-25],[16,-35]],[[2915,3667],[15,-38],[-1,-32],[16,-73],[-16,-23],[5,-22]],[[2934,3479],[-2,-34],[47,-14],[-14,-71],[-34,1],[-9,23],[23,7],[-5,14],[-42,-11],[-17,20],[-11,-7]],[[2870,3407],[-21,60],[-1,21],[-43,42]],[[6652,4511],[-61,3],[-32,-40],[-12,-60],[-29,-22]],[[6722,4656],[29,29]],[[6796,4659],[9,-28],[36,0],[0,11],[62,0],[0,-83],[30,-8],[-27,-24],[80,-1],[19,-9],[-8,-34],[-20,-23],[-32,-3],[-10,-20],[9,-39],[37,-3],[23,-14],[-24,-28],[-16,-41],[-24,58],[-40,37],[0,82],[-170,4],[-35,-9],[-43,27]],[[6652,4511],[19,-21],[10,-62],[-6,-27],[41,1],[15,-41],[52,-40],[-72,-5],[-2,-6]],[[6456,4775],[-14,91],[5,49],[25,19],[52,6],[76,-12],[148,24],[61,22],[10,28]],[[8968,5446],[-17,-10],[23,-38],[16,10],[-2,-23],[50,-66],[-45,-6],[-29,23],[-17,2],[-81,-26],[-36,5],[-8,-12],[-86,-37]],[[8736,5268],[-12,27],[-55,36],[-24,49]],[[8769,5751],[57,-51],[7,-54],[71,19],[33,-28],[33,12],[-15,-23],[11,-20],[20,10],[31,-57],[-54,-32],[-14,-45],[19,-36]],[[4787,2432],[6,-18]],[[4793,2414],[-28,-10],[-24,29],[-11,-10],[-67,11],[-15,-35],[-2,-74],[-13,-63],[32,-9],[-29,-127],[-32,9],[-15,-50],[29,-17],[65,-2],[-4,-21],[-23,-20],[46,-63]],[[4702,1962],[-44,44],[-27,-11],[-28,-69],[-21,-19],[-29,-10],[-34,-80],[-25,12],[-13,25]],[[4793,2414],[6,-18],[-30,-10],[30,-66],[25,-19],[43,47],[22,57],[24,-10]],[[4928,2372],[-34,-62],[-18,-13],[-9,-36],[-28,-23],[-29,0],[-30,-45],[20,-16],[33,-47],[4,-73],[-27,8],[-23,-11],[-57,12],[-11,-38],[7,-12],[-6,-44],[-18,-10]],[[3000,4604],[-85,-66]],[[2915,4538],[-25,-22],[-21,-40],[-28,20],[-5,28]],[[2785,4953],[14,44],[24,6],[104,-39],[62,-60],[29,-17],[18,2],[58,38],[46,0],[36,-31],[12,-27],[-5,-85],[18,-31]],[[2915,4538],[38,-19],[26,-42],[8,-55],[16,-30],[-5,-21]],[[3162,4429],[0,-36],[-150,-23]],[[2911,3944],[8,-64],[21,2],[18,-72],[-15,-7],[9,-20],[-34,-12],[11,-22],[23,-12],[30,4],[17,-46]],[[2999,3695],[-84,-28]],[[2832,3972],[5,11]],[[2999,3695],[-22,-17],[8,-23],[-22,-7],[19,-32],[-26,-5],[47,-20],[12,-31],[1,-60],[-20,1],[-9,-33],[-53,11]],[[2870,3407],[-36,21]],[[2834,3428],[-29,10],[-56,2],[-51,22],[-10,-8]],[[2834,3428],[-11,-15],[15,-34],[-12,-14],[21,-7],[10,-20],[29,-19],[19,2]],[[2905,3321],[-26,-55],[31,-16],[2,-13],[-30,-21]],[[3002,3210],[-20,-5],[-1,-17],[36,-17],[0,-43],[-32,20],[-46,3],[-58,-15],[-46,28]],[[2835,3164],[10,45],[37,7]],[[2905,3321],[27,19],[43,-33],[-11,-12],[52,-35],[-21,-34],[7,-16]],[[8621,5376],[-12,-23],[-19,4],[-19,25],[-39,6],[-20,-24],[-12,3],[-22,-57]],[[8478,5310],[-42,19],[-13,15],[-52,23],[-69,45],[-8,15],[-59,3],[-41,26]],[[8478,5310],[-9,-31],[-106,-11],[-39,30],[-25,42],[-72,51],[-48,14],[-89,-18],[-24,14],[-74,72]],[[1008,5748],[10,-65],[16,-45],[-195,-44],[5,18],[-9,29],[18,5],[11,31],[32,23],[31,47],[14,-1],[24,37],[32,-11],[11,-24]],[[1247,5829],[21,-14],[-14,-25],[27,-27],[-52,-34],[-21,19],[38,-62],[-168,-37],[10,65],[-41,-2],[27,12],[18,62],[19,12],[70,-26],[23,-15],[8,13],[-36,54],[-43,15],[0,13],[-39,5],[12,59],[20,-5],[-4,-23],[32,-20],[50,-12],[43,-27]],[[7570,9776],[43,-6],[-1,-20],[47,-12],[30,2],[13,-16],[68,-30],[45,-52],[-13,-51],[44,-36],[26,2],[-15,-17],[66,-34],[8,14],[74,-37],[-12,-15],[86,-55],[22,21],[19,-43],[-10,-10],[31,-30],[40,-9],[-15,-12],[56,-42],[0,-13],[55,-10],[59,-23],[-2,-18],[19,-6],[63,6],[68,-34],[-1,-44],[-47,23],[-6,-8],[-27,27],[-26,9],[-8,-56],[50,-46],[-8,-29],[-7,17],[-56,56],[-43,-7],[3,21],[-28,5],[11,15],[-53,40],[-24,-54],[-17,-18],[95,-61],[45,-39],[-26,-35],[-35,13],[-39,41],[-34,9],[-15,18],[-36,17],[-24,21],[-18,-12],[-51,-1],[-16,22],[-19,-14],[-8,12],[57,80],[-58,30],[-48,15],[-35,-35],[-30,16],[-37,-30],[-27,20],[11,10],[-62,57],[-15,-12],[-72,83],[6,24],[-27,25],[-38,6],[-3,24],[-47,38],[-99,61],[-17,22],[19,11],[56,-35],[-11,-15],[82,-55],[-8,24],[17,89],[-7,25],[-34,30],[2,17],[-46,20],[-9,-12],[-39,15],[-36,5],[12,20],[-58,42],[15,7],[34,-30],[30,6],[-10,52],[86,-6]],[[7754,9909],[-18,-65],[5,-44],[-17,-12],[-21,8],[11,37],[-19,12],[7,39],[34,13],[40,54],[8,-19],[-30,-23]],[[7321,9902],[-30,-60],[42,-27],[55,-27],[-9,-17],[-33,16],[-11,-11],[-82,37],[-20,2],[4,77],[21,3],[-13,23],[12,10],[-24,22],[20,24],[40,-29],[-17,-25],[45,-18]],[[7797,9988],[-14,-21],[-16,10],[13,22],[17,-11]],[[3864,2578],[-19,-8]],[[3845,2570],[-30,14],[8,35],[-13,56],[-68,17],[-7,23],[10,22],[-4,62],[-30,-5],[-18,18],[-35,-20],[1,-29],[-12,6],[-50,-30],[-1,29],[60,42],[-43,43],[70,72],[-51,30],[40,42],[36,-21],[26,-26],[47,20],[-40,93],[-38,12]],[[2310,6117],[30,-19],[29,3],[56,-59],[29,-100],[34,6],[10,-43],[39,-2],[21,-43],[-13,-5],[-22,19],[-20,-14],[6,-57],[39,-12],[-18,-15],[12,-36],[-6,-54],[29,-59],[27,-26],[-22,-13],[26,-34],[-15,-10],[2,-29],[31,-37],[-11,-23],[-21,4],[3,-68],[-55,2],[-2,-15],[-26,7],[-9,-44],[22,-27],[56,-25],[-1,-28],[-15,-24],[6,-13],[-17,-47],[-98,23],[-7,28],[-15,2],[-4,29],[11,17],[34,9],[-13,40],[7,19],[-63,16],[-8,-15],[-23,6],[-44,26],[-9,-10],[-20,25],[33,24],[-17,10],[-7,25],[-17,10],[-76,-37],[1,-25],[-20,0],[-11,35],[29,31],[39,21],[17,18],[-47,18],[9,51],[27,-7],[29,-24],[-4,-51],[40,-48],[36,0],[3,-25],[21,-18],[91,-20],[14,35],[-4,37],[-36,30],[26,10],[-50,74],[-42,-30],[-19,28],[-29,-11],[2,21],[37,24],[-10,11],[12,20],[-1,29],[16,12],[-6,22],[-30,-6],[-13,26],[20,2],[-5,47],[-88,-19],[-10,19],[25,12],[92,27],[-14,89],[-30,21],[22,14],[-12,59],[7,48],[-12,16],[-29,8],[-15,-11],[-30,3],[-7,-52],[20,-3],[-9,-22],[-39,-10],[-12,30],[-24,-11],[-20,7],[-24,38],[24,-8],[30,17],[-18,9],[-25,40],[6,7]],[[2158,6089],[65,12],[10,11],[50,20],[23,-35],[4,20]],[[2645,5826],[49,3],[-16,-22],[-51,17],[-33,-15],[-28,-1],[0,18],[53,9],[26,-9]],[[5395,9100],[5,-56],[54,-23],[-12,-31],[-28,9],[-66,37],[-83,36],[-4,-11],[-53,20],[-35,6],[7,18],[27,13],[37,-18],[26,45],[32,-26],[9,10],[26,-30],[31,-1],[1,60],[-16,33],[26,12],[42,-12],[-21,-17],[-1,-22],[52,-48],[-56,-4]],[[6685,8116],[-3,-48],[31,-64],[45,-13],[3,28],[18,-2],[37,-32],[25,-37],[5,-100],[41,-65],[-43,-61],[55,-26],[-9,-23],[-152,68],[-136,79],[-121,59],[-69,42],[-41,40],[-17,25],[11,4],[54,-59],[25,-15],[181,-94],[147,-73],[-53,95],[13,9],[-14,25],[45,14],[-58,116],[-18,13],[-46,10],[-2,49],[-24,32],[25,3],[21,32],[32,-10],[-8,-21]],[[2838,8254],[-23,-21],[-14,10],[-46,-64],[41,-8],[40,-20],[15,-17],[47,-22],[7,10],[56,-16],[42,54],[17,-8],[-46,-56],[60,-29],[-19,-36],[-48,23],[-6,-18],[-26,19],[-14,28],[-32,-3],[-88,38],[10,20],[-86,35],[-10,-16],[-84,26],[-68,-4],[-3,15],[-39,2],[-2,-22],[-26,5],[-5,-34],[-45,7],[-21,25],[30,12],[17,21],[-14,11],[-31,-8],[-6,14],[-59,-9],[-25,-16],[4,-12],[-43,-29],[-21,-4],[-6,19],[-33,-19],[-5,8],[-86,-24],[-4,24],[-26,-2],[-9,-15],[-16,24],[94,0],[42,10],[104,35],[-10,30],[40,9],[66,44],[37,-13],[4,-33],[31,15],[3,-18],[26,12],[25,-8],[12,-24],[169,-45],[74,85],[-13,27],[13,7],[32,-51]],[[9091,473],[22,-12],[-13,-19],[47,-43],[59,-19],[2,-16],[-18,-46],[1,-38],[22,-4],[-2,-76],[-47,20],[-2,-58],[16,-116],[-10,-46],[-24,4],[-4,36],[-36,8],[4,14],[-32,3],[-28,13],[-41,38],[-5,21],[81,13],[-16,90],[-19,-1],[0,22],[29,0],[21,42],[29,-3],[-8,41],[-18,13],[-7,-15],[-20,9],[16,15],[-49,15],[-9,21],[-23,16],[15,28],[30,17],[14,-8],[23,21]],[[4127,2493],[-31,-119]],[[4096,2374],[-10,-38]],[[4086,2336],[-30,4],[22,69],[-30,6],[-14,-31],[-6,-47]],[[4028,2337],[-23,9],[8,27]],[[4028,2337],[-15,-38],[-98,5],[-71,14],[-34,18],[-9,15],[-47,2],[-17,-17],[-49,9],[-17,44],[-13,-14],[-40,35],[18,8],[-37,54],[-25,47],[-48,14],[27,14],[-19,29],[10,10],[43,-6],[17,-20],[-18,-17],[38,-49],[-14,-7],[20,-30],[12,11],[23,-15],[-19,-16],[30,-36],[61,4],[48,-12],[23,-17],[25,5],[-20,27],[22,152],[10,10]],[[4241,2162],[-40,-28],[-47,-24],[-20,-1],[-58,17],[-27,22],[-57,-11],[-34,11],[-2,28],[49,24],[50,46],[20,38],[11,52]],[[4096,2374],[6,-63],[22,-21],[41,-61],[21,-17],[11,-32],[20,-16],[24,-2]],[[4343,2401],[-22,-7],[-49,-42],[0,-82],[-7,-32],[-32,-22],[41,-11],[46,0]],[[4320,2205],[-31,-36],[22,-33],[-7,-30],[0,-61],[-12,0],[5,-38],[12,-13],[58,6],[28,-7],[11,-24],[-6,-76],[19,-29],[-31,14],[-68,-2],[13,14],[38,-2],[0,22],[-67,40],[-48,12],[0,10],[-69,-21],[21,-35],[-34,5],[-55,-48],[-18,33],[-29,8],[2,22],[42,-5],[-2,69],[26,3],[-5,27],[-15,-2],[-4,26],[35,-1],[10,-47],[19,4],[15,-26],[30,21],[34,9],[17,41],[-3,47],[15,0],[-24,53],[-23,7]],[[4375,2373],[-28,-12],[-11,-33],[-53,3],[17,-51],[-17,-19],[20,0],[1,-19],[-23,-17],[43,-2],[20,-12],[-16,-24],[-8,18]],[[2158,6089],[-21,27],[-7,25],[23,24],[10,-20],[64,8],[-26,58],[-79,28],[-55,55],[-48,20],[-33,-13],[-5,20],[-54,60],[13,31],[12,-5],[14,34],[0,46],[-44,82],[9,6],[-52,72],[40,21],[11,-8],[9,-51],[50,-103],[16,3],[-3,43],[9,50],[15,2],[-15,-114],[17,-19],[-18,-9],[-25,-46],[3,-20],[35,-19],[39,2],[64,-48],[12,6],[26,-43],[-12,-13],[18,-13],[43,-9],[35,33],[15,-16],[-14,-17],[56,-75],[44,-14],[-8,-28],[-31,-25]],[[8684,9162],[61,-55],[28,19],[20,-17],[20,10],[20,-27],[34,23],[60,-70],[-66,-49],[46,-31],[56,44],[23,-29],[-12,-11],[50,-36],[13,-80],[-15,-8],[48,-68],[11,3],[35,-30],[46,32],[26,-8],[32,-55],[-67,-4],[-27,-18],[25,-50],[-28,-8],[-30,36],[-48,9],[-10,22],[53,41],[-16,27],[-11,-9],[-23,29],[-44,31],[-7,-4],[-56,47],[-33,-18],[-92,13],[-15,47],[-15,26],[-82,104],[-87,83],[-45,7],[19,24],[51,-2],[31,31],[21,-21]],[[9575,4861],[40,-34],[-7,-30],[37,-25],[-13,-29],[18,-11],[26,37],[23,-10],[-21,-25],[65,-39],[73,-3],[4,40],[24,-2],[-2,-28],[35,-13],[3,27],[60,-5],[34,7],[22,-17],[-34,2],[-77,-26],[-31,4],[-10,-44],[58,5],[-34,-66],[-55,25],[-46,-3],[-70,24],[6,13],[-19,28],[-38,-27],[-30,31],[37,27],[-61,47],[-23,25],[11,13],[-19,27],[4,54],[10,1]],[[9937,4555],[62,-38],[-35,-53],[-24,-2],[-60,49],[10,12],[-12,26],[34,12],[25,-6]],[[3132,3004],[-20,-11],[-15,20],[-28,-32],[-32,35],[18,21],[-32,25],[-22,-41],[-60,-17],[-40,-38],[-26,2],[9,41],[28,59],[-19,25],[-29,-13],[-37,-50],[-15,18],[-13,-17],[-81,20],[9,63],[-64,39],[-17,1],[-75,-38],[-39,-38],[-62,7],[-38,27],[14,19],[40,-25],[4,51],[23,-3],[-7,-48],[19,-1],[44,26],[-4,8],[54,26],[-3,7],[44,26],[4,-29],[23,9],[19,-10],[13,21],[12,-13],[-19,-33],[75,-47],[24,-2],[20,17],[-6,33],[10,20]],[[3002,3210],[70,-10],[52,8]],[[9074,5517],[-5,-15],[-101,-56]],[[8566,6219],[28,1],[22,-49],[6,-38],[30,-65],[59,-54],[93,-130],[25,-29],[59,-41],[83,-104],[44,-83],[38,-19],[76,-57],[-18,-18],[-37,-16]],[[9156,5394],[-41,-53]],[[9115,5341],[-23,-25],[-78,-24],[35,-33],[6,-31],[-16,-50],[-49,-54],[-52,27],[-63,17],[-27,40],[-60,44],[-52,16]],[[9074,5517],[56,-78],[26,-45]],[[9325,5078],[-27,-11],[-107,-10]],[[9191,5057],[-51,-3],[-7,57],[8,155],[-18,1],[3,63],[-11,11]],[[9156,5394],[18,-41],[48,-65]],[[9326,5168],[-1,-90]],[[9325,5078],[50,-3],[4,-42],[29,2],[43,-59],[-66,-7],[-4,36],[-39,-5],[2,-39],[-131,-13],[-16,7],[2,20],[-8,82]],[[9423,7930],[-34,-23],[9,-37],[-23,0],[-9,-24],[-27,-2],[-32,-31],[-3,-16],[-28,-29],[-48,-33],[4,-29],[-61,-31],[36,-29],[-11,-19],[-33,29],[-25,-10],[-27,-27],[-16,1],[0,-27],[35,-68],[-64,-27],[-30,70],[-19,-13],[-12,23],[-9,-16],[-214,-131],[11,-14],[-24,-20],[-30,15],[-54,-87],[-23,14],[-28,-25],[32,-33],[-1,-40],[-47,-14],[-11,-22],[-32,-1],[-34,39],[-28,-23],[-28,-38],[-31,-7],[-73,91],[-143,182],[-56,77],[93,71],[18,-23],[8,-34],[36,-41],[-1,-20],[-26,-21],[22,-29],[100,53],[31,24],[34,-35],[-1,-26],[-34,-110],[32,-5],[41,-22],[24,32],[24,-21],[66,25],[30,20],[32,50],[188,128],[99,70],[-43,29],[19,17],[29,-23],[20,-3],[82,68],[-9,13],[22,16],[-11,34],[24,-10],[30,21],[-38,51],[23,15],[-7,12],[62,40],[28,-37],[42,1],[-30,33],[-2,20],[61,-11],[1,30],[-17,20],[33,14],[24,-18],[16,11],[1,32],[24,9],[-6,22],[22,22],[84,-16],[14,-8]],[[7081,7571],[32,-26],[12,10],[164,-163],[41,36],[-13,17],[8,42],[16,-11],[22,-69],[101,111],[3,42],[18,14],[34,-7],[35,-36],[-39,-39],[40,-43],[-14,-20],[28,-33],[-15,-13],[7,-16],[31,18],[13,-10],[-16,-79],[-57,-55],[-35,38],[-73,-64],[19,-20],[-24,-21],[-48,37],[-47,-1],[-34,11],[-41,33],[-63,26],[-94,54],[-39,36],[-63,-15],[-29,16],[34,112],[7,72],[-65,43],[-29,28],[19,30],[-16,8],[9,19],[96,-51],[-9,-16],[74,-45]],[[5923,5139],[-9,70],[118,64],[28,-28],[25,10],[107,-7],[42,5],[51,17],[89,38],[-15,35],[-90,108],[-19,14],[-13,30]],[[7422,5966],[51,-27],[24,4],[-13,-27],[2,-32],[17,-6],[1,31],[54,-1],[-1,-19],[45,1],[-13,-17],[-70,0],[-13,-7],[-1,-65],[-9,-14],[20,-17]],[[4933,2686],[105,-4],[33,-5],[-1,-20]],[[6896,2900],[-31,8],[-4,43],[-55,32],[18,21],[21,-21],[60,-20],[11,18],[-8,42],[36,-8],[-6,-36],[-23,-15],[13,-44],[31,-35],[-45,4],[-18,11]]]}