{"type":"Topology","bbox":[-76.85091747033096,2.1728627955127755,-76.74098792910803,2.207795493022521],"transform":{"scale":[0.000010994053527645295,0.0000034936191128858366],"translate":[-76.85091747033096,2.1728627955127755]},"objects":{"municipios":{"type":"GeometryCollection","geometries":[{"type":"Polygon","arcs":[[0]],"properties":{"codigo":"19392200201005000101","sector":"193922002010050001","pcode":"CO19392","area_m2":72416}},{"type":"Polygon","arcs":[[1]],"properties":{"codigo":"19392200104001000101","sector":"193922001040010001","pcode":"CO19392","area_m2":29378}},{"type":"Polygon","arcs":[[2,3,4]],"properties":{"codigo":"19392100000000000101","sector":"193921000000000001","pcode":"CO19392","area_m2":141904}},{"type":"Polygon","arcs":[[-3,5,6]],"properties":{"codigo":"19392100000000000102","sector":"193921000000000001","pcode":"CO19392","area_m2":312837}},{"type":"Polygon","arcs":[[-6,-5,7]],"properties":{"codigo":"19392100000000000103","sector":"193921000000000001","pcode":"CO19392","area_m2":154014}},{"type":"Polygon","arcs":[[8]],"properties":{"codigo":"19392200201007000101","sector":"193922002010070001","pcode":"CO19392","area_m2":31525}},{"type":"Polygon","arcs":[[9]],"properties":{"codigo":"19392200201006000101","sector":"193922002010060001","pcode":"CO19392","area_m2":115043}}]}},"arcs":[[[8659,3773],[-5,-16],[-86,257],[68,240],[136,179],[72,472],[70,227],[35,167],[34,302],[48,-43],[-23,-233],[-27,-186],[-78,-268],[-60,-343],[-63,-401],[-121,-354]],[[409,4829],[34,-7],[0,-211],[-13,-57],[-36,14],[-11,146],[-59,-133],[-26,53],[-112,-142],[-49,158],[-93,-32],[4,-103],[-45,0],[-3,99],[98,36],[-1,88],[38,-80],[71,64],[66,0],[86,105],[51,2]],[[7912,1828],[-35,-286],[-16,-42],[36,-76],[-22,-81],[40,-127],[-2,-184],[-32,-145],[-4,-178],[34,-68],[1,-175]],[[7912,466],[-1,-132],[-23,-131],[18,-46],[-57,-139],[-21,-18],[-20,146],[4,106],[-32,89],[-38,176],[18,130],[18,302],[-28,191],[-19,-24],[-18,188],[-40,23],[1,71],[-73,135],[7,143],[76,144],[1,126]],[[7685,1946],[34,-116],[44,61],[40,-77],[59,-11],[35,70],[15,-45]],[[7912,1828],[34,160],[46,-76],[9,163]],[[8001,2075],[24,101],[63,17],[3,145],[17,21],[49,483],[42,111],[15,171],[2,172],[-25,112],[17,31],[37,-67],[91,-355],[32,-224],[51,-79],[1,-56],[45,-149],[-41,-52],[-46,4],[-40,-63],[12,-166],[25,-127],[-28,-42],[-13,-199],[42,-91],[-10,-205],[-68,-204],[-75,153],[1,102],[-39,41],[-19,112],[-39,20],[-79,-121],[52,-409],[20,-79],[-14,-232],[-36,-95],[-52,-252],[-20,113],[-37,-9],[-18,-87],[9,-133],[-40,-22]],[[7685,1946],[-30,163],[-39,127],[-16,378],[9,225],[32,-94],[54,35],[2,112],[-19,167],[57,304],[106,-132],[6,-47],[-39,-188],[3,-156],[22,-181],[70,-354],[98,-230]],[[8972,9994],[32,-44],[-28,-109],[20,-187],[-30,-9],[25,-200],[-3,-166],[-19,65],[-14,152],[-44,64],[-27,-46],[-9,-112],[22,-110],[-23,-62],[-42,323],[12,33],[-75,92],[-28,-24],[-58,45],[8,82],[24,-40],[109,-73],[33,72],[88,-54],[-21,146],[48,162]],[[9999,7532],[-40,-55],[-104,-76],[-41,-72],[-63,-185],[-90,12],[-40,-47],[-76,50],[-36,-48],[-68,-11],[-57,-96],[26,-73],[-44,-29],[-35,-101],[-17,-227],[-66,-278],[45,-177],[3,-97],[-30,-93],[-53,13],[-76,-132],[-31,-139],[-23,-37],[-84,-45],[53,272],[-14,49],[43,149],[39,39],[31,111],[16,-48],[73,380],[-14,43],[27,115],[13,-43],[22,188],[26,-44],[25,100],[-33,104],[23,253],[28,-65],[24,93],[-35,76],[35,8],[45,-147],[56,17],[97,137],[62,-103],[64,14],[54,101],[31,-11],[68,153],[141,2]]]}
