{"type":"Topology","bbox":[-76.46993537190889,3.1640992245034467,-76.42845786292412,3.223585074013761],"transform":{"scale":[0.0000041481657150484475,0.000005949179869018312],"translate":[-76.46993537190889,3.1640992245034467]},"objects":{"municipios":{"type":"GeometryCollection","geometries":[{"type":"Polygon","arcs":[[0]]},{"type":"Polygon","arcs":[[1,2,3,4,5]]},{"type":"Polygon","arcs":[[6,7,8,-6,9]]},{"type":"Polygon","arcs":[[10,11,-7,12,13,14]]},{"type":"Polygon","arcs":[[15,16,-15,17,18]]},{"type":"Polygon","arcs":[[-17,19,20,-11]]},{"type":"Polygon","arcs":[[-12,-21,21,-8]]},{"type":"Polygon","arcs":[[-19,22]]},{"type":"Polygon","arcs":[[23,24,-3,25]]},{"type":"Polygon","arcs":[[26,-4,-25,27]]},{"type":"Polygon","arcs":[[-5,-27,28]]},{"type":"Polygon","arcs":[[-13,-10,-29,-28,-24,29]]},{"type":"Polygon","arcs":[[30]]},{"type":"Polygon","arcs":[[31]]}]}},"arcs":[[[6467,9836],[59,45],[32,-72],[-32,-79],[-57,-44],[59,-59],[9,-61],[53,-80],[-55,15],[-39,-78],[-9,-101],[-46,-45],[-33,-85],[-45,8],[-51,-116],[-38,11],[24,105],[-51,9],[-21,70],[83,-17],[41,32],[17,75],[-25,158],[-23,32],[49,90],[-76,66],[-93,-22],[-28,68],[49,19],[14,213],[231,-6],[2,-151]],[[774,2043],[-278,168],[-17,34],[-195,77],[-232,221],[-52,22],[202,195],[48,64],[22,115],[215,242],[-89,138]],[[398,3319],[262,-6],[10,-52],[119,-21],[83,-210],[-140,-121],[154,-224],[196,-113]],[[1082,2572],[166,-94]],[[1248,2478],[322,-168]],[[1570,2310],[-357,-355],[-156,86],[-47,-51],[-78,44],[-53,-47],[-105,56]],[[2330,2296],[-213,-291],[93,-46],[-309,-335],[164,-80],[-52,-64]],[[2013,1480],[-74,23],[-137,-11],[57,80],[-44,1],[-71,-56],[-86,-16],[-36,-50],[-59,20],[-75,-25],[-106,68],[-22,59],[-179,51],[13,69],[363,-95],[41,56],[-121,55],[-45,-2],[-161,75],[-21,54],[-164,85],[-174,-31],[-262,43]],[[650,1933],[124,110]],[[1570,2310],[165,-91],[106,110],[229,-97],[51,57],[209,7]],[[2435,1278],[-177,97],[-190,-93]],[[2068,1282],[-166,66],[68,92],[122,-44],[62,31],[-141,53]],[[2330,2296],[24,86],[-68,263],[166,377],[72,-11]],[[2524,3011],[156,-99],[156,-62]],[[2836,2850],[69,-49],[27,-57],[-29,-137],[-15,-230],[-109,-204],[-13,-57],[74,-75],[261,-156],[-154,-152],[-26,-68],[-359,-383],[-50,-47],[-77,43]],[[4523,2280],[-185,-197],[-237,208],[-50,-143],[-89,-51],[-132,37],[-274,-277],[-185,-200],[-43,27],[-85,-35],[-46,-202],[216,-28],[-26,-192],[155,23],[150,155],[126,-56],[82,-17],[282,-15],[120,-87],[56,-60],[195,-7],[112,-97],[-8,-53],[89,-179],[96,-232],[147,-82],[-83,-82],[22,-71],[74,-126],[-67,-149],[-94,-92],[-710,413],[-131,37],[-127,-4],[-128,-30],[-578,-153],[-270,-113],[64,253],[32,188],[74,292],[3,111],[-25,-8],[-212,-239]],[[2833,747],[-44,16],[86,85],[-54,30],[123,117],[-267,141],[-11,-112],[-155,28],[-146,50],[-49,40],[59,57],[-28,22],[88,57]],[[2836,2850],[147,56],[51,-17],[222,170],[89,46],[106,21]],[[3451,3126],[61,10],[122,-43],[48,62],[42,5],[151,-44],[13,-205],[101,-80],[-38,-87],[-57,-42],[230,-115],[190,57],[67,-17],[52,-209],[90,-138]],[[2833,747],[-202,-182],[-79,29],[-264,-102],[-101,73],[-212,105],[-103,36],[-167,17],[-31,103],[-63,131],[-302,100]],[[1309,1057],[123,31],[460,134],[19,42],[157,18]],[[1309,1057],[-356,127],[112,238],[-3,87],[-66,32],[35,132],[-219,84],[-162,176]],[[3451,3126],[-19,85],[46,155],[56,58],[97,40],[47,42],[23,224],[-15,149],[51,91],[197,149],[174,83],[196,79],[260,186],[229,-148],[138,-106],[131,-70],[69,67],[205,74],[87,72],[202,-17],[-52,-90],[-46,-135],[-56,-302],[-66,-131],[-172,-279],[-657,-1048],[-53,-74]],[[1592,3317],[-12,-38],[-97,-34],[-29,-112]],[[1454,3133],[-62,6],[-286,-298],[-23,-51],[113,-42],[-114,-176]],[[398,3319],[-77,125],[140,137],[292,-21],[44,201],[114,2],[85,-18],[83,-63],[242,-67],[146,-179],[125,-119]],[[1727,2978],[-266,-268],[-213,-232]],[[1454,3133],[46,-5],[30,-111],[89,-2],[-15,-64],[123,27]],[[1727,2978],[60,0],[3,-101],[55,-92],[-121,-215],[-33,-39],[63,-50],[-184,-171]],[[1592,3317],[109,-7],[28,44],[141,-26],[234,-23],[76,141],[81,-20],[167,-79],[36,-72],[-11,-85],[71,-179]],[[6650,6570],[16,-42],[-19,-92],[16,-32],[125,-80],[203,39],[94,-131],[20,-76],[183,88],[-122,70],[-18,90],[112,60],[59,-68],[15,-73],[148,-29],[62,150],[84,84],[171,-75],[41,-41],[-192,-242],[-91,45],[-107,-107],[184,-44],[107,-182],[-78,-88],[-71,0],[-251,70],[-100,-116],[-23,-91],[17,-54],[52,-26],[130,4],[73,22],[68,-22],[-115,-141],[-59,24],[-93,-71],[-238,-16],[-36,-20],[-279,60],[-71,-68],[-132,60],[-2,85],[-85,30],[9,62],[-26,167],[34,64],[150,-67],[15,13],[155,-63],[94,27],[48,-15],[74,52],[-28,67],[19,45],[177,49],[-52,50],[-54,-17],[-108,177],[-149,-24],[-127,-58],[-4,64],[-289,19],[-7,-39],[-81,-38],[-27,50],[-92,-40],[-16,21],[101,41],[86,64],[-38,103],[-67,43],[-233,99],[-19,48],[134,61],[141,145],[31,71],[67,-29],[91,-97],[131,-33],[62,-36]],[[9983,9611],[-53,-344],[-128,-10],[-65,-126],[-200,-349],[94,-53],[89,-367],[-137,-134],[15,-147],[-7,-175],[22,-46],[176,-166],[-129,-61],[-73,115],[-105,55],[-132,-104],[57,-37],[-125,-85],[-72,41],[-93,-136],[68,-48],[-119,-23],[-56,-33],[22,-56],[-102,-169],[-26,1],[-101,-81],[-106,19],[-278,-233],[-136,66],[80,79],[-98,28],[-83,63],[142,128],[47,-5],[166,173],[-67,36],[853,869],[-52,285],[-198,6],[-61,75],[63,16],[42,82],[256,-16],[48,81],[246,491],[-307,121],[258,79],[34,50],[83,14],[75,42],[-22,27],[211,66],[-16,-104]]]}