{"type":"Topology","bbox":[-76.50335360296697,2.2016796993041687,-76.16250868383673,2.3832754357292085],"transform":{"scale":[0.000034087900703093694,0.000018161389781482126],"translate":[-76.50335360296697,2.2016796993041687]},"objects":{"municipios":{"type":"GeometryCollection","geometries":[{"type":"Polygon","arcs":[[0,1]]},{"type":"Polygon","arcs":[[-1,2]]},{"type":"MultiPolygon","arcs":[[[3,4]],[[5]]]},{"type":"Polygon","arcs":[[6,7,8,-4]]},{"type":"MultiPolygon","arcs":[[[-8,9]],[[10]]]},{"type":"Polygon","arcs":[[11]]},{"type":"Polygon","arcs":[[12]]},{"type":"Polygon","arcs":[[13]]},{"type":"Polygon","arcs":[[14]]},{"type":"Polygon","arcs":[[15]]},{"type":"Polygon","arcs":[[16]]},{"type":"MultiPolygon","arcs":[[[17]],[[18]]]}]}},"arcs":[[[9828,2169],[11,6],[11,-9],[8,-37]],[[9858,2129],[-6,-6],[-8,34],[-7,-27],[-7,2],[-1,-28],[8,-10],[-17,-57],[-15,-20],[0,-28],[-30,8],[-6,-10],[-20,35],[1,73],[-18,32],[-4,47],[-19,26],[-15,0],[-5,19],[18,3],[25,-30],[12,25],[3,-28],[16,-19],[-5,-28],[3,-15],[12,-8],[-5,-21],[8,2],[25,33],[13,-26],[7,54],[7,8]],[[9828,2169],[4,35],[-23,37],[16,25],[8,2],[30,46],[11,-12],[4,10],[24,-20],[4,28],[20,-9],[4,15],[39,-46],[3,-64],[17,-15],[10,-48],[-20,-35],[-30,-28],[-4,-12],[12,-20],[-28,-40],[-25,-49],[-13,29],[16,26],[-2,38],[-30,20],[-17,47]],[[243,7793],[-22,-2],[1,35],[-38,8]],[[184,7834],[6,22],[-15,1],[8,37],[-5,37],[-19,0],[21,67],[8,-15],[13,0],[15,-16],[37,-1],[-1,-23],[12,8],[5,-33],[-13,-53],[8,-55],[-21,-17]],[[158,8018],[15,-12],[-11,-37],[-16,13],[12,36]],[[243,7793],[-2,-32],[5,-56]],[[246,7705],[-10,-4],[-47,0]],[[189,7701],[-1,89],[-4,44]],[[246,7705],[14,-31],[-10,-53],[-9,-17],[-2,-25],[-18,-12],[0,-24],[-11,-27],[-28,-26],[-8,15],[-13,-15],[-30,-10],[-21,-91],[-10,-14],[-18,21],[8,15],[-1,24],[8,3],[6,24],[-17,19],[15,10],[7,34],[25,28],[31,58],[14,8],[12,-23],[-7,-23],[16,-14],[15,26],[-2,32],[-18,42],[-5,42]],[[207,7425],[0,-21],[-30,5],[-7,11],[-9,-73],[-5,1],[7,67],[20,62],[16,17],[-7,-30],[20,-25],[-5,-14]],[[1510,9974],[-1,-36],[24,3],[-1,-15],[-17,0],[3,-33],[-9,-34],[-14,-11],[-8,-22],[-58,-11],[-38,-34],[-28,0],[-17,-11],[-6,51],[-17,-8],[4,-57],[-25,-14],[-7,55],[17,10],[-4,40],[-26,-8],[14,22],[8,26],[22,16],[3,21],[15,15],[29,12],[1,-6],[50,20],[13,-2],[25,9],[0,17],[16,10],[12,-19],[20,-6]],[[286,135],[3,-95],[35,-6],[-5,-34],[-9,12],[-28,6],[1,26],[-18,18],[-1,-29],[-41,13],[-36,32],[-11,34],[27,29],[8,-10],[22,12],[52,17],[1,-25]],[[1747,9977],[18,4],[-7,-101],[2,-44],[-33,12],[-13,17],[-51,-36],[-5,18],[14,14],[42,19],[6,11],[-12,24],[12,37],[15,-8],[4,15],[-11,5],[19,13]],[[60,6927],[21,4],[1,-28],[-15,-5],[5,-47],[-10,-47],[16,-2],[0,-22],[-11,-1],[2,-28],[-17,-36],[16,-52],[-2,-32],[-7,-7],[2,-24],[16,-1],[-9,-24],[0,-28],[-18,-21],[-13,-83],[-13,11],[-8,-37],[-2,-33],[-14,6],[11,74],[9,46],[4,82],[11,39],[-7,-1],[-2,32],[11,16],[-14,3],[4,25],[8,-1],[0,63],[-7,-2],[-4,45],[8,22],[11,3],[1,37],[-6,9],[-34,16],[3,12],[30,4],[18,26],[5,-13]],[[97,7291],[3,34],[24,-6],[2,-56],[15,-38],[-17,-6],[13,-42],[-9,-11],[-30,94],[-10,-11],[-6,26],[-3,43],[-6,-5],[-3,39],[16,-2],[2,-49],[9,-10]],[[133,7737],[-14,15],[-9,-16],[6,-21],[-7,-5],[-4,28],[-9,-13],[-5,15],[12,15],[10,33],[8,-19],[13,-9],[8,14],[9,-22],[-9,-36],[-15,1],[6,20]],[[468,6480],[20,-39],[-20,9],[-1,-8],[-31,-13],[-6,45],[38,6]],[[560,6622],[3,-33],[-10,-9],[4,-61],[-23,19],[-25,5],[-23,-27],[-30,3],[-12,17],[3,45],[10,6],[19,-26],[31,8],[0,24],[15,14],[14,0],[24,15]]]}
