{"type":"Topology","bbox":[-77.07471821067111,1.6805334623188337,-77.05814853399738,1.7210507828893957],"transform":{"scale":[0.0000016571333807106263,0.000004052137270783279],"translate":[-77.07471821067111,1.6805334623188337]},"objects":{"municipios":{"type":"GeometryCollection","geometries":[{"type":"Polygon","arcs":[[0,1]],"properties":{"codigo":"19290100000000000101","sector":"192901000000000001","pcode":"CO19290","area_m2":57836}},{"type":"Polygon","arcs":[[-1,2]],"properties":{"codigo":"19290100000000000102","sector":"192901000000000001","pcode":"CO19290","area_m2":70656}},{"type":"Polygon","arcs":[[3]],"properties":{"codigo":"19290200101002000101","sector":"192902001010020001","pcode":"CO19290","area_m2":51087}},{"type":"Polygon","arcs":[[4]],"properties":{"codigo":"19290200101001000101","sector":"192902001010010001","pcode":"CO19290","area_m2":98694}}]}},"arcs":[[[2781,559],[-611,81],[-179,-40],[-27,-110],[-758,44],[-866,-16],[16,-104],[-310,17]],[[46,431],[-46,235],[275,1],[63,190],[349,97],[93,-45],[332,-32],[199,-56],[83,82],[302,-65],[-46,-99],[379,27],[157,-73],[646,-88],[-51,-46]],[[2781,559],[-64,-90],[-321,44],[-144,-160],[103,-52],[-105,-103],[-3,-196],[-457,-2],[-167,63],[140,156],[-231,-25],[-135,-86],[-95,73],[-430,22],[-133,-27],[-101,84],[-311,-2],[-55,83],[-233,-1],[7,91]],[[8457,9572],[556,64],[278,-11],[626,41],[-40,-99],[-332,-54],[-170,9],[-75,-126],[122,-98],[409,164],[168,-72],[-187,-185],[-242,-58],[115,-124],[-188,-85],[-198,159],[-246,52],[-296,118],[92,103],[-488,183],[-30,-71],[-174,89],[101,35],[-18,393],[140,-3],[-22,-358],[99,-66]],[[2417,9490],[159,-103],[338,-75],[316,7],[124,-91],[-76,-88],[-447,17],[-575,-170],[-194,-82],[250,-168],[195,-41],[12,83],[598,121],[-97,-129],[76,-126],[-288,39],[-320,-38],[-589,199],[-297,-20],[-305,72],[-304,-105],[-185,79],[192,95],[32,157],[-106,52],[232,2],[214,143],[-83,19],[448,225],[358,58],[322,-132]]]}
