{"type":"Topology","bbox":[-76.7871804229938,2.8996951049272437,-76.68328033025381,2.9884930450425196],"transform":{"scale":[0.000010391048378836996,0.00000888068207973556],"translate":[-76.7871804229938,2.8996951049272437]},"objects":{"municipios":{"type":"GeometryCollection","geometries":[{"type":"Polygon","arcs":[[0,1,2,3]]},{"type":"Polygon","arcs":[[4,5,-1,6,7]]},{"type":"Polygon","arcs":[[-2,-6,8]]},{"type":"Polygon","arcs":[[9]]},{"type":"Polygon","arcs":[[10]]},{"type":"Polygon","arcs":[[11,-3,-9,-5,12]]},{"type":"Polygon","arcs":[[-7,-4,-12,13]]},{"type":"Polygon","arcs":[[14,15]]},{"type":"Polygon","arcs":[[-15,16]]}]}},"arcs":[[[9238,5945],[-62,32],[-57,-55],[-70,-22],[-26,88],[-31,38]],[[8992,6026],[64,46],[11,52],[28,-14],[43,182],[14,100],[1,126]],[[9153,6518],[58,-18]],[[9211,6500],[10,-173],[29,-86],[22,-142],[-4,-76],[-30,-78]],[[8463,6847],[117,-77],[48,-50],[19,-64],[13,-179],[66,-55]],[[8726,6422],[79,-71],[129,-176],[-10,-61],[68,-88]],[[9238,5945],[-79,-107],[-75,-25],[-290,19],[-82,45],[-50,-14],[-102,-152]],[[8560,5711],[-132,139],[-66,39],[-8,30],[-47,6],[-24,-23],[12,-38],[-45,-69],[-39,-2],[-42,36],[36,126],[-110,160],[56,91],[0,162],[-53,36],[-83,87],[65,-6],[81,47],[18,58],[69,-26],[3,53],[40,49],[40,17],[21,73],[-3,68],[60,69],[54,-46]],[[8726,6422],[54,129],[73,58],[-17,-100],[63,19],[26,-34],[14,56],[101,-14],[-59,75],[9,37],[85,-16],[36,14],[-14,77],[66,3],[-10,-208]],[[5117,9242],[27,20],[56,-18],[85,1],[15,-83],[47,-22],[-23,-78],[-53,45],[-52,5],[-40,-18],[-68,16],[-49,36],[37,36],[-22,14],[-17,77],[57,-31]],[[89,9999],[33,-3],[57,-73],[8,28],[127,-58],[19,42],[57,-19],[-65,-33],[-49,-80],[-61,-7],[-17,65],[-107,-44],[78,75],[-31,12],[-67,-21],[-71,65],[6,25],[63,-17],[20,43]],[[9486,6957],[-53,-59],[-98,-62],[-43,-52],[-76,-137],[-14,-98],[9,-49]],[[8463,6847],[-19,103],[104,84],[24,53],[79,26],[39,-11],[80,87],[-47,51],[6,113],[29,0],[15,124],[52,25],[31,42],[69,31],[13,44],[-13,86],[-34,70],[13,37],[219,96],[14,23],[99,44],[98,115],[85,19],[-18,124],[181,4],[102,-7],[77,-228],[-23,-94],[-132,-201],[-50,-194],[-25,-153],[8,-109],[-22,-156],[-31,-138]],[[9486,6957],[99,-81],[42,-14],[27,-77],[59,-32],[-38,-140],[3,-198],[8,-53],[-19,-78],[-40,-38],[-156,-62],[5,-31],[-75,-66],[-2,-67],[-22,-20],[-7,-87],[-43,-138],[-39,-36],[-162,-6],[-177,28],[-120,-1],[3,-29],[-124,-15],[-80,-36],[-65,-54],[-35,32],[32,53]],[[9825,837],[-20,-24],[-59,-9],[-40,-42],[-115,24],[-69,-31],[-72,-81],[-45,-10],[-60,79],[-19,111]],[[9326,854],[17,44],[55,60],[26,-30],[-39,-10],[-25,-42],[-10,-81],[23,-65],[40,-37],[79,50],[-8,19],[72,42],[2,69],[24,4],[-6,-54],[91,-19],[123,31],[25,21],[-16,67],[-54,24],[31,44],[-81,77],[-11,-17],[-47,59],[-109,75],[-49,-109],[-45,58],[42,10],[29,106],[-16,39],[-54,41],[-36,0],[-37,-38],[-63,14],[10,37],[-68,2],[-22,52],[-37,24],[-62,4],[-27,-29],[-15,30],[-51,-7],[38,51],[1,55],[-52,73],[44,-8],[83,-77],[50,4],[6,-48],[33,-31],[74,-35],[30,4],[5,-39],[103,0],[46,-24],[9,-39],[43,-31],[64,7],[62,138],[-85,172],[17,47],[-101,128],[-38,112],[36,17],[23,-41],[58,-21],[56,50],[11,-112],[23,-14],[-41,-74],[7,-141],[43,-86],[11,-106],[47,-144],[17,-98],[85,-86],[-11,-65],[13,-48],[-12,-72]],[[9825,837],[8,-66],[71,-145],[61,-87],[34,-111],[-36,-52],[-16,-75],[18,-30],[-37,-134],[-81,-83],[-4,-53],[-47,5],[-24,98],[-74,81],[1,109],[-63,158],[19,21],[-55,48],[-48,72],[-71,10],[-80,38],[-74,62],[-70,-12],[-19,-52],[-31,6],[44,63],[1,55],[30,0],[25,95],[-24,104],[43,-108]]]}