{"type":"Topology","bbox":[-76.47005738478128,2.550551282987167,-76.28904735936544,2.767361365039163],"transform":{"scale":[0.00001810281282286671,0.00002168317652285189],"translate":[-76.47005738478128,2.550551282987167]},"objects":{"municipios":{"type":"GeometryCollection","geometries":[{"type":"Polygon","arcs":[[0,1,2,3]],"properties":{"codigo":"19743100000000000104","sector":"197431000000000001","pcode":"CO19743","area_m2":155028}},{"type":"Polygon","arcs":[[4,-3,5,6,7]],"properties":{"codigo":"19743100000000000101","sector":"197431000000000001","pcode":"CO19743","area_m2":712111}},{"type":"Polygon","arcs":[[8,9,10,11,12,-7]],"properties":{"codigo":"19743100000000000102","sector":"197431000000000001","pcode":"CO19743","area_m2":725487}},{"type":"Polygon","arcs":[[13,14,-9,-6,-2]],"properties":{"codigo":"19743100000000000103","sector":"197431000000000001","pcode":"CO19743","area_m2":239802}},{"type":"Polygon","arcs":[[15,16,-4,-5,17,18]],"properties":{"codigo":"19743100000000000105","sector":"197431000000000001","pcode":"CO19743","area_m2":562964}},{"type":"Polygon","arcs":[[19,20,-14,-1,-17]],"properties":{"codigo":"19743100000000000106","sector":"197431000000000001","pcode":"CO19743","area_m2":295396}},{"type":"Polygon","arcs":[[21,-10,-15,-21]],"properties":{"codigo":"19743100000000000107","sector":"197431000000000001","pcode":"CO19743","area_m2":555616}},{"type":"Polygon","arcs":[[-19,22]],"properties":{"codigo":"19743100000000000108","sector":"197431000000000001","pcode":"CO19743","area_m2":617110}},{"type":"Polygon","arcs":[[23,-12]],"properties":{"codigo":"19743100000000000201","sector":"197431000000000002","pcode":"CO19743","area_m2":970437}},{"type":"Polygon","arcs":[[24]],"properties":{"codigo":"19743200504005000101","sector":"197432005040050001","pcode":"CO19743","area_m2":82950}},{"type":"Polygon","arcs":[[25]],"properties":{"codigo":"19743200104003000101","sector":"197432001040030001","pcode":"CO19743","area_m2":69456}},{"type":"Polygon","arcs":[[26]],"properties":{"codigo":"19743200205002000101","sector":"197432002050020001","pcode":"CO19743","area_m2":112872}},{"type":"Polygon","arcs":[[27]],"properties":{"codigo":"19743200406004000101","sector":"197432004060040001","pcode":"CO19743","area_m2":123773}},{"type":"MultiPolygon","arcs":[[[28]],[[29]]],"properties":{"codigo":"19743200108023000101","sector":"197432001080230001","pcode":"CO19743","area_m2":33031}},{"type":"Polygon","arcs":[[30]],"properties":{"codigo":"19743200109024000101","sector":"197432001090240001","pcode":"CO19743","area_m2":39440}},{"type":"MultiPolygon","arcs":[[[31]],[[32]]],"properties":{"codigo":"19743200405025000101","sector":"197432004050250001","pcode":"CO19743","area_m2":58269}},{"type":"Polygon","arcs":[[33]],"properties":{"codigo":"19743200407008000101","sector":"197432004070080001","pcode":"CO19743","area_m2":178592}},{"type":"Polygon","arcs":[[34]],"properties":{"codigo":"19743200303010000101","sector":"197432003030100001","pcode":"CO19743","area_m2":114254}},{"type":"MultiPolygon","arcs":[[[35]],[[36]],[[37]],[[38]],[[39]]],"properties":{"codigo":"19743200205011000101","sector":"197432002050110001","pcode":"CO19743","area_m2":61050}},{"type":"Polygon","arcs":[[40]],"properties":{"codigo":"19743200405026000101","sector":"197432004050260001","pcode":"CO19743","area_m2":135621}},{"type":"MultiPolygon","arcs":[[[41]],[[42]]],"properties":{"codigo":"19743200107027000101","sector":"197432001070270001","pcode":"CO19743","area_m2":26740}},{"type":"Polygon","arcs":[[43]],"properties":{"codigo":"19743200107028000101","sector":"197432001070280001","pcode":"CO19743","area_m2":43504}},{"type":"MultiPolygon","arcs":[[[44]],[[45]]],"properties":{"codigo":"19743200112029000101","sector":"197432001120290001","pcode":"CO19743","area_m2":10813}},{"type":"Polygon","arcs":[[46]],"properties":{"codigo":"19743200201030000101","sector":"197432002010300001","pcode":"CO19743","area_m2":43959}},{"type":"Polygon","arcs":[[47]],"properties":{"codigo":"19743200201031000101","sector":"197432002010310001","pcode":"CO19743","area_m2":34628}},{"type":"MultiPolygon","arcs":[[[48]],[[49]]],"properties":{"codigo":"19743200303032000101","sector":"197432003030320001","pcode":"CO19743","area_m2":148863}},{"type":"Polygon","arcs":[[50]],"properties":{"codigo":"19743200205033000101","sector":"197432002050330001","pcode":"CO19743","area_m2":51833}},{"type":"Polygon","arcs":[[51]],"properties":{"codigo":"19743200409034000101","sector":"197432004090340001","pcode":"CO19743","area_m2":16877}}]}},"arcs":[[[5256,2864],[-24,-27],[-44,-8],[-42,1],[-14,-28]],[[5132,2802],[-22,-27],[-34,-16],[-64,61],[-4,25]],[[5008,2845],[-12,10],[30,35],[108,90],[26,26],[-4,24],[50,64],[47,49]],[[5253,3143],[22,-8],[-15,-18],[-33,-17],[-37,-47],[-16,-45],[-5,-67],[87,-77]],[[5265,3232],[-9,-21],[-3,-68]],[[5008,2845],[-41,-33],[-33,-39],[-39,1],[-18,45],[-80,-26]],[[4797,2793],[-46,-14],[-31,37],[-44,89],[74,22],[-7,36],[-18,7],[-45,47],[19,13],[7,30],[-23,21]],[[4683,3081],[23,4],[48,-14],[19,-17],[74,33],[-4,32],[12,6],[69,-15],[5,-21],[51,-26],[15,14],[-29,10],[7,21],[71,45],[14,47],[15,17],[3,26],[37,-5],[13,11],[-14,43],[26,4],[58,-22],[69,-42]],[[4797,2793],[20,-43],[35,-58],[-3,-17],[35,-37]],[[4884,2638],[-23,-20],[-63,-14],[-31,-36]],[[4767,2568],[-28,-22]],[[4739,2546],[-33,-1],[-40,79],[-23,59],[-52,-20],[-13,13],[-63,-5],[-13,-15],[-29,-3],[-23,27],[-66,4],[-24,-15],[-42,-40],[-64,5],[-29,41]],[[4225,2675],[11,31],[-30,14],[-14,48],[8,64],[25,61],[17,14],[34,-3],[19,-30],[3,-39],[67,-1],[16,-16],[13,19],[99,-48],[25,32],[-13,42],[28,22],[50,71],[100,125]],[[5132,2802],[19,18],[12,-39],[66,14],[22,-76]],[[5251,2719],[-37,-28],[-31,-35],[-68,-15],[-44,7],[13,27],[-8,17],[-63,14],[-43,-13],[-56,14],[-6,-35],[-24,-34]],[[5896,3269],[17,-24],[-21,-6],[-26,-32],[-35,9],[-20,-17],[-14,-36],[-2,-44],[-36,-21],[-24,-57],[-18,-9],[-34,8],[-30,-7],[-21,-30],[-31,-8],[-37,2],[-55,-16]],[[5509,2981],[-31,12],[-91,-16],[-40,-37],[-31,-16],[-59,-7],[-1,-53]],[[5265,3232],[73,40],[86,17],[16,-9],[60,8],[6,80],[20,8],[51,-39]],[[5577,3337],[-2,-67],[-18,-62],[-29,-46],[-43,-20],[-15,-23],[-6,-61],[167,-11],[69,5],[17,7],[23,42],[46,41],[15,58],[37,33],[58,36]],[[5509,2981],[-20,-35],[-17,-125],[-15,-48],[-7,-78],[-12,-6],[-15,26],[-28,-29],[-31,2]],[[5364,2688],[-28,1],[-25,12],[12,26],[-55,-1],[-17,-7]],[[5364,2688],[36,-35],[-3,-21],[-31,-22],[35,-16],[-8,-50],[-30,-18],[-19,16],[-57,9],[-56,-15],[-29,-44],[-31,6],[-54,-6],[-25,12],[-62,-1],[-7,-28],[-39,-30],[-33,-17],[-24,-38],[-78,-3],[-34,9],[-12,17],[12,21],[34,14],[-29,73],[-53,47]],[[5577,3337],[33,30],[21,42],[37,46],[30,-4],[28,37],[39,19],[14,-1],[19,-43],[14,-7],[49,1],[27,27],[33,-14],[18,8],[53,-28],[-2,-34],[-20,-41],[-31,-36],[-36,-16],[-26,-2],[19,-52]],[[4739,2546],[-17,-23],[-19,-96],[-79,-46],[-9,-11],[-118,-185],[-25,3],[-42,-7],[-62,6],[-55,19],[-8,24],[-30,38],[-35,8],[-18,24],[-1,23],[29,20],[-66,75],[-21,-12],[-41,-8],[1,27],[28,18],[73,30],[11,24],[-49,54],[-7,59],[-12,9],[2,27],[13,14],[43,15]],[[151,3551],[11,21],[27,-11],[-14,-21],[32,-29],[-13,-13],[19,-15],[-16,-20],[-11,21],[-33,5],[-11,-18],[-31,-8],[-47,2],[-29,-23],[-8,-32],[-27,14],[24,12],[-1,30],[26,14],[-5,69],[21,1],[-4,19],[-32,23],[23,34],[49,-47],[50,-28]],[[4894,7849],[-16,-68],[-12,-8],[45,-19],[7,-21],[-19,7],[-13,-21],[26,-46],[-76,12],[-10,10],[-107,36],[4,15],[44,-13],[26,28],[44,12],[-20,53],[64,24],[13,-1]],[[8076,7618],[20,-17],[-14,-17],[12,-22],[-18,-21],[14,-32],[-6,-8],[37,-22],[-16,-32],[-31,1],[-24,-30],[-46,24],[-44,-8],[-15,-25],[-46,-11],[47,63],[27,-6],[-45,26],[47,-3],[12,19],[-43,16],[22,51],[40,-1],[13,50],[20,-1],[9,26],[28,-20]],[[9166,3667],[67,-52],[54,3],[36,10],[62,-25],[-37,-14],[-8,-19],[-31,-23],[-5,-17],[-42,9],[-44,-22],[-14,-22],[-25,57],[-38,35],[-46,11],[4,10],[-55,1],[-19,-13],[-36,-5],[-13,14],[13,13],[31,-6],[49,40],[87,21],[10,-6]],[[5173,3475],[58,0],[-16,-40],[0,-21],[-15,15],[-24,-13],[-21,32],[-59,-2],[-1,14],[43,-5],[-8,37],[22,5],[21,-22]],[[5135,3592],[16,0],[27,-35],[-21,-11],[-24,27],[-35,13],[13,19],[24,-13]],[[6102,3913],[26,24],[46,60],[49,13],[25,17],[9,25],[27,13],[7,-40],[27,13],[19,-17],[-17,-16],[-17,4],[-30,-13],[-37,3],[-11,-35],[-50,-9],[-20,-34],[-53,-8]],[[6577,3383],[14,-13],[-35,-6],[-57,41],[32,8],[33,-14],[13,-16]],[[6393,3454],[10,-14],[74,11],[-4,-20],[-22,-14],[-49,-3],[-8,-25],[-28,-10],[-35,15],[8,18],[-138,-36],[-61,-2],[1,13],[96,3],[-2,9],[58,26],[13,17],[87,12]],[[9895,3617],[22,-10],[5,-17],[22,-12],[-25,-27],[4,-13],[-31,-15],[31,-11],[-11,-35],[21,-4],[46,29],[14,-30],[-19,2],[-20,-18],[-12,8],[-19,-20],[10,-27],[-3,-23],[33,-67],[-12,-2],[14,-40],[-14,-4],[-52,77],[9,12],[-39,-5],[8,28],[-26,6],[41,19],[-25,15],[-43,-3],[-10,36],[-26,2],[-13,-21],[-20,7],[-7,34],[-50,5],[-3,27],[-17,25],[-45,24],[12,20],[41,-15],[12,-14],[84,-17],[13,-14],[14,21],[1,26],[12,-6],[17,25],[12,-8],[44,30]],[[7608,3802],[54,-18],[47,-9],[6,15],[25,-16],[46,-9],[32,1],[63,-17],[25,-13],[57,-3],[26,6],[42,-4],[-15,-39],[66,34],[20,-13],[46,63],[23,22],[41,-30],[19,-3],[-62,-15],[-21,4],[16,-37],[-23,9],[-9,-18],[-18,9],[-47,-42],[-6,10],[-36,-28],[-43,4],[1,8],[-44,5],[-21,11],[-2,18],[75,-6],[-14,9],[-110,8],[-98,16],[0,-14],[-40,22],[-41,-7],[-32,7],[-39,34],[6,10],[-34,10],[19,6]],[[8785,6183],[20,-20],[-50,-4],[-17,19],[47,5]],[[8958,6192],[9,-27],[-24,-1],[-42,-17],[-57,20],[5,25],[82,-5],[27,5]],[[9267,6267],[8,-13],[-56,-12],[11,-21],[-18,-2],[-71,-35],[6,-15],[-25,-8],[-19,31],[-57,-8],[1,-9],[-36,-10],[-4,22],[45,15],[82,-4],[77,40],[0,22],[37,15],[19,-8]],[[9264,6320],[2,-26],[-18,-9],[1,49],[15,-14]],[[9225,6344],[-24,-9],[-20,7],[14,34],[-25,3],[20,23],[24,-21],[11,-37]],[[7061,3757],[-7,-44],[-23,-16],[-19,-30],[-28,-19],[7,-27],[-11,-27],[-25,-18],[10,-29],[-20,-1],[-12,17],[-17,-37],[-62,-63],[-30,-15],[13,-10],[23,-40],[-45,-33],[-7,26],[-20,29],[-47,-10],[-27,3],[-13,15],[-64,-8],[-10,6],[19,34],[25,18],[17,-47],[18,5],[-1,18],[39,12],[7,-16],[52,27],[-6,14],[82,65],[-14,-32],[37,27],[49,91],[22,28],[-10,13],[30,33],[-24,7],[21,15],[0,26],[71,-7]],[[7128,6891],[-5,-32],[-19,7],[-18,-29],[-15,32],[-53,-6],[-11,13],[61,15],[34,41],[11,-9],[-11,-21],[26,-11]],[[7075,6943],[-17,-22],[-6,17],[-23,9],[24,16],[4,24],[17,-10],[-18,-26],[19,-8]],[[7600,6622],[34,-10],[-24,-61],[2,-51],[-53,0],[22,47],[23,14],[-38,21],[6,8],[-56,-1],[-24,23],[46,28],[17,24],[45,-42]],[[7234,8694],[16,-14],[7,-27],[-22,-11],[-1,52]],[[7087,8707],[20,-16],[-45,-13],[-30,8],[28,4],[-5,17],[32,0]],[[7531,8572],[18,-1],[31,-23],[24,3],[3,-21],[40,9],[0,27],[29,-21],[14,-35],[41,-19],[17,-17],[37,-10],[51,2],[0,-10],[-53,2],[-5,-13],[-37,5],[-41,24],[-17,19],[-26,10],[-55,-5],[-43,26],[9,10],[-42,25],[5,13]],[[7783,9884],[7,-5],[-40,-31],[-30,19],[-15,-2],[23,28],[24,-6],[0,52],[18,60],[55,-33],[-23,-37],[-19,-45]],[[8474,3744],[19,-13],[1,-20],[-33,1],[-8,-11],[25,-13],[-35,-21],[-18,17],[-18,-5],[-47,28],[-14,24],[45,18],[31,-6],[40,11],[12,-10]],[[8639,3819],[28,-7],[3,-14],[44,-10],[34,-19],[36,2],[38,-20],[33,33],[28,-19],[21,21],[46,-15],[3,-12],[-49,-31],[6,-36],[-33,10],[-47,3],[2,23],[-29,-13],[-71,-2],[3,9],[-64,4],[14,17],[57,-17],[1,19],[-24,6],[-52,-1],[-29,-8],[-17,-20],[9,-20],[-26,-15],[-21,19],[-30,1],[21,13],[-10,13],[26,38],[37,24],[8,17],[-18,2],[10,23],[12,-18]],[[8559,7245],[15,32],[-28,30],[10,30],[-28,14],[-24,-9],[-7,13],[26,17],[27,-3],[13,-16],[43,-17],[-20,-24],[24,-42],[11,7],[46,-58],[45,11],[-10,-26],[-20,-14],[-43,13],[-8,-14],[-45,26],[4,16],[-31,14]],[[9677,103],[16,-9],[-31,-33],[10,-17],[-25,-28],[-9,6],[-35,-22],[37,48],[-20,9],[21,39],[18,-7],[18,14]]]}
