{"type":"Topology","bbox":[-76.78906915035009,2.2292188527903205,-76.69453010232036,2.267665943951821],"transform":{"scale":[0.000009454850288001858,0.00000384509362551262],"translate":[-76.78906915035009,2.2292188527903205]},"objects":{"municipios":{"type":"GeometryCollection","geometries":[{"type":"Polygon","arcs":[[0]],"properties":{"codigo":"19622200106011000101","sector":"196222001060110001","pcode":"CO19622","area_m2":25017}},{"type":"Polygon","arcs":[[1,2,3]],"properties":{"codigo":"19622100000000000101","sector":"196221000000000001","pcode":"CO19622","area_m2":100150}},{"type":"Polygon","arcs":[[4,-3,5,6,7,8,9]],"properties":{"codigo":"19622100000000000102","sector":"196221000000000001","pcode":"CO19622","area_m2":140673}},{"type":"Polygon","arcs":[[10]],"properties":{"codigo":"19622200101002000101","sector":"196222001010020001","pcode":"CO19622","area_m2":93796}},{"type":"MultiPolygon","arcs":[[[-9,11]],[[-4,-5,12]],[[-7,13]]],"properties":{"codigo":"19622200104007000101","sector":"196222001040070001","pcode":"CO19622","area_m2":87565}}]}},"arcs":[[[9999,4912],[0,-67],[-242,82],[-31,101],[9,127],[-15,45],[46,100],[30,-56],[17,-108],[-11,-83],[196,-53],[1,-88]],[[5480,8291],[-83,-152],[-53,-191],[39,-168],[-40,-156],[-53,88],[8,70],[-112,-128],[-8,-94],[-42,-6],[-6,-50],[-62,68],[6,81],[-31,236],[24,36],[-66,102]],[[5001,8027],[66,41],[76,198],[14,69],[20,-54],[105,70],[82,2],[71,-22],[45,32]],[[5480,8363],[0,-72]],[[5405,8708],[78,-240],[-3,-105]],[[5001,8027],[-18,-152],[-70,93],[-14,143],[-91,382],[-54,166],[86,0],[63,99]],[[4903,8758],[31,14],[48,-45]],[[4982,8727],[76,-95],[108,-9]],[[5166,8623],[101,-5],[30,244],[28,-50],[11,59]],[[5336,8871],[69,-163]],[[150,973],[16,12],[78,-311],[60,83],[-1,-303],[25,-157],[31,-61],[-60,-82],[19,-134],[-57,-14],[-25,228],[-29,-2],[-30,-68],[-82,-11],[-3,33],[-90,6],[0,57],[105,3],[2,163],[-14,131],[-46,206],[-49,61],[41,229],[32,111],[72,110],[26,-136],[-21,-154]],[[5166,8623],[-21,171],[71,64],[-8,128],[-72,147],[52,-12],[-28,103],[23,51],[12,193],[36,89],[-13,109],[63,47],[-68,155],[-3,82],[94,49],[60,-81],[-43,-190],[32,5],[-3,-81],[72,65],[-21,-133],[-33,20],[-77,-185],[-39,-170],[32,-32],[24,-123],[-14,-128],[42,-95]],[[5405,8708],[15,129],[45,-202],[20,-44],[36,-292],[-41,-8]],[[4903,8758],[13,135],[36,113],[51,24],[-10,-75],[28,-45],[-39,-183]]]}
