{"type":"Topology","bbox":[-76.53162042834663,2.4848140659078175,-76.28723413457055,2.584081615796142],"transform":{"scale":[0.00002444107348495591,0.000009927747763608803],"translate":[-76.53162042834663,2.4848140659078175]},"objects":{"municipios":{"type":"GeometryCollection","geometries":[{"type":"Polygon","arcs":[[0]]},{"type":"Polygon","arcs":[[1,2]]},{"type":"Polygon","arcs":[[-2,3]]},{"type":"Polygon","arcs":[[4]]},{"type":"Polygon","arcs":[[5]]},{"type":"Polygon","arcs":[[6]]},{"type":"Polygon","arcs":[[7]]},{"type":"Polygon","arcs":[[8]]},{"type":"Polygon","arcs":[[9]]},{"type":"Polygon","arcs":[[10]]},{"type":"Polygon","arcs":[[11]]},{"type":"Polygon","arcs":[[12]]},{"type":"Polygon","arcs":[[13]]},{"type":"MultiPolygon","arcs":[[[14]],[[15]]]},{"type":"Polygon","arcs":[[16]]}]}},"arcs":[[[9977,2763],[22,-5],[-31,-34],[0,-49],[19,-111],[-91,-73],[-13,14],[-25,117],[28,29],[-17,96],[20,10],[12,-54],[72,85],[4,-25]],[[5249,2767],[9,-88],[13,-9],[-27,-42],[17,-73],[21,-1],[38,-53],[-63,-111],[-33,-119]],[[5224,2271],[-18,-46],[-13,12],[-15,78],[-24,47],[-21,12],[-29,-67],[-19,29],[-59,-3],[-11,39],[-19,-51],[-12,67],[-16,-14],[-16,-113],[-34,2],[-54,191],[48,91],[37,25],[28,58],[5,41],[-35,124],[30,25],[-2,30],[26,83],[41,-83],[32,-40],[26,-2],[38,-57],[4,-48],[20,15],[39,-26],[5,53],[43,24]],[[5249,2767],[31,-16],[7,50],[26,12],[12,41],[59,-14],[14,19],[18,-40],[25,13],[5,-35],[38,-27],[11,-39],[42,-19],[46,-104],[39,-48],[35,27],[35,-32],[15,-123],[-95,66],[-31,39],[-77,-154],[-17,1],[-32,76],[-12,4],[-10,-53],[-21,-36],[-34,29],[-31,-7],[-93,-102],[-10,-38],[-20,14]],[[2496,4605],[24,7],[47,-57],[25,46],[17,-128],[48,-62],[95,-138],[-15,-70],[-42,53],[-24,2],[-13,-35],[-36,54],[-25,62],[-8,-38],[-29,29],[-10,-30],[-44,71],[-140,-41],[-7,131],[-14,18],[35,104],[36,-39],[12,72],[59,18],[9,-29]],[[2424,9931],[30,28],[12,40],[22,-8],[8,-71],[29,10],[42,53],[-17,-169],[37,10],[13,-75],[-28,48],[-34,-10],[3,26],[-90,21],[-26,54],[-1,43]],[[677,2815],[-40,-79],[-15,47],[34,52],[-2,101],[-23,25],[11,26],[19,-43],[8,-57],[36,50],[1,-68],[15,-35],[-44,-19]],[[180,9835],[36,72],[21,1],[2,-47],[-34,-15],[-21,-83],[-43,-49],[7,-139],[-27,91],[-35,-29],[-37,-80],[-6,16],[30,74],[31,44],[14,90],[37,8],[25,46]],[[987,7887],[4,47],[45,-43],[6,27],[37,9],[5,37],[66,-122],[28,-34],[-5,-32],[42,-33],[3,24],[33,-23],[63,-75],[-35,6],[-7,-26],[-18,46],[-46,27],[-32,-3],[-3,31],[-57,93],[-20,12],[-10,67],[-29,-16],[2,-30],[-68,-9],[-4,20]],[[2694,7780],[9,-27],[10,-119],[-18,6],[5,50],[-25,76],[-1,49],[-28,27],[-2,46],[15,23],[3,-41],[18,12],[24,-75],[-10,-27]],[[6817,3685],[-7,-43],[-16,13],[-33,-49],[-43,-131],[8,-7],[-33,-111],[-7,9],[29,143],[-9,34],[-26,-4],[5,62],[36,116],[-4,34],[23,32],[28,-2],[-13,50],[61,0],[12,-71],[-11,-75]],[[5189,379],[-42,-63],[-32,5],[-23,48],[7,58],[-28,-51],[-12,55],[22,45],[27,-4],[21,-57],[17,99],[13,-45],[38,6],[24,-24],[-7,110],[57,-60],[-2,-63],[34,-74],[-37,-79],[6,-59],[-20,-66],[34,-132],[-20,-28],[-27,77],[-5,50],[15,39],[-8,50],[-21,12],[4,45],[-16,18],[-3,53],[-16,35]],[[113,3193],[27,22],[35,-4],[17,-36],[-11,-32],[11,-33],[18,21],[9,-90],[-5,-40],[44,-65],[-9,-21],[49,-77],[-17,-46],[-34,21],[-7,57],[-15,18],[10,47],[-19,28],[-11,-28],[-56,74],[-7,32],[-56,105],[-12,-62],[-36,113],[-32,33],[1,59],[25,1],[14,28],[20,-70],[47,-55]],[[6390,2652],[44,63],[-2,37],[45,4],[-1,29],[32,60],[-12,17],[20,58],[30,-63],[1,-28],[-30,-44],[-10,-81],[4,-102],[-37,19],[-8,-64],[-18,-10],[-15,45],[-20,-16],[-22,15],[10,-70],[-19,-97],[-19,-12],[-25,46],[-31,122],[69,69],[14,3]],[[6906,4174],[5,-59],[-14,-26],[6,-38],[-29,-6],[-20,66],[6,52],[36,34],[10,-23]],[[7056,4194],[23,-49],[19,1],[5,-58],[-30,15],[-26,53],[-2,-46],[-16,33],[-35,-41],[-27,56],[7,50],[23,-17],[27,59],[26,-10],[6,-46]],[[8761,3605],[12,-55],[17,43],[29,-59],[-25,-36],[8,-26],[-63,-82],[-39,41],[-23,111],[-38,41],[161,118],[0,-15],[-39,-81]]]}