{"type":"Topology","bbox":[-76.47848303819353,1.017375396272992,-76.14225304413833,1.1220662208887202],"transform":{"scale":[0.00003362636204172438,0.000010470129474520284],"translate":[-76.47848303819353,1.017375396272992]},"objects":{"municipios":{"type":"GeometryCollection","geometries":[{"type":"Polygon","arcs":[[0,1,2,3]],"properties":{"codigo":"19533100000000000102","sector":"195331000000000001","pcode":"CO19533","area_m2":36962}},{"type":"Polygon","arcs":[[4]],"properties":{"codigo":"19533201402003000101","sector":"195332014020030001","pcode":"CO19533","area_m2":193196}},{"type":"Polygon","arcs":[[5]],"properties":{"codigo":"19533200806005000101","sector":"195332008060050001","pcode":"CO19533","area_m2":83794}},{"type":"Polygon","arcs":[[6]],"properties":{"codigo":"19533201405006000101","sector":"195332014050060001","pcode":"CO19533","area_m2":32789}},{"type":"Polygon","arcs":[[7]],"properties":{"codigo":"19533201401007000101","sector":"195332014010070001","pcode":"CO19533","area_m2":36261}},{"type":"Polygon","arcs":[[8,-3,9,10]],"properties":{"codigo":"19533100000000000101","sector":"195331000000000001","pcode":"CO19533","area_m2":138271}},{"type":"Polygon","arcs":[[11,-4,-9]],"properties":{"codigo":"19533100000000000103","sector":"195331000000000001","pcode":"CO19533","area_m2":173337}},{"type":"Polygon","arcs":[[-10,-2,12]],"properties":{"codigo":"19533100000000000104","sector":"195331000000000001","pcode":"CO19533","area_m2":295129}},{"type":"Polygon","arcs":[[13]],"properties":{"codigo":"19533201104002000101","sector":"195332011040020001","pcode":"CO19533","area_m2":63006}},{"type":"MultiPolygon","arcs":[[[14]],[[15]]],"properties":{"codigo":"19533201106004000101","sector":"195332011060040001","pcode":"CO19533","area_m2":45283}}]}},"arcs":[[[4487,9545],[-13,-9],[3,-73],[-21,-13],[-7,71],[-36,-27],[-3,36]],[[4410,9530],[21,16]],[[4431,9546],[97,79],[11,31],[19,-72]],[[4558,9584],[-71,-39]],[[1381,1424],[8,-50],[-42,-56],[-5,44],[-44,-64],[5,-40],[-65,-80],[-64,-94],[-46,-113],[-22,66],[30,78],[-49,115],[-52,47],[38,133],[22,-44],[-11,-38],[8,-26],[15,45],[25,-59],[10,25],[17,-44],[12,27],[11,-25],[14,36],[32,-62],[150,209],[3,-30]],[[2673,2789],[-17,-67],[-41,97],[-46,-31],[-8,91],[71,46],[28,68],[21,133],[27,-50],[-24,-143],[-32,-85],[21,-59]],[[2769,2394],[-13,-26],[-9,68],[-11,-16],[-27,102],[20,72],[38,-59],[-4,-71],[6,-70]],[[44,3160],[5,-74],[-4,-142],[-45,2],[9,185],[11,36],[24,-7]],[[4603,9093],[-12,122],[-5,117],[-21,127],[-7,125]],[[4431,9546],[-2,30],[41,102],[7,-27],[58,154]],[[4535,9805],[7,-43],[36,45],[22,-149],[-3,-180],[1,-155],[13,-222],[-8,-8]],[[4603,9093],[17,-77],[44,-54],[-1,-53],[-34,36],[-62,-134],[-1,49],[-15,12],[13,178],[-11,202],[-13,2],[0,61],[-41,164],[-12,66]],[[4410,9530],[-24,-20],[-3,103],[-12,-18],[-60,6],[10,110],[-28,3],[18,77],[25,-1],[-1,187],[35,-1],[18,23],[9,-66],[36,-14],[5,62],[45,-34],[11,-53],[27,20],[14,-109]],[[8064,1060],[-18,-112],[-10,-30],[13,-60],[45,15],[3,-98],[-15,-4],[-26,-58],[-17,11],[-21,69],[3,77],[-18,48],[39,77],[-4,76],[26,-11]],[[9918,282],[13,-45],[21,-177],[-18,-60],[-21,58],[-17,101],[-4,101],[26,22]],[[9970,298],[22,-2],[-5,-59],[-17,61]]]}
