{"type":"Topology","bbox":[-76.7496378839407,2.973461462329566,-76.5968690756103,3.1173300881040964],"transform":{"scale":[0.000015278408673906675,0.00001438830140759379],"translate":[-76.7496378839407,2.973461462329566]},"objects":{"municipios":{"type":"GeometryCollection","geometries":[{"type":"Polygon","arcs":[[0]],"properties":{"codigo":"19110200702006000101","sector":"191102007020060001","pcode":"CO19110","area_m2":65143}},{"type":"Polygon","arcs":[[1]],"properties":{"codigo":"19110200702029000101","sector":"191102007020290001","pcode":"CO19110","area_m2":105343}},{"type":"Polygon","arcs":[[2]],"properties":{"codigo":"19110200205030000101","sector":"191102002050300001","pcode":"CO19110","area_m2":214885}},{"type":"Polygon","arcs":[[3]],"properties":{"codigo":"19110200202025000101","sector":"191102002020250001","pcode":"CO19110","area_m2":41538}},{"type":"Polygon","arcs":[[4]],"properties":{"codigo":"19110200702013000101","sector":"191102007020130001","pcode":"CO19110","area_m2":155945}},{"type":"Polygon","arcs":[[5,6]],"properties":{"codigo":"19110100000000000101","sector":"191101000000000001","pcode":"CO19110","area_m2":303698}},{"type":"Polygon","arcs":[[7]],"properties":{"codigo":"19110200601016000101","sector":"191102006010160001","pcode":"CO19110","area_m2":184118}},{"type":"Polygon","arcs":[[-6,8]],"properties":{"codigo":"19110100000000000102","sector":"191101000000000001","pcode":"CO19110","area_m2":249646}},{"type":"Polygon","arcs":[[9]],"properties":{"codigo":"19110200602007000101","sector":"191102006020070001","pcode":"CO19110","area_m2":248798}},{"type":"Polygon","arcs":[[10]],"properties":{"codigo":"19110200101008000101","sector":"191102001010080001","pcode":"CO19110","area_m2":296348}},{"type":"Polygon","arcs":[[11]],"properties":{"codigo":"19110200101012000101","sector":"191102001010120001","pcode":"CO19110","area_m2":352260}}]}},"arcs":[[[2566,8177],[-2,-60],[12,-1],[-13,-70],[-1,-63],[33,-59],[-24,-55],[-47,-62],[-50,30],[-34,67],[40,33],[22,77],[53,111],[-8,52],[19,0]],[[790,6756],[31,-12],[-90,-85],[-23,-63],[10,-53],[-28,-82],[-31,-44],[-32,0],[5,41],[-38,-2],[-1,46],[54,32],[-57,83],[-90,19],[4,32],[30,86],[63,-51],[15,8],[20,-35],[35,-9],[91,82],[32,7]],[[5203,571],[18,-18],[-7,-34],[73,-129],[39,-10],[17,-24],[60,-3],[5,24],[28,-8],[39,16],[22,-8],[44,46],[13,-30],[-49,-50],[6,-26],[-26,-32],[7,-39],[-9,-147],[-22,-5],[41,-36],[4,-58],[-17,49],[-42,46],[-52,93],[0,11],[-59,-32],[-47,-13],[-15,40],[-41,1],[-50,-28],[-44,0],[-66,-21],[-30,9],[-25,-16],[0,46],[16,22],[51,-2],[44,14],[14,39],[24,-1],[59,31],[37,46],[2,57],[-37,39],[-38,70],[-4,67],[17,4]],[[6229,1702],[64,-7],[6,-41],[34,-35],[15,4],[9,-38],[34,-55],[20,-83],[-47,25],[13,-38],[-71,18],[14,70],[23,2],[-26,72],[-41,42],[-17,49],[-61,2],[-41,-30],[27,35],[45,8]],[[409,8454],[-74,-39],[11,-16],[-1,-64],[-33,-71],[-18,-6],[21,-51],[-35,-26],[-65,33],[1,-45],[-13,-68],[-32,-30],[-25,41],[-51,35],[14,14],[-62,22],[-47,32],[47,-12],[7,54],[70,29],[-3,23],[95,58],[-19,18],[37,41],[27,-24],[39,20],[-8,17],[40,17],[27,-6],[47,17],[3,-13]],[[6812,2372],[41,69],[47,51],[-14,47],[1,55],[46,96],[0,105],[27,2],[11,73],[55,57],[33,22],[8,25],[44,67],[-34,60],[-5,47]],[[7072,3148],[72,48],[5,38],[84,-19],[32,40],[37,-73],[-39,-60],[-24,-22],[15,-60],[55,-34],[4,-68],[61,14],[6,-42],[-67,6],[-10,-43],[-54,41],[-75,-6],[-42,-33],[0,-27],[-32,-17],[-54,-10],[-31,-30],[-12,-39],[55,-15],[26,9],[-20,-51],[-93,28],[21,-26],[-9,-33],[-41,-44],[-28,-58],[71,-107],[-11,-28],[-44,12],[9,-70],[-34,-4],[-28,39],[-51,-43],[-14,11]],[[5935,6019],[14,-1],[1,-124],[92,3],[-23,-85],[86,-3],[-18,-50],[0,-38],[75,29],[11,-61],[-6,-46],[-32,-18],[-39,-77],[-51,-29],[51,-142],[24,-106],[-98,-11],[19,41],[0,44],[-27,51],[18,5],[-5,37],[-21,0],[-14,40],[23,69],[11,-2],[0,54],[41,114],[-32,27],[-39,6],[-48,38],[-24,-14],[-3,42],[-22,7],[7,66],[-22,50],[-49,26],[-1,19],[76,37],[25,2]],[[6812,2372],[-17,-16],[-27,34],[31,37],[13,-10],[22,49],[30,-3],[9,24],[-26,3],[16,101],[6,89],[41,38],[-37,66],[30,36],[-12,42],[-43,-12],[-18,16],[25,27],[-21,6],[-3,37],[14,40],[-37,11],[27,26],[1,45],[61,54],[2,90],[26,29],[44,-26],[32,12],[38,-24],[13,-39],[20,-6]],[[4782,1346],[24,3],[46,-31],[65,39],[9,-34],[41,-33],[-43,-27],[-22,-2],[-28,-31],[5,-61],[24,-33],[-9,-30],[72,-86],[34,-21],[19,-29],[57,-25],[17,-21],[-21,-27],[-40,47],[-50,3],[-4,-22],[-51,-14],[-84,11],[-32,49],[-52,4],[-5,23],[12,69],[-61,39],[-67,-6],[0,28],[31,60],[26,23],[-44,28],[0,14],[46,15],[38,42],[25,52],[22,-16]],[[9904,8214],[-1,-39],[17,-39],[66,-19],[-28,-24],[41,-68],[-18,-18],[-21,17],[-43,-72],[25,-86],[-22,15],[-105,36],[-18,-49],[-21,-1],[-13,27],[-53,8],[-27,28],[-17,-22],[-37,9],[-47,39],[-38,50],[-39,-17],[-11,33],[-30,19],[15,38],[98,21],[51,-29],[-5,14],[60,25],[44,60],[15,43],[51,2],[15,39],[97,-19],[-1,-21]],[[8219,9998],[-77,-326],[-19,-50],[-59,-44],[-60,-101],[-62,-92],[-8,6],[55,80],[61,103],[-83,43],[-47,-75],[-6,23],[-64,4],[-33,28],[-10,46],[61,9],[36,-3],[-32,33],[-57,139],[-29,35],[36,84],[26,-4],[45,43],[-1,-57],[59,-23],[16,43],[38,17],[7,28],[91,-11],[61,19],[55,3]]]}
