{"type":"Topology","bbox":[-77.07229960263902,2.262124372685256,-76.7284277331866,2.641031967498225],"transform":{"scale":[0.0000343906260078422,0.000037894548936190516],"translate":[-77.07229960263902,2.262124372685256]},"objects":{"municipios":{"type":"GeometryCollection","geometries":[{"type":"Polygon","arcs":[[0]],"properties":{"codigo":"19256202104033000101","sector":"192562021040330001","pcode":"CO19256","area_m2":39286}},{"type":"Polygon","arcs":[[1]],"properties":{"codigo":"19256202201004000101","sector":"192562022010040001","pcode":"CO19256","area_m2":163743}},{"type":"Polygon","arcs":[[2]],"properties":{"codigo":"19256202301005000101","sector":"192562023010050001","pcode":"CO19256","area_m2":51449}},{"type":"Polygon","arcs":[[3]],"properties":{"codigo":"19256202203007000101","sector":"192562022030070001","pcode":"CO19256","area_m2":17894}},{"type":"Polygon","arcs":[[4]],"properties":{"codigo":"19256202207009000101","sector":"192562022070090001","pcode":"CO19256","area_m2":139888}},{"type":"Polygon","arcs":[[5]],"properties":{"codigo":"19256201404014000101","sector":"192562014040140001","pcode":"CO19256","area_m2":64237}},{"type":"Polygon","arcs":[[6]],"properties":{"codigo":"19256202402015000101","sector":"192562024020150001","pcode":"CO19256","area_m2":24036}},{"type":"Polygon","arcs":[[7]],"properties":{"codigo":"19256202302019000101","sector":"192562023020190001","pcode":"CO19256","area_m2":24448}},{"type":"Polygon","arcs":[[8]],"properties":{"codigo":"19256202204020000101","sector":"192562022040200001","pcode":"CO19256","area_m2":136740}},{"type":"Polygon","arcs":[[9]],"properties":{"codigo":"19256202102022000101","sector":"192562021020220001","pcode":"CO19256","area_m2":50713}},{"type":"Polygon","arcs":[[10]],"properties":{"codigo":"19256202505028000101","sector":"192562025050280001","pcode":"CO19256","area_m2":42337}},{"type":"Polygon","arcs":[[11]],"properties":{"codigo":"19256202504032000101","sector":"192562025040320001","pcode":"CO19256","area_m2":12986}},{"type":"Polygon","arcs":[[12]],"properties":{"codigo":"19256202301058000101","sector":"192562023010580001","pcode":"CO19256","area_m2":34456}},{"type":"Polygon","arcs":[[13]],"properties":{"codigo":"19256202301059000101","sector":"192562023010590001","pcode":"CO19256","area_m2":34075}},{"type":"Polygon","arcs":[[14]],"properties":{"codigo":"19256200605060000101","sector":"192562006050600001","pcode":"CO19256","area_m2":14724}},{"type":"Polygon","arcs":[[15]],"properties":{"codigo":"19256201403061000101","sector":"192562014030610001","pcode":"CO19256","area_m2":27814}},{"type":"Polygon","arcs":[[16]],"properties":{"codigo":"19256202102062000101","sector":"192562021020620001","pcode":"CO19256","area_m2":26343}},{"type":"Polygon","arcs":[[17,18]],"properties":{"codigo":"19256100000000000101","sector":"192561000000000001","pcode":"CO19256","area_m2":871798}},{"type":"Polygon","arcs":[[-18,19]],"properties":{"codigo":"19256100000000000102","sector":"192561000000000001","pcode":"CO19256","area_m2":320953}},{"type":"Polygon","arcs":[[20]],"properties":{"codigo":"19256202201001000101","sector":"192562022010010001","pcode":"CO19256","area_m2":216003}},{"type":"Polygon","arcs":[[21]],"properties":{"codigo":"19256201501012000101","sector":"192562015010120001","pcode":"CO19256","area_m2":88423}},{"type":"Polygon","arcs":[[22]],"properties":{"codigo":"19256202004013000101","sector":"192562020040130001","pcode":"CO19256","area_m2":75758}},{"type":"Polygon","arcs":[[23]],"properties":{"codigo":"19256201801016000101","sector":"192562018010160001","pcode":"CO19256","area_m2":18297}},{"type":"Polygon","arcs":[[24]],"properties":{"codigo":"19256202203025000101","sector":"192562022030250001","pcode":"CO19256","area_m2":56752}},{"type":"Polygon","arcs":[[25]],"properties":{"codigo":"19256202503027000101","sector":"192562025030270001","pcode":"CO19256","area_m2":97729}},{"type":"Polygon","arcs":[[26]],"properties":{"codigo":"19256201403029000101","sector":"192562014030290001","pcode":"CO19256","area_m2":203522}},{"type":"Polygon","arcs":[[27]],"properties":{"codigo":"19256201405031000101","sector":"192562014050310001","pcode":"CO19256","area_m2":15324}},{"type":"Polygon","arcs":[[28]],"properties":{"codigo":"19256202102034000101","sector":"192562021020340001","pcode":"CO19256","area_m2":62202}},{"type":"Polygon","arcs":[[29]],"properties":{"codigo":"19256201301036000101","sector":"192562013010360001","pcode":"CO19256","area_m2":51288}},{"type":"MultiPolygon","arcs":[[[30]],[[31]]],"properties":{"codigo":"19256202201063000101","sector":"192562022010630001","pcode":"CO19256","area_m2":24430}},{"type":"MultiPolygon","arcs":[[[32]],[[33]],[[34]]],"properties":{"codigo":"19256202201064000101","sector":"192562022010640001","pcode":"CO19256","area_m2":128966}},{"type":"Polygon","arcs":[[35]],"properties":{"codigo":"19256202201065000101","sector":"192562022010650001","pcode":"CO19256","area_m2":20732}}]}},"arcs":[[[4988,1743],[11,-17],[-4,-8],[7,-23],[-19,-7],[-6,12],[-14,0],[-30,-16],[-8,3],[2,25],[36,13],[25,18]],[[6741,3832],[6,-12],[14,-1],[-1,-18],[20,-5],[13,-8],[-11,-39],[-14,-5],[0,-17],[-11,-20],[0,-14],[13,-4],[1,-17],[21,-6],[9,-13],[-13,-21],[0,-14],[-20,-6],[-10,8],[-9,16],[3,-20],[-9,1],[-5,20],[-15,9],[-17,1],[-6,7],[12,2],[8,19],[8,8],[5,19],[0,41],[-22,2],[9,19],[9,3],[4,39],[5,15],[-7,14],[10,-3]],[[5565,5532],[-14,-15],[5,-5],[-19,-14],[-4,-24],[-3,10],[-16,4],[-33,17],[16,25],[8,3],[19,-11],[20,8],[28,34],[19,14],[6,-11],[-32,-35]],[[8457,4122],[5,-6],[1,-19],[10,-17],[18,-13],[17,-3],[17,-15],[-8,-7],[-14,13],[-17,3],[-21,16],[-13,20],[-1,29],[6,-1]],[[9851,5128],[34,-18],[29,-19],[25,22],[9,-13],[-25,-19],[21,-22],[26,-14],[-12,-10],[9,-20],[32,-28],[-7,-8],[-8,4],[-9,-9],[-30,31],[2,1],[-20,36],[-29,27],[-21,-34],[-13,-8],[-30,-11],[-31,-5],[5,20],[21,11],[22,3],[11,7],[12,35],[-54,30],[7,12],[13,-7],[-2,13],[13,-7]],[[3277,4514],[0,-12],[7,2],[8,-28],[-1,-14],[-13,-2],[-6,21],[-34,-12],[-12,-14],[-11,-5],[-13,2],[-16,10],[-19,0],[10,-5],[10,-28],[3,-53],[-8,-2],[-4,35],[-15,-5],[-9,23],[16,9],[-2,16],[-8,20],[37,-4],[13,-8],[16,12],[23,9],[-12,22],[24,6],[10,13],[6,-8]],[[7945,6949],[-6,13],[18,8],[6,-5],[6,-21],[11,-21],[15,-17],[25,-5],[-6,-16],[-23,6],[0,7],[-19,14],[3,4],[-11,11],[1,13],[-20,9]],[[5093,4680],[18,8],[12,-5],[11,8],[45,4],[4,-8],[-32,-3],[-13,-21],[5,-6],[-9,-7],[-14,-1],[-12,30],[-15,1]],[[8805,4488],[-9,-6],[-29,42],[-6,4],[-18,-24],[-9,21],[-23,16],[26,22],[-28,35],[-43,32],[1,2],[-90,64],[6,7],[-19,14],[7,7],[38,-30],[11,-7],[5,6],[16,-9],[19,-18],[-5,-5],[65,-51],[13,-18],[16,-15],[14,1],[5,-10],[-7,-7],[24,-11],[8,-10],[17,-10],[8,-23],[-13,-19]],[[6085,1587],[5,-14],[-14,4],[-4,-18],[-33,6],[2,-17],[-11,2],[-3,11],[-18,-2],[-37,-11],[-13,0],[-5,8],[20,11],[1,16],[41,2],[27,0],[4,-5],[19,4],[2,-5],[17,8]],[[6357,7694],[12,0],[2,-12],[-7,-14],[10,-28],[-15,-10],[-19,20],[-39,13],[16,15],[-1,9],[29,10],[12,-3]],[[6386,5820],[35,-10],[-5,-20],[-37,13],[-4,7],[11,10]],[[5323,5528],[21,2],[-10,-15],[-12,4],[-4,-18],[-20,-18],[-19,-32],[4,-17],[20,-12],[-18,0],[-10,14],[-10,-1],[9,36],[-9,8],[15,17],[10,-4],[26,33],[8,17],[6,-2],[-7,-12]],[[5531,5181],[3,10],[-4,16],[13,7],[5,-13],[12,-9],[21,-9],[4,10],[15,-5],[4,-30],[13,-7],[-6,-10],[-22,20],[-14,-3],[-27,24],[-17,-1]],[[6666,9981],[7,-5],[19,8],[17,-33],[-10,9],[-10,-5],[-16,14],[-9,-3],[-7,21],[9,-6]],[[5226,5750],[38,-61],[13,-13],[-10,-10],[-32,32],[-11,22],[-20,23],[8,9],[14,-2]],[[6553,2516],[-4,-8],[-23,-9],[-14,-15],[-14,-3],[-17,15],[28,26],[15,-6],[17,2],[9,13],[3,-15]],[[7679,5109],[-15,-21],[-3,-19],[5,-18],[-1,-17],[10,-13],[-5,-11],[-27,-7],[-7,-10],[-7,-42],[7,-19],[39,2],[20,-20]],[[7695,4914],[0,-7],[-27,-23],[-13,-17],[-17,-6],[-31,-25],[-16,-4],[-20,-23],[-17,-26],[-6,-1],[22,38],[14,11],[0,25],[-11,-8],[-1,16],[7,22],[-19,7],[10,17],[-14,3],[-10,-13],[-30,5],[-4,9],[-21,14],[-15,-5],[-4,-8],[1,-22],[-24,-1],[-7,-38],[-19,-6],[-7,-12],[-16,-4],[-9,22],[-9,-1],[-13,11],[2,10],[14,2],[33,48],[9,20],[-8,12],[15,6],[7,12],[16,-8],[17,8],[24,18],[10,23],[-13,27],[3,21],[-10,16],[0,16],[7,7],[6,18],[17,26],[12,3],[15,-7],[6,-11],[10,19],[17,4],[20,-5],[-5,13],[3,9],[32,3],[28,-5],[27,18],[-8,-18],[-13,-7],[-27,-24],[-3,-6],[21,1],[10,-21],[6,4],[10,-7]],[[7679,5109],[8,17],[22,-12],[0,-7],[12,-8],[13,-18],[6,-24],[14,-4],[9,-13],[0,-12],[-17,-6],[-6,2],[8,-43],[12,-9],[10,-16],[8,-28],[-3,-15],[-24,-8],[-21,-1],[-17,-26],[-17,6],[-9,10],[15,10],[-7,10]],[[6311,4729],[17,-30],[49,-42],[14,-28],[26,-5],[13,11],[25,4],[2,-12],[31,-42],[-29,-16],[-30,-4],[-2,9],[15,15],[-1,5],[-24,8],[-28,4],[-22,23],[-14,4],[-15,-8],[-5,-15],[2,-33],[-1,-18],[-13,-8],[0,25],[-7,29],[-7,6],[16,27],[10,6],[-2,25],[-27,16],[-14,22],[-44,-1],[-15,-13],[-54,44],[16,15],[28,-17],[25,-9],[9,17],[-3,25],[39,-21],[20,-18]],[[276,6520],[-9,-33],[5,-1],[-5,-21],[-15,-18],[-36,-9],[-15,0],[11,30],[-25,3],[-17,15],[-15,0],[-10,24],[6,7],[19,-21],[22,1],[18,18],[15,-5],[6,8],[18,-13],[12,14],[15,1]],[[5114,77],[1,-26],[-26,-36],[-19,-6],[-5,-8],[-32,8],[9,9],[-22,19],[8,6],[15,22],[27,13],[7,-6],[18,-1],[15,11],[4,-5]],[[40,4633],[5,-13],[-9,-13],[-6,-20],[2,-10],[-32,6],[20,16],[-2,23],[22,11]],[[9482,3582],[5,-3],[-17,-10],[-1,-13],[7,-29],[-23,-5],[-10,6],[-35,1],[-17,-2],[-17,-15],[1,-24],[6,-15],[-6,-4],[-8,31],[3,6],[-10,10],[2,9],[13,20],[-11,7],[19,27],[10,-11],[-10,-12],[11,-7],[14,6],[6,-9],[18,-7],[23,2],[9,15],[-3,19],[4,7],[17,0]],[[8319,8628],[11,-3],[4,-15],[12,-25],[-1,-12],[-12,-15],[6,-10],[-11,-3],[-11,16],[-12,-7],[-9,-13],[3,-12],[9,-6],[1,-17],[14,-31],[-11,-37],[-10,14],[-14,10],[8,19],[-4,14],[-9,-1],[0,30],[-8,10],[-4,19],[-10,15],[-2,13],[22,-2],[6,7],[11,-3],[13,5],[2,23],[6,17]],[[4617,6018],[-2,-5],[21,-14],[-5,-6],[18,-19],[32,-17],[12,0],[7,-11],[-11,-17],[-16,3],[-18,20],[-7,-5],[-10,16],[-25,-16],[7,11],[0,25],[-16,17],[-38,1],[-36,-2],[0,8],[-22,-3],[-41,-19],[-30,0],[-20,-7],[5,-17],[-52,-13],[-19,3],[-46,-4],[-3,9],[-17,2],[-11,18],[-18,-1],[-2,19],[26,-2],[22,7],[23,-4],[29,-15],[31,5],[19,17],[13,4],[33,6],[10,6],[8,-15],[37,21],[4,-6],[22,-1],[48,1],[25,20],[8,-6],[-4,-8],[9,-6]],[[2796,4028],[5,-28],[-20,-5],[-16,20],[28,23],[3,-10]],[[5992,2325],[-29,-11],[-7,-11],[-6,4],[-53,-29],[-20,-6],[-18,-17],[-23,13],[-7,13],[15,5],[-11,30],[19,2],[23,-31],[45,19],[30,17],[20,6],[34,16],[8,-2],[-4,-10],[-16,-8]],[[1591,8813],[27,3],[14,-21],[31,-20],[-7,-23],[-6,4],[-17,-11],[-6,-20],[-10,24],[9,12],[-2,6],[-44,33],[-14,3],[11,17],[14,-7]],[[6701,4520],[15,1],[-2,-7],[-14,3],[-13,11],[6,5],[8,-13]],[[6693,4599],[10,-11],[16,8],[-17,-18],[-4,-26],[-11,3],[-11,-20],[-9,8],[-4,20],[28,10],[-1,23],[3,3]],[[6885,4598],[-5,-17],[-32,5],[-1,23],[-24,10],[-33,-1],[40,20],[12,9],[26,-8],[3,-14],[17,1],[14,24],[-1,14],[18,0],[8,-14],[17,-2],[-9,-18],[-24,-3],[-24,-10],[-2,-19]],[[7124,4718],[0,-4],[-27,-8],[-23,-18],[-28,1],[0,6],[17,-3],[15,3],[11,17],[35,6]],[[6880,4815],[12,-14],[33,-16],[39,-36],[-13,-23],[21,-18],[27,-18],[23,2],[3,-6],[-31,3],[-17,-12],[-17,-7],[-1,29],[-9,2],[10,13],[-7,6],[-11,-10],[-10,11],[5,32],[-16,22],[3,3],[-35,17],[-18,18],[9,2]],[[6564,4598],[14,-2],[-9,15],[7,31],[6,-3],[4,12],[11,-1],[3,-8],[-8,-13],[-6,4],[-12,-22],[27,-5],[13,-16],[-11,-13],[-10,-1],[2,18],[-17,-11],[-11,4],[-3,11]]]}
