{"type":"Topology","bbox":[-77.32190152809426,1.6924137111813968,-77.04598278413994,1.9395525871072743],"transform":{"scale":[0.000027594633858817996,0.000024716359228510598],"translate":[-77.32190152809426,1.6924137111813968]},"objects":{"municipios":{"type":"GeometryCollection","geometries":[{"type":"Polygon","arcs":[[0,1,2]],"properties":{"codigo":"19450100000000000101","sector":"194501000000000001","pcode":"CO19450","area_m2":215569}},{"type":"Polygon","arcs":[[3]],"properties":{"codigo":"19450200202019000101","sector":"194502002020190001","pcode":"CO19450","area_m2":171358}},{"type":"Polygon","arcs":[[4,5,-1,6]],"properties":{"codigo":"19450100000000000102","sector":"194501000000000001","pcode":"CO19450","area_m2":181994}},{"type":"Polygon","arcs":[[-6,7,8,9,10,-2]],"properties":{"codigo":"19450100000000000103","sector":"194501000000000001","pcode":"CO19450","area_m2":236403}},{"type":"Polygon","arcs":[[11,-9,12]],"properties":{"codigo":"19450100000000000104","sector":"194501000000000001","pcode":"CO19450","area_m2":141516}},{"type":"Polygon","arcs":[[13,14]],"properties":{"codigo":"19450200604002000101","sector":"194502006040020001","pcode":"CO19450","area_m2":105098}},{"type":"Polygon","arcs":[[-14,15]],"properties":{"codigo":"19450200604002000102","sector":"194502006040020001","pcode":"CO19450","area_m2":69801}},{"type":"Polygon","arcs":[[16]],"properties":{"codigo":"19450200403020000101","sector":"194502004030200001","pcode":"CO19450","area_m2":50640}},{"type":"MultiPolygon","arcs":[[[17]],[[18]],[[19]]],"properties":{"codigo":"19450200405004000101","sector":"194502004050040001","pcode":"CO19450","area_m2":30714}},{"type":"Polygon","arcs":[[20]],"properties":{"codigo":"19450200703012000101","sector":"194502007030120001","pcode":"CO19450","area_m2":15076}},{"type":"Polygon","arcs":[[21]],"properties":{"codigo":"19450200503014000101","sector":"194502005030140001","pcode":"CO19450","area_m2":75200}},{"type":"Polygon","arcs":[[22]],"properties":{"codigo":"19450200301015000101","sector":"194502003010150001","pcode":"CO19450","area_m2":16888}},{"type":"Polygon","arcs":[[23]],"properties":{"codigo":"19450200603016000101","sector":"194502006030160001","pcode":"CO19450","area_m2":36391}},{"type":"Polygon","arcs":[[24]],"properties":{"codigo":"19450200704026000101","sector":"194502007040260001","pcode":"CO19450","area_m2":63843}},{"type":"MultiPolygon","arcs":[[[25]],[[26]]],"properties":{"codigo":"19450200701027000101","sector":"194502007010270001","pcode":"CO19450","area_m2":23597}},{"type":"Polygon","arcs":[[27]],"properties":{"codigo":"19450200701023000101","sector":"194502007010230001","pcode":"CO19450","area_m2":19740}},{"type":"Polygon","arcs":[[28]],"properties":{"codigo":"19450200501010000101","sector":"194502005010100001","pcode":"CO19450","area_m2":55043}},{"type":"Polygon","arcs":[[29,30,31,32,-10,-12]],"properties":{"codigo":"19450100000000000105","sector":"194501000000000001","pcode":"CO19450","area_m2":582844}},{"type":"Polygon","arcs":[[33]],"properties":{"codigo":"19450200202024000101","sector":"194502002020240001","pcode":"CO19450","area_m2":47934}},{"type":"Polygon","arcs":[[34]],"properties":{"codigo":"19450200203025000101","sector":"194502002030250001","pcode":"CO19450","area_m2":33616}},{"type":"Polygon","arcs":[[-30,-13,-8,-5,35]],"properties":{"codigo":"19450100000000000106","sector":"194501000000000001","pcode":"CO19450","area_m2":460845}},{"type":"Polygon","arcs":[[36,37,-32,38]],"properties":{"codigo":"19450100000000000201","sector":"194501000000000002","pcode":"CO19450","area_m2":444325}},{"type":"Polygon","arcs":[[39,-37]],"properties":{"codigo":"19450100000000000202","sector":"194501000000000002","pcode":"CO19450","area_m2":380453}},{"type":"Polygon","arcs":[[40]],"properties":{"codigo":"19450200101003000101","sector":"194502001010030001","pcode":"CO19450","area_m2":136015}},{"type":"Polygon","arcs":[[41]],"properties":{"codigo":"19450200403006000101","sector":"194502004030060001","pcode":"CO19450","area_m2":154475}},{"type":"Polygon","arcs":[[42]],"properties":{"codigo":"19450200702007000101","sector":"194502007020070001","pcode":"CO19450","area_m2":82000}}]}},"arcs":[[[5584,4649],[13,-50],[-10,-89],[39,-71],[-56,-48]],[[5570,4391],[-12,25]],[[5558,4416],[-30,11],[-17,-4],[-18,12],[-8,21],[-18,2],[-48,-6],[-2,38],[-25,19],[-13,24],[-26,2],[25,38],[23,-16],[0,-16],[61,-33],[9,44],[32,-9],[-1,-37],[16,47],[49,39],[1,45],[-8,13],[24,-1]],[[4526,8102],[15,-15],[71,-17],[33,-32],[6,-19],[-11,-10],[-40,47],[-19,9],[-34,-11],[14,-34],[-22,-4],[-5,-92],[16,-34],[15,-15],[-6,-19],[-50,-97],[-3,-29],[-22,22],[-19,58],[19,50],[3,64],[15,46],[-7,78],[-6,12],[32,4],[-3,36],[8,2]],[[5738,4358],[6,-31]],[[5744,4327],[-14,11],[-22,-13],[6,25],[-28,42],[-27,-36],[15,-27],[-26,-11],[-5,17],[-18,11],[-13,27],[-19,-15],[-23,33]],[[5584,4649],[23,-9],[8,-32],[27,3],[11,-16],[-27,-6],[-13,-36],[7,-9],[24,7],[24,-22],[-20,-18],[2,-23],[23,-7],[31,-34],[19,-47],[-6,-22],[21,-20]],[[5744,4327],[18,6],[10,-16]],[[5772,4317],[-13,-20],[-20,-7],[-44,-41],[25,-33],[-25,-24],[12,-20],[-15,-6]],[[5692,4166],[1,-81]],[[5693,4085],[-11,1],[-19,39],[6,50],[-13,19],[0,28],[-68,30],[3,30],[-10,14],[-41,9],[-11,14],[-2,31],[-13,12],[19,44],[25,10]],[[5815,4035],[-2,39],[-34,9],[-3,26],[7,29],[-45,42],[0,-12],[-46,-2]],[[5772,4317],[1,-22],[39,0],[-14,-27],[11,-35],[-13,-23],[2,-25],[11,-12],[26,2],[8,-16],[-22,-22],[7,-24],[-17,-20],[10,-18],[-6,-40]],[[4323,459],[16,-22],[6,11],[24,-21],[9,7],[53,-80]],[[4431,354],[-32,-36],[-29,8],[-25,-37],[-43,0],[3,30],[15,26],[-23,49],[13,2],[26,32],[-21,11],[8,20]],[[4323,459],[17,14],[73,16],[12,-17],[-13,-10],[30,-38],[12,10],[23,-28],[-46,-52]],[[9082,3956],[7,1],[20,-65],[-36,-78],[-31,6],[8,78],[24,35],[-15,13],[23,10]],[[9773,2219],[11,2],[48,-26],[-18,28],[34,-29],[25,4],[7,-9],[-56,2],[3,-18],[-12,7],[0,16],[-26,14],[-20,-3],[-20,7],[24,5]],[[9981,2142],[15,2],[-1,-24],[-25,-11],[-3,9],[-22,-6],[18,15],[-10,28],[28,-13]],[[9918,2209],[-5,-52],[-9,0],[-6,26],[25,61],[6,-5],[-11,-30]],[[2803,1463],[15,-38],[-43,-14],[-1,37],[11,5],[2,36],[16,-26]],[[6305,603],[4,-42],[18,-31],[-18,-66],[-8,-42],[0,-37],[-42,-17],[0,42],[9,11],[15,63],[-18,6],[1,15],[19,5],[-4,36],[-16,7],[18,48],[22,2]],[[759,3609],[69,-57],[-23,11],[-8,-10],[-17,8],[-7,-12],[-11,29],[-9,3],[-12,25],[18,3]],[[5685,753],[-2,-13],[63,-17],[-7,-14],[-65,18],[-23,-3],[-10,12],[-20,1],[-19,21],[13,10],[17,-19],[24,-8],[5,27],[-18,2],[8,24],[30,1],[18,-20],[-3,-22],[-11,0]],[[0,35],[41,99],[62,-30],[-43,-104],[-60,35]],[[2369,2894],[-27,-49],[5,-15],[-25,-9],[-24,13],[11,22],[13,-11],[0,23],[17,25],[30,1]],[[2313,2770],[-10,15],[19,12],[-9,-27]],[[2283,2599],[17,-14],[-78,-56],[-13,16],[24,23],[52,39],[-2,-8]],[[7302,3264],[-7,-26],[-20,0],[-16,-12],[27,-24],[-9,-14],[-21,23],[-46,-39],[-16,-8],[13,-18],[-43,-5],[-9,12],[-36,3],[14,23],[-9,18],[19,-9],[42,-3],[25,21],[-3,7],[22,16],[5,-8],[53,50],[15,-7]],[[5815,4035],[-7,-23],[15,4]],[[5823,4016],[17,-31],[-22,-6],[-10,-15],[0,-26],[-21,-9],[-4,-19],[12,-28],[22,-2],[12,-61],[0,-17],[-17,-13],[-46,-4],[-5,-28],[-31,-31],[1,-34]],[[5731,3692],[-26,1],[-9,-88],[-18,-8],[-39,-46],[-3,-34],[-19,-10]],[[5617,3507],[-2,61],[-11,14],[54,33],[6,16],[7,68],[14,21],[-10,6],[-63,-20],[-23,-1],[20,94],[1,84],[50,4],[56,-4],[0,18],[-13,0],[-2,69],[-15,17],[7,98]],[[4818,8226],[-1,-41],[-7,-13],[-26,-5],[-5,-14],[-20,-11],[-49,1],[39,42],[-7,4],[15,28],[11,-9],[25,22],[7,-6],[14,50],[4,-48]],[[2484,6418],[17,-7],[-19,-27],[-4,-20],[-15,16],[-24,-39],[4,-4],[-13,-42],[-16,5],[-7,17],[16,51],[22,35],[13,-10],[16,25],[10,0]],[[5738,4358],[0,33],[21,1],[12,16],[22,-3],[-33,96],[19,8],[12,-34],[35,1],[53,15],[0,-9],[32,9],[21,-10],[-19,-18],[45,-1],[-1,-32],[-8,-70],[-9,-26],[-47,-37],[-11,-47],[43,-20],[-17,-40],[-26,7],[-2,-19],[27,-70],[-4,-25],[-20,-22],[-28,-7],[-9,-20],[-23,-18]],[[5791,3345],[-16,-13],[-27,32],[-26,-6],[27,-82],[-39,-13],[-47,-27],[-10,14],[-19,-10],[-56,0]],[[5578,3240],[-10,5],[5,29],[16,42],[3,22],[-6,34],[-19,44],[-15,15],[12,20],[4,38],[15,1],[34,17]],[[5731,3692],[21,4],[0,-11],[-32,-2],[-5,-39],[7,-1],[-3,-32],[-7,0],[-5,-57],[5,-27],[-8,1],[-2,-31],[9,0],[-4,-36],[11,-50],[31,14],[1,7],[29,-5],[21,5],[12,-26],[2,-34],[-23,-27]],[[5791,3345],[10,-18],[-30,-12],[17,-57],[25,-3],[-2,-16],[22,-3],[-4,-28],[-32,-12],[10,-29],[-8,-16],[15,3],[11,-24],[-14,-5],[9,-33],[59,11],[8,-49],[-59,-43],[-4,22],[-23,10],[-39,32],[-19,3],[7,-19],[-23,-1],[-7,13],[-22,3],[-5,-23],[-33,15],[12,38],[-20,34],[-46,25],[-15,37],[-18,26],[5,14]],[[5943,9999],[27,-12],[10,-30],[38,10],[35,-43],[-39,-61],[-16,-3],[-23,-54],[-18,12],[-50,103],[6,9],[-10,28],[-1,34],[32,-3],[9,10]],[[8737,3424],[56,-9],[-2,-22],[46,-4],[6,21],[14,-17],[-9,-47],[12,-16],[1,-28],[23,-15],[35,-14],[38,-6],[25,9],[6,-9],[-40,-11],[-81,25],[-12,-16],[-42,-5],[-20,27],[-31,-6],[-13,7],[9,22],[-46,35],[18,43],[-20,31],[25,21],[2,-16]],[[1909,1746],[-12,-14],[-3,-37],[-22,-37],[-17,5],[-13,-24],[-41,21],[8,5],[-23,18],[-6,39],[27,33],[1,-24],[42,25],[30,-12],[27,18],[2,-16]]]}
