{"type":"Topology","bbox":[-76.88445108289278,1.9777454323828703,-76.67132684797559,2.145255510147903],"transform":{"scale":[0.00002131455494721357,0.000016752683044807772],"translate":[-76.88445108289278,1.9777454323828703]},"objects":{"municipios":{"type":"GeometryCollection","geometries":[{"type":"Polygon","arcs":[[0]],"properties":{"codigo":"19397200102004000101","sector":"193972001020040001","pcode":"CO19397","area_m2":10950}},{"type":"MultiPolygon","arcs":[[[1]],[[2]]],"properties":{"codigo":"19397200204001000101","sector":"193972002040010001","pcode":"CO19397","area_m2":82865}},{"type":"Polygon","arcs":[[3]],"properties":{"codigo":"19397200302009000101","sector":"193972003020090001","pcode":"CO19397","area_m2":93053}},{"type":"Polygon","arcs":[[4]],"properties":{"codigo":"19397200203012000101","sector":"193972002030120001","pcode":"CO19397","area_m2":12064}},{"type":"Polygon","arcs":[[5]],"properties":{"codigo":"19397200405018000101","sector":"193972004050180001","pcode":"CO19397","area_m2":39690}},{"type":"Polygon","arcs":[[6,7]],"properties":{"codigo":"19397100000000000101","sector":"193971000000000001","pcode":"CO19397","area_m2":241317}},{"type":"Polygon","arcs":[[-7,8]],"properties":{"codigo":"19397100000000000102","sector":"193971000000000001","pcode":"CO19397","area_m2":250580}},{"type":"Polygon","arcs":[[9]],"properties":{"codigo":"19397200301002000101","sector":"193972003010020001","pcode":"CO19397","area_m2":52055}},{"type":"MultiPolygon","arcs":[[[10]],[[11]],[[12]],[[13]]],"properties":{"codigo":"19397200405005000101","sector":"193972004050050001","pcode":"CO19397","area_m2":127257}},{"type":"Polygon","arcs":[[14]],"properties":{"codigo":"19397200101006000101","sector":"193972001010060001","pcode":"CO19397","area_m2":36970}},{"type":"Polygon","arcs":[[15]],"properties":{"codigo":"19397200505007000101","sector":"193972005050070001","pcode":"CO19397","area_m2":115907}},{"type":"Polygon","arcs":[[16]],"properties":{"codigo":"19397200501010000101","sector":"193972005010100001","pcode":"CO19397","area_m2":18627}},{"type":"Polygon","arcs":[[17]],"properties":{"codigo":"19397200202011000101","sector":"193972002020110001","pcode":"CO19397","area_m2":13662}},{"type":"Polygon","arcs":[[18]],"properties":{"codigo":"19397200501019000101","sector":"193972005010190001","pcode":"CO19397","area_m2":35421}},{"type":"Polygon","arcs":[[19]],"properties":{"codigo":"19397200506020000101","sector":"193972005060200001","pcode":"CO19397","area_m2":18254}}]}},"arcs":[[[1031,5544],[25,-3],[20,-36],[16,0],[-14,-13],[15,0],[5,-23],[-43,34],[-9,0],[-33,28],[4,9],[-12,19],[26,-15]],[[3365,6212],[9,-25],[14,-7],[-14,-25],[-11,-35],[-16,-15],[1,-28],[-7,11],[-12,-14],[-20,-4],[-17,-20],[-34,12],[1,-51],[9,1],[5,-38],[14,-41],[-9,-38],[7,-25],[12,-8],[7,14],[26,-10],[56,-12],[-5,-46],[-32,29],[-15,0],[-37,14],[-22,13],[-14,-3],[6,17],[-2,86],[-19,28],[-1,45],[-33,-2],[5,25],[30,-1],[-10,17],[3,27],[24,9],[7,-17],[26,39],[14,-2],[15,15],[6,-10],[28,25],[9,17],[-12,27],[8,6]],[[3482,6409],[11,2],[-9,-39],[-20,-21],[-2,-27],[-16,-67],[-25,-21],[-4,11],[19,14],[-8,29],[17,45],[7,33],[-13,8],[33,10],[1,29],[9,-6]],[[5146,8463],[10,-62],[14,-105],[8,1],[0,-34],[-7,-34],[11,-26],[-9,-6],[10,-30],[-8,-4],[-9,35],[-12,-4],[-5,-31],[-29,32],[-17,-37],[-34,-48],[-16,4],[6,47],[18,-4],[16,7],[0,24],[16,-1],[-4,21],[16,53],[15,37],[2,81],[-10,33],[-26,33],[21,20],[-9,26],[0,35],[-9,34],[-13,31],[-29,38],[6,20],[-16,13],[3,13],[29,18],[14,-31],[18,-18],[-4,-16],[17,-42],[4,-57],[-2,-23],[14,-43]],[[3996,7194],[-4,-19],[8,-47],[27,-16],[1,-19],[-33,26],[-10,24],[-20,7],[6,14],[-28,1],[24,26],[12,-5],[11,51],[10,1],[-4,-44]],[[9582,1937],[14,-2],[-12,-37],[-16,-32],[9,-12],[-56,-29],[-8,12],[-11,-14],[-8,12],[13,48],[-25,31],[37,39],[21,-29],[27,24],[-4,25],[19,-36]],[[4992,1437],[-35,2],[-18,-37],[-23,-26],[-6,-29],[-26,-16]],[[4884,1331],[9,28],[-4,23],[14,18],[-4,10],[-32,-7],[-43,41],[12,27],[-32,32],[-17,4],[-1,18],[13,15],[-18,33],[-6,-8],[-23,15],[-27,32],[-32,-10],[-6,17],[21,57],[-3,20],[18,-21],[19,17],[-1,10],[27,14],[18,25],[45,52],[11,-33],[-12,-14],[9,-7],[22,10],[17,-5],[21,-19],[-31,-15],[-5,-12],[16,-19],[11,-28],[31,-38],[4,3],[0,-54],[-7,-8],[29,-58],[14,-9],[13,6],[18,-56]],[[4992,1437],[11,18],[50,-10],[12,-15],[32,37],[35,2],[9,-10],[15,16],[12,-8],[-6,-28],[-42,-12],[11,-12],[-4,-41],[11,-24],[-3,-18],[10,-9],[2,-23],[16,-24],[16,-54],[-17,-41],[19,-11],[6,-28],[-6,-7],[4,-27],[12,0],[8,-28],[-21,6],[-9,-6],[3,-22],[-30,18],[4,18],[-22,15],[-11,-16],[-17,19],[7,32],[-14,-3],[-9,17],[-14,2],[-19,49],[9,21],[-7,15],[-27,17],[-6,31],[-18,-8],[-21,11],[-56,-4],[-11,12],[-28,9],[-4,18]],[[5250,9975],[26,-9],[52,-6],[3,-16],[23,-42],[-9,-12],[-20,34],[-23,-9],[23,-21],[6,-27],[1,-29],[-31,14],[-47,0],[1,24],[-17,2],[4,18],[-16,2],[-3,28],[19,24],[-5,11],[-34,8],[2,30],[45,-24]],[[9899,3236],[15,6],[19,-18],[-8,22],[18,-14],[-14,-21],[19,-31],[31,-28],[2,-54],[16,-22],[0,-23],[-14,-6],[4,27],[-15,5],[-20,-13],[-11,-17],[4,26],[-29,11],[-21,-1],[-14,-13],[17,-48],[2,-29],[22,21],[-3,25],[12,-16],[29,-10],[-21,0],[14,-48],[-3,-12],[-33,-12],[-19,21],[-13,-34],[-18,10],[-5,-52],[-7,4],[-4,75],[22,19],[0,33],[-9,3],[9,38],[-4,26],[-12,0],[9,29],[-11,39],[19,9],[-3,38],[-14,18],[-13,-32],[11,-22],[-16,-19],[-23,3],[6,17],[-11,12],[1,28],[20,0],[-24,30],[38,-1],[27,-20],[21,-32],[25,11],[-24,30],[-27,45],[31,-33]],[[9949,2909],[-20,-14],[1,-33],[-13,-18],[-12,-1],[-7,46],[10,20],[21,-2],[11,20],[19,-4],[-10,-14]],[[9781,3288],[0,0]],[[9777,3427],[2,-46],[-16,-17],[-5,60],[19,3]],[[32,7690],[12,-2],[23,-56],[3,-20],[25,8],[14,-11],[-20,2],[-25,-14],[4,-39],[9,-19],[-18,-28],[6,-30],[-38,-4],[-8,-28],[-19,0],[17,18],[-6,39],[23,24],[-3,47],[9,31],[-3,67],[-12,-15],[-23,-9],[-1,36],[31,3]],[[5869,214],[14,10],[22,-44],[-7,-45],[-17,-24],[11,-19],[-10,-5],[-21,-50],[11,-16],[-30,-2],[-4,12],[-37,-31],[-7,40],[-4,-9],[-19,16],[-4,31],[-18,23],[17,23],[-11,23],[-4,41],[31,-5],[15,35],[-42,38],[27,35],[14,-30],[20,-4],[1,-25],[23,-5],[0,-8],[29,-5]],[[2947,5169],[38,-15],[0,-22],[-21,-12],[20,-21],[-10,-23],[19,-16],[-5,-9],[-31,24],[-22,25],[-10,68],[20,15],[2,-14]],[[3671,9156],[8,0],[4,-27],[42,-64],[-22,-14],[-4,-19],[-9,26],[-9,-21],[-2,42],[-14,43],[-2,42],[8,-8]],[[1689,5553],[12,-7],[10,-33],[26,-11],[20,82],[-2,21],[17,-11],[-11,-30],[-6,-36],[12,-4],[-9,-38],[-14,-2],[-8,-28],[-33,-23],[30,35],[-7,20],[-24,0],[-29,-21],[-18,39],[4,14],[-19,7],[28,34],[-10,21],[9,23],[12,5],[10,-57]],[[2714,4936],[0,30],[-17,5],[26,56],[-3,9],[11,28],[-7,33],[40,0],[-1,12],[22,-6],[19,4],[-14,-28],[-14,15],[-23,-18],[2,-13],[-16,-36],[-9,0],[0,-77],[-16,-14]]]}
