{"type":"Topology","bbox":[-76.44004966072288,2.983996465015814,-76.28982878109758,3.152000847448104],"transform":{"scale":[0.000015023590321561597,0.000016802118455074474],"translate":[-76.44004966072288,2.983996465015814]},"objects":{"municipios":{"type":"GeometryCollection","geometries":[{"type":"Polygon","arcs":[[0]],"properties":{"codigo":"19142200203032000101","sector":"191422002030320001","pcode":"CO19142","area_m2":80024}},{"type":"Polygon","arcs":[[1,2,3]],"properties":{"codigo":"19142200105030000101","sector":"191422001050300001","pcode":"CO19142","area_m2":169263}},{"type":"Polygon","arcs":[[4,-2,5]],"properties":{"codigo":"19142200204034000101","sector":"191422002040340001","pcode":"CO19142","area_m2":144144}},{"type":"Polygon","arcs":[[6]],"properties":{"codigo":"19142200403031000101","sector":"191422004030310001","pcode":"CO19142","area_m2":709324}},{"type":"Polygon","arcs":[[7,8]],"properties":{"codigo":"19142100000000000104","sector":"191421000000000001","pcode":"CO19142","area_m2":114052}},{"type":"Polygon","arcs":[[9]],"properties":{"codigo":"19142200202007000101","sector":"191422002020070001","pcode":"CO19142","area_m2":29333}},{"type":"Polygon","arcs":[[10]],"properties":{"codigo":"19142200206038000101","sector":"191422002060380001","pcode":"CO19142","area_m2":57956}},{"type":"Polygon","arcs":[[11,12,13,-9,14]],"properties":{"codigo":"19142100000000000101","sector":"191421000000000001","pcode":"CO19142","area_m2":601956}},{"type":"Polygon","arcs":[[15,16,-12]],"properties":{"codigo":"19142100000000000102","sector":"191421000000000001","pcode":"CO19142","area_m2":162883}},{"type":"Polygon","arcs":[[17,18,19,-13,-17]],"properties":{"codigo":"19142100000000000103","sector":"191421000000000001","pcode":"CO19142","area_m2":985665}},{"type":"Polygon","arcs":[[20]],"properties":{"codigo":"19142200203004000101","sector":"191422002030040001","pcode":"CO19142","area_m2":225469}},{"type":"Polygon","arcs":[[21]],"properties":{"codigo":"19142200104011000101","sector":"191422001040110001","pcode":"CO19142","area_m2":208555}},{"type":"Polygon","arcs":[[22]],"properties":{"codigo":"19142200105015000101","sector":"191422001050150001","pcode":"CO19142","area_m2":129423}},{"type":"MultiPolygon","arcs":[[[23]],[[24]],[[-3,-5,25]]],"properties":{"codigo":"19142200204039000101","sector":"191422002040390001","pcode":"CO19142","area_m2":336274}},{"type":"Polygon","arcs":[[26]],"properties":{"codigo":"19142200401045000101","sector":"191422004010450001","pcode":"CO19142","area_m2":115451}},{"type":"Polygon","arcs":[[27]],"properties":{"codigo":"19142200207050000101","sector":"191422002070500001","pcode":"CO19142","area_m2":74638}},{"type":"Polygon","arcs":[[-19,28]],"properties":{"codigo":"19142200402051000101","sector":"191422004020510001","pcode":"CO19142","area_m2":290394}},{"type":"Polygon","arcs":[[29]],"properties":{"codigo":"19142200207056000101","sector":"191422002070560001","pcode":"CO19142","area_m2":87837}},{"type":"Polygon","arcs":[[30]],"properties":{"codigo":"19142200304047000101","sector":"191422003040470001","pcode":"CO19142","area_m2":25319}},{"type":"Polygon","arcs":[[31]],"properties":{"codigo":"19142200304054000101","sector":"191422003040540001","pcode":"CO19142","area_m2":36532}}]}},"arcs":[[[5876,5336],[27,-19],[-65,-109],[-72,-76],[-32,24],[-9,71],[33,110],[65,77],[6,-43],[47,-35]],[[1631,5642],[55,-38]],[[1686,5604],[-125,-49]],[[1561,5555],[-322,390],[-10,58],[90,-25],[29,-18],[-41,-35],[136,-105],[22,29],[14,108],[46,-17],[-20,-76],[43,2],[11,-38],[-32,-52],[30,-24],[-43,-56],[102,-68],[15,14]],[[1694,5590],[-8,14]],[[1631,5642],[50,17],[8,56],[27,32],[41,-67],[36,-22],[56,54],[88,57],[40,69],[4,77],[44,69],[42,-10],[5,-49],[-40,-57],[-7,-51],[43,-36],[-13,-25],[-33,11],[-10,-36],[-33,-19],[-17,-36],[-25,6],[-47,-68],[-46,18],[-30,-44],[-120,2]],[[3914,700],[38,-24],[93,-121],[63,-38],[173,32],[52,-28],[112,-3],[92,-32],[60,-60],[-2,-30],[-60,-99],[-51,-53],[-26,-56],[-8,-82],[-92,-102],[-81,-4],[-131,51],[-59,69],[0,56],[68,13],[12,68],[37,60],[-31,45],[-66,-12],[-62,-24],[-28,16],[-27,111],[10,25],[-15,60],[-12,-15],[-66,9],[-35,54],[0,96],[42,18]],[[2041,3428],[-40,71],[24,19],[-40,5],[-30,35],[67,5],[22,29],[-38,26],[2,72],[96,90]],[[2104,3780],[16,-45],[27,-265],[-54,-3],[5,-38],[-57,-1]],[[8697,8182],[29,-26],[-37,-30],[17,-31],[-53,-51],[-1,-41],[-45,26],[38,127],[52,26]],[[4736,4771],[50,-44],[12,10],[66,-40],[-63,-80],[15,-26],[-36,4],[-42,-41],[-27,34],[59,30],[-91,138],[23,26],[34,-11]],[[2368,3079],[-62,-6],[-313,24]],[[1993,3097],[-29,87],[-45,41],[-128,34],[-41,22]],[[1750,3281],[-135,93],[-87,32],[77,24],[88,-38],[10,22],[-19,50],[10,58],[46,61],[-34,-102],[-3,-45],[56,1],[21,-19],[64,21],[-4,-92],[54,-30],[-6,-29],[38,-46],[35,37],[15,72],[40,23],[25,54]],[[2104,3780],[-7,59],[42,105],[40,-12],[25,-88],[39,-10],[-44,-21],[53,-94],[-21,-71],[-53,-14],[-7,-66],[41,-16],[17,24],[27,-80],[-41,-19],[-9,-36],[48,-34],[8,-48],[-34,-6],[30,-60],[-37,-41],[52,-3],[-2,-63],[23,-38],[39,-10],[104,12],[3,-65],[-72,-6]],[[2368,3079],[-2,-34],[-37,-63],[20,-27]],[[2349,2955],[-43,-21],[-150,-2],[-159,11],[6,98],[-10,56]],[[2349,2955],[36,-41],[-19,-62],[61,-1],[-6,-47],[-54,-43],[15,-52],[-35,17],[-30,-14],[-56,-58],[-30,-10],[2,-91],[-54,-133],[15,-35],[-29,-10],[9,-57],[-28,-1],[6,-40],[-90,-28],[-16,-93],[-17,-13]],[[2029,2143],[-24,-1]],[[2005,2142],[-21,0],[-11,64],[36,0],[-37,95],[-68,46],[14,37],[-12,46],[-25,20],[37,41],[13,57],[-63,54],[-42,3],[-9,44],[49,-8],[6,18],[-27,89],[15,86],[-9,2],[6,129],[16,54],[-30,65],[-93,122],[-37,13],[37,62]],[[5767,4947],[37,-64],[75,-51],[77,-39],[35,22],[46,0],[-54,-67],[1,-16],[-105,-9],[39,-25],[-26,-56],[-57,22],[-12,55],[-49,38],[-72,13],[-104,-3],[-47,27],[-69,13],[79,30],[5,46],[34,64],[111,20],[29,13],[27,-33]],[[414,9980],[137,8],[-44,-50],[-26,18],[-68,-22],[-23,-81],[-51,33],[-144,-171],[74,-56],[-16,-23],[35,-24],[19,24],[43,-30],[-109,-119],[106,-75],[71,-14],[-19,-22],[-86,31],[-55,38],[-42,2],[-26,61],[13,12],[6,114],[-26,55],[-51,31],[-39,-8],[-12,30],[-81,30],[42,100],[27,-18],[-27,-33],[75,-51],[36,-9],[-22,-26],[31,-21],[19,55],[-15,17],[31,37],[-19,16],[46,61],[21,48],[71,-30],[37,80],[61,-18]],[[785,6848],[59,32],[14,-35],[-24,-17],[-100,-30],[88,-133],[39,-32],[18,-42],[42,6],[67,49],[46,-37],[2,-28],[-55,-56],[-156,81],[-85,126],[-118,260],[62,23],[29,29],[61,-64],[-56,-39],[67,-93]],[[1745,5365],[23,-28],[61,-36],[22,25],[23,-21],[-36,-49],[6,-35],[42,-62],[22,17],[42,-29],[-30,-23],[80,-120],[24,13],[33,-42],[-25,-13],[57,-86],[43,3],[-44,-23],[44,-122],[16,-24],[-52,-12],[-44,17],[41,29],[-12,39],[-25,-6],[-37,31],[51,31],[-63,88],[-14,-3],[-99,120],[10,15],[-69,94],[-16,44],[-56,54],[-46,-5],[-6,52],[27,12],[-18,24],[-55,-13],[-25,70],[52,16],[53,-42]],[[2166,4639],[35,-84],[71,-16],[20,-76],[82,-67],[-25,-11],[25,-49],[-35,-19],[7,-23],[-94,-63],[-36,26],[-23,56],[58,36],[-50,49],[28,53],[-101,179],[-6,57],[19,5],[25,-53]],[[1694,5590],[-54,-26],[-25,-38],[33,-49],[56,-52],[-36,-23],[-53,10],[-40,33],[0,36],[-36,20],[22,54]],[[4459,3934],[-53,-46],[-83,-44],[-39,-46],[-151,33],[-54,24],[38,99],[42,-32],[123,44],[74,-58],[29,30],[26,-4],[40,43],[26,-31],[-18,-12]],[[6149,7556],[-1,-26],[60,-28],[-58,2],[10,-61],[33,-26],[55,23],[23,-14],[-98,-36],[-12,-73],[19,-20],[-40,-43],[-49,42],[28,24],[-33,79],[16,83],[-31,50],[70,43],[8,-19]],[[2029,2143],[11,-7],[4,-99],[14,-55],[7,-108],[76,-8],[-5,-24],[-36,3],[16,-108],[12,-139],[-32,-14],[3,-91],[17,-2],[-32,-90],[-188,20],[-25,-17],[37,101],[51,71],[-14,9],[58,75],[10,75],[-27,1],[-8,68],[64,8],[-3,37],[-35,-1],[-6,37],[37,-4],[-31,56],[-2,127],[21,62],[-70,-54],[-32,-60],[12,-63],[34,-47],[-63,-32],[-68,14],[41,43],[0,92],[85,102],[43,21]],[[6480,6562],[32,-3],[-79,-121],[18,-26],[-138,71],[-7,23],[69,104],[-14,18],[55,55],[64,-121]],[[9358,2991],[57,3],[13,-64],[-38,-37],[-62,41],[12,59],[18,-2]],[[9869,2216],[6,23],[91,-17],[33,14],[-7,-38],[-28,0],[-53,-58],[-86,-26],[-18,57],[33,3],[29,42]]]}
