{"type":"Topology","bbox":[-77.09602017381201,1.732618263273614,-76.82430799305553,2.0467993722714084],"transform":{"scale":[0.000027173935469195005,0.00003142125302508195],"translate":[-77.09602017381201,1.732618263273614]},"objects":{"municipios":{"type":"GeometryCollection","geometries":[{"type":"Polygon","arcs":[[0,1,2,3]],"properties":{"codigo":"19100100000000000104","sector":"191001000000000001","pcode":"CO19100","area_m2":52707}},{"type":"Polygon","arcs":[[-2,4,5,6]],"properties":{"codigo":"19100100000000000105","sector":"191001000000000001","pcode":"CO19100","area_m2":50346}},{"type":"Polygon","arcs":[[7]],"properties":{"codigo":"19100200702021000101","sector":"191002007020210001","pcode":"CO19100","area_m2":96878}},{"type":"Polygon","arcs":[[8]],"properties":{"codigo":"19100200202007000101","sector":"191002002020070001","pcode":"CO19100","area_m2":79517}},{"type":"Polygon","arcs":[[9]],"properties":{"codigo":"19100200102018000101","sector":"191002001020180001","pcode":"CO19100","area_m2":29436}},{"type":"Polygon","arcs":[[10]],"properties":{"codigo":"19100200302041000101","sector":"191002003020410001","pcode":"CO19100","area_m2":115086}},{"type":"Polygon","arcs":[[11]],"properties":{"codigo":"19100200604020000101","sector":"191002006040200001","pcode":"CO19100","area_m2":100925}},{"type":"Polygon","arcs":[[12,13,14,15,-6]],"properties":{"codigo":"19100100000000000101","sector":"191001000000000001","pcode":"CO19100","area_m2":111752}},{"type":"Polygon","arcs":[[16,-15,17]],"properties":{"codigo":"19100100000000000102","sector":"191001000000000001","pcode":"CO19100","area_m2":135916}},{"type":"Polygon","arcs":[[18,-3,-7,-16,-17,19]],"properties":{"codigo":"19100100000000000103","sector":"191001000000000001","pcode":"CO19100","area_m2":147241}},{"type":"Polygon","arcs":[[-13,-5,-1,20,21]],"properties":{"codigo":"19100100000000000106","sector":"191001000000000001","pcode":"CO19100","area_m2":151326}},{"type":"Polygon","arcs":[[-21,-4,-19,22]],"properties":{"codigo":"19100100000000000107","sector":"191001000000000001","pcode":"CO19100","area_m2":198006}},{"type":"Polygon","arcs":[[23]],"properties":{"codigo":"19100200206001000101","sector":"191002002060010001","pcode":"CO19100","area_m2":51836}},{"type":"Polygon","arcs":[[24]],"properties":{"codigo":"19100200405005000101","sector":"191002004050050001","pcode":"CO19100","area_m2":49652}},{"type":"Polygon","arcs":[[25]],"properties":{"codigo":"19100200501006000101","sector":"191002005010060001","pcode":"CO19100","area_m2":113016}},{"type":"Polygon","arcs":[[26]],"properties":{"codigo":"19100200207013000101","sector":"191002002070130001","pcode":"CO19100","area_m2":80262}},{"type":"Polygon","arcs":[[27]],"properties":{"codigo":"19100200801015000101","sector":"191002008010150001","pcode":"CO19100","area_m2":36046}},{"type":"Polygon","arcs":[[28]],"properties":{"codigo":"19100200604049000101","sector":"191002006040490001","pcode":"CO19100","area_m2":37303}},{"type":"Polygon","arcs":[[29]],"properties":{"codigo":"19100200404042000101","sector":"191002004040420001","pcode":"CO19100","area_m2":45994}}]}},"arcs":[[[4907,3352],[-43,-29],[-21,-16],[-29,-30],[-17,-14]],[[4797,3263],[-18,16],[6,7],[-20,9]],[[4765,3295],[14,14],[37,17],[48,32]],[[4864,3358],[27,18],[7,-20],[9,-4]],[[4797,3263],[-20,-35],[4,-2],[-12,-21],[-53,23]],[[4716,3228],[10,10],[13,25],[-7,4],[2,11],[-4,44]],[[4730,3322],[35,-27]],[[3852,1475],[8,3],[-6,-21],[-1,-23],[32,-22],[-4,-5],[13,-14],[-5,-18],[-11,0],[-10,7],[-8,-11],[-13,9],[-2,-13],[20,-9],[-14,-3],[0,-7],[-17,-8],[-5,-8],[-30,30],[-23,-17],[-12,2],[-4,11],[10,-7],[19,10],[-17,-3],[-3,4],[18,9],[-9,13],[-13,-2],[-10,14],[2,17],[18,1],[7,-4],[28,14],[-6,14],[26,8],[7,-3],[6,17],[-8,2],[11,17],[6,-4]],[[3522,9975],[-4,-19],[-5,-10],[-27,-27],[10,-17],[-17,0],[-8,13],[-17,-6],[-30,-5],[2,12],[-7,26],[0,30],[8,12],[48,15],[47,-6],[0,-18]],[[6197,6890],[15,-12],[4,3],[13,-10],[3,-8],[35,-15],[-12,-4],[-2,-7],[-24,6],[-19,-9],[-3,11],[-31,1],[-9,-5],[-9,7],[39,42]],[[1586,6186],[-3,-37],[18,0],[-16,-21],[-1,-11],[-24,-6],[-23,-20],[22,-43],[0,-9],[-16,0],[-21,5],[-14,18],[-26,51],[-16,20],[18,17],[7,3],[-8,8],[6,9],[35,13],[39,4],[23,-1]],[[9018,131],[41,-4],[10,-10],[1,-23],[-8,-9],[10,-2],[7,14],[6,-2],[5,-27],[10,-5],[-2,-10],[-10,-12],[-27,-14],[-7,3],[-3,-19],[-24,-11],[-13,6],[-7,-6],[4,31],[-17,-1],[-6,16],[0,12],[10,0],[-4,15],[-4,-8],[-10,0],[-7,18],[14,1],[13,13],[10,3],[1,17],[7,14]],[[4716,3228],[-14,-25],[-26,-34],[11,-9],[-5,-3],[-31,2],[-2,-2]],[[4649,3157],[0,6],[-15,12],[7,13],[13,-5],[1,7],[-12,19],[1,18],[8,14],[-10,8],[-13,-8],[-10,0],[7,34]],[[4626,3275],[6,7],[27,-3],[16,3],[27,35],[17,11],[11,-1]],[[4730,3327],[0,-5]],[[4750,3448],[-16,-49],[3,-19],[25,-15],[-4,-16],[-15,-5],[-1,-13],[-12,-4]],[[4626,3275],[-4,15],[21,0],[32,19],[12,23],[-1,18],[-9,6],[-13,0],[-7,15],[-24,13],[16,0],[11,16],[1,19],[6,11],[17,9],[8,11],[-21,5],[-9,11],[11,12],[14,7],[25,-8],[15,-1],[9,-11],[2,-16],[12,-1]],[[4864,3554],[-27,-33],[-3,-18],[-16,-21],[-35,-37],[1,-11],[27,-20],[53,-56]],[[4750,3448],[14,22],[14,10],[6,10],[34,14],[10,27],[26,28],[2,6],[8,-11]],[[4907,3352],[10,-10]],[[4917,3342],[-21,-18],[-4,-17],[-26,-26],[-14,-4],[-21,-23],[-13,-6],[-13,-20],[5,-11],[-32,-23],[-11,-22],[-11,-11],[-4,-15],[11,1],[3,-9],[17,0],[3,-20],[-26,-3],[0,-8],[-22,-4],[-4,18],[10,14],[-17,-4],[1,-18],[-7,-12],[-14,-7],[-13,11],[-8,16],[1,12],[-13,12],[-22,5],[-3,7]],[[4864,3554],[7,-11],[9,8],[4,11],[7,-2],[58,-43],[-24,0],[-21,-7],[4,-26],[-7,-10],[-1,-14],[22,-28],[0,-17],[-13,-16],[12,-10],[11,2],[5,-30],[6,-9],[11,2],[6,-13],[-9,-9],[-19,8],[-15,2]],[[103,6109],[11,-6],[-16,-6],[23,-9],[-3,-6],[19,-11],[2,-13],[-10,6],[-47,-3],[1,7],[-13,6],[-15,-6],[6,-6],[0,-14],[-11,1],[-11,-13],[-10,15],[17,7],[-30,18],[-16,2],[16,29],[7,-8],[28,-3],[8,15],[29,-5],[7,10],[8,-7]],[[7955,2714],[-9,-8],[2,-10],[-11,-4],[12,-8],[-16,-17],[-34,18],[-9,-4],[-27,10],[-12,16],[15,18],[22,17],[25,-4],[28,-9],[17,-11],[-3,-4]],[[3826,4725],[14,1],[7,-17],[-6,-12],[-9,3],[-11,-12],[12,-1],[3,-13],[-10,-23],[21,-12],[-16,-8],[-13,10],[-20,-17],[-13,-6],[13,-13],[-6,-4],[4,-11],[17,-10],[21,3],[-3,5],[19,3],[24,-12],[13,-21],[8,3],[8,-18],[17,3],[2,-5],[-17,-3],[-9,-8],[-22,23],[-13,4],[-9,11],[-9,-3],[-4,14],[-16,-6],[-26,2],[-15,24],[9,3],[-7,9],[-39,16],[-13,-7],[10,-9],[-18,-3],[4,-13],[-10,-17],[-15,-5],[-6,8],[-9,-3],[-9,-14],[-14,1],[-4,12],[4,10],[20,6],[-13,9],[10,10],[3,11],[21,-3],[-11,23],[13,-4],[11,9],[-14,9],[4,6],[17,-9],[26,5],[20,-2],[-1,-9],[14,-17],[6,6],[2,18],[22,2],[-10,4],[4,24],[-2,8],[19,8],[-4,19],[-6,9],[-3,19],[-9,1],[8,9],[-5,9],[4,7],[10,-18],[-2,-16],[7,-15]],[[5153,7776],[6,-16],[12,-1],[44,-20],[9,2],[13,-10],[23,-12],[1,-7],[-12,-10],[-35,-8],[-14,3],[-7,-14],[-22,4],[-12,9],[-34,-4],[-6,22],[-18,0],[9,12],[-5,23],[28,0],[19,5],[-5,22],[6,0]],[[7479,645],[19,3],[10,-5],[-5,-8],[7,-21],[17,-6],[22,5],[19,-4],[-2,-5],[-24,3],[-18,-7],[-9,1],[-6,-12],[-11,2],[-17,-10],[27,-1],[9,-12],[-17,-2],[0,7],[-15,4],[-22,-4],[-4,7],[11,9],[-10,10],[4,21],[15,25]],[[9947,258],[0,12],[-13,16],[4,10],[-10,2],[4,15],[-9,4],[17,17],[12,0],[5,-8],[0,-26],[15,2],[14,-24],[9,-9],[3,-25],[-12,-12],[-5,15],[-14,-5],[-13,3],[-7,13]],[[6462,3777],[2,-5],[-13,-19],[-2,-17],[16,-4],[0,-8],[-17,4],[-1,-6],[-17,3],[3,8],[-22,3],[-16,-18],[-38,4],[-7,-4],[9,29],[13,0],[1,14],[-14,5],[0,7],[23,-7],[37,1],[26,13],[17,2],[0,-5]]]}
