{"type":"Topology","bbox":[-77.28164937782913,2.234133513574989,-77.21336692070224,2.4683357371920147],"transform":{"scale":[0.00000682892860554894,0.000023422564618164374],"translate":[-77.28164937782913,2.234133513574989]},"objects":{"municipios":{"type":"GeometryCollection","geometries":[{"type":"Polygon","arcs":[[0]],"properties":{"codigo":"19050200401001000101","sector":"190502004010010001","pcode":"CO19050","area_m2":199414}},{"type":"Polygon","arcs":[[1,2]],"properties":{"codigo":"19050100000000000101","sector":"190501000000000001","pcode":"CO19050","area_m2":145727}},{"type":"Polygon","arcs":[[-3,3]],"properties":{"codigo":"19050100000000000102","sector":"190501000000000001","pcode":"CO19050","area_m2":345315}},{"type":"Polygon","arcs":[[4]],"properties":{"codigo":"19050200303002000101","sector":"190502003030020001","pcode":"CO19050","area_m2":66388}},{"type":"Polygon","arcs":[[5]],"properties":{"codigo":"19050200205005000101","sector":"190502002050050001","pcode":"CO19050","area_m2":39084}},{"type":"Polygon","arcs":[[6,7]],"properties":{"codigo":"19050200101006000101","sector":"190502001010060001","pcode":"CO19050","area_m2":240539}},{"type":"Polygon","arcs":[[-7,8]],"properties":{"codigo":"19050200101006000102","sector":"190502001010060001","pcode":"CO19050","area_m2":258066}},{"type":"MultiPolygon","arcs":[[[9]],[[10]]],"properties":{"codigo":"19050200301007000101","sector":"190502003010070001","pcode":"CO19050","area_m2":132706}},{"type":"MultiPolygon","arcs":[[[11]],[[12]]],"properties":{"codigo":"19050200302016000101","sector":"190502003020160001","pcode":"CO19050","area_m2":86297}},{"type":"Polygon","arcs":[[13]],"properties":{"codigo":"19050200605017000101","sector":"190502006050170001","pcode":"CO19050","area_m2":19698}}]}},"arcs":[[[6809,4322],[151,-23],[-51,-3],[-3,-20],[148,-6],[-12,-45],[32,-1],[-3,-25],[-40,3],[-13,-50],[-59,-30],[-13,-20],[-84,-35],[-15,2],[-71,-40],[23,-30],[52,-14],[7,-14],[55,-22],[-27,-13],[-70,1],[-63,-12],[-113,0],[-69,-7],[33,-25],[102,-27],[0,-21],[-97,-34],[-101,-13],[-11,-27],[27,4],[40,-21],[4,-17],[-44,-4],[-49,11],[-50,-3],[-63,47],[13,20],[43,11],[107,6],[74,27],[-57,43],[-42,13],[-61,4],[10,13],[85,18],[141,5],[62,9],[36,15],[0,14],[-46,29],[-47,17],[1,18],[52,24],[67,42],[-42,39],[42,39],[-4,20],[-43,19],[-5,52],[-20,43],[53,5],[28,-11]],[[4849,823],[-44,-6],[-36,14],[-124,-20],[-48,10],[-49,-17],[-120,1],[-116,8],[16,4],[-83,32],[-72,-16],[-59,19],[18,11],[76,10],[57,14],[21,39],[71,50]],[[4357,976],[81,0],[83,7],[52,-26],[55,-39],[98,-5],[92,-28],[-33,-18],[13,-25],[51,-19]],[[4357,976],[-50,6],[19,29],[32,14],[3,23],[81,10],[-24,14],[49,13],[83,7],[54,-10],[28,8],[-31,21],[85,4],[67,-14],[183,-3],[65,16],[0,27],[33,17],[86,21],[25,22],[51,8],[32,35],[-13,38],[75,-1],[46,13],[54,-7],[-43,-32],[21,-31],[-20,-36],[-42,-16],[84,-28],[-105,-25],[83,-25],[-248,-42],[-79,-21],[26,-7],[-115,-65],[-26,2],[-35,-38],[57,-22],[54,-7],[86,-34],[-26,-23],[-69,-3],[-34,-11],[-99,8],[-11,-8]],[[6512,5906],[49,2],[22,-18],[167,-14],[30,1],[38,-16],[69,-2],[18,-35],[-36,-4],[15,-18],[-29,0],[0,-18],[35,-11],[1,-51],[-108,-26],[-26,7],[108,21],[3,40],[-98,24],[-79,-23],[-76,16],[17,8],[-84,13],[50,17],[-19,17],[55,-11],[53,29],[-184,23],[-13,19],[-71,-4],[28,20],[65,-6]],[[3584,3242],[-66,-26],[1,-32],[121,-27],[-30,-30],[-58,15],[-86,1],[-52,14],[5,10],[-47,10],[43,3],[18,15],[-74,8],[10,7],[-57,9],[40,18],[-98,-4],[-4,6],[100,6],[82,-5],[-15,-9],[67,-1],[58,8],[52,63],[24,-24],[-34,-35]],[[5897,9963],[-15,-5],[73,-18],[-80,-25],[208,-57],[352,-101]],[[6435,9757],[-1,-9],[-64,-21],[44,-14],[23,5],[119,-8],[108,-20],[-56,-37],[-68,-23],[78,-23],[22,6],[109,-15],[-67,-23],[-25,-36],[-85,-28],[-119,3],[-98,21],[-57,19],[82,35],[-34,15],[14,10],[-45,5],[-47,17],[-25,38],[-30,24],[24,8],[-55,32],[-21,34],[-72,16],[-72,24],[-13,13],[-118,29],[-44,4],[-8,17],[-64,15],[-36,22],[-57,-3],[-51,21],[90,0],[-26,14],[56,17],[3,17],[56,8],[92,-23]],[[5897,9963],[62,-12],[27,3],[29,27],[-48,18],[104,-9],[33,-16],[90,8],[274,5],[-10,-33],[66,-11],[76,6],[50,-13],[12,9],[69,-1],[37,9],[84,-27],[-73,-23],[46,-14],[-57,-28],[21,-18],[-107,-18],[-8,-13],[-244,-49],[5,-6]],[[9783,6630],[122,-17],[90,-37],[1,-34],[-131,-51],[-35,-1],[54,-24],[-42,-11],[-134,-15],[0,-21],[-100,-36],[-11,-10],[-76,-15],[-22,7],[-8,-22],[-80,-3],[-115,-43],[-46,3],[-24,-14],[-130,0],[2,46],[93,38],[206,48],[91,25],[15,-7],[100,22],[148,24],[32,11],[101,15],[82,29],[14,40],[-93,32],[-169,21],[-84,-11],[-10,8],[99,9],[60,-6]],[[8786,6239],[-59,8],[73,26],[61,42],[86,2],[59,14],[25,-9],[-78,-15],[-104,-48],[-63,-20]],[[9432,8233],[72,-2],[11,-44],[90,1],[-14,25],[53,0],[-9,-16],[131,13],[24,-10],[-19,-35],[39,0],[-5,-19],[39,-14],[-32,-7],[36,-23],[-7,-57],[-32,-15],[1,-24],[-24,15],[-4,63],[-31,21],[9,13],[-73,11],[-139,-8],[-119,18],[-12,23],[7,59],[-39,18],[15,48],[-10,73],[20,-1],[9,-78],[-12,-34],[25,-14]],[[9765,7947],[-96,-66],[-28,14],[26,17],[-29,5],[43,24],[37,-4],[47,10]],[[131,76],[18,-14],[53,4],[49,-9],[19,-16],[-54,-20],[-70,-6],[-46,-14],[-34,42],[-32,6],[48,12],[-23,14],[72,1]]]}
