{"type":"Topology","bbox":[-73.32030752137331,9.620606082602535,-73.20874377536131,9.756729320925988],"transform":{"scale":[0.000011157490350234582,0.000013613685200865383],"translate":[-73.32030752137331,9.620606082602535]},"objects":{"municipios":{"type":"GeometryCollection","geometries":[{"type":"Polygon","arcs":[[0,1]],"properties":{"codigo":"20045200311001000101","sector":"200452003110010001","pcode":"CO20045","area_m2":149927}},{"type":"Polygon","arcs":[[2,3,4,5,6,7]],"properties":{"codigo":"20045100000000000107","sector":"200451000000000001","pcode":"CO20045","area_m2":157263}},{"type":"Polygon","arcs":[[8,9,10,11,12,13,14]],"properties":{"codigo":"20045100000000000104","sector":"200451000000000001","pcode":"CO20045","area_m2":146196}},{"type":"Polygon","arcs":[[15,16,-14,17,18,19]],"properties":{"codigo":"20045100000000000102","sector":"200451000000000001","pcode":"CO20045","area_m2":270475}},{"type":"Polygon","arcs":[[-19,20,21,22]],"properties":{"codigo":"20045100000000000101","sector":"200451000000000001","pcode":"CO20045","area_m2":384918}},{"type":"Polygon","arcs":[[23,-9,24,-16,25]],"properties":{"codigo":"20045100000000000109","sector":"200451000000000001","pcode":"CO20045","area_m2":261126}},{"type":"Polygon","arcs":[[26,-3,27,-12,28]],"properties":{"codigo":"20045100000000000106","sector":"200451000000000001","pcode":"CO20045","area_m2":91850}},{"type":"Polygon","arcs":[[29,30,31]],"properties":{"codigo":"20045100000000000302","sector":"200451000000000003","pcode":"CO20045","area_m2":92142}},{"type":"Polygon","arcs":[[32,-30,33]],"properties":{"codigo":"20045100000000000303","sector":"200451000000000003","pcode":"CO20045","area_m2":81631}},{"type":"Polygon","arcs":[[34,35,36,37,-4,-27,38]],"properties":{"codigo":"20045100000000000201","sector":"200451000000000002","pcode":"CO20045","area_m2":90924}},{"type":"Polygon","arcs":[[39,-39,-29,-11,40,41]],"properties":{"codigo":"20045100000000000105","sector":"200451000000000001","pcode":"CO20045","area_m2":243464}},{"type":"Polygon","arcs":[[42,-31,-33,43,-41,-10,-24]],"properties":{"codigo":"20045100000000000301","sector":"200451000000000003","pcode":"CO20045","area_m2":158650}},{"type":"Polygon","arcs":[[44,45,-35,-40]],"properties":{"codigo":"20045100000000000204","sector":"200451000000000002","pcode":"CO20045","area_m2":203074}},{"type":"Polygon","arcs":[[46,47,-36,-46]],"properties":{"codigo":"20045100000000000202","sector":"200451000000000002","pcode":"CO20045","area_m2":52664}},{"type":"Polygon","arcs":[[-18,-13,-28,-8,48,49,-21]],"properties":{"codigo":"20045100000000000103","sector":"200451000000000001","pcode":"CO20045","area_m2":246096}},{"type":"Polygon","arcs":[[-50,50,51,-22]],"properties":{"codigo":"20045100000000000401","sector":"200451000000000004","pcode":"CO20045","area_m2":178200}},{"type":"Polygon","arcs":[[52,-37,-48]],"properties":{"codigo":"20045100000000000203","sector":"200451000000000002","pcode":"CO20045","area_m2":81760}},{"type":"Polygon","arcs":[[-25,-15,-17]],"properties":{"codigo":"20045100000000000108","sector":"200451000000000001","pcode":"CO20045","area_m2":63834}},{"type":"Polygon","arcs":[[-51,-49,-7,53,54]],"properties":{"codigo":"20045100000000000402","sector":"200451000000000004","pcode":"CO20045","area_m2":164739}},{"type":"Polygon","arcs":[[-2,55]],"properties":{"codigo":"20045200311001000102","sector":"200452003110010001","pcode":"CO20045","area_m2":155717}},{"type":"Polygon","arcs":[[56]],"properties":{"codigo":"20045200503004000101","sector":"200452005030040001","pcode":"CO20045","area_m2":51312}},{"type":"Polygon","arcs":[[-54,-6,57]],"properties":{"codigo":"20045100000000000110","sector":"200451000000000001","pcode":"CO20045","area_m2":34985}}]}},"arcs":[[[9538,160],[17,-46],[-92,-29],[-56,-37],[-40,-44],[-32,15],[-42,-19],[-43,28],[34,23],[-113,168],[73,30],[103,29],[97,37],[121,25]],[[9565,340],[47,18],[5,-30],[-95,-39],[68,-88],[-52,-41]],[[3534,5936],[64,-176]],[[3598,5760],[31,-81]],[[3629,5679],[-69,14],[-64,-3],[-121,-24],[-156,133],[-3,-11]],[[3216,5788],[-63,19],[27,42]],[[3180,5849],[56,-21],[49,48],[20,64],[-63,16]],[[3242,5956],[16,31],[222,-53],[54,2]],[[3906,6110],[79,-17]],[[3985,6093],[203,-51],[-23,-53],[39,-7],[-8,-25]],[[4196,5957],[-443,85]],[[3753,6042],[-214,40]],[[3539,6082],[22,165]],[[3561,6247],[239,-28]],[[3800,6219],[-17,-76],[123,-33]],[[3902,6694],[1,-70],[-33,3],[-74,-137],[100,-36],[-18,-51]],[[3878,6403],[-94,16],[3,-52],[-19,-82],[45,-6],[-13,-60]],[[3561,6247],[21,135]],[[3582,6382],[65,470]],[[3647,6852],[111,-7],[140,-56],[4,-95]],[[3582,6382],[-148,40],[-3,-13]],[[3431,6409],[-16,5],[10,75],[-49,10],[10,30],[-69,17],[-23,-53],[-26,4],[21,115],[-108,-34]],[[3181,6578],[115,210],[-99,165],[176,72],[294,-30],[-20,-143]],[[4398,6227],[-176,50],[-98,41],[-35,-19],[-104,-206]],[[3906,6110],[71,148],[-69,10],[10,40],[-73,3],[33,92]],[[3902,6694],[15,-6],[505,-422],[-24,-39]],[[3688,5824],[-19,-70],[-71,6]],[[3534,5936],[-7,30],[12,116]],[[3753,6042],[-65,-218]],[[4809,6028],[18,86],[-22,24],[-271,52],[-122,19]],[[4412,6209],[2,17]],[[4414,6226],[112,24],[133,21],[-23,52],[11,27],[65,-1],[-38,35],[154,-41],[-84,-53],[81,-72],[41,-50],[-23,-94],[-34,-46]],[[4400,6195],[12,14]],[[4809,6028],[-51,-60],[-112,65],[-131,90],[-115,72]],[[3945,5740],[-17,-33],[-31,5],[-22,-97],[44,-8],[-14,-73],[-62,10]],[[3843,5544],[15,70],[-130,22],[-81,-5]],[[3647,5631],[-12,31]],[[3635,5662],[-6,17]],[[3688,5824],[165,-32],[-11,-33],[103,-19]],[[4213,5672],[-268,68]],[[4196,5957],[77,-34]],[[4273,5923],[-74,-119],[19,-5],[-19,-52],[38,-15],[-24,-60]],[[4398,6227],[16,-1]],[[4400,6195],[-32,-23],[-95,-249]],[[4213,5672],[-52,-192],[-34,-48],[57,-10],[-54,-19],[8,-42],[-12,-64],[-164,27],[-53,34],[-6,54],[-60,67]],[[3843,5479],[0,65]],[[3843,5479],[-81,-12],[-2,-33],[-39,-2]],[[3721,5432],[-74,199]],[[3242,5956],[-114,32],[25,70],[-34,7],[31,53],[29,14],[31,62]],[[3210,6194],[74,-28],[36,55],[43,137],[33,-15],[35,66]],[[3210,6194],[-147,70]],[[3063,6264],[83,218],[-25,61],[60,35]],[[3721,5432],[11,-47],[0,-108],[-50,2],[-41,40],[-8,78],[-55,-7],[-17,57],[-16,-3],[-1,62],[58,9],[-20,59],[-80,10],[-4,40],[137,38]],[[3180,5849],[-36,9]],[[3144,5858],[-7,21],[-66,18],[-31,-17],[-29,23],[20,27],[-63,23],[-50,66],[2,38],[51,153],[35,77],[57,-23]],[[9565,340],[-1,36],[25,13],[30,54],[25,12],[208,21],[59,-12],[10,-45],[38,3],[-17,-59],[57,-56],[-83,10],[4,-15],[-117,-44],[-230,-97],[-35,-1]],[[257,9766],[-12,-17],[70,-38],[-25,-31],[-159,81],[-32,-51],[-99,36],[6,25],[57,-12],[36,26],[93,214],[30,-9],[-14,-41],[18,-11],[-45,-118],[92,-32],[-16,-22]],[[3216,5788],[-41,-88],[-53,-7],[-45,16],[3,56],[-11,95],[19,25],[56,-27]]]}
