{"type":"Topology","bbox":[-73.6783630063544,7.829496169451547,-73.42808733401773,8.00936491043487],"transform":{"scale":[0.000025030070240691084,0.000017988672965628913],"translate":[-73.6783630063544,7.829496169451547]},"objects":{"municipios":{"type":"GeometryCollection","geometries":[{"type":"Polygon","arcs":[[0]],"properties":{"codigo":"20770200701005000101","sector":"207702007010050001","pcode":"CO20770","area_m2":90259}},{"type":"Polygon","arcs":[[1]],"properties":{"codigo":"20770200704006000101","sector":"207702007040060001","pcode":"CO20770","area_m2":42432}},{"type":"Polygon","arcs":[[2,3]],"properties":{"codigo":"20770200702007000101","sector":"207702007020070001","pcode":"CO20770","area_m2":27137}},{"type":"Polygon","arcs":[[-4,4]],"properties":{"codigo":"20770200702007000102","sector":"207702007020070001","pcode":"CO20770","area_m2":46384}},{"type":"MultiPolygon","arcs":[[[5]],[[6]],[[7]]],"properties":{"codigo":"20770200607008000101","sector":"207702006070080001","pcode":"CO20770","area_m2":79179}},{"type":"Polygon","arcs":[[8]],"properties":{"codigo":"20770200605009000101","sector":"207702006050090001","pcode":"CO20770","area_m2":26655}},{"type":"Polygon","arcs":[[9]],"properties":{"codigo":"20770200204010000101","sector":"207702002040100001","pcode":"CO20770","area_m2":129237}},{"type":"Polygon","arcs":[[10]],"properties":{"codigo":"20770200103012000101","sector":"207702001030120001","pcode":"CO20770","area_m2":156311}},{"type":"Polygon","arcs":[[11,12,13]],"properties":{"codigo":"20770100000000000106","sector":"207701000000000001","pcode":"CO20770","area_m2":36498}},{"type":"Polygon","arcs":[[14,15,16,17,18,19]],"properties":{"codigo":"20770100000000000107","sector":"207701000000000001","pcode":"CO20770","area_m2":198068}},{"type":"Polygon","arcs":[[20,21,22]],"properties":{"codigo":"20770100000000000108","sector":"207701000000000001","pcode":"CO20770","area_m2":56404}},{"type":"Polygon","arcs":[[23,24,25,-21,26,27]],"properties":{"codigo":"20770100000000000101","sector":"207701000000000001","pcode":"CO20770","area_m2":103964}},{"type":"Polygon","arcs":[[28,29,-20,30,-25,31,-12]],"properties":{"codigo":"20770100000000000102","sector":"207701000000000001","pcode":"CO20770","area_m2":226507}},{"type":"Polygon","arcs":[[-22,-26,-31,-19,32,33,34]],"properties":{"codigo":"20770100000000000103","sector":"207701000000000001","pcode":"CO20770","area_m2":240308}},{"type":"Polygon","arcs":[[35,-28,36]],"properties":{"codigo":"20770100000000000104","sector":"207701000000000001","pcode":"CO20770","area_m2":53403}},{"type":"Polygon","arcs":[[-13,-32,-24,-36,37]],"properties":{"codigo":"20770100000000000105","sector":"207701000000000001","pcode":"CO20770","area_m2":48758}},{"type":"Polygon","arcs":[[-34,38]],"properties":{"codigo":"20770100000000000109","sector":"207701000000000001","pcode":"CO20770","area_m2":44426}},{"type":"Polygon","arcs":[[39,-17]],"properties":{"codigo":"20770100000000000201","sector":"207701000000000002","pcode":"CO20770","area_m2":92596}},{"type":"Polygon","arcs":[[-15,-30,40]],"properties":{"codigo":"20770100000000000301","sector":"207701000000000003","pcode":"CO20770","area_m2":315400}},{"type":"Polygon","arcs":[[41]],"properties":{"codigo":"20770200703001000101","sector":"207702007030010001","pcode":"CO20770","area_m2":181481}},{"type":"Polygon","arcs":[[42]],"properties":{"codigo":"20770200505003000101","sector":"207702005050030001","pcode":"CO20770","area_m2":79271}},{"type":"Polygon","arcs":[[43]],"properties":{"codigo":"20770200106004000101","sector":"207702001060040001","pcode":"CO20770","area_m2":48173}},{"type":"Polygon","arcs":[[44]],"properties":{"codigo":"20770200103016000101","sector":"207702001030160001","pcode":"CO20770","area_m2":58050}},{"type":"Polygon","arcs":[[45]],"properties":{"codigo":"20770200505011000101","sector":"207702005050110001","pcode":"CO20770","area_m2":36703}}]}},"arcs":[[[4251,4121],[17,-68],[22,9],[11,-38],[46,2],[0,-70],[-56,-3],[17,-92],[-12,-23],[-63,-8],[0,7],[-59,-13],[-3,14],[31,20],[-2,21],[25,7],[2,-20],[17,11],[3,40],[12,0],[-3,22],[10,5],[-4,29],[13,4],[-5,29],[-8,-3],[-8,35],[8,3],[-7,33],[-8,-3],[-12,54],[16,-4]],[[3496,84],[6,0],[-2,-81],[-92,-3],[1,56],[-6,27],[93,1]],[[880,2705],[23,-30],[-11,-25],[-37,-35],[-18,37],[-18,-9],[-5,18],[-16,-9]],[[798,2652],[-3,11],[60,35],[25,7]],[[798,2652],[-10,-5],[-47,75],[13,30],[11,-17],[20,6],[15,20],[11,-24],[26,32],[43,-64]],[[5317,1791],[15,-32],[8,1],[3,-106],[-3,-20],[149,87],[3,-12],[-107,-64],[2,-11],[-76,-44],[-33,-59],[-1,15],[-18,26],[32,16],[-42,32],[45,34],[-11,42],[29,16],[-1,41],[-11,10],[-1,35],[18,-7]],[[5532,1732],[-24,-13],[-4,10],[38,21],[-10,-18]],[[5522,1764],[-11,18],[19,9],[6,-20],[-14,-7]],[[3726,6112],[13,-27],[28,18],[17,-43],[17,-32],[-7,-22],[-16,38],[-21,-16],[8,-21],[-11,-8],[-22,40],[-25,74],[19,-1]],[[2902,8874],[18,-41],[72,-249],[-32,-18],[-4,15],[-33,-21],[-36,127],[-33,35],[11,13],[-34,107],[68,41],[3,-9]],[[917,6667],[14,-31],[-11,-14],[43,-32],[37,3],[-2,26],[31,6],[3,-21],[75,30],[10,-79],[-120,-10],[-23,-9],[-43,-31],[-39,-3],[-27,-39],[-44,47],[-8,30],[6,28],[28,30],[36,60],[34,9]],[[6836,9548],[-18,-13],[-15,37],[-66,-47],[-31,79]],[[6706,9604],[27,16],[11,-35],[66,41]],[[6810,9626],[26,-78]],[[6825,9300],[-37,-20],[-1,-25],[-29,-14],[-9,-19]],[[6749,9222],[-10,27],[-8,-27],[-14,-4],[-33,14],[3,91],[-4,15]],[[6683,9338],[-17,33],[-22,68],[-24,0],[-47,-48],[-20,4]],[[6553,9395],[-3,11],[-34,5],[-19,11],[7,19]],[[6504,9441],[22,-3],[113,80]],[[6639,9518],[36,-93],[81,54],[69,-179]],[[6607,9835],[4,-10],[-49,-40],[-12,28],[-17,-12]],[[6533,9801],[-58,157]],[[6475,9958],[-10,27],[19,14],[12,-29],[15,1],[21,-52],[32,-30],[5,-36],[13,-16],[25,-2]],[[6694,9683],[-14,-9]],[[6680,9674],[-78,-57]],[[6602,9617],[-69,184]],[[6607,9835],[11,6]],[[6618,9841],[17,-9],[11,-22],[48,-127]],[[6836,9548],[5,-60],[19,-63],[8,4],[13,-31],[10,7],[6,-31],[17,-33]],[[6914,9341],[-89,-41]],[[6639,9518],[-37,99]],[[6680,9674],[26,-70]],[[6504,9441],[-63,50],[-33,22],[-3,53]],[[6405,9566],[4,77]],[[6409,9643],[7,-12],[105,-28],[23,19],[13,1],[-12,25],[-11,-4],[-23,60],[21,14],[-48,126],[-20,70],[4,40],[7,4]],[[6729,9705],[-35,-22]],[[6618,9841],[58,50],[34,-95],[19,-91]],[[6729,9705],[35,-32],[27,5],[19,-52]],[[6405,9566],[-80,-10],[-17,-6],[5,67],[6,31],[90,-5]],[[6683,9338],[-30,-23],[-48,-14],[-71,-8],[-26,1],[1,85],[44,16]],[[6914,9341],[79,40],[1,-22],[-11,-4],[2,-76],[-25,-11],[0,-16],[18,-55],[22,-36],[-65,-75],[-15,-21],[7,-44],[-39,-52],[-34,26],[-11,-11],[-56,147],[-38,91]],[[5125,1291],[-8,-11],[32,-57],[-26,-33],[-34,-30],[-47,-26],[-6,23],[-21,17],[-9,-5],[-73,-78],[4,-8],[-22,-18],[-36,-46],[2,-8],[-27,-26],[-86,-96],[-8,13],[-11,-13],[-6,13],[128,152],[48,62],[6,20],[-15,-4],[-20,16],[-12,32],[-9,-4],[-19,98],[14,9],[19,-25],[18,15],[29,-123],[8,-15],[52,58],[54,55],[41,48],[4,-6],[74,89],[33,36],[6,-10],[-85,-99],[8,-15]],[[8865,3598],[35,56],[46,-124],[-58,-43],[38,-103],[-15,20],[-9,-7],[-27,67],[-2,16],[-49,138],[7,5],[-33,87],[22,-18],[45,-94]],[[540,2806],[14,1],[-49,-96],[-20,-6],[-33,-81],[-7,7],[-11,-34],[-14,-15],[-7,12],[18,22],[-10,6],[16,54],[-30,53],[10,14],[20,-23],[58,-2],[11,19],[-2,27],[-9,4],[9,63],[36,-25]],[[66,6612],[18,12],[8,-22],[20,-4],[-9,-14],[9,-26],[-13,-18],[10,-19],[-21,-15],[-8,13],[-26,-39],[-10,-7],[-10,-33],[9,-5],[-15,-58],[-13,7],[10,38],[-25,13],[45,97],[-20,18],[19,39],[-6,29],[19,15],[9,-21]],[[9998,6639],[-17,-62],[-66,21],[16,36],[-21,55],[89,-18],[-8,-27],[7,-5]]]}
