{"type":"Topology","bbox":[-73.59611741188638,8.078765653300131,-73.37939991207088,8.302825002639862],"transform":{"scale":[0.00002167391737328752,0.000022408175751548246],"translate":[-73.59611741188638,8.078765653300131]},"objects":{"municipios":{"type":"GeometryCollection","geometries":[{"type":"Polygon","arcs":[[0,1,2,3]],"properties":{"codigo":"20614100000000000105","sector":"206141000000000001","pcode":"CO20614","area_m2":25152}},{"type":"Polygon","arcs":[[-3,4,5,6,7]],"properties":{"codigo":"20614100000000000101","sector":"206141000000000001","pcode":"CO20614","area_m2":217487}},{"type":"Polygon","arcs":[[8,-1,9,10]],"properties":{"codigo":"20614100000000000104","sector":"206141000000000001","pcode":"CO20614","area_m2":28832}},{"type":"Polygon","arcs":[[11,12,13]],"properties":{"codigo":"20614200402004000101","sector":"206142004020040001","pcode":"CO20614","area_m2":178473}},{"type":"Polygon","arcs":[[14,15,-13]],"properties":{"codigo":"20614200402004000102","sector":"206142004020040001","pcode":"CO20614","area_m2":86636}},{"type":"Polygon","arcs":[[-15,-12,16]],"properties":{"codigo":"20614200402004000103","sector":"206142004020040001","pcode":"CO20614","area_m2":232951}},{"type":"Polygon","arcs":[[17]],"properties":{"codigo":"20614200502012000101","sector":"206142005020120001","pcode":"CO20614","area_m2":162367}},{"type":"Polygon","arcs":[[18,19,20,-5,-2]],"properties":{"codigo":"20614100000000000106","sector":"206141000000000001","pcode":"CO20614","area_m2":136073}},{"type":"Polygon","arcs":[[21,-10,-4,-8,22]],"properties":{"codigo":"20614100000000000102","sector":"206141000000000001","pcode":"CO20614","area_m2":83051}},{"type":"Polygon","arcs":[[23,-11,-22,24]],"properties":{"codigo":"20614100000000000103","sector":"206141000000000001","pcode":"CO20614","area_m2":311262}},{"type":"Polygon","arcs":[[-21,25,-6]],"properties":{"codigo":"20614100000000000107","sector":"206141000000000001","pcode":"CO20614","area_m2":233324}},{"type":"Polygon","arcs":[[-19,-9,-24,26]],"properties":{"codigo":"20614100000000000108","sector":"206141000000000001","pcode":"CO20614","area_m2":263937}},{"type":"Polygon","arcs":[[27]],"properties":{"codigo":"20614200601001000101","sector":"206142006010010001","pcode":"CO20614","area_m2":125380}},{"type":"Polygon","arcs":[[28]],"properties":{"codigo":"20614200303006000101","sector":"206142003030060001","pcode":"CO20614","area_m2":140883}},{"type":"Polygon","arcs":[[29]],"properties":{"codigo":"20614200102010000101","sector":"206142001020100001","pcode":"CO20614","area_m2":36479}}]}},"arcs":[[[9710,9551],[28,-18],[4,-31]],[[9742,9502],[-70,-4]],[[9672,9498],[-12,42],[10,35]],[[9670,9575],[40,-24]],[[9672,9498],[-45,-3],[-33,-14]],[[9594,9481],[-59,11],[-19,-7],[-10,-41],[5,-31],[-58,8],[-96,59],[-9,13]],[[9348,9493],[21,46],[35,-6],[32,11],[29,-19],[13,19],[41,4],[8,25],[26,11],[-6,43],[21,-15],[90,77]],[[9658,9689],[19,-65],[-22,-20],[15,-29]],[[9813,9510],[-71,-8]],[[9710,9551],[46,35]],[[9756,9586],[38,-34],[3,-29],[16,-13]],[[3798,767],[-17,41],[186,44],[32,26],[54,16]],[[4053,894],[66,19],[52,0],[25,20]],[[4196,933],[64,4],[3,-40],[-136,-73],[-30,-3],[-15,-14],[-14,11],[-36,-7],[-37,-35],[-39,10],[-5,-20],[-48,0],[18,36],[-27,18],[-96,-53]],[[4053,894],[-23,71]],[[4030,965],[105,40],[20,61],[14,-4],[-7,-58],[14,-38],[79,18],[-15,-20],[-44,-31]],[[3798,767],[-75,-40],[-34,52],[16,8],[-15,50],[56,25],[53,10],[40,28],[12,-30],[74,13],[1,39],[-54,19],[10,28],[-17,87],[75,-51],[29,29],[7,-11],[36,-1],[18,-57]],[[1769,35],[30,22],[-18,35],[11,6],[20,-31],[49,30],[-26,49],[16,9],[-31,55],[44,21],[22,-40],[50,24],[36,-40],[16,-27],[13,-61],[-50,-16],[10,-18],[-41,-19],[-7,12],[-56,-37],[-17,24],[-44,-33],[-27,35]],[[9742,9502],[-10,-46],[-24,-5],[-1,-36],[-19,-28],[0,-26]],[[9688,9361],[-15,-19],[-51,3],[-22,28],[2,34],[-14,-2],[-48,-64]],[[9540,9341],[-8,-14],[-39,29],[34,42],[-3,18],[35,37],[39,19],[-4,9]],[[9767,9684],[12,-5],[12,-33],[-8,-26],[-27,-34]],[[9658,9689],[-1,39],[-9,22],[20,-4],[-3,-32],[53,-30],[49,0]],[[9940,9550],[-17,-23],[-26,5],[-18,17],[-66,-39]],[[9767,9684],[55,40],[-13,56],[-20,11],[-18,57],[-14,1],[-11,51],[40,4],[-4,21],[-23,37],[-4,37],[68,-10],[17,-19],[23,11],[9,-42],[-32,-25],[18,-29],[20,-10],[25,12],[-1,-29],[-23,-24],[-6,-91],[49,4],[3,-8],[-33,-32],[19,-8],[8,-27],[21,-29],[-27,-60],[27,-33]],[[9540,9341],[34,-19],[-9,-32],[-42,-5],[-22,-21],[-2,17],[-19,-19],[-5,22],[-110,5],[-1,50],[-53,21],[-12,-12],[8,41],[-25,29],[61,37],[7,15],[-58,26],[9,17],[-13,15],[15,28],[32,-17],[13,-46]],[[9940,9550],[22,-58],[37,-22],[-15,-42],[-38,-26],[-6,24],[-48,-27],[-12,12],[-49,-45],[4,-50],[-16,-26],[-26,7],[-21,-10],[-10,21],[-11,-13],[-33,-3],[-17,11],[-2,42],[-11,16]],[[423,1420],[-26,-20],[-58,6],[1,-23],[-29,-19],[-1,31],[-42,-14],[5,-51],[-60,-1],[-42,-14],[-27,3],[5,36],[-61,-5],[-2,-15],[-22,9],[7,20],[-70,19],[-1,15],[130,-13],[40,6],[37,16],[103,23],[35,15],[2,17],[64,-13],[12,-28]],[[4350,4319],[31,-44],[-40,-37],[-103,-70],[24,-33],[-33,13],[-48,-37],[-30,-11],[3,-12],[-103,-87],[8,-9],[-15,-28],[-58,15],[-38,-5],[-1,-20],[-18,13],[5,27],[48,3],[-1,21],[29,8],[-3,33],[27,-30],[26,10],[47,42],[-6,6],[34,29],[8,-8],[72,59],[10,19],[-16,25],[31,16],[8,-11],[22,10],[69,53],[-46,38],[-68,-22],[-12,28],[66,22],[42,25],[29,-51]],[[4680,6265],[28,-28],[41,5],[40,-31],[-62,10],[-59,-5],[-2,-61],[-43,-8],[-12,42],[45,10],[-4,64],[28,2]]]}
