{"type":"Topology","bbox":[-73.52342077636098,7.70648990061106,-73.38387218726001,7.839236018747298],"transform":{"scale":[0.0000139562545355504,0.000013275939407564527],"translate":[-73.52342077636098,7.70648990061106]},"objects":{"municipios":{"type":"GeometryCollection","geometries":[{"type":"MultiPolygon","arcs":[[[0]],[[1]]],"properties":{"codigo":"20710200305001000101","sector":"207102003050010001","pcode":"CO20710","area_m2":160401}},{"type":"Polygon","arcs":[[2]],"properties":{"codigo":"20710200306002000101","sector":"207102003060020001","pcode":"CO20710","area_m2":38454}},{"type":"MultiPolygon","arcs":[[[3]],[[4]],[[5]]],"properties":{"codigo":"20710200105005000101","sector":"207102001050050001","pcode":"CO20710","area_m2":66662}},{"type":"Polygon","arcs":[[6]],"properties":{"codigo":"20710200306008000101","sector":"207102003060080001","pcode":"CO20710","area_m2":48966}},{"type":"Polygon","arcs":[[7,8,9,10]],"properties":{"codigo":"20710100000000000101","sector":"207101000000000001","pcode":"CO20710","area_m2":111594}},{"type":"Polygon","arcs":[[11,12,13,-11,14]],"properties":{"codigo":"20710100000000000102","sector":"207101000000000001","pcode":"CO20710","area_m2":131983}},{"type":"Polygon","arcs":[[15,16,17,18,-8,-14]],"properties":{"codigo":"20710100000000000103","sector":"207101000000000001","pcode":"CO20710","area_m2":164856}},{"type":"Polygon","arcs":[[19,20,-17,21]],"properties":{"codigo":"20710100000000000104","sector":"207101000000000001","pcode":"CO20710","area_m2":110999}},{"type":"Polygon","arcs":[[22,23,24,25,26,27,-18,-21]],"properties":{"codigo":"20710100000000000105","sector":"207101000000000001","pcode":"CO20710","area_m2":144423}},{"type":"Polygon","arcs":[[28,29,30,-24]],"properties":{"codigo":"20710100000000000106","sector":"207101000000000001","pcode":"CO20710","area_m2":55457}},{"type":"Polygon","arcs":[[31,-30,32]],"properties":{"codigo":"20710100000000000108","sector":"207101000000000001","pcode":"CO20710","area_m2":25510}},{"type":"Polygon","arcs":[[33,34,-12,35]],"properties":{"codigo":"20710100000000000109","sector":"207101000000000001","pcode":"CO20710","area_m2":205450}},{"type":"Polygon","arcs":[[36,-22,-16,-13,-35,37]],"properties":{"codigo":"20710100000000000110","sector":"207101000000000001","pcode":"CO20710","area_m2":224240}},{"type":"Polygon","arcs":[[-38,-34,38]],"properties":{"codigo":"20710100000000000111","sector":"207101000000000001","pcode":"CO20710","area_m2":120279}},{"type":"Polygon","arcs":[[39,40,41,-26]],"properties":{"codigo":"20710100000000000201","sector":"207101000000000002","pcode":"CO20710","area_m2":69407}},{"type":"Polygon","arcs":[[42,43,-41]],"properties":{"codigo":"20710100000000000202","sector":"207101000000000002","pcode":"CO20710","area_m2":241132}},{"type":"Polygon","arcs":[[-43,-40,-25,-31,-32,44]],"properties":{"codigo":"20710100000000000203","sector":"207101000000000002","pcode":"CO20710","area_m2":199782}},{"type":"Polygon","arcs":[[-19,-28,45,-9]],"properties":{"codigo":"20710100000000000301","sector":"207101000000000003","pcode":"CO20710","area_m2":166074}}]}},"arcs":[[[25,1739],[7,-12],[104,-10],[-1,-6],[115,-22],[3,19],[172,-37],[-3,-13],[149,-33],[11,32],[93,-37],[75,-10],[-7,-41],[49,-8],[-3,-15],[-186,32],[-6,-109],[-82,2],[3,54],[-63,7],[-39,-6],[1,17],[-176,33],[5,62],[-163,29],[4,25],[-87,16],[25,31]],[[678,1685],[-39,9],[16,37],[36,-13],[-13,-33]],[[6497,1975],[7,-42],[-22,23],[-31,-6],[7,-18],[-45,-20],[19,-61],[-21,-15],[-18,22],[-34,102],[-64,-21],[-7,30],[212,67],[9,-58],[-12,-3]],[[6753,9998],[12,-21],[25,16],[42,-61],[-14,-11],[65,-134],[21,0],[12,-52],[-58,-12],[-29,95],[-19,2],[-30,-31],[-43,-20],[6,-26],[-40,-54],[-25,71],[-22,39],[24,27],[109,44],[-52,122],[16,6]],[[6915,9645],[-41,11],[31,21],[10,-32]],[[6665,9682],[-16,-7],[-27,62],[18,8],[25,-63]],[[6597,285],[2,-285],[-17,0],[5,127],[-49,1],[-39,24],[82,-5],[0,59],[-17,14],[-79,1],[0,-29],[-37,1],[-2,58],[14,43],[40,1],[25,40],[59,1],[1,35],[-29,0],[1,22],[37,1],[3,-109]],[[9254,4338],[-51,-25],[37,-81],[-29,-16],[-10,-32],[7,-40],[-29,-39],[-33,7]],[[9146,4112],[-38,102],[61,29],[-94,202],[-1,13]],[[9074,4458],[17,51],[-50,100],[68,35]],[[9109,4644],[38,-63],[33,-82],[74,-161]],[[9237,4707],[147,-318],[25,-47]],[[9409,4342],[48,-70]],[[9457,4272],[-26,-23],[-30,34],[-49,-25],[-48,105],[-50,-25]],[[9109,4644],[128,63]],[[9457,4272],[69,-81]],[[9526,4191],[-60,-44],[-39,-47]],[[9427,4100],[-40,-63],[-28,23],[-129,-68],[-31,27],[86,42],[-15,33],[-161,-80]],[[9109,4014],[-29,66],[66,32]],[[9681,4034],[3,-55],[15,-29],[37,-138],[23,-31],[-64,-28],[-2,52],[29,1],[-15,60],[-32,-10],[-28,87],[-33,37],[-31,-38],[-55,-32],[-36,37]],[[9492,3947],[-70,83],[33,45],[-28,25]],[[9526,4191],[107,-132],[22,-38],[26,13]],[[9492,3947],[-42,-52]],[[9450,3895],[-22,16],[-24,-37],[-112,78],[-89,-138]],[[9203,3814],[-43,31]],[[9160,3845],[-156,117]],[[9004,3962],[7,4]],[[9011,3966],[98,48]],[[9450,3895],[-78,-120]],[[9372,3775],[-45,29],[-36,-50]],[[9291,3754],[-88,60]],[[9297,3637],[-56,38],[50,79]],[[9372,3775],[-28,-46],[-20,-109],[-27,17]],[[9629,4533],[9,-19]],[[9638,4514],[-227,-114],[22,-47],[-24,-11]],[[9237,4707],[-68,145],[16,4],[89,-189],[25,27],[31,-4],[17,70],[47,17],[45,2],[42,-11],[27,-48],[56,-61],[32,-90],[13,5],[20,-41]],[[9690,4403],[51,-44],[29,-105],[31,-47],[-21,-52],[-60,8],[-37,-39],[23,-39],[-25,-51]],[[9638,4514],[52,-111]],[[9629,4533],[190,161],[42,-59],[37,-25],[96,-86],[5,-12],[-183,-58],[-126,-51]],[[9160,3845],[-54,-81]],[[9106,3764],[-88,66],[-32,-46],[-68,49],[-14,-7],[-51,61]],[[8853,3887],[151,75]],[[9106,3764],[-138,-202],[74,-54],[-104,-162]],[[8938,3346],[-93,86],[38,45],[-4,42],[-44,13],[-39,40],[-93,82],[-36,84],[144,13],[9,110],[33,26]],[[9297,3637],[-23,-40],[-36,22],[-139,-224],[-64,-112],[-115,35],[18,28]],[[9011,3966],[-1,48],[11,138],[-59,-19],[-46,92],[-54,-29],[7,91],[53,22],[-6,12],[36,30],[-21,45],[33,7],[110,55]]]}
