{"type":"Topology","bbox":[-73.77053385625277,8.00889767562199,-73.58603585755696,8.385506024345275],"transform":{"scale":[0.000018451645034083784,0.00003766460133246183],"translate":[-73.77053385625277,8.00889767562199]},"objects":{"municipios":{"type":"GeometryCollection","geometries":[{"type":"Polygon","arcs":[[0,1,2,3]],"properties":{"codigo":"20011100000000001202","sector":"200111000000000012","pcode":"CO20011","area_m2":34925}},{"type":"Polygon","arcs":[[4,5,6,7,8]],"properties":{"codigo":"20011100000000000204","sector":"200111000000000002","pcode":"CO20011","area_m2":96661}},{"type":"Polygon","arcs":[[9,10]],"properties":{"codigo":"20011100000000000109","sector":"200111000000000001","pcode":"CO20011","area_m2":44295}},{"type":"Polygon","arcs":[[11,12,13]],"properties":{"codigo":"20011100000000000905","sector":"200111000000000009","pcode":"CO20011","area_m2":59720}},{"type":"Polygon","arcs":[[14,15,16]],"properties":{"codigo":"20011200704001000102","sector":"200112007040010001","pcode":"CO20011","area_m2":66615}},{"type":"MultiPolygon","arcs":[[[17,18]],[[19]]],"properties":{"codigo":"20011200606006000102","sector":"200112006060060001","pcode":"CO20011","area_m2":36218}},{"type":"Polygon","arcs":[[20,21]],"properties":{"codigo":"20011200702009000102","sector":"200112007020090001","pcode":"CO20011","area_m2":32747}},{"type":"MultiPolygon","arcs":[[[22]],[[23]]],"properties":{"codigo":"20011200301011000101","sector":"200112003010110001","pcode":"CO20011","area_m2":77665}},{"type":"Polygon","arcs":[[24,25,-2]],"properties":{"codigo":"20011100000000001201","sector":"200111000000000012","pcode":"CO20011","area_m2":19745}},{"type":"Polygon","arcs":[[26,27,28,29,30]],"properties":{"codigo":"20011100000000000605","sector":"200111000000000006","pcode":"CO20011","area_m2":130290}},{"type":"Polygon","arcs":[[31,32,33,34]],"properties":{"codigo":"20011100000000000509","sector":"200111000000000005","pcode":"CO20011","area_m2":69747}},{"type":"Polygon","arcs":[[35,36,37,38,39]],"properties":{"codigo":"20011100000000000603","sector":"200111000000000006","pcode":"CO20011","area_m2":108029}},{"type":"Polygon","arcs":[[40,41,-31,42,43]],"properties":{"codigo":"20011100000000000606","sector":"200111000000000006","pcode":"CO20011","area_m2":150159}},{"type":"Polygon","arcs":[[44,45,46,47,-42]],"properties":{"codigo":"20011100000000000607","sector":"200111000000000006","pcode":"CO20011","area_m2":129529}},{"type":"Polygon","arcs":[[48,49,-44,50]],"properties":{"codigo":"20011100000000000701","sector":"200111000000000007","pcode":"CO20011","area_m2":97839}},{"type":"Polygon","arcs":[[-46,51,52,53,54]],"properties":{"codigo":"20011100000000000804","sector":"200111000000000008","pcode":"CO20011","area_m2":94679}},{"type":"Polygon","arcs":[[55,56,57,58,-36,59]],"properties":{"codigo":"20011100000000000508","sector":"200111000000000005","pcode":"CO20011","area_m2":99251}},{"type":"Polygon","arcs":[[60,61,62,63,64,-5,65]],"properties":{"codigo":"20011100000000000302","sector":"200111000000000003","pcode":"CO20011","area_m2":122967}},{"type":"Polygon","arcs":[[-60,-40,-27,-48]],"properties":{"codigo":"20011100000000000604","sector":"200111000000000006","pcode":"CO20011","area_m2":103283}},{"type":"Polygon","arcs":[[66,67,68]],"properties":{"codigo":"20011100000000000413","sector":"200111000000000004","pcode":"CO20011","area_m2":39091}},{"type":"Polygon","arcs":[[69,70,71,72]],"properties":{"codigo":"20011100000000000101","sector":"200111000000000001","pcode":"CO20011","area_m2":372950}},{"type":"Polygon","arcs":[[73,74,-70,75]],"properties":{"codigo":"20011100000000000102","sector":"200111000000000001","pcode":"CO20011","area_m2":164864}},{"type":"Polygon","arcs":[[76,77,78,79,80,-74,81]],"properties":{"codigo":"20011100000000000103","sector":"200111000000000001","pcode":"CO20011","area_m2":138376}},{"type":"Polygon","arcs":[[82,83,84,85,-71,-75,-81]],"properties":{"codigo":"20011100000000000104","sector":"200111000000000001","pcode":"CO20011","area_m2":331530}},{"type":"Polygon","arcs":[[86,87,88,89,90,-83,-80]],"properties":{"codigo":"20011100000000000105","sector":"200111000000000001","pcode":"CO20011","area_m2":193326}},{"type":"Polygon","arcs":[[91,92,93,94]],"properties":{"codigo":"20011100000000000412","sector":"200111000000000004","pcode":"CO20011","area_m2":54479}},{"type":"Polygon","arcs":[[-91,95,96,-84]],"properties":{"codigo":"20011100000000000106","sector":"200111000000000001","pcode":"CO20011","area_m2":199388}},{"type":"Polygon","arcs":[[-86,97,-11,98,-72]],"properties":{"codigo":"20011100000000000107","sector":"200111000000000001","pcode":"CO20011","area_m2":251055}},{"type":"Polygon","arcs":[[99,-96,-90,100]],"properties":{"codigo":"20011100000000000108","sector":"200111000000000001","pcode":"CO20011","area_m2":137583}},{"type":"Polygon","arcs":[[101,-77,102]],"properties":{"codigo":"20011100000000000201","sector":"200111000000000002","pcode":"CO20011","area_m2":100971}},{"type":"Polygon","arcs":[[103,-7,104,105,-78,-102,106]],"properties":{"codigo":"20011100000000000202","sector":"200111000000000002","pcode":"CO20011","area_m2":123924}},{"type":"Polygon","arcs":[[107,-8,-104,108]],"properties":{"codigo":"20011100000000000203","sector":"200111000000000002","pcode":"CO20011","area_m2":113536}},{"type":"Polygon","arcs":[[109,110,-66,-9,-108,111]],"properties":{"codigo":"20011100000000000205","sector":"200111000000000002","pcode":"CO20011","area_m2":132846}},{"type":"Polygon","arcs":[[-65,112,113,114,-105,-6]],"properties":{"codigo":"20011100000000000301","sector":"200111000000000003","pcode":"CO20011","area_m2":166766}},{"type":"Polygon","arcs":[[115,-113,-64,116]],"properties":{"codigo":"20011100000000000303","sector":"200111000000000003","pcode":"CO20011","area_m2":108418}},{"type":"Polygon","arcs":[[117,118,119,120,-114,-116,121]],"properties":{"codigo":"20011100000000000304","sector":"200111000000000003","pcode":"CO20011","area_m2":170289}},{"type":"Polygon","arcs":[[122,-119,123]],"properties":{"codigo":"20011100000000000305","sector":"200111000000000003","pcode":"CO20011","area_m2":68296}},{"type":"Polygon","arcs":[[124,125,-124,126]],"properties":{"codigo":"20011100000000000306","sector":"200111000000000003","pcode":"CO20011","area_m2":127453}},{"type":"Polygon","arcs":[[127,128,-125,129]],"properties":{"codigo":"20011100000000000307","sector":"200111000000000003","pcode":"CO20011","area_m2":227095}},{"type":"Polygon","arcs":[[-87,-79,-106,-115,130]],"properties":{"codigo":"20011100000000000401","sector":"200111000000000004","pcode":"CO20011","area_m2":118400}},{"type":"Polygon","arcs":[[131,-88,-131,-121]],"properties":{"codigo":"20011100000000000402","sector":"200111000000000004","pcode":"CO20011","area_m2":106136}},{"type":"Polygon","arcs":[[132,133,134,135,136,137]],"properties":{"codigo":"20011100000000000409","sector":"200111000000000004","pcode":"CO20011","area_m2":88209}},{"type":"Polygon","arcs":[[-123,138,139,140,-89,-132,-120]],"properties":{"codigo":"20011100000000000403","sector":"200111000000000004","pcode":"CO20011","area_m2":270550}},{"type":"Polygon","arcs":[[141,-138,142,-139,-126,-129]],"properties":{"codigo":"20011100000000000404","sector":"200111000000000004","pcode":"CO20011","area_m2":233147}},{"type":"Polygon","arcs":[[-143,-137,143,144,145,-140]],"properties":{"codigo":"20011100000000000405","sector":"200111000000000004","pcode":"CO20011","area_m2":147855}},{"type":"Polygon","arcs":[[146,-94,147,148,149,150,-145]],"properties":{"codigo":"20011100000000000406","sector":"200111000000000004","pcode":"CO20011","area_m2":184629}},{"type":"Polygon","arcs":[[151,152,-95,-147,-144,-136]],"properties":{"codigo":"20011100000000000407","sector":"200111000000000004","pcode":"CO20011","area_m2":272886}},{"type":"Polygon","arcs":[[-146,-151,153,154,155,156,-101,-141]],"properties":{"codigo":"20011100000000000408","sector":"200111000000000004","pcode":"CO20011","area_m2":252160}},{"type":"MultiPolygon","arcs":[[[-133,-142,-128,157]],[[158]]],"properties":{"codigo":"20011100000000000410","sector":"200111000000000004","pcode":"CO20011","area_m2":112805}},{"type":"Polygon","arcs":[[159,-3,-26,160,161,-152,-135,162]],"properties":{"codigo":"20011100000000000411","sector":"200111000000000004","pcode":"CO20011","area_m2":176498}},{"type":"Polygon","arcs":[[-34,163,-110,164]],"properties":{"codigo":"20011100000000000501","sector":"200111000000000005","pcode":"CO20011","area_m2":60646}},{"type":"Polygon","arcs":[[-59,165,166,167,168,169,170,-37]],"properties":{"codigo":"20011100000000000502","sector":"200111000000000005","pcode":"CO20011","area_m2":78335}},{"type":"Polygon","arcs":[[171,172,-166,-58]],"properties":{"codigo":"20011100000000000503","sector":"200111000000000005","pcode":"CO20011","area_m2":41006}},{"type":"Polygon","arcs":[[173,-61,-111,-164,-33,174,-172,-57,175]],"properties":{"codigo":"20011100000000000504","sector":"200111000000000005","pcode":"CO20011","area_m2":150059}},{"type":"Polygon","arcs":[[-47,-55,176,177,-176,-56]],"properties":{"codigo":"20011100000000000505","sector":"200111000000000005","pcode":"CO20011","area_m2":182406}},{"type":"Polygon","arcs":[[-173,-175,-32,178,179,-167]],"properties":{"codigo":"20011100000000000506","sector":"200111000000000005","pcode":"CO20011","area_m2":111388}},{"type":"Polygon","arcs":[[180,181,-38,-171,182,183,184,185]],"properties":{"codigo":"20011100000000000507","sector":"200111000000000005","pcode":"CO20011","area_m2":145182}},{"type":"Polygon","arcs":[[186,187,-29,188,-181]],"properties":{"codigo":"20011100000000000601","sector":"200111000000000006","pcode":"CO20011","area_m2":132404}},{"type":"Polygon","arcs":[[-39,-182,-189,-28]],"properties":{"codigo":"20011100000000000602","sector":"200111000000000006","pcode":"CO20011","area_m2":98601}},{"type":"Polygon","arcs":[[-41,-50,189,190,-52,-45]],"properties":{"codigo":"20011100000000000702","sector":"200111000000000007","pcode":"CO20011","area_m2":90909}},{"type":"Polygon","arcs":[[191,192,-191,193]],"properties":{"codigo":"20011100000000000703","sector":"200111000000000007","pcode":"CO20011","area_m2":76703}},{"type":"Polygon","arcs":[[194,-194,-190,-49,195]],"properties":{"codigo":"20011100000000000704","sector":"200111000000000007","pcode":"CO20011","area_m2":95909}},{"type":"Polygon","arcs":[[-192,-195,196,197,198,199,200,201,202,203]],"properties":{"codigo":"20011100000000000705","sector":"200111000000000007","pcode":"CO20011","area_m2":380467}},{"type":"Polygon","arcs":[[204,205,-199]],"properties":{"codigo":"20011100000000000706","sector":"200111000000000007","pcode":"CO20011","area_m2":183838}},{"type":"Polygon","arcs":[[206,-200,-206]],"properties":{"codigo":"20011100000000000707","sector":"200111000000000007","pcode":"CO20011","area_m2":71152}},{"type":"Polygon","arcs":[[207,208,-122,-117,-63,209]],"properties":{"codigo":"20011100000000000801","sector":"200111000000000008","pcode":"CO20011","area_m2":130567}},{"type":"Polygon","arcs":[[210,-210,-62,-174,-178,211]],"properties":{"codigo":"20011100000000000802","sector":"200111000000000008","pcode":"CO20011","area_m2":114712}},{"type":"Polygon","arcs":[[-203,212,-212,-177,-54,213]],"properties":{"codigo":"20011100000000000803","sector":"200111000000000008","pcode":"CO20011","area_m2":119502}},{"type":"Polygon","arcs":[[-204,-214,-53,-193]],"properties":{"codigo":"20011100000000000805","sector":"200111000000000008","pcode":"CO20011","area_m2":94181}},{"type":"Polygon","arcs":[[-213,-202,214,-208,-211]],"properties":{"codigo":"20011100000000000806","sector":"200111000000000008","pcode":"CO20011","area_m2":63543}},{"type":"Polygon","arcs":[[215,216,-168,-180,217]],"properties":{"codigo":"20011100000000000901","sector":"200111000000000009","pcode":"CO20011","area_m2":94436}},{"type":"Polygon","arcs":[[-169,-217,218]],"properties":{"codigo":"20011100000000000902","sector":"200111000000000009","pcode":"CO20011","area_m2":76640}},{"type":"Polygon","arcs":[[219,-183,-170,-219,-216,220,-13]],"properties":{"codigo":"20011100000000000903","sector":"200111000000000009","pcode":"CO20011","area_m2":98693}},{"type":"Polygon","arcs":[[-184,-220,-12,221]],"properties":{"codigo":"20011100000000000904","sector":"200111000000000009","pcode":"CO20011","area_m2":106220}},{"type":"Polygon","arcs":[[222,223,-187,-186,224]],"properties":{"codigo":"20011100000000001001","sector":"200111000000000010","pcode":"CO20011","area_m2":200468}},{"type":"Polygon","arcs":[[-223,225,226,227]],"properties":{"codigo":"20011100000000001002","sector":"200111000000000010","pcode":"CO20011","area_m2":96642}},{"type":"Polygon","arcs":[[228,229,-227,230,231]],"properties":{"codigo":"20011100000000001003","sector":"200111000000000010","pcode":"CO20011","area_m2":175593}},{"type":"Polygon","arcs":[[-197,-196,-51,-43,-30,-188,-224,-228,-230,232]],"properties":{"codigo":"20011100000000001004","sector":"200111000000000010","pcode":"CO20011","area_m2":765409}},{"type":"Polygon","arcs":[[-232,233]],"properties":{"codigo":"20011100000000001005","sector":"200111000000000010","pcode":"CO20011","area_m2":103860}},{"type":"Polygon","arcs":[[234,-154,-150]],"properties":{"codigo":"20011100000000001101","sector":"200111000000000011","pcode":"CO20011","area_m2":75664}},{"type":"Polygon","arcs":[[-149,235,236,237,-155,-235]],"properties":{"codigo":"20011100000000001102","sector":"200111000000000011","pcode":"CO20011","area_m2":93519}},{"type":"Polygon","arcs":[[238,-237,239,-67,240]],"properties":{"codigo":"20011100000000001103","sector":"200111000000000011","pcode":"CO20011","area_m2":201967}},{"type":"Polygon","arcs":[[-68,-240,-236,-148,-93,241]],"properties":{"codigo":"20011100000000001104","sector":"200111000000000011","pcode":"CO20011","area_m2":210648}},{"type":"Polygon","arcs":[[-239,242,-156,-238]],"properties":{"codigo":"20011100000000001105","sector":"200111000000000011","pcode":"CO20011","area_m2":67215}},{"type":"Polygon","arcs":[[243,-4,-160,244]],"properties":{"codigo":"20011100000000001203","sector":"200111000000000012","pcode":"CO20011","area_m2":138975}},{"type":"Polygon","arcs":[[-244,245,-161,-25,-1]],"properties":{"codigo":"20011100000000001204","sector":"200111000000000012","pcode":"CO20011","area_m2":79697}},{"type":"Polygon","arcs":[[246,247,-15]],"properties":{"codigo":"20011200704001000101","sector":"200112007040010001","pcode":"CO20011","area_m2":140431}},{"type":"Polygon","arcs":[[-16,-248,248]],"properties":{"codigo":"20011200704001000103","sector":"200112007040010001","pcode":"CO20011","area_m2":55533}},{"type":"Polygon","arcs":[[-18,249]],"properties":{"codigo":"20011200606006000101","sector":"200112006060060001","pcode":"CO20011","area_m2":49208}},{"type":"Polygon","arcs":[[-21,250]],"properties":{"codigo":"20011200702009000101","sector":"200112007020090001","pcode":"CO20011","area_m2":82313}},{"type":"Polygon","arcs":[[251]],"properties":{"codigo":"20011200306010000101","sector":"200112003060100001","pcode":"CO20011","area_m2":119922}},{"type":"Polygon","arcs":[[252]],"properties":{"codigo":"20011200703012000101","sector":"200112007030120001","pcode":"CO20011","area_m2":165927}},{"type":"Polygon","arcs":[[253]],"properties":{"codigo":"20011200503014000101","sector":"200112005030140001","pcode":"CO20011","area_m2":346132}},{"type":"Polygon","arcs":[[254]],"properties":{"codigo":"20011200503025000101","sector":"200112005030250001","pcode":"CO20011","area_m2":114498}},{"type":"Polygon","arcs":[[255]],"properties":{"codigo":"20011200303026000101","sector":"200112003030260001","pcode":"CO20011","area_m2":112728}},{"type":"Polygon","arcs":[[256]],"properties":{"codigo":"20011200606029000101","sector":"200112006060290001","pcode":"CO20011","area_m2":20476}}]}},"arcs":[[[8227,7414],[-102,4]],[[8125,7418],[4,30],[35,0],[3,20]],[[8167,7468],[45,-2]],[[8212,7466],[11,-19],[4,-33]],[[8456,7988],[-140,-1]],[[8316,7987],[-119,0]],[[8197,7987],[0,41]],[[8197,8028],[212,6]],[[8409,8034],[46,0],[1,-46]],[[7168,8016],[-66,10],[43,74],[36,-4]],[[7181,8096],[-2,-5],[31,-4],[-42,-71]],[[9197,8333],[-14,6],[-10,-6],[10,-14],[-11,0]],[[9172,8319],[-35,13],[-32,-7],[-17,4],[-35,-12],[-5,2],[-21,-10],[-24,-3]],[[9003,8306],[9,7],[64,36],[-12,5],[66,23],[19,13],[59,-17],[2,-9],[-12,-5],[-6,-14],[5,-12]],[[2871,77],[-40,-5],[-9,13],[-72,-9],[-23,15],[-21,-9],[-8,4],[-17,-10],[-84,36]],[[2597,112],[29,12],[38,21]],[[2664,145],[9,4],[27,-13],[-11,-5],[16,-8],[16,-2],[-16,-11],[16,-6],[35,-20],[38,6],[14,5],[-1,12],[20,-27],[32,2],[17,4],[-1,22],[47,1],[1,-7],[21,0],[1,-19],[-76,0],[2,-6]],[[51,3207],[57,3],[-8,50],[7,0]],[[107,3260],[13,-13],[16,-5],[2,-32],[-11,-6],[18,-18],[-30,-6],[-13,17],[-12,-4],[-35,2],[-4,12]],[[227,3158],[-9,-19],[12,-2],[8,12],[21,2],[-18,-26],[-21,-2],[-19,5],[-14,-8],[-17,11],[15,6],[18,-5],[12,20],[12,6]],[[4175,1911],[-1,40],[21,19],[33,20],[43,22],[83,27]],[[4354,2039],[8,-6],[-79,-28],[-17,-3],[-22,-18],[5,-6],[-16,-16],[-15,-3],[-17,-32],[-4,-19],[-22,3]],[[8710,9960],[11,-12],[-42,-7],[-19,-11],[-14,-15],[-29,-14],[2,-8],[-12,0],[13,-27],[-12,-3],[-9,24],[-19,3],[-11,9],[-19,-5],[-9,7],[30,5],[-5,4],[22,7],[-1,10],[-18,24],[-12,6],[48,6],[8,-10],[28,6],[15,-8],[26,7],[-37,24],[12,2],[29,-10],[24,-14]],[[8791,9993],[25,-8],[-28,-14],[-36,-10],[-14,-7],[-37,19],[21,8],[16,3],[24,12],[14,3],[15,-6]],[[8125,7418],[-35,1]],[[8090,7419],[8,9],[2,42],[67,-2]],[[9187,8074],[-3,24],[0,43]],[[9184,8141],[132,2]],[[9316,8143],[109,2]],[[9425,8145],[-19,-67]],[[9406,8078],[-219,-4]],[[8677,8155],[10,-74]],[[8687,8081],[-42,-4],[-48,-9]],[[8597,8068],[0,24],[-23,1],[-1,59]],[[8573,8152],[24,0],[24,6],[56,-3]],[[9001,8138],[-5,54]],[[8996,8192],[87,18]],[[9083,8210],[48,7],[45,4]],[[9176,8221],[8,-80]],[[9184,8141],[-183,-3]],[[9196,7987],[-3,0]],[[9193,7987],[-2,47],[-4,40]],[[9406,8078],[-22,-72]],[[9384,8006],[-21,-12],[-35,-7],[-132,0]],[[9193,7987],[-178,0]],[[9015,7987],[0,0]],[[9015,7987],[-3,18],[-5,65]],[[9007,8070],[180,4]],[[9361,7924],[-117,-3]],[[9244,7921],[-1,20],[-89,-3],[-2,22],[45,1],[-1,26]],[[9384,8006],[-23,-82]],[[9015,7987],[37,-56],[12,0],[1,-14]],[[9065,7917],[-180,-2]],[[8885,7915],[-2,32],[0,41]],[[8883,7988],[132,-1]],[[9007,8070],[-28,0],[-153,-4]],[[8826,8066],[-1,23]],[[8825,8089],[89,2],[-6,64]],[[8908,8155],[50,23],[38,14]],[[9001,8138],[6,-68]],[[8601,7987],[47,0]],[[8648,7987],[1,-29]],[[8649,7958],[-47,-16]],[[8602,7942],[-1,7],[-115,-6],[-165,-6]],[[8321,7937],[-5,50]],[[8456,7988],[145,-1]],[[7477,7524],[22,4]],[[7499,7528],[30,-42],[38,-60],[-1,-9],[12,-22]],[[7578,7395],[-32,-15],[-35,57],[20,3],[-24,39],[-30,45]],[[7599,8130],[-30,-46],[30,-5],[56,-1],[-29,-39],[-14,-16]],[[7612,8023],[-106,28],[-36,6],[-31,2]],[[7439,8059],[-72,9],[-86,15],[-23,5]],[[7258,8088],[36,73],[34,18],[8,10],[-42,34],[-15,4],[-22,10],[9,12],[60,-17],[21,-9],[44,-23],[37,0],[16,3],[29,-2],[30,4],[41,-25],[15,-5],[-37,-9],[22,-11],[6,-11],[50,-9],[-1,-5]],[[7836,8076],[16,-1],[-6,-31],[-12,-37],[-8,-12],[-77,7]],[[7749,8002],[-92,10],[-45,11]],[[7599,8130],[47,-5],[-2,-24],[33,-7],[15,-11],[8,3],[41,-9],[26,0],[26,5],[27,0],[-2,-9],[18,3]],[[8010,8066],[-103,7],[-2,-23],[-8,-36]],[[7897,8014],[-6,-22]],[[7891,7992],[-18,-67]],[[7873,7925],[-140,9]],[[7733,7934],[16,68]],[[7836,8076],[1,8],[25,-2],[25,4],[71,-2],[41,-6],[14,-6],[-3,-6]],[[7733,7934],[-5,-24],[-106,6]],[[7622,7916],[-147,7],[-150,8]],[[7325,7931],[-16,2]],[[7309,7933],[11,22],[19,2],[2,7],[78,6],[9,29],[10,45],[1,15]],[[7873,7925],[-6,-21]],[[7867,7904],[-17,-63]],[[7850,7841],[-5,-18]],[[7845,7823],[-63,5],[-180,8]],[[7602,7836],[17,61],[3,19]],[[7844,7483],[-80,-24]],[[7764,7459],[-46,61]],[[7718,7520],[71,16],[5,6],[23,3]],[[7817,7545],[10,-36],[9,1],[8,-27]],[[7602,7836],[-4,-31]],[[7598,7805],[-6,0],[-10,26],[5,11],[-51,7],[-12,6],[-15,0],[0,10],[-28,23],[-70,-9],[-54,-13],[-54,-8],[-35,5],[-31,0],[-11,18],[3,47],[87,-5],[9,8]],[[7309,7933],[-35,2],[-2,-3],[-28,4],[12,19],[-19,3],[-10,-16],[-17,3],[16,27],[-18,2],[8,14],[-55,8],[7,20]],[[7181,8096],[77,-8]],[[7648,7735],[-17,-5],[-7,15],[7,9],[-7,21],[-31,2],[5,28]],[[7845,7823],[-8,-13],[-22,-8],[-31,0],[-13,-46],[-2,-14],[-25,3],[-23,-1],[-22,7],[-21,0],[-30,-16]],[[8135,8094],[-5,-6],[6,-62],[-129,-2],[-110,-10]],[[8010,8066],[14,9],[42,-1],[17,6],[-1,-7],[36,11],[-2,12],[19,-2]],[[8206,8082],[-15,-1],[6,-53]],[[8197,7987],[-117,0],[-59,-1]],[[8021,7986],[-130,6]],[[8135,8094],[10,-1],[2,-11],[20,0],[1,8],[34,2],[4,-10]],[[8412,8098],[-2,-18],[-1,-46]],[[8206,8082],[46,2],[3,12],[36,-2],[37,-5],[22,1],[0,10],[34,10],[28,-12]],[[8489,8124],[2,-70],[41,10],[19,2],[0,-9],[44,2]],[[8595,8059],[3,-16],[3,-56]],[[8412,8098],[48,18],[29,8]],[[8321,7937],[-56,-1],[1,-19],[-70,-2]],[[8196,7915],[-116,-5],[-25,-2]],[[8055,7908],[-19,38],[-15,40]],[[8471,7918],[-15,3],[-44,0],[0,-29],[-21,-9],[-43,0],[-80,3],[-72,5],[0,24]],[[8602,7942],[-52,-14],[-16,5],[-47,-6],[-16,-9]],[[8409,7873],[8,-18],[-32,-30],[-25,-11],[-24,-5]],[[8336,7809],[-8,17],[32,4],[-3,8],[40,4],[-3,13],[-161,-16],[-63,-6],[-30,-9]],[[8140,7824],[-7,5],[-32,31]],[[8101,7860],[-46,48]],[[8471,7918],[-36,-33],[-21,-6],[-5,-6]],[[8233,7786],[-93,38]],[[8336,7809],[-45,-6],[-58,-17]],[[8504,7750],[3,-9],[-88,-10],[6,-18],[-61,-7],[-63,-4]],[[8301,7702],[-13,13],[-40,61],[-15,10]],[[8336,7809],[16,-25],[48,2],[9,-26],[47,-7],[47,5],[1,-8]],[[8458,7584],[-78,59]],[[8380,7643],[-33,24],[-46,35]],[[8504,7750],[85,-43],[24,9],[12,-8],[-21,-8],[8,-5],[-35,-10],[-21,-23],[41,-28],[-139,-50]],[[8055,7908],[-44,-10],[-144,6]],[[8101,7860],[-54,-6],[-106,-15],[-48,0],[-43,2]],[[8242,7599],[54,-41]],[[8296,7558],[-80,-12]],[[8216,7546],[-11,7]],[[8205,7553],[7,2],[-69,54],[-13,21],[-11,-1]],[[8119,7629],[-21,38]],[[8098,7667],[81,11],[24,-33],[-8,-4],[17,-20],[30,-22]],[[8233,7786],[-121,-45],[-13,-11],[-30,-8]],[[8069,7722],[-37,8],[-35,3],[-21,5],[-16,-10],[-7,9],[-45,4],[-1,6],[-22,8]],[[7885,7755],[18,15],[4,8],[-21,15],[5,26],[-46,4]],[[8380,7643],[-138,-44]],[[8098,7667],[-29,55]],[[8119,7629],[-59,-33],[-14,21]],[[8046,7617],[-24,41],[-75,-9],[-11,20],[-41,-6]],[[7895,7663],[-13,16],[44,6],[-9,21],[-28,24],[-9,18],[5,7]],[[8046,7617],[-45,-7],[9,-12],[-29,-6],[-8,13],[-153,-25],[21,-32],[-24,-3]],[[7718,7520],[-28,39]],[[7690,7559],[17,2]],[[7707,7561],[73,13],[-14,74]],[[7766,7648],[53,5],[76,10]],[[8205,7553],[-55,-14],[-3,-11],[-25,0],[-7,-27],[-110,1],[-3,-5],[-34,2]],[[7968,7499],[7,52],[-23,-11],[-32,-20],[-21,-9],[-30,-20],[-25,-8]],[[7766,7648],[-3,16],[-77,-10],[-35,-2]],[[7651,7652],[-41,-2]],[[7610,7650],[-38,-5]],[[7572,7645],[17,7],[70,6],[3,18],[-21,31],[12,1],[-6,13],[41,3],[4,8],[-44,3]],[[8458,7584],[-162,-26]],[[8624,7455],[-35,34],[56,19],[16,3],[47,-30],[-84,-26]],[[8212,7466],[0,0]],[[8090,7419],[-1,-10],[-45,1],[-108,-1]],[[7936,7409],[-4,2],[16,18],[10,30],[10,40]],[[8216,7546],[10,-20],[-9,-31],[-15,-16],[10,-13]],[[8597,8068],[-2,-9]],[[8489,8124],[13,1],[16,-12],[4,6],[-14,8],[21,6],[21,17],[23,2]],[[8908,8155],[-44,-12]],[[8864,8143],[-2,19],[-27,45]],[[8835,8207],[39,-5],[14,3],[14,16],[15,3]],[[8917,8224],[24,4],[23,-27],[72,14],[-10,19]],[[9026,8234],[17,6],[-5,11],[25,5]],[[9063,8256],[7,-21],[13,-25]],[[8825,8089],[-6,46]],[[8819,8135],[45,8]],[[8742,7988],[-94,-1]],[[8687,8081],[28,5],[38,16],[21,20],[45,13]],[[8826,8066],[-89,-3],[5,-75]],[[8883,7988],[-99,0]],[[8784,7988],[-42,0]],[[8677,8155],[19,12],[18,1],[11,16],[18,12],[12,2]],[[8755,8198],[15,-5],[13,-13],[17,9],[8,13],[27,5]],[[9461,8270],[-10,-2],[-1,11],[-18,10],[-44,-15],[10,-16],[-90,-15]],[[9308,8243],[-81,-18],[-51,-4]],[[9063,8256],[148,19]],[[9211,8275],[65,12],[4,-6],[68,11],[-4,7],[23,3],[11,-14],[74,25],[23,3]],[[9475,8316],[-3,-11]],[[9472,8305],[-11,-35]],[[9461,8270],[-28,-98]],[[9433,8172],[-8,-27]],[[9316,8143],[-3,50],[-5,50]],[[9244,7921],[-44,-1]],[[9200,7920],[-135,-3]],[[9206,7852],[-86,0],[-8,-2],[-40,1]],[[9072,7851],[-7,66]],[[9200,7920],[6,-68]],[[9341,7853],[-48,1],[-3,-17],[-84,6],[0,9]],[[9361,7924],[-20,-71]],[[9341,7853],[5,-1],[-23,-76],[7,0],[56,65],[87,-4]],[[9473,7837],[-26,-21],[7,-13],[11,-5],[-25,-6],[14,-2],[76,2],[-14,-54],[-202,9]],[[9314,7747],[8,26],[0,14],[-17,1],[10,25],[-116,8],[-7,-27],[77,-5],[-33,-15],[-5,-7],[-47,3]],[[9184,7770],[-89,6],[7,25],[-132,12],[-57,3],[-26,0],[-33,-6]],[[8854,7810],[-115,-34],[5,15],[3,33]],[[8747,7824],[3,30]],[[8750,7854],[137,-3]],[[8887,7851],[67,-1],[-1,21],[43,0],[-2,-24],[17,-2],[3,9],[58,-3]],[[9314,7747],[-4,0],[-23,-77],[-20,-1],[-66,8],[-21,0],[-45,5],[0,11],[-39,3],[-4,39],[4,18]],[[9096,7753],[82,-6],[6,23]],[[9096,7753],[-44,5],[-3,15],[-57,13],[-116,16],[-22,8]],[[8650,7893],[2,-31],[-52,2],[-2,-23]],[[8598,7841],[-19,0],[2,24],[-15,0],[-3,-8],[-11,2],[-49,1],[-22,-2],[-16,6],[-56,9]],[[8649,7958],[1,-65]],[[8751,7871],[1,21],[-102,1]],[[8784,7988],[0,-118],[-33,1]],[[8750,7854],[1,17]],[[8885,7915],[2,-64]],[[8747,7824],[-32,8],[-44,3],[-74,0],[1,6]],[[8960,8293],[-12,-5]],[[8948,8288],[-31,-5],[7,-9],[-43,-8],[36,-42]],[[8755,8198],[-6,22],[15,10],[29,8],[31,15],[-8,5],[18,9],[-5,4],[27,9],[31,15],[-2,16],[36,-4],[30,11],[23,-12],[-14,-13]],[[8948,8288],[11,-8],[84,12],[13,-19],[-43,-8],[13,-31]],[[9172,8319],[-7,-7],[-26,-6],[4,-5],[50,7],[58,6],[6,-5],[-61,-11],[15,-23]],[[8960,8293],[43,13]],[[9197,8333],[5,-5],[18,0],[14,-5],[0,13],[15,12],[12,-3],[-6,-8],[10,-2],[-8,-13],[7,-7],[32,8],[46,7],[30,9],[40,10],[72,0],[-9,-33]],[[9651,8307],[-32,-68],[31,-4],[-33,-60]],[[9617,8175],[-184,-3]],[[9472,8305],[49,-3],[37,8],[9,-7],[12,7],[13,-14],[59,11]],[[9651,8307],[40,15],[29,-7],[26,-14]],[[9746,8301],[-35,-72],[-31,-53]],[[9680,8176],[-63,-1]],[[9858,8151],[-85,-10],[-20,35],[-63,0]],[[9690,8176],[-10,0]],[[9746,8301],[27,-5],[46,-18],[25,39],[34,-5],[10,-13],[-17,-15]],[[9871,8284],[-30,-29],[36,-59],[-31,-11],[12,-34]],[[9690,8176],[-7,-10],[-7,4],[-8,-10],[-31,-14],[38,-17],[-15,-10],[18,-6],[-41,-41],[47,-4],[33,-8],[-11,-16],[7,-3],[-27,-11],[14,-7],[-25,-27],[-34,-4],[-1,-30],[6,-78],[-94,-10],[-5,-41],[-74,4]],[[9871,8284],[79,9],[20,-28],[14,-32],[-6,-2],[13,-23],[8,-5],[-90,-16],[-43,-3],[7,-27],[-15,-6]],[[7707,7561],[-35,55],[-17,18],[-4,18]],[[7690,7559],[-138,-22]],[[7552,7537],[-21,17],[-27,14],[-13,3],[-8,13]],[[7483,7584],[41,-2],[49,9],[-3,4],[64,15],[-24,40]],[[7458,7621],[25,-37]],[[7552,7537],[-53,-9]],[[7477,7524],[-150,-25],[-42,-18],[-39,6],[3,4],[25,1],[51,10],[-22,2],[7,19],[7,4],[-4,12],[-33,64],[-16,29],[79,-2],[29,-5],[3,-7],[72,12],[11,-9]],[[7764,7459],[-186,-64]],[[7458,7621],[41,17],[73,7]],[[8238,7360],[-11,54]],[[8212,7466],[6,2],[13,-10],[37,-7],[41,1],[27,10],[25,2],[27,-1],[26,-25],[-15,-21],[3,-24],[-5,-27],[-5,-3],[-45,2],[-109,-5]],[[8238,7360],[-20,-1],[-51,4],[-57,14],[-43,16],[-20,-10],[-109,24],[-2,2]],[[2871,77],[41,-51],[-74,-23],[-17,16],[-16,-3],[-7,6],[-17,-11],[-21,-7],[4,9],[-52,-13],[-23,33],[-22,26],[-34,18],[-65,21]],[[2568,98],[29,14]],[[2568,98],[-49,14],[25,19],[-51,22],[17,10],[49,8],[42,-14],[10,4],[18,-2],[35,-14]],[[51,3207],[-5,16],[8,0],[-4,24],[-29,0],[-2,7],[-17,0],[-1,14],[16,2],[-1,10],[8,7],[39,4],[15,4],[3,-11],[15,2],[11,-26]],[[4175,1911],[-17,-2],[-21,5],[12,16],[3,23],[16,2],[11,11],[29,21],[29,17],[23,10],[4,8],[-14,16],[-10,2],[-14,34],[-9,13],[28,3],[5,-4],[28,6],[30,-22],[60,19],[11,-9],[-47,-15],[23,-8],[12,2],[14,-9],[33,14],[19,4],[11,-8],[-35,-11],[-9,8],[-46,-18]],[[4161,5931],[3,-13],[-19,-82],[10,-19],[-13,-5],[57,-1],[7,-14],[-19,-2],[-17,6],[-33,-2],[-9,-17],[-19,3],[-19,-30],[5,-4],[-10,-25],[-8,-6],[-36,0],[-20,5],[25,18],[-8,15],[19,1],[-11,20],[-18,-2],[-12,25],[18,0],[-16,32],[75,-7],[-5,37],[27,3],[6,26],[6,6],[5,25],[13,7],[16,0]],[[7558,988],[21,-26],[11,-2],[8,-12],[8,16],[-14,14],[33,1],[56,15],[3,-2],[-65,-19],[-13,-6],[5,-8],[43,-38],[-21,-5],[23,-26],[-32,-7],[15,-20],[-36,-9],[-42,18],[-57,31],[-11,42],[-16,-1],[-17,17],[-17,5],[5,22],[31,0],[-12,25],[7,11],[14,1],[-7,11],[21,5],[-5,6],[16,3],[45,-62]],[[9764,6669],[22,-12],[10,-18],[-2,-11],[30,-8],[-33,-13],[-15,-20],[-25,-13],[53,-13],[-28,-10],[18,-22],[-28,-1],[-8,3],[-9,15],[-14,-1],[-3,8],[-28,3],[7,-17],[12,-5],[-17,-6],[-8,4],[-43,6],[-32,-2],[-12,14],[-37,-8],[-6,8],[-28,-6],[-20,31],[21,3],[-9,21],[-42,1],[3,-12],[-59,1],[-69,-30],[-13,7],[14,5],[-41,13],[40,19],[-2,10],[43,27],[4,8],[23,-12],[53,-19],[18,-5],[15,21],[4,27],[46,-4],[4,4],[21,-1],[16,13],[53,3],[52,-1],[7,-7],[39,9],[3,-7]],[[8670,5096],[12,-5],[9,5],[11,-3],[-24,-14],[19,-12],[-13,-13],[0,-14],[-9,-5],[29,3],[89,20],[-19,24],[35,6],[19,-24],[13,2],[4,-5],[-13,-9],[-128,-24],[-69,-13],[5,-11],[19,-22],[-10,1],[-22,-6],[-48,34],[-15,19],[-6,16],[-1,38],[52,0],[-4,14],[10,1],[5,-18],[20,3],[16,-5],[-4,24],[13,1],[5,-8]],[[9553,8653],[-10,-16],[17,1],[5,-13],[-6,-20],[15,-14],[-23,-6],[-22,-15],[4,-11],[-16,-19],[7,-43],[-5,-7],[-23,-4],[4,35],[-11,-5],[-32,4],[-53,-3],[-6,9],[54,7],[10,16],[-12,4],[-5,24],[-16,1],[2,11],[30,0],[5,7],[1,20],[-5,11],[27,25],[23,1],[12,12],[20,3],[8,-3],[1,-12]],[[1179,3019],[-2,-10],[-29,-4],[3,-5],[31,-7],[31,-10],[-17,-12],[-56,17],[-32,7],[-9,8],[14,15],[16,-1],[50,2]]]}
