{"type":"Topology","bbox":[-73.66184762030645,9.172565244563831,-73.47670112459531,9.337221840419858],"transform":{"scale":[0.000018516501221235876,0.00001646730631623429],"translate":[-73.66184762030645,9.172565244563831]},"objects":{"municipios":{"type":"GeometryCollection","geometries":[{"type":"Polygon","arcs":[[0,1]],"properties":{"codigo":"20228200201005000101","sector":"202282002010050001","pcode":"CO20228","area_m2":29479}},{"type":"Polygon","arcs":[[2,3,4,5,6]],"properties":{"codigo":"20228200301002000102","sector":"202282003010020001","pcode":"CO20228","area_m2":196720}},{"type":"Polygon","arcs":[[7,8]],"properties":{"codigo":"20228200301003000101","sector":"202282003010030001","pcode":"CO20228","area_m2":117426}},{"type":"Polygon","arcs":[[-8,9]],"properties":{"codigo":"20228200301003000102","sector":"202282003010030001","pcode":"CO20228","area_m2":94219}},{"type":"Polygon","arcs":[[10]],"properties":{"codigo":"20228200104008000101","sector":"202282001040080001","pcode":"CO20228","area_m2":35179}},{"type":"Polygon","arcs":[[11]],"properties":{"codigo":"20228200104009000101","sector":"202282001040090001","pcode":"CO20228","area_m2":9237}},{"type":"Polygon","arcs":[[12]],"properties":{"codigo":"20228200201012000101","sector":"202282002010120001","pcode":"CO20228","area_m2":137580}},{"type":"Polygon","arcs":[[13,14,15,16]],"properties":{"codigo":"20228100000000000206","sector":"202281000000000002","pcode":"CO20228","area_m2":103678}},{"type":"Polygon","arcs":[[17,18,19,20,21,22]],"properties":{"codigo":"20228100000000000202","sector":"202281000000000002","pcode":"CO20228","area_m2":99290}},{"type":"Polygon","arcs":[[23,-17,24,25,-19,26]],"properties":{"codigo":"20228100000000000203","sector":"202281000000000002","pcode":"CO20228","area_m2":107584}},{"type":"Polygon","arcs":[[27,-23,28,29]],"properties":{"codigo":"20228100000000000204","sector":"202281000000000002","pcode":"CO20228","area_m2":152892}},{"type":"Polygon","arcs":[[30,-27,-18,-28,31,32]],"properties":{"codigo":"20228100000000000208","sector":"202281000000000002","pcode":"CO20228","area_m2":171846}},{"type":"Polygon","arcs":[[33,34,35,36,-14,-24,-31]],"properties":{"codigo":"20228100000000000209","sector":"202281000000000002","pcode":"CO20228","area_m2":137433}},{"type":"Polygon","arcs":[[37,-20,-26,38,39,40]],"properties":{"codigo":"20228100000000000105","sector":"202281000000000001","pcode":"CO20228","area_m2":104366}},{"type":"Polygon","arcs":[[41,-41,42,43,44]],"properties":{"codigo":"20228100000000000104","sector":"202281000000000001","pcode":"CO20228","area_m2":114584}},{"type":"Polygon","arcs":[[-43,-40,45,46,47]],"properties":{"codigo":"20228100000000000106","sector":"202281000000000001","pcode":"CO20228","area_m2":76024}},{"type":"Polygon","arcs":[[48,49,50,-47]],"properties":{"codigo":"20228100000000000107","sector":"202281000000000001","pcode":"CO20228","area_m2":94961}},{"type":"Polygon","arcs":[[51,52,-50]],"properties":{"codigo":"20228100000000000108","sector":"202281000000000001","pcode":"CO20228","area_m2":114263}},{"type":"Polygon","arcs":[[53,-52,-49,-46,-39,-25,-16,54]],"properties":{"codigo":"20228100000000000109","sector":"202281000000000001","pcode":"CO20228","area_m2":75496}},{"type":"Polygon","arcs":[[55,56,57,58]],"properties":{"codigo":"20228100000000000101","sector":"202281000000000001","pcode":"CO20228","area_m2":571920}},{"type":"Polygon","arcs":[[59,60,61,-58]],"properties":{"codigo":"20228100000000000102","sector":"202281000000000001","pcode":"CO20228","area_m2":228214}},{"type":"Polygon","arcs":[[-45,62,63,64]],"properties":{"codigo":"20228100000000000302","sector":"202281000000000003","pcode":"CO20228","area_m2":185816}},{"type":"Polygon","arcs":[[65,-21,-38,-42,-65,66,-61]],"properties":{"codigo":"20228100000000000103","sector":"202281000000000001","pcode":"CO20228","area_m2":423705}},{"type":"Polygon","arcs":[[-29,-22,-66,-60,-57,67]],"properties":{"codigo":"20228100000000000201","sector":"202281000000000002","pcode":"CO20228","area_m2":223321}},{"type":"Polygon","arcs":[[68,69,70,71,-32,-30,72]],"properties":{"codigo":"20228100000000000205","sector":"202281000000000002","pcode":"CO20228","area_m2":308716}},{"type":"Polygon","arcs":[[73,-73,-68,-56,74]],"properties":{"codigo":"20228100000000000210","sector":"202281000000000002","pcode":"CO20228","area_m2":308010}},{"type":"Polygon","arcs":[[-63,-44,-48,-51,75,76]],"properties":{"codigo":"20228100000000000301","sector":"202281000000000003","pcode":"CO20228","area_m2":239019}},{"type":"Polygon","arcs":[[-53,-54,77,78,79,-76]],"properties":{"codigo":"20228100000000000303","sector":"202281000000000003","pcode":"CO20228","area_m2":215149}},{"type":"Polygon","arcs":[[80,81,82,83]],"properties":{"codigo":"20228100000000000504","sector":"202281000000000005","pcode":"CO20228","area_m2":81408}},{"type":"Polygon","arcs":[[-72,84,85,-34,-33]],"properties":{"codigo":"20228100000000000401","sector":"202281000000000004","pcode":"CO20228","area_m2":206406}},{"type":"Polygon","arcs":[[86,87,88,89,90,-35,-86]],"properties":{"codigo":"20228100000000000402","sector":"202281000000000004","pcode":"CO20228","area_m2":151787}},{"type":"Polygon","arcs":[[91,92,93]],"properties":{"codigo":"20228200401004000105","sector":"202282004010040001","pcode":"CO20228","area_m2":122057}},{"type":"Polygon","arcs":[[-90,94,-79,95]],"properties":{"codigo":"20228100000000000403","sector":"202281000000000004","pcode":"CO20228","area_m2":183852}},{"type":"Polygon","arcs":[[-91,-96,96,-36]],"properties":{"codigo":"20228100000000000404","sector":"202281000000000004","pcode":"CO20228","area_m2":172634}},{"type":"Polygon","arcs":[[-97,-78,-55,-15,-37]],"properties":{"codigo":"20228100000000000405","sector":"202281000000000004","pcode":"CO20228","area_m2":156988}},{"type":"Polygon","arcs":[[-88,97]],"properties":{"codigo":"20228100000000000406","sector":"202281000000000004","pcode":"CO20228","area_m2":37627}},{"type":"Polygon","arcs":[[-82,98,-69,-74,99,100]],"properties":{"codigo":"20228100000000000501","sector":"202281000000000005","pcode":"CO20228","area_m2":169220}},{"type":"Polygon","arcs":[[-83,-101,101,102,103]],"properties":{"codigo":"20228100000000000502","sector":"202281000000000005","pcode":"CO20228","area_m2":96344}},{"type":"Polygon","arcs":[[-103,104]],"properties":{"codigo":"20228100000000000503","sector":"202281000000000005","pcode":"CO20228","area_m2":54856}},{"type":"Polygon","arcs":[[-81,105,-70,-99]],"properties":{"codigo":"20228100000000000505","sector":"202281000000000005","pcode":"CO20228","area_m2":74623}},{"type":"Polygon","arcs":[[106,107]],"properties":{"codigo":"20228200202001000101","sector":"202282002020010001","pcode":"CO20228","area_m2":127995}},{"type":"Polygon","arcs":[[108]],"properties":{"codigo":"20228200103007000101","sector":"202282001030070001","pcode":"CO20228","area_m2":73793}},{"type":"Polygon","arcs":[[-107,109]],"properties":{"codigo":"20228200202001000102","sector":"202282002020010001","pcode":"CO20228","area_m2":146070}},{"type":"Polygon","arcs":[[-6,110]],"properties":{"codigo":"20228200301002000101","sector":"202282003010020001","pcode":"CO20228","area_m2":214005}},{"type":"Polygon","arcs":[[111,112,-3,113]],"properties":{"codigo":"20228200301002000103","sector":"202282003010020001","pcode":"CO20228","area_m2":124022}},{"type":"Polygon","arcs":[[114,-4,-113,115]],"properties":{"codigo":"20228200301002000104","sector":"202282003010020001","pcode":"CO20228","area_m2":91822}},{"type":"Polygon","arcs":[[116,117,-116,-112,118]],"properties":{"codigo":"20228200301002000105","sector":"202282003010020001","pcode":"CO20228","area_m2":86130}},{"type":"Polygon","arcs":[[119,-117,120,121]],"properties":{"codigo":"20228200301002000106","sector":"202282003010020001","pcode":"CO20228","area_m2":97222}},{"type":"Polygon","arcs":[[122,123,-92]],"properties":{"codigo":"20228200401004000106","sector":"202282004010040001","pcode":"CO20228","area_m2":124589}},{"type":"Polygon","arcs":[[124,125,126,-122,127,128,129,130,131,132]],"properties":{"codigo":"20228200301002000107","sector":"202282003010020001","pcode":"CO20228","area_m2":183528}},{"type":"MultiPolygon","arcs":[[[-133,133]],[[-126,134]],[[-131,135]],[[-129,136]]],"properties":{"codigo":"20228200301002000108","sector":"202282003010020001","pcode":"CO20228","area_m2":102819}},{"type":"Polygon","arcs":[[137,138]],"properties":{"codigo":"20228200401004000101","sector":"202282004010040001","pcode":"CO20228","area_m2":87933}},{"type":"Polygon","arcs":[[139,140,-138,141]],"properties":{"codigo":"20228200401004000102","sector":"202282004010040001","pcode":"CO20228","area_m2":68582}},{"type":"Polygon","arcs":[[142,143,-140,144]],"properties":{"codigo":"20228200401004000103","sector":"202282004010040001","pcode":"CO20228","area_m2":60532}},{"type":"Polygon","arcs":[[-124,145,-143,146,-93]],"properties":{"codigo":"20228200401004000104","sector":"202282004010040001","pcode":"CO20228","area_m2":57108}},{"type":"Polygon","arcs":[[-1,147]],"properties":{"codigo":"20228200201005000102","sector":"202282002010050001","pcode":"CO20228","area_m2":90323}},{"type":"Polygon","arcs":[[148]],"properties":{"codigo":"20228200102011000101","sector":"202282001020110001","pcode":"CO20228","area_m2":27698}},{"type":"Polygon","arcs":[[149]],"properties":{"codigo":"20228200105014000101","sector":"202282001050140001","pcode":"CO20228","area_m2":11809}}]}},"arcs":[[[1054,1221],[-2,-34],[-7,-36]],[[1045,1151],[-26,7],[-10,-12],[-48,-8],[1,21],[-29,41],[-14,-5],[-2,25],[31,8],[-10,21],[23,9],[14,-55],[44,4],[35,14]],[[7939,7356],[-63,-150],[-32,-82]],[[7844,7124],[-41,-100],[-23,15]],[[7780,7039],[-36,22],[10,20]],[[7754,7081],[21,64],[-102,31],[71,182],[15,48],[13,6],[70,-30],[7,22]],[[7849,7404],[24,-8],[-3,-10],[69,-30]],[[6696,6089],[-31,15],[-93,35],[-21,-1],[-45,6]],[[6506,6144],[0,27],[12,35],[-21,22],[21,53],[50,-17],[15,8],[-6,51],[-18,36],[23,32],[21,-12],[-5,-25],[-18,-37],[4,-42],[8,14],[82,-45],[44,-31],[-6,-15],[29,-14],[-2,-14],[-44,-77],[1,-4]],[[6696,6089],[-29,-86],[-18,18],[-11,-15],[-23,14],[-10,-14],[-103,31],[2,13],[-50,19],[-67,-36],[-17,20],[15,18],[23,12],[9,26],[27,-21],[46,29],[2,29],[14,-2]],[[733,998],[0,-28],[-16,5],[4,20],[-54,1],[17,67],[5,6],[-9,24],[26,14],[52,45],[7,13],[11,-12],[-17,-42],[-11,-57],[-15,-56]],[[457,1031],[-58,36],[21,28],[55,-31],[-18,-33]],[[714,361],[-12,-33],[25,-10],[31,-122],[9,-51],[32,-59],[15,-19],[-6,-20],[18,-12],[11,7],[4,-18],[-52,-24],[-40,79],[-48,9],[-3,-19],[-19,2],[6,40],[-85,19],[-13,13],[24,42],[35,79],[10,35],[-7,-1],[-17,26],[30,59],[52,-22]],[[6343,1472],[-60,21]],[[6283,1493],[-62,22],[41,164]],[[6262,1679],[149,42]],[[6411,1721],[-68,-249]],[[6655,1614],[-134,44]],[[6521,1658],[48,132]],[[6569,1790],[74,55]],[[6643,1845],[13,9]],[[6656,1854],[2,-5],[54,-21],[-29,-107]],[[6683,1721],[-28,-107]],[[6486,1563],[-52,18],[-34,-129],[-57,20]],[[6411,1721],[40,12]],[[6451,1733],[63,19],[55,38]],[[6521,1658],[-35,-95]],[[6765,1410],[-149,53],[39,151]],[[6683,1721],[146,-63]],[[6829,1658],[-26,-95],[-38,-153]],[[6485,1421],[35,130],[-34,12]],[[6765,1410],[-25,-97]],[[6740,1313],[-26,2],[-13,16],[-28,14],[-136,50],[-52,26]],[[6485,1421],[-35,-112],[-56,20]],[[6394,1329],[-144,55]],[[6250,1384],[15,52]],[[6265,1436],[18,57]],[[6638,1857],[5,-12]],[[6451,1733],[-89,29]],[[6362,1762],[43,138]],[[6405,1900],[118,-48],[15,47],[100,-42]],[[6348,2040],[47,-20],[3,7],[84,-32],[12,-17],[-3,-9],[23,-14],[66,-53],[50,-28],[8,-17]],[[6405,1900],[-149,58]],[[6256,1958],[17,53]],[[6273,2011],[33,-13],[16,48],[26,-6]],[[6362,1762],[-44,17],[-66,20]],[[6252,1799],[27,91],[-62,30]],[[6217,1920],[14,46],[25,-8]],[[6252,1799],[-37,11]],[[6215,1810],[-182,60]],[[6033,1870],[19,91],[8,27],[157,-68]],[[6215,1810],[-39,-136]],[[6176,1674],[-145,54],[-24,12],[-24,-3],[20,47],[-70,26],[16,45],[71,-25],[13,40]],[[6180,1656],[-4,18]],[[6262,1679],[-82,-23]],[[7045,2142],[-71,-53]],[[6974,2089],[-92,-65]],[[6882,2024],[-26,32],[-36,28],[-28,7],[-10,-6],[-59,23],[-101,31],[30,79],[-29,17],[-32,6],[-32,12],[-59,47],[-52,23]],[[6448,2323],[-6,43],[-11,131],[7,44],[25,26],[18,5],[17,-46],[31,-50],[33,-9],[22,-13],[20,-28],[41,-2],[46,-41],[45,-19],[10,15],[-9,55],[43,34],[-9,-34],[32,-10],[71,-13],[-24,-49],[15,-16],[28,3],[38,-13],[60,-43],[15,-21],[-4,-21],[31,-45],[-2,-17],[12,-21],[2,-26]],[[6882,2024],[-150,-115]],[[6732,1909],[-56,20],[25,98],[-1,4],[-182,72],[-40,62],[-60,105]],[[6418,2270],[30,53]],[[6273,2011],[-143,60],[-78,35],[-30,44]],[[6022,2150],[21,45],[34,-32],[10,56],[20,35],[-8,37],[-2,34],[37,4]],[[6134,2329],[95,-104],[21,-32],[33,-41],[-7,-12],[25,-23],[40,-47],[15,-8],[-8,-22]],[[6732,1909],[-76,-55]],[[6134,2329],[30,57],[38,30],[108,-5],[24,-3],[14,-27],[46,-71],[24,-40]],[[6974,2089],[17,-35],[-1,-52],[-20,-79],[-63,26],[-65,-238],[-13,-53]],[[7102,1589],[46,-23]],[[7148,1566],[-13,-68],[-9,-22],[-27,-16],[-16,0],[-7,-48]],[[7076,1412],[-29,11],[-55,27],[-9,-16],[-16,-4],[-42,14],[-32,-23],[-12,-25],[-28,-15],[-32,-26],[16,-19],[-19,-37],[2,-11],[-35,-19],[-5,-33],[78,-7],[22,-55],[-4,-17],[-42,-5],[0,12],[-62,6],[-14,10],[-29,65],[-12,5]],[[6717,1250],[23,63]],[[6829,1658],[221,-93],[17,16],[35,8]],[[7093,1820],[-37,-77],[-84,-24],[28,-12],[-10,-40],[120,-42],[-8,-36]],[[7045,2142],[5,-20],[25,-41],[19,-13],[17,-62],[-39,-29],[-20,-1],[-39,24],[-11,-35],[13,-18],[67,-45],[7,0],[58,-27],[-19,-41],[-32,13],[-22,-3],[19,-24]],[[6033,1870],[-50,20],[-21,3],[-71,23],[-8,-37],[-18,11],[-23,-5]],[[5842,1885],[-4,41],[-18,48],[31,12],[30,80],[68,-28],[21,65],[22,37],[-40,43],[10,18],[26,24],[34,-75]],[[6180,1656],[-219,-60],[-72,-22]],[[5889,1574],[-84,-23]],[[5805,1551],[-10,43],[1,36],[47,13],[3,-13],[19,6],[-5,21],[20,5],[3,63],[-32,117],[-9,43]],[[7309,1333],[-110,49],[51,153]],[[7250,1535],[39,-3]],[[7289,1532],[17,-2],[67,-21]],[[7373,1509],[-10,-26],[3,-21],[-9,3],[-48,-132]],[[6717,1250],[-6,2],[15,-90],[-25,4],[-142,38],[-14,-3],[-56,7],[-32,12],[-8,-28],[-24,7],[-8,12],[5,15],[-57,15]],[[6365,1241],[-3,1],[32,87]],[[6365,1241],[-2,-11],[-42,12],[-26,-46]],[[6295,1196],[-11,-10],[-32,-65],[-10,-11]],[[6242,1110],[-27,-23],[-58,-18],[-8,3],[-6,47],[3,36],[-21,9],[-2,17],[-21,3],[-7,11]],[[6095,1195],[23,-2],[13,39],[33,-11],[12,36],[33,-11],[11,40]],[[6220,1286],[30,98]],[[9965,9827],[-39,-1],[-93,5],[-20,-179],[0,-56],[-5,-37]],[[9808,9559],[-78,26],[2,31],[20,19],[6,57],[-40,0],[2,101],[5,43]],[[9725,9836],[18,2],[15,49],[31,5],[7,-23],[3,18],[25,-20],[85,-3],[2,29],[20,-1],[3,20],[31,-85]],[[6095,1195],[-12,10],[18,44],[-72,-3],[-34,57],[-9,22],[-50,-9],[-13,-8],[-14,-27],[-17,6],[-37,-10],[1,14],[-11,23],[30,19],[-5,36],[9,25],[-5,27],[4,23],[-13,32],[-18,17],[-42,58]],[[5889,1574],[61,-79],[47,-17],[-38,-36],[77,-106],[17,31],[99,-60],[68,-21]],[[5889,1574],[148,-52],[42,-18],[186,-68]],[[6295,1196],[98,-38],[-18,-38],[-38,-24],[-29,-6],[-11,-12],[-55,32]],[[7250,1535],[-63,5],[-39,26]],[[7093,1820],[11,-15],[42,-27],[28,-37]],[[7174,1741],[17,-38],[12,-13],[47,-21],[70,-25],[-31,-112]],[[7174,1741],[74,10]],[[7248,1751],[-4,-9],[102,-43],[100,-34]],[[7446,1665],[-82,-60],[16,-29],[67,-66],[-20,-8],[-54,7]],[[7248,1751],[26,30],[27,4],[91,-16],[30,-25],[67,-47],[-43,-32]],[[7309,1333],[-3,-8],[-59,15],[-26,11],[-81,42],[-64,19]],[[2601,1697],[37,-15],[112,-24],[65,-17],[-8,-36],[58,4],[-3,-14]],[[2862,1595],[-6,-21],[-54,11],[-13,-54],[-25,8],[-4,-13],[-37,-5],[-63,9],[-20,47],[-27,32],[-22,4],[-39,23],[-8,-28],[-7,14],[-19,11],[10,15],[-21,13],[6,12],[-12,7],[14,31],[19,7],[21,-9],[3,8],[43,-20]],[[125,3538],[51,-27],[-33,-69],[35,-43],[-31,-48],[-30,20],[12,28],[-49,26],[-9,-15],[-31,23],[7,13],[-47,27],[16,36],[-8,4],[15,34],[37,-23],[21,49],[44,-35]],[[2601,1697],[14,24],[32,-11],[14,35],[31,-8],[19,4],[13,56],[32,-21],[37,-18],[53,-40],[34,-33],[19,-11],[42,-14],[48,-25],[16,-18],[51,-66],[-23,-22],[18,-48],[-7,-3],[40,-86],[-6,-5],[-45,97],[-17,40],[-27,86],[-23,5],[-10,-70],[-42,-2],[-17,-8],[7,50],[-42,10]],[[7754,7081],[-98,43],[-58,28],[-3,18],[-14,-11],[12,29],[-34,11],[4,29],[28,24],[8,29],[-49,23],[27,90],[-52,9],[-2,11],[39,-9],[14,51],[-62,36],[10,21],[16,-10],[8,16],[32,-22],[6,10],[45,-22],[-4,-10],[121,-58],[7,16],[20,1],[74,-30]],[[8059,7304],[3,-2],[-68,-177],[-13,-40]],[[7981,7085],[-137,39]],[[7939,7356],[45,-20],[3,9],[25,-10],[-4,-11],[51,-20]],[[7940,6918],[-11,3],[3,22],[-4,21],[-66,18],[-25,-40],[-49,34],[-15,-27],[-15,8],[7,12],[-15,11],[30,59]],[[7981,7085],[-39,-122],[6,-15],[-8,-30]],[[8121,7308],[-6,2],[-20,-75],[-55,-147],[-42,-128],[-22,-60]],[[7976,6900],[-36,18]],[[8059,7304],[7,24],[29,-11],[3,11],[20,2],[3,-22]],[[8053,6903],[-16,-29],[-61,26]],[[8121,7308],[3,-12]],[[8124,7296],[21,-119],[-6,2],[-10,-41],[-31,-100],[-45,-135]],[[9965,9827],[19,-45],[15,-57],[-36,-29],[-24,-6],[0,-13],[-45,-17],[-19,-54],[-2,-57],[-8,-18],[-18,8],[-7,-16],[-37,15]],[[9803,9538],[5,21]],[[8113,6877],[-9,-37]],[[8104,6840],[-34,-153],[-5,-18]],[[8065,6669],[-65,-215],[-22,9],[16,46],[-17,7],[-2,26],[14,32],[-6,12],[25,60],[-21,6],[4,16],[-22,7],[3,13],[33,-3],[37,-10],[15,43],[20,71],[-26,10],[20,11],[23,79],[-41,14]],[[8124,7296],[78,-4],[14,5],[0,-28],[-29,-10],[-35,-2],[7,-38],[20,-81],[26,-13],[38,56],[54,84],[52,75],[-75,59],[24,49],[42,1],[0,-29],[30,-40],[13,-9],[-28,-46]],[[8355,7325],[-18,-28]],[[8337,7297],[-27,-41]],[[8310,7256],[-30,-45]],[[8280,7211],[-23,-33]],[[8257,7178],[-77,-124],[-45,-66],[-14,-64],[-8,-47]],[[8257,7178],[12,-26],[24,-7],[15,19],[32,-20],[-25,-8],[2,-12],[-34,-7],[19,-23],[-15,-41],[-23,12],[-12,-39],[32,-21],[-22,-28],[-34,22],[-8,-19],[-26,14],[-34,-54],[-15,6],[-15,-74],[-17,5]],[[8104,6840],[17,-5],[-3,-14],[32,-11],[-5,-23],[43,-13],[-79,-27],[-16,-12],[-13,-65],[-15,-1]],[[8310,7256],[10,-6],[-30,-46],[-10,7]],[[8355,7325],[31,-20],[-3,-32],[-46,24]],[[9461,9742],[0,-39],[-103,7],[-1,-31]],[[9357,9679],[-12,0],[-5,51],[-11,11],[-6,25],[12,0],[2,63],[-25,5],[-8,29],[13,-1],[2,29],[43,-3],[2,111],[18,-15],[8,-25],[0,-74],[5,-14],[18,-12],[-2,-14],[15,-1],[-2,-15],[29,-1],[-4,-48],[12,0],[0,-38]],[[9587,9771],[-23,2],[-2,-27],[-2,-123]],[[9560,9623],[-82,12],[-1,-16],[-15,2],[3,36],[-108,7],[0,15]],[[9461,9742],[41,-2],[0,21],[46,0],[4,46],[35,-3],[0,-33]],[[9665,9759],[26,-4],[-19,-14],[-25,-3],[0,-92],[69,-9],[-6,-60],[-5,-10]],[[9705,9567],[-64,18],[4,36],[-60,6],[-2,-10],[-23,6]],[[9587,9771],[0,-34],[44,1],[3,25],[31,-4]],[[9803,9538],[-98,29]],[[9665,9759],[1,14],[17,-2],[3,21],[16,-1],[2,43],[21,2]],[[1054,1221],[36,9],[23,-1],[23,-21],[9,-48],[36,5],[29,-20],[0,-24],[22,-10],[1,39],[37,8],[6,-34],[42,-20],[20,10],[41,-28],[26,0],[-21,-15],[6,-33],[-13,-13],[-51,-10],[-18,6],[-36,26],[-11,-4],[-40,42],[4,6],[-22,23],[-43,19],[-37,0],[-25,5],[15,-44],[-6,0],[-13,37],[-49,20]],[[2434,4767],[25,-38],[25,17],[11,-2],[-32,-23],[4,-8],[-47,-38],[-8,-29],[25,-10],[11,3],[57,-1],[60,15],[0,-13],[-28,-3],[-42,-12],[-32,-3],[-14,-23],[-15,2],[2,14],[-45,11],[-15,17],[-28,8],[3,22],[38,-11],[15,26],[21,23],[9,-11],[11,20],[-22,33],[11,14]],[[541,992],[71,5],[24,-2],[1,-29],[-20,0],[1,13],[-41,-9],[-86,13],[-10,8],[4,21],[32,-15],[24,-5]]]}
