{"type":"Topology","bbox":[-73.7792783202168,9.885539368693694,-73.12525478937829,10.757947534577895],"transform":{"scale":[0.00006540889397324882,0.00008724954154257432],"translate":[-73.7792783202168,9.885539368693694]},"objects":{"municipios":{"type":"GeometryCollection","geometries":[{"type":"Polygon","arcs":[[0,1,2,3]],"properties":{"codigo":"20001100000000000708","sector":"200011000000000007","pcode":"CO20001","area_m2":92393}},{"type":"Polygon","arcs":[[4,5]],"properties":{"codigo":"20001100000000005202","sector":"200011000000000052","pcode":"CO20001","area_m2":65484}},{"type":"Polygon","arcs":[[6,7]],"properties":{"codigo":"20001100000000005301","sector":"200011000000000053","pcode":"CO20001","area_m2":125984}},{"type":"Polygon","arcs":[[8,9,10,11,12,13]],"properties":{"codigo":"20001100000000002007","sector":"200011000000000020","pcode":"CO20001","area_m2":101880}},{"type":"Polygon","arcs":[[14,15,16,17,18,19]],"properties":{"codigo":"20001100000000000409","sector":"200011000000000004","pcode":"CO20001","area_m2":305998}},{"type":"Polygon","arcs":[[20,-15,21,22,23]],"properties":{"codigo":"20001100000000000201","sector":"200011000000000002","pcode":"CO20001","area_m2":99762}},{"type":"Polygon","arcs":[[24,25,26,27,28]],"properties":{"codigo":"20001100000000001905","sector":"200011000000000019","pcode":"CO20001","area_m2":56169}},{"type":"Polygon","arcs":[[29,30,31,-11,32,33]],"properties":{"codigo":"20001100000000002001","sector":"200011000000000020","pcode":"CO20001","area_m2":126360}},{"type":"Polygon","arcs":[[34,35,36,37,-12,-32]],"properties":{"codigo":"20001100000000002002","sector":"200011000000000020","pcode":"CO20001","area_m2":85104}},{"type":"Polygon","arcs":[[38,39,40,41,42,-37]],"properties":{"codigo":"20001100000000002003","sector":"200011000000000020","pcode":"CO20001","area_m2":89204}},{"type":"Polygon","arcs":[[43,-28,44,45,46,-41]],"properties":{"codigo":"20001100000000002004","sector":"200011000000000020","pcode":"CO20001","area_m2":103910}},{"type":"Polygon","arcs":[[-42,-47,47,48,49,50]],"properties":{"codigo":"20001100000000002005","sector":"200011000000000020","pcode":"CO20001","area_m2":128405}},{"type":"Polygon","arcs":[[-38,-43,-51,51,-13]],"properties":{"codigo":"20001100000000002006","sector":"200011000000000020","pcode":"CO20001","area_m2":93259}},{"type":"Polygon","arcs":[[52,53,54,55,56]],"properties":{"codigo":"20001100000000002403","sector":"200011000000000024","pcode":"CO20001","area_m2":119933}},{"type":"Polygon","arcs":[[57,58,59,60,61]],"properties":{"codigo":"20001100000000002501","sector":"200011000000000025","pcode":"CO20001","area_m2":62947}},{"type":"Polygon","arcs":[[62,63,-58,64,65,66]],"properties":{"codigo":"20001100000000003001","sector":"200011000000000030","pcode":"CO20001","area_m2":85334}},{"type":"Polygon","arcs":[[-56,67,68,69,-67]],"properties":{"codigo":"20001100000000003002","sector":"200011000000000030","pcode":"CO20001","area_m2":101386}},{"type":"Polygon","arcs":[[70,71,72]],"properties":{"codigo":"20001100000000003401","sector":"200011000000000034","pcode":"CO20001","area_m2":84387}},{"type":"Polygon","arcs":[[73,74,75,76,77]],"properties":{"codigo":"20001100000000003703","sector":"200011000000000037","pcode":"CO20001","area_m2":70822}},{"type":"Polygon","arcs":[[78,-77,79,80,81]],"properties":{"codigo":"20001100000000003705","sector":"200011000000000037","pcode":"CO20001","area_m2":154153}},{"type":"Polygon","arcs":[[82,83,84,-81,85,86,87]],"properties":{"codigo":"20001100000000003904","sector":"200011000000000039","pcode":"CO20001","area_m2":140777}},{"type":"Polygon","arcs":[[88,89,90,91,92,93]],"properties":{"codigo":"20001100000000004001","sector":"200011000000000040","pcode":"CO20001","area_m2":79592}},{"type":"Polygon","arcs":[[-94,94,95,96,97,98]],"properties":{"codigo":"20001100000000004002","sector":"200011000000000040","pcode":"CO20001","area_m2":81751}},{"type":"Polygon","arcs":[[99,100,-98,101]],"properties":{"codigo":"20001100000000004003","sector":"200011000000000040","pcode":"CO20001","area_m2":80741}},{"type":"Polygon","arcs":[[-91,102,103]],"properties":{"codigo":"20001100000000004005","sector":"200011000000000040","pcode":"CO20001","area_m2":69277}},{"type":"Polygon","arcs":[[104,105,106,107,108]],"properties":{"codigo":"20001100000000004205","sector":"200011000000000042","pcode":"CO20001","area_m2":108342}},{"type":"Polygon","arcs":[[109,110,111,112,113]],"properties":{"codigo":"20001100000000004402","sector":"200011000000000044","pcode":"CO20001","area_m2":83588}},{"type":"Polygon","arcs":[[114,115,116,117,118,119]],"properties":{"codigo":"20001100000000004404","sector":"200011000000000044","pcode":"CO20001","area_m2":72208}},{"type":"Polygon","arcs":[[120,121,122,123,124]],"properties":{"codigo":"20001100000000004502","sector":"200011000000000045","pcode":"CO20001","area_m2":112939}},{"type":"Polygon","arcs":[[-116,125,-123,126,127,128]],"properties":{"codigo":"20001100000000004503","sector":"200011000000000045","pcode":"CO20001","area_m2":111884}},{"type":"Polygon","arcs":[[129,130,-117,-129,131,132]],"properties":{"codigo":"20001100000000004504","sector":"200011000000000045","pcode":"CO20001","area_m2":76657}},{"type":"Polygon","arcs":[[-133,133,134,135,136]],"properties":{"codigo":"20001100000000005002","sector":"200011000000000050","pcode":"CO20001","area_m2":91103}},{"type":"Polygon","arcs":[[137,138,139,-121,140]],"properties":{"codigo":"20001100000000005006","sector":"200011000000000050","pcode":"CO20001","area_m2":112228}},{"type":"Polygon","arcs":[[141,142,143,144]],"properties":{"codigo":"20001100000000005101","sector":"200011000000000051","pcode":"CO20001","area_m2":207110}},{"type":"Polygon","arcs":[[145,146,147,148]],"properties":{"codigo":"20001100000000005108","sector":"200011000000000051","pcode":"CO20001","area_m2":62363}},{"type":"Polygon","arcs":[[149,-146,150,151,152]],"properties":{"codigo":"20001100000000005109","sector":"200011000000000051","pcode":"CO20001","area_m2":117161}},{"type":"Polygon","arcs":[[153,154,155,156,157]],"properties":{"codigo":"20001201005002000107","sector":"200012010050020001","pcode":"CO20001","area_m2":47039}},{"type":"Polygon","arcs":[[158,159,-158,160,161]],"properties":{"codigo":"20001201005002000102","sector":"200012010050020001","pcode":"CO20001","area_m2":51411}},{"type":"Polygon","arcs":[[162,163,164,165,166,167]],"properties":{"codigo":"20001204303013000102","sector":"200012043030130001","pcode":"CO20001","area_m2":186802}},{"type":"Polygon","arcs":[[168,169,-163,170]],"properties":{"codigo":"20001204303013000103","sector":"200012043030130001","pcode":"CO20001","area_m2":293919}},{"type":"Polygon","arcs":[[171,172,173,174]],"properties":{"codigo":"20001205005010000104","sector":"200012050050100001","pcode":"CO20001","area_m2":86451}},{"type":"Polygon","arcs":[[175,176,177]],"properties":{"codigo":"20001201002011000101","sector":"200012010020110001","pcode":"CO20001","area_m2":195756}},{"type":"Polygon","arcs":[[-169,178,179]],"properties":{"codigo":"20001204303013000104","sector":"200012043030130001","pcode":"CO20001","area_m2":222608}},{"type":"Polygon","arcs":[[-177,180,181,182]],"properties":{"codigo":"20001201002011000102","sector":"200012010020110001","pcode":"CO20001","area_m2":136781}},{"type":"Polygon","arcs":[[-181,-176,183,184,185]],"properties":{"codigo":"20001201002011000103","sector":"200012010020110001","pcode":"CO20001","area_m2":163199}},{"type":"Polygon","arcs":[[186,187,-182,-186]],"properties":{"codigo":"20001201002011000104","sector":"200012010020110001","pcode":"CO20001","area_m2":160281}},{"type":"Polygon","arcs":[[-187,-185,188]],"properties":{"codigo":"20001201002011000105","sector":"200012010020110001","pcode":"CO20001","area_m2":230954}},{"type":"Polygon","arcs":[[189,190,-164,-170,-180]],"properties":{"codigo":"20001204303013000105","sector":"200012043030130001","pcode":"CO20001","area_m2":522335}},{"type":"Polygon","arcs":[[191,-165,-191]],"properties":{"codigo":"20001204303013000106","sector":"200012043030130001","pcode":"CO20001","area_m2":129533}},{"type":"Polygon","arcs":[[192,193]],"properties":{"codigo":"20001203901018000102","sector":"200012039010180001","pcode":"CO20001","area_m2":156173}},{"type":"Polygon","arcs":[[194]],"properties":{"codigo":"20001200404044000101","sector":"200012004040440001","pcode":"CO20001","area_m2":23036}},{"type":"Polygon","arcs":[[195]],"properties":{"codigo":"20001201802022000101","sector":"200012018020220001","pcode":"CO20001","area_m2":475135}},{"type":"Polygon","arcs":[[196]],"properties":{"codigo":"20001205001039000101","sector":"200012050010390001","pcode":"CO20001","area_m2":555474}},{"type":"Polygon","arcs":[[197]],"properties":{"codigo":"20001201101030000101","sector":"200012011010300001","pcode":"CO20001","area_m2":127178}},{"type":"Polygon","arcs":[[198,199,200]],"properties":{"codigo":"20001201604031000101","sector":"200012016040310001","pcode":"CO20001","area_m2":224075}},{"type":"Polygon","arcs":[[201,-199,202]],"properties":{"codigo":"20001201604031000102","sector":"200012016040310001","pcode":"CO20001","area_m2":150061}},{"type":"Polygon","arcs":[[-202,203,-200]],"properties":{"codigo":"20001201604031000103","sector":"200012016040310001","pcode":"CO20001","area_m2":254193}},{"type":"Polygon","arcs":[[204]],"properties":{"codigo":"20001204801040000101","sector":"200012048010400001","pcode":"CO20001","area_m2":86684}},{"type":"Polygon","arcs":[[205]],"properties":{"codigo":"20001201703037000101","sector":"200012017030370001","pcode":"CO20001","area_m2":104842}},{"type":"MultiPolygon","arcs":[[[206]],[[207]]],"properties":{"codigo":"20001201002047000101","sector":"200012010020470001","pcode":"CO20001","area_m2":77362}},{"type":"MultiPolygon","arcs":[[[208]],[[209]],[[210]]],"properties":{"codigo":"20001201201051000101","sector":"200012012010510001","pcode":"CO20001","area_m2":17191}},{"type":"Polygon","arcs":[[211,212,213,214,215]],"properties":{"codigo":"20001100000000000116","sector":"200011000000000001","pcode":"CO20001","area_m2":111109}},{"type":"Polygon","arcs":[[216,217,218,219,220,-24]],"properties":{"codigo":"20001100000000000301","sector":"200011000000000003","pcode":"CO20001","area_m2":112620}},{"type":"Polygon","arcs":[[221,222,223,224,-218]],"properties":{"codigo":"20001100000000000302","sector":"200011000000000003","pcode":"CO20001","area_m2":113969}},{"type":"Polygon","arcs":[[225,226,227,-224]],"properties":{"codigo":"20001100000000000303","sector":"200011000000000003","pcode":"CO20001","area_m2":104706}},{"type":"Polygon","arcs":[[228,229,230,231,-226,-223,232]],"properties":{"codigo":"20001100000000000401","sector":"200011000000000004","pcode":"CO20001","area_m2":157229}},{"type":"Polygon","arcs":[[233,-124,-126,-115,234]],"properties":{"codigo":"20001100000000004501","sector":"200011000000000045","pcode":"CO20001","area_m2":141035}},{"type":"Polygon","arcs":[[-217,-23,235,-233,-222]],"properties":{"codigo":"20001100000000000402","sector":"200011000000000004","pcode":"CO20001","area_m2":168309}},{"type":"Polygon","arcs":[[-214,236,237,238,239]],"properties":{"codigo":"20001100000000005106","sector":"200011000000000051","pcode":"CO20001","area_m2":85198}},{"type":"Polygon","arcs":[[-230,240,241,242,243]],"properties":{"codigo":"20001100000000000403","sector":"200011000000000004","pcode":"CO20001","area_m2":145744}},{"type":"Polygon","arcs":[[244,245,246,247]],"properties":{"codigo":"20001100000000004602","sector":"200011000000000046","pcode":"CO20001","area_m2":116370}},{"type":"Polygon","arcs":[[248,249,250,251,252]],"properties":{"codigo":"20001100000000000705","sector":"200011000000000007","pcode":"CO20001","area_m2":90217}},{"type":"Polygon","arcs":[[253,254,255,256,-250,257]],"properties":{"codigo":"20001100000000000706","sector":"200011000000000007","pcode":"CO20001","area_m2":85078}},{"type":"Polygon","arcs":[[258,259,-2,260,-256]],"properties":{"codigo":"20001100000000000707","sector":"200011000000000007","pcode":"CO20001","area_m2":80209}},{"type":"Polygon","arcs":[[261,262,263,-65,-62,264]],"properties":{"codigo":"20001100000000002401","sector":"200011000000000024","pcode":"CO20001","area_m2":93971}},{"type":"Polygon","arcs":[[265,266,267,268,269,270]],"properties":{"codigo":"20001100000000000509","sector":"200011000000000005","pcode":"CO20001","area_m2":99199}},{"type":"Polygon","arcs":[[-231,-244,271,272,273,274,275]],"properties":{"codigo":"20001100000000000601","sector":"200011000000000006","pcode":"CO20001","area_m2":98286}},{"type":"Polygon","arcs":[[276,277,-25,278,-254,279,-273]],"properties":{"codigo":"20001100000000000602","sector":"200011000000000006","pcode":"CO20001","area_m2":101145}},{"type":"Polygon","arcs":[[-232,-276,280,281,282,-227]],"properties":{"codigo":"20001100000000000701","sector":"200011000000000007","pcode":"CO20001","area_m2":94684}},{"type":"Polygon","arcs":[[283,284,-74,285,-54]],"properties":{"codigo":"20001100000000003801","sector":"200011000000000038","pcode":"CO20001","area_m2":119691}},{"type":"Polygon","arcs":[[286,287,-282]],"properties":{"codigo":"20001100000000000702","sector":"200011000000000007","pcode":"CO20001","area_m2":88706}},{"type":"Polygon","arcs":[[-247,288,289,290,291,292]],"properties":{"codigo":"20001100000000004603","sector":"200011000000000046","pcode":"CO20001","area_m2":188327}},{"type":"Polygon","arcs":[[293,294,295,296,297,-263,298]],"properties":{"codigo":"20001100000000002301","sector":"200011000000000023","pcode":"CO20001","area_m2":194311}},{"type":"Polygon","arcs":[[299,300,301,302,303,304]],"properties":{"codigo":"20001100000000000901","sector":"200011000000000009","pcode":"CO20001","area_m2":170500}},{"type":"Polygon","arcs":[[-292,305,306]],"properties":{"codigo":"20001100000000004604","sector":"200011000000000046","pcode":"CO20001","area_m2":119291}},{"type":"Polygon","arcs":[[307,308,309,-144,310]],"properties":{"codigo":"20001100000000005102","sector":"200011000000000051","pcode":"CO20001","area_m2":106700}},{"type":"Polygon","arcs":[[311,312,313,314,315]],"properties":{"codigo":"20001100000000004303","sector":"200011000000000043","pcode":"CO20001","area_m2":105856}},{"type":"Polygon","arcs":[[-308,316,317,318]],"properties":{"codigo":"20001100000000005103","sector":"200011000000000051","pcode":"CO20001","area_m2":76996}},{"type":"Polygon","arcs":[[319,320,-314,321,-95,-93]],"properties":{"codigo":"20001100000000004304","sector":"200011000000000043","pcode":"CO20001","area_m2":76937}},{"type":"Polygon","arcs":[[-315,-321,322,323,324]],"properties":{"codigo":"20001100000000004305","sector":"200011000000000043","pcode":"CO20001","area_m2":70675}},{"type":"Polygon","arcs":[[-304,325,326,327,328,329,330,331]],"properties":{"codigo":"20001100000000000902","sector":"200011000000000009","pcode":"CO20001","area_m2":211596}},{"type":"Polygon","arcs":[[332,333,334,335,-329]],"properties":{"codigo":"20001100000000000903","sector":"200011000000000009","pcode":"CO20001","area_m2":134056}},{"type":"Polygon","arcs":[[336,-237,-213,-305,-332,337]],"properties":{"codigo":"20001100000000001001","sector":"200011000000000010","pcode":"CO20001","area_m2":93380}},{"type":"Polygon","arcs":[[-338,-331,338,339,340]],"properties":{"codigo":"20001100000000001002","sector":"200011000000000010","pcode":"CO20001","area_m2":86408}},{"type":"Polygon","arcs":[[341,342,343,344,345,346]],"properties":{"codigo":"20001100000000001101","sector":"200011000000000011","pcode":"CO20001","area_m2":36725}},{"type":"Polygon","arcs":[[347,348,349,350,351]],"properties":{"codigo":"20001100000000004306","sector":"200011000000000043","pcode":"CO20001","area_m2":82654}},{"type":"Polygon","arcs":[[352,353,-340,354,-347]],"properties":{"codigo":"20001100000000001102","sector":"200011000000000011","pcode":"CO20001","area_m2":38959}},{"type":"Polygon","arcs":[[-354,355,356,-238,-337,-341]],"properties":{"codigo":"20001100000000001103","sector":"200011000000000011","pcode":"CO20001","area_m2":31567}},{"type":"Polygon","arcs":[[357,-356,-353,-346,358]],"properties":{"codigo":"20001100000000001104","sector":"200011000000000011","pcode":"CO20001","area_m2":44596}},{"type":"Polygon","arcs":[[-359,-345,359,360]],"properties":{"codigo":"20001100000000001105","sector":"200011000000000011","pcode":"CO20001","area_m2":47891}},{"type":"Polygon","arcs":[[361,362,363,364,-69]],"properties":{"codigo":"20001100000000003201","sector":"200011000000000032","pcode":"CO20001","area_m2":31358}},{"type":"Polygon","arcs":[[365,366,-75,-285,367]],"properties":{"codigo":"20001100000000003702","sector":"200011000000000037","pcode":"CO20001","area_m2":158574}},{"type":"Polygon","arcs":[[-76,-367,368,-86,-80]],"properties":{"codigo":"20001100000000003704","sector":"200011000000000037","pcode":"CO20001","area_m2":91391}},{"type":"Polygon","arcs":[[-242,369,370,371,372,373]],"properties":{"codigo":"20001100000000000407","sector":"200011000000000004","pcode":"CO20001","area_m2":366146}},{"type":"Polygon","arcs":[[374,-82,-85,375,376,377]],"properties":{"codigo":"20001100000000003706","sector":"200011000000000037","pcode":"CO20001","area_m2":220118}},{"type":"Polygon","arcs":[[378,-326,-303,379,-4,380,381,382,383]],"properties":{"codigo":"20001100000000000709","sector":"200011000000000007","pcode":"CO20001","area_m2":131174}},{"type":"Polygon","arcs":[[-251,-257,384,385,386]],"properties":{"codigo":"20001100000000000801","sector":"200011000000000008","pcode":"CO20001","area_m2":70099}},{"type":"Polygon","arcs":[[387,-109,388,389,390]],"properties":{"codigo":"20001100000000004206","sector":"200011000000000042","pcode":"CO20001","area_m2":74380}},{"type":"Polygon","arcs":[[-261,-1,-380,-302,391,-385]],"properties":{"codigo":"20001100000000000802","sector":"200011000000000008","pcode":"CO20001","area_m2":131185}},{"type":"Polygon","arcs":[[392,393,-265,-61,394,395,-334]],"properties":{"codigo":"20001100000000001401","sector":"200011000000000014","pcode":"CO20001","area_m2":148782}},{"type":"Polygon","arcs":[[396,397,398,399,400,-390]],"properties":{"codigo":"20001100000000004207","sector":"200011000000000042","pcode":"CO20001","area_m2":47789}},{"type":"Polygon","arcs":[[-328,401,402,-294,403,-393,-333]],"properties":{"codigo":"20001100000000001501","sector":"200011000000000015","pcode":"CO20001","area_m2":157942}},{"type":"Polygon","arcs":[[-404,-299,-262,-394]],"properties":{"codigo":"20001100000000001502","sector":"200011000000000015","pcode":"CO20001","area_m2":96358}},{"type":"Polygon","arcs":[[404,405,406,407,-378]],"properties":{"codigo":"20001100000000003707","sector":"200011000000000037","pcode":"CO20001","area_m2":117288}},{"type":"Polygon","arcs":[[-379,408,-402,-327]],"properties":{"codigo":"20001100000000001601","sector":"200011000000000016","pcode":"CO20001","area_m2":31951}},{"type":"Polygon","arcs":[[-114,409,-118,-131,410,411]],"properties":{"codigo":"20001100000000004403","sector":"200011000000000044","pcode":"CO20001","area_m2":94617}},{"type":"Polygon","arcs":[[412,-110,-412,413,414,415]],"properties":{"codigo":"20001100000000004405","sector":"200011000000000044","pcode":"CO20001","area_m2":84249}},{"type":"Polygon","arcs":[[416,417,418,419,-416,420]],"properties":{"codigo":"20001100000000004406","sector":"200011000000000044","pcode":"CO20001","area_m2":48675}},{"type":"Polygon","arcs":[[421,-391,-401,422]],"properties":{"codigo":"20001100000000004208","sector":"200011000000000042","pcode":"CO20001","area_m2":52641}},{"type":"Polygon","arcs":[[423,424,-296,425,426]],"properties":{"codigo":"20001100000000002201","sector":"200011000000000022","pcode":"CO20001","area_m2":94063}},{"type":"Polygon","arcs":[[-34,427,428,-424,429]],"properties":{"codigo":"20001100000000002202","sector":"200011000000000022","pcode":"CO20001","area_m2":106546}},{"type":"Polygon","arcs":[[-10,430,431,-428,-33]],"properties":{"codigo":"20001100000000002203","sector":"200011000000000022","pcode":"CO20001","area_m2":105607}},{"type":"Polygon","arcs":[[432,433,-371,434]],"properties":{"codigo":"20001100000000000410","sector":"200011000000000004","pcode":"CO20001","area_m2":108152}},{"type":"Polygon","arcs":[[-275,435,-253,436,-287,-281]],"properties":{"codigo":"20001100000000000703","sector":"200011000000000007","pcode":"CO20001","area_m2":88443}},{"type":"Polygon","arcs":[[-421,-415,437,438]],"properties":{"codigo":"20001100000000004505","sector":"200011000000000045","pcode":"CO20001","area_m2":62619}},{"type":"Polygon","arcs":[[-274,-280,-258,-249,-436]],"properties":{"codigo":"20001100000000000704","sector":"200011000000000007","pcode":"CO20001","area_m2":87470}},{"type":"Polygon","arcs":[[439,440,441,442,443,-245,444]],"properties":{"codigo":"20001100000000000114","sector":"200011000000000001","pcode":"CO20001","area_m2":988450}},{"type":"Polygon","arcs":[[-442,445,-216,446]],"properties":{"codigo":"20001100000000000101","sector":"200011000000000001","pcode":"CO20001","area_m2":135270}},{"type":"Polygon","arcs":[[447,-16,-21,-221,448,-300,-212,-446,-441]],"properties":{"codigo":"20001100000000000102","sector":"200011000000000001","pcode":"CO20001","area_m2":382253}},{"type":"Polygon","arcs":[[-220,449,-386,-392,-301,-449]],"properties":{"codigo":"20001100000000000103","sector":"200011000000000001","pcode":"CO20001","area_m2":216290}},{"type":"Polygon","arcs":[[-219,-225,-228,-283,-288,-437,-252,-387,-450]],"properties":{"codigo":"20001100000000000104","sector":"200011000000000001","pcode":"CO20001","area_m2":139662}},{"type":"Polygon","arcs":[[-17,-448,-440,450,451]],"properties":{"codigo":"20001100000000000105","sector":"200011000000000001","pcode":"CO20001","area_m2":177115}},{"type":"Polygon","arcs":[[-272,-243,-374,452,453,454,-277]],"properties":{"codigo":"20001100000000000405","sector":"200011000000000004","pcode":"CO20001","area_m2":229910}},{"type":"Polygon","arcs":[[455,-19,456]],"properties":{"codigo":"20001100000000000406","sector":"200011000000000004","pcode":"CO20001","area_m2":374317}},{"type":"Polygon","arcs":[[-49,457,-423,-400,458]],"properties":{"codigo":"20001100000000000501","sector":"200011000000000005","pcode":"CO20001","area_m2":102762}},{"type":"Polygon","arcs":[[459,460,-458,-48,-46,461,462]],"properties":{"codigo":"20001100000000000502","sector":"200011000000000005","pcode":"CO20001","area_m2":135524}},{"type":"Polygon","arcs":[[-454,463,464,465,-463,466,467]],"properties":{"codigo":"20001100000000000503","sector":"200011000000000005","pcode":"CO20001","area_m2":206589}},{"type":"Polygon","arcs":[[-467,-462,-45,-27,468]],"properties":{"codigo":"20001100000000000504","sector":"200011000000000005","pcode":"CO20001","area_m2":80416}},{"type":"Polygon","arcs":[[-455,-468,-469,-26,-278]],"properties":{"codigo":"20001100000000000505","sector":"200011000000000005","pcode":"CO20001","area_m2":180991}},{"type":"Polygon","arcs":[[469,470,471,-105,-388,-422,-461]],"properties":{"codigo":"20001100000000000506","sector":"200011000000000005","pcode":"CO20001","area_m2":90311}},{"type":"Polygon","arcs":[[-460,-466,472,-271,473,-470]],"properties":{"codigo":"20001100000000000507","sector":"200011000000000005","pcode":"CO20001","area_m2":132112}},{"type":"Polygon","arcs":[[-152,474,-360,-344,475,476,477,478]],"properties":{"codigo":"20001100000000001201","sector":"200011000000000012","pcode":"CO20001","area_m2":191324}},{"type":"Polygon","arcs":[[479,-426,-295,-403,-409,-384]],"properties":{"codigo":"20001100000000001701","sector":"200011000000000017","pcode":"CO20001","area_m2":142119}},{"type":"Polygon","arcs":[[480,-430,-427,-480,-383]],"properties":{"codigo":"20001100000000001801","sector":"200011000000000018","pcode":"CO20001","area_m2":104548}},{"type":"Polygon","arcs":[[481,-30,-481,-382]],"properties":{"codigo":"20001100000000001901","sector":"200011000000000019","pcode":"CO20001","area_m2":146796}},{"type":"Polygon","arcs":[[482,-35,-31,-482,-381,-3,-260]],"properties":{"codigo":"20001100000000001902","sector":"200011000000000019","pcode":"CO20001","area_m2":123952}},{"type":"Polygon","arcs":[[483,-39,-36,-483,-259]],"properties":{"codigo":"20001100000000001903","sector":"200011000000000019","pcode":"CO20001","area_m2":126886}},{"type":"Polygon","arcs":[[-255,-279,-29,-44,-40,-484]],"properties":{"codigo":"20001100000000001904","sector":"200011000000000019","pcode":"CO20001","area_m2":127398}},{"type":"Polygon","arcs":[[484,485,-14,-52]],"properties":{"codigo":"20001100000000002009","sector":"200011000000000020","pcode":"CO20001","area_m2":90158}},{"type":"Polygon","arcs":[[486,487,488,489,490]],"properties":{"codigo":"20001100000000002102","sector":"200011000000000021","pcode":"CO20001","area_m2":398440}},{"type":"Polygon","arcs":[[491,492,493,-491,494,495,496,-235,-120]],"properties":{"codigo":"20001100000000002103","sector":"200011000000000021","pcode":"CO20001","area_m2":578120}},{"type":"Polygon","arcs":[[-141,-125,-234,-497,497,498,499]],"properties":{"codigo":"20001100000000002104","sector":"200011000000000021","pcode":"CO20001","area_m2":102177}},{"type":"Polygon","arcs":[[-499,500,501,502,503,504]],"properties":{"codigo":"20001100000000002105","sector":"200011000000000021","pcode":"CO20001","area_m2":200802}},{"type":"Polygon","arcs":[[505,-502,506]],"properties":{"codigo":"20001100000000002106","sector":"200011000000000021","pcode":"CO20001","area_m2":168699}},{"type":"Polygon","arcs":[[-496,507,508,509,-507,-501,-498]],"properties":{"codigo":"20001100000000002107","sector":"200011000000000021","pcode":"CO20001","area_m2":318474}},{"type":"Polygon","arcs":[[510,511,-509,512]],"properties":{"codigo":"20001100000000002108","sector":"200011000000000021","pcode":"CO20001","area_m2":65487}},{"type":"Polygon","arcs":[[-490,513,-513,-508,-495]],"properties":{"codigo":"20001100000000002109","sector":"200011000000000021","pcode":"CO20001","area_m2":242384}},{"type":"Polygon","arcs":[[-489,514,515,-511,-514]],"properties":{"codigo":"20001100000000002110","sector":"200011000000000021","pcode":"CO20001","area_m2":818649}},{"type":"Polygon","arcs":[[-298,516,-57,-66,-264]],"properties":{"codigo":"20001100000000002402","sector":"200011000000000024","pcode":"CO20001","area_m2":133175}},{"type":"Polygon","arcs":[[-395,-60,517,518,519]],"properties":{"codigo":"20001100000000002601","sector":"200011000000000026","pcode":"CO20001","area_m2":92817}},{"type":"Polygon","arcs":[[520,521,-477,522,-519,523]],"properties":{"codigo":"20001100000000002701","sector":"200011000000000027","pcode":"CO20001","area_m2":181488}},{"type":"Polygon","arcs":[[524,-478,-522,525,526]],"properties":{"codigo":"20001100000000002702","sector":"200011000000000027","pcode":"CO20001","area_m2":81174}},{"type":"Polygon","arcs":[[-527,527,528,529]],"properties":{"codigo":"20001100000000002703","sector":"200011000000000027","pcode":"CO20001","area_m2":40643}},{"type":"Polygon","arcs":[[-524,-518,-59,-64,530,531]],"properties":{"codigo":"20001100000000002801","sector":"200011000000000028","pcode":"CO20001","area_m2":65347}},{"type":"Polygon","arcs":[[-63,-70,-365,532,533,-531]],"properties":{"codigo":"20001100000000002901","sector":"200011000000000029","pcode":"CO20001","area_m2":43670}},{"type":"Polygon","arcs":[[534,535,-533,-364,536,537]],"properties":{"codigo":"20001100000000002902","sector":"200011000000000029","pcode":"CO20001","area_m2":68495}},{"type":"Polygon","arcs":[[-529,538,-535,539]],"properties":{"codigo":"20001100000000002903","sector":"200011000000000029","pcode":"CO20001","area_m2":61870}},{"type":"Polygon","arcs":[[-526,-521,-532,-534,-536,-539,-528]],"properties":{"codigo":"20001100000000002904","sector":"200011000000000029","pcode":"CO20001","area_m2":113774}},{"type":"Polygon","arcs":[[-68,-55,-286,540,541,-362]],"properties":{"codigo":"20001100000000003101","sector":"200011000000000031","pcode":"CO20001","area_m2":117247}},{"type":"Polygon","arcs":[[-541,-78,542,-72,543]],"properties":{"codigo":"20001100000000003102","sector":"200011000000000031","pcode":"CO20001","area_m2":111339}},{"type":"Polygon","arcs":[[-537,-363,-542,-544,-71,544,545]],"properties":{"codigo":"20001100000000003301","sector":"200011000000000033","pcode":"CO20001","area_m2":141202}},{"type":"Polygon","arcs":[[-545,-73,-543,-79,-375,-408,546,547]],"properties":{"codigo":"20001100000000003402","sector":"200011000000000034","pcode":"CO20001","area_m2":140142}},{"type":"Polygon","arcs":[[-407,548,549,-547]],"properties":{"codigo":"20001100000000003403","sector":"200011000000000034","pcode":"CO20001","area_m2":144705}},{"type":"Polygon","arcs":[[-549,-406,550,551,552,553]],"properties":{"codigo":"20001100000000003404","sector":"200011000000000034","pcode":"CO20001","area_m2":142595}},{"type":"Polygon","arcs":[[-438,-414,-411,-130,-137,554,555,556,557,558]],"properties":{"codigo":"20001100000000004506","sector":"200011000000000045","pcode":"CO20001","area_m2":636105}},{"type":"Polygon","arcs":[[-553,559,560,561,562,563,564]],"properties":{"codigo":"20001100000000003501","sector":"200011000000000035","pcode":"CO20001","area_m2":1387061}},{"type":"Polygon","arcs":[[565,566,-560,-552,567]],"properties":{"codigo":"20001100000000003601","sector":"200011000000000036","pcode":"CO20001","area_m2":171682}},{"type":"Polygon","arcs":[[568,-568,-551,-405,-377]],"properties":{"codigo":"20001100000000003602","sector":"200011000000000036","pcode":"CO20001","area_m2":167678}},{"type":"Polygon","arcs":[[569,570,571,-561,-567]],"properties":{"codigo":"20001100000000003603","sector":"200011000000000036","pcode":"CO20001","area_m2":219595}},{"type":"Polygon","arcs":[[572,-368,-284,-53,-517,-297]],"properties":{"codigo":"20001100000000003701","sector":"200011000000000037","pcode":"CO20001","area_m2":227407}},{"type":"Polygon","arcs":[[573,574,575,576,577,-571]],"properties":{"codigo":"20001100000000003902","sector":"200011000000000039","pcode":"CO20001","area_m2":159920}},{"type":"Polygon","arcs":[[-376,-84,578,579,-574,-570,-566,-569]],"properties":{"codigo":"20001100000000003903","sector":"200011000000000039","pcode":"CO20001","area_m2":156801}},{"type":"Polygon","arcs":[[580,-575,-580,581,582]],"properties":{"codigo":"20001100000000003905","sector":"200011000000000039","pcode":"CO20001","area_m2":120111}},{"type":"Polygon","arcs":[[-83,-312,583,-582,-579]],"properties":{"codigo":"20001100000000003906","sector":"200011000000000039","pcode":"CO20001","area_m2":116300}},{"type":"Polygon","arcs":[[-572,-578,584,585,-562]],"properties":{"codigo":"20001100000000003907","sector":"200011000000000039","pcode":"CO20001","area_m2":129002}},{"type":"Polygon","arcs":[[-577,586,-350,587,588,-585]],"properties":{"codigo":"20001100000000003908","sector":"200011000000000039","pcode":"CO20001","area_m2":396944}},{"type":"Polygon","arcs":[[589,590,591,-556,592,593,594,595]],"properties":{"codigo":"20001100000000003910","sector":"200011000000000039","pcode":"CO20001","area_m2":177964}},{"type":"Polygon","arcs":[[-581,596,-351,-587,-576]],"properties":{"codigo":"20001100000000004301","sector":"200011000000000043","pcode":"CO20001","area_m2":98825}},{"type":"Polygon","arcs":[[-564,597,598,599]],"properties":{"codigo":"20001100000000003911","sector":"200011000000000039","pcode":"CO20001","area_m2":685508}},{"type":"Polygon","arcs":[[600,601,-89,-99,-101,602]],"properties":{"codigo":"20001100000000004004","sector":"200011000000000040","pcode":"CO20001","area_m2":121908}},{"type":"Polygon","arcs":[[-103,-90,-602,603,-486,604,605,606,-487,-494,607,608]],"properties":{"codigo":"20001100000000004006","sector":"200011000000000040","pcode":"CO20001","area_m2":1103443}},{"type":"Polygon","arcs":[[-323,-320,-92,-104,-609,609,-419,610]],"properties":{"codigo":"20001100000000004007","sector":"200011000000000040","pcode":"CO20001","area_m2":281212}},{"type":"Polygon","arcs":[[-325,611,-352,-597,-583,-584,-316]],"properties":{"codigo":"20001100000000004302","sector":"200011000000000043","pcode":"CO20001","area_m2":106992}},{"type":"Polygon","arcs":[[-493,612,-112,613,-608]],"properties":{"codigo":"20001100000000004008","sector":"200011000000000040","pcode":"CO20001","area_m2":129774}},{"type":"Polygon","arcs":[[-492,-119,-410,-113,-613]],"properties":{"codigo":"20001100000000004009","sector":"200011000000000040","pcode":"CO20001","area_m2":135284}},{"type":"Polygon","arcs":[[-604,-601,614,-9]],"properties":{"codigo":"20001100000000004101","sector":"200011000000000041","pcode":"CO20001","area_m2":110413}},{"type":"Polygon","arcs":[[-615,-603,-100,615,-431]],"properties":{"codigo":"20001100000000004102","sector":"200011000000000041","pcode":"CO20001","area_m2":134376}},{"type":"Polygon","arcs":[[-573,-425,-429,-432,-616,-102,-97,-87,-369,-366]],"properties":{"codigo":"20001100000000004103","sector":"200011000000000041","pcode":"CO20001","area_m2":366091}},{"type":"Polygon","arcs":[[616,617,618,619,-397,-389,-108]],"properties":{"codigo":"20001100000000004203","sector":"200011000000000042","pcode":"CO20001","area_m2":52014}},{"type":"Polygon","arcs":[[-417,-439,-559,620,-588,-349,621]],"properties":{"codigo":"20001100000000004307","sector":"200011000000000043","pcode":"CO20001","area_m2":335089}},{"type":"Polygon","arcs":[[-96,-322,-313,-88]],"properties":{"codigo":"20001100000000004308","sector":"200011000000000043","pcode":"CO20001","area_m2":97954}},{"type":"Polygon","arcs":[[-611,-418,-622,-348,-612,-324]],"properties":{"codigo":"20001100000000004309","sector":"200011000000000043","pcode":"CO20001","area_m2":119800}},{"type":"Polygon","arcs":[[-610,-614,-111,-413,-420]],"properties":{"codigo":"20001100000000004401","sector":"200011000000000044","pcode":"CO20001","area_m2":86364}},{"type":"Polygon","arcs":[[622,623,-306,-291,624,-142]],"properties":{"codigo":"20001100000000004605","sector":"200011000000000046","pcode":"CO20001","area_m2":142471}},{"type":"Polygon","arcs":[[625,626,627,628,-248,-293,-307,-624,629]],"properties":{"codigo":"20001100000000004606","sector":"200011000000000046","pcode":"CO20001","area_m2":484105}},{"type":"Polygon","arcs":[[-444,630,-317,631,-289,-246]],"properties":{"codigo":"20001100000000004608","sector":"200011000000000046","pcode":"CO20001","area_m2":129773}},{"type":"Polygon","arcs":[[-632,-311,-143,-625,-290]],"properties":{"codigo":"20001100000000004609","sector":"200011000000000046","pcode":"CO20001","area_m2":88370}},{"type":"Polygon","arcs":[[632,633,634,635]],"properties":{"codigo":"20001100000000004703","sector":"200011000000000047","pcode":"CO20001","area_m2":125954}},{"type":"Polygon","arcs":[[636,637,638,639,640,641,642,643,644,-633]],"properties":{"codigo":"20001100000000004704","sector":"200011000000000047","pcode":"CO20001","area_m2":245493}},{"type":"Polygon","arcs":[[645,646,647,648,649,650]],"properties":{"codigo":"20001100000000004802","sector":"200011000000000048","pcode":"CO20001","area_m2":106616}},{"type":"Polygon","arcs":[[651,-646,652,-106,-472,653]],"properties":{"codigo":"20001100000000004804","sector":"200011000000000048","pcode":"CO20001","area_m2":71478}},{"type":"Polygon","arcs":[[654,655,656,657]],"properties":{"codigo":"20001100000000004805","sector":"200011000000000048","pcode":"CO20001","area_m2":153634}},{"type":"Polygon","arcs":[[-270,658,-654,-471,-474]],"properties":{"codigo":"20001100000000004807","sector":"200011000000000048","pcode":"CO20001","area_m2":117752}},{"type":"Polygon","arcs":[[659,660,661,662,663,-643]],"properties":{"codigo":"20001100000000004902","sector":"200011000000000049","pcode":"CO20001","area_m2":122654}},{"type":"Polygon","arcs":[[664,665,666,667,668,669,670,-663]],"properties":{"codigo":"20001100000000004903","sector":"200011000000000049","pcode":"CO20001","area_m2":139197}},{"type":"Polygon","arcs":[[671,672,673,674,-268,675]],"properties":{"codigo":"20001100000000004905","sector":"200011000000000049","pcode":"CO20001","area_m2":374998}},{"type":"Polygon","arcs":[[-644,-664,-671,676,677,678,679,-673,680]],"properties":{"codigo":"20001100000000004906","sector":"200011000000000049","pcode":"CO20001","area_m2":501060}},{"type":"Polygon","arcs":[[681,-634,-645,-681,-672,682]],"properties":{"codigo":"20001100000000004907","sector":"200011000000000049","pcode":"CO20001","area_m2":723309}},{"type":"Polygon","arcs":[[683,684]],"properties":{"codigo":"20001100000000004909","sector":"200011000000000049","pcode":"CO20001","area_m2":616648}},{"type":"Polygon","arcs":[[-661,685]],"properties":{"codigo":"20001100000000004910","sector":"200011000000000049","pcode":"CO20001","area_m2":127802}},{"type":"Polygon","arcs":[[686,-593,-555,-136]],"properties":{"codigo":"20001100000000005001","sector":"200011000000000050","pcode":"CO20001","area_m2":132215}},{"type":"Polygon","arcs":[[-132,-128,687,688,689,-134]],"properties":{"codigo":"20001100000000005003","sector":"200011000000000050","pcode":"CO20001","area_m2":102440}},{"type":"Polygon","arcs":[[-127,-122,-140,690,-688]],"properties":{"codigo":"20001100000000005004","sector":"200011000000000050","pcode":"CO20001","area_m2":92223}},{"type":"Polygon","arcs":[[-689,-691,-139,691,692,693]],"properties":{"codigo":"20001100000000005005","sector":"200011000000000050","pcode":"CO20001","area_m2":150182}},{"type":"Polygon","arcs":[[-500,-505,694,695,-692,-138]],"properties":{"codigo":"20001100000000005007","sector":"200011000000000050","pcode":"CO20001","area_m2":123510}},{"type":"Polygon","arcs":[[696,697,-693,-696]],"properties":{"codigo":"20001100000000005008","sector":"200011000000000050","pcode":"CO20001","area_m2":186138}},{"type":"Polygon","arcs":[[-594,-687,-135,-690,-694,-698,698,699]],"properties":{"codigo":"20001100000000005009","sector":"200011000000000050","pcode":"CO20001","area_m2":477634}},{"type":"Polygon","arcs":[[700,-318,-631,-443,-447,-215,-240,701,-148]],"properties":{"codigo":"20001100000000005104","sector":"200011000000000051","pcode":"CO20001","area_m2":221440}},{"type":"Polygon","arcs":[[-309,-319,-701,-147,-150,702]],"properties":{"codigo":"20001100000000005105","sector":"200011000000000051","pcode":"CO20001","area_m2":96588}},{"type":"Polygon","arcs":[[-702,-239,-357,-358,-361,-475,-151,-149]],"properties":{"codigo":"20001100000000005107","sector":"200011000000000051","pcode":"CO20001","area_m2":83595}},{"type":"Polygon","arcs":[[-695,-504,703,-699,-697]],"properties":{"codigo":"20001100000000005401","sector":"200011000000000054","pcode":"CO20001","area_m2":166006}},{"type":"Polygon","arcs":[[704,705,706]],"properties":{"codigo":"20001204203001000101","sector":"200012042030010001","pcode":"CO20001","area_m2":179985}},{"type":"Polygon","arcs":[[707,708,-707,709]],"properties":{"codigo":"20001204203001000102","sector":"200012042030010001","pcode":"CO20001","area_m2":108759}},{"type":"Polygon","arcs":[[710,711]],"properties":{"codigo":"20001201004007000101","sector":"200012010040070001","pcode":"CO20001","area_m2":40283}},{"type":"Polygon","arcs":[[712,713]],"properties":{"codigo":"20001204203001000103","sector":"200012042030010001","pcode":"CO20001","area_m2":178728}},{"type":"Polygon","arcs":[[714,-705,-709,715]],"properties":{"codigo":"20001204203001000104","sector":"200012042030010001","pcode":"CO20001","area_m2":247698}},{"type":"Polygon","arcs":[[-716,-708,716,717,718,719]],"properties":{"codigo":"20001204203001000105","sector":"200012042030010001","pcode":"CO20001","area_m2":178742}},{"type":"Polygon","arcs":[[720,721,722,723,724]],"properties":{"codigo":"20001205001012000103","sector":"200012050010120001","pcode":"CO20001","area_m2":121031}},{"type":"Polygon","arcs":[[-718,725,-713,726,727]],"properties":{"codigo":"20001204203001000106","sector":"200012042030010001","pcode":"CO20001","area_m2":133757}},{"type":"Polygon","arcs":[[-719,-728,728]],"properties":{"codigo":"20001204203001000107","sector":"200012042030010001","pcode":"CO20001","area_m2":275247}},{"type":"Polygon","arcs":[[729,730]],"properties":{"codigo":"20001201004007000103","sector":"200012010040070001","pcode":"CO20001","area_m2":104221}},{"type":"Polygon","arcs":[[-161,-157,731]],"properties":{"codigo":"20001201005002000101","sector":"200012010050020001","pcode":"CO20001","area_m2":124311}},{"type":"Polygon","arcs":[[732,-159,733]],"properties":{"codigo":"20001201005002000103","sector":"200012010050020001","pcode":"CO20001","area_m2":151779}},{"type":"Polygon","arcs":[[734,735,736,-154,-160,-733]],"properties":{"codigo":"20001201005002000104","sector":"200012010050020001","pcode":"CO20001","area_m2":80805}},{"type":"Polygon","arcs":[[-736,737,738]],"properties":{"codigo":"20001201005002000105","sector":"200012010050020001","pcode":"CO20001","area_m2":53758}},{"type":"Polygon","arcs":[[-155,-737,-739,739]],"properties":{"codigo":"20001201005002000106","sector":"200012010050020001","pcode":"CO20001","area_m2":86112}},{"type":"Polygon","arcs":[[740,-712,741,-730]],"properties":{"codigo":"20001201004007000102","sector":"200012010040070001","pcode":"CO20001","area_m2":23430}},{"type":"Polygon","arcs":[[742,743]],"properties":{"codigo":"20001201403003000101","sector":"200012014030030001","pcode":"CO20001","area_m2":111877}},{"type":"Polygon","arcs":[[-744,744]],"properties":{"codigo":"20001201403003000102","sector":"200012014030030001","pcode":"CO20001","area_m2":124721}},{"type":"Polygon","arcs":[[745]],"properties":{"codigo":"20001204704005000101","sector":"200012047040050001","pcode":"CO20001","area_m2":295130}},{"type":"Polygon","arcs":[[746,747]],"properties":{"codigo":"20001201004006000101","sector":"200012010040060001","pcode":"CO20001","area_m2":30250}},{"type":"Polygon","arcs":[[748,749,-747,750]],"properties":{"codigo":"20001201004006000102","sector":"200012010040060001","pcode":"CO20001","area_m2":18276}},{"type":"Polygon","arcs":[[-749,751]],"properties":{"codigo":"20001201004006000103","sector":"200012010040060001","pcode":"CO20001","area_m2":87765}},{"type":"Polygon","arcs":[[752,-722,753]],"properties":{"codigo":"20001205001012000102","sector":"200012050010120001","pcode":"CO20001","area_m2":234461}},{"type":"Polygon","arcs":[[754,755]],"properties":{"codigo":"20001201803009000101","sector":"200012018030090001","pcode":"CO20001","area_m2":367216}},{"type":"Polygon","arcs":[[-756,756]],"properties":{"codigo":"20001201803009000102","sector":"200012018030090001","pcode":"CO20001","area_m2":331079}},{"type":"Polygon","arcs":[[757,758]],"properties":{"codigo":"20001205005010000101","sector":"200012050050100001","pcode":"CO20001","area_m2":207467}},{"type":"MultiPolygon","arcs":[[[759,760,761,762,763,764,-758,765]],[[766,767]]],"properties":{"codigo":"20001205005010000102","sector":"200012050050100001","pcode":"CO20001","area_m2":185039}},{"type":"MultiPolygon","arcs":[[[768,-174,769,-764]],[[770]],[[-762,771]],[[-760,772,-768,773]]],"properties":{"codigo":"20001205005010000103","sector":"200012050050100001","pcode":"CO20001","area_m2":88566}},{"type":"Polygon","arcs":[[-172,774]],"properties":{"codigo":"20001205005010000105","sector":"200012050050100001","pcode":"CO20001","area_m2":126691}},{"type":"Polygon","arcs":[[-754,-721,775]],"properties":{"codigo":"20001205001012000101","sector":"200012050010120001","pcode":"CO20001","area_m2":204586}},{"type":"Polygon","arcs":[[-724,776]],"properties":{"codigo":"20001205001012000104","sector":"200012050010120001","pcode":"CO20001","area_m2":222343}},{"type":"Polygon","arcs":[[-167,777]],"properties":{"codigo":"20001204303013000101","sector":"200012043030130001","pcode":"CO20001","area_m2":195321}},{"type":"Polygon","arcs":[[778,779,780,781]],"properties":{"codigo":"20001201401014000101","sector":"200012014010140001","pcode":"CO20001","area_m2":128926}},{"type":"Polygon","arcs":[[782,-779,783,784]],"properties":{"codigo":"20001201401014000102","sector":"200012014010140001","pcode":"CO20001","area_m2":203080}},{"type":"Polygon","arcs":[[-780,-783,785,786]],"properties":{"codigo":"20001201401014000103","sector":"200012014010140001","pcode":"CO20001","area_m2":195195}},{"type":"Polygon","arcs":[[-784,-782,787,788]],"properties":{"codigo":"20001201401014000201","sector":"200012014010140002","pcode":"CO20001","area_m2":295827}},{"type":"MultiPolygon","arcs":[[[-781,-787,789,-788]],[[790]]],"properties":{"codigo":"20001201401014000202","sector":"200012014010140002","pcode":"CO20001","area_m2":182376}},{"type":"Polygon","arcs":[[-193,791]],"properties":{"codigo":"20001203901018000101","sector":"200012039010180001","pcode":"CO20001","area_m2":137366}},{"type":"Polygon","arcs":[[792]],"properties":{"codigo":"20001204601019000101","sector":"200012046010190001","pcode":"CO20001","area_m2":59196}},{"type":"Polygon","arcs":[[793]],"properties":{"codigo":"20001204001024000101","sector":"200012040010240001","pcode":"CO20001","area_m2":62965}},{"type":"Polygon","arcs":[[794,795]],"properties":{"codigo":"20001201605025000101","sector":"200012016050250001","pcode":"CO20001","area_m2":194622}},{"type":"Polygon","arcs":[[796]],"properties":{"codigo":"20001201005045000101","sector":"200012010050450001","pcode":"CO20001","area_m2":113497}},{"type":"MultiPolygon","arcs":[[[-795,797]],[[798]]],"properties":{"codigo":"20001201605025000102","sector":"200012016050250001","pcode":"CO20001","area_m2":156242}},{"type":"Polygon","arcs":[[799]],"properties":{"codigo":"20001201105026000101","sector":"200012011050260001","pcode":"CO20001","area_m2":111153}},{"type":"Polygon","arcs":[[800]],"properties":{"codigo":"20001202502027000101","sector":"200012025020270001","pcode":"CO20001","area_m2":431229}},{"type":"Polygon","arcs":[[801]],"properties":{"codigo":"20001201801028000101","sector":"200012018010280001","pcode":"CO20001","area_m2":165178}},{"type":"Polygon","arcs":[[802]],"properties":{"codigo":"20001200904041000101","sector":"200012009040410001","pcode":"CO20001","area_m2":24749}},{"type":"Polygon","arcs":[[803]],"properties":{"codigo":"20001201505032000101","sector":"200012015050320001","pcode":"CO20001","area_m2":563666}},{"type":"Polygon","arcs":[[804,805]],"properties":{"codigo":"20001203401034000101","sector":"200012034010340001","pcode":"CO20001","area_m2":140277}},{"type":"Polygon","arcs":[[806,-805]],"properties":{"codigo":"20001203401034000102","sector":"200012034010340001","pcode":"CO20001","area_m2":60316}},{"type":"Polygon","arcs":[[807]],"properties":{"codigo":"20001201804036000101","sector":"200012018040360001","pcode":"CO20001","area_m2":66126}},{"type":"Polygon","arcs":[[808]],"properties":{"codigo":"20001201103038000101","sector":"200012011030380001","pcode":"CO20001","area_m2":41904}},{"type":"MultiPolygon","arcs":[[[809]],[[810]]],"properties":{"codigo":"20001202105042000101","sector":"200012021050420001","pcode":"CO20001","area_m2":167659}},{"type":"Polygon","arcs":[[811]],"properties":{"codigo":"20001201101048000101","sector":"200012011010480001","pcode":"CO20001","area_m2":91608}},{"type":"Polygon","arcs":[[-619,812]],"properties":{"codigo":"20001100000000004202","sector":"200011000000000042","pcode":"CO20001","area_m2":79484}},{"type":"Polygon","arcs":[[-675,813,814,-647,-652,-659,-269]],"properties":{"codigo":"20001100000000004904","sector":"200011000000000049","pcode":"CO20001","area_m2":310681}},{"type":"Polygon","arcs":[[815,-464,-453,-373,816,-683,-676,-267]],"properties":{"codigo":"20001100000000004901","sector":"200011000000000049","pcode":"CO20001","area_m2":396175}},{"type":"Polygon","arcs":[[-465,-816,-266,-473]],"properties":{"codigo":"20001100000000000508","sector":"200011000000000005","pcode":"CO20001","area_m2":74035}},{"type":"Polygon","arcs":[[817,818,-451,-445,-629]],"properties":{"codigo":"20001100000000004601","sector":"200011000000000046","pcode":"CO20001","area_m2":293357}},{"type":"Polygon","arcs":[[819,820,821,-641,822,-639,823,-637,-636,824,825]],"properties":{"codigo":"20001100000000004702","sector":"200011000000000047","pcode":"CO20001","area_m2":222173}},{"type":"Polygon","arcs":[[-815,826,-657,827,-648]],"properties":{"codigo":"20001100000000004803","sector":"200011000000000048","pcode":"CO20001","area_m2":238603}},{"type":"Polygon","arcs":[[-617,-107,-653,-651,828,829,830]],"properties":{"codigo":"20001100000000004204","sector":"200011000000000042","pcode":"CO20001","area_m2":109686}},{"type":"Polygon","arcs":[[-456,831,832,833,834,835,-820,836,-435,-370,-241,-229,-236,-22,-20]],"properties":{"codigo":"20001100000000000404","sector":"200011000000000004","pcode":"CO20001","area_m2":1465033}},{"type":"Polygon","arcs":[[-398,-620,-813,-618,-831,837,838,-606,839]],"properties":{"codigo":"20001100000000004201","sector":"200011000000000042","pcode":"CO20001","area_m2":292801}},{"type":"Polygon","arcs":[[840,841,842,843,844,-838,-830]],"properties":{"codigo":"20001100000000004808","sector":"200011000000000048","pcode":"CO20001","area_m2":497882}},{"type":"Polygon","arcs":[[-50,-459,-399,-840,-605,-485]],"properties":{"codigo":"20001100000000002008","sector":"200011000000000020","pcode":"CO20001","area_m2":235097}},{"type":"Polygon","arcs":[[-828,-656,845,-842,846,-649]],"properties":{"codigo":"20001100000000004809","sector":"200011000000000048","pcode":"CO20001","area_m2":115536}},{"type":"Polygon","arcs":[[-843,-846,-655,847]],"properties":{"codigo":"20001100000000004806","sector":"200011000000000048","pcode":"CO20001","area_m2":167621}},{"type":"Polygon","arcs":[[848,-515,-488,-607,-839,-845]],"properties":{"codigo":"20001100000000004810","sector":"200011000000000048","pcode":"CO20001","area_m2":983282}},{"type":"Polygon","arcs":[[849,-8,850,-818,-628,851,-626,852]],"properties":{"codigo":"20001100000000005302","sector":"200011000000000053","pcode":"CO20001","area_m2":2057046}},{"type":"Polygon","arcs":[[853,-825,-635,-682,-817,-372,-434]],"properties":{"codigo":"20001100000000000408","sector":"200011000000000004","pcode":"CO20001","area_m2":205940}},{"type":"Polygon","arcs":[[-829,-650,-847,-841]],"properties":{"codigo":"20001100000000004801","sector":"200011000000000048","pcode":"CO20001","area_m2":74229}},{"type":"Polygon","arcs":[[-7,-850,854,-832,-457,-18,-452,-819,-851]],"properties":{"codigo":"20001100000000000115","sector":"200011000000000001","pcode":"CO20001","area_m2":1794442}},{"type":"Polygon","arcs":[[855,856,857,-6,858,-679,859,-677,-670,860,-668,861]],"properties":{"codigo":"20001100000000005201","sector":"200011000000000052","pcode":"CO20001","area_m2":972693}},{"type":"Polygon","arcs":[[-335,-396,-520,-523,-476,862]],"properties":{"codigo":"20001100000000001302","sector":"200011000000000013","pcode":"CO20001","area_m2":101612}},{"type":"Polygon","arcs":[[-854,-433,-837,-826]],"properties":{"codigo":"20001100000000004701","sector":"200011000000000047","pcode":"CO20001","area_m2":89698}},{"type":"Polygon","arcs":[[863,-342,-355,-339,-330,-336,-863]],"properties":{"codigo":"20001100000000001301","sector":"200011000000000013","pcode":"CO20001","area_m2":62233}},{"type":"Polygon","arcs":[[864,865,866,867,-557,-592,868,-590,869,870]],"properties":{"codigo":"20001100000000003909","sector":"200011000000000039","pcode":"CO20001","area_m2":299729}},{"type":"Polygon","arcs":[[871,-665,-662,-686,-660,-642,-822,872,-836,873,-834,874,-684,875,-857]],"properties":{"codigo":"20001100000000004908","sector":"200011000000000049","pcode":"CO20001","area_m2":1086443}},{"type":"Polygon","arcs":[[-870,-596,876,-599,877]],"properties":{"codigo":"20001100000000003912","sector":"200011000000000039","pcode":"CO20001","area_m2":573878}},{"type":"Polygon","arcs":[[-878,-598,-563,-586,-589,-621,-558,-868,878,-866,879,-871]],"properties":{"codigo":"20001100000000003901","sector":"200011000000000039","pcode":"CO20001","area_m2":1195463}},{"type":"MultiPolygon","arcs":[[[880]],[[881]],[[882]]],"properties":{"codigo":"20001200604052000101","sector":"200012006040520001","pcode":"CO20001","area_m2":25922}},{"type":"MultiPolygon","arcs":[[[883]],[[884]]],"properties":{"codigo":"20001202612053000101","sector":"200012026120530001","pcode":"CO20001","area_m2":19827}},{"type":"MultiPolygon","arcs":[[[885]],[[886]],[[887]]],"properties":{"codigo":"20001201911054000101","sector":"200012019110540001","pcode":"CO20001","area_m2":51768}}]}},"arcs":[[[8080,6596],[10,-13]],[[8090,6583],[-30,-12],[-43,-17],[-5,7],[-14,-5]],[[7998,6556],[9,12]],[[8007,6568],[39,15],[34,13]],[[7928,6171],[-40,0]],[[7888,6171],[0,27],[23,0],[15,-14],[2,-3],[0,-10]],[[8326,6342],[-17,11],[5,3],[-27,20],[-5,5],[-7,12],[17,7]],[[8292,6400],[4,-4],[37,-28],[14,9],[4,0],[-1,-19],[-24,-16]],[[7844,6636],[41,15]],[[7885,6651],[20,-28]],[[7905,6623],[-13,-5],[3,-3],[-5,-6]],[[7890,6609],[-5,-7]],[[7885,6602],[-24,18]],[[7861,6620],[-17,16]],[[8159,6423],[39,-1]],[[8198,6422],[4,-5],[4,0]],[[8206,6417],[3,-11]],[[8209,6406],[3,-57]],[[8212,6349],[-70,-2]],[[8142,6347],[3,14],[14,62]],[[8178,6457],[21,-31],[-1,-4]],[[8159,6423],[-23,1]],[[8136,6424],[-1,12]],[[8135,6436],[16,4],[-5,8],[32,9]],[[7964,6510],[-3,-4]],[[7961,6506],[-48,20],[-15,-19]],[[7898,6507],[-16,11]],[[7882,6518],[16,20]],[[7898,6538],[66,-28]],[[7960,6625],[-17,-24]],[[7943,6601],[-7,-11]],[[7936,6590],[-46,19]],[[7905,6623],[5,-7],[9,4],[7,5],[-7,3],[15,8],[-6,5],[15,5]],[[7943,6646],[17,-21]],[[7936,6590],[-7,-10]],[[7929,6580],[-8,-10]],[[7921,6570],[-47,18]],[[7874,6588],[11,14]],[[7921,6570],[-8,-11]],[[7913,6559],[-7,-11]],[[7906,6548],[-48,20]],[[7858,6568],[8,10]],[[7866,6578],[8,10]],[[7906,6548],[-8,-10]],[[7882,6518],[-11,7]],[[7871,6525],[-5,3],[5,7],[-29,12]],[[7842,6547],[16,21]],[[7842,6547],[-26,14]],[[7816,6561],[-23,11]],[[7793,6572],[32,25]],[[7825,6597],[9,-6],[32,-13]],[[7825,6597],[19,14],[17,9]],[[8063,6734],[-11,13]],[[8052,6747],[52,26]],[[8104,6773],[11,6]],[[8115,6779],[21,-21]],[[8136,6758],[-44,-23],[-9,10],[-20,-11]],[[8144,6751],[25,13],[14,6]],[[8183,6770],[10,-10]],[[8193,6760],[-9,-8],[4,-5],[-18,-9]],[[8170,6738],[-9,-4]],[[8161,6734],[-17,17]],[[8193,6801],[9,-13],[4,-3]],[[8206,6785],[-23,-15]],[[8144,6751],[0,0]],[[8144,6751],[-8,7]],[[8136,6758],[26,13],[-10,10],[41,20]],[[8115,6779],[30,15],[22,9]],[[8167,6803],[17,9]],[[8184,6812],[9,-11]],[[8131,6859],[18,-8],[6,-5],[-16,-8]],[[8139,6838],[-30,-16],[-6,7],[-13,-7]],[[8090,6822],[-9,9],[30,16],[2,2],[18,10]],[[8081,6796],[-34,-17],[-12,-4],[-5,-1]],[[8030,6774],[-4,5]],[[8026,6779],[-7,7]],[[8019,6786],[22,11],[27,14]],[[8068,6811],[13,-15]],[[8061,6820],[7,-9]],[[8019,6786],[-15,-7],[-9,9],[-47,-25]],[[7948,6763],[-11,23]],[[7937,6786],[30,16],[9,-10],[26,14],[9,-10],[48,25],[2,-1]],[[7877,6781],[34,9]],[[7911,6790],[21,6]],[[7932,6796],[5,-10]],[[7948,6763],[3,-4]],[[7951,6759],[-37,-5],[-22,-1]],[[7892,6753],[-15,28]],[[7843,6720],[-32,-9]],[[7811,6711],[-22,-6]],[[7789,6705],[-10,18]],[[7779,6723],[34,10]],[[7813,6733],[20,6]],[[7833,6739],[10,-19]],[[7833,6739],[9,2]],[[7842,6741],[39,11],[11,1]],[[7892,6753],[9,-15]],[[7901,6738],[-36,-12]],[[7865,6726],[-22,-6]],[[7898,6706],[-18,-7]],[[7880,6699],[-15,27]],[[7901,6738],[12,-18],[6,-3],[-6,-6],[-15,-5]],[[7789,6705],[-18,-5],[-17,8],[-4,6]],[[7750,6714],[-10,20],[17,6],[17,-19],[5,2]],[[7738,6503],[7,-14]],[[7745,6489],[-4,-1]],[[7741,6488],[-13,-3],[-34,-4],[-4,27],[5,0],[-2,12]],[[7693,6520],[11,1],[-1,6],[17,1]],[[7720,6528],[5,-28],[13,3]],[[7653,6768],[4,0],[29,-4]],[[7686,6764],[4,-18],[1,-24]],[[7691,6722],[-9,2]],[[7682,6724],[-14,2]],[[7668,6726],[-10,25],[-5,17]],[[7599,6756],[12,3],[-11,23]],[[7600,6782],[13,4]],[[7613,6786],[3,-5]],[[7616,6781],[5,-8],[1,-8],[17,-33]],[[7639,6732],[-16,3]],[[7623,6735],[-19,3],[0,7],[-5,11]],[[7496,6760],[-2,5],[13,4],[-2,4],[12,4],[-2,4]],[[7515,6781],[25,7],[-2,5],[13,3],[-2,5],[13,3]],[[7562,6804],[13,-28]],[[7575,6776],[-63,-17]],[[7512,6759],[-15,-1],[-1,2]],[[7600,6782],[-25,-6]],[[7562,6804],[-3,5]],[[7559,6809],[13,3],[-2,5],[13,3],[-3,5],[13,3]],[[7593,6828],[2,-5],[18,-37]],[[7613,6837],[2,-14],[17,-38]],[[7632,6785],[-16,-4]],[[7593,6828],[0,6]],[[7593,6834],[0,7],[13,1],[0,-5],[7,0]],[[7593,6834],[-42,-12],[-12,23]],[[7539,6845],[13,1]],[[7552,6846],[4,-2],[17,1],[0,9],[39,1]],[[7612,6855],[1,-18]],[[7479,6763],[0,4],[-16,31]],[[7463,6798],[38,11]],[[7501,6809],[14,-28]],[[7496,6760],[-17,-2],[0,5]],[[8475,6585],[-15,5],[-6,-4],[-21,10],[-7,-1]],[[8426,6595],[-10,12],[-12,12]],[[8404,6619],[11,6],[-2,5],[-7,7],[0,3],[14,3]],[[8420,6643],[10,3],[10,-5],[1,-5],[5,-2],[12,7],[13,-7],[-3,-9],[11,-5],[4,-8],[-6,-9],[-9,-10],[4,-1],[3,-7]],[[8313,6670],[9,-9],[10,6],[16,-16]],[[8348,6651],[10,-9],[-24,-1]],[[8334,6641],[-27,-1]],[[8307,6640],[-8,5],[8,8],[4,-2],[9,8],[-11,7],[4,4]],[[8370,6664],[-22,-13]],[[8313,6670],[-8,7]],[[8305,6677],[8,9],[4,-4],[13,8],[5,-5],[21,11]],[[8356,6696],[2,-1],[20,-20],[-14,-6],[6,-5]],[[6491,9289],[-3,-1]],[[6488,9288],[-11,7],[-4,13],[0,9],[-7,8]],[[6466,9325],[2,6]],[[6468,9331],[4,-4],[10,-4],[12,-8],[-1,-7],[9,-4]],[[6502,9304],[-6,-5],[-5,-10]],[[6569,9307],[-9,-4],[-20,1],[-26,-8]],[[6514,9296],[-5,-1],[-7,-4],[-11,-2]],[[6502,9304],[9,2],[12,1],[2,7],[13,2],[-1,3]],[[6537,9319],[9,5],[3,-10],[-11,0],[5,-2],[5,-5],[14,1],[7,-1]],[[2962,3464],[-21,-27],[-11,-10],[-10,-9]],[[2920,3418],[-33,-28],[-6,-4],[-24,-13]],[[2857,3373],[-4,-3]],[[2853,3370],[5,8],[18,14],[-5,3],[-7,13],[1,3]],[[2865,3411],[19,16],[11,-7],[49,54]],[[2944,3474],[18,-10]],[[3026,3428],[-13,-11],[-15,-11],[-21,-18],[-11,-8]],[[2966,3380],[-15,22],[-31,16]],[[2962,3464],[15,-8],[7,-2],[6,-7],[13,-3],[7,-6],[10,-5],[6,-5]],[[2056,83],[-6,0],[-3,-12],[-6,1],[1,5],[-12,1]],[[2030,78],[0,4],[13,0],[-6,7],[-3,8],[4,24],[3,0]],[[2041,121],[7,0],[2,12],[5,-1]],[[2055,132],[1,-5],[5,0],[-2,-15],[8,-1],[0,-7],[5,-1],[-5,-7],[-7,0],[-2,3],[-1,-7],[5,-1],[-1,-7],[-5,-1]],[[7488,9328],[-4,8],[-2,21],[16,2],[-3,5],[2,7]],[[7497,9371],[7,1],[0,6],[14,2],[1,-5],[16,3],[-2,12],[16,3]],[[7549,9393],[2,-2],[-2,-12],[5,-2],[9,4],[18,-12],[-2,-6],[4,0],[-6,-11],[-21,6],[-5,4],[-15,-1],[1,-4],[-11,-10],[2,-5],[5,0],[-2,-6],[-7,2],[-5,-4],[-6,6],[-10,-6],[-8,7],[-3,0],[-3,4],[-1,-3],[4,-4],[-4,-10]],[[3026,3428],[10,-8],[1,-11],[13,-10],[4,-8],[-13,-4],[-6,0],[-25,-5],[-5,-4],[2,-3],[11,-12],[-1,-4],[-13,-5],[-6,1],[6,-8],[11,-9],[8,3],[4,-4],[-19,-7],[-7,8]],[[3001,3338],[-15,17],[-20,25]],[[7497,9371],[-3,1]],[[7494,9372],[-7,11],[-8,1],[0,2],[-8,1]],[[7471,9387],[0,8],[-2,2],[12,3],[2,6],[6,10],[7,2],[7,-11],[9,8],[7,1],[-2,-9],[2,-4],[-5,-2],[23,1],[2,-3],[6,2],[4,-8]],[[7488,9328],[-12,-9],[-4,-1],[-4,7],[-3,-4],[-7,0],[-12,9],[1,7],[6,2],[-2,5],[-16,-3],[-11,1],[-16,-5]],[[7408,9337],[-2,4],[-1,8]],[[7405,9349],[32,4],[6,7],[16,8],[13,4],[22,0]],[[7405,9349],[-3,7],[-4,1],[-7,12],[0,8],[10,-1],[-1,3],[-7,3],[-1,3]],[[7392,9385],[21,-1],[25,0],[0,-5],[7,3],[5,4],[21,1]],[[7408,9337],[5,-4],[10,-3],[-6,-4],[-19,5],[-19,0],[-4,3],[-2,6],[-19,0],[-15,2],[-16,3],[0,4],[6,7],[-1,4],[11,-1],[3,17],[4,14],[17,-1],[7,1],[13,-2],[1,3],[8,-6]],[[3001,3338],[-6,-4],[-2,3],[-7,-3],[-11,10],[-15,-16],[0,-3],[-8,-8],[-7,5],[-23,-14],[-7,10],[-5,10],[-16,18]],[[2894,3346],[-30,20],[-7,7]],[[2894,3346],[-13,-7],[-35,-15],[-17,13],[-3,0],[-9,-9],[-3,2],[21,17],[-12,8],[30,15]],[[5864,4814],[-5,-5],[-3,-5],[3,-8],[45,-55],[4,-3]],[[5908,4738],[-3,-13],[-7,3],[-11,9],[-21,-2],[-4,9],[-7,8],[-9,4],[-9,7],[2,4],[-6,5],[-5,0],[24,5],[8,3],[-9,16],[-6,-1],[-3,5],[10,2],[4,9],[18,13],[2,-1],[-12,-9]],[[5660,9991],[2,-3],[-13,-6],[-19,0],[-10,2],[12,5],[7,0],[12,10],[6,-3],[3,-5]],[[9563,7169],[4,6],[-5,2],[14,18],[-5,2],[3,8],[5,7],[-4,3],[7,9],[6,11],[-8,3],[3,4],[4,-2],[20,25],[14,-8],[13,-1],[22,-3],[6,8],[13,-9],[15,-7],[-8,-8],[-11,12],[-9,-10],[5,-3],[2,-7],[-6,-1],[-5,4],[0,-4],[-11,-7],[-1,-5],[-4,-6],[1,-9],[-2,-1],[0,-8],[2,-6],[7,-3],[-2,-2],[-6,3],[-2,-4],[4,-1],[-5,-3],[-4,-5],[-12,5],[-15,-13],[-7,-9],[-38,15]],[[1452,977],[8,-2],[19,2],[11,-25],[15,7],[5,-12],[2,0],[13,-17],[16,-6],[14,-10],[8,-10],[3,-9],[-11,3],[-16,-2],[10,-2],[-2,-8],[8,3],[1,-2],[9,-6],[-9,-8],[6,-8],[2,-5],[-4,-1],[-8,6],[0,-5],[15,-12],[-4,-3],[-28,22],[-28,24],[-15,-12],[-36,24],[-18,14],[7,4],[-6,12],[5,2],[-11,17],[15,3],[-6,18],[-1,6],[11,-2]],[[7133,9228],[9,-2],[-1,-13],[13,-4],[10,-7],[13,-6],[4,-3],[29,-9],[1,-5],[-4,-2],[-16,-5],[-19,7],[-3,-2],[-7,0],[-9,3],[-14,11],[-5,2],[-3,11],[-7,10],[2,4],[-10,2],[10,5],[3,4],[4,-1]],[[8447,8259],[15,4],[9,1]],[[8471,8264],[26,5],[15,6]],[[8512,8275],[3,-7],[1,-17],[12,-1],[8,-9],[10,1],[7,-21],[3,-4],[-8,-4],[-5,7],[-4,12],[-1,-3],[-9,0],[-2,3],[-12,1],[3,-16],[-10,-2],[0,3],[-13,1],[-19,7],[-1,-2],[-13,3],[-7,0],[-3,7],[20,1],[2,1],[-10,9],[-17,14]],[[8493,8309],[-22,-23],[-4,-7],[0,-6],[4,-9]],[[8447,8259],[-18,-3],[0,19],[5,3],[-8,4],[-4,5],[-3,10],[-1,-6],[-6,-2],[-5,5],[3,6],[4,1],[4,-3],[2,6],[6,-2],[18,-9],[3,4],[5,-2],[6,5],[10,3],[10,8],[-4,5],[12,-2],[7,-5]],[[8493,8309],[20,22],[34,3],[6,-12],[10,-26],[-20,-2],[2,-2],[-33,-17]],[[71,2124],[4,-7],[-3,-3],[-14,-3],[-26,-6],[4,-7],[-12,-8],[-11,11],[-13,5],[8,5],[-8,-2],[1,5],[27,6],[8,-1],[4,3],[11,1],[6,2],[1,5],[6,0],[7,-6]],[[9761,8062],[2,0],[3,-6],[-3,-1],[5,-11],[-12,-3],[5,-12],[-19,-2],[-4,1],[-18,-5],[7,12],[-3,0],[1,13],[-2,10],[7,6],[7,3],[18,4],[6,-9]],[[7016,9364],[16,-8],[10,1],[1,-7],[10,-3],[16,3],[4,-6],[-9,-3],[2,-5],[-12,-2],[-13,-1],[-9,7],[4,4],[-2,2],[-9,-7],[-9,3],[11,8],[-21,10],[-15,3],[2,7],[5,0],[18,-6]],[[6953,9374],[5,0],[2,-7],[5,-7],[-11,-2],[0,5],[-5,7],[0,7],[4,-3]],[[7968,9672],[-5,0],[-5,-5],[-5,2],[9,10],[4,1],[5,-4],[-3,-4]],[[7976,9696],[-7,-7],[-10,1],[-3,6],[20,0]],[[7955,9664],[-4,-5],[-5,3],[5,4],[4,-2]],[[8198,6584],[-2,23]],[[8196,6607],[46,2]],[[8242,6609],[38,2]],[[8280,6611],[2,-6],[-11,-1],[1,-5],[-11,-2],[-6,-3],[1,-7]],[[8256,6587],[-58,-3]],[[8135,6436],[-6,11],[-15,21]],[[8114,6468],[44,17]],[[8158,6485],[9,-12]],[[8167,6473],[10,-15]],[[8177,6458],[1,-1]],[[8114,6468],[-5,7],[-15,-6],[-4,7],[-27,-10]],[[8063,6466],[-6,7]],[[8057,6473],[73,27],[13,7]],[[8143,6507],[15,-22]],[[8057,6473],[-9,13]],[[8048,6486],[56,22],[30,12]],[[8134,6520],[9,-13]],[[8090,6424],[-41,1]],[[8049,6425],[-7,12],[-25,36]],[[8017,6473],[14,6]],[[8031,6479],[17,7]],[[8063,6466],[18,-25],[9,-17]],[[7527,6750],[-15,1],[0,8]],[[7599,6756],[-26,-7],[3,-7],[-49,8]],[[8136,6424],[-46,0]],[[8242,6609],[-3,14],[-1,12]],[[8238,6635],[8,1]],[[8246,6636],[41,2]],[[8287,6638],[1,-12],[7,0],[0,-5],[-16,-1],[1,-9]],[[8049,6425],[-37,0],[0,-1]],[[8012,6424],[-15,0]],[[7997,6424],[-3,23],[-15,-1],[4,9],[1,7],[-5,6]],[[7979,6468],[18,7],[6,-8],[14,6]],[[8391,6499],[-9,7],[-29,33],[-20,11]],[[8333,6550],[26,13]],[[8359,6563],[12,-11],[39,-43]],[[8410,6509],[-19,-10]],[[8080,6543],[-29,-11],[-5,7],[-29,-11]],[[8017,6528],[-4,7],[87,34]],[[8100,6569],[9,-14]],[[8109,6555],[0,0]],[[8109,6555],[-29,-12]],[[7989,6517],[-9,14]],[[7980,6531],[0,1]],[[7980,6532],[3,0],[82,32],[30,12]],[[8095,6576],[5,-7]],[[8017,6528],[-28,-11]],[[7980,6532],[16,21]],[[7996,6553],[2,3]],[[8090,6583],[5,-7]],[[8119,6713],[-51,-25],[-1,0]],[[8067,6688],[6,14]],[[8073,6702],[1,-2],[44,22],[-8,8],[16,8],[6,6],[12,7]],[[8161,6734],[-14,-7],[-28,-14]],[[7816,6469],[4,-4],[4,2],[24,-23],[-4,-2],[12,-12]],[[7856,6430],[-5,-3],[-14,13],[-5,-3],[-2,2],[-17,-9]],[[7813,6430],[-8,-5],[-2,5],[-5,-3]],[[7798,6427],[-7,14],[14,7],[-10,10]],[[7795,6458],[14,8]],[[7809,6466],[7,3]],[[7979,6468],[-8,6],[-7,-3],[-11,4]],[[7953,6475],[12,6],[37,15],[-4,7]],[[7998,6503],[14,5]],[[8012,6508],[9,-13]],[[8021,6495],[10,-16]],[[7953,6475],[-12,4]],[[7941,6479],[20,27]],[[7964,6510],[16,21]],[[7989,6517],[9,-14]],[[8021,6495],[16,6]],[[8037,6501],[28,11],[6,-8],[58,23]],[[8129,6527],[5,-7]],[[8052,6747],[-6,10]],[[8046,6757],[-16,17]],[[8081,6796],[23,-23]],[[8037,6501],[-5,7],[45,17],[42,16]],[[8119,6541],[10,-14]],[[8359,6563],[27,14]],[[8386,6577],[28,15]],[[8414,6592],[11,-13]],[[8425,6579],[-27,-13],[40,-44]],[[8438,6522],[-28,-13]],[[8060,6670],[-1,-3]],[[8059,6667],[-52,1],[-7,-2]],[[8000,6666],[-2,2],[-11,21]],[[7987,6689],[35,13],[35,17]],[[8057,6719],[16,-17]],[[8067,6688],[-7,-18]],[[8196,6607],[-23,-2]],[[8173,6605],[-32,-2]],[[8141,6603],[-2,14],[-70,-4]],[[8069,6613],[-9,12]],[[8060,6625],[73,4],[61,4]],[[8194,6633],[2,-26]],[[8425,6579],[40,-44]],[[8465,6535],[-27,-13]],[[8365,6599],[-3,4],[4,2],[-16,17]],[[8350,6622],[22,11],[26,14]],[[8398,6647],[22,-4]],[[8404,6619],[-39,-20]],[[7860,6805],[2,-1],[9,-11],[6,-12]],[[7877,6781],[-33,-13],[-3,4],[-13,-5]],[[7828,6767],[-4,7]],[[7824,6774],[-8,11],[2,1],[-4,8]],[[7814,6794],[46,11]],[[8365,6599],[-35,-18]],[[8330,6581],[-5,9],[21,10],[-4,3],[-30,22],[11,8]],[[8323,6633],[17,-11],[6,3],[4,-3]],[[7813,6733],[-8,13],[-12,17]],[[7793,6763],[31,11]],[[7828,6767],[14,-26]],[[7793,6763],[-4,6]],[[7789,6769],[-15,23]],[[7774,6792],[23,7],[6,-8],[11,3]],[[8060,6625],[-7,11]],[[8053,6636],[22,0]],[[8075,6636],[0,-2],[40,2],[-1,9],[5,3]],[[8119,6648],[33,15],[18,8],[22,7]],[[8192,6678],[1,-11]],[[8193,6667],[1,-22]],[[8194,6645],[0,-12]],[[8119,6648],[-17,20],[43,16]],[[8145,6684],[46,16]],[[8191,6700],[0,-11]],[[8191,6689],[1,-11]],[[8231,6635],[7,0]],[[8194,6645],[15,1],[1,-13],[21,2]],[[8193,6667],[41,9]],[[8234,6676],[1,-15]],[[8235,6661],[-7,-1],[3,-25]],[[8238,6677],[8,2],[-1,7]],[[8245,6686],[-1,5]],[[8244,6691],[11,1],[12,5]],[[8267,6697],[2,-22]],[[8269,6675],[-9,-1],[0,-2]],[[8260,6672],[-21,-1],[-1,6]],[[7766,6803],[-3,5]],[[7763,6808],[-16,24]],[[7747,6832],[28,8],[-3,4],[8,2]],[[7780,6846],[17,-35]],[[7797,6811],[-31,-8]],[[8260,6672],[3,-22],[-8,-1]],[[8255,6649],[-1,3],[-18,0],[-1,9]],[[8234,6676],[4,1]],[[8255,6649],[1,-10]],[[8256,6639],[-10,-3]],[[8295,6674],[-25,-26],[-14,-9]],[[8269,6675],[13,1],[1,-3],[12,1]],[[8267,6697],[-1,6],[12,1],[24,-24]],[[8302,6680],[-7,-6]],[[8167,6803],[-9,11]],[[8158,6814],[19,7],[9,12]],[[8186,6833],[10,-16]],[[8196,6817],[-12,-5]],[[7970,6721],[-13,25]],[[7957,6746],[12,5],[41,20],[16,8]],[[8046,6757],[-59,-29],[-17,-7]],[[7957,6746],[-6,13]],[[8012,6424],[0,-12],[13,-1],[2,-20]],[[8027,6391],[-20,0]],[[8007,6391],[-9,0],[1,-6],[-61,-1],[-63,0]],[[7875,6384],[-2,4],[28,37],[7,2]],[[7908,6427],[3,-1],[23,-1],[63,-1]],[[8060,6833],[9,-9],[-8,-4]],[[7932,6796],[-6,12]],[[7926,6808],[65,33]],[[7991,6841],[25,-28],[18,9],[12,3],[14,8]],[[8050,6639],[3,-3]],[[8069,6613],[11,-17]],[[8007,6568],[4,5]],[[8011,6573],[18,24]],[[8029,6597],[3,5]],[[8032,6602],[3,6],[10,25],[1,6],[4,0]],[[8095,6576],[47,18]],[[8142,6594],[1,-17]],[[8143,6577],[-11,-5],[4,-7],[-27,-10]],[[7770,6514],[-18,-5],[-14,-6]],[[7720,6528],[19,4]],[[7739,6532],[15,4]],[[7754,6536],[4,-11],[2,0],[10,-11]],[[8141,6603],[1,-9]],[[8145,6684],[-9,10]],[[8136,6694],[-17,19]],[[8170,6738],[16,-16],[-7,-5],[11,-11]],[[8190,6706],[1,-6]],[[7739,6532],[-6,15]],[[7733,6547],[38,8]],[[7771,6555],[1,-1]],[[7772,6554],[13,-13]],[[7785,6541],[-31,-5]],[[8075,6636],[1,9],[0,10],[-22,0]],[[8054,6655],[5,12]],[[8060,6670],[28,14],[9,-10],[39,20]],[[7991,6841],[25,13],[10,6]],[[8026,6860],[2,-1]],[[8028,6859],[10,-5],[13,-13]],[[8051,6841],[9,-8]],[[8050,6639],[0,6],[4,10]],[[7668,6726],[-29,6]],[[7632,6785],[3,-5]],[[7635,6780],[6,-15],[12,3]],[[7694,6763],[-8,1]],[[7635,6780],[12,4]],[[7647,6784],[18,4],[27,4]],[[7692,6792],[4,-15],[-2,-14]],[[7712,6783],[3,0]],[[7715,6783],[8,-15]],[[7723,6768],[4,-8],[-6,-1]],[[7721,6759],[-17,2],[-10,2]],[[7692,6792],[12,2],[3,-11],[5,0]],[[7802,6525],[-32,-11]],[[7785,6541],[17,-16]],[[7986,6636],[-28,42]],[[7958,6678],[29,11]],[[8000,6666],[0,-2],[9,-18]],[[8009,6646],[-23,-10]],[[7943,6646],[-14,21]],[[7929,6667],[29,11]],[[7986,6636],[-26,-11]],[[7885,6651],[38,14]],[[7923,6665],[6,2]],[[8050,6376],[-1,-20]],[[8049,6356],[-41,-2],[-1,37]],[[8027,6391],[25,1],[-2,-16]],[[8012,6508],[59,23],[13,5],[-4,7]],[[8109,6555],[10,-14]],[[7647,6784],[-3,10],[25,6],[17,7],[15,6]],[[7701,6813],[6,-13],[5,-17]],[[8283,6477],[-45,-2]],[[8238,6475],[-41,-2],[-4,38],[-2,27],[9,0],[-1,24]],[[8199,6562],[105,7]],[[8304,6569],[0,-1]],[[8304,6568],[10,-6],[19,-12]],[[8391,6499],[-36,-15],[-12,-2],[-60,-5]],[[8199,6562],[-1,22]],[[8256,6587],[17,0],[6,-1],[25,-17]],[[8238,6475],[3,-47],[1,-2],[-15,-5],[-15,0],[-6,-4]],[[8177,6458],[0,5],[-6,57],[11,0],[-9,85]],[[8167,6473],[-1,3],[-7,60],[-11,-1],[-5,42]],[[8283,6477],[2,-37]],[[8285,6440],[3,-4],[-40,-15],[-39,-15]],[[7908,6427],[-1,6]],[[7907,6433],[19,26]],[[7926,6459],[15,20]],[[8217,6276],[-78,4],[2,11],[-7,8],[0,12],[8,36]],[[8212,6349],[5,-73]],[[7816,6561],[7,-33],[-21,-3]],[[7772,6554],[14,1],[1,13],[-8,5],[-6,-1],[-4,-4],[-3,2],[10,11],[17,-9]],[[7827,6499],[-8,8]],[[7819,6507],[-17,18]],[[7871,6525],[-21,-12]],[[7850,6513],[-23,-14]],[[7907,6433],[-10,0],[-7,4]],[[7890,6437],[-19,19]],[[7871,6456],[-44,43]],[[7850,6513],[29,-28]],[[7879,6485],[16,-16],[13,8],[18,-18]],[[7898,6507],[13,-9],[-16,-8],[-3,3],[-13,-8]],[[7819,6507],[-8,-4],[-7,7],[-15,-8]],[[7789,6502],[-2,2],[-18,-10],[-5,-5],[-9,-2]],[[7755,6487],[-2,4],[-8,-2]],[[7871,6456],[-4,-2],[-4,4],[-13,-8],[-25,24],[-9,-5]],[[7809,6466],[-15,16],[10,5],[-15,15]],[[8305,6677],[-3,3]],[[8244,6691],[-2,28]],[[8242,6719],[38,1],[4,1],[-4,13],[-5,2],[-3,4]],[[8272,6740],[5,1]],[[8277,6741],[11,-10],[11,1],[2,-6],[5,-3],[-1,-8],[3,-5],[6,-3],[4,2],[2,-5],[8,1],[4,-2],[10,-3],[12,0],[2,-4]],[[8032,6602],[-23,44]],[[8029,6597],[-24,10],[-45,18]],[[8011,6573],[-68,28]],[[7996,6553],[-67,27]],[[7980,6532],[-19,8],[-48,19]],[[7825,6597],[-20,13],[-10,10]],[[7795,6620],[49,16]],[[7631,6662],[30,-54]],[[7661,6608],[-33,-11],[-13,-7]],[[7615,6590],[-10,9],[-5,-1],[-11,18],[-30,-9],[-2,16]],[[7557,6623],[-1,1],[-3,26],[8,20]],[[7561,6670],[8,1],[37,-3],[25,-6]],[[7623,6735],[4,-39]],[[7627,6696],[2,-18]],[[7629,6678],[2,-16]],[[7561,6670],[-33,2],[-12,-1]],[[7516,6671],[8,24],[-16,3],[8,24]],[[7516,6722],[8,25],[3,3]],[[7516,6722],[-28,5],[0,3],[-10,0],[3,10],[-1,7],[-8,0],[-3,8]],[[7469,6755],[-2,8]],[[7467,6763],[12,0]],[[7469,6755],[-17,-5],[0,-10],[-2,-6]],[[7450,6734],[-9,0],[-28,-4],[0,-11],[-7,-2],[-20,-7],[2,-5],[-8,-10]],[[7380,6695],[-6,0],[3,11],[-2,16],[4,12]],[[7379,6734],[11,0],[12,24],[-2,1],[2,9]],[[7402,6768],[6,1],[1,-8],[12,3],[9,3],[18,4],[3,-7],[15,2],[1,-3]],[[7446,6675],[-18,3],[-14,7],[-34,10]],[[7450,6734],[-6,-11],[0,-11],[2,-37]],[[7516,6671],[-8,-2],[-20,2]],[[7488,6671],[-38,3]],[[7450,6674],[-4,1]],[[7478,6644],[-29,-4]],[[7449,6640],[1,34]],[[7488,6671],[2,-7],[-16,-3],[4,-17]],[[7557,6623],[-52,1],[-17,-2],[-3,13],[-4,0],[-3,9]],[[7615,6590],[-19,-11],[-38,-5],[-11,-5],[-15,-14],[-11,-5],[-27,-17]],[[7494,6533],[-23,-15],[-9,-9],[-10,-6],[-2,36],[-1,28],[-1,17],[-6,7],[-9,12],[0,6],[9,14],[6,3],[1,14]],[[8057,6719],[13,7],[-7,8]],[[8193,6760],[6,-7]],[[8199,6753],[10,-11],[20,-24]],[[8229,6718],[-39,-2],[0,-10]],[[8239,6774],[5,-5]],[[8244,6769],[16,-18],[12,-11]],[[8242,6719],[-13,-1]],[[8199,6753],[38,20],[2,1]],[[8302,6764],[-20,-11],[7,-9],[-12,-3]],[[8244,6769],[14,5],[4,2],[5,-6],[4,2],[-11,16],[6,2],[3,-2]],[[8269,6788],[7,-14],[6,-1],[5,-6],[3,1],[12,-4]],[[8269,6788],[9,8],[-1,4]],[[8277,6800],[6,3]],[[8283,6803],[10,-9],[1,-6],[-3,-11],[3,-6],[10,-5],[-2,-2]],[[8206,6785],[7,-6],[12,7]],[[8225,6786],[14,-12]],[[8196,6817],[12,-12],[10,-6]],[[8218,6799],[7,-13]],[[8226,6825],[-1,-2],[-13,-6],[9,-9],[5,2],[4,-5]],[[8230,6805],[-12,-6]],[[8186,6833],[2,5],[8,5],[8,2]],[[8204,6845],[22,-20]],[[8277,6800],[-7,7],[-5,3],[-14,4],[-21,-9]],[[8226,6825],[8,10],[22,-14],[14,-5],[5,-10],[8,-3]],[[8081,6796],[9,5],[29,12],[8,-8],[30,9]],[[8157,6814],[1,0]],[[8068,6811],[22,11]],[[8139,6838],[18,-24]],[[8131,6859],[9,4]],[[8140,6863],[9,6],[-8,11],[0,4],[4,4],[3,8],[3,0],[7,-15],[-2,-4],[2,-7],[14,-15],[7,-6],[13,-4],[12,0]],[[8051,6841],[12,6],[46,24],[-8,8]],[[8101,6879],[1,2],[8,-4],[8,-8],[16,-1],[6,-5]],[[8028,6859],[11,14],[24,13],[5,6],[14,-4]],[[8082,6888],[19,-9]],[[8026,6860],[-25,11]],[[8001,6871],[-8,4]],[[7993,6875],[22,19],[18,10],[-9,5]],[[8024,6909],[6,3],[8,-4],[8,5],[16,-11],[15,-9],[5,-5]],[[7612,6855],[-2,33]],[[7610,6888],[18,3]],[[7628,6891],[49,9],[43,8]],[[7720,6908],[3,1]],[[7723,6909],[-3,-13],[-1,-16],[-13,-27],[-10,-13],[-2,-14],[7,-13]],[[7993,6875],[-43,19]],[[7950,6894],[-84,38],[-2,0]],[[7864,6932],[-5,4],[-11,16]],[[7848,6952],[-14,19],[-12,16],[-15,15],[-6,-1],[-5,2],[3,7],[-17,17],[-9,12],[-5,11]],[[7768,7050],[-4,7]],[[7764,7057],[11,0],[29,7],[26,5],[6,-1],[8,-7],[-8,-3],[0,-2],[38,-27],[1,-1],[54,-19],[7,2],[9,-5],[4,-7],[13,-9],[7,-10],[3,-11],[5,-10],[4,-17],[4,0],[2,-7],[-4,-4],[41,-22]],[[7914,6831],[-7,13]],[[7907,6844],[3,2],[40,48]],[[8001,6871],[-2,-1],[-36,-18],[-31,-12],[-18,-9]],[[7926,6808],[-12,23]],[[7907,6844],[-16,33]],[[7891,6877],[-14,24]],[[7877,6901],[-15,29],[2,2]],[[7987,6689],[-1,2],[-16,30]],[[7891,6877],[-26,-10]],[[7865,6867],[-15,-5],[-23,-15]],[[7827,6847],[-5,5],[-7,-4],[-10,13]],[[7805,6861],[10,8],[17,17],[5,8],[13,2]],[[7850,6896],[7,-1],[20,6]],[[7911,6790],[-13,24],[-8,-2],[-4,6],[5,2],[-8,14]],[[7883,6834],[-18,33]],[[7830,6819],[-11,23],[8,5]],[[7883,6834],[-31,-9]],[[7852,6825],[-22,-6]],[[7860,6805],[-8,20]],[[7850,6896],[-6,10],[2,3],[-21,8],[-5,-3],[-5,13]],[[7815,6927],[12,2],[-5,3],[15,24],[11,-4]],[[7805,6861],[-5,-6],[-20,-9]],[[7747,6832],[-2,6],[10,71],[-1,7]],[[7754,6916],[61,11]],[[7614,6937],[0,-1]],[[7614,6936],[3,-9]],[[7617,6927],[11,-36]],[[7610,6888],[-22,-4],[-18,-1]],[[7570,6883],[-2,10],[5,3],[5,18],[-1,7],[2,7]],[[7579,6928],[4,1],[7,18]],[[7590,6947],[20,3],[4,-13]],[[7830,6819],[-33,-8]],[[7768,7050],[-11,0],[-28,5],[-14,-8],[-23,-19],[-8,-9]],[[7684,7019],[-20,11],[-8,3],[-31,14],[-31,15],[-10,4]],[[7584,7066],[-4,15],[3,10],[0,5],[4,11],[-3,6],[4,4],[18,8],[12,1],[20,-1],[14,-2],[15,-4],[9,-8],[8,-11],[-1,-14],[2,-5],[5,-3],[17,-4],[12,-3],[9,3],[14,-4],[5,-6],[17,-7]],[[7858,6691],[-27,-10]],[[7831,6681],[1,9],[-8,-2],[-13,23]],[[7880,6699],[-22,-8]],[[7831,6681],[12,-22],[-1,-17],[2,-6]],[[7795,6620],[-23,-7],[-12,-2],[-27,-2],[-19,2]],[[7714,6611],[-17,2],[-20,-1]],[[7677,6612],[-16,-4]],[[7629,6678],[35,1],[32,0],[3,7],[3,1],[0,5],[4,9],[5,4],[5,11]],[[7716,6716],[-2,-11],[3,0],[33,9]],[[7716,6716],[3,14],[2,29]],[[7723,6768],[13,6],[27,9],[13,-19],[13,5]],[[7774,6792],[-8,11]],[[7627,6696],[9,-1],[32,-3],[5,6],[7,0],[4,17],[-2,9]],[[7691,6722],[25,-6]],[[7858,6691],[27,-40]],[[7898,6706],[25,-41]],[[7693,6520],[0,5]],[[7693,6525],[-2,14]],[[7691,6539],[36,7]],[[7727,6546],[6,1]],[[7723,6909],[31,7]],[[7763,6808],[-18,-5],[-34,-10],[4,-10]],[[8475,6585],[-2,-19],[5,-7],[11,-11]],[[8489,6548],[-24,-13]],[[8414,6592],[12,3]],[[8491,6481],[-46,-5]],[[8445,6476],[-20,-1]],[[8425,6475],[-11,-3]],[[8414,6472],[-8,10],[-15,17]],[[8489,6548],[6,-3],[2,-5],[8,-8],[18,-5],[0,-3],[-15,-11],[18,-13],[26,-30],[-9,-2],[-16,-6],[-7,-2],[-16,1],[-2,21],[-11,-1]],[[8304,6568],[26,13]],[[8365,6599],[21,-22]],[[8050,6292],[-55,-1]],[[7995,6291],[2,34]],[[7997,6325],[52,1]],[[8049,6326],[1,-34]],[[8050,6292],[-4,-26],[25,-1],[-1,-14],[-3,-9]],[[8067,6242],[-1,-1]],[[8066,6241],[-4,-16]],[[8062,6225],[-1,0]],[[8061,6225],[0,0]],[[8061,6225],[-18,7]],[[8043,6232],[-39,14],[-12,1]],[[7992,6247],[2,29]],[[7994,6276],[1,15]],[[7735,6466],[0,-22],[-1,-4]],[[7734,6440],[-3,0]],[[7731,6440],[-17,-1],[-26,-7],[-1,9]],[[7687,6441],[1,6],[-17,-3],[-3,12]],[[7668,6456],[14,2],[-2,9],[10,1]],[[7690,6468],[1,-7],[44,5]],[[7751,6446],[-17,-6]],[[7735,6466],[-1,8],[12,4],[-5,10]],[[7755,6487],[3,-6],[6,2],[10,-19],[-28,-8],[5,-10]],[[7654,6373],[-18,29],[-11,20]],[[7625,6422],[36,12]],[[7661,6434],[31,-51]],[[7692,6383],[-19,-6],[-19,-4]],[[7795,6458],[-4,-1],[-40,-11]],[[8043,6232],[0,-6]],[[8043,6226],[-42,0],[-8,-6],[0,-8]],[[7993,6212],[-12,0]],[[7981,6212],[-18,-1],[0,35]],[[7963,6246],[29,1]],[[7981,6212],[-15,-12]],[[7966,6200],[-14,-12]],[[7952,6188],[-2,-1]],[[7950,6187],[-13,22],[0,3],[-11,9],[-8,8]],[[7918,6229],[-1,2]],[[7917,6231],[-2,7],[0,9]],[[7915,6247],[48,-1]],[[7856,6365],[-11,-15],[-20,-20]],[[7825,6330],[-10,-9]],[[7815,6321],[-3,7],[-7,-2],[-12,10],[-3,0],[-7,7],[-7,-2],[-14,21]],[[7762,6362],[29,10],[-10,18],[30,10],[-13,27]],[[7813,6430],[51,-51],[-12,-11],[4,-3]],[[7915,6247],[-12,3],[-7,0]],[[7896,6250],[-3,0]],[[7893,6250],[-29,-1],[-3,-3],[-7,0],[-19,29],[-12,20],[-13,22]],[[7810,6317],[5,4]],[[7825,6330],[3,-2],[2,-10],[-2,-13],[16,18],[37,-17],[-8,-10],[34,-13],[12,-1],[32,0],[0,-6],[43,0]],[[7998,6342],[-1,-17]],[[7856,6365],[41,1],[0,-5],[24,0],[0,-5],[7,-1],[22,1],[0,-15],[48,1]],[[8227,6112],[-3,54]],[[8224,6166],[9,1],[10,3],[-1,3],[11,1],[1,-5],[-17,-3],[-13,0],[1,-6],[15,0],[4,-4],[-2,-5],[-13,-1],[-1,9],[-3,0],[0,-12],[19,-2],[27,8],[2,-7],[46,12],[18,6],[68,20],[4,0],[4,-37],[-8,-3],[3,-9],[-57,-10],[-64,-12],[-27,-5],[5,-13],[-2,-16],[-34,0],[-2,33]],[[8043,6226],[0,-37],[-49,0],[-1,23]],[[7552,6846],[-3,28],[21,4],[0,5]],[[7559,6809],[-25,-7],[-15,30]],[[7519,6832],[-5,11]],[[7514,6843],[25,2]],[[7501,6809],[7,2],[-7,15],[18,6]],[[7463,6798],[-6,-1]],[[7457,6797],[-5,15],[7,2],[-11,24]],[[7448,6838],[14,3],[13,1],[16,0],[16,5],[2,-4],[5,0]],[[7402,6768],[0,16]],[[7402,6784],[33,7],[22,6]],[[7402,6784],[-6,20],[3,23]],[[7399,6827],[8,3],[-2,4],[38,10],[2,-6],[3,0]],[[7399,6827],[-13,-2],[-17,-2],[-1,4],[-8,-2]],[[7360,6825],[3,3],[11,2],[20,6],[-1,6],[7,4],[2,3],[16,5],[6,7],[0,5],[18,2],[-1,3],[80,22],[-1,3],[7,1],[0,3],[13,2],[1,-3],[17,3],[-1,3],[14,21],[-7,1],[3,6],[13,-1],[-1,-4]],[[8334,6641],[-11,-8]],[[8287,6638],[20,2]],[[8370,6664],[5,-4],[5,2],[1,-4],[10,-9],[7,-2]],[[7379,6734],[0,18],[-1,4],[-9,19],[4,8],[0,7],[-4,9],[0,8],[-9,18]],[[4355,3866],[-36,-12],[-22,-8]],[[4297,3846],[-23,-8],[-3,5],[4,2],[-3,5],[12,7],[10,2],[4,-7],[12,4],[-5,7],[-7,12],[6,2],[-1,2],[-2,22],[2,3],[10,-5],[33,7]],[[4346,3906],[8,-37],[1,-3]],[[4407,3894],[-19,-13],[-13,-7],[-15,-6]],[[4360,3868],[-5,-2]],[[4346,3906],[3,1],[-3,6],[-8,3],[2,4],[5,0],[10,-11],[7,2],[10,-8],[7,2],[16,-12],[4,2],[-2,3],[6,2],[4,-6]],[[5928,9622],[1,-12],[-7,-2],[-3,-4],[6,0],[-2,-3],[3,-5],[-1,-11],[3,-6],[-7,-3],[1,6],[-3,4],[0,5],[-3,8],[-6,-1],[1,3],[-8,5]],[[5903,9606],[8,7],[-1,4],[7,4],[0,6],[8,0],[0,-6],[3,1]],[[4495,3933],[-34,-9],[-15,-6],[-12,-7],[-22,-14]],[[4412,3897],[-3,3],[5,4],[-8,7],[-3,-1],[-6,4],[-2,5],[-5,-2],[-7,10],[4,2],[-5,5],[6,3],[4,-5],[8,5],[-7,7],[12,4],[0,8],[15,-7],[16,-9],[6,-1],[6,-8],[25,11],[1,-3],[6,2],[2,-5],[10,2],[3,-5]],[[4392,3833],[4,-16],[-43,-17],[3,8],[-10,-4],[-2,4],[-5,-2],[-9,15],[-13,-4],[-20,29]],[[4360,3868],[4,-6],[15,-31],[12,4],[1,-2]],[[4407,3894],[2,1]],[[4409,3895],[6,-3],[9,-9]],[[4424,3883],[2,-8],[-5,-11],[0,-2]],[[4421,3862],[-5,-1],[3,-13],[-4,0],[5,-12],[-28,-3]],[[1244,1461],[-6,-10],[-6,-6]],[[1232,1445],[-11,-4],[-34,-9],[-28,-9]],[[1159,1423],[-9,-1],[-4,4],[-12,7]],[[1134,1433],[20,6],[63,20],[15,6]],[[1232,1465],[3,2],[9,-6]],[[4409,3895],[3,2]],[[4495,3933],[8,-14]],[[4503,3919],[-10,-7],[-11,-5],[-48,-19],[-10,-5]],[[4503,3919],[10,-10],[3,-2],[8,-10],[-8,-3],[15,-12],[-2,-3],[-48,-12],[0,-6],[-6,-2],[-6,1],[-12,-2],[-9,-7],[-5,-8],[-4,6],[-12,3],[-6,6],[0,4]],[[5926,9628],[-5,8],[-4,2],[-3,-4],[1,-6],[-13,1],[2,-7],[-4,0]],[[5900,9622],[-2,5],[1,6],[-2,12],[-3,1],[1,7],[-5,0],[-2,5],[6,0],[-1,9],[3,0],[2,7],[6,5],[5,0],[12,-4],[5,-6],[4,-23],[-3,-3],[3,-6],[-4,-9]],[[6468,9331],[-7,7],[7,7],[9,0],[15,-9],[6,3],[7,-4],[8,5],[3,-2],[0,5],[4,8],[6,0],[8,2],[4,-5],[-3,-4],[3,-3],[-21,-4],[8,-11],[0,-3],[12,-4]],[[6524,9263],[0,4],[-8,4],[6,5],[0,3],[-8,7],[-1,3],[8,2],[-7,5]],[[6569,9307],[7,5],[5,-6],[-5,-8],[6,-6],[-6,-3],[5,-4],[-2,-2],[-5,1],[-9,-4],[-10,-8],[4,-4],[-8,-3],[-4,-9],[-4,-2],[-13,8],[-6,1]],[[6524,9263],[-14,-3],[-3,4],[-11,2],[-13,9],[-7,-2],[-1,5],[-7,-7],[-4,-1],[-25,-5],[0,3],[9,4]],[[6448,9272],[15,4],[11,5]],[[6474,9281],[14,7]],[[6448,9272],[-9,0],[-2,2],[15,2],[-1,8],[-10,-5],[-8,-6],[-2,3],[7,9],[-12,6]],[[6426,9291],[6,10],[6,-1],[3,-4],[10,-2],[10,2],[7,-3],[5,-6],[1,-6]],[[6426,9291],[-3,1],[9,20],[12,9],[10,-1],[4,3],[8,2]],[[5926,9628],[3,0],[-1,-6]],[[5903,9606],[-4,8],[1,8]],[[9990,8529],[0,-1],[-13,-10],[-9,6],[-13,-6],[-5,1],[0,-10],[-4,0],[2,9],[-4,2],[-5,-1],[-15,2],[-5,2],[-4,7],[-6,2],[-2,8],[4,0],[-2,8],[7,1],[2,4],[6,3]],[[9924,8556],[8,-7],[17,-8],[16,-10],[10,5],[2,-2],[13,-5]],[[9924,8556],[16,6],[4,4],[14,6],[8,-3],[18,3],[-2,-5],[4,-2],[-5,-11],[7,-4],[9,3],[1,-11],[-11,-5],[6,-5],[-3,-3]],[[702,2238],[-8,-21],[-8,-9],[24,-8],[-7,-10],[6,-3],[-21,-4],[-32,5],[-10,4],[-9,-3],[-5,11],[-6,-1],[-1,5],[-22,0],[1,8],[7,2],[-1,7],[3,0],[-4,7],[23,8],[11,0],[2,-2],[14,4],[1,-2],[15,2],[9,4],[5,-3],[12,-2],[-3,2],[15,34],[1,4],[4,-1],[-16,-38]],[[5784,9494],[9,-12],[6,4],[3,-2]],[[5802,9484],[-4,-3],[3,-2],[-9,-5],[-6,3],[-8,-2],[-13,-8],[-3,2],[9,6],[-3,1],[7,13],[2,5],[7,0]],[[5815,9495],[-2,-8]],[[5813,9487],[-9,0],[-2,-3]],[[5784,9494],[9,2],[20,0],[2,-1]],[[5815,9495],[6,2],[-13,1],[-3,4],[3,4],[11,5],[8,2],[11,10],[7,1],[16,-6],[5,-5],[-1,-8],[-8,-5],[-18,0],[-8,-3],[-9,-6],[11,-9],[-2,-5],[-13,2],[-5,8]],[[1239,1383],[-6,-2],[-4,4],[3,12],[-8,1],[0,-4],[-14,2],[-3,3],[-4,-7],[-5,2],[-8,-3],[-5,2],[-8,11],[-8,4],[-7,-2],[-6,7],[6,5],[-3,5]],[[1232,1445],[5,-2],[3,-13],[14,-33],[-1,-3],[-14,2],[1,-2],[-1,-11]],[[9343,6968],[0,-11],[-6,-3],[-5,8],[-5,-11],[0,-16],[-3,1],[-6,7],[-7,3],[-9,0],[-5,6],[-19,-11],[-3,2],[4,3],[-5,3],[14,13],[9,4],[-4,3],[2,6],[4,-1],[7,11],[12,-5],[6,5],[4,-1],[5,3],[-4,3],[2,14],[6,-3],[4,4],[-6,3],[6,7],[9,9],[-1,1],[12,13],[-2,8],[3,1],[-2,5],[18,2],[36,-20]],[[9414,7034],[-16,-12],[6,-4],[-24,-20],[-12,-12],[-25,-18]],[[9414,7034],[5,-3],[25,19],[6,-5],[6,6],[9,-9],[-15,-9],[-13,-14],[13,-11],[-9,-8],[13,-9],[4,-4],[-8,-8],[-12,-12],[-1,1],[-19,-5],[-3,3],[-13,10],[-6,-3],[1,-6],[-8,-3],[-2,3],[-7,-1],[-9,-5],[-3,3],[-4,-2],[-5,5],[-4,-1],[-5,2],[-7,0]],[[2069,211],[-18,-13],[-12,-7],[-15,14]],[[2024,205],[-5,4],[-8,-4],[-22,16],[8,7],[-2,3],[-13,11],[-4,4],[-7,-5],[8,-6],[-7,-4],[-4,4],[-4,8],[11,7],[15,7],[14,-3],[9,-7],[5,1],[8,5],[7,-6],[-10,-5],[10,-7],[6,4],[4,-2],[-7,-4],[23,-17],[8,5],[10,-4],[-8,-6]],[[2095,192],[-3,-10]],[[2092,182],[0,-2]],[[2092,180],[-10,2],[-4,-4],[-4,2],[-4,-3],[4,-4]],[[2074,173],[-4,-2]],[[2070,171],[-13,-7],[-4,2],[-1,-9],[-5,1],[-7,-1],[-2,2]],[[2038,159],[-8,9],[-8,-6],[-5,4],[-3,-3],[-7,7],[11,6],[-5,8],[0,5],[-6,6],[17,10]],[[2069,211],[12,-7],[-9,-6],[4,-2],[3,2],[10,-6],[6,0]],[[2097,197],[-8,4],[8,8],[5,-1],[-2,-4]],[[2100,204],[-3,-7]],[[2070,171],[9,-2],[-8,-11],[-4,-1],[-4,4],[-5,-1],[2,-4],[-8,-1],[0,-3],[7,-2],[0,-18],[-4,0]],[[2041,121],[1,15],[3,0],[1,7],[-7,3],[-6,10],[5,3]],[[1984,130],[-5,-5],[-5,3],[5,5],[5,-3]],[[2092,180],[-2,-5],[8,-3],[1,-7],[9,1],[-6,-6],[2,-6],[-5,-1],[-2,8],[-7,0],[4,3],[-1,7],[-19,2]],[[2095,192],[2,5]],[[2100,204],[2,-3],[-2,-6],[6,-2],[1,-4],[-3,-9],[-12,2]],[[2056,83],[-2,-12],[-6,1],[-1,-6],[4,-2],[-6,-10],[9,-2],[-2,-7],[3,-1],[-7,-18],[-1,-11],[-7,0],[0,-10],[16,0],[1,-5],[-27,0],[1,10],[-7,5],[-3,8],[5,0],[2,22],[3,6],[2,7],[-15,5],[-3,7],[9,2],[-3,5],[5,1],[3,-4],[1,4]],[[1244,1461],[10,-4],[1,-3],[18,0],[-1,-14],[9,-13],[-3,-2],[5,-5],[-3,-1],[3,-4],[4,1],[13,-21],[-6,-2],[-4,-5],[-4,1],[-1,-5],[-27,1],[1,-4],[-20,2]],[[1134,1433],[-5,4],[0,6],[-4,1],[-2,7],[2,5],[17,10],[8,0],[-2,5],[8,4],[-1,12],[-8,3],[0,2],[9,1],[1,4],[10,2],[5,-12],[10,4],[14,-12],[4,2],[5,-3],[-3,-2],[8,-5],[5,-1],[8,2],[9,-7]],[[2865,3411],[-12,26],[10,11],[0,3],[9,5],[53,25],[6,0],[13,-7]],[[8709,9397],[-9,-6],[9,-6],[-11,-10],[-6,-9],[-9,-9]],[[8683,9357],[-4,-4],[-13,8],[-13,17]],[[8653,9378],[18,12],[6,8]],[[8677,9398],[5,8],[17,14],[9,0],[6,4],[1,-2],[-6,-9],[-11,-3],[11,-13]],[[8704,9333],[-9,9],[-1,7],[2,3],[-11,2],[-2,3]],[[8709,9397],[8,10],[5,5]],[[8722,9412],[8,-12],[-8,-4],[-3,-4],[2,-6],[10,2],[8,7],[3,-2],[-13,-20],[1,-3],[18,7],[14,9],[5,-2],[15,-9],[-37,-12],[-11,2],[-1,-8],[-20,-5],[7,-7],[-3,-4],[7,-3],[19,3],[23,6],[5,-8],[-9,0],[-14,-7],[-11,-1],[-4,4],[-8,-4],[-9,5],[-4,-2],[-8,-1]],[[8704,9333],[-6,-9],[4,-12],[-2,-5],[1,-8],[8,-1],[18,4],[7,4],[1,-11],[-3,-2],[-2,-9],[-6,-8],[-13,-9],[-4,9],[-13,20],[-2,7],[-6,-6],[-6,2],[7,8],[-8,4],[-6,-2],[5,12],[-4,2],[0,4],[-8,7],[3,2],[-2,4],[-6,2],[4,2],[1,5],[-3,8],[-5,1],[2,2],[-8,1],[-8,7],[-10,-7],[-6,-7],[-7,8],[10,4],[9,11]],[[8640,9377],[10,-1],[3,2]],[[8677,9398],[-10,9],[1,1],[-9,12],[-15,13],[-16,-7]],[[8628,9426],[-9,11],[7,5],[16,8],[-3,3],[19,8],[5,-4],[3,2],[10,-7],[11,6],[6,-4],[7,5],[-3,4],[8,3],[9,-4],[3,-4],[-2,-6],[9,-8],[7,-3],[8,-10],[-2,-7],[3,-5],[-12,-3],[-6,-4]],[[8640,9377],[-22,0],[12,10],[-2,4],[-7,5],[-6,-4],[-6,4],[7,5],[-6,2],[-13,10],[0,5],[31,8]],[[8611,9352],[-6,6],[5,3],[5,-5],[-4,-4]],[[5864,4814],[2,-9],[11,-13],[11,4],[12,-11],[10,3],[8,-2],[-1,-6],[16,-1],[-3,-7],[-4,1],[-4,-14],[-9,1],[-5,-22]],[[1446,2461],[7,6],[4,-5],[11,-8],[-2,-1],[9,-2],[-9,-4],[-15,-5],[-7,-5],[-6,3],[2,3],[-13,4],[3,3],[-1,6],[-4,1],[4,8],[12,3],[5,-7]],[[7614,4132],[11,-11],[14,-7],[-2,-13],[-2,2],[-24,8],[-6,-1],[-4,-4],[-8,4],[-2,4],[-6,4],[16,9],[-1,3],[6,3],[-3,7],[2,1],[9,-9]],[[8526,7415],[-21,-13],[-9,-3],[-4,3],[-8,0]],[[8484,7402],[-5,2],[-10,-3],[-13,-2],[-12,-5],[-1,5],[-7,13],[13,3],[6,-4],[9,2],[5,9],[7,6],[-7,8],[-8,3],[4,4],[6,-3],[9,7],[5,-12],[5,1],[6,-9],[8,2],[-3,6],[3,1],[-6,5],[8,6],[6,-4],[7,3],[11,1],[0,-8],[9,0],[4,-10],[-6,-3],[1,-4],[-12,-1],[0,-6]],[[6702,9472],[22,0],[10,-2],[7,1],[16,-3],[3,-4],[10,-2],[-12,-3],[-20,0],[-1,-5],[-4,-2],[-7,2],[-1,3],[-12,-5],[-11,-11],[-7,2],[-5,-4],[-5,3],[7,4],[-1,5],[-8,13],[-9,0],[-8,-5],[-8,1],[0,5],[16,4],[1,4],[18,0],[9,-1]],[[8526,7415],[8,2],[2,-3],[8,2],[11,-6],[-6,-9],[4,-7],[14,-7],[-6,-3],[6,-6],[-21,-2],[-11,-9],[-7,5],[-5,-6],[-9,6],[-4,-1],[-8,16],[-9,10],[-10,3],[1,2]],[[8506,7353],[1,-8],[-8,4],[7,4]],[[6893,9284],[8,-10],[1,-9],[2,-1],[-4,-9],[9,-6],[-16,-6],[-7,3],[-20,3],[-3,2],[-8,1],[1,6],[-10,2],[1,8],[4,2],[-1,7],[9,0],[10,-6],[5,4],[9,10],[7,2],[3,-3]],[[5998,6319],[4,-1],[1,-5],[10,3],[2,-4],[-15,-4],[-9,-1],[13,-6],[6,-7],[-18,-4],[3,-6],[-2,-6],[-10,0],[-10,-29],[-12,4],[2,-3],[-15,-11],[-6,1],[-1,3],[-8,11],[-14,-10],[-3,1],[-10,-7],[-18,6],[-4,5],[17,-1],[-7,15],[-3,4],[-5,-3],[-2,10],[-3,4],[3,3],[2,8],[-9,4],[-12,-8],[-10,6],[-5,-2],[-5,5],[6,5],[0,6],[4,4],[9,-7],[3,2],[24,-13],[9,-3],[29,2],[8,4],[17,6],[-2,0],[14,11],[-1,4],[7,2],[1,-3],[8,2],[-2,4],[2,9],[14,9],[-1,-8],[4,-11]],[[9158,7725],[-1,-7],[27,4],[5,-10],[8,1],[-1,5],[4,-5],[-11,-2],[5,-10],[-27,-3],[2,-5],[-7,-1],[-2,4],[-4,-5],[-5,4],[-10,-2],[4,-13],[-5,-1],[-4,12],[-25,-6],[2,-9],[-4,11],[-11,-3],[-4,8],[-25,-3],[0,3],[-9,0],[1,6],[4,1],[-3,3],[6,1],[0,-5],[6,0],[3,-4],[14,1],[7,5],[12,2],[21,8],[-4,6],[1,4],[7,-1],[1,-7],[7,3],[5,6],[8,5],[2,-1]],[[5612,7970],[1,-3],[6,-1],[19,-7],[-1,-3],[-9,2],[8,-3],[-2,-2],[-10,4],[-14,2],[-12,3],[0,-3],[-7,6],[-1,-7],[-6,1],[3,5],[6,3],[8,-1],[0,3],[11,1]],[[8753,8902],[38,-2],[28,-1],[-1,-10],[11,1],[8,-2],[14,-6],[7,-6],[4,-1],[6,-7],[3,-9],[-1,-4],[-7,-6],[-8,-4],[-5,0],[-18,-13],[-6,-1],[4,-6],[4,1],[0,-5],[5,-8],[15,-9],[6,-6],[4,-9],[-2,-2],[4,-6],[-5,-3],[-3,4],[-4,0],[-4,4],[-13,7],[-10,1],[-10,-2],[-8,-7],[-11,2],[16,6],[10,6],[5,12],[-56,39],[-5,-5],[-4,3],[4,4],[-14,7],[-11,8],[-5,-4],[-7,5],[3,3],[-1,5],[-8,1],[-1,3],[8,10],[-8,4],[4,3],[10,1],[0,5],[15,-1]],[[1009,4350],[-2,4],[7,7],[-3,2],[-20,2],[-29,2]],[[962,4367],[-3,7],[2,3],[-7,0],[-10,12],[-3,10],[19,1],[12,-14],[16,10],[3,1],[20,-11],[9,-6],[3,-7],[1,-12],[-7,-7],[-8,-4]],[[1009,4350],[-6,-4],[0,-4],[5,-7],[-8,-2],[-7,9],[-8,7],[-15,1],[-8,17]],[[9092,6881],[6,-10],[5,5],[4,-5],[4,-2],[-5,-5],[9,-9],[-5,0],[-11,-6],[-7,11],[-8,4],[-2,-3],[-9,3],[-13,11],[-6,6],[8,0],[27,4],[3,-4]],[[6949,9240],[-7,-12],[8,-6],[-3,-6],[9,-6],[-3,-8],[-8,-4],[-7,2],[-3,5],[-10,6],[12,8],[-3,5],[3,4],[-4,3],[1,4],[7,5],[8,0]],[[8044,5544],[7,-3],[-25,-13],[-18,-11],[-10,-5],[-17,-3],[-1,2],[10,1],[5,3],[-4,4],[6,3],[-14,12],[-15,12],[19,13],[18,11],[23,-18],[16,-8]],[[7990,5482],[5,-1],[-5,-4],[-1,4],[-13,1],[-1,9],[16,-4],[-1,-5]],[[7174,9340],[0,-4],[6,0],[2,-7],[4,0],[-13,-3],[-9,-4],[10,-11],[11,2],[11,0],[-17,-5],[3,-4],[9,-2],[3,-3],[-4,-19],[-6,0],[-4,-9],[-4,1],[-3,-4],[0,9],[7,3],[1,7],[4,12],[-8,5],[-8,0],[3,4],[-9,12],[-15,-2],[-5,8],[-10,0],[-18,-5],[-12,-5],[5,-9],[0,-4],[-8,6],[-8,-3],[-2,4],[6,5],[-2,1],[6,7],[5,-3],[12,4],[1,3],[17,6],[3,-3],[9,2],[9,-1],[3,8],[13,-1],[2,2]],[[7691,6539],[3,14],[4,12],[5,23],[17,-6],[-1,-13],[8,0],[0,-23]],[[7762,6362],[-12,12],[-10,9],[-4,-1],[-11,9]],[[7725,6391],[0,3],[16,6],[-3,5],[24,8],[-15,18],[-9,-3],[-7,12]],[[7856,6430],[10,5],[10,-10],[14,9],[0,3]],[[7875,6384],[0,-10],[124,2],[-1,-34]],[[8414,6472],[-15,-7],[-18,-7],[-27,-13]],[[8354,6445],[-15,9],[-13,-5],[-29,-11],[-3,6],[-9,-4]],[[8082,6337],[-1,-11],[3,0],[-2,-30],[-4,-54],[-4,1],[-13,-58],[-2,-7]],[[8059,6178],[-1,-2]],[[8058,6176],[-15,0],[0,9],[8,0],[10,40]],[[8061,6225],[1,0]],[[8066,6241],[1,1]],[[8049,6326],[0,12]],[[8049,6338],[33,-1]],[[7725,6391],[-33,-8]],[[7661,6434],[16,6],[10,1]],[[7690,6468],[-7,25],[-1,3]],[[7682,6496],[-2,7],[-5,13],[-8,8]],[[7667,6524],[3,-1],[23,2]],[[8217,6276],[2,-41]],[[8219,6235],[1,-20]],[[8220,6215],[-79,2],[-2,1],[-45,1],[-8,-35],[-5,-5]],[[8081,6179],[-21,-1]],[[8060,6178],[-1,0]],[[8082,6337],[3,38],[-35,1]],[[7667,6524],[-1,1]],[[7666,6525],[-2,4],[2,14],[0,17],[11,24],[2,22],[-2,6]],[[7714,6611],[12,-11],[45,-45]],[[7682,6496],[-3,-1],[-5,16],[-21,-3],[1,-10],[3,-7],[4,1],[6,-18],[2,-9],[-3,-1]],[[7666,6464],[-17,-5],[3,-8],[-57,-18],[8,-12],[-7,-2],[3,-6]],[[7599,6413],[-16,-6],[5,-9],[-9,-2]],[[7579,6396],[-16,28],[-4,4],[-3,8],[-3,18],[-11,12]],[[7542,6466],[4,1],[20,11],[-7,8],[16,9],[7,-7],[5,-1],[6,-7],[11,2],[8,0],[15,-2],[7,1],[-12,41],[44,3]],[[7625,6422],[-26,-9]],[[7666,6464],[2,-8]],[[7654,6373],[-7,-2],[-35,-9],[-24,34],[-9,0]],[[7542,6466],[-1,1],[-47,66]],[[8442,6295],[-48,26],[-19,-9],[-41,24],[-8,6]],[[8292,6400],[-4,5],[16,8],[32,20],[19,10],[-1,2]],[[8425,6475],[20,1]],[[8491,6481],[59,-130],[-108,-56]],[[8049,6356],[0,-18]],[[8442,6295],[-26,-12],[-33,-15],[-62,-29],[-18,-7],[-52,-12],[-1,17],[-31,-2]],[[7952,6188],[0,1]],[[7952,6189],[2,-8],[0,-9],[-19,-1]],[[7935,6171],[-7,0]],[[7888,6171],[-50,0],[-45,0],[-24,108],[41,38]],[[7893,6250],[3,0]],[[7917,6231],[1,-2]],[[7950,6187],[2,1]],[[8244,6691],[-18,-1],[-35,-1]],[[8244,6691],[1,-5]],[[7643,6941],[22,4]],[[7665,6945],[5,1]],[[7670,6946],[24,4]],[[7694,6950],[12,2],[14,-44]],[[7617,6927],[-3,9]],[[7614,6937],[28,5]],[[7642,6942],[1,-1]],[[7952,6189],[14,11]],[[8058,6176],[1,2]],[[8060,6178],[21,1]],[[8220,6215],[2,-32],[2,-17]],[[8227,6112],[-9,-4],[-17,2],[-10,7],[-2,21],[-8,1],[-9,19],[-87,-3],[-73,-3],[-56,-3],[-21,22]],[[7590,6947],[9,32],[2,8],[-11,38],[-8,1],[-8,-11],[-4,11],[-3,5],[-2,8],[-10,12],[1,11],[-1,7],[21,0],[8,-3]],[[7684,7019],[11,-6],[-9,-12],[-30,-36],[-17,24],[-16,-2],[7,-22],[5,0],[7,-23]],[[7694,6950],[-24,-4]],[[7665,6945],[-22,-4]],[[4443,9099],[-2,-6],[2,-5],[-10,-2],[0,8],[-6,-1],[-8,5],[0,6],[5,3],[6,-5],[-2,-4],[7,6],[8,5],[2,-5],[-2,-5]],[[4466,9118],[5,-2],[-1,-5],[-10,3],[0,3],[6,1]],[[4449,9125],[-4,-4],[-5,4],[4,2],[5,-2]],[[5125,7811],[0,0]],[[5127,7830],[6,5],[3,-1],[1,-6],[6,-6],[-9,-8],[-2,7],[-15,5],[5,7],[-3,3],[7,2],[1,-8]],[[7110,7320],[-1,2],[11,2],[7,-2],[-2,-4],[-9,0],[-6,2]],[[7148,7329],[1,6],[8,15],[-13,7],[1,5],[8,-3],[5,1],[4,-2],[4,1],[6,-12],[1,-6],[-5,-4],[-11,-4],[1,-12],[-5,-3],[-5,11]],[[7116,7365],[-8,-2],[-4,5],[10,3],[4,-4],[-2,-2]]]}
