{"type":"Topology","bbox":[-73.2697181093327,10.142197917562571,-73.13017263110004,10.34957544984972],"transform":{"scale":[0.000013955943417608,0.000020739827211436017],"translate":[-73.2697181093327,10.142197917562571]},"objects":{"municipios":{"type":"GeometryCollection","geometries":[{"type":"Polygon","arcs":[[0,1]],"properties":{"codigo":"20750100000000000108","sector":"207501000000000001","pcode":"CO20750","area_m2":69142}},{"type":"Polygon","arcs":[[2]],"properties":{"codigo":"20750200101001000101","sector":"207502001010010001","pcode":"CO20750","area_m2":129214}},{"type":"Polygon","arcs":[[3,4,5]],"properties":{"codigo":"20750200106002000101","sector":"207502001060020001","pcode":"CO20750","area_m2":162998}},{"type":"Polygon","arcs":[[-5,6,7,8]],"properties":{"codigo":"20750200106002000102","sector":"207502001060020001","pcode":"CO20750","area_m2":81673}},{"type":"Polygon","arcs":[[9,10,-7,-4,11]],"properties":{"codigo":"20750200106002000103","sector":"207502001060020001","pcode":"CO20750","area_m2":78269}},{"type":"Polygon","arcs":[[-11,12,13,-8]],"properties":{"codigo":"20750200106002000105","sector":"207502001060020001","pcode":"CO20750","area_m2":459352}},{"type":"Polygon","arcs":[[14]],"properties":{"codigo":"20750200106006000101","sector":"207502001060060001","pcode":"CO20750","area_m2":155042}},{"type":"Polygon","arcs":[[15]],"properties":{"codigo":"20750200101007000101","sector":"207502001010070001","pcode":"CO20750","area_m2":128774}},{"type":"Polygon","arcs":[[16]],"properties":{"codigo":"20750200304009000101","sector":"207502003040090001","pcode":"CO20750","area_m2":98374}},{"type":"Polygon","arcs":[[17]],"properties":{"codigo":"20750200401011000101","sector":"207502004010110001","pcode":"CO20750","area_m2":75333}},{"type":"Polygon","arcs":[[18]],"properties":{"codigo":"20750200307012000101","sector":"207502003070120001","pcode":"CO20750","area_m2":94964}},{"type":"Polygon","arcs":[[19,20,21]],"properties":{"codigo":"20750100000000000101","sector":"207501000000000001","pcode":"CO20750","area_m2":203712}},{"type":"Polygon","arcs":[[22,23,-21,24,25,26,27]],"properties":{"codigo":"20750100000000000102","sector":"207501000000000001","pcode":"CO20750","area_m2":298694}},{"type":"Polygon","arcs":[[28,-23,29]],"properties":{"codigo":"20750100000000000103","sector":"207501000000000001","pcode":"CO20750","area_m2":122145}},{"type":"Polygon","arcs":[[30,-1,31,32,-26]],"properties":{"codigo":"20750100000000000109","sector":"207501000000000001","pcode":"CO20750","area_m2":375680}},{"type":"Polygon","arcs":[[33,34,-30,-28,35,36]],"properties":{"codigo":"20750100000000000104","sector":"207501000000000001","pcode":"CO20750","area_m2":214979}},{"type":"Polygon","arcs":[[37,-37,38]],"properties":{"codigo":"20750100000000000105","sector":"207501000000000001","pcode":"CO20750","area_m2":318537}},{"type":"Polygon","arcs":[[39,-34,-38,40]],"properties":{"codigo":"20750100000000000106","sector":"207501000000000001","pcode":"CO20750","area_m2":384898}},{"type":"Polygon","arcs":[[41,42,-32,-2,-31,-25,-20]],"properties":{"codigo":"20750100000000000107","sector":"207501000000000001","pcode":"CO20750","area_m2":321385}},{"type":"Polygon","arcs":[[-42,-22,-24,-29,-35,-40,43]],"properties":{"codigo":"20750100000000000110","sector":"207501000000000001","pcode":"CO20750","area_m2":335973}},{"type":"Polygon","arcs":[[44,-13,-10]],"properties":{"codigo":"20750200106002000104","sector":"207502001060020001","pcode":"CO20750","area_m2":162389}}]}},"arcs":[[[5953,8874],[146,172],[15,15]],[[6114,9061],[20,11],[4,-185],[-2,-11],[-145,-6],[-38,4]],[[4616,9932],[8,-13],[53,-9],[2,11],[108,17],[48,-3],[18,-36],[-22,-11],[22,-11],[-24,-29],[-51,15],[-24,-13],[-20,-33],[-20,26],[-23,3],[-27,-13],[-33,-2],[15,-22],[-24,-26],[-85,4],[-35,13],[37,25],[-20,21],[-7,44],[21,-1],[-11,48],[42,-4],[69,66],[30,-17],[-38,-32],[-9,-18]],[[9196,5108],[-82,-66],[-50,-48]],[[9064,4994],[-124,51],[27,28],[-23,11]],[[8944,5084],[43,45],[-37,12],[15,34],[55,8],[-15,85],[159,-22],[45,-1],[-6,-37],[-46,8],[-7,-22],[22,-18],[19,3],[15,-18],[-23,-34],[13,-19]],[[9064,4994],[-87,-81]],[[8977,4913],[-112,53],[38,38],[-40,16],[-24,-27],[-83,30],[-13,-13]],[[8743,5010],[-29,8],[76,60],[7,-9],[89,-33],[49,56],[9,-8]],[[9227,4963],[-17,-9],[-20,24],[-16,-8],[-108,-108]],[[9066,4862],[-89,51]],[[9196,5108],[10,-3],[-33,-43],[32,-81],[22,-18]],[[9066,4862],[-19,-30],[37,0],[21,-34]],[[9105,4798],[19,-41],[-48,12],[-36,-13],[-63,4],[-56,-27],[-69,-25],[6,-37],[-37,-18],[-94,48],[-124,-42],[-33,52],[39,22],[1,71],[-28,4],[15,33],[-74,19],[-3,-20],[-103,21],[17,25],[53,-11],[13,22],[-36,8],[15,21],[118,-19],[49,47],[-24,8],[22,24],[23,-6],[25,20],[31,-10],[20,20]],[[9927,6247],[69,-24],[-39,-65],[42,-20],[-23,-10],[-57,13],[-61,-15],[4,-14],[-62,-38],[-27,-38],[-35,10],[-17,69],[11,31],[-59,-11],[2,33],[68,-6],[6,84],[-22,48],[53,9],[64,-2],[0,-26],[83,-28]],[[2241,9106],[37,-31],[91,-36],[36,4],[1,-11],[52,-6],[-76,-2],[-128,9],[-6,-6],[-72,3],[-41,-11],[0,-20],[-74,-8],[-28,-60],[-45,15],[9,14],[21,-14],[24,38],[-54,4],[-1,16],[-50,6],[26,20],[-19,4],[18,18],[20,-10],[35,35],[-28,28],[53,22],[15,-24],[97,24],[32,11],[55,-32]],[[249,2019],[48,-54],[-22,-8],[17,-21],[-25,-11],[-14,25],[-15,-15],[-48,1],[-58,-52],[19,-31],[-48,15],[9,14],[-72,-6],[5,14],[-45,22],[62,42],[34,54],[31,35],[44,-26],[31,30],[37,7],[10,-35]],[[7577,3994],[6,-49],[13,5],[37,-76],[-13,-13],[-70,-8],[-72,25],[-78,2],[60,66],[-24,22],[74,16],[18,18],[45,11],[22,15],[8,-21],[-26,-13]],[[2402,7],[-40,-7],[-32,8],[32,294],[45,-4],[-5,-14],[77,-34],[-77,-243]],[[6485,8943],[-21,37],[-6,-17],[-79,21],[-32,16],[-3,-12],[-57,9],[-3,87],[3,35]],[[6287,9119],[134,41],[15,16],[198,-51]],[[6634,9125],[-14,-30],[67,-12],[-17,-36],[-63,14],[-14,-32],[-24,11],[15,-83],[-99,-14]],[[5986,9307],[1,-25],[222,-9],[26,-21],[60,-2],[-2,11],[307,-69]],[[6600,9192],[-12,-23],[63,-13],[-17,-31]],[[6287,9119],[-74,14],[-153,57]],[[6060,9190],[-116,36],[-9,-14],[-124,-26],[-21,-21],[-17,2]],[[5773,9167],[-21,33],[-27,10],[19,35],[52,28],[49,-5],[8,69],[15,21],[38,13]],[[5906,9371],[34,-52],[46,-12]],[[6612,9214],[-12,-22]],[[5986,9307],[4,18],[67,-6],[46,-13],[54,-2],[34,40],[24,-6],[105,-6],[71,-21],[57,-26],[6,-13],[168,-36],[-10,-22]],[[6060,9190],[-67,-80],[121,-49]],[[5953,8874],[-14,-16]],[[5939,8858],[-140,63],[-116,56],[-41,-33],[21,96],[-75,3],[53,60],[100,60],[32,4]],[[6516,9329],[200,-65]],[[6716,9264],[-25,-4],[-5,-33],[74,-2],[-8,-17],[-64,14],[-12,-22],[-64,14]],[[5906,9371],[37,7],[21,39],[44,31]],[[6008,9448],[60,-26],[117,-43],[14,45],[70,-17],[119,-35],[128,-43]],[[6593,9561],[13,-59],[-90,-173]],[[6008,9448],[-9,7],[124,64],[29,-11],[56,-1],[1,52],[26,22],[43,-5],[36,-20],[47,32],[47,-14],[107,-1],[78,-12]],[[6832,9299],[-15,-12],[-101,-23]],[[6593,9561],[-13,20],[76,25],[66,43],[45,7],[54,-15],[56,11],[42,-48],[-17,-59],[-23,-20],[-30,-70],[42,-65],[72,-43],[-60,-17],[-71,-31]],[[6485,8943],[62,-104]],[[6547,8839],[-92,2],[-98,-5],[-124,15],[-298,-8],[4,15]],[[6832,9299],[33,-74],[22,0],[-2,-19],[-37,-134],[-56,-115],[-21,4],[-28,-72],[-8,-38],[-13,-10],[-50,5],[-125,-7]],[[9227,4963],[6,11],[64,-12],[25,11],[31,-11],[57,-2],[-28,-28],[22,-13],[22,26],[19,-11],[-17,-25],[18,-3],[-8,-63],[23,-5],[-6,-23],[-20,4],[-8,-19],[-38,12],[-89,-9],[9,12],[-41,4],[-5,30],[-65,1],[-90,-29],[-3,-23]]]}
