{"type":"Topology","bbox":[-73.0388597888645,10.384047080384338,-73.01778113180984,10.397735511794023],"transform":{"scale":[0.000002108076513117195,0.0000013689800389723982],"translate":[-73.0388597888645,10.384047080384338]},"objects":{"municipios":{"type":"GeometryCollection","geometries":[{"type":"Polygon","arcs":[[0,1,2,3]],"properties":{"codigo":"20443100000000000103","sector":"204431000000000001","pcode":"CO20443","area_m2":94229}},{"type":"Polygon","arcs":[[4,5,6]],"properties":{"codigo":"20443100000000000105","sector":"204431000000000001","pcode":"CO20443","area_m2":376750}},{"type":"Polygon","arcs":[[7,8,9,10,-6]],"properties":{"codigo":"20443100000000000106","sector":"204431000000000001","pcode":"CO20443","area_m2":127245}},{"type":"Polygon","arcs":[[11,12]],"properties":{"codigo":"20443100000000000107","sector":"204431000000000001","pcode":"CO20443","area_m2":201971}},{"type":"Polygon","arcs":[[-2,13,-10,14,15,-12,16,17]],"properties":{"codigo":"20443100000000000101","sector":"204431000000000001","pcode":"CO20443","area_m2":373030}},{"type":"Polygon","arcs":[[-3,-18,18]],"properties":{"codigo":"20443100000000000102","sector":"204431000000000001","pcode":"CO20443","area_m2":254205}},{"type":"Polygon","arcs":[[-7,-11,-14,-1,19]],"properties":{"codigo":"20443100000000000104","sector":"204431000000000001","pcode":"CO20443","area_m2":321200}},{"type":"Polygon","arcs":[[-9,20,-15]],"properties":{"codigo":"20443100000000000108","sector":"204431000000000001","pcode":"CO20443","area_m2":116222}}]}},"arcs":[[[9549,7682],[-438,61],[-413,-74],[-491,-216],[-2457,-2210],[-39,393]],[[5711,5636],[-60,501]],[[5651,6137],[813,517],[2149,1289],[21,570]],[[8634,8513],[247,150],[259,-292],[859,2],[-83,-794],[-367,103]],[[6860,3255],[83,-254],[-403,-564],[-436,-824],[-445,-481],[-521,-273],[-250,-39],[-841,-509],[-1220,-200],[-248,-102],[-139,234]],[[2440,243],[236,532],[349,176],[55,171],[-101,558],[-236,502]],[[2743,2182],[671,542],[1171,1163],[1244,1142],[153,-396],[-249,-271],[600,-1047],[472,121],[55,-181]],[[2440,243],[-220,-20],[-368,901],[-724,-388],[-122,196],[-497,-320],[-361,-354],[-144,420],[297,560],[194,715]],[[495,1953],[166,-457],[564,479],[326,162]],[[1551,2137],[72,-346],[918,923]],[[2541,2714],[202,-532]],[[4032,7336],[355,-461],[230,-761],[-778,-377],[-1438,116],[-1809,95]],[[592,5948],[-375,-12],[-119,401],[132,422],[-230,182],[646,960],[-147,134],[136,436],[197,-194],[87,218],[258,-253],[41,-361],[561,-484],[-40,-338],[306,65],[404,-206],[23,274],[397,-169],[-63,-824],[479,-150],[5,400],[264,-33],[20,259],[297,-317],[161,978]],[[5711,5636],[-2466,-1985],[130,-397],[-834,-540]],[[1551,2137],[-148,768],[640,586],[118,-280],[734,541],[-179,547],[-305,-191],[-241,782],[-415,-253],[-132,561]],[[1623,5198],[-257,104],[-8,349],[-383,-118],[-397,141],[14,274]],[[4032,7336],[49,256],[177,-116],[131,695],[-654,220],[359,459],[27,352],[-148,153],[194,644],[486,-568],[553,-481]],[[5206,8950],[-164,-158],[-224,-1191],[-44,-908],[651,296],[226,-852]],[[5206,8950],[219,110],[71,907],[376,-240],[654,-721],[18,-267],[443,-40],[311,-254],[612,129],[266,161],[458,-222]],[[9549,7682],[53,-626],[-334,-85],[-265,-314],[-517,-234],[-330,-295],[-285,-426],[2,-746],[-773,-950],[-160,-409],[155,-258],[-235,-84]],[[495,1953],[202,907],[502,1026],[129,517],[295,795]]]}
