{"type":"Topology","bbox":[-73.72943080130943,8.673135947794076,-73.65751352408444,8.73951209482345],"transform":{"scale":[0.000007192446967196483,0.0000066382785307904345],"translate":[-73.72943080130943,8.673135947794076]},"objects":{"municipios":{"type":"GeometryCollection","geometries":[{"type":"Polygon","arcs":[[0,1,2]],"properties":{"codigo":"20550200301001000102","sector":"205502003010010001","pcode":"CO20550","area_m2":270280}},{"type":"Polygon","arcs":[[-1,3,4]],"properties":{"codigo":"20550200301001000103","sector":"205502003010010001","pcode":"CO20550","area_m2":181762}},{"type":"Polygon","arcs":[[5,6]],"properties":{"codigo":"20550200604012000102","sector":"205502006040120001","pcode":"CO20550","area_m2":265354}},{"type":"MultiPolygon","arcs":[[[-2,-5,7]],[[8]]],"properties":{"codigo":"20550200301001000101","sector":"205502003010010001","pcode":"CO20550","area_m2":130049}},{"type":"Polygon","arcs":[[-6,9]],"properties":{"codigo":"20550200604012000101","sector":"205502006040120001","pcode":"CO20550","area_m2":244442}},{"type":"Polygon","arcs":[[10,11]],"properties":{"codigo":"20550100000000000208","sector":"205501000000000002","pcode":"CO20550","area_m2":50211}},{"type":"Polygon","arcs":[[12,13,14,15,16]],"properties":{"codigo":"20550100000000000102","sector":"205501000000000001","pcode":"CO20550","area_m2":273713}},{"type":"Polygon","arcs":[[17,-17,18,19,20]],"properties":{"codigo":"20550100000000000103","sector":"205501000000000001","pcode":"CO20550","area_m2":327030}},{"type":"Polygon","arcs":[[21,22,23,24]],"properties":{"codigo":"20550100000000000204","sector":"205501000000000002","pcode":"CO20550","area_m2":121564}},{"type":"Polygon","arcs":[[-14,25,26,27]],"properties":{"codigo":"20550100000000000101","sector":"205501000000000001","pcode":"CO20550","area_m2":366751}},{"type":"Polygon","arcs":[[28,29]],"properties":{"codigo":"20550100000000000207","sector":"205501000000000002","pcode":"CO20550","area_m2":49141}},{"type":"Polygon","arcs":[[30,-15,-28,-22,31]],"properties":{"codigo":"20550100000000000201","sector":"205501000000000002","pcode":"CO20550","area_m2":207309}},{"type":"Polygon","arcs":[[32,33,-30,34]],"properties":{"codigo":"20550100000000000206","sector":"205501000000000002","pcode":"CO20550","area_m2":103975}},{"type":"Polygon","arcs":[[35,-20,36,37]],"properties":{"codigo":"20550100000000000203","sector":"205501000000000002","pcode":"CO20550","area_m2":212896}},{"type":"Polygon","arcs":[[-18,38,39,-26,-13]],"properties":{"codigo":"20550100000000000105","sector":"205501000000000001","pcode":"CO20550","area_m2":287159}},{"type":"Polygon","arcs":[[-39,-21,-36,40]],"properties":{"codigo":"20550100000000000104","sector":"205501000000000001","pcode":"CO20550","area_m2":314016}},{"type":"Polygon","arcs":[[-37,-19,-16,-31,41]],"properties":{"codigo":"20550100000000000202","sector":"205501000000000002","pcode":"CO20550","area_m2":181290}},{"type":"Polygon","arcs":[[42,-24,43,-33,44,-11]],"properties":{"codigo":"20550100000000000205","sector":"205501000000000002","pcode":"CO20550","area_m2":159372}}]}},"arcs":[[[723,8633],[103,306]],[[826,8939],[128,359],[54,194]],[[1008,9492],[122,-97],[35,46],[42,-36],[-26,-45],[134,-101],[-27,-42],[164,-128],[0,-29],[-59,-105],[28,-78],[43,-56],[132,-15],[-160,-284],[-184,191],[-71,-30],[63,-32],[-35,-17],[-56,-120],[-81,50],[-92,-97],[-66,72],[1,70],[-142,47],[-25,-88],[-25,65]],[[723,8633],[-58,-95],[-32,-15],[-82,-90],[-63,-184],[15,-53],[-74,2],[-13,-33],[-46,5],[18,73],[-110,-8],[-20,538],[16,49],[58,26],[-78,13],[12,111],[29,6],[174,-50],[23,91],[50,-17],[29,59]],[[571,9061],[255,-122]],[[509,78],[34,168],[-36,11],[8,91],[50,326],[36,322],[-76,233]],[[525,1229],[35,17],[105,-56],[34,-91],[36,7],[35,-141],[70,-84],[-15,-169],[96,-105],[210,-36],[3,-62],[88,-31],[183,-36],[-18,-74],[81,3],[2,-140],[-97,19],[-3,-250],[-218,109],[-109,93],[-139,157],[-96,-86],[-94,86],[-47,-68],[-71,-47],[47,-10],[-10,-91],[-56,-13],[-29,-89],[-39,37]],[[571,9061],[41,46],[48,152],[-48,115],[42,64],[-67,56],[-102,126],[52,76],[111,-95],[60,-13],[97,12],[37,80],[78,-34],[-49,-76],[137,-78]],[[336,9860],[-27,-58],[-76,61],[-41,75],[38,61],[122,-100],[-16,-39]],[[509,78],[-114,23],[0,-25],[-83,4],[-123,35],[-31,-9],[-9,331],[-149,18],[60,65],[60,153],[22,1],[-12,231],[-94,4],[-1,42],[164,-25],[241,149],[14,135],[-38,7],[-1,76],[88,11],[22,-75]],[[8291,3894],[-295,78],[-17,-72],[-95,23],[28,125],[-92,19],[-5,-18]],[[7815,4049],[-95,24],[16,66],[313,-78],[31,54],[207,42],[21,-136],[56,5],[-14,-54],[-36,25],[-23,-103]],[[8253,1885],[-111,269],[-75,205]],[[8067,2359],[433,156],[416,143],[156,64]],[[9072,2722],[81,-198]],[[9153,2524],[60,-143]],[[9213,2381],[-226,-122],[-734,-374]],[[8425,1448],[-173,426],[1,11]],[[9213,2381],[58,-139]],[[9271,2242],[162,-381]],[[9433,1861],[-129,-57],[-454,-187],[-11,-8],[-414,-161]],[[9320,3311],[-216,-24],[-122,-31],[-65,-35],[-29,-64]],[[8888,3157],[-114,272]],[[8774,3429],[-165,392]],[[8609,3821],[23,25],[152,-97],[75,-34],[316,-103],[16,-67],[80,-239],[49,5]],[[8067,2359],[-165,-65],[-120,-32]],[[7782,2262],[40,193],[-67,140],[143,135],[-103,66],[-4,24],[68,9],[95,70],[161,82],[186,38],[49,-111],[32,11],[-33,100],[95,32],[182,-14],[79,9],[-7,20],[147,82],[43,9]],[[8888,3157],[184,-435]],[[7582,3830],[-116,27],[-386,74],[38,162]],[[7118,4093],[166,-39],[11,25],[315,-93],[-28,-156]],[[9963,2891],[-89,-36],[-176,-41],[-120,-70],[-425,-220]],[[9320,3311],[-7,-42],[72,-104],[19,-150],[-15,-80],[66,-19],[-16,50],[86,24],[15,-91],[118,-33],[98,34],[72,44],[137,36],[-2,-89]],[[7704,4006],[-36,-197]],[[7668,3809],[-86,21]],[[7118,4093],[83,315],[338,-113],[196,-69],[-34,-155],[3,-65]],[[9610,1440],[-177,421]],[[9271,2242],[143,63],[519,250],[2,-136],[-38,-52],[-99,-192],[-39,-41],[106,-226]],[[9865,1908],[-126,-281],[-21,-18],[-43,-181],[-47,-27],[-18,39]],[[8425,1448],[-106,-46],[64,-140],[-147,-64],[101,-234],[144,82],[55,-125]],[[8536,921],[-70,-166],[-8,-99],[15,-77],[-57,49],[-164,291],[-188,430],[-84,219],[-40,145],[-156,233],[-14,53],[4,240],[8,23]],[[9610,1440],[-88,-45],[-179,-255],[-27,-17],[-23,92],[-48,60],[-177,115],[-81,-34],[49,-160],[-122,-63],[0,49],[-148,-33],[22,144],[-54,87],[-88,-107],[-51,-133],[-59,-219]],[[9963,2891],[35,-404],[-6,-131],[-42,17],[-36,-80],[-79,-134],[33,0],[-4,-85],[72,-24],[-71,-142]],[[8291,3894],[-8,-29],[91,-23],[-6,-44],[55,-2],[-33,182],[58,0],[51,30],[55,-149],[35,11],[20,-49]],[[8774,3429],[-167,-50],[-55,206],[-884,224]],[[7704,4006],[102,-24],[9,67]]]}
