{"type":"Topology","bbox":[-73.98112223403524,10.138552380554602,-73.84058061678343,10.331290961594421],"transform":{"scale":[0.000014055567281909493,0.00001927578568255018],"translate":[-73.98112223403524,10.138552380554602]},"objects":{"municipios":{"type":"GeometryCollection","geometries":[{"type":"Polygon","arcs":[[0,1,2,3]],"properties":{"codigo":"20238200505002000102","sector":"202382005050020001","pcode":"CO20238","area_m2":155858}},{"type":"Polygon","arcs":[[4,5,6,-1,7]],"properties":{"codigo":"20238200505002000103","sector":"202382005050020001","pcode":"CO20238","area_m2":232530}},{"type":"Polygon","arcs":[[8,-5,9]],"properties":{"codigo":"20238200505002000104","sector":"202382005050020001","pcode":"CO20238","area_m2":138000}},{"type":"Polygon","arcs":[[10,-6,-9]],"properties":{"codigo":"20238200505002000105","sector":"202382005050020001","pcode":"CO20238","area_m2":114337}},{"type":"Polygon","arcs":[[11,12,13]],"properties":{"codigo":"20238100000000000110","sector":"202381000000000001","pcode":"CO20238","area_m2":80240}},{"type":"Polygon","arcs":[[-3,14]],"properties":{"codigo":"20238200505002000101","sector":"202382005050020001","pcode":"CO20238","area_m2":164790}},{"type":"Polygon","arcs":[[15,16]],"properties":{"codigo":"20238200104003000101","sector":"202382001040030001","pcode":"CO20238","area_m2":144274}},{"type":"Polygon","arcs":[[-17,17]],"properties":{"codigo":"20238200104003000102","sector":"202382001040030001","pcode":"CO20238","area_m2":82124}},{"type":"Polygon","arcs":[[18]],"properties":{"codigo":"20238200104003000103","sector":"202382001040030001","pcode":"CO20238","area_m2":46173}},{"type":"MultiPolygon","arcs":[[[19]],[[20]]],"properties":{"codigo":"20238200202004000101","sector":"202382002020040001","pcode":"CO20238","area_m2":70333}},{"type":"Polygon","arcs":[[21,22,23,24]],"properties":{"codigo":"20238100000000000208","sector":"202381000000000002","pcode":"CO20238","area_m2":152536}},{"type":"Polygon","arcs":[[25,26,27,28,29,30]],"properties":{"codigo":"20238100000000000104","sector":"202381000000000001","pcode":"CO20238","area_m2":119160}},{"type":"Polygon","arcs":[[31,32,33,34]],"properties":{"codigo":"20238100000000000201","sector":"202381000000000002","pcode":"CO20238","area_m2":152900}},{"type":"Polygon","arcs":[[35,36,37,-26]],"properties":{"codigo":"20238100000000000206","sector":"202381000000000002","pcode":"CO20238","area_m2":71873}},{"type":"Polygon","arcs":[[38,39,-22]],"properties":{"codigo":"20238100000000000207","sector":"202381000000000002","pcode":"CO20238","area_m2":85531}},{"type":"Polygon","arcs":[[-13,40,41,42,43]],"properties":{"codigo":"20238100000000000111","sector":"202381000000000001","pcode":"CO20238","area_m2":123074}},{"type":"Polygon","arcs":[[44,45,46]],"properties":{"codigo":"20238100000000000209","sector":"202381000000000002","pcode":"CO20238","area_m2":48178}},{"type":"Polygon","arcs":[[47,-34,48,49,-41,-12,50,51,52]],"properties":{"codigo":"20238100000000000108","sector":"202381000000000001","pcode":"CO20238","area_m2":280932}},{"type":"Polygon","arcs":[[-33,-45,53,54,-49]],"properties":{"codigo":"20238100000000000211","sector":"202381000000000002","pcode":"CO20238","area_m2":291540}},{"type":"Polygon","arcs":[[55,56,-30,57,58,59]],"properties":{"codigo":"20238100000000000106","sector":"202381000000000001","pcode":"CO20238","area_m2":191570}},{"type":"Polygon","arcs":[[-52,60,61,-59,62]],"properties":{"codigo":"20238100000000000107","sector":"202381000000000001","pcode":"CO20238","area_m2":209962}},{"type":"Polygon","arcs":[[63,64,65,66,67]],"properties":{"codigo":"20238100000000000204","sector":"202381000000000002","pcode":"CO20238","area_m2":134667}},{"type":"Polygon","arcs":[[-24,68,-54,-47,69]],"properties":{"codigo":"20238100000000000210","sector":"202381000000000002","pcode":"CO20238","area_m2":161032}},{"type":"Polygon","arcs":[[-27,-38,70,-64,71]],"properties":{"codigo":"20238100000000000205","sector":"202381000000000002","pcode":"CO20238","area_m2":152059}},{"type":"Polygon","arcs":[[-70,-46,-32,72,73,-67,74]],"properties":{"codigo":"20238100000000000202","sector":"202381000000000002","pcode":"CO20238","area_m2":173431}},{"type":"Polygon","arcs":[[-29,75,76,-53,-63,-58]],"properties":{"codigo":"20238100000000000103","sector":"202381000000000001","pcode":"CO20238","area_m2":229872}},{"type":"Polygon","arcs":[[-28,-72,-68,-74,77,-76]],"properties":{"codigo":"20238100000000000102","sector":"202381000000000001","pcode":"CO20238","area_m2":95228}},{"type":"MultiPolygon","arcs":[[[78,-43,79]],[[80]]],"properties":{"codigo":"20238100000000000112","sector":"202381000000000001","pcode":"CO20238","area_m2":111024}},{"type":"Polygon","arcs":[[-39,-25,-75,-66,81]],"properties":{"codigo":"20238100000000000203","sector":"202381000000000002","pcode":"CO20238","area_m2":125522}},{"type":"Polygon","arcs":[[82,-61,-51,-14,-44,-79]],"properties":{"codigo":"20238100000000000109","sector":"202381000000000001","pcode":"CO20238","area_m2":195570}},{"type":"Polygon","arcs":[[-73,-35,-48,-77,-78]],"properties":{"codigo":"20238100000000000101","sector":"202381000000000001","pcode":"CO20238","area_m2":76654}},{"type":"Polygon","arcs":[[83,-56,84]],"properties":{"codigo":"20238100000000000301","sector":"202381000000000003","pcode":"CO20238","area_m2":170077}},{"type":"Polygon","arcs":[[85,-36,-31,-57,-84]],"properties":{"codigo":"20238100000000000105","sector":"202381000000000001","pcode":"CO20238","area_m2":232025}}]}},"arcs":[[[623,3124],[-41,-17],[-30,-7],[-26,-21],[8,-6],[-78,-47],[-11,-11]],[[445,3015],[-110,193]],[[335,3208],[20,0],[26,-14],[64,-2],[12,8],[-25,22],[-4,15],[5,26],[-19,15],[23,38]],[[437,3316],[16,8],[51,-7],[-3,16],[19,2],[15,-33],[54,-107],[28,8],[13,-22],[42,2],[6,-11],[-51,-11],[2,-9],[-18,-4],[12,-24]],[[907,2997],[-140,-53]],[[767,2944],[-56,-20],[-127,-55]],[[584,2869],[-23,23],[29,13],[-3,9],[-22,-5],[-16,21],[-48,-15],[-56,100]],[[623,3124],[13,-25],[52,-31],[25,4],[-14,21],[39,10],[56,40],[7,-6],[36,-58],[24,11],[61,-30],[-39,-17],[24,-46]],[[870,2697],[-26,59],[-65,173],[-12,15]],[[907,2997],[12,3],[-3,-19],[46,13],[31,-54],[13,-36],[8,2],[15,-31],[-45,-15],[16,-31],[-74,-8],[2,-14],[-17,-2],[11,-27],[-8,-54],[-17,-4],[19,-43],[-33,-6],[-13,26]],[[870,2697],[-47,-7],[-14,21],[18,3],[-1,43],[-37,8],[-113,-31],[-21,29],[-44,49],[-26,34],[14,6],[-15,17]],[[1339,932],[-138,-26],[-117,-25],[-63,-16],[-33,-12]],[[988,853],[-50,82],[253,41]],[[1191,976],[13,-21],[130,8],[5,-31]],[[335,3208],[-20,37],[-40,-12],[-14,7],[21,29],[-5,9],[-29,18],[-67,25],[-43,6],[17,21],[-130,36],[-25,4],[15,46],[52,-11],[1,-9],[35,-6],[60,-19],[44,45],[-58,99],[23,-23],[49,23],[8,-6],[14,12],[16,-9],[-55,-52],[15,-19],[26,14],[15,-23],[18,-15],[-4,-10],[31,-18],[59,-64],[25,6],[4,-11],[27,-21],[17,-1]],[[9507,9833],[-12,-26],[-4,-29],[-12,-14],[-4,-39],[-18,-32],[-19,-19],[-23,-5],[-24,-35],[49,-3],[9,-46],[16,-8],[-25,-4],[40,-42],[107,-48],[29,21],[24,-12],[-26,-21],[19,-13],[-20,-6],[-21,4],[-65,37],[-38,9],[-33,-8],[-9,-18],[-19,-11],[-34,-43],[-5,-12],[5,-23],[-51,-51],[-35,-18],[-20,-3],[-81,-3],[2,19],[19,8],[51,5],[-1,5],[47,17],[14,20],[-31,2],[3,22],[13,-1],[8,41],[-18,18],[9,6],[38,-1],[-8,18],[13,11],[4,30],[-17,2],[4,57],[8,23],[-15,2],[7,21],[16,14],[-10,8],[28,18],[46,66],[-2,50],[-18,9],[-11,34],[-10,0]],[[9396,9836],[-2,8],[113,-11]],[[9396,9836],[-32,-7],[-26,16],[-22,27],[-9,-6],[-16,18],[11,8],[-18,17],[117,44],[-4,6],[25,7],[6,-6],[68,8],[0,31],[18,-5],[-1,-14],[16,-55],[-1,-35],[-21,-57]],[[9873,9672],[2,17],[38,3],[29,-6],[-2,-17],[-12,-5],[53,-24],[18,-4],[-4,-29],[-19,-3],[-10,-16],[-48,30],[-34,-27],[-13,1],[-13,44],[-13,17],[-51,-1],[-51,-19],[-5,63],[94,-12],[41,-12]],[[6514,7822],[-19,-7],[-61,-32],[-43,-14],[-13,-12],[-47,-18],[-66,-11],[-39,-17],[-77,-21],[-31,-12],[-2,-8],[-41,-14],[-92,-9],[-32,0],[1,16],[67,2],[-9,34],[-11,6],[-11,36],[23,2],[-5,-15],[30,4],[1,-21],[11,-43],[34,10],[31,15],[6,11],[-14,16],[22,16],[17,-18],[45,16],[-3,8],[36,-1],[28,10],[60,16],[-8,28],[23,-2],[62,11],[31,18],[26,-4],[60,41],[35,-22],[-25,-15]],[[6006,7781],[-6,-10],[-30,12],[7,17],[33,-13],[-4,-6]],[[1023,315],[-32,-7],[-127,-37],[32,-57],[-35,-11],[70,-130],[-14,-6]],[[917,67],[-89,-53],[-89,-14],[-88,123],[51,24]],[[702,147],[77,32],[71,21],[-50,99],[10,2],[190,53]],[[1000,354],[23,-39]],[[1827,346],[-18,30],[-66,-26],[-22,24],[13,8],[-65,34],[-55,-74],[-24,28],[-35,-20]],[[1555,350],[-31,54]],[[1524,404],[28,12]],[[1552,416],[40,28],[43,43],[42,60]],[[1677,547],[63,-36]],[[1740,511],[128,-79],[-29,-25],[56,-38],[-68,-23]],[[1214,592],[-297,-86]],[[917,506],[-19,33],[-11,9],[-46,85],[43,9],[26,-42],[13,-1],[93,27],[-7,18],[-30,37],[-35,31]],[[944,712],[178,48],[70,-130]],[[1192,630],[22,-38]],[[1827,346],[12,-19]],[[1839,327],[-7,-5],[-24,17],[-45,-15],[-10,-7],[-27,27],[-137,-58],[-27,-13],[-10,-38],[-27,-8]],[[1525,227],[-54,98],[41,12],[27,-2],[16,15]],[[1023,315],[31,-55],[-92,-28],[49,-90],[20,-41]],[[1031,101],[-46,-8],[4,-9],[-68,-22],[-4,5]],[[988,853],[-138,-61]],[[850,792],[-88,112],[67,23],[-8,12],[101,22],[142,22],[-44,56],[-11,25],[93,22]],[[1102,1086],[5,-12]],[[1107,1074],[31,-70],[42,10],[11,-38]],[[773,371],[-25,41],[34,24],[53,45],[82,25]],[[917,506],[43,-78]],[[960,428],[-31,-9],[-138,-39],[-18,-9]],[[1330,670],[-138,-40]],[[944,712],[-102,76]],[[842,788],[8,4]],[[1339,932],[21,-111]],[[1360,821],[9,-47]],[[1369,774],[9,-41],[-77,-11],[29,-52]],[[773,371],[-39,-12],[-96,-21]],[[638,338],[-39,55],[90,30],[-46,53],[81,45],[-134,156],[137,58],[115,53]],[[1938,720],[-36,-24],[17,-19]],[[1919,677],[-88,-76],[-64,-60],[-27,-30]],[[1677,547],[18,68],[-18,7],[28,67],[15,7],[-11,34],[23,31],[13,7],[-23,27]],[[1722,795],[63,32],[-30,36],[34,19]],[[1789,882],[42,-33],[22,5],[52,23],[48,-62],[10,-17],[-63,-34],[38,-44]],[[1360,821],[132,25],[15,6],[170,99],[-8,10]],[[1669,961],[21,9],[29,-35],[70,-53]],[[1722,795],[-40,-18],[-30,-22],[-10,-46],[-46,-50],[-22,9],[-91,11],[-40,24],[-14,33],[-11,45],[-49,-7]],[[1378,411],[16,-19],[19,-11],[-3,-18],[-34,1],[-11,-7],[-13,-25],[-54,-59],[-18,-7],[-30,15],[-11,-2],[-4,-41],[21,-34],[29,-27]],[[1285,177],[-77,-25]],[[1208,152],[-31,60],[-38,66],[-54,101]],[[1085,379],[169,48]],[[1254,427],[21,-39],[61,17],[9,-8],[33,14]],[[702,147],[-41,65],[-76,112],[53,14]],[[960,428],[40,-74]],[[1525,227],[-73,-22],[-37,-7],[5,-10],[-41,-13],[-22,3],[-48,-17],[-12,20],[-12,-4]],[[1378,411],[9,21],[18,12],[47,-12],[25,-17],[47,-11]],[[1214,592],[42,-76]],[[1256,516],[52,-73],[-54,-16]],[[1085,379],[-85,-25]],[[1552,416],[-67,79],[-25,33],[-40,36]],[[1420,564],[7,6],[-18,21],[-8,21],[-15,73],[-56,-15]],[[1256,516],[164,48]],[[1317,1055],[2,-15],[-47,7],[-23,18],[-25,1],[-17,30],[-100,-22]],[[1102,1086],[103,24],[-25,58],[-56,-9],[-20,50],[5,9],[174,24],[9,-52],[25,-135]],[[1292,1478],[13,1],[9,-36],[11,-2],[8,-50],[-77,-12],[-23,114],[33,5],[-21,31],[30,7],[12,-29],[5,-29]],[[1208,152],[-10,-3],[13,-24],[-60,-17],[-13,24],[-33,-11],[-17,-25],[-57,5]],[[1317,1055],[72,-4],[68,8],[12,-36],[-17,-6],[14,-6],[74,-73],[-10,-6],[25,-30],[82,46],[-8,8],[30,14],[10,-9]],[[2151,556],[-38,34],[-84,-55],[-31,51],[-27,36],[-52,55]],[[1938,720],[17,9],[16,35],[19,24],[21,14],[14,-23],[145,5],[30,-47],[-1,-21],[23,-25],[-16,-6],[12,-69],[-37,-1],[-41,-32],[28,-13],[-17,-14]],[[2151,556],[74,-60],[-24,-14],[7,-24],[-76,-14],[-51,-25],[-19,41],[-107,0],[20,-18],[9,-35],[-14,-5],[-12,10],[-23,-23],[-3,-27],[-89,-41],[-4,6]]]}
