{"type":"Topology","bbox":[-73.80988656043638,8.488640188605876,-73.58155645243369,8.626775317900723],"transform":{"scale":[0.00002283529432970242,0.000013814894418926587],"translate":[-73.80988656043638,8.488640188605876]},"objects":{"municipios":{"type":"GeometryCollection","geometries":[{"type":"Polygon","arcs":[[0]],"properties":{"codigo":"20383200704002000101","sector":"203832007040020001","pcode":"CO20383","area_m2":15072}},{"type":"Polygon","arcs":[[1]],"properties":{"codigo":"20383200701003000101","sector":"203832007010030001","pcode":"CO20383","area_m2":87146}},{"type":"Polygon","arcs":[[2,3]],"properties":{"codigo":"20383100000000000106","sector":"203831000000000001","pcode":"CO20383","area_m2":256215}},{"type":"Polygon","arcs":[[4,5,6,7,8,-3,9]],"properties":{"codigo":"20383100000000000101","sector":"203831000000000001","pcode":"CO20383","area_m2":192853}},{"type":"Polygon","arcs":[[10,11,-7,12]],"properties":{"codigo":"20383100000000000102","sector":"203831000000000001","pcode":"CO20383","area_m2":113508}},{"type":"Polygon","arcs":[[13,-8,-12]],"properties":{"codigo":"20383100000000000103","sector":"203831000000000001","pcode":"CO20383","area_m2":221102}},{"type":"Polygon","arcs":[[14,15]],"properties":{"codigo":"20383200601005000101","sector":"203832006010050001","pcode":"CO20383","area_m2":112790}},{"type":"Polygon","arcs":[[16,17]],"properties":{"codigo":"20383200502010000101","sector":"203832005020100001","pcode":"CO20383","area_m2":485424}},{"type":"Polygon","arcs":[[-17,18]],"properties":{"codigo":"20383200502010000102","sector":"203832005020100001","pcode":"CO20383","area_m2":417979}},{"type":"Polygon","arcs":[[19,-5,20]],"properties":{"codigo":"20383100000000000105","sector":"203831000000000001","pcode":"CO20383","area_m2":63311}},{"type":"Polygon","arcs":[[21,-13,-6,-20]],"properties":{"codigo":"20383100000000000104","sector":"203831000000000001","pcode":"CO20383","area_m2":181777}},{"type":"Polygon","arcs":[[22,23]],"properties":{"codigo":"20383200503001000101","sector":"203832005030010001","pcode":"CO20383","area_m2":181420}},{"type":"Polygon","arcs":[[-24,24]],"properties":{"codigo":"20383200503001000102","sector":"203832005030010001","pcode":"CO20383","area_m2":90166}},{"type":"Polygon","arcs":[[25]],"properties":{"codigo":"20383200503001000103","sector":"203832005030010001","pcode":"CO20383","area_m2":16005}},{"type":"Polygon","arcs":[[-15,26]],"properties":{"codigo":"20383200601005000102","sector":"203832006010050001","pcode":"CO20383","area_m2":196064}},{"type":"Polygon","arcs":[[27]],"properties":{"codigo":"20383200404006000101","sector":"203832004040060001","pcode":"CO20383","area_m2":197963}},{"type":"Polygon","arcs":[[28]],"properties":{"codigo":"20383200601011000101","sector":"203832006010110001","pcode":"CO20383","area_m2":13602}},{"type":"MultiPolygon","arcs":[[[29]],[[30]]],"properties":{"codigo":"20383200702012000101","sector":"203832007020120001","pcode":"CO20383","area_m2":11835}}]}},"arcs":[[[1956,428],[5,10],[81,-43],[-3,-18],[24,-9],[-3,-18],[-56,21],[-69,52],[21,5]],[[2455,5305],[31,-14],[2,-18],[23,10],[6,-23],[-59,-41],[-47,-17],[-1,13],[-56,1],[1,-37],[-45,3],[12,46],[-1,42],[37,-4],[16,30],[-5,105],[44,-16],[35,18],[23,-7],[-18,-49],[2,-42]],[[251,9807],[44,-94],[-71,-80],[9,-25],[-53,-63],[-60,-78]],[[120,9467],[-72,171],[-48,123],[58,46],[92,83],[101,-83]],[[387,9686],[-39,-52]],[[348,9634],[-69,-70],[45,-107]],[[324,9457],[-22,-25]],[[302,9432],[-34,-42],[13,-26],[-33,-41],[-13,39],[-59,-51]],[[176,9311],[-39,116],[-17,40]],[[251,9807],[136,-121]],[[483,9247],[-79,-154]],[[404,9093],[-36,56],[-29,63],[29,52],[-66,168]],[[324,9457],[20,-47],[35,41],[2,-27],[27,-108],[45,40],[30,-90],[0,-19]],[[404,9093],[-26,-54],[-90,-128],[-49,191],[-63,209]],[[3410,8998],[9,-63],[-2,-53],[21,-5],[-14,-130]],[[3424,8747],[-1,-35],[-14,-12],[7,-50],[-19,16],[-60,-30],[-7,30],[-64,-30],[1,29],[66,29],[5,139],[-27,17],[-26,-1],[2,60],[32,-13],[23,6],[1,21],[65,-16],[-12,94],[14,-3]],[[7570,8599],[36,266],[2,82],[9,216],[-7,18],[2,98]],[[7612,9279],[40,-23],[196,-415],[22,8],[7,-25],[-14,-17],[64,-139],[21,10],[-13,-25],[19,-33],[7,15],[29,-34],[62,-21],[-15,-38],[-36,8],[5,27],[-64,22],[-3,-46],[-19,5],[4,45],[-270,94],[-14,-48],[-16,-12],[-2,-82],[-17,6],[-35,38]],[[7570,8599],[-20,28],[-30,15],[11,59],[-50,21],[-92,27],[3,36],[-13,6],[18,80],[80,318],[21,92],[21,112],[31,-27],[62,-87]],[[535,9534],[-17,-17],[8,-26],[-36,-9],[-16,41],[-36,-13],[-31,82],[-32,-31],[-27,73]],[[387,9686],[138,-128],[10,-24]],[[535,9534],[21,-73],[5,-51],[-10,-31],[-68,-132]],[[9750,7962],[-63,-123],[-28,70],[1,24],[-17,15],[5,70],[-8,8],[53,235],[58,-31],[14,23],[12,-10],[31,78],[13,-54]],[[9821,8267],[-17,-79],[-3,-147],[-51,-79]],[[9821,8267],[-3,-38],[49,-22],[16,-37],[88,-39],[28,3],[-7,-24],[-104,-58],[-64,-22],[-15,-12],[-49,-68],[-10,12]],[[9660,8196],[-11,-47],[-10,7],[-24,-22],[-20,-53],[-21,-7],[23,109],[13,-10],[50,23]],[[3410,8998],[13,6],[167,-43],[-5,-52],[45,-17],[2,15],[46,-4],[3,-153],[-21,-11],[-156,43],[-31,-24],[-12,-80],[-12,1],[5,71],[-30,-3]],[[7457,579],[25,2],[8,-67],[75,21],[1,-49],[11,3],[8,-100],[-37,-13],[15,-144],[11,-156],[-52,-6],[-8,-18],[7,-52],[-25,74],[-12,98],[-21,21],[33,-6],[-11,83],[-21,-4],[5,-34],[-27,0],[-7,90],[43,-9],[-5,49],[-44,-3],[2,56],[34,3],[-31,234],[0,25],[32,12],[8,-54],[-28,-11],[11,-45]],[[5437,9997],[5,-21],[-19,-85],[-11,35],[17,13],[-26,2],[-23,22],[3,31],[54,3]],[[3304,3970],[2,-38],[-22,-34],[-30,81],[-1,19],[25,-18],[-5,-16],[31,6]],[[3220,3944],[0,0]]]}
