{"type":"Topology","bbox":[-73.38497617899645,8.377384612596124,-73.35313021024598,8.448198207103218],"transform":{"scale":[0.000003184915366584077,0.000007082067657475104],"translate":[-73.38497617899645,8.377384612596124]},"objects":{"municipios":{"type":"GeometryCollection","geometries":[{"type":"Polygon","arcs":[[0,1,2]],"properties":{"codigo":"20310100000000000101","sector":"203101000000000001","pcode":"CO20310","area_m2":195254}},{"type":"MultiPolygon","arcs":[[[3]],[[4]]],"properties":{"codigo":"20310200102006000101","sector":"203102001020060001","pcode":"CO20310","area_m2":10194}},{"type":"Polygon","arcs":[[5,6,-1]],"properties":{"codigo":"20310100000000000102","sector":"203101000000000001","pcode":"CO20310","area_m2":82084}},{"type":"Polygon","arcs":[[-2,-7,7]],"properties":{"codigo":"20310100000000000103","sector":"203101000000000001","pcode":"CO20310","area_m2":44300}},{"type":"Polygon","arcs":[[8]],"properties":{"codigo":"20310200102002000101","sector":"203102001020020001","pcode":"CO20310","area_m2":32888}},{"type":"MultiPolygon","arcs":[[[9]],[[10]],[[11]],[[12]],[[13]],[[14]],[[15]]],"properties":{"codigo":"20310200101003000101","sector":"203102001010030001","pcode":"CO20310","area_m2":24439}},{"type":"Polygon","arcs":[[16]],"properties":{"codigo":"20310200103007000101","sector":"203102001030070001","pcode":"CO20310","area_m2":37314}}]}},"arcs":[[[2160,1120],[-79,48],[-540,379],[-25,84],[8,78],[-79,83],[-161,121],[-110,107],[-134,157],[-27,-34]],[[1013,2143],[-115,26],[-103,-24],[-24,22]],[[771,2167],[103,50],[-31,55],[138,19],[192,-1],[13,-53],[174,-62],[-54,-89],[97,-33],[13,-32],[55,-20],[193,-38],[104,30],[139,18],[24,-52],[-21,-19],[93,-39],[146,-8],[71,8],[143,-39],[-37,-28],[151,-42],[-59,-20],[-147,-11],[-40,-25],[38,-65],[-33,-45],[-64,-5],[37,-55],[-58,-19],[65,-17],[-60,-49],[145,-49],[28,-86],[83,-48],[160,7],[80,-43],[13,-28],[112,-27],[118,11],[29,-13],[-6,-52],[-266,7],[-21,8],[-108,-52],[-116,14],[-45,-42],[-102,-27],[-100,59]],[[9519,6027],[103,-57],[110,-1],[65,-20],[44,22],[76,-6],[7,23],[75,-41],[-96,-8],[-95,-34],[-5,-26],[-82,-25],[61,-40],[-17,-19],[-103,93],[-73,26],[-4,24],[-91,83],[25,6]],[[9485,5959],[54,-17],[-13,-34],[-195,-34],[-18,11],[103,38],[41,-2],[28,38]],[[2160,1120],[-156,-43],[-134,89],[-76,26],[-48,68],[-84,56],[-80,86],[-82,44],[-211,68],[134,54],[-153,62],[36,22],[8,44],[-68,56],[-199,-1],[-221,56],[-101,51],[-43,6],[18,53]],[[700,1917],[47,31],[51,-14],[56,43],[159,166]],[[700,1917],[-158,59],[-26,117],[-52,21],[-59,-5],[0,27],[-185,11],[-27,-19],[-80,-1],[42,22],[-91,26],[-59,-3],[-5,27],[50,51],[-18,35],[272,-17],[23,16],[130,-48],[95,-7],[92,24],[36,-51],[91,-35]],[[3696,7875],[-75,-11],[-46,-36],[226,26],[1,-47],[-59,-5],[51,-37],[160,59],[151,8],[-114,-88],[-116,-5],[-295,46],[-261,-125],[48,-49],[78,13],[67,-31],[99,-21],[-13,-14],[-183,-19],[-122,38],[-78,81],[-56,15],[-162,6],[4,21],[-126,-1],[-97,-35],[-150,-24],[-40,7],[-129,-19],[-3,39],[94,3],[84,54],[118,-1],[55,30],[81,-27],[105,-12],[126,2],[62,-17],[81,63],[22,-6],[143,33],[87,-3],[34,50],[-53,22],[79,2],[41,25],[81,-10]],[[3022,9879],[230,-8],[44,-33],[-174,7],[-59,-23],[158,-12],[-82,-8],[-30,-40],[-73,-12],[49,44],[-116,35],[-57,-15],[55,-11],[-62,-57],[-36,25],[39,64],[-71,47],[69,15],[75,-29],[41,11]],[[3490,9663],[-36,6],[42,43],[43,-14],[-49,-35]],[[4066,9766],[-42,-24],[-80,63],[124,-22],[-2,-17]],[[3484,9816],[34,-34],[-69,26],[-30,-26],[52,-36],[-88,-73],[-133,-17],[-13,52],[130,21],[-16,31],[-156,4],[-11,16],[224,47],[76,-11]],[[3774,9825],[7,-23],[-55,-50],[-77,-17],[-53,10],[127,75],[-84,59],[63,22],[108,-62],[-36,-14]],[[3587,9903],[0,0]],[[2587,9956],[44,-38],[63,24],[59,-7],[-17,-22],[32,-42],[-44,-8],[-33,49],[-50,2],[-83,-33],[-40,12],[44,43],[-53,15],[69,48],[9,-43]],[[3917,353],[42,0],[228,-88],[172,-103],[26,10],[98,-31],[-124,-37],[90,-30],[-60,-44],[-97,-30],[-83,12],[37,12],[104,84],[-168,69],[-38,-9],[-191,55],[-121,48],[-35,-10],[56,-46],[-85,3],[-147,-35],[2,53],[-82,8],[-136,-17],[-128,-38],[-15,11],[-145,-35],[-44,69],[246,28],[120,2],[93,16],[-9,28],[269,50],[17,47],[59,11],[49,-63]]]}
