{"type":"Topology","bbox":[-73.6133121080868,9.352926098323383,-73.40268937061563,9.489224698709792],"transform":{"scale":[0.000021064380185135446,0.000013631223160957003],"translate":[-73.6133121080868,9.352926098323383]},"objects":{"municipios":{"type":"GeometryCollection","geometries":[{"type":"Polygon","arcs":[[0,1,2,3]],"properties":{"codigo":"20178100000000000102","sector":"201781000000000001","pcode":"CO20178","area_m2":181163}},{"type":"Polygon","arcs":[[4,5,6,-1,7]],"properties":{"codigo":"20178100000000000202","sector":"201781000000000002","pcode":"CO20178","area_m2":101084}},{"type":"Polygon","arcs":[[8]],"properties":{"codigo":"20178200901016000103","sector":"201782009010160001","pcode":"CO20178","area_m2":70371}},{"type":"Polygon","arcs":[[9,10,11,12,-7]],"properties":{"codigo":"20178100000000000204","sector":"201781000000000002","pcode":"CO20178","area_m2":76064}},{"type":"Polygon","arcs":[[13,14,15,16]],"properties":{"codigo":"20178100000000000207","sector":"201781000000000002","pcode":"CO20178","area_m2":221319}},{"type":"Polygon","arcs":[[17,18,-15]],"properties":{"codigo":"20178100000000000208","sector":"201781000000000002","pcode":"CO20178","area_m2":125160}},{"type":"Polygon","arcs":[[19,20,21,22]],"properties":{"codigo":"20178200901008000102","sector":"201782009010080001","pcode":"CO20178","area_m2":131435}},{"type":"Polygon","arcs":[[23,24,25,26,-21]],"properties":{"codigo":"20178200901008000103","sector":"201782009010080001","pcode":"CO20178","area_m2":161967}},{"type":"Polygon","arcs":[[27,28,-25]],"properties":{"codigo":"20178200901008000104","sector":"201782009010080001","pcode":"CO20178","area_m2":73170}},{"type":"Polygon","arcs":[[-22,-27,29,30,31]],"properties":{"codigo":"20178200901008000202","sector":"201782009010080002","pcode":"CO20178","area_m2":179294}},{"type":"Polygon","arcs":[[-30,-26,-29,32,33]],"properties":{"codigo":"20178200901008000203","sector":"201782009010080002","pcode":"CO20178","area_m2":176480}},{"type":"Polygon","arcs":[[-4,34,35]],"properties":{"codigo":"20178100000000000101","sector":"201781000000000001","pcode":"CO20178","area_m2":226207}},{"type":"Polygon","arcs":[[36,37]],"properties":{"codigo":"20178200901016000102","sector":"201782009010160001","pcode":"CO20178","area_m2":215022}},{"type":"Polygon","arcs":[[-2,-13,38,39,40]],"properties":{"codigo":"20178100000000000103","sector":"201781000000000001","pcode":"CO20178","area_m2":154429}},{"type":"Polygon","arcs":[[41,42,-40]],"properties":{"codigo":"20178100000000000104","sector":"201781000000000001","pcode":"CO20178","area_m2":225995}},{"type":"Polygon","arcs":[[-12,43,44,-42,-39]],"properties":{"codigo":"20178100000000000105","sector":"201781000000000001","pcode":"CO20178","area_m2":294662}},{"type":"Polygon","arcs":[[45,-8,-36,46]],"properties":{"codigo":"20178100000000000201","sector":"201781000000000002","pcode":"CO20178","area_m2":152807}},{"type":"MultiPolygon","arcs":[[[47,48]],[[49]]],"properties":{"codigo":"20178200904006000102","sector":"201782009040060001","pcode":"CO20178","area_m2":181095}},{"type":"Polygon","arcs":[[50]],"properties":{"codigo":"20178200503017000101","sector":"201782005030170001","pcode":"CO20178","area_m2":229439}},{"type":"Polygon","arcs":[[51,-5,-46,52]],"properties":{"codigo":"20178100000000000203","sector":"201781000000000002","pcode":"CO20178","area_m2":454505}},{"type":"Polygon","arcs":[[53,-17,54,-10,-6,-52]],"properties":{"codigo":"20178100000000000205","sector":"201781000000000002","pcode":"CO20178","area_m2":614050}},{"type":"Polygon","arcs":[[-55,-16,-19,55,-44,-11]],"properties":{"codigo":"20178100000000000206","sector":"201781000000000002","pcode":"CO20178","area_m2":352961}},{"type":"MultiPolygon","arcs":[[[-48,56]],[[57]]],"properties":{"codigo":"20178200904006000101","sector":"201782009040060001","pcode":"CO20178","area_m2":256679}},{"type":"Polygon","arcs":[[-23,58,59]],"properties":{"codigo":"20178200901008000101","sector":"201782009010080001","pcode":"CO20178","area_m2":152901}},{"type":"Polygon","arcs":[[-32,60,61,-59]],"properties":{"codigo":"20178200901008000201","sector":"201782009010080002","pcode":"CO20178","area_m2":215092}},{"type":"Polygon","arcs":[[-61,-31,-34,62]],"properties":{"codigo":"20178200901008000204","sector":"201782009010080002","pcode":"CO20178","area_m2":214119}},{"type":"Polygon","arcs":[[63,64]],"properties":{"codigo":"20178200405018000101","sector":"201782004050180001","pcode":"CO20178","area_m2":288179}},{"type":"MultiPolygon","arcs":[[[65,66,67,68]],[[69]]],"properties":{"codigo":"20178200701014000101","sector":"201782007010140001","pcode":"CO20178","area_m2":439062}},{"type":"MultiPolygon","arcs":[[[-68,70]],[[71]]],"properties":{"codigo":"20178200701014000102","sector":"201782007010140001","pcode":"CO20178","area_m2":230010}},{"type":"Polygon","arcs":[[-66,72]],"properties":{"codigo":"20178200701014000103","sector":"201782007010140001","pcode":"CO20178","area_m2":425942}},{"type":"Polygon","arcs":[[73]],"properties":{"codigo":"20178200405015000101","sector":"201782004050150001","pcode":"CO20178","area_m2":282727}},{"type":"Polygon","arcs":[[-37,74,-64,75]],"properties":{"codigo":"20178200901016000101","sector":"201782009010160001","pcode":"CO20178","area_m2":273501}},{"type":"Polygon","arcs":[[76]],"properties":{"codigo":"20178200704019000101","sector":"201782007040190001","pcode":"CO20178","area_m2":210719}},{"type":"Polygon","arcs":[[77]],"properties":{"codigo":"20178200606021000101","sector":"201782006060210001","pcode":"CO20178","area_m2":149641}}]}},"arcs":[[[481,925],[-13,-132]],[[468,793],[-117,36],[-87,-2],[-249,41]],[[15,868],[-1,82],[78,12],[71,-15],[-8,69],[-1,47]],[[154,1063],[21,-19],[-6,-51],[26,-28],[13,11],[16,-40],[80,-6],[57,6],[120,-11]],[[675,895],[-20,-167]],[[655,728],[-13,5]],[[642,733],[-174,60]],[[481,925],[70,-13],[124,-17]],[[4378,1808],[3,-22],[32,3],[18,-45],[5,-38],[21,-62],[-73,-61],[-6,18],[-65,52],[-3,83],[37,27],[7,25],[11,-31],[-4,47],[17,4]],[[642,733],[-23,-116]],[[619,617],[-165,45]],[[454,662],[3,21]],[[457,683],[11,110]],[[982,336],[-47,-183],[26,-43],[-25,-27]],[[936,83],[-74,181],[-3,-46],[-23,-31],[-37,14],[-181,62]],[[618,263],[27,178]],[[645,441],[115,-31],[222,-74]],[[936,83],[21,-61],[-10,-22],[-105,125],[-12,5],[-51,-5],[-165,-8]],[[614,117],[-11,1],[0,47],[15,98]],[[6127,3188],[13,-5],[-2,-34],[44,-8],[0,-42],[-36,13],[-5,-72],[26,-8],[-36,-28]],[[6131,3004],[-100,27],[-108,42]],[[5923,3073],[11,147]],[[5934,3220],[193,-32]],[[6131,3004],[-18,-32],[1,-103],[-26,3],[-12,-23],[-3,-71],[-35,3]],[[6038,2781],[0,7],[-135,30]],[[5903,2818],[8,103]],[[5911,2921],[12,152]],[[6038,2781],[-11,-71],[-49,9],[-8,-67],[-15,-14],[-38,-8],[-15,-50],[-35,-26]],[[5867,2554],[21,105],[15,159]],[[5911,2921],[-125,35]],[[5786,2956],[9,103],[-48,11],[8,91],[-59,4],[8,93]],[[5704,3258],[226,-36],[4,-2]],[[5867,2554],[-40,2],[-1,102],[-22,58],[-17,30],[-69,-57],[-10,150]],[[5708,2839],[44,24],[-25,110],[59,-17]],[[154,1063],[27,19],[38,-4],[-1,-18],[22,14],[11,45],[47,20],[3,15],[80,0],[1,14],[44,-42],[39,81],[27,29],[16,-16]],[[508,1220],[-16,-126],[-11,-169]],[[4256,1136],[19,92],[33,-18],[37,161],[-67,17],[4,47],[-12,2]],[[4270,1437],[2,25],[62,-15],[-2,-43],[26,-8],[5,45],[22,8],[35,-13],[-9,-46],[-25,-37],[121,-55],[-23,-133],[-23,-106],[-68,9],[-75,-6],[-62,74]],[[457,683],[-111,36]],[[346,719],[-72,23],[-76,36],[-18,-38]],[[180,740],[-180,39],[6,88],[9,1]],[[346,719],[-4,-26],[-37,10],[-8,-66],[-30,-199],[6,-55],[-4,-73],[5,-81]],[[274,229],[-36,37],[-38,26],[0,131],[-5,10],[-1,79],[-84,9],[-83,23],[-6,11],[49,51],[38,25],[-5,20],[43,12],[34,77]],[[454,662],[-26,-260],[-18,-203]],[[410,199],[-35,0],[-28,-105],[-60,31],[-11,51],[-2,53]],[[746,942],[-17,-7],[-7,-46],[-47,6]],[[508,1220],[21,-5],[14,20],[-5,-39],[-15,-41],[-1,-34],[-11,5],[-9,-52],[113,-20],[16,26],[46,-14],[70,-47],[11,-26],[-12,-51]],[[9583,5029],[9,-6],[20,123],[30,143]],[[9642,5289],[87,-25],[-2,-23],[36,-43],[31,8],[69,-81],[-11,-36],[-69,-21],[-68,-34],[-60,8],[-11,-34],[-51,10],[-16,-21],[6,32]],[[9998,5139],[-12,-53],[-75,17],[5,75],[83,13],[-1,-52]],[[1313,7746],[8,-40],[13,-11],[45,23],[43,-218],[-38,-18],[-14,64],[-27,-41],[-68,-68],[-6,-97],[-45,-43],[-14,70],[59,62],[-9,89],[-8,18],[-53,21],[-15,-43],[-46,9],[4,55],[-21,6],[-1,55],[-15,49],[31,10],[-5,28],[59,29],[1,-31],[55,1],[20,47],[10,-24],[37,-2]],[[1243,375],[-64,104],[-29,81],[1,51],[-28,13],[-43,36],[0,14],[-119,5],[-53,6],[-68,22],[-12,-81],[-64,25],[5,35],[-114,42]],[[746,942],[42,-111],[27,-6],[87,-31],[16,32],[28,-2],[0,-19],[75,-7],[1,27],[68,-19],[47,-30],[82,-42],[37,-53],[8,4],[17,-82],[107,6],[-7,-128],[-6,-20],[-45,34],[-3,23],[-25,17],[-3,-50],[20,-156],[-3,-20],[-50,53],[-23,13]],[[1243,375],[8,-29],[15,-130],[-9,-48],[-226,222],[-32,14],[-17,-68]],[[645,441],[26,159],[-52,17]],[[614,117],[7,-84],[-4,-20],[-47,10],[-9,87],[-26,79],[-35,10],[-90,0]],[[9583,5029],[-100,40],[-51,14],[-18,-2],[-60,-44],[32,82],[-41,16],[14,91],[27,-9],[15,65],[-16,16],[8,39],[92,-17],[37,-18],[11,33],[79,-39],[30,-7]],[[9257,5269],[14,-23],[-11,-43],[-41,4],[-18,10],[-100,25],[-86,30],[1,16],[109,-25],[99,-9],[2,43],[27,2],[4,-30]],[[5934,3220],[8,70],[76,322]],[[6018,3612],[7,21],[62,-32],[-27,-98],[-25,-160],[75,-41],[10,-65],[35,-11],[-28,-38]],[[5704,3258],[10,103]],[[5714,3361],[65,27],[-16,61],[48,-1],[-1,92],[99,-16],[9,-55],[14,-15],[34,17],[-16,27],[17,29],[19,102],[32,-17]],[[5708,2839],[-9,133],[-17,37],[3,42],[-68,14],[0,12],[-83,16],[22,82],[-79,8],[2,30],[98,-25],[5,95],[2,92],[58,0],[16,-31],[56,17]],[[4098,1374],[-143,-28],[6,-66],[-19,-6]],[[3942,1274],[-29,-5],[-16,26],[-15,-4],[11,-100],[11,-31],[-47,-25],[-7,37],[-65,-18],[3,-29],[-32,6],[-2,32],[-40,-4],[-45,-14],[-86,-3],[0,30],[25,4],[-14,98],[83,17],[-18,60],[50,1],[43,-6],[31,8],[-41,200],[22,5],[-5,34],[10,2],[-38,195],[26,8],[33,-192],[26,2],[9,-36],[-27,-9],[28,-181],[10,-34],[117,30],[1,-13],[74,17],[-2,15],[58,10],[14,-33]],[[2751,8359],[-4,-67],[67,-21],[-7,-74],[13,-47],[-13,-42]],[[2807,8108],[-25,-3],[2,-30],[-24,-2],[10,-107],[1,-50],[-105,-38],[5,-34],[-29,-10],[-4,21],[-53,7],[-7,148],[-13,68],[28,12],[-20,111],[-29,-15],[-19,30],[3,27],[35,5],[-8,42],[-28,0],[-26,16],[1,21],[-23,-9],[-18,-25],[-15,41],[4,24],[21,-19],[6,28],[26,-7],[8,28],[22,12]],[[2533,8400],[34,22],[45,44],[-1,33],[12,-20]],[[2623,8479],[-2,-19],[95,-40],[-5,-46],[40,-15]],[[2667,7714],[-15,69],[29,11],[12,-69],[-26,-11]],[[2533,8400],[-11,62],[-44,-18],[-10,57],[43,19],[-49,266],[45,15],[3,-19],[-20,-30],[18,-53],[28,1],[-3,78],[46,14],[0,-20],[16,-56],[23,0],[-17,87],[19,7],[25,-82],[31,14],[-4,73],[30,8],[-2,-56],[16,6],[11,-26],[24,17],[-8,-74],[-16,-27],[-20,-12],[10,-38],[-45,-27],[-25,-28],[-1,-26],[-19,-26],[-4,-27]],[[2803,8801],[3,-20],[-42,-5],[12,24],[27,1]],[[2751,8359],[36,-10],[4,58],[36,-6],[-5,-62],[83,-13],[17,64],[13,-4],[10,-45],[65,-15],[15,16],[16,-10],[9,35],[38,-13],[-1,-65],[48,-2],[53,-14],[-2,-24],[39,-9],[-5,-67],[-68,13],[-10,-99],[-13,1],[5,-54],[28,-5],[-4,-49],[17,-12],[10,25],[54,-34],[25,-8],[-4,-34],[51,14],[-3,64],[17,3],[14,-86],[-67,-31],[-5,33],[-46,-39],[-91,-34],[-7,110],[18,1],[5,26],[-14,28],[-6,-24],[-78,56],[-4,-17],[-42,24],[-25,0],[7,30],[-18,12],[-159,21]],[[2463,1071],[-102,-24],[-35,-229],[-5,-50],[-28,-179],[4,57],[-76,5],[0,-20],[-47,-40],[2,59],[-15,5],[6,36],[-14,3],[8,137],[28,176],[10,27],[13,4],[3,-26],[35,8],[-6,30],[67,27],[0,-13],[54,9],[28,195],[24,-8],[-5,-45],[57,-78],[-6,-66]],[[4256,1136],[-56,67],[-26,-15],[-7,-34],[-67,26],[-6,-34],[-54,21],[-9,-48],[-24,14],[9,33],[-24,37],[-35,34],[-15,37]],[[4098,1374],[54,15],[59,49],[24,6],[35,-7]],[[7834,8830],[33,-37],[16,17],[39,-39],[-70,-130],[-155,-307],[-49,63],[41,100],[-35,14],[-30,-20],[8,-31],[-34,-22],[-14,43],[-14,-1],[3,53],[38,-41],[41,23],[15,56],[18,14],[32,-31],[29,69],[-41,47],[28,57],[33,83],[30,63],[38,-43]],[[2284,9999],[41,-7],[7,-48],[29,4],[0,-118],[-16,-71],[-23,-12],[-16,-24],[13,-61],[-26,-2],[-12,59],[-33,-16],[-12,41],[-20,-3],[-3,25],[-40,-13],[-2,28],[-38,-7],[20,109],[32,-3],[-18,28],[10,29],[47,-28],[21,1],[-4,20],[49,24],[-6,45]]]}
