{"type":"Topology","bbox":[-73.26908804755834,9.82264817390743,-73.20370123570058,10.059624698268708],"transform":{"scale":[0.000006539335119288269,0.000023700022438371663],"translate":[-73.26908804755834,9.82264817390743]},"objects":{"municipios":{"type":"GeometryCollection","geometries":[{"type":"Polygon","arcs":[[0,1,2]],"properties":{"codigo":"20013100000000000109","sector":"200131000000000001","pcode":"CO20013","area_m2":67238}},{"type":"Polygon","arcs":[[3,4,5,6]],"properties":{"codigo":"20013100000000000209","sector":"200131000000000002","pcode":"CO20013","area_m2":81392}},{"type":"Polygon","arcs":[[7,8,9,10,11]],"properties":{"codigo":"20013100000000000205","sector":"200131000000000002","pcode":"CO20013","area_m2":68498}},{"type":"Polygon","arcs":[[12,-6,13,14,15,16]],"properties":{"codigo":"20013100000000000101","sector":"200131000000000001","pcode":"CO20013","area_m2":432419}},{"type":"Polygon","arcs":[[17,18,19,20,-2]],"properties":{"codigo":"20013100000000000102","sector":"200131000000000001","pcode":"CO20013","area_m2":55491}},{"type":"Polygon","arcs":[[21,22,23,24,-19]],"properties":{"codigo":"20013100000000000103","sector":"200131000000000001","pcode":"CO20013","area_m2":44495}},{"type":"Polygon","arcs":[[25,-16,26,27,28,-23]],"properties":{"codigo":"20013100000000000104","sector":"200131000000000001","pcode":"CO20013","area_m2":143909}},{"type":"Polygon","arcs":[[29,30,-24,-29,31]],"properties":{"codigo":"20013100000000000105","sector":"200131000000000001","pcode":"CO20013","area_m2":93887}},{"type":"Polygon","arcs":[[32,-32,-28,33,34]],"properties":{"codigo":"20013100000000000106","sector":"200131000000000001","pcode":"CO20013","area_m2":85462}},{"type":"Polygon","arcs":[[35,-34,-27,36,37,-9,38]],"properties":{"codigo":"20013100000000000204","sector":"200131000000000002","pcode":"CO20013","area_m2":103764}},{"type":"Polygon","arcs":[[39,40,-30,-33,41]],"properties":{"codigo":"20013100000000000107","sector":"200131000000000001","pcode":"CO20013","area_m2":93526}},{"type":"Polygon","arcs":[[42,-18,-1,43]],"properties":{"codigo":"20013100000000000111","sector":"200131000000000001","pcode":"CO20013","area_m2":92052}},{"type":"Polygon","arcs":[[44,45,-11,46]],"properties":{"codigo":"20013100000000000201","sector":"200131000000000002","pcode":"CO20013","area_m2":118007}},{"type":"Polygon","arcs":[[-37,-15,47,48]],"properties":{"codigo":"20013100000000000203","sector":"200131000000000002","pcode":"CO20013","area_m2":69087}},{"type":"Polygon","arcs":[[49,50,-12,-46]],"properties":{"codigo":"20013100000000000206","sector":"200131000000000002","pcode":"CO20013","area_m2":94188}},{"type":"Polygon","arcs":[[-51,51,52,53,54,-39,-8]],"properties":{"codigo":"20013100000000000207","sector":"200131000000000002","pcode":"CO20013","area_m2":136892}},{"type":"Polygon","arcs":[[55,-48,-14,-5]],"properties":{"codigo":"20013100000000000208","sector":"200131000000000002","pcode":"CO20013","area_m2":60315}},{"type":"Polygon","arcs":[[56,-53,57,58,59]],"properties":{"codigo":"20013100000000000301","sector":"200131000000000003","pcode":"CO20013","area_m2":75884}},{"type":"Polygon","arcs":[[-57,60,61,-54]],"properties":{"codigo":"20013100000000000302","sector":"200131000000000003","pcode":"CO20013","area_m2":66763}},{"type":"Polygon","arcs":[[-55,-62,62,63,64]],"properties":{"codigo":"20013100000000000303","sector":"200131000000000003","pcode":"CO20013","area_m2":108571}},{"type":"Polygon","arcs":[[-65,65,66,-42,-35,-36]],"properties":{"codigo":"20013100000000000304","sector":"200131000000000003","pcode":"CO20013","area_m2":87661}},{"type":"Polygon","arcs":[[-61,-60,67,68,-63]],"properties":{"codigo":"20013100000000000305","sector":"200131000000000003","pcode":"CO20013","area_m2":98585}},{"type":"Polygon","arcs":[[-59,69,70,71,-68]],"properties":{"codigo":"20013100000000000306","sector":"200131000000000003","pcode":"CO20013","area_m2":207817}},{"type":"Polygon","arcs":[[72,73,74,-71]],"properties":{"codigo":"20013100000000000307","sector":"200131000000000003","pcode":"CO20013","area_m2":84532}},{"type":"Polygon","arcs":[[-64,75,76,77,-66]],"properties":{"codigo":"20013100000000000401","sector":"200131000000000004","pcode":"CO20013","area_m2":100098}},{"type":"Polygon","arcs":[[78,-76,-69,79,80,81]],"properties":{"codigo":"20013100000000000402","sector":"200131000000000004","pcode":"CO20013","area_m2":103028}},{"type":"Polygon","arcs":[[-79,82,83,-77]],"properties":{"codigo":"20013100000000000403","sector":"200131000000000004","pcode":"CO20013","area_m2":73175}},{"type":"Polygon","arcs":[[-82,84,85,86,87,88,-83]],"properties":{"codigo":"20013100000000000404","sector":"200131000000000004","pcode":"CO20013","area_m2":73533}},{"type":"Polygon","arcs":[[89,90,91,92,93,-87]],"properties":{"codigo":"20013100000000000405","sector":"200131000000000004","pcode":"CO20013","area_m2":96177}},{"type":"Polygon","arcs":[[94,95,-85,-81]],"properties":{"codigo":"20013100000000000406","sector":"200131000000000004","pcode":"CO20013","area_m2":35276}},{"type":"Polygon","arcs":[[96,97,-95,-80,-72]],"properties":{"codigo":"20013100000000000407","sector":"200131000000000004","pcode":"CO20013","area_m2":137062}},{"type":"Polygon","arcs":[[98,99,100,101,102,103]],"properties":{"codigo":"20013100000000000504","sector":"200131000000000005","pcode":"CO20013","area_m2":90339}},{"type":"Polygon","arcs":[[-86,-96,-98,104,105,-90]],"properties":{"codigo":"20013100000000000408","sector":"200131000000000004","pcode":"CO20013","area_m2":104854}},{"type":"Polygon","arcs":[[106,107]],"properties":{"codigo":"20013100000000000604","sector":"200131000000000006","pcode":"CO20013","area_m2":75393}},{"type":"Polygon","arcs":[[108,-93,109,110,111,112,113]],"properties":{"codigo":"20013100000000000508","sector":"200131000000000005","pcode":"CO20013","area_m2":269808}},{"type":"Polygon","arcs":[[114,-40,-67,115,116,-100,117]],"properties":{"codigo":"20013100000000000501","sector":"200131000000000005","pcode":"CO20013","area_m2":174162}},{"type":"Polygon","arcs":[[118,119,-99,120,121,122]],"properties":{"codigo":"20013100000000000502","sector":"200131000000000005","pcode":"CO20013","area_m2":124964}},{"type":"Polygon","arcs":[[-104,123,-121]],"properties":{"codigo":"20013100000000000503","sector":"200131000000000005","pcode":"CO20013","area_m2":45938}},{"type":"Polygon","arcs":[[-117,124,125,-101]],"properties":{"codigo":"20013100000000000505","sector":"200131000000000005","pcode":"CO20013","area_m2":78116}},{"type":"Polygon","arcs":[[-78,-84,-89,126,127,-125,-116]],"properties":{"codigo":"20013100000000000506","sector":"200131000000000005","pcode":"CO20013","area_m2":108054}},{"type":"Polygon","arcs":[[-88,-94,-109,128,-127]],"properties":{"codigo":"20013100000000000507","sector":"200131000000000005","pcode":"CO20013","area_m2":71360}},{"type":"Polygon","arcs":[[-126,-128,-129,-114,129,130,-102]],"properties":{"codigo":"20013100000000000509","sector":"200131000000000005","pcode":"CO20013","area_m2":321085}},{"type":"Polygon","arcs":[[-122,-124,-103,-131,131,132,133,-108,134]],"properties":{"codigo":"20013100000000000601","sector":"200131000000000006","pcode":"CO20013","area_m2":3357644}},{"type":"Polygon","arcs":[[-113,135,136,-132,-130]],"properties":{"codigo":"20013100000000000602","sector":"200131000000000006","pcode":"CO20013","area_m2":220022}},{"type":"Polygon","arcs":[[-137,137,-133]],"properties":{"codigo":"20013100000000000603","sector":"200131000000000006","pcode":"CO20013","area_m2":117962}},{"type":"Polygon","arcs":[[-110,-92,138]],"properties":{"codigo":"20013100000000000810","sector":"200131000000000008","pcode":"CO20013","area_m2":12491}},{"type":"Polygon","arcs":[[139,140,141,142]],"properties":{"codigo":"20013200906002000102","sector":"200132009060020001","pcode":"CO20013","area_m2":115806}},{"type":"Polygon","arcs":[[143,144,145]],"properties":{"codigo":"20013200906002000105","sector":"200132009060020001","pcode":"CO20013","area_m2":135521}},{"type":"Polygon","arcs":[[146,147,148,149,-143]],"properties":{"codigo":"20013200906002000107","sector":"200132009060020001","pcode":"CO20013","area_m2":133709}},{"type":"Polygon","arcs":[[150,151,152,153]],"properties":{"codigo":"20013200905003000102","sector":"200132009050030001","pcode":"CO20013","area_m2":231790}},{"type":"Polygon","arcs":[[154,155,-151,156]],"properties":{"codigo":"20013200905003000103","sector":"200132009050030001","pcode":"CO20013","area_m2":234618}},{"type":"Polygon","arcs":[[157,158,-155,159]],"properties":{"codigo":"20013200905003000104","sector":"200132009050030001","pcode":"CO20013","area_m2":260982}},{"type":"Polygon","arcs":[[-158,160]],"properties":{"codigo":"20013200905003000105","sector":"200132009050030001","pcode":"CO20013","area_m2":278050}},{"type":"MultiPolygon","arcs":[[[161]],[[162]]],"properties":{"codigo":"20013200105006000101","sector":"200132001050060001","pcode":"CO20013","area_m2":38049}},{"type":"Polygon","arcs":[[163]],"properties":{"codigo":"20013200201007000101","sector":"200132002010070001","pcode":"CO20013","area_m2":97487}},{"type":"Polygon","arcs":[[-144,164,165,166]],"properties":{"codigo":"20013200906002000104","sector":"200132009060020001","pcode":"CO20013","area_m2":135702}},{"type":"Polygon","arcs":[[-25,-31,-41,-115,167,-20]],"properties":{"codigo":"20013100000000000108","sector":"200131000000000001","pcode":"CO20013","area_m2":115863}},{"type":"Polygon","arcs":[[-17,-26,-22,-43,168,169]],"properties":{"codigo":"20013100000000000110","sector":"200131000000000001","pcode":"CO20013","area_m2":374652}},{"type":"Polygon","arcs":[[-4,170,-47,-10,-38,-49,-56]],"properties":{"codigo":"20013100000000000202","sector":"200131000000000002","pcode":"CO20013","area_m2":246522}},{"type":"Polygon","arcs":[[-166,171,-142,172,173]],"properties":{"codigo":"20013200906002000103","sector":"200132009060020001","pcode":"CO20013","area_m2":226415}},{"type":"Polygon","arcs":[[174,175,-74]],"properties":{"codigo":"20013100000000000308","sector":"200131000000000003","pcode":"CO20013","area_m2":141497}},{"type":"Polygon","arcs":[[-75,-176,176,177,-105,-97]],"properties":{"codigo":"20013100000000000409","sector":"200131000000000004","pcode":"CO20013","area_m2":591975}},{"type":"Polygon","arcs":[[-139,-91,-106,-178,178,-111]],"properties":{"codigo":"20013100000000000801","sector":"200131000000000008","pcode":"CO20013","area_m2":186617}},{"type":"Polygon","arcs":[[-169,-44,-3,-21,-168,-118,-120,179,180]],"properties":{"codigo":"20013100000000000901","sector":"200131000000000009","pcode":"CO20013","area_m2":1567210}},{"type":"Polygon","arcs":[[-119,181,-180]],"properties":{"codigo":"20013100000000000902","sector":"200131000000000009","pcode":"CO20013","area_m2":153895}},{"type":"Polygon","arcs":[[-173,-141,182]],"properties":{"codigo":"20013200906002000101","sector":"200132009060020001","pcode":"CO20013","area_m2":140542}},{"type":"Polygon","arcs":[[-146,183,184,-147,-172,-165]],"properties":{"codigo":"20013200906002000106","sector":"200132009060020001","pcode":"CO20013","area_m2":136204}},{"type":"Polygon","arcs":[[185,-149,186]],"properties":{"codigo":"20013200906002000108","sector":"200132009060020001","pcode":"CO20013","area_m2":265072}},{"type":"Polygon","arcs":[[187,-187,-148,-185]],"properties":{"codigo":"20013200906002000109","sector":"200132009060020001","pcode":"CO20013","area_m2":115937}},{"type":"Polygon","arcs":[[188,-153]],"properties":{"codigo":"20013200905003000101","sector":"200132009050030001","pcode":"CO20013","area_m2":172983}}]}},"arcs":[[[6426,9329],[-67,-16],[-107,-32],[-76,-24]],[[6176,9257],[-230,38],[93,46],[-132,28]],[[5907,9369],[143,34],[235,-62],[13,7],[30,-3],[48,-12],[50,-4]],[[7462,8871],[-119,-1],[-3,-3],[-144,-2],[-193,12]],[[7003,8877],[1,24],[-8,36],[2,20]],[[6998,8957],[191,1],[204,5]],[[7393,8963],[128,2],[3,-17],[-45,-1],[8,-16],[-7,-30],[-44,1],[26,-31]],[[5824,8773],[-16,72],[-27,42]],[[5781,8887],[337,2]],[[6118,8889],[11,-72]],[[6129,8817],[7,-43]],[[6136,8774],[-312,-1]],[[7497,9179],[-33,-8],[-36,-97],[-35,-111]],[[6998,8957],[-214,-3],[-89,-4]],[[6695,8950],[-120,24],[2,29],[-95,5],[-85,2],[-12,-3],[-111,-3],[-26,-3],[-132,-3]],[[6116,8998],[6,62],[-26,38],[-11,29]],[[6085,9127],[242,6],[110,-4],[5,-2],[79,2],[112,0],[29,7],[46,5],[84,-1],[65,7],[83,4],[76,6],[148,25],[72,2],[57,5],[49,-1],[6,-14],[78,1],[71,4]],[[6176,9257],[-22,-6]],[[6154,9251],[-20,4],[-213,0],[-221,-1]],[[5700,9254],[-1,36],[45,-1],[9,40],[17,13]],[[5770,9342],[32,3],[105,24]],[[6154,9251],[-89,-20],[6,-23]],[[6071,9208],[-73,-1],[-2,8],[-149,-25],[-58,-12],[-81,-14]],[[5708,9164],[-9,48],[1,16]],[[5700,9228],[0,26]],[[6071,9208],[9,-37],[5,-44]],[[6116,8998],[-318,-9]],[[5798,8989],[-12,42],[-2,25],[26,36],[-166,-10]],[[5644,9082],[-40,58],[35,10],[69,14]],[[5382,9068],[23,8],[-44,8],[-56,2],[11,43],[12,15],[29,80]],[[5357,9224],[106,3],[208,1],[29,0]],[[5644,9082],[-124,-8],[-138,-6]],[[5321,8974],[-37,65],[41,2],[26,15],[31,12]],[[5798,8989],[-234,-7]],[[5564,8982],[-243,-8]],[[5592,8885],[-10,48],[-18,49]],[[6116,8998],[-4,-20],[3,-49]],[[6115,8929],[3,-40]],[[5781,8887],[-189,-2]],[[5220,8971],[-16,27],[-23,22],[-81,107],[-15,37],[-29,56],[110,0]],[[5166,9220],[191,4]],[[5321,8974],[-101,-3]],[[6892,9322],[-18,-18],[-30,-16],[-283,2],[-3,-51],[-7,-45],[-179,11],[-228,4],[10,42]],[[6426,9329],[63,-6],[73,-10],[240,8],[90,1]],[[6549,8622],[-310,-24],[-66,-2]],[[6173,8596],[-30,50],[-4,24],[1,68],[-4,36]],[[6129,8817],[181,4],[7,-22],[69,1],[-15,-23],[71,-2],[-15,-27],[-85,4],[19,-14],[136,-71],[24,-17],[28,-28]],[[6695,8950],[-131,-18]],[[6564,8932],[-45,-2],[-404,-1]],[[6173,8596],[-177,-10]],[[5996,8586],[-20,30],[2,18],[-139,7],[2,20],[-10,42],[2,27],[-9,43]],[[5996,8586],[-34,-2],[-120,-22],[-106,-21]],[[5736,8541],[-58,28],[-5,30]],[[5673,8599],[-14,35],[-3,26],[-38,107],[-6,5]],[[5612,8772],[-20,113]],[[7003,8877],[-8,-13],[-42,0],[-2,10],[-107,3],[-9,2],[-96,1],[-124,-2],[-48,1],[6,27],[-9,26]],[[5450,8623],[70,1],[10,-22],[58,1],[85,-4]],[[5736,8541],[-45,-10],[-69,-10],[-216,-38]],[[5406,8483],[-68,34],[-19,61],[-23,60]],[[5296,8638],[68,-7],[30,-7],[56,-1]],[[5450,8623],[-47,127]],[[5403,8750],[-6,20],[215,2]],[[5403,8750],[-252,19],[-90,9]],[[5061,8778],[31,18],[46,32],[7,9],[-12,21],[-23,22]],[[5110,8880],[157,5],[93,0],[232,0]],[[5110,8880],[-55,53],[-30,30]],[[5025,8963],[177,8],[18,0]],[[5296,8638],[-85,6],[-78,14],[-155,18],[-80,9]],[[4898,8685],[82,44],[81,49]],[[5406,8483],[-186,-33],[-83,-15]],[[5137,8435],[16,24],[-201,23],[26,15],[-71,4],[-158,1],[-96,9],[-40,6]],[[4613,8517],[85,49],[62,38],[68,38],[48,31],[22,12]],[[5137,8435],[3,-2],[-56,-35]],[[5084,8398],[-239,18],[-206,20],[-15,-1],[-127,12]],[[4497,8447],[56,35],[60,35]],[[5061,8778],[-176,15],[-112,9]],[[4773,8802],[7,33],[2,77],[8,21],[-1,19]],[[4789,8952],[236,11]],[[4561,8820],[212,-18]],[[4898,8685],[-32,3],[-310,18],[-76,6]],[[4480,8712],[5,64],[1,50]],[[4486,8826],[75,-6]],[[4561,8820],[-12,15],[-26,19],[-64,41],[-22,7],[-18,31]],[[4419,8933],[94,5],[276,14]],[[4486,8826],[-121,-18],[-46,-17]],[[4319,8791],[-49,-9],[-69,43]],[[4201,8825],[-31,15],[-38,79]],[[4132,8919],[215,10]],[[4347,8929],[72,4]],[[4201,8825],[-66,-8],[-223,-27],[-120,-14],[-72,50]],[[3720,8826],[-24,17],[-16,19],[1,13]],[[3681,8875],[10,24]],[[3691,8899],[20,1],[280,12]],[[3991,8912],[141,7]],[[4480,8712],[-151,13],[-117,21]],[[4212,8746],[107,45]],[[4613,8517],[-75,6],[6,21],[-145,1],[5,61],[4,77],[-197,-2],[-2,23],[-17,35]],[[4192,8739],[20,7]],[[4362,9298],[328,0]],[[4690,9298],[70,-70],[27,-23]],[[4787,9205],[-54,-1],[-112,3],[-91,4]],[[4530,9211],[-24,1],[-94,12],[-61,11],[-84,24],[-300,-1]],[[3967,9258],[49,41]],[[4016,9299],[346,-1]],[[4192,8739],[-32,-6],[-252,-32]],[[3908,8701],[-12,7],[-200,-23],[-110,69],[120,13],[-72,50],[86,9]],[[2257,9307],[-51,44],[-57,42],[-32,26]],[[2117,9419],[97,15],[104,18],[48,-32],[-145,-16],[42,-28],[87,8],[61,7],[38,-23],[60,-43],[40,-24],[4,-8],[50,-25],[-198,-21],[-63,38],[-30,21],[-55,1]],[[3929,9024],[9,-11],[53,-101]],[[3691,8899],[-100,-3],[-47,-3],[0,-8],[-108,-15]],[[3436,8870],[-160,-18],[-168,-18],[-71,43],[-168,-21]],[[2869,8856],[22,73],[21,46],[6,23],[22,-1],[136,1]],[[3076,8998],[145,3],[29,3],[195,8],[166,7],[145,3],[1,2]],[[3757,9024],[172,0]],[[5158,9298],[-1,-16],[20,-2],[-11,-60]],[[5025,8963],[-76,83]],[[4949,9046],[-62,59],[-90,92],[-10,8]],[[4690,9298],[279,-1],[189,1]],[[4567,9583],[5,-25],[8,-13],[-9,-9],[-4,-19],[0,-45]],[[4567,9472],[-1,-28],[7,-18],[20,-29],[97,-99]],[[4362,9298],[15,76],[-117,3],[-144,5]],[[4116,9382],[43,20],[178,66],[156,57],[18,14],[2,15],[35,13],[16,16]],[[4564,9583],[3,0]],[[4016,9299],[68,59],[32,24]],[[4949,9046],[-122,-7],[-45,-6],[-16,-9]],[[4766,9024],[-49,23],[-37,26],[-82,65],[-68,73]],[[4347,8929],[-22,39],[-27,58]],[[4298,9026],[279,2],[120,-1],[69,-3]],[[3929,9024],[173,0],[196,2]],[[3757,9024],[17,33],[24,37],[17,39],[54,47]],[[3869,9180],[98,78]],[[3869,9180],[-577,-14],[-163,-3]],[[3129,9163],[-196,-3],[-96,-3],[-10,45],[-15,15],[-136,4],[-8,-6],[26,-10],[-26,-12],[-71,-8],[21,-20],[-59,-14],[34,-17],[19,-16],[16,-25],[4,-21]],[[2632,9072],[-385,5],[-250,1],[5,62],[-2,68],[6,53],[14,31],[237,15]],[[2117,9419],[-36,34],[-104,88],[-4,9],[-242,203],[-11,38],[502,60],[306,43],[43,-7],[62,-19],[44,-23],[115,-44],[310,61],[168,32],[-19,79],[21,2],[241,24],[241,-7],[496,-14],[321,-13],[-2,-73],[1,-62],[-3,-135],[0,-51],[-3,-61]],[[3076,8998],[-6,6],[-261,49],[-3,6]],[[2806,9059],[38,-1],[225,-1],[-3,19],[98,2],[-35,85]],[[2806,9059],[-56,5],[-11,8],[-107,0]],[[3681,8875],[-20,-1],[-98,-14],[-94,-12],[-33,22]],[[368,406],[-2,1],[103,60],[29,-1],[-1,21]],[[497,487],[139,-5],[108,-1],[116,2],[13,2],[253,6]],[[1126,491],[-13,-37],[-8,-66]],[[1105,388],[-6,-1],[-227,4],[-146,4],[-186,5],[-172,6]],[[1873,378],[11,65],[18,41],[10,43],[97,5],[5,48],[-2,16]],[[2012,596],[88,1],[187,3],[18,-31],[-15,0],[18,-27],[8,-28],[8,-62],[11,-4],[-95,-14],[-46,-13],[-267,-45],[-13,-1]],[[1914,375],[-41,3]],[[1105,388],[-5,-40],[-9,-44]],[[1091,304],[-204,1]],[[887,305],[-176,2],[-36,1],[-162,1],[-243,5]],[[270,314],[5,4],[-52,2],[45,27],[10,0],[90,59]],[[2786,1828],[-30,-64],[-11,-14],[-31,-52],[-22,-8],[-74,-50],[-33,-25],[-32,-32]],[[2553,1583],[-21,-28],[-32,4],[-161,29],[-42,15],[-139,66]],[[2158,1669],[23,17],[107,100],[13,24],[9,27],[90,-3],[20,48]],[[2420,1882],[182,-27],[124,-17],[60,-10]],[[3299,1759],[-27,-18],[-107,-105],[-5,-4],[-63,-78]],[[3097,1554],[-175,2],[-369,27]],[[2786,1828],[51,-8],[65,-7],[211,-28],[186,-26]],[[4154,1679],[-49,-33],[-102,6],[-96,3],[-8,-7],[-78,-46],[-48,-27],[1,-3],[-41,-24]],[[3733,1548],[-37,-19],[-248,5],[-170,8],[-175,13],[-6,-1]],[[3299,1759],[101,-13],[72,-6],[334,-31],[348,-30]],[[4154,1679],[631,-53],[156,-13],[109,-12],[-51,-12],[-94,-17],[-165,-13],[-37,-9],[-9,-7],[10,-23],[-31,-9],[-259,14],[-11,0],[-61,-28],[-67,-25],[-364,36],[-6,33],[-58,5],[-10,-8],[-104,10]],[[1693,4841],[23,-14],[-17,-2],[11,-8],[-66,-6],[7,-5],[-35,-2],[-4,8],[-31,-3],[-9,6],[-343,-30],[2,-6],[-100,-9],[-24,36],[114,8],[10,-10],[52,1],[56,9],[7,18],[49,-1],[185,-2],[19,23],[48,8],[35,1],[11,-20]],[[1921,4831],[-118,-12],[-22,13],[170,20],[29,-15],[-59,-6]],[[9855,9185],[38,-14],[29,2],[24,-22],[21,0],[32,-14],[-139,-14],[-46,-2],[-194,-15],[35,-29],[-186,-10],[-84,2],[-79,-15],[-57,-9],[-93,-27],[-63,-17],[-34,-5],[-49,13],[20,18],[-8,20],[-43,20],[113,12],[106,2],[139,11],[119,11],[-25,19],[56,10],[186,21],[-12,20],[71,4],[23,-3],[100,11]],[[1873,378],[-148,0],[-153,2]],[[1572,380],[3,92],[10,41],[54,72],[22,5]],[[1661,590],[79,2],[272,4]],[[5158,9298],[-7,17],[258,12],[-4,11],[112,6],[231,11],[22,-13]],[[6892,9322],[20,1],[17,10],[27,5],[104,9],[132,5],[143,3],[78,-1],[86,-8],[41,0]],[[7540,9346],[-32,-138],[-11,-29]],[[7462,8871],[-13,-10],[-55,-3],[-41,-10],[-55,-9],[-98,-10],[-63,-4],[-113,-9],[-121,-5],[-107,-8],[-77,-9],[-30,-6],[6,-7],[-46,-6],[-19,3],[-11,-8],[19,-20],[-58,-5],[6,-7],[4,-70],[-2,-33],[5,-6],[-44,-7]],[[1572,380],[-198,4],[-143,1],[-126,3]],[[1126,491],[3,68],[5,25],[-5,15],[-17,19]],[[1112,618],[90,4],[-4,16],[57,2],[-24,17],[37,5],[40,-19],[55,0],[6,-24],[71,3],[67,9],[153,2],[-3,-9],[56,1],[-52,-35]],[[5084,8398],[-55,-36],[-62,-42],[-107,6],[-2,1],[-109,9],[-194,11],[-51,-17],[-31,4],[-14,-7],[27,-5],[-81,-48],[-56,6],[-71,-35],[-122,11],[5,6]],[[4161,8262],[55,21],[14,13],[124,69],[37,19],[106,63]],[[4161,8262],[3,7],[-24,38],[-213,9],[-148,2],[-171,6],[-50,2],[8,6],[44,54],[115,-4],[-94,142],[-72,91],[-26,-3],[-57,34],[176,22]],[[3652,8668],[256,33]],[[3652,8668],[-87,44],[-56,-6],[-35,15],[-74,-8],[-11,7],[-160,-17],[-15,8],[-28,-4],[-28,22],[-54,25],[-81,29],[-19,10],[-118,41],[-18,10],[1,12]],[[4567,9472],[104,0],[59,-2],[228,-2],[24,4],[113,-4],[128,-6],[63,2],[2,-6],[25,2],[2,14],[-25,67],[-12,52]],[[5278,9593],[235,6],[239,4],[-9,20],[8,21],[-22,11],[-23,35],[64,8],[53,29],[344,1],[85,-20],[242,-52],[271,-58],[49,-8],[27,22],[36,15],[119,35],[34,13],[120,74],[20,-3],[52,-14],[28,-10],[79,-35],[102,-54],[168,-54],[-59,-233]],[[4567,9583],[51,-9],[37,1],[266,4],[160,6],[158,4],[39,4]],[[497,487],[25,51],[91,-1],[27,71],[66,1],[37,6],[68,5],[50,0],[101,14],[54,-3],[52,2],[36,-16],[8,1]],[[1914,375],[2,-10],[69,-10],[-93,-6],[3,-28],[43,0],[-9,-11],[-75,-7],[-18,-7],[-173,-24]],[[1663,272],[-153,0],[-20,29],[-246,3],[-35,-1],[-118,1]],[[888,169],[2,-11],[-368,3],[-14,-43],[-52,-64],[-54,1],[-27,-55],[-11,1],[-328,44],[-36,5],[131,49],[-26,5],[126,47],[112,47],[9,9],[-85,10],[8,15],[-113,5],[4,22],[158,-5],[16,31],[-100,3],[30,26]],[[887,305],[-4,-57],[2,-72],[3,-7]],[[1663,272],[-1,-5],[-180,-25],[-160,-18],[-29,-2],[-161,-21],[-12,-4],[-232,-28]],[[2158,1669],[-177,83],[-103,47],[10,13],[-1,28],[-81,14],[-159,27],[-12,5],[92,10],[157,15],[77,7],[150,6],[57,-5],[252,-37]]]}
