{"type":"Topology","bbox":[-73.752571496928,10.360507758838178,-73.48584109912787,10.561090574428766],"transform":{"scale":[0.000026675707350748217,0.000020060287587817558],"translate":[-73.752571496928,10.360507758838178]},"objects":{"municipios":{"type":"GeometryCollection","geometries":[{"type":"Polygon","arcs":[[0,1]],"properties":{"codigo":"20570200603003000101","sector":"205702006030030001","pcode":"CO20570","area_m2":72474}},{"type":"Polygon","arcs":[[2]],"properties":{"codigo":"20570200705002000101","sector":"205702007050020001","pcode":"CO20570","area_m2":111440}},{"type":"Polygon","arcs":[[-1,3,4,5]],"properties":{"codigo":"20570200603003000102","sector":"205702006030030001","pcode":"CO20570","area_m2":99102}},{"type":"Polygon","arcs":[[-5,6]],"properties":{"codigo":"20570200603003000103","sector":"205702006030030001","pcode":"CO20570","area_m2":31819}},{"type":"Polygon","arcs":[[7]],"properties":{"codigo":"20570200602005000101","sector":"205702006020050001","pcode":"CO20570","area_m2":19607}},{"type":"Polygon","arcs":[[8,9,10]],"properties":{"codigo":"20570100000000000101","sector":"205701000000000001","pcode":"CO20570","area_m2":454363}},{"type":"Polygon","arcs":[[11,12]],"properties":{"codigo":"20570100000000000104","sector":"205701000000000001","pcode":"CO20570","area_m2":278552}},{"type":"Polygon","arcs":[[13]],"properties":{"codigo":"20570100000000000106","sector":"205701000000000001","pcode":"CO20570","area_m2":45473}},{"type":"Polygon","arcs":[[14,-10,15]],"properties":{"codigo":"20570100000000000102","sector":"205701000000000001","pcode":"CO20570","area_m2":673538}},{"type":"Polygon","arcs":[[16,17,-16,-9,18,-12,19]],"properties":{"codigo":"20570100000000000103","sector":"205701000000000001","pcode":"CO20570","area_m2":486117}},{"type":"Polygon","arcs":[[-17,20]],"properties":{"codigo":"20570100000000000105","sector":"205701000000000001","pcode":"CO20570","area_m2":119112}},{"type":"Polygon","arcs":[[21]],"properties":{"codigo":"20570200402001000101","sector":"205702004020010001","pcode":"CO20570","area_m2":39925}},{"type":"MultiPolygon","arcs":[[[22]],[[23]]],"properties":{"codigo":"20570200203004000101","sector":"205702002030040001","pcode":"CO20570","area_m2":44907}},{"type":"MultiPolygon","arcs":[[[24]],[[25]]],"properties":{"codigo":"20570200402006000101","sector":"205702004020060001","pcode":"CO20570","area_m2":73566}}]}},"arcs":[[[126,1449],[-25,-8],[-70,-29],[-16,58]],[[15,1470],[23,-6],[-37,152],[41,17],[9,-38],[28,-125],[40,16],[10,-37],[-3,0]],[[9662,205],[5,-54],[19,3],[40,-21],[12,-2],[16,12],[26,-6],[32,-24],[12,-16],[12,-6],[-2,-14],[20,0],[63,-18],[3,16],[21,-10],[18,-2],[19,7],[-2,20],[23,-6],[-3,-23],[-4,-1],[0,-19],[-34,-21],[-16,-20],[-13,9],[-30,39],[-26,0],[4,22],[-24,6],[-29,3],[-13,8],[-9,-41],[-61,27],[-27,10],[-15,19],[-44,25],[-9,0],[-12,7],[4,21],[-23,9],[8,18],[17,20],[18,13],[4,-10]],[[126,1449],[8,-38],[3,-1],[10,-42],[9,-21],[4,2],[3,-24]],[[163,1325],[-34,-5],[2,-8],[-31,-12]],[[100,1300],[-14,43],[-28,-14],[-1,-6],[-16,-7],[-26,25],[-3,58],[-12,77],[15,-6]],[[163,1325],[2,-31],[-1,-55],[-42,-20],[-13,40],[1,7],[-10,34]],[[474,2064],[-4,-7],[-8,5],[6,22],[13,70],[-4,12],[10,5],[21,0],[19,-16],[1,-17],[-33,-8],[-4,-27],[-4,-1],[-6,-37],[-7,-1]],[[6147,2952],[30,-53],[34,9],[19,-17]],[[6230,2891],[-12,-5],[-18,-13],[-16,-18],[7,-32],[-5,-23],[-14,-22],[-12,-13],[-68,-56],[-17,-6],[0,-15],[-17,-8],[-19,-36],[-6,-7],[7,-26],[-56,-7],[-16,-4],[-49,7],[-53,13],[-10,0],[-41,-19],[-32,-1],[-25,-12],[-22,-20],[-19,-2]],[[5717,2566],[-22,1],[0,25],[-4,24],[4,7],[26,8],[2,-15],[20,2],[8,-13],[46,7],[31,12],[-2,13],[6,0],[-3,17],[49,2],[14,-1],[17,6],[36,-4],[13,-4],[22,5],[-12,81],[15,10],[-25,55],[-4,5],[-10,-13],[-5,0],[-33,24],[-16,20],[2,23],[29,30],[13,17],[19,6],[8,-2],[7,8],[34,11],[8,5],[17,0],[17,-17],[7,-15],[2,-16],[10,-2],[69,75],[9,-1],[6,-10]],[[6583,3180],[-10,-2],[-37,-22],[-17,-15],[-15,33],[-9,-3],[-15,-13],[-8,10]],[[6472,3168],[6,8],[-14,23],[-17,24],[-4,12],[20,-18],[26,27],[-35,37],[-7,14],[-22,-5],[-5,22],[-9,20],[-5,24],[10,11],[20,11],[22,-2],[11,9],[11,-2],[8,-11],[13,21],[-6,9],[5,62],[15,4],[12,21],[15,49],[15,1],[-1,20],[7,0],[15,-21],[-9,-24],[0,-11],[11,-10],[25,-13],[-3,-16],[-16,-18],[-9,-17],[1,-9],[8,-25],[1,-47],[-4,-28],[19,-13],[-18,-8],[-2,-5],[31,-93],[-30,-21]],[[6666,2930],[-5,-9],[-15,1],[-8,-22],[-13,-5],[-24,26],[-14,32],[4,12],[14,19],[4,28],[-8,29],[0,10],[10,13],[13,-26],[29,-50],[7,-22],[6,-36]],[[6301,2650],[20,-13],[-31,-52],[-9,11],[-13,-18],[12,-15],[-23,-21],[4,-7],[-11,-8],[-20,-7],[-5,-9],[-30,-10],[-24,22],[-30,-38],[-39,-35],[-3,-21],[-14,-2],[-60,-53],[-6,-7],[-9,-31],[-10,6],[-8,15],[-20,24],[-7,20],[-11,-6],[-8,9],[12,12],[-10,1],[-16,19],[-9,-3],[-19,44],[-16,-14],[-12,23],[10,9],[15,30],[12,5],[-5,22],[9,5],[-8,19],[-8,-3],[-7,15],[-10,-3],[-2,-8],[-14,3],[2,22],[-12,3],[-10,-10],[-52,-20],[-16,-2],[-49,-21],[-16,-13],[2,27]],[[6230,2891],[23,-22],[39,-48],[-63,-88],[27,-36],[22,-26],[-4,-10],[10,-7],[5,5],[12,-9]],[[6467,2903],[-1,0],[-51,-72],[-52,-66],[11,-15]],[[6374,2750],[-22,-22],[-41,-25],[-12,-39],[2,-14]],[[6147,2952],[5,2],[46,-18],[69,-6],[20,-10],[19,16],[17,5],[14,19],[4,21],[-18,33],[-12,17],[12,9],[-2,5],[23,13],[10,0],[37,48],[28,-30],[33,50],[-4,4],[24,38]],[[6583,3180],[1,-7],[-24,-18],[-19,-32],[-10,-28],[8,4],[19,-30],[-12,-5],[-31,-45],[-5,-18],[-12,-20],[-4,-29],[-13,-16],[1,-14],[-15,-19]],[[6467,2903],[7,-8],[7,-46],[-5,-7],[26,-31],[-15,-21],[10,-32],[-1,-11],[17,-26],[-18,-21],[-13,-24],[-6,-6],[8,-10],[-4,-6],[-19,26],[-19,-8],[-13,17],[-55,61]],[[6599,5013],[15,-3],[-13,-4],[6,-6],[-2,-18],[-7,1],[-5,-15],[-11,-7],[-9,16],[-2,-19],[8,-7],[15,-3],[7,-16],[11,-3],[5,18],[10,-2],[1,7],[15,-4],[1,-17],[-10,-1],[-1,8],[-12,0],[-2,-18],[-17,0],[-5,-13],[6,-1],[25,-31],[-15,-4],[-10,-21],[-9,16],[-19,17],[-9,16],[3,7],[-12,18],[4,10],[-2,25],[-5,6],[4,32],[15,10],[3,-14],[14,10],[-9,5],[8,10],[3,18],[7,-23]],[[6220,9998],[36,-12],[-6,-46],[-7,-6],[-16,6],[-27,4],[-9,10],[-5,18],[8,25],[26,1]],[[6138,9899],[11,1],[-5,-15],[-13,-4],[-6,-49],[-32,15],[-4,12],[-6,0],[-9,17],[2,21],[20,5],[12,13],[30,-16]],[[6527,4619],[3,-11],[-8,-3],[-2,9],[-9,-4],[-5,21],[13,15],[10,1],[-2,-28]],[[6605,4832],[0,-10],[37,-16],[4,-10],[5,10],[13,-9],[12,20],[8,-11],[-11,-18],[4,-6],[19,19],[16,-9],[24,1],[27,-18],[7,-22],[0,-14],[-10,-8],[-22,6],[6,32],[-19,-6],[-7,11],[-7,-22],[-8,5],[-6,-11],[-5,13],[-37,-17],[-15,-5],[3,-8],[-8,-6],[-9,22],[-18,-14],[9,-14],[-8,-6],[4,-12],[-25,-25],[-5,13],[14,44],[14,35],[-4,18],[-16,-4],[-10,35],[-8,8],[5,14],[18,-6],[7,12],[2,-11]]]}
