{"type":"Topology","bbox":[-75.386358532249,8.006289828341451,-75.24380793906113,8.112524507818028],"transform":{"scale":[0.000014256484967284473,0.000010624530400697764],"translate":[-75.386358532249,8.006289828341451]},"objects":{"municipios":{"type":"GeometryCollection","geometries":[{"type":"Polygon","arcs":[[0]],"properties":{"codigo":"23350200103017000101","sector":"233502001030170001","pcode":"CO23350","area_m2":90355}},{"type":"Polygon","arcs":[[1,2,3,4]],"properties":{"codigo":"23350100000000000101","sector":"233501000000000001","pcode":"CO23350","area_m2":85027}},{"type":"Polygon","arcs":[[5,6,7,-3]],"properties":{"codigo":"23350100000000000102","sector":"233501000000000001","pcode":"CO23350","area_m2":124873}},{"type":"Polygon","arcs":[[-5,8,9]],"properties":{"codigo":"23350100000000000105","sector":"233501000000000001","pcode":"CO23350","area_m2":88942}},{"type":"Polygon","arcs":[[10]],"properties":{"codigo":"23350200201003000101","sector":"233502002010030001","pcode":"CO23350","area_m2":89148}},{"type":"Polygon","arcs":[[11]],"properties":{"codigo":"23350200104007000101","sector":"233502001040070001","pcode":"CO23350","area_m2":36488}},{"type":"Polygon","arcs":[[12,13,14,15,-7]],"properties":{"codigo":"23350100000000000103","sector":"233501000000000001","pcode":"CO23350","area_m2":118729}},{"type":"Polygon","arcs":[[16,17,18]],"properties":{"codigo":"23350100000000000106","sector":"233501000000000001","pcode":"CO23350","area_m2":83730}},{"type":"Polygon","arcs":[[-18,19,-14,20]],"properties":{"codigo":"23350100000000000104","sector":"233501000000000001","pcode":"CO23350","area_m2":143904}},{"type":"Polygon","arcs":[[-20,-17,21,22,-15]],"properties":{"codigo":"23350100000000000107","sector":"233501000000000001","pcode":"CO23350","area_m2":176117}},{"type":"Polygon","arcs":[[-9,-4,-8,-16,-23,23]],"properties":{"codigo":"23350100000000000108","sector":"233501000000000001","pcode":"CO23350","area_m2":216907}},{"type":"Polygon","arcs":[[24]],"properties":{"codigo":"23350200203015000101","sector":"233502002030150001","pcode":"CO23350","area_m2":70382}}]}},"arcs":[[[2122,5745],[16,-11],[192,-149],[36,-20],[53,-16],[-1,-13],[-75,19],[-19,-87],[-110,65],[-120,42],[-48,35],[-20,24],[-19,39],[-23,78],[30,2],[9,-20],[22,-6],[40,16],[0,14],[37,-12]],[[3694,4502],[-57,-153]],[[3637,4349],[-54,38],[-117,74],[-68,28]],[[3398,4489],[19,89],[25,34]],[[3442,4612],[17,-13],[28,47],[207,-144]],[[3637,4349],[-70,-190]],[[3567,4159],[-21,-47],[-41,24],[-170,89],[-7,6]],[[3328,4231],[3,29],[37,82],[26,113],[4,34]],[[3442,4612],[13,24]],[[3455,4636],[38,68],[39,83],[8,31],[64,-47],[34,-14],[123,-84],[-67,-171]],[[115,2018],[22,-71],[-7,-49],[38,-84],[45,-47],[34,-21],[60,-12],[-75,-112],[-14,-28],[-218,169],[34,27],[16,22],[27,81],[2,50],[-10,88],[34,29],[12,-42]],[[6439,9997],[36,-77],[8,-37],[-16,19],[-40,11],[-10,-28],[8,-35],[-18,-72],[-48,27],[12,27],[-29,25],[-40,45],[-15,38],[-26,15],[6,14],[20,-11],[39,13],[7,-13],[68,-6],[12,33],[26,12]],[[3567,4159],[13,-10],[-12,-27],[89,-100]],[[3657,4022],[-7,-17],[47,-59],[-15,-28],[-49,-126]],[[3633,3792],[-99,113],[-79,94],[-143,165]],[[3312,4164],[13,36],[3,31]],[[3834,3371],[-41,45],[-199,243],[61,108]],[[3655,3767],[146,-166],[104,-121]],[[3905,3480],[-23,-46],[-25,29],[-23,-92]],[[3655,3767],[-22,25]],[[3657,4022],[27,-32],[6,10],[26,-40],[39,-39],[-4,-9],[126,-139],[5,10],[37,-14],[-15,-97],[2,-37],[103,-66],[-37,-116],[-20,-24],[-47,51]],[[3834,3371],[-18,-65],[-121,150],[-147,169],[-204,252],[-21,52],[5,90],[-6,38],[-16,19],[-11,66],[14,18]],[[3309,4160],[3,4]],[[3309,4160],[-40,50],[-156,183],[-54,60],[92,149],[97,151],[46,8],[7,-23],[83,-130],[51,58],[20,-30]],[[9783,346],[34,-22],[-13,-28],[100,-87],[23,-8],[6,13],[66,-53],[-15,-37],[-36,31],[-48,-113],[-44,-42],[-30,47],[-22,1],[3,14],[-37,101],[-13,78],[35,15],[6,14],[-31,28],[-6,-15],[-26,23],[4,30],[18,-15],[10,21],[16,4]]]}
