{"type":"Topology","bbox":[-75.88216496372559,7.807382791604551,-75.39979214734257,8.12505800399095],"transform":{"scale":[0.000048242105848886856,0.0000317706983084708],"translate":[-75.88216496372559,7.807382791604551]},"objects":{"municipios":{"type":"GeometryCollection","geometries":[{"type":"Polygon","arcs":[[0,1,2,3,4,5,6]],"properties":{"codigo":"23466100000000000104","sector":"234661000000000001","pcode":"CO23466","area_m2":213911}},{"type":"Polygon","arcs":[[7,8,9,10,11,12]],"properties":{"codigo":"23466100000000000201","sector":"234661000000000002","pcode":"CO23466","area_m2":112478}},{"type":"Polygon","arcs":[[13,14,15,-9,16]],"properties":{"codigo":"23466100000000000202","sector":"234661000000000002","pcode":"CO23466","area_m2":118229}},{"type":"Polygon","arcs":[[17,18,19,20,21,-10,-16]],"properties":{"codigo":"23466100000000000208","sector":"234661000000000002","pcode":"CO23466","area_m2":72274}},{"type":"Polygon","arcs":[[22,23,24,25,-20]],"properties":{"codigo":"23466100000000000209","sector":"234661000000000002","pcode":"CO23466","area_m2":272189}},{"type":"Polygon","arcs":[[26,-24]],"properties":{"codigo":"23466100000000000210","sector":"234661000000000002","pcode":"CO23466","area_m2":72642}},{"type":"Polygon","arcs":[[27,28,29,30]],"properties":{"codigo":"23466100000000000301","sector":"234661000000000003","pcode":"CO23466","area_m2":94626}},{"type":"Polygon","arcs":[[31,32,-30,33,-3]],"properties":{"codigo":"23466100000000000302","sector":"234661000000000003","pcode":"CO23466","area_m2":78020}},{"type":"Polygon","arcs":[[34,-32,-2,35,36]],"properties":{"codigo":"23466100000000000304","sector":"234661000000000003","pcode":"CO23466","area_m2":99730}},{"type":"Polygon","arcs":[[37,38,-36,-1,39,40]],"properties":{"codigo":"23466100000000000305","sector":"234661000000000003","pcode":"CO23466","area_m2":815622}},{"type":"Polygon","arcs":[[41,42,43,44,-37,-39]],"properties":{"codigo":"23466100000000000306","sector":"234661000000000003","pcode":"CO23466","area_m2":149839}},{"type":"Polygon","arcs":[[45,46,47,-44]],"properties":{"codigo":"23466100000000000307","sector":"234661000000000003","pcode":"CO23466","area_m2":55688}},{"type":"Polygon","arcs":[[48,49,50]],"properties":{"codigo":"23466100000000000601","sector":"234661000000000006","pcode":"CO23466","area_m2":64152}},{"type":"Polygon","arcs":[[-26,51,52,-21]],"properties":{"codigo":"23466100000000000402","sector":"234661000000000004","pcode":"CO23466","area_m2":50999}},{"type":"Polygon","arcs":[[53,54,55,56,57]],"properties":{"codigo":"23466100000000000406","sector":"234661000000000004","pcode":"CO23466","area_m2":509294}},{"type":"Polygon","arcs":[[-56,58,59,60,61]],"properties":{"codigo":"23466100000000000407","sector":"234661000000000004","pcode":"CO23466","area_m2":108442}},{"type":"Polygon","arcs":[[62,63,64,65,-61]],"properties":{"codigo":"23466100000000000408","sector":"234661000000000004","pcode":"CO23466","area_m2":109583}},{"type":"Polygon","arcs":[[-11,-22,-53,66]],"properties":{"codigo":"23466100000000000404","sector":"234661000000000004","pcode":"CO23466","area_m2":53407}},{"type":"Polygon","arcs":[[67,68,69,70,-63,-60]],"properties":{"codigo":"23466100000000000411","sector":"234661000000000004","pcode":"CO23466","area_m2":108734}},{"type":"Polygon","arcs":[[71,72,73,74,75]],"properties":{"codigo":"23466100000000000509","sector":"234661000000000005","pcode":"CO23466","area_m2":60515}},{"type":"Polygon","arcs":[[76,77,78,-58,79,80]],"properties":{"codigo":"23466100000000000502","sector":"234661000000000005","pcode":"CO23466","area_m2":402902}},{"type":"Polygon","arcs":[[-78,81,82,83,84,85,-72,86]],"properties":{"codigo":"23466100000000000503","sector":"234661000000000005","pcode":"CO23466","area_m2":207319}},{"type":"Polygon","arcs":[[-87,-76,87,-54,-79]],"properties":{"codigo":"23466100000000000504","sector":"234661000000000005","pcode":"CO23466","area_m2":75465}},{"type":"Polygon","arcs":[[-88,-75,88,-68,-59,-55]],"properties":{"codigo":"23466100000000000505","sector":"234661000000000005","pcode":"CO23466","area_m2":82141}},{"type":"Polygon","arcs":[[-74,89,90,-69,-89]],"properties":{"codigo":"23466100000000000506","sector":"234661000000000005","pcode":"CO23466","area_m2":92457}},{"type":"Polygon","arcs":[[91,92,-70,-91]],"properties":{"codigo":"23466100000000000507","sector":"234661000000000005","pcode":"CO23466","area_m2":63226}},{"type":"Polygon","arcs":[[-86,93,-92,-90,-73]],"properties":{"codigo":"23466100000000000508","sector":"234661000000000005","pcode":"CO23466","area_m2":78971}},{"type":"Polygon","arcs":[[94]],"properties":{"codigo":"23466200903001000101","sector":"234662009030010001","pcode":"CO23466","area_m2":160372}},{"type":"Polygon","arcs":[[95,96]],"properties":{"codigo":"23466201102005000102","sector":"234662011020050001","pcode":"CO23466","area_m2":143853}},{"type":"Polygon","arcs":[[97]],"properties":{"codigo":"23466201001008000101","sector":"234662010010080001","pcode":"CO23466","area_m2":168442}},{"type":"Polygon","arcs":[[98]],"properties":{"codigo":"23466201005037000101","sector":"234662010050370001","pcode":"CO23466","area_m2":42570}},{"type":"Polygon","arcs":[[99,100,101,102]],"properties":{"codigo":"23466100000000000204","sector":"234661000000000002","pcode":"CO23466","area_m2":58433}},{"type":"Polygon","arcs":[[103,104,105]],"properties":{"codigo":"23466201702006000106","sector":"234662017020060001","pcode":"CO23466","area_m2":74295}},{"type":"Polygon","arcs":[[106,107,108,109]],"properties":{"codigo":"23466100000000000101","sector":"234661000000000001","pcode":"CO23466","area_m2":148327}},{"type":"Polygon","arcs":[[110,111,112,-49,113]],"properties":{"codigo":"23466100000000000602","sector":"234661000000000006","pcode":"CO23466","area_m2":63975}},{"type":"Polygon","arcs":[[-6,114,115,-107,116,117]],"properties":{"codigo":"23466100000000000102","sector":"234661000000000001","pcode":"CO23466","area_m2":144110}},{"type":"Polygon","arcs":[[-40,-7,-118,118]],"properties":{"codigo":"23466100000000000103","sector":"234661000000000001","pcode":"CO23466","area_m2":1299960}},{"type":"Polygon","arcs":[[-102,119,120,-4,-34,-29,121]],"properties":{"codigo":"23466100000000000105","sector":"234661000000000001","pcode":"CO23466","area_m2":111560}},{"type":"Polygon","arcs":[[-121,122,123,-115,-5]],"properties":{"codigo":"23466100000000000106","sector":"234661000000000001","pcode":"CO23466","area_m2":81711}},{"type":"Polygon","arcs":[[124,125,-116,-124]],"properties":{"codigo":"23466100000000000107","sector":"234661000000000001","pcode":"CO23466","area_m2":129837}},{"type":"Polygon","arcs":[[-13,126,-108,-126,127]],"properties":{"codigo":"23466100000000000108","sector":"234661000000000001","pcode":"CO23466","area_m2":164668}},{"type":"Polygon","arcs":[[128,-17,-8,-128,-125,-123,-120,-101]],"properties":{"codigo":"23466100000000000203","sector":"234661000000000002","pcode":"CO23466","area_m2":114755}},{"type":"Polygon","arcs":[[129,130,131,-103,-122,-28]],"properties":{"codigo":"23466100000000000205","sector":"234661000000000002","pcode":"CO23466","area_m2":59422}},{"type":"Polygon","arcs":[[-47,132,133,-131,134]],"properties":{"codigo":"23466100000000000206","sector":"234661000000000002","pcode":"CO23466","area_m2":107758}},{"type":"Polygon","arcs":[[135,-18,-15,136]],"properties":{"codigo":"23466100000000000207","sector":"234661000000000002","pcode":"CO23466","area_m2":106597}},{"type":"Polygon","arcs":[[-45,-48,-135,-130,-31,-33,-35]],"properties":{"codigo":"23466100000000000303","sector":"234661000000000003","pcode":"CO23466","area_m2":65614}},{"type":"Polygon","arcs":[[137,138]],"properties":{"codigo":"23466100000000000405","sector":"234661000000000004","pcode":"CO23466","area_m2":55320}},{"type":"Polygon","arcs":[[-100,-132,-134,139,-139,140,-137,-14,-129]],"properties":{"codigo":"23466100000000000401","sector":"234661000000000004","pcode":"CO23466","area_m2":287407}},{"type":"Polygon","arcs":[[-50,-113,141,142]],"properties":{"codigo":"23466100000000000606","sector":"234661000000000006","pcode":"CO23466","area_m2":74756}},{"type":"Polygon","arcs":[[-109,-127,-12,-67,-52,-25,-27,-23,-19,-136,-141,-138,-140,-133,-46,-43,143,-80,-57,-62,-66,144,145,146]],"properties":{"codigo":"23466100000000000403","sector":"234661000000000004","pcode":"CO23466","area_m2":2098484}},{"type":"Polygon","arcs":[[147,-145,-65]],"properties":{"codigo":"23466100000000000409","sector":"234661000000000004","pcode":"CO23466","area_m2":99012}},{"type":"Polygon","arcs":[[-64,-71,-93,-94,-85,148,149,-146,-148]],"properties":{"codigo":"23466100000000000410","sector":"234661000000000004","pcode":"CO23466","area_m2":474715}},{"type":"Polygon","arcs":[[-81,-144,-42,-38,150]],"properties":{"codigo":"23466100000000000501","sector":"234661000000000005","pcode":"CO23466","area_m2":922048}},{"type":"Polygon","arcs":[[-84,151,152,-111,153,-149]],"properties":{"codigo":"23466100000000000603","sector":"234661000000000006","pcode":"CO23466","area_m2":55516}},{"type":"Polygon","arcs":[[154,-152,-83,155]],"properties":{"codigo":"23466100000000000604","sector":"234661000000000006","pcode":"CO23466","area_m2":82070}},{"type":"Polygon","arcs":[[-142,-112,-153,-155,156]],"properties":{"codigo":"23466100000000000605","sector":"234661000000000006","pcode":"CO23466","area_m2":53398}},{"type":"Polygon","arcs":[[-97,157]],"properties":{"codigo":"23466201102005000101","sector":"234662011020050001","pcode":"CO23466","area_m2":129240}},{"type":"MultiPolygon","arcs":[[[158,159,160,161]],[[162]]],"properties":{"codigo":"23466201702006000101","sector":"234662017020060001","pcode":"CO23466","area_m2":136999}},{"type":"Polygon","arcs":[[163,164,-159]],"properties":{"codigo":"23466201702006000102","sector":"234662017020060001","pcode":"CO23466","area_m2":78912}},{"type":"Polygon","arcs":[[-165,165,-106,166,167,-160]],"properties":{"codigo":"23466201702006000103","sector":"234662017020060001","pcode":"CO23466","area_m2":111229}},{"type":"Polygon","arcs":[[-167,-105,168,169]],"properties":{"codigo":"23466201702006000104","sector":"234662017020060001","pcode":"CO23466","area_m2":113990}},{"type":"Polygon","arcs":[[-161,-168,-170,170]],"properties":{"codigo":"23466201702006000105","sector":"234662017020060001","pcode":"CO23466","area_m2":92470}},{"type":"Polygon","arcs":[[171]],"properties":{"codigo":"23466201603021000101","sector":"234662016030210001","pcode":"CO23466","area_m2":148427}},{"type":"Polygon","arcs":[[172]],"properties":{"codigo":"23466201004023000101","sector":"234662010040230001","pcode":"CO23466","area_m2":69683}},{"type":"Polygon","arcs":[[173]],"properties":{"codigo":"23466201504028000101","sector":"234662015040280001","pcode":"CO23466","area_m2":161036}},{"type":"Polygon","arcs":[[174]],"properties":{"codigo":"23466201004031000101","sector":"234662010040310001","pcode":"CO23466","area_m2":72807}},{"type":"Polygon","arcs":[[175]],"properties":{"codigo":"23466201505033000101","sector":"234662015050330001","pcode":"CO23466","area_m2":186494}}]}},"arcs":[[[9756,5562],[1,-6],[3,-46],[3,-40]],[[9763,5470],[-23,-15],[-28,-14]],[[9712,5441],[-6,25],[-1,19],[25,14],[-1,5],[7,11],[4,12],[-1,17],[-21,19],[-4,-5],[-17,17],[-10,-24]],[[9687,5551],[-2,26],[-22,-3],[-4,-3],[-14,-15]],[[9645,5556],[-5,10],[-8,13],[-9,2],[-4,8],[-4,0],[-7,-6]],[[9608,5583],[-1,28],[2,0]],[[9609,5611],[90,16],[28,5],[15,8],[5,-30],[3,-30],[0,-7],[6,-11]],[[9473,5372],[2,-23],[10,0],[2,-4],[14,11],[6,-2],[7,3],[1,-10],[3,1]],[[9518,5348],[1,-15],[2,-12],[-3,-12],[2,-6],[1,-17],[-5,-3],[4,-24],[-24,-8]],[[9496,5251],[-15,-5],[4,-24]],[[9485,5222],[-8,-4]],[[9477,5218],[-8,45],[-7,40],[-2,29],[0,9],[-1,12],[7,2],[0,27]],[[9466,5382],[7,0],[3,-4],[-3,-6]],[[9526,5349],[26,-31],[25,-28],[-23,-44]],[[9554,5246],[-35,-68]],[[9519,5178],[-4,6],[-12,27],[-6,29],[-1,11]],[[9518,5348],[8,1]],[[9519,5178],[-3,-6],[31,-56],[17,-1],[12,-3]],[[9576,5112],[-5,-38]],[[9571,5074],[-2,-12],[-5,-8],[-15,25],[-25,45],[-17,30]],[[9507,5154],[-6,14],[-3,18],[-9,14],[-3,15]],[[9486,5215],[-1,7]],[[9571,5074],[6,-2],[0,-6],[15,-34],[-11,-13],[-20,-26]],[[9561,4993],[-40,68],[-14,25],[-2,-103],[15,-27]],[[9520,4956],[-49,-16],[-13,-6],[-6,-6],[-8,-11],[0,3],[-1,58],[0,17],[4,24],[5,19],[5,15],[9,20],[17,33]],[[9483,5106],[24,48]],[[9561,4993],[-17,-22],[-10,-9],[-14,-6]],[[9675,5400],[-31,42]],[[9644,5442],[4,11],[34,85]],[[9682,5538],[9,-36],[8,-38],[7,-27],[6,-40]],[[9712,5397],[-9,-6],[-1,10],[-22,-2],[-5,1]],[[9712,5441],[9,-38]],[[9721,5403],[-9,-6]],[[9682,5538],[5,13]],[[9731,5356],[-3,20],[-7,27]],[[9763,5470],[4,-35]],[[9767,5435],[4,-47],[2,-44],[-26,-11],[-2,10],[-6,4],[-1,12],[-7,-3]],[[9955,5508],[-59,-83],[-25,-33],[-44,-62]],[[9827,5330],[-5,13],[-5,18],[-6,9],[-7,1],[-4,4],[0,13],[3,8],[1,26],[-21,-3],[-1,17],[-15,-1]],[[9756,5562],[1,3],[10,2],[6,-34],[1,-7],[5,-5],[8,-2],[6,-3],[2,-10],[1,-27],[2,-15],[10,7],[10,11],[12,26],[12,26],[6,14],[-8,27],[-2,10],[1,11],[3,8],[7,10],[20,43],[2,15],[-6,34],[47,26]],[[9912,5732],[48,26],[15,5],[6,-8],[1,-6],[-13,-48],[-12,-41],[-3,-23],[2,-16],[11,-50],[2,-17],[-1,-11],[-4,-18],[-9,-17]],[[9827,5330],[-36,-50]],[[9791,5280],[-5,0],[-37,-17]],[[9749,5263],[-14,72]],[[9735,5335],[-4,21]],[[9749,5263],[-35,-20],[-5,17]],[[9709,5260],[-10,40],[-3,13]],[[9696,5313],[39,22]],[[9518,4579],[17,-55],[2,-3],[12,-38]],[[9549,4483],[-22,-15],[-24,-18]],[[9503,4450],[2,26],[1,32],[3,9],[-2,24],[-10,10],[8,5],[-2,26],[15,-3]],[[9483,5106],[-11,28],[-5,9],[-14,8]],[[9453,5151],[30,58],[3,6]],[[9765,4843],[-9,-7],[-13,-15],[-8,-11],[-3,1],[-22,21]],[[9710,4832],[-8,9],[-8,-5],[-10,30],[-6,-5],[-14,37]],[[9664,4898],[-6,14],[9,9],[-24,64]],[[9643,4985],[11,10],[1,4],[-3,13],[1,24],[1,4],[19,0],[2,69],[38,50],[11,21]],[[9724,5180],[9,-30],[16,-124],[7,-38],[1,-17],[0,-26],[4,-36],[5,-28],[-1,-38]],[[9664,4898],[-28,-25]],[[9636,4873],[-13,32],[-14,38]],[[9609,4943],[-13,37],[-6,20]],[[9590,5000],[-1,5],[12,16],[12,-22],[15,21],[15,-35]],[[9609,4943],[-40,-32],[-14,-23],[6,-18]],[[9561,4870],[-14,-13],[-12,-14]],[[9535,4843],[-12,28],[-10,17],[-6,19]],[[9507,4907],[26,25],[5,-8],[4,7],[32,42],[-2,3],[18,24]],[[9453,5151],[-1,0],[-31,20],[7,27],[6,5],[32,39],[5,-26],[6,2]],[[9636,4873],[2,-5]],[[9638,4868],[-21,-17],[-20,-16]],[[9597,4835],[-24,-20]],[[9573,4815],[-12,55]],[[9703,4726],[-10,-10],[5,1],[-3,-5],[4,-20],[-27,-15]],[[9672,4677],[0,2],[-9,35],[-12,42]],[[9651,4756],[0,5],[20,13]],[[9671,4774],[14,9]],[[9685,4783],[12,-42],[6,-15]],[[9901,5130],[-12,-8],[6,-9],[-75,-22],[5,-46],[-19,-6],[10,-64],[-6,1],[-3,6],[-3,-8],[-6,1],[1,-6],[6,3],[11,-17],[-3,-24],[-30,26],[-7,5],[5,-34],[0,-4],[-6,-8],[0,-13],[8,1],[3,-6],[-7,-8],[-2,-24],[4,-14],[5,-10],[6,-4],[1,-7],[-13,-9],[-2,-8],[-10,-22],[-11,-5]],[[9757,4787],[0,7]],[[9757,4794],[0,23],[8,26]],[[9724,5180],[9,19]],[[9733,5199],[2,-2],[18,6],[5,-1],[9,-39],[2,-14],[68,21],[4,-25],[3,-31],[42,11],[3,8],[5,4],[7,-7]],[[9757,4787],[2,-35],[5,-11],[11,-15],[-31,-28],[-42,-48],[-22,-30],[2,-50],[1,-40],[4,-32],[-11,-3]],[[9676,4495],[-12,42],[-8,25]],[[9656,4562],[-5,19]],[[9651,4581],[-7,48],[-3,11],[-8,18]],[[9633,4658],[29,6],[11,5],[-1,8]],[[9703,4726],[51,70],[3,-2]],[[9685,4783],[7,6],[18,43]],[[9671,4774],[-21,61],[-12,33]],[[9651,4756],[-20,-16]],[[9631,4740],[-34,95]],[[9631,4740],[-28,-22],[-2,0]],[[9601,4718],[-8,25],[-14,38],[-6,34]],[[9633,4658],[-11,16],[-11,18],[-10,26]],[[8102,8023],[7,-6],[2,-14],[0,-10],[-3,-42],[1,-30],[3,-7],[1,-16],[-3,-9],[0,-14],[4,-14],[18,-3],[6,-4],[10,-14],[4,-1],[6,-27],[2,-3],[13,-64],[-6,-3],[5,-19],[-9,-5],[-7,28],[2,1],[-11,47],[-7,25],[-10,20],[-4,3],[-11,1],[-13,4],[-3,-5],[-4,5],[-9,-13],[2,-35],[2,-22],[-1,-8],[-9,-21],[-6,-11],[5,22],[-1,26],[-7,46],[5,11],[19,30],[1,21],[-2,72],[-14,6],[1,37],[-3,14],[1,20],[-2,3],[2,16],[6,6],[4,22],[0,14],[2,14],[8,18],[4,-3],[-6,-19],[-3,-28],[2,-27],[4,-27],[2,-8]],[[2565,9812],[-5,-5],[6,-13],[-16,-14],[-15,36],[-2,0],[-13,-28],[-11,21],[-17,-19],[-17,35],[21,26],[0,3],[-16,36],[-6,17],[14,14],[20,22]],[[2508,9943],[7,-15],[26,-63],[12,-27],[12,-26]],[[4176,7088],[-3,-2],[5,-16],[7,3],[3,-7],[5,3],[4,-22],[0,-2],[6,-22],[-5,-4],[3,-8],[4,3],[8,-23],[13,4],[14,7],[4,10],[2,-6],[-3,-11],[8,-3],[12,-10],[10,-13],[6,-9],[20,-26],[15,-24],[4,-18],[-13,-10],[-14,32],[-11,20],[-10,13],[5,11],[-15,15],[-17,5],[-34,-4],[2,-11],[-4,-14],[-12,-11],[-3,-11],[-9,11],[-4,0],[-11,38],[4,4],[-23,69],[-10,29],[15,11],[2,-1],[27,25],[11,5],[1,-12],[-11,-4],[-8,-14]],[[6764,6024],[15,-13],[-6,-19],[-5,-11],[-15,-38],[-10,8],[2,4],[-15,15],[7,11],[-5,4],[4,10],[-7,5],[12,20],[9,-11],[7,14],[3,-6],[4,7]],[[9606,5353],[-2,-1],[-11,13],[-15,20]],[[9578,5385],[10,15],[-6,11],[30,46]],[[9612,5457],[23,-33]],[[9635,5424],[-29,-71]],[[79,103],[-11,6],[-10,-27],[-8,8],[2,13],[-13,-7],[-6,-7],[-17,11],[1,6],[-4,2],[3,13],[-14,8],[2,11],[-4,2],[33,32],[12,11]],[[45,185],[15,-29],[-7,-9],[10,-20],[5,-3]],[[68,124],[1,-10],[10,-11]],[[9494,5616],[-5,-33],[-3,-19],[5,-14],[15,-35]],[[9506,5515],[-39,-59]],[[9467,5456],[-9,11],[-15,21],[11,15],[-6,7],[-9,13],[15,21],[-8,4],[4,27],[-12,1],[-10,9],[-3,0],[0,7],[4,6],[6,0],[10,3],[3,7],[-2,6],[-14,18],[1,6],[4,2],[15,-8],[10,14]],[[9462,5646],[5,-12],[8,-9],[8,-6],[11,-3]],[[9575,4550],[12,-38]],[[9587,4512],[-26,-20]],[[9561,4492],[-12,-9]],[[9518,4579],[16,-2],[20,-6],[7,-4],[6,-23],[8,6]],[[9608,5583],[-7,-12],[-12,10]],[[9589,5581],[-11,13],[-10,14],[-18,-28],[-44,-65]],[[9494,5616],[9,1],[23,-2],[16,1],[10,4],[12,13],[37,35]],[[9601,5668],[6,-21],[2,-36]],[[9601,5668],[37,34],[24,21],[9,16],[5,17],[4,26],[6,19],[0,7],[0,24],[-6,41],[-6,23],[10,4],[25,-2],[15,3],[13,-2],[24,2],[7,2],[35,2],[14,0],[9,-5],[4,-5],[6,-12],[3,-15],[12,-24],[6,-8],[9,-8],[7,-12],[4,-16],[3,-23],[13,14],[10,-2],[3,-12],[4,-1],[1,-9],[9,0],[-3,-5],[-6,-4],[-3,-13],[4,-13]],[[9612,5457],[-4,6]],[[9608,5463],[14,25],[-10,14],[24,43],[9,11]],[[9644,5442],[-9,-18]],[[9608,5463],[-10,15],[-21,29]],[[9577,5507],[-1,3],[5,13],[0,2],[15,35],[-10,12],[3,9]],[[9577,5507],[-11,-18],[0,-20],[-6,-9],[-7,-15]],[[9553,5445],[-47,70]],[[9466,5382],[-12,13],[-30,-2],[2,4],[41,59]],[[9553,5445],[-17,-24],[-10,-12],[-4,7],[-10,-16],[6,-10],[-5,-6],[-5,-8],[-14,-3],[-8,-1],[-12,-4],[-1,4]],[[9578,5385],[-9,12],[-19,16],[-5,6],[-8,-16],[4,-6],[-5,-6],[-6,2],[-3,-13],[-4,-11],[5,-10],[-2,-10]],[[9675,5400],[-10,-17]],[[9665,5383],[-9,-12],[-6,9],[-11,-16],[10,-16]],[[9649,5348],[-4,-4],[-6,-1],[-6,3],[-4,-3],[-11,3],[-12,7]],[[9709,5260],[-22,-13]],[[9687,5247],[-18,-9],[-5,19],[-5,4],[-5,14],[6,3],[-2,13],[-5,-1],[-11,18],[16,23],[-9,17]],[[9665,5383],[12,-9],[8,-8],[3,-7],[3,-12],[5,-34]],[[9584,5177],[-10,-22],[10,-11],[0,-9],[-5,-7],[-3,-16]],[[9554,5246],[8,-10],[-5,-13],[8,0],[8,-5],[2,4],[1,13],[6,0],[-1,-35],[-2,-18],[5,-5]],[[9672,5195],[-31,-22],[-8,28],[8,6],[-10,35],[-19,-8],[3,-13],[-26,-39],[2,13],[1,29]],[[9592,5224],[1,17],[4,7],[13,7],[29,13],[2,-11],[4,-12],[11,-38],[4,-14],[8,4],[4,-2]],[[9687,5247],[3,-10],[-1,-31],[3,-11],[-5,-7],[-8,6],[-7,1]],[[9592,5224],[-4,0],[-1,-29],[-3,-18]],[[9561,4492],[18,-56]],[[9579,4436],[-18,-8],[-37,-19],[-5,-2],[-19,-2],[2,33],[1,12]],[[9791,5280],[-24,-34],[-24,-34],[-10,-13]],[[9507,4907],[-11,-9],[-4,7],[-27,-22],[5,-16],[-9,-7]],[[9461,4860],[-9,25],[-5,17],[-7,5],[-11,-38]],[[9429,4869],[-10,11],[-2,5],[1,10],[-1,18],[-5,7],[-4,2],[0,5],[5,8],[-1,3],[-8,0],[-2,15],[3,5],[-2,4],[-9,-3],[-1,4],[-10,0],[-4,6],[6,10],[5,4],[-2,4],[-11,-1],[-2,5],[4,6],[-18,5],[-10,-13],[-9,1],[-12,-7],[-8,-10],[-2,1],[-1,26],[-13,247],[-1,2],[-1,25],[-4,60],[-5,-3],[-8,50],[-10,39],[-14,32],[-6,10],[-11,15],[0,11],[4,-2],[5,-14],[80,-38],[50,-19],[48,266],[12,8],[17,-43]],[[9535,4843],[-30,-37],[-5,12],[-3,-4],[-2,6],[-9,-9],[-7,2],[-10,-11],[-7,-9],[-9,20],[9,5],[-2,3],[6,5],[-12,28],[7,6]],[[9651,4581],[-3,-1],[-15,9],[-5,5],[-2,-3],[-4,6],[-10,-22],[-10,-16],[-4,0],[-5,-5],[3,-9],[-5,-2],[-5,4],[-3,9]],[[9583,4556],[0,7],[5,2],[1,11],[-5,4],[-9,6],[-1,5],[7,-2],[2,6],[-4,4],[3,7],[-5,18],[-2,9],[3,8],[-1,5],[-5,1],[-9,-6],[-4,-6],[-6,1],[-10,13],[-2,24],[5,25],[-4,9],[-11,4],[-7,-9],[-4,4],[-2,8],[-5,0],[-5,9],[-13,-2],[-6,13],[-7,8],[-5,2],[-13,-2],[-9,-3],[-3,7],[10,22],[1,5],[-5,5],[-13,19],[0,12],[-3,6],[7,10],[-2,12],[2,16],[-4,3],[-6,2],[-10,11]],[[9955,5508],[1,-4],[-1,-13],[0,-12],[6,-24],[1,-16],[0,-37],[2,-26],[4,-29],[4,-15],[3,-5],[6,-2],[12,0],[6,-3],[-14,-42],[-15,-44],[-10,-24],[10,-27],[-13,-34],[-19,22],[-15,-32],[-22,-11]],[[9656,4562],[-56,-41]],[[9600,4521],[-13,-9]],[[9575,4550],[-5,4],[4,4],[1,-4],[5,4],[3,-2]],[[9619,4459],[-5,19],[-14,43]],[[9676,4495],[-14,-8],[-6,-1],[-3,-5],[-34,-22]],[[9619,4459],[-21,-14],[-19,-9]],[[2508,9943],[13,15],[6,-14],[11,11],[4,-12],[6,18],[11,19],[7,-6],[9,25],[8,-5],[24,-40],[-9,-12],[-7,11],[-19,-21],[16,-37],[-14,-13],[-3,6],[-14,-16],[0,-9],[19,-39],[-11,-12]],[[197,59],[-37,74]],[[160,133],[-7,14],[-13,-15],[-19,40]],[[121,172],[23,16],[6,-17],[13,10]],[[163,181],[4,-14],[5,-8],[18,17],[4,-9],[6,-3],[9,6],[3,-1],[-1,11],[5,5],[5,-9],[-1,6],[6,8],[6,-3],[6,2],[1,-3],[-11,-23],[10,-14],[1,-4],[-5,-2],[-17,-18],[2,-5],[-6,-16],[-4,-1],[-6,9],[-7,-8],[4,-10],[4,2],[2,-4],[-2,-4],[4,-10],[-4,-5],[1,-4],[-8,-10]],[[250,270],[7,-3],[-7,-35],[-5,2],[-1,-7],[-14,6],[4,13],[8,41],[9,-8],[-1,-9]],[[197,59],[3,-7],[-1,-6],[-4,-2],[-5,8],[-6,-6],[2,-6],[-6,-5],[10,-21],[-2,-2],[3,-7],[-5,-4],[-23,43],[-4,-4],[-12,24],[-6,-4],[-7,18],[-2,2],[-5,-4]],[[127,76],[-6,12],[18,22],[21,23]],[[127,76],[-2,-6],[-7,4],[3,3],[-7,14],[-6,-8],[-3,7],[-3,-1],[-3,6],[-5,-5],[-5,8],[-5,1],[-5,4]],[[68,124],[2,1],[23,19],[-15,30],[18,20],[-13,29],[13,9]],[[96,232],[25,-60]],[[45,185],[-11,22],[-10,21],[-8,13],[13,12],[2,-2],[9,3],[3,5],[2,-7],[11,4],[1,5],[3,-9],[23,10],[-1,5],[5,3]],[[87,270],[0,-9],[9,-29]],[[87,270],[17,0],[-1,-26],[6,8],[4,-9],[19,13],[13,9],[2,-4],[7,6],[-1,-4],[5,-10],[4,0],[5,-14],[-4,-2],[3,-11],[4,-3],[-6,-3],[-1,5],[-7,-4],[5,-13],[3,2],[4,-11],[-2,-2],[3,-9],[-6,-7]],[[665,2115],[22,-1],[-5,-29],[-13,-48],[-5,-19],[-3,-21],[2,-22],[3,-13],[8,-15],[-3,-10],[2,-21],[-1,-8],[-5,-3],[4,-10],[-3,-5],[-7,2],[-1,-12],[-4,-7],[-1,-10],[-5,-2],[-7,5],[1,6],[-6,6],[-3,7],[1,7],[-3,0],[-1,9],[6,9],[3,13],[-6,-1],[-6,5],[-2,11],[3,3],[-19,15],[-8,14],[17,7],[-1,6],[7,8],[3,1],[8,13],[3,9],[1,12],[6,6],[1,12],[4,5],[5,10],[1,11],[4,4],[-7,15],[2,4],[-2,25],[4,4],[6,-7]],[[6409,7733],[6,1],[-3,-5],[-8,0],[0,-9],[4,0],[0,-13],[-5,-26],[1,-13],[-5,-3],[-1,-31],[2,-8],[5,1],[0,-6],[-6,0],[0,-18],[12,0],[-1,-6],[-12,-2],[0,-20],[-8,3],[1,5],[0,29],[-1,5],[-11,-3],[-1,-10],[-7,1],[1,8],[-4,0],[-1,9],[13,3],[3,4],[4,17],[2,0],[-5,9],[0,10],[-2,0],[0,11],[-6,4],[0,13],[5,0],[-1,8],[-3,1],[0,14],[6,3],[-1,32],[14,1],[-3,21],[2,0],[4,-10],[0,-12],[9,0],[1,-18]],[[1718,4565],[8,-24],[5,-21],[5,-17],[9,-23],[4,-6],[1,-6],[-15,-20],[-12,-23],[-3,2],[-15,-28],[-21,29],[-14,17],[-12,19],[-5,5],[24,48],[-4,6],[18,21],[4,-5],[9,9],[10,33],[4,-16]],[[5987,8645],[20,-13],[-4,-43],[19,1],[22,-4],[-4,-41],[-33,7],[-3,-28],[-19,4],[2,32],[-4,47],[-5,4],[2,30],[6,-3],[1,7]],[[1031,3416],[30,-13],[-12,-20],[4,-7],[-11,-14],[-16,-12],[-10,-9],[-15,-20],[-4,-3],[-19,-20],[-13,17],[-4,1],[-7,12],[-12,30],[-2,0],[-17,15],[13,41],[9,-4],[11,-8],[3,11],[7,4],[7,-3],[11,-6],[2,1],[4,24],[17,-8],[24,-9]]]}
