{"type":"Topology","bbox":[-76.41377134943741,7.707207267022535,-75.78710765024596,8.30569953748293],"transform":{"scale":[0.00006267263718286367,0.000059855212567296205],"translate":[-76.41377134943741,7.707207267022535]},"objects":{"municipios":{"type":"GeometryCollection","geometries":[{"type":"Polygon","arcs":[[0,1,2,3,4]],"properties":{"codigo":"23807100000000000405","sector":"238071000000000004","pcode":"CO23807","area_m2":118119}},{"type":"Polygon","arcs":[[5,6,7,8]],"properties":{"codigo":"23807100000000000303","sector":"238071000000000003","pcode":"CO23807","area_m2":95201}},{"type":"Polygon","arcs":[[-5,9,10,11]],"properties":{"codigo":"23807100000000000406","sector":"238071000000000004","pcode":"CO23807","area_m2":186222}},{"type":"Polygon","arcs":[[12,-6,13,14]],"properties":{"codigo":"23807100000000000304","sector":"238071000000000003","pcode":"CO23807","area_m2":62576}},{"type":"Polygon","arcs":[[15,16,17]],"properties":{"codigo":"23807100000000000102","sector":"238071000000000001","pcode":"CO23807","area_m2":162042}},{"type":"Polygon","arcs":[[18,19,20,21]],"properties":{"codigo":"23807100000000000104","sector":"238071000000000001","pcode":"CO23807","area_m2":80800}},{"type":"Polygon","arcs":[[-10,-4,22,23,24]],"properties":{"codigo":"23807100000000000205","sector":"238071000000000002","pcode":"CO23807","area_m2":55857}},{"type":"Polygon","arcs":[[-23,-3,25,26,27]],"properties":{"codigo":"23807100000000000208","sector":"238071000000000002","pcode":"CO23807","area_m2":249083}},{"type":"Polygon","arcs":[[28,29,30,31]],"properties":{"codigo":"23807100000000000301","sector":"238071000000000003","pcode":"CO23807","area_m2":68610}},{"type":"Polygon","arcs":[[32,-32,33,-8,34]],"properties":{"codigo":"23807100000000000302","sector":"238071000000000003","pcode":"CO23807","area_m2":99937}},{"type":"Polygon","arcs":[[35,36,-29,-33,37]],"properties":{"codigo":"23807100000000000307","sector":"238071000000000003","pcode":"CO23807","area_m2":35592}},{"type":"Polygon","arcs":[[38,39,40,-26,-2]],"properties":{"codigo":"23807100000000000404","sector":"238071000000000004","pcode":"CO23807","area_m2":115128}},{"type":"Polygon","arcs":[[41]],"properties":{"codigo":"23807200302002000101","sector":"238072003020020001","pcode":"CO23807","area_m2":135838}},{"type":"Polygon","arcs":[[42]],"properties":{"codigo":"23807200501004000101","sector":"238072005010040001","pcode":"CO23807","area_m2":89589}},{"type":"Polygon","arcs":[[43]],"properties":{"codigo":"23807200501008000101","sector":"238072005010080001","pcode":"CO23807","area_m2":117047}},{"type":"Polygon","arcs":[[44,45]],"properties":{"codigo":"23807200101010000101","sector":"238072001010100001","pcode":"CO23807","area_m2":121712}},{"type":"MultiPolygon","arcs":[[[-46,46]],[[47]]],"properties":{"codigo":"23807200101010000102","sector":"238072001010100001","pcode":"CO23807","area_m2":175883}},{"type":"Polygon","arcs":[[48]],"properties":{"codigo":"23807200106019000101","sector":"238072001060190001","pcode":"CO23807","area_m2":110194}},{"type":"Polygon","arcs":[[49]],"properties":{"codigo":"23807200106044000101","sector":"238072001060440001","pcode":"CO23807","area_m2":71448}},{"type":"Polygon","arcs":[[50]],"properties":{"codigo":"23807201301040000101","sector":"238072013010400001","pcode":"CO23807","area_m2":156969}},{"type":"Polygon","arcs":[[51]],"properties":{"codigo":"23807200106043000101","sector":"238072001060430001","pcode":"CO23807","area_m2":269922}},{"type":"Polygon","arcs":[[52]],"properties":{"codigo":"23807200602007000101","sector":"238072006020070001","pcode":"CO23807","area_m2":93463}},{"type":"Polygon","arcs":[[53,54,55,56,57,-21,58,-18,59]],"properties":{"codigo":"23807100000000000101","sector":"238071000000000001","pcode":"CO23807","area_m2":1056012}},{"type":"Polygon","arcs":[[60,61,62]],"properties":{"codigo":"23807100000000000311","sector":"238071000000000003","pcode":"CO23807","area_m2":166698}},{"type":"Polygon","arcs":[[-59,-20,63,64,65,-16]],"properties":{"codigo":"23807100000000000103","sector":"238071000000000001","pcode":"CO23807","area_m2":145286}},{"type":"Polygon","arcs":[[66,67,-22,-58]],"properties":{"codigo":"23807100000000000105","sector":"238071000000000001","pcode":"CO23807","area_m2":73588}},{"type":"Polygon","arcs":[[68,-54,69,70]],"properties":{"codigo":"23807100000000000106","sector":"238071000000000001","pcode":"CO23807","area_m2":44362}},{"type":"Polygon","arcs":[[-71,71,72]],"properties":{"codigo":"23807100000000000107","sector":"238071000000000001","pcode":"CO23807","area_m2":87664}},{"type":"Polygon","arcs":[[-55,-69,-73,73]],"properties":{"codigo":"23807100000000000108","sector":"238071000000000001","pcode":"CO23807","area_m2":420443}},{"type":"Polygon","arcs":[[74,75,76,-67,-57,77]],"properties":{"codigo":"23807100000000000201","sector":"238071000000000002","pcode":"CO23807","area_m2":336176}},{"type":"Polygon","arcs":[[78,79,-75,80]],"properties":{"codigo":"23807100000000000202","sector":"238071000000000002","pcode":"CO23807","area_m2":202488}},{"type":"Polygon","arcs":[[81,82,-15,83,84,85]],"properties":{"codigo":"23807100000000000305","sector":"238071000000000003","pcode":"CO23807","area_m2":254338}},{"type":"Polygon","arcs":[[86,-24,-28,87,88,89,90,-85,91,-76,-80]],"properties":{"codigo":"23807100000000000203","sector":"238071000000000002","pcode":"CO23807","area_m2":318325}},{"type":"Polygon","arcs":[[-68,-77,-92,-84,-14,-9,-34,-31,92,-64,-19]],"properties":{"codigo":"23807100000000000204","sector":"238071000000000002","pcode":"CO23807","area_m2":122212}},{"type":"Polygon","arcs":[[-11,-25,-87,-79,93]],"properties":{"codigo":"23807100000000000206","sector":"238071000000000002","pcode":"CO23807","area_m2":155786}},{"type":"Polygon","arcs":[[-27,-41,94,-88]],"properties":{"codigo":"23807100000000000207","sector":"238071000000000002","pcode":"CO23807","area_m2":97628}},{"type":"Polygon","arcs":[[-65,-93,-30,-37,95,96]],"properties":{"codigo":"23807100000000000306","sector":"238071000000000003","pcode":"CO23807","area_m2":1059118}},{"type":"Polygon","arcs":[[97,98,-62,99,100,-38,-35,-7,-13,-83]],"properties":{"codigo":"23807100000000000308","sector":"238071000000000003","pcode":"CO23807","area_m2":417309}},{"type":"Polygon","arcs":[[101,102,103,-98,-82,104]],"properties":{"codigo":"23807100000000000309","sector":"238071000000000003","pcode":"CO23807","area_m2":202901}},{"type":"Polygon","arcs":[[-36,-101,105,106,-96]],"properties":{"codigo":"23807100000000000310","sector":"238071000000000003","pcode":"CO23807","area_m2":743442}},{"type":"Polygon","arcs":[[107]],"properties":{"codigo":"23807200602005000101","sector":"238072006020050001","pcode":"CO23807","area_m2":87985}},{"type":"Polygon","arcs":[[-61,108,-106,-100]],"properties":{"codigo":"23807100000000000312","sector":"238071000000000003","pcode":"CO23807","area_m2":459428}},{"type":"Polygon","arcs":[[-105,-86,-91,109]],"properties":{"codigo":"23807100000000000401","sector":"238071000000000004","pcode":"CO23807","area_m2":127612}},{"type":"Polygon","arcs":[[-102,-110,-90,110]],"properties":{"codigo":"23807100000000000402","sector":"238071000000000004","pcode":"CO23807","area_m2":119239}},{"type":"Polygon","arcs":[[111,-103,-111,-89,-95,-40]],"properties":{"codigo":"23807100000000000403","sector":"238071000000000004","pcode":"CO23807","area_m2":120303}},{"type":"Polygon","arcs":[[112]],"properties":{"codigo":"23807202203006000101","sector":"238072022030060001","pcode":"CO23807","area_m2":38630}},{"type":"Polygon","arcs":[[113]],"properties":{"codigo":"23807201303017000101","sector":"238072013030170001","pcode":"CO23807","area_m2":70556}},{"type":"Polygon","arcs":[[114]],"properties":{"codigo":"23807201802029000101","sector":"238072018020290001","pcode":"CO23807","area_m2":116699}},{"type":"Polygon","arcs":[[115]],"properties":{"codigo":"23807201202020000101","sector":"238072012020200001","pcode":"CO23807","area_m2":292803}},{"type":"Polygon","arcs":[[116,117,118,119]],"properties":{"codigo":"23807200103026000101","sector":"238072001030260001","pcode":"CO23807","area_m2":872181}},{"type":"Polygon","arcs":[[120,121]],"properties":{"codigo":"23807200603027000101","sector":"238072006030270001","pcode":"CO23807","area_m2":153150}},{"type":"Polygon","arcs":[[122]],"properties":{"codigo":"23807201003028000101","sector":"238072010030280001","pcode":"CO23807","area_m2":51384}},{"type":"Polygon","arcs":[[-121,123]],"properties":{"codigo":"23807200603032000101","sector":"238072006030320001","pcode":"CO23807","area_m2":354183}},{"type":"Polygon","arcs":[[124]],"properties":{"codigo":"23807200901041000101","sector":"238072009010410001","pcode":"CO23807","area_m2":152077}},{"type":"Polygon","arcs":[[125]],"properties":{"codigo":"23807200902042000101","sector":"238072009020420001","pcode":"CO23807","area_m2":166247}},{"type":"MultiPolygon","arcs":[[[-119,126]],[[-117,127]]],"properties":{"codigo":"23807200103045000101","sector":"238072001030450001","pcode":"CO23807","area_m2":277738}},{"type":"Polygon","arcs":[[128]],"properties":{"codigo":"23807203510046000101","sector":"238072035100460001","pcode":"CO23807","area_m2":107081}},{"type":"MultiPolygon","arcs":[[[129]],[[130]]],"properties":{"codigo":"23807203510047000101","sector":"238072035100470001","pcode":"CO23807","area_m2":66514}}]}},"arcs":[[[5771,7541],[-33,15]],[[5738,7556],[46,50],[12,11]],[[5796,7617],[11,-13]],[[5807,7604],[10,-14]],[[5817,7590],[-46,-49]],[[5676,7758],[-14,-19],[-6,7],[-10,-7],[-4,7],[-25,-17]],[[5617,7729],[-37,-27],[-9,15]],[[5571,7717],[29,24],[34,29]],[[5634,7770],[17,-18],[18,12],[7,-6]],[[5817,7590],[7,-8]],[[5824,7582],[24,-29],[24,-34]],[[5872,7519],[-19,-16],[-82,38]],[[5627,7709],[-1,5],[-9,15]],[[5676,7758],[7,-6]],[[5683,7752],[-11,-14],[-29,-32],[-5,8],[-11,-5]],[[5669,7869],[-41,-15],[-22,-8],[-6,4],[-8,20]],[[5592,7870],[22,18],[1,18],[-4,23]],[[5611,7929],[12,-2],[3,-10],[6,1],[16,6],[21,-55]],[[5624,7799],[-12,9],[-1,9]],[[5611,7817],[5,5],[34,8],[-2,10],[29,7]],[[5677,7847],[3,-11],[3,-19]],[[5683,7817],[-42,-7],[1,-6],[-18,-5]],[[5807,7604],[54,3]],[[5861,7607],[7,1]],[[5868,7608],[1,-23],[-45,-3]],[[5796,7617],[-12,14]],[[5784,7631],[55,72]],[[5839,7703],[6,-5],[4,5],[7,-6],[8,-22],[4,-17],[-4,-46],[-3,-5]],[[5557,7730],[-8,-8]],[[5549,7722],[-20,25],[16,0],[16,8],[15,18],[4,13]],[[5580,7786],[6,-5],[12,14]],[[5598,7795],[8,-14],[-49,-51]],[[5567,7714],[-10,16]],[[5598,7795],[7,8],[29,-33]],[[5571,7717],[-4,-3]],[[5528,7680],[-5,7],[8,7],[-1,2]],[[5530,7696],[-2,3],[21,23]],[[5567,7714],[-39,-34]],[[5738,7556],[-28,9]],[[5710,7565],[2,4],[46,48],[20,22]],[[5778,7639],[6,-8]],[[8129,9330],[4,-10],[42,-10],[-2,-18],[26,-33],[-14,-6],[1,-8],[-27,10],[-8,1],[0,8],[-6,0],[-1,16],[-17,7],[2,17],[-5,19],[5,7]],[[9460,8638],[3,3],[5,-4],[13,-15],[5,5],[6,-8],[-12,-12],[-32,-20],[-11,2],[-2,7],[-12,9],[19,12],[-4,10],[19,15],[3,-4]],[[9927,9086],[8,-16],[13,-4],[9,-5],[37,-26],[5,-6],[-9,-6],[-10,0],[3,-14],[-12,3],[-6,13],[-16,3],[-15,-8],[-5,5],[-2,18],[-8,12],[2,10],[5,6],[-4,13],[5,2]],[[5705,9959],[5,-16],[-2,-12],[-14,-7],[-6,-1],[-4,11],[-13,0],[-5,14],[-3,0],[-6,16],[-2,12],[-6,15],[4,3],[3,-9],[16,3],[1,-8],[20,-1],[2,8],[10,-1],[0,13],[5,-1]],[[5710,9998],[-1,-33],[-6,0],[2,-6]],[[5710,9998],[73,-7],[23,0],[0,-19],[3,-1],[0,-9],[8,0],[6,-3],[-2,-5],[-54,3],[-62,2]],[[5758,9924],[-6,-2],[-2,7],[7,3],[1,-8]],[[5080,7466],[24,0],[-1,-5],[7,0],[1,5],[32,0],[-2,-7],[-9,-17],[-7,4],[-9,-8],[-10,-3],[-1,3],[-18,1],[0,3],[-8,0],[0,-4],[-12,-6],[-5,-5],[0,10],[-17,13],[4,3],[0,8],[8,2],[13,9],[10,-6]],[[5680,7419],[15,-58],[1,-4],[-18,-8],[-3,8],[-11,12],[-9,31],[10,5],[12,15],[3,-1]],[[4213,5795],[17,-11],[-1,-3],[12,-15],[6,4],[10,-3],[11,-1],[2,4],[8,-1],[2,-5],[-28,-7],[13,-19],[-7,4],[-5,-2],[-3,9],[-10,-7],[3,-12],[-8,-1],[-6,-16],[-6,-6],[-10,9],[-7,-1],[-1,13],[-6,-1],[-2,18],[3,13],[8,3],[-10,14],[-4,11],[4,-2],[6,16],[9,-5]],[[5563,7198],[5,6],[5,-4],[-6,-6],[10,-10],[6,9],[8,-8],[17,18],[6,-5],[9,6],[27,-27],[-9,-6],[6,-14],[17,-4],[-2,-2],[-15,2],[-11,-9],[-13,3],[-5,-9],[-2,1],[-7,-9],[1,-5],[8,-4],[-4,-3],[-4,-16],[-8,3],[0,8],[-8,2],[5,9],[-41,14],[-26,8],[3,9],[17,-8],[10,15],[-6,6],[6,4],[-1,6],[-11,8],[7,9],[-7,5],[3,6],[10,-8]],[[8538,7615],[6,0],[-2,-16],[5,-4],[8,4],[13,-19],[4,3],[13,-16],[-8,-7],[4,-6],[-16,-10],[2,-6],[-8,-3],[2,-9],[-6,-3],[-2,14],[-3,-1],[-6,14],[5,3],[-1,5],[-11,-4],[-3,16],[10,9],[-5,19],[-4,1],[3,16]],[[5763,7939],[-2,-7]],[[5761,7932],[-4,-20],[-13,-9],[-7,-11],[-16,-4],[-6,-4],[-3,-9],[0,-8]],[[5712,7867],[4,-10],[7,-7],[14,1],[4,-9],[-2,-7],[4,-14]],[[5743,7821],[0,-9],[-42,-8]],[[5701,7804],[-1,8],[-15,-3],[-2,8]],[[5677,7847],[-8,22]],[[5611,7929],[-6,27],[-9,30],[-3,17],[-3,30],[1,15],[13,3],[12,-2],[3,-6],[8,-8],[16,-20],[1,-13],[-9,-8],[3,-6],[5,-2],[6,6],[2,12],[5,13],[11,13],[16,12],[24,14],[7,-1],[12,-6],[8,-8],[-2,-8],[-6,-14],[-2,-19],[-6,-20],[1,-17],[7,-9],[11,0],[15,9],[10,-5],[3,-9],[-2,-10]],[[5485,7582],[1,10],[6,18],[91,-19]],[[5583,7591],[9,-2]],[[5592,7589],[-4,-25],[4,-1],[-4,-22],[-36,5],[4,22],[-35,7],[3,10],[-17,-4],[-22,1]],[[5611,7817],[-11,-9],[-3,-8],[-7,-2],[-5,5]],[[5585,7803],[2,7],[-1,20],[-10,24],[-1,9]],[[5575,7863],[17,7]],[[5701,7804],[-29,-5],[3,-12]],[[5675,7787],[2,-9],[-6,2],[-13,-8],[-34,27]],[[5808,7939],[-6,-8],[-11,-4],[-12,-2],[-4,4],[-14,3]],[[5763,7939],[12,3],[25,14],[17,10]],[[5817,7966],[-6,-20],[-3,-7]],[[5817,7966],[6,18],[6,-3],[27,-29],[8,-11]],[[5864,7941],[-15,-8],[-30,-16],[-8,19],[-3,3]],[[5864,7941],[16,5],[19,-63],[-36,-8],[-32,-4],[-23,-3],[-14,-1],[-33,2],[-17,4],[-11,-4],[-21,-2]],[[5818,7736],[-2,-2],[-32,13],[-5,-12]],[[5779,7735],[-27,10],[-43,19]],[[5709,7764],[-5,29],[-29,-6]],[[5743,7821],[5,-4],[16,-6],[4,-6],[10,-22],[8,-4],[3,1],[1,12],[5,8],[10,5],[6,0],[16,-8],[5,-10],[0,-8],[-10,-28],[-7,-8],[3,-7]],[[5909,7641],[-13,9],[-24,9]],[[5872,7659],[-10,36],[-6,11],[-37,13],[-40,16]],[[5818,7736],[9,-2],[17,6],[4,4],[-3,13],[3,9],[8,4],[12,-2],[4,-7],[-1,-10],[4,-9],[5,-6],[13,-9],[5,-5],[-1,-10],[-2,-6],[-9,-5],[-8,-8],[-3,-14],[5,-13],[8,-4],[11,-2],[9,-5],[3,-9],[-2,-5]],[[5686,7683],[-2,0],[-13,-15],[-11,-33],[-32,-6]],[[5628,7629],[-3,58],[2,22]],[[5683,7752],[16,-12]],[[5699,7740],[11,-9],[4,-7]],[[5714,7724],[-9,-7],[-11,-13],[4,-5],[-12,-16]],[[5872,7659],[-4,-51]],[[5839,7703],[-6,5],[-3,-4],[-11,8],[-10,4],[-9,-16],[-22,-41],[3,-3],[-10,-10]],[[5771,7646],[-6,9]],[[5765,7655],[-20,26]],[[5745,7681],[-31,43]],[[5699,7740],[-6,31],[16,-7]],[[5580,7786],[5,17]],[[5909,7641],[-9,-8],[-4,-7],[4,-28],[-3,-8],[-6,-5],[-14,1],[-10,-6],[-5,-9],[-1,-19],[3,-13],[10,-7],[13,-1],[-3,-2],[10,-5],[-12,-12],[-10,7]],[[5778,7639],[-7,7]],[[5530,7696],[-12,-3],[-6,7],[-2,15],[-6,9],[-8,4],[-6,11],[-3,12],[-9,4],[-16,13],[-5,-2],[-3,-12],[-3,-8],[-11,-9],[-2,2]],[[5438,7739],[-27,26],[-16,10],[-3,8],[27,8],[11,9],[6,8],[5,12],[3,12],[-1,21],[-7,26],[11,17],[7,8],[13,6],[11,-2],[17,7],[6,-4],[18,-20],[24,-7],[13,-14],[9,-5],[10,-2]],[[5628,7629],[4,-15],[11,-27],[1,-9]],[[5644,7578],[-52,11]],[[5583,7591],[-3,6],[0,12],[-14,27],[-24,32],[-13,4],[-4,6]],[[5525,7678],[3,2]],[[5689,7636],[4,-31],[2,-6]],[[5695,7599],[5,-32]],[[5700,7567],[-56,11]],[[5686,7683],[0,-5],[4,-8],[3,-14],[-7,-4],[3,-16]],[[5525,7678],[-24,-20],[-13,-16],[-42,-64],[-25,-37],[-35,-53]],[[5386,7488],[-3,3],[3,8],[-16,8],[-26,18],[-10,2],[4,9],[16,-9],[6,12],[7,-2],[3,13],[-4,2],[18,28],[-23,12],[3,5],[-5,2],[2,8],[-13,6],[4,11],[25,-5],[11,1],[6,-5],[20,-2],[16,7],[4,10],[-2,18],[6,7],[13,22],[3,10],[-5,22],[-11,30]],[[7796,7422],[12,-15],[8,0],[2,-44],[-14,-27],[-7,5],[-14,41],[13,40]],[[5485,7582],[2,-5],[-22,-40],[-20,13],[-6,2],[-23,-32],[22,-28],[-16,-17],[-2,-6],[-8,8],[-23,-24],[-18,10],[15,25]],[[5745,7681],[-11,-8],[3,-4],[-28,-20],[-1,1],[-19,-14]],[[5765,7655],[-36,-32],[-34,-24]],[[5710,7565],[-10,2]],[[29,637],[4,-20],[-11,-4],[1,-7],[-9,-8],[-2,5],[-9,-8],[0,17],[-3,4],[5,8],[-2,4],[10,7],[16,2]],[[3536,4912],[-5,-7],[3,-6],[-2,-12],[-6,-4],[-5,2],[1,-11],[-9,-6],[-6,-1],[-1,5],[-6,-1],[-8,8],[-2,8],[7,9],[-3,12],[9,8],[9,-4],[10,5],[14,-5]],[[2838,3069],[12,-10],[-3,-2],[5,-18],[8,1],[12,-2],[2,-6],[-2,-9],[-4,-1],[-22,-42],[-12,6],[7,15],[-20,12],[-3,9],[11,15],[2,6],[-3,10],[-5,4],[1,11],[14,1]],[[1245,5537],[14,1],[10,5],[7,-4],[2,-9],[-1,-9],[-7,-16],[-8,-13],[1,-6],[16,-26],[-19,-8],[-1,3],[-39,-15],[-9,-11],[-11,21],[-3,-5],[-4,0],[1,16],[-9,8],[12,4],[25,11],[-13,26],[0,7],[8,11],[20,34],[3,2],[10,-5],[-2,-17],[-3,-5]],[[6155,8811],[-10,-21]],[[6145,8790],[-16,-37]],[[6129,8753],[-33,-73]],[[6096,8680],[-8,6],[-12,24],[-8,-3],[-9,11],[-4,-8],[-30,25],[3,6],[-3,6],[-17,1],[-8,32],[2,6],[9,12],[-35,26],[-5,-12],[-10,5],[-8,-9],[-15,10],[-5,-2],[-5,7],[-19,-7],[-4,12],[-18,-1],[5,-13],[-12,-3],[-7,25],[-5,1],[-1,-10],[-6,-1],[-2,8],[-18,-2],[-2,2],[-18,2],[4,10],[18,-3],[13,4],[-10,19],[-2,23],[11,4],[5,-8],[19,9],[44,16],[3,-1],[18,0],[8,-1],[14,-6],[7,-6],[11,-13],[1,-11],[-3,-13],[-7,-9],[-14,-8],[5,-14],[15,9],[13,15],[2,6],[27,-11],[-11,-14],[-21,-19],[12,-10],[4,5],[17,-1],[13,-13],[2,-9],[-2,-6],[36,-17],[3,6],[6,-3],[-3,-7],[21,-10],[5,5],[5,-1],[2,5],[15,-8],[6,13],[-14,8],[10,19],[9,-4],[6,10],[-9,4],[8,16],[12,-5]],[[8018,6731],[-20,-5]],[[7998,6726],[-5,2],[0,6],[6,9],[-6,6],[-5,10],[-15,12],[-9,13],[-5,3],[-14,-1],[-7,2],[0,5],[11,7],[1,-7],[14,-3],[0,5],[6,0],[2,11],[28,-2],[1,10],[-9,1],[1,3],[18,-1],[12,15],[10,-4],[-1,-10],[-9,-4],[-4,3],[0,-16],[4,-6],[-2,-14],[-8,1],[-1,-6],[-6,1],[8,-22],[-4,-1],[8,-23]],[[3963,6402],[13,-2],[0,-4],[-18,-28],[-4,-2],[0,-8],[-6,-9],[-7,3],[-15,12],[7,10],[16,14],[5,-1],[4,7],[-2,5],[7,3]],[[8018,6731],[11,-1],[13,-7],[1,-6],[-5,-7],[9,-7],[-6,-9],[3,-5],[13,-6],[-1,-5],[-7,-8],[8,-3],[3,-5],[-4,-11],[5,-4],[-4,-9],[-20,3],[1,-19],[-3,-11],[-1,-15],[-11,3],[-38,21],[-19,6],[11,18],[8,1],[-3,10],[-9,12],[5,3],[5,9],[6,25],[3,3],[0,12],[6,7]],[[4951,6966],[-2,-21],[-4,-18],[-2,1],[-3,-10],[-8,-9],[-13,-8],[-9,9],[-7,4],[1,8],[-2,8],[-5,-1],[2,10],[-10,14],[1,3],[-7,2],[23,11],[6,9],[6,14],[8,-7],[-2,-7],[27,-9],[0,-3]],[[5177,6883],[-1,-8],[5,-4],[5,7],[2,-5],[4,2],[5,-5],[-4,-2],[4,-8],[17,-16],[2,-5],[12,3],[7,-16],[7,2],[7,-4],[-1,-5],[-9,-12],[-35,-6],[-5,6],[-12,-3],[-3,3],[-10,33],[-1,9],[2,16],[-8,4],[-11,-6],[-7,10],[18,17],[9,3],[1,-10]],[[6129,8753],[31,-18],[2,2],[8,-3],[3,23],[33,-14],[-5,-2],[-9,-18],[4,-8],[2,5],[4,-2],[3,6],[20,-12],[1,-9],[15,7],[0,15],[-8,2],[0,5],[-15,7],[6,13],[18,-6],[1,5],[10,-1],[-1,-8],[12,1],[0,7],[9,-1],[-4,-7],[5,1],[2,-6],[-22,-7],[0,-5],[8,1],[-2,-8],[-8,-13],[7,-5],[-7,-3],[-1,-6],[-10,0],[0,18],[-21,-9],[5,-4],[-5,-8],[-5,3],[-3,-11],[-3,2],[-4,-6],[-17,10],[-22,17],[5,9],[-12,6],[2,4],[11,-4],[5,8],[-48,26],[-7,-16],[10,-8],[-3,-7],[6,-4],[1,-6],[-6,-8],[-17,14],[-9,-20],[17,-14],[-3,-9],[-12,13],[1,-17],[-11,7],[0,3]],[[6155,8811],[8,-2],[2,-10],[16,-4],[-1,-9],[-7,-4],[13,-13],[3,1],[2,16],[31,-9],[-1,-9],[-9,-5],[-27,1],[0,5],[-11,13],[-7,3],[-22,5]],[[3810,168],[6,-47],[-11,-8],[-4,4],[3,6],[-19,28],[2,3],[-6,8],[-8,2],[-4,14],[7,22],[4,4],[8,5],[7,-5],[9,-15],[6,-21]],[[3901,40],[4,-6],[4,4],[10,-6],[6,2],[-1,-5],[7,-5],[-2,-4],[14,-1],[-2,-4],[-21,0],[-3,-4],[-7,0],[-9,-4],[-6,2],[0,-7],[-8,-2],[-8,3],[4,4],[-1,12],[11,1],[2,18],[6,2]],[[3895,57],[0,-16],[-12,-2],[-1,7],[-7,7],[15,9],[5,-5]]]}
