{"type":"Topology","bbox":[-76.30652333537347,8.921575346336194,-76.08918775462405,9.07575290549109],"transform":{"scale":[0.00002173573164810685,0.000015419297845274078],"translate":[-76.30652333537347,8.921575346336194]},"objects":{"municipios":{"type":"GeometryCollection","geometries":[{"type":"Polygon","arcs":[[0,1,2,3]],"properties":{"codigo":"23574100000000000101","sector":"235741000000000001","pcode":"CO23574","area_m2":120314}},{"type":"Polygon","arcs":[[4,5,6,7,8,9]],"properties":{"codigo":"23574100000000000103","sector":"235741000000000001","pcode":"CO23574","area_m2":63128}},{"type":"Polygon","arcs":[[10,11,-5,12]],"properties":{"codigo":"23574100000000000104","sector":"235741000000000001","pcode":"CO23574","area_m2":32320}},{"type":"Polygon","arcs":[[13,-6,-12,14]],"properties":{"codigo":"23574100000000000105","sector":"235741000000000001","pcode":"CO23574","area_m2":113725}},{"type":"Polygon","arcs":[[15,-15,-11,16]],"properties":{"codigo":"23574100000000000106","sector":"235741000000000001","pcode":"CO23574","area_m2":91875}},{"type":"Polygon","arcs":[[17]],"properties":{"codigo":"23574200305002000101","sector":"235742003050020001","pcode":"CO23574","area_m2":105223}},{"type":"Polygon","arcs":[[18]],"properties":{"codigo":"23574200401003000101","sector":"235742004010030001","pcode":"CO23574","area_m2":111754}},{"type":"Polygon","arcs":[[19]],"properties":{"codigo":"23574200201004000101","sector":"235742002010040001","pcode":"CO23574","area_m2":77509}},{"type":"Polygon","arcs":[[20]],"properties":{"codigo":"23574200102006000101","sector":"235742001020060001","pcode":"CO23574","area_m2":219996}},{"type":"Polygon","arcs":[[21]],"properties":{"codigo":"23574200203014000101","sector":"235742002030140001","pcode":"CO23574","area_m2":295730}},{"type":"Polygon","arcs":[[22]],"properties":{"codigo":"23574200202011000101","sector":"235742002020110001","pcode":"CO23574","area_m2":111439}},{"type":"Polygon","arcs":[[23,-4,24,-8]],"properties":{"codigo":"23574100000000000102","sector":"235741000000000001","pcode":"CO23574","area_m2":153847}},{"type":"Polygon","arcs":[[-17,-13,-10,25]],"properties":{"codigo":"23574100000000000107","sector":"235741000000000001","pcode":"CO23574","area_m2":208541}},{"type":"Polygon","arcs":[[-2,26]],"properties":{"codigo":"23574100000000000108","sector":"235741000000000001","pcode":"CO23574","area_m2":1894297}},{"type":"Polygon","arcs":[[27,28]],"properties":{"codigo":"23574200101001000101","sector":"235742001010010001","pcode":"CO23574","area_m2":112369}},{"type":"Polygon","arcs":[[29,-28]],"properties":{"codigo":"23574200101001000102","sector":"235742001010010001","pcode":"CO23574","area_m2":87657}},{"type":"Polygon","arcs":[[30]],"properties":{"codigo":"23574200402005000101","sector":"235742004020050001","pcode":"CO23574","area_m2":69818}},{"type":"Polygon","arcs":[[31]],"properties":{"codigo":"23574200405009000101","sector":"235742004050090001","pcode":"CO23574","area_m2":70602}},{"type":"Polygon","arcs":[[32]],"properties":{"codigo":"23574200401012000101","sector":"235742004010120001","pcode":"CO23574","area_m2":40020}}]}},"arcs":[[[2042,5906],[15,-56],[44,-60]],[[2101,5790],[-22,-43],[-36,-31],[-16,39],[-7,-42],[-49,43],[16,-83],[-5,-75],[-8,5]],[[1974,5603],[-15,41],[7,28],[-54,33],[21,9],[38,59],[3,82],[-26,66]],[[1948,5921],[-3,42],[38,7],[6,37],[33,-4],[46,13],[4,-28],[-46,-8],[16,-74]],[[2075,6412],[3,-72],[32,-39]],[[2110,6301],[-9,-16],[22,-23],[49,13],[38,-18]],[[2210,6257],[-35,-114],[-72,58]],[[2103,6201],[-54,105],[-21,10],[-24,-37]],[[2004,6279],[34,71]],[[2038,6350],[6,-9],[31,71]],[[2092,6497],[21,-57],[12,-8]],[[2125,6432],[17,-9],[-32,-122]],[[2075,6412],[8,91],[9,-6]],[[2181,6428],[34,-3],[69,-61],[27,-6],[-47,-157],[-54,56]],[[2125,6432],[5,10],[51,-14]],[[2297,6728],[-27,-40],[1,-32],[-34,-19],[-64,-133],[8,-76]],[[2092,6497],[4,28],[39,36],[8,30],[32,15],[-5,52],[23,-6],[-26,52],[62,34],[37,-17],[31,7]],[[9918,2723],[10,-17],[-16,-24],[22,-22],[56,18],[9,-73],[-50,-25],[-21,6],[-5,-38],[-52,-44],[-34,26],[-31,-50],[-9,22],[-24,-11],[-16,22],[41,56],[-19,42],[22,20],[13,-36],[37,52],[67,76]],[[2155,3455],[-3,-54],[-14,-78],[1,-96],[24,-38],[-1,-58],[-40,-6],[14,-45],[-61,-41],[-12,22],[-11,67],[18,7],[-15,91],[-10,31],[18,11],[-5,52],[-14,36],[60,-19],[39,121],[12,-3]],[[8268,9329],[27,-16],[114,-90],[-11,-26],[29,-25],[-29,0],[-18,-46],[-30,20],[-20,-34],[-9,29],[28,44],[-29,50],[-43,-24],[-5,31],[-25,-25],[-33,20],[23,114],[31,-22]],[[6885,7746],[27,-47],[6,-39],[26,-33],[24,-73],[46,0],[63,-70],[-6,-19],[26,-32],[31,-77],[21,4],[-4,-86],[-6,-6],[-77,50],[14,25],[-23,33],[-35,-18],[-37,27],[-30,4],[-46,49],[-28,97],[-11,-2],[-18,117],[-24,83],[51,32],[10,-19]],[[7753,6259],[85,-36],[38,-26],[14,-35],[-40,-19],[6,-36],[18,21],[49,-38],[41,23],[29,94],[26,-16],[21,39],[52,-46],[-22,-72],[-28,-1],[7,-64],[31,-12],[-33,-110],[14,-14],[-1,-84],[-36,-34],[0,-58],[-25,26],[-25,-5],[-7,48],[-24,3],[7,40],[-21,30],[-9,135],[-63,48],[-26,-9],[-41,-70],[-15,11],[28,37],[-4,68],[10,40],[-31,57],[-46,42],[21,23]],[[5926,4048],[2,-30],[50,-13],[22,35],[36,-23],[-1,18],[35,40],[-3,-50],[34,12],[-27,-89],[35,-33],[10,25],[12,-27],[31,-16],[5,24],[41,-8],[-6,-30],[37,5],[-8,-41],[-17,-9],[-69,20],[-36,-12],[-23,21],[-14,36],[-35,29],[-23,-16],[-15,26],[29,26],[-76,-8],[-9,-32],[-65,14],[-17,32],[64,-18],[-10,47],[-36,33],[3,20],[26,-17],[18,9]],[[2103,6201],[-11,-20],[-17,20],[-28,-84],[11,-53],[19,-1],[39,-44],[-18,-42],[-25,11],[6,-49],[-37,-33]],[[1948,5921],[-42,18],[61,107],[-1,72],[-20,5],[29,77],[-13,31],[42,48]],[[2038,6350],[36,94],[4,81],[-14,51],[9,31],[-24,54],[19,12],[27,65],[11,104],[8,33],[5,74],[-23,89],[26,1],[22,-61],[14,1],[-15,-58],[24,-6],[69,-72],[71,-88],[-10,-27]],[[2101,5790],[130,-171],[12,-36],[12,-214],[68,3],[8,-23],[-6,-72],[8,-156],[4,-177],[-11,-27],[38,-36],[-15,-57],[-3,-88],[38,-46],[25,33],[86,149],[12,34],[94,-67],[-6,-87],[-87,-21],[-69,-55],[-10,-57],[26,-33],[-38,-45],[-25,33],[-31,-45],[-27,66],[-39,15],[-41,32],[-51,19],[-83,-28],[-61,-3],[-72,11],[-71,27],[-78,3],[-37,-23],[-31,-58],[-16,-70],[-23,-31],[-34,4],[-38,84],[-16,20],[56,77],[181,179],[54,72],[47,172],[1,94],[-13,94],[-16,11],[-19,52],[10,48],[-6,42],[16,43],[9,90],[11,32]],[[3778,9788],[-27,5],[-52,35],[-64,29],[-118,33],[-28,23]],[[3489,9913],[22,86],[40,-4],[-7,-57],[30,14],[72,-10],[14,52],[93,-29],[0,-43],[-12,-2],[-10,-76],[-23,-1],[70,-55]],[[3778,9788],[44,-15],[-16,-62],[-31,18],[2,26],[-101,20],[-35,24],[-9,-25],[-61,37],[-70,1],[-34,19],[22,82]],[[1287,182],[26,-1],[-18,-36],[34,-34],[-11,-25],[33,-21],[21,45],[39,-26],[-13,-31],[-38,30],[-25,-52],[-10,12],[-21,-43],[-24,10],[-81,73],[66,112],[22,11],[0,-24]],[[5722,538],[9,-20],[19,18],[33,-13],[10,-19],[-13,-62],[22,-13],[-13,-33],[5,-36],[-25,1],[-25,30],[-36,-3],[-26,47],[-5,50],[-35,-6],[-1,55],[21,-6],[60,10]],[[34,2656],[20,-18],[64,-90],[-29,-28],[-65,0],[-24,70],[9,52],[25,14]]]}
