{"type":"Topology","bbox":[-76.10198841536567,9.047816686451473,-75.78058866356054,9.311071071142626],"transform":{"scale":[0.00003214318949946309,0.00002632807127624297],"translate":[-76.10198841536567,9.047816686451473]},"objects":{"municipios":{"type":"GeometryCollection","geometries":[{"type":"Polygon","arcs":[[0,1,2,3,4]],"properties":{"codigo":"23417100000000001403","sector":"234171000000000014","pcode":"CO23417","area_m2":85764}},{"type":"Polygon","arcs":[[5,6,7,8]],"properties":{"codigo":"23417100000000000101","sector":"234171000000000001","pcode":"CO23417","area_m2":114735}},{"type":"Polygon","arcs":[[9,10,11,12,13]],"properties":{"codigo":"23417100000000000401","sector":"234171000000000004","pcode":"CO23417","area_m2":70119}},{"type":"Polygon","arcs":[[14,15,16,17,18]],"properties":{"codigo":"23417100000000001006","sector":"234171000000000010","pcode":"CO23417","area_m2":137351}},{"type":"Polygon","arcs":[[19,20,21,22,23]],"properties":{"codigo":"23417100000000001008","sector":"234171000000000010","pcode":"CO23417","area_m2":159847}},{"type":"Polygon","arcs":[[-18,24,25,26,27]],"properties":{"codigo":"23417100000000001102","sector":"234171000000000011","pcode":"CO23417","area_m2":71275}},{"type":"Polygon","arcs":[[28,29,-2,30]],"properties":{"codigo":"23417100000000001401","sector":"234171000000000014","pcode":"CO23417","area_m2":30738}},{"type":"Polygon","arcs":[[31,32,33,34,35]],"properties":{"codigo":"23417200101003000104","sector":"234172001010030001","pcode":"CO23417","area_m2":443038}},{"type":"Polygon","arcs":[[36]],"properties":{"codigo":"23417200703031000101","sector":"234172007030310001","pcode":"CO23417","area_m2":102858}},{"type":"Polygon","arcs":[[37]],"properties":{"codigo":"23417200403012000101","sector":"234172004030120001","pcode":"CO23417","area_m2":30244}},{"type":"Polygon","arcs":[[38,39]],"properties":{"codigo":"23417200101003000101","sector":"234172001010030001","pcode":"CO23417","area_m2":248874}},{"type":"Polygon","arcs":[[40,41,-39,42]],"properties":{"codigo":"23417200101003000102","sector":"234172001010030001","pcode":"CO23417","area_m2":90315}},{"type":"Polygon","arcs":[[-36,43,-41,44]],"properties":{"codigo":"23417200101003000103","sector":"234172001010030001","pcode":"CO23417","area_m2":75857}},{"type":"Polygon","arcs":[[45,46]],"properties":{"codigo":"23417200205007000101","sector":"234172002050070001","pcode":"CO23417","area_m2":212181}},{"type":"Polygon","arcs":[[47,48]],"properties":{"codigo":"23417200902010000101","sector":"234172009020100001","pcode":"CO23417","area_m2":662982}},{"type":"Polygon","arcs":[[49]],"properties":{"codigo":"23417200402019000101","sector":"234172004020190001","pcode":"CO23417","area_m2":51983}},{"type":"Polygon","arcs":[[50]],"properties":{"codigo":"23417200504021000101","sector":"234172005040210001","pcode":"CO23417","area_m2":241636}},{"type":"Polygon","arcs":[[51]],"properties":{"codigo":"23417200602024000101","sector":"234172006020240001","pcode":"CO23417","area_m2":417153}},{"type":"Polygon","arcs":[[52]],"properties":{"codigo":"23417200105027000101","sector":"234172001050270001","pcode":"CO23417","area_m2":99449}},{"type":"MultiPolygon","arcs":[[[-48,53]],[[54]]],"properties":{"codigo":"23417200705029000101","sector":"234172007050290001","pcode":"CO23417","area_m2":309873}},{"type":"Polygon","arcs":[[55]],"properties":{"codigo":"23417200502039000101","sector":"234172005020390001","pcode":"CO23417","area_m2":135390}},{"type":"Polygon","arcs":[[56]],"properties":{"codigo":"23417200702042000101","sector":"234172007020420001","pcode":"CO23417","area_m2":172207}},{"type":"Polygon","arcs":[[57]],"properties":{"codigo":"23417200101043000101","sector":"234172001010430001","pcode":"CO23417","area_m2":80565}},{"type":"Polygon","arcs":[[58,59,60,61]],"properties":{"codigo":"23417100000000000601","sector":"234171000000000006","pcode":"CO23417","area_m2":31439}},{"type":"Polygon","arcs":[[62,63,-61,64]],"properties":{"codigo":"23417100000000000602","sector":"234171000000000006","pcode":"CO23417","area_m2":26898}},{"type":"Polygon","arcs":[[65]],"properties":{"codigo":"23417200502014000101","sector":"234172005020140001","pcode":"CO23417","area_m2":27750}},{"type":"Polygon","arcs":[[66,-65,-60,67,68,69,70]],"properties":{"codigo":"23417100000000000603","sector":"234171000000000006","pcode":"CO23417","area_m2":55043}},{"type":"Polygon","arcs":[[71,72,-31,-1,73]],"properties":{"codigo":"23417100000000001402","sector":"234171000000000014","pcode":"CO23417","area_m2":108907}},{"type":"Polygon","arcs":[[74,75,76,77]],"properties":{"codigo":"23417100000000001503","sector":"234171000000000015","pcode":"CO23417","area_m2":65291}},{"type":"Polygon","arcs":[[78,79,-12,80,81]],"properties":{"codigo":"23417100000000000301","sector":"234171000000000003","pcode":"CO23417","area_m2":94184}},{"type":"Polygon","arcs":[[82,-14,83,-68,-59]],"properties":{"codigo":"23417100000000000402","sector":"234171000000000004","pcode":"CO23417","area_m2":24619}},{"type":"Polygon","arcs":[[84,85,86,87]],"properties":{"codigo":"23417100000000000904","sector":"234171000000000009","pcode":"CO23417","area_m2":188389}},{"type":"Polygon","arcs":[[-84,-13,-80,88,-69]],"properties":{"codigo":"23417100000000000501","sector":"234171000000000005","pcode":"CO23417","area_m2":43615}},{"type":"Polygon","arcs":[[89,90,91,-9,92]],"properties":{"codigo":"23417100000000000102","sector":"234171000000000001","pcode":"CO23417","area_m2":148005}},{"type":"Polygon","arcs":[[93,94,95,96,97]],"properties":{"codigo":"23417100000000000704","sector":"234171000000000007","pcode":"CO23417","area_m2":74666}},{"type":"Polygon","arcs":[[-81,-11,98,-91,99,100,101,102]],"properties":{"codigo":"23417100000000000201","sector":"234171000000000002","pcode":"CO23417","area_m2":136179}},{"type":"Polygon","arcs":[[-100,-90,103]],"properties":{"codigo":"23417100000000000202","sector":"234171000000000002","pcode":"CO23417","area_m2":40085}},{"type":"Polygon","arcs":[[104,105,-70,-89,-79,106,107]],"properties":{"codigo":"23417100000000000701","sector":"234171000000000007","pcode":"CO23417","area_m2":108859}},{"type":"Polygon","arcs":[[-71,-106,108,109,110]],"properties":{"codigo":"23417100000000000702","sector":"234171000000000007","pcode":"CO23417","area_m2":58967}},{"type":"Polygon","arcs":[[-105,111,-94,112,-109]],"properties":{"codigo":"23417100000000000703","sector":"234171000000000007","pcode":"CO23417","area_m2":75950}},{"type":"Polygon","arcs":[[-108,113,114,115,-95,-112]],"properties":{"codigo":"23417100000000000705","sector":"234171000000000007","pcode":"CO23417","area_m2":69745}},{"type":"Polygon","arcs":[[-102,116,117,118]],"properties":{"codigo":"23417100000000000801","sector":"234171000000000008","pcode":"CO23417","area_m2":140624}},{"type":"Polygon","arcs":[[-103,-119,119,120]],"properties":{"codigo":"23417100000000000802","sector":"234171000000000008","pcode":"CO23417","area_m2":53587}},{"type":"Polygon","arcs":[[-114,-107,-82,-121,121]],"properties":{"codigo":"23417100000000000803","sector":"234171000000000008","pcode":"CO23417","area_m2":103654}},{"type":"Polygon","arcs":[[-96,-116,122,-86,123,124]],"properties":{"codigo":"23417100000000000901","sector":"234171000000000009","pcode":"CO23417","area_m2":141089}},{"type":"Polygon","arcs":[[-124,-85,125,126]],"properties":{"codigo":"23417100000000000902","sector":"234171000000000009","pcode":"CO23417","area_m2":97649}},{"type":"Polygon","arcs":[[-97,-125,-127,127,128]],"properties":{"codigo":"23417100000000000903","sector":"234171000000000009","pcode":"CO23417","area_m2":69572}},{"type":"Polygon","arcs":[[129,-87,-123,-115,-122,-120,-118,130]],"properties":{"codigo":"23417100000000000905","sector":"234171000000000009","pcode":"CO23417","area_m2":626184}},{"type":"Polygon","arcs":[[131,132,133,-126,-88,-130,134,135]],"properties":{"codigo":"23417100000000001001","sector":"234171000000000010","pcode":"CO23417","area_m2":335241}},{"type":"Polygon","arcs":[[136,137,-128,-134,138]],"properties":{"codigo":"23417100000000001002","sector":"234171000000000010","pcode":"CO23417","area_m2":106182}},{"type":"Polygon","arcs":[[139,140,-139,-133,141,142]],"properties":{"codigo":"23417100000000001003","sector":"234171000000000010","pcode":"CO23417","area_m2":95583}},{"type":"Polygon","arcs":[[-142,-132,143,144,-15,145]],"properties":{"codigo":"23417100000000001004","sector":"234171000000000010","pcode":"CO23417","area_m2":78836}},{"type":"Polygon","arcs":[[-16,-145,146,-20,147]],"properties":{"codigo":"23417100000000001005","sector":"234171000000000010","pcode":"CO23417","area_m2":211120}},{"type":"Polygon","arcs":[[-17,-148,-24,148,149,150,-25]],"properties":{"codigo":"23417100000000001007","sector":"234171000000000010","pcode":"CO23417","area_m2":467437}},{"type":"Polygon","arcs":[[-149,-23,151]],"properties":{"codigo":"23417100000000001009","sector":"234171000000000010","pcode":"CO23417","area_m2":303572}},{"type":"Polygon","arcs":[[152,-21,-147,-144,-136]],"properties":{"codigo":"23417100000000001010","sector":"234171000000000010","pcode":"CO23417","area_m2":308334}},{"type":"Polygon","arcs":[[153,-143,-146,-19,-28,154]],"properties":{"codigo":"23417100000000001101","sector":"234171000000000011","pcode":"CO23417","area_m2":130301}},{"type":"Polygon","arcs":[[155,-26,-151,156]],"properties":{"codigo":"23417100000000001103","sector":"234171000000000011","pcode":"CO23417","area_m2":149200}},{"type":"Polygon","arcs":[[-29,-73,157,158,-111,159,-76,160]],"properties":{"codigo":"23417100000000001501","sector":"234171000000000015","pcode":"CO23417","area_m2":126054}},{"type":"Polygon","arcs":[[-110,-113,-98,-129,-138,161,-77,-160]],"properties":{"codigo":"23417100000000001502","sector":"234171000000000015","pcode":"CO23417","area_m2":65964}},{"type":"Polygon","arcs":[[-30,-161,-75,162,163,-3]],"properties":{"codigo":"23417100000000001504","sector":"234171000000000015","pcode":"CO23417","area_m2":49004}},{"type":"Polygon","arcs":[[164,-63,-67,-159,165,166]],"properties":{"codigo":"23417100000000001601","sector":"234171000000000016","pcode":"CO23417","area_m2":60419}},{"type":"Polygon","arcs":[[-167,167,168]],"properties":{"codigo":"23417100000000001602","sector":"234171000000000016","pcode":"CO23417","area_m2":103806}},{"type":"Polygon","arcs":[[169,170,171,-155,-27,-156,172]],"properties":{"codigo":"23417100000000001104","sector":"234171000000000011","pcode":"CO23417","area_m2":820189}},{"type":"Polygon","arcs":[[173,-163,-78,-162,-137,-141,174]],"properties":{"codigo":"23417100000000001201","sector":"234171000000000012","pcode":"CO23417","area_m2":121380}},{"type":"Polygon","arcs":[[-175,-140,-154,-172,175]],"properties":{"codigo":"23417100000000001202","sector":"234171000000000012","pcode":"CO23417","area_m2":125514}},{"type":"Polygon","arcs":[[-4,-164,-174,176,177,178]],"properties":{"codigo":"23417100000000001301","sector":"234171000000000013","pcode":"CO23417","area_m2":97932}},{"type":"Polygon","arcs":[[-177,-176,-171,179,180]],"properties":{"codigo":"23417100000000001302","sector":"234171000000000013","pcode":"CO23417","area_m2":67833}},{"type":"Polygon","arcs":[[-178,-181,181,182]],"properties":{"codigo":"23417100000000001303","sector":"234171000000000013","pcode":"CO23417","area_m2":98179}},{"type":"Polygon","arcs":[[-182,-180,-170,183]],"properties":{"codigo":"23417100000000001304","sector":"234171000000000013","pcode":"CO23417","area_m2":280516}},{"type":"Polygon","arcs":[[-168,-166,-158,-72,184]],"properties":{"codigo":"23417100000000001603","sector":"234171000000000016","pcode":"CO23417","area_m2":310625}},{"type":"MultiPolygon","arcs":[[[185,-7]],[[186]]],"properties":{"codigo":"23417100000000001701","sector":"234171000000000017","pcode":"CO23417","area_m2":119548}},{"type":"Polygon","arcs":[[187,188]],"properties":{"codigo":"23417200401004000101","sector":"234172004010040001","pcode":"CO23417","area_m2":122400}},{"type":"Polygon","arcs":[[189]],"properties":{"codigo":"23417200705006000101","sector":"234172007050060001","pcode":"CO23417","area_m2":383231}},{"type":"Polygon","arcs":[[190]],"properties":{"codigo":"23417200902002000101","sector":"234172009020020001","pcode":"CO23417","area_m2":690773}},{"type":"Polygon","arcs":[[-189,191]],"properties":{"codigo":"23417200401004000102","sector":"234172004010040001","pcode":"CO23417","area_m2":113336}},{"type":"MultiPolygon","arcs":[[[192]],[[193]]],"properties":{"codigo":"23417200605005000101","sector":"234172006050050001","pcode":"CO23417","area_m2":179842}},{"type":"Polygon","arcs":[[194,195,196,-46]],"properties":{"codigo":"23417200205007000102","sector":"234172002050070001","pcode":"CO23417","area_m2":353725}},{"type":"Polygon","arcs":[[197,198,199,-196]],"properties":{"codigo":"23417200205008000101","sector":"234172002050080001","pcode":"CO23417","area_m2":232303}},{"type":"Polygon","arcs":[[200,-199]],"properties":{"codigo":"23417200205008000102","sector":"234172002050080001","pcode":"CO23417","area_m2":182424}},{"type":"Polygon","arcs":[[201,202,203,204]],"properties":{"codigo":"23417200702009000101","sector":"234172007020090001","pcode":"CO23417","area_m2":61479}},{"type":"Polygon","arcs":[[205,206,-205,207]],"properties":{"codigo":"23417200702009000102","sector":"234172007020090001","pcode":"CO23417","area_m2":117645}},{"type":"Polygon","arcs":[[208,-206,209]],"properties":{"codigo":"23417200702009000103","sector":"234172007020090001","pcode":"CO23417","area_m2":103523}},{"type":"Polygon","arcs":[[210,211,-202,-207,-209]],"properties":{"codigo":"23417200702009000104","sector":"234172007020090001","pcode":"CO23417","area_m2":41072}},{"type":"Polygon","arcs":[[-203,-212,212]],"properties":{"codigo":"23417200702009000105","sector":"234172007020090001","pcode":"CO23417","area_m2":75218}},{"type":"Polygon","arcs":[[213]],"properties":{"codigo":"23417200203017000101","sector":"234172002030170001","pcode":"CO23417","area_m2":74453}},{"type":"Polygon","arcs":[[214]],"properties":{"codigo":"23417200704018000101","sector":"234172007040180001","pcode":"CO23417","area_m2":333335}},{"type":"Polygon","arcs":[[215]],"properties":{"codigo":"23417200406022000101","sector":"234172004060220001","pcode":"CO23417","area_m2":43273}},{"type":"Polygon","arcs":[[216]],"properties":{"codigo":"23417200901023000101","sector":"234172009010230001","pcode":"CO23417","area_m2":543181}},{"type":"Polygon","arcs":[[217]],"properties":{"codigo":"23417200204025000101","sector":"234172002040250001","pcode":"CO23417","area_m2":97159}},{"type":"Polygon","arcs":[[218,219]],"properties":{"codigo":"23417200703030000101","sector":"234172007030300001","pcode":"CO23417","area_m2":104900}},{"type":"Polygon","arcs":[[220,-34,221]],"properties":{"codigo":"23417200105034000101","sector":"234172001050340001","pcode":"CO23417","area_m2":139046}},{"type":"Polygon","arcs":[[-222,-33,222]],"properties":{"codigo":"23417200105034000102","sector":"234172001050340001","pcode":"CO23417","area_m2":67471}},{"type":"Polygon","arcs":[[-219,223]],"properties":{"codigo":"23417200703036000101","sector":"234172007030360001","pcode":"CO23417","area_m2":124503}},{"type":"Polygon","arcs":[[224]],"properties":{"codigo":"23417200902037000101","sector":"234172009020370001","pcode":"CO23417","area_m2":265328}}]}},"arcs":[[[9179,7087],[-77,23]],[[9102,7110],[-42,10]],[[9060,7120],[6,70]],[[9066,7190],[1,-3],[98,-26],[30,-6]],[[9195,7155],[-7,-9],[-9,-59]],[[8509,6689],[-80,9],[-69,0],[-89,3],[-50,-1],[-6,40]],[[8215,6740],[21,-11],[93,-2],[37,4],[48,-2],[59,10],[-1,25],[16,1],[0,24],[20,0]],[[8508,6789],[1,-34]],[[8509,6755],[0,-66]],[[8805,6753],[-54,1],[-40,-9]],[[8711,6745],[-7,24],[41,13],[29,3],[8,22],[-43,34]],[[8739,6841],[11,24],[19,-3]],[[8769,6862],[53,-15]],[[8822,6847],[-12,-52],[-5,-42]],[[9004,7544],[-65,13]],[[8939,7557],[4,43],[7,27],[-39,20],[1,38],[-6,1],[-9,34]],[[8897,7720],[104,-13]],[[9001,7707],[11,-62]],[[9012,7645],[0,-31],[-8,-70]],[[8867,7739],[-91,-56]],[[8776,7683],[-12,23],[-31,42]],[[8733,7748],[-10,42]],[[8723,7790],[109,70]],[[8832,7860],[38,-96],[10,5],[3,-16],[-16,-14]],[[9001,7707],[-30,89]],[[8971,7796],[74,12]],[[9045,7808],[0,-59],[-12,-49],[2,-43]],[[9035,7657],[-23,-12]],[[9067,7035],[-15,3]],[[9052,7038],[8,82]],[[9102,7110],[-5,-48],[-14,3],[-3,-34],[-13,4]],[[6689,9295],[71,-119],[-176,-89]],[[6584,9087],[-11,-7]],[[6573,9080],[-18,-7],[-41,-42],[-31,9]],[[6483,9040],[-7,11],[18,76],[9,82],[-1,54]],[[6502,9263],[67,0],[20,17],[21,4],[1,11],[78,0]],[[9895,4285],[15,-32],[15,-19],[26,-13],[27,0],[-11,-37],[-74,46],[-53,-6],[-23,-12],[8,34],[-5,28],[6,5],[-13,26],[49,-16],[17,-2],[-12,11],[-4,19],[6,52],[16,28],[21,-5],[-17,-35],[-4,-37],[10,-35]],[[2239,3528],[9,-6],[-11,-15],[9,-42],[-3,-29],[-10,-18],[-15,2],[-10,-14],[-2,20],[21,15],[-3,46],[-33,18],[6,15],[24,-2],[14,19],[4,-9]],[[6618,9415],[-66,-47],[6,-14],[-66,-24]],[[6492,9330],[-8,28],[-33,76],[-44,61],[12,14],[31,11],[98,12],[70,-117]],[[6665,9336],[-59,-7],[-49,-20],[-39,-11],[-4,11],[-17,-4]],[[6497,9305],[-5,25]],[[6618,9415],[47,-79]],[[6502,9263],[-5,42]],[[6665,9336],[24,-41]],[[8247,4405],[-6,16],[15,42],[3,47],[-4,88],[-19,7],[-5,-24],[-25,11],[-3,-9],[-18,9],[-35,25]],[[8150,4617],[6,24],[-1,54],[34,0],[0,24],[9,12],[20,-1],[0,-26],[30,-5],[10,-14],[20,0],[5,-14],[-5,-16],[12,-9],[1,-21],[14,-9],[-5,-28],[-2,-57],[-13,-63],[-16,-39],[-22,-24]],[[9314,2088],[29,-1],[5,-19]],[[9348,2068],[-44,1],[-2,-8],[-39,35],[-28,37],[-17,6],[-22,-4],[-25,-20],[-9,-23],[12,-27],[-16,-13],[-4,8],[-3,-29],[14,-19],[-49,-63],[11,-13],[-15,-20],[-7,10],[-9,-13],[-18,28],[-38,-47],[-4,-17],[-56,-94],[-6,-54],[12,-3],[-2,-28],[8,-1],[-3,-25],[-2,-76],[7,-18],[-9,1],[0,-25],[13,-23],[-11,-12],[-18,-33],[-10,8],[-43,-55],[-37,-38],[-48,-43],[-44,-30],[-25,-2],[-1,9],[-31,0],[7,48],[48,-8],[50,42],[1,11],[45,36],[37,46],[12,7],[18,54],[4,23],[-14,7],[0,49],[8,19],[-19,90],[4,49],[10,30],[-11,8],[13,39],[21,28],[60,46],[6,22],[17,-17],[33,31],[15,19],[19,39],[5,-1],[7,38],[-14,11],[13,45],[13,26],[24,27],[-9,27],[21,9],[7,-25],[58,1],[37,-27],[-8,-18],[11,-13],[-11,-34],[24,-21],[22,-10]],[[1727,4108],[1,-28],[27,-26],[-4,-7],[25,-22],[-18,-42],[-11,14],[10,22],[-35,16],[-18,-54],[-13,-29],[-16,8],[-11,-10],[-5,13],[20,3],[15,16],[-8,18],[18,37],[-16,17],[21,15],[2,31],[11,-9],[5,17]],[[3980,684],[14,-34],[21,-11],[-9,-57],[-41,18],[-5,-6],[4,-39],[-6,-30],[-12,-15],[-26,1],[-12,14],[-23,1],[4,-22],[-17,-5],[-5,15],[-24,6],[-38,-16],[-8,12],[4,31],[9,5],[16,94],[38,-9],[34,3],[42,27],[27,-8],[5,34],[8,-9]],[[7316,3040],[36,-2],[-2,-27],[-113,8],[-20,-8],[-49,-42],[24,-39],[-11,-11],[-18,27],[-8,-8],[-9,15],[-19,-19],[13,-44],[-20,-20],[17,-30],[-24,-26],[-20,28],[-57,-61],[-55,-45],[22,-17],[-31,-58],[-18,13],[-29,30],[-60,-13],[-81,-42],[-19,57],[77,44],[109,45],[146,136],[19,28],[41,36],[49,37],[33,13],[77,-5]],[[6852,7661],[9,-25],[47,8],[26,22],[-8,-19],[-16,-7],[0,-35],[-26,-29],[5,-27],[-31,-27],[-24,26],[-34,29],[10,21],[1,40],[18,5],[4,20],[19,-2]],[[9314,2088],[20,42],[64,-11],[20,0],[0,-12],[60,0],[-1,-17],[39,0],[-1,7],[23,10],[-5,7],[15,17],[4,21],[-31,19],[2,6],[40,-16],[3,18],[-34,12],[32,2],[-9,52],[-40,-15],[-5,13],[21,4],[0,27],[-12,34],[16,2],[1,36],[7,34],[-24,11],[9,45],[33,-7],[3,15],[16,-5],[-14,-83],[19,-2],[-3,-29],[15,-6],[-29,-3],[-1,-55],[18,4],[10,-55],[14,1],[-11,-13],[-1,-25],[23,-6],[-2,-11],[-24,6],[-5,-16],[39,-11],[-3,-12],[-16,-4],[-20,10],[-21,-40],[13,-21],[21,-20],[-9,-19],[13,-10],[-5,-21],[20,-35],[11,-42],[-6,-5],[-9,36],[-20,44],[2,3],[-24,42],[-18,26],[-19,-8],[-5,10],[-20,-15],[-31,-6],[-31,4],[-37,11],[-29,-4],[-10,9],[-27,0]],[[9700,2130],[-14,-4],[-8,-18],[-9,27],[31,-5]],[[4176,3836],[9,-30],[-10,-4],[12,-20],[-19,-22],[12,-20],[-35,-15],[10,-31],[-27,-14],[3,-65],[-19,-1],[-3,73],[-32,-4],[-17,48],[35,10],[-15,52],[35,13],[-5,16],[14,-3],[52,17]],[[9890,7309],[107,3],[1,-9],[-58,-156],[-10,4],[-16,22],[-19,-51],[-7,-7],[-3,32],[-23,103],[-4,63],[32,-4]],[[6366,9621],[1,188],[0,190],[17,0],[4,-124],[10,-1],[1,-41],[-11,2],[-2,-99],[-2,-24],[0,-93],[-18,2]],[[8825,6751],[1,20],[14,30],[14,41]],[[8854,6842],[21,-8]],[[8875,6834],[-3,-23],[9,-43]],[[8881,6768],[-35,-13],[-21,-4]],[[8940,6825],[4,-37]],[[8944,6788],[-63,-20]],[[8875,6834],[35,-21],[22,-7],[8,19]],[[3950,3651],[5,-12],[-22,-18],[-11,29],[-12,14],[-11,29],[43,18],[8,-37],[-7,-6],[7,-17]],[[8939,6874],[1,-49]],[[8854,6842],[-4,0]],[[8850,6842],[6,64]],[[8856,6906],[21,-16]],[[8877,6890],[50,-17],[12,1]],[[9178,7020],[-25,-18],[-66,-25],[-22,-12]],[[9065,6965],[-6,6],[8,64]],[[9179,7087],[-3,-49],[2,-18]],[[9042,7178],[-5,-70],[-23,7],[-6,-63]],[[9008,7052],[-3,-41],[-27,13]],[[8978,7024],[9,129],[19,36]],[[9006,7189],[36,-11]],[[8785,6926],[15,-3]],[[8800,6923],[-2,-52],[-27,1],[-2,-10]],[[8739,6841],[-45,-16],[-4,30],[-2,72],[42,11],[7,7]],[[8737,6945],[48,-19]],[[8825,6751],[-20,2]],[[8822,6847],[28,-5]],[[8783,7371],[-7,-15],[25,-17],[-25,-65],[30,-15],[-5,-16]],[[8801,7243],[-5,-14]],[[8796,7229],[-46,27],[-98,59],[-28,21],[29,67],[24,-17],[18,40]],[[8695,7426],[88,-55]],[[8800,6923],[35,-5],[21,-12]],[[8626,6832],[1,-47],[9,2],[2,-38],[13,3]],[[8651,6752],[5,-25]],[[8656,6727],[-90,-29],[-57,-9]],[[8509,6755],[34,-2],[0,45],[-5,24],[27,11],[25,-1],[11,17],[24,-7],[1,-10]],[[8959,7104],[-57,9]],[[8902,7113],[-30,5]],[[8872,7118],[8,81]],[[8880,7199],[88,-13]],[[8968,7186],[-9,-82]],[[8711,6745],[-55,-18]],[[8651,6752],[44,13],[-15,40],[-13,-6],[-15,44]],[[8652,6843],[6,13],[9,52],[-33,-1],[-12,12]],[[8622,6919],[12,30],[18,14],[23,3]],[[8675,6966],[62,-21]],[[8626,6832],[26,11]],[[8894,7035],[-8,-31],[20,-16]],[[8906,6988],[-27,-82],[-2,-16]],[[8785,6926],[17,42]],[[8802,6968],[5,26],[30,34],[35,8],[22,-1]],[[8906,6988],[25,-20],[21,39]],[[8952,7007],[-1,-12]],[[8951,6995],[-12,-121]],[[8894,7035],[8,78]],[[8959,7104],[-7,-97]],[[8802,6968],[-18,90]],[[8784,7058],[30,8]],[[8814,7066],[54,15],[4,37]],[[8622,6919],[-33,-26],[-31,-7],[-23,-11],[-11,19],[0,15],[-10,9],[11,22],[18,9],[16,-2],[23,41],[3,25],[25,38],[31,39]],[[8641,7090],[19,-26]],[[8660,7064],[-18,-25],[14,-70],[18,6],[1,-9]],[[8660,7064],[1,0]],[[8661,7064],[14,-11],[22,-32],[24,-46],[17,-20],[-1,-10]],[[8661,7064],[26,23],[31,-50],[66,21]],[[8814,7066],[-20,80],[-10,-3],[-5,68],[17,18]],[[8801,7243],[82,-11]],[[8883,7232],[-3,-33]],[[8783,7371],[107,-68]],[[8890,7303],[-7,-71]],[[8890,7303],[52,-37],[22,-38],[6,-28]],[[8970,7200],[-2,-14]],[[8637,7463],[58,-37]],[[8641,7090],[-37,37],[-35,13],[-35,29],[-20,10],[-30,27],[53,46],[19,4],[-8,14],[22,47],[67,146]],[[8873,7469],[10,-4]],[[8883,7465],[31,-32]],[[8914,7433],[-10,-25],[-14,-105]],[[8637,7463],[28,105]],[[8665,7568],[24,-14],[19,-26],[34,-18],[131,-41]],[[8982,7318],[-8,-82]],[[8974,7236],[-4,-36]],[[8914,7433],[26,-45],[17,-15],[25,-55]],[[8992,7416],[-8,-82]],[[8984,7334],[-2,-16]],[[8883,7465],[1,8],[36,-7],[1,18],[43,-7],[1,23],[34,-7]],[[8999,7493],[-7,-77]],[[8873,7469],[-6,39]],[[8867,7508],[6,0],[1,26],[61,-11],[4,34]],[[9004,7544],[-5,-51]],[[8867,7508],[-17,72],[-26,45],[-24,33],[-24,25]],[[8867,7739],[4,-9],[22,9],[4,-19]],[[8832,7860],[-73,156],[-20,30]],[[8739,8046],[33,16],[70,39],[28,-29],[20,-25],[22,-65]],[[8912,7982],[35,-106],[24,-80]],[[8723,7790],[-8,27],[-18,26],[-10,50],[-10,29],[-18,27],[-5,49],[-10,30],[-16,14],[15,22],[82,1],[14,-19]],[[8665,7568],[-12,8],[-2,15],[26,7],[53,149],[3,1]],[[9057,7451],[-36,-4],[-20,-14],[-9,-17]],[[9035,7657],[27,-48],[13,-43],[-2,-65],[-16,-50]],[[9032,7897],[13,-89]],[[8912,7982],[43,-26],[2,11],[40,-1],[-3,17],[13,-17],[25,-69]],[[9065,6965],[-21,-26],[-56,-16]],[[8988,6923],[-10,-8],[-24,-38],[-15,-3]],[[8951,6995],[15,1],[12,28]],[[9008,7052],[44,-14]],[[8974,7236],[34,-4],[-2,-43]],[[9042,7178],[21,16]],[[9063,7194],[3,-4]],[[9017,6758],[-25,27],[-30,6],[-18,-3]],[[8988,6923],[1,-80]],[[8989,6843],[2,-42],[33,-18],[-7,-25]],[[8989,6843],[42,-1],[75,-7],[9,-9]],[[9115,6826],[9,-28],[-5,-19],[-34,-35],[-42,8],[-16,-12],[-10,18]],[[9345,7403],[-185,30]],[[9160,7433],[-61,11]],[[9099,7444],[-42,7]],[[9032,7897],[34,12],[100,29],[28,-78],[-61,-20],[17,-24],[-11,-55],[12,-18],[12,-1],[15,-37],[21,7],[21,-13],[18,-46],[-14,-3],[-38,-47],[-4,-47],[18,-53],[17,-5],[14,6],[10,-21],[18,-18],[27,-2],[54,3],[-21,76],[4,2],[55,-14],[3,-46],[9,-32],[-3,-36],[19,-4],[2,-20],[-63,11]],[[9084,7321],[-18,-58],[-3,-69]],[[8984,7334],[78,-9],[22,-4]],[[9099,7444],[-15,-123]],[[9084,7321],[42,-7]],[[9126,7314],[-10,-37],[-5,-66],[89,-24]],[[9200,7187],[7,-10],[-12,-22]],[[9160,7433],[-19,-78],[-9,-24]],[[9132,7331],[-6,-17]],[[9132,7331],[43,-16],[26,-5],[-3,-20],[9,-4]],[[9207,7286],[-11,-34],[0,-19],[-11,-14],[-2,-18],[17,-14]],[[9345,7403],[2,-32],[9,-57],[-71,-81],[-30,48],[-17,8],[-31,-3]],[[9178,7020],[14,6],[29,-6],[4,-18],[-8,-43],[-1,-32],[26,-37],[-15,-18],[-16,7],[-26,0],[-23,-17],[-17,-2],[-23,-14],[-7,-20]],[[8215,6740],[6,12],[18,-13],[63,-1],[18,8],[18,-8],[0,25],[22,5],[28,-16],[0,-8],[28,0],[1,17],[14,6],[18,-6],[22,24],[-1,36],[38,7],[0,-39]],[[8384,6936],[12,-3],[-3,-22],[11,-12],[-7,-20],[-20,-22],[12,-14],[9,9],[-11,-40],[-23,-15],[-14,24],[6,53],[10,18],[-7,16],[7,24],[18,4]],[[155,2619],[43,-98],[18,4],[33,21],[6,-19],[-16,-1],[9,-36],[-31,-12],[-14,31],[-42,-26],[-2,16],[-26,-11],[-69,48],[-9,37],[16,52],[-6,27]],[[65,2652],[16,-30],[-11,-37],[-1,-37],[22,-16],[3,11],[22,16],[4,25],[12,27],[7,-4],[16,12]],[[9668,3084],[-1,-23],[56,-6],[0,-12],[15,-2],[1,14],[31,-2],[24,19],[19,-16],[-19,-16],[-14,0],[-22,-23],[-13,12],[-39,3],[-1,14],[-25,2],[-9,-11],[2,-40],[37,-12],[21,3],[1,-51],[-48,11],[-6,-5],[3,-26],[10,-2],[0,-21],[-11,0],[3,-72],[-7,0],[-3,-32],[-5,1],[-31,-99],[-8,3],[-7,-29],[8,-1],[-8,-91],[15,-3],[-2,-14],[-14,4],[-6,-20],[-17,4],[7,28],[4,51],[-10,1],[1,25],[10,48],[10,0],[7,23],[10,2],[23,75],[3,28],[-14,5],[4,24],[-32,-1],[1,11],[-32,-2],[-2,20],[12,3],[-7,25],[-18,-7],[5,-15],[-14,4],[-20,-10],[-3,10],[-23,-8],[0,21],[11,-1],[2,49],[10,3],[-12,33],[-1,25],[22,18],[49,-4],[0,17],[16,0],[0,20],[10,11],[18,3],[7,-24],[11,0],[5,28]],[[9180,633],[19,-2],[-1,-25],[13,0],[-1,-16],[-20,0],[-2,-16],[5,-35],[22,-71],[18,7],[3,-12],[17,7],[4,-14],[28,10],[5,-21],[23,20],[-5,37],[17,12],[6,-13],[36,25],[9,-20],[13,-5],[-15,-6],[-13,-22],[1,-11],[-28,-19],[6,-10],[-25,-28],[17,-15],[-25,-19],[19,-33],[-13,-5],[19,-20],[-9,-8],[-48,-22],[-7,-12],[2,-23],[-11,-8],[1,-31],[-27,-9],[-75,-36],[-35,-4],[-7,-30],[7,-39],[14,-9],[9,-19],[21,-11],[16,3],[9,-18],[18,-19],[-47,-17],[-7,11],[-16,4],[-22,-16],[-9,11],[-2,20],[-21,44],[-33,-25],[-7,13],[16,10],[-3,11],[17,9],[2,14],[-21,0],[7,14],[-2,21],[13,9],[-10,13],[-33,18],[18,0],[16,35],[-1,10],[36,-31],[20,33],[-24,14],[3,7],[31,-19],[10,45],[20,-13],[22,23],[15,33],[-10,16],[6,29],[-8,12],[20,20],[15,-6],[-1,12],[-24,7],[-37,24],[-3,81],[-35,-1],[-46,16],[8,7],[-1,26],[66,21],[-6,30],[22,5],[-1,10],[17,5]],[[65,2652],[-13,-2],[9,23],[-6,47],[-38,16],[-16,15],[12,27],[53,-55],[70,-68],[19,-36]],[[8078,317],[19,-3],[-5,-12],[13,-20],[-6,-22],[-24,4],[3,-14],[-14,-29],[-11,9],[-9,-28],[-25,-21],[-18,-2],[-3,-28],[47,-15],[60,-12],[-2,-12],[-31,4],[-1,-11],[-44,5],[-13,16],[-9,-8],[-27,42],[-16,31],[4,18],[19,32],[30,11],[32,26],[24,43],[7,-4]],[[8045,433],[21,-10],[-3,-70],[-14,-42],[-25,-30],[-18,6],[19,17],[-2,19],[-16,16],[14,17],[-2,20],[9,55],[17,2]],[[8247,4405],[-58,-20],[-3,16],[-44,-6]],[[8142,4395],[-46,3],[-30,11],[-19,15]],[[8047,4424],[24,47],[13,10],[33,48],[6,20],[-28,22],[4,16],[26,45],[25,-15]],[[8142,4395],[2,-18],[-28,-17],[-26,-32],[-15,-28],[-3,-19],[14,-4],[60,-32],[0,-35]],[[8146,4210],[-27,-4],[-51,5],[-59,-20],[-22,-3],[-40,-16],[-15,-13]],[[7932,4159],[-7,-3],[-11,68],[8,-2],[3,-25],[22,-10],[29,10],[0,19],[10,-12],[13,7],[30,37],[-25,19],[4,6],[-49,33],[7,10],[17,-13],[18,-1],[4,22],[32,46],[4,12],[-11,13],[14,15],[3,14]],[[8146,4210],[28,-8],[-12,-39],[-10,-20],[30,-48],[-19,-12],[13,-36],[1,-26],[-11,2],[5,16],[-23,-8],[-8,13],[23,18],[-16,29],[-35,23],[-20,-15],[-3,26],[-13,-8],[-8,15],[-17,-19],[-23,15],[-31,1],[1,37],[-61,-9],[-5,2]],[[9691,6705],[-58,-23]],[[9633,6682],[-32,-19]],[[9601,6663],[-5,8],[48,24],[-7,14],[-23,0],[-3,26],[13,15],[1,46],[10,13],[6,-10]],[[9641,6799],[9,-39],[37,10],[9,-2],[-5,-63]],[[9822,6813],[-41,-3],[-8,-6],[-26,-42],[-12,-32],[-13,5],[-8,-27]],[[9714,6708],[-23,-3]],[[9641,6799],[31,-6],[12,-18],[34,47],[-1,5],[33,45],[-9,6],[10,11],[10,-7],[8,18],[9,-16],[-9,-12],[26,-26],[7,7],[20,-40]],[[9707,6644],[7,64]],[[9822,6813],[19,-28],[1,-15],[-14,-4],[-2,23],[-14,3],[-4,13],[-25,-2],[-4,-10],[17,-26],[7,-33],[-14,-7],[10,-16],[25,15],[8,-14],[-29,-26],[-28,14],[-11,-9],[-10,-25],[-25,-22],[-22,0]],[[9707,6644],[-69,0]],[[9638,6644],[-5,38]],[[9638,6644],[-37,1],[-28,-10],[-32,14],[-27,18],[17,89],[-12,4],[1,15],[-16,2],[4,10],[-15,18],[31,6],[7,-12],[-3,-15],[22,-4],[4,-49],[6,-1],[-2,-60],[19,-13],[24,6]],[[4640,5226],[4,-10],[26,-23],[-9,-39],[42,-19],[-6,-12],[-15,9],[-11,-20],[-17,11],[4,10],[-13,11],[-15,-1],[-42,-33],[-13,31],[27,12],[0,23],[-11,45],[49,5]],[[8201,3536],[11,-28],[15,10],[6,-13],[-10,-8],[14,-38],[44,40],[5,-9],[-55,-57],[6,-6],[58,43],[55,31],[21,-65],[-17,-6],[-3,9],[-30,-5],[-58,-20],[-23,-12],[29,-49],[-47,-18],[5,-22],[-6,-17],[-11,-6],[-6,22],[-37,31],[-14,-21],[-8,-34],[-36,-18],[-4,9],[21,19],[26,56],[18,27],[-49,39],[-2,-5],[-26,12],[-67,12],[-4,-10],[-25,25],[16,0],[12,25],[42,-14],[27,0],[52,38],[55,33]],[[2049,1328],[20,-12],[20,17],[-16,-26],[-48,-65],[-20,-19],[-2,14],[-14,10],[0,18],[47,44],[-12,20],[23,7],[2,-8]],[[8408,1190],[8,-21],[26,12],[27,-58],[10,-59],[36,3],[2,-16],[21,-3],[-6,25],[43,2],[8,17],[14,-2],[-5,-27],[24,0],[-4,-15],[7,-12],[65,-24],[-10,-72],[6,8],[27,-2],[-10,-54],[-10,-23],[41,-12],[-3,-18],[10,-4],[-8,-25],[-22,13],[-5,-16],[-9,5],[-1,-21],[-34,7],[4,54],[-77,58],[-13,-20],[-26,31],[-20,7],[-6,-14],[-22,2],[-6,-17],[-8,5],[-11,-40],[-40,25],[-17,-46],[-22,12],[17,70],[29,-7],[-13,24],[3,71],[13,-1],[15,11],[-2,32],[-21,0],[8,30],[-17,47],[-8,5],[-14,50],[6,3]],[[7779,6574],[3,-22],[-16,-33],[-2,-57],[26,-43],[-7,-37],[2,-12],[22,7],[6,-18],[-15,-7],[-3,10],[-25,-8],[-2,10],[-49,7],[15,28],[-11,29],[17,11],[-6,68],[-12,0],[2,16],[12,8],[18,38],[16,19],[9,-14]],[[8826,5462],[-12,-57]],[[8814,5405],[-8,-39],[3,-11],[-17,-5],[3,-34],[-12,-6],[-15,8],[5,12],[-22,20],[-12,89],[-15,56],[8,4],[42,-31],[52,-6]],[[6600,8951],[-17,-44],[49,-27],[-2,-9],[-77,42],[-39,24],[-12,-37],[-18,9],[9,24],[-17,10],[-11,-11],[-14,11],[25,88],[7,9]],[[6573,9080],[0,-6],[-35,-90],[62,-33]],[[6584,9087],[-10,-39],[21,3],[35,19],[-11,-33],[9,-5],[-19,-48],[5,-3],[-14,-30]],[[8826,5462],[-2,64],[72,5],[6,-174],[-39,2],[-17,8],[-5,15],[-12,3],[3,12],[-18,8]],[[9183,1009],[-7,-32],[13,-51],[28,3],[-5,-19],[4,-45],[42,4],[2,-13],[-39,-5],[15,-34],[35,3],[0,-25],[-62,-8],[-1,-5],[-42,5],[2,-37],[28,-66],[-16,-7],[-21,63],[-17,-4],[-10,35],[0,27],[-39,-3],[-31,4],[-24,15],[-29,4],[-1,10],[-19,-7],[-2,29],[40,3],[13,-7],[21,17],[15,-3],[3,12],[31,-10],[31,-4],[10,21],[-1,34],[-6,13],[-1,42],[4,35],[36,6]]]}
