{"type":"Topology","bbox":[-75.79599899067267,8.528750591791475,-75.62532355813545,8.824049329337543],"transform":{"scale":[0.00001706925017874018,0.000029532827037310494],"translate":[-75.79599899067267,8.528750591791475]},"objects":{"municipios":{"type":"GeometryCollection","geometries":[{"type":"Polygon","arcs":[[0]],"properties":{"codigo":"23678200402008000101","sector":"236782004020080001","pcode":"CO23678","area_m2":55619}},{"type":"Polygon","arcs":[[1]],"properties":{"codigo":"23678200101005000101","sector":"236782001010050001","pcode":"CO23678","area_m2":105202}},{"type":"Polygon","arcs":[[2]],"properties":{"codigo":"23678200102001000101","sector":"236782001020010001","pcode":"CO23678","area_m2":350418}},{"type":"Polygon","arcs":[[3]],"properties":{"codigo":"23678200503003000101","sector":"236782005030030001","pcode":"CO23678","area_m2":236224}},{"type":"Polygon","arcs":[[4]],"properties":{"codigo":"23678200204004000101","sector":"236782002040040001","pcode":"CO23678","area_m2":45241}},{"type":"Polygon","arcs":[[5]],"properties":{"codigo":"23678200101006000101","sector":"236782001010060001","pcode":"CO23678","area_m2":242220}},{"type":"Polygon","arcs":[[6]],"properties":{"codigo":"23678200303009000101","sector":"236782003030090001","pcode":"CO23678","area_m2":78757}},{"type":"Polygon","arcs":[[7]],"properties":{"codigo":"23678200103010000101","sector":"236782001030100001","pcode":"CO23678","area_m2":292383}},{"type":"Polygon","arcs":[[8]],"properties":{"codigo":"23678200501011000101","sector":"236782005010110001","pcode":"CO23678","area_m2":172314}},{"type":"Polygon","arcs":[[9]],"properties":{"codigo":"23678200102016000101","sector":"236782001020160001","pcode":"CO23678","area_m2":46417}},{"type":"Polygon","arcs":[[10]],"properties":{"codigo":"23678200102018000101","sector":"236782001020180001","pcode":"CO23678","area_m2":294854}},{"type":"Polygon","arcs":[[11]],"properties":{"codigo":"23678200303019000101","sector":"236782003030190001","pcode":"CO23678","area_m2":290787}},{"type":"Polygon","arcs":[[12,13,14,15]],"properties":{"codigo":"23678100000000000102","sector":"236781000000000001","pcode":"CO23678","area_m2":91139}},{"type":"Polygon","arcs":[[16,17,18,-13]],"properties":{"codigo":"23678100000000000103","sector":"236781000000000001","pcode":"CO23678","area_m2":57137}},{"type":"Polygon","arcs":[[19,20,-18,21]],"properties":{"codigo":"23678100000000000104","sector":"236781000000000001","pcode":"CO23678","area_m2":91056}},{"type":"Polygon","arcs":[[-15,22]],"properties":{"codigo":"23678100000000000101","sector":"236781000000000001","pcode":"CO23678","area_m2":691413}},{"type":"Polygon","arcs":[[23,-20]],"properties":{"codigo":"23678100000000000105","sector":"236781000000000001","pcode":"CO23678","area_m2":229502}},{"type":"Polygon","arcs":[[24,25]],"properties":{"codigo":"23678200303002000101","sector":"236782003030020001","pcode":"CO23678","area_m2":185222}},{"type":"Polygon","arcs":[[-25,26]],"properties":{"codigo":"23678200303002000102","sector":"236782003030020001","pcode":"CO23678","area_m2":169448}},{"type":"Polygon","arcs":[[27]],"properties":{"codigo":"23678200403012000101","sector":"236782004030120001","pcode":"CO23678","area_m2":72330}}]}},"arcs":[[[7703,4637],[27,-11],[2,-32],[36,-38],[-2,-24],[-67,-13],[-43,-30],[-22,57],[30,3],[36,29],[-8,40],[-28,14],[39,5]],[[5342,9231],[-38,-40],[-37,-58],[17,-9],[-40,-23],[-82,47],[-42,-17],[-15,8],[-50,-22],[-5,23],[27,1],[2,26],[-28,12],[87,6],[82,34],[20,-18],[70,31],[32,-1]],[[278,8372],[144,-54],[-108,-56],[-78,-7],[-45,-45],[89,-25],[4,-36],[44,-29],[-5,-15],[36,-89],[53,-39],[-171,17],[6,53],[-2,77],[-51,16],[-9,-15],[-87,27],[19,54],[-51,35],[-28,-6],[-38,40],[42,0],[-2,14],[87,12],[24,10],[50,-13],[29,21],[37,54],[11,-1]],[[7247,964],[23,-5],[11,-26],[26,-11],[43,-46],[17,1],[7,-37],[54,-10],[22,-18],[-70,-26],[-222,-54],[-36,45],[-27,7],[17,35],[71,0],[-43,46],[67,26],[-17,10],[17,35],[17,-18],[23,46]],[[9832,7540],[51,-17],[-1,-16],[97,-23],[20,-21],[-35,0],[-47,21],[-80,-9],[-89,17],[14,31],[49,-17],[21,34]],[[4792,9993],[12,-49],[125,-10],[65,12],[-30,-32],[-79,4],[-28,-33],[-54,4],[5,-46],[-48,11],[-16,-13],[0,32],[-76,-1],[-11,-7],[-67,4],[-4,-23],[-50,-19],[-99,18],[51,90],[126,11],[148,0],[6,24],[-33,4],[-1,25],[58,-6]],[[3563,3751],[-7,-25],[55,0],[56,-14],[-59,-5],[-39,-106],[-93,7],[1,23],[-48,0],[79,29],[8,68],[14,28],[33,-5]],[[3314,8949],[54,-4],[195,-64],[25,16],[96,-46],[59,-42],[61,-7],[102,14],[-8,25],[62,5],[115,-65],[25,-6],[43,19],[27,-16],[24,9],[41,-32],[-121,-54],[-86,53],[-70,26],[-73,-5],[1,-15],[-132,2],[-62,14],[-78,37],[-8,23],[-51,7],[-89,26],[-39,25],[-129,30],[16,25]],[[8403,6541],[65,-9],[-16,-32],[68,-17],[-7,-12],[42,-22],[-26,-34],[1,-21],[-83,-28],[-15,32],[-52,-11],[-6,21],[-96,23],[28,13],[26,53],[-18,6],[34,45],[55,-7]],[[2430,7960],[-91,-135],[-50,-50],[-346,-208],[-11,7],[333,199],[44,34],[110,157],[11,-4]],[[648,7655],[76,-16],[145,-44],[69,-26],[29,15],[27,-31],[31,-11],[21,13],[48,-8],[57,19],[48,4],[49,-29],[-86,-1],[16,-39],[-38,-5],[-24,-30],[-115,13],[-47,44],[-57,-13],[-79,16],[-102,36],[-125,4],[-32,69],[66,30],[23,-10]],[[1837,4901],[40,-20],[18,21],[70,-5],[95,-42],[97,-5],[-10,-45],[-80,-7],[-21,-26],[-79,-34],[15,-12],[-41,-22],[-37,20],[-126,-2],[-30,5],[2,31],[20,-3],[58,150],[9,-4]],[[5772,9068],[-18,-15],[-84,7],[-123,19]],[[5547,9079],[53,68],[-8,10]],[[5592,9157],[67,-20],[106,-17]],[[5765,9120],[-6,-21],[26,-8],[-13,-23]],[[5772,9068],[-6,-40],[-24,-19]],[[5742,9009],[-223,36]],[[5519,9045],[28,34]],[[5706,8945],[-25,8],[5,20],[-94,12],[-6,-24],[-55,5]],[[5531,8966],[-54,10],[42,69]],[[5742,9009],[-8,-46],[-28,-18]],[[5592,9157],[53,15],[52,63],[-8,13],[-177,-33],[-46,4],[-128,28],[543,248],[60,34],[-50,-219],[56,-24],[69,12],[58,-18],[31,-63],[15,-13],[-45,-10],[-3,12],[-49,-13],[-29,71],[19,13],[-54,-9],[-1,-18],[-75,-20],[-23,19],[-42,-30],[21,-7],[-42,-79],[-32,-13]],[[5706,8945],[-18,-22],[99,-11],[8,-37],[-18,-10],[-83,9],[-56,-74],[-78,4],[-41,-58],[-4,-63],[-27,20],[-22,84],[17,41],[50,59],[33,69],[-35,10]],[[2400,5176],[23,-16],[141,65],[43,-10],[11,12],[104,-10],[1,25],[39,-4]],[[2762,5238],[-4,-64],[-53,-24],[-4,-71],[-28,-24],[-22,17],[-24,-23],[-15,39],[28,11],[-25,47],[-29,-10],[-20,27],[-25,-18],[-77,-28],[-17,18],[-32,-15],[-15,56]],[[2400,5176],[90,51],[-147,33],[26,13],[115,-20],[0,17],[55,-11],[35,35],[-34,18],[-1,23],[55,-19],[33,2],[87,-17],[58,-22],[7,-22],[-17,-19]],[[7190,253],[56,-56],[40,-9],[-83,2],[-125,-101],[96,-83],[-17,-6],[-81,73],[-43,15],[-76,10],[56,2],[1,12],[48,4],[84,57],[46,41],[-44,50],[26,8],[16,-19]]]}
