{"type":"Topology","bbox":[-76.19658058621036,8.295755593486899,-75.68286546529845,8.911611796593487],"transform":{"scale":[0.00005137664975616672,0.0000615917794886077],"translate":[-76.19658058621036,8.295755593486899]},"objects":{"municipios":{"type":"GeometryCollection","geometries":[{"type":"Polygon","arcs":[[0]],"properties":{"codigo":"23001203003028000101","sector":"230012030030280001","pcode":"CO23001","area_m2":100067}},{"type":"Polygon","arcs":[[1,2]],"properties":{"codigo":"23001201304019000101","sector":"230012013040190001","pcode":"CO23001","area_m2":87202}},{"type":"Polygon","arcs":[[3,-2]],"properties":{"codigo":"23001201304019000102","sector":"230012013040190001","pcode":"CO23001","area_m2":127166}},{"type":"Polygon","arcs":[[4]],"properties":{"codigo":"23001200203002000101","sector":"230012002030020001","pcode":"CO23001","area_m2":768148}},{"type":"Polygon","arcs":[[5,6]],"properties":{"codigo":"23001200104003000101","sector":"230012001040030001","pcode":"CO23001","area_m2":50383}},{"type":"Polygon","arcs":[[7,8]],"properties":{"codigo":"23001201002006000101","sector":"230012010020060001","pcode":"CO23001","area_m2":149432}},{"type":"Polygon","arcs":[[9,10]],"properties":{"codigo":"23001200302020000101","sector":"230012003020200001","pcode":"CO23001","area_m2":121237}},{"type":"Polygon","arcs":[[11,12]],"properties":{"codigo":"23001202805008000101","sector":"230012028050080001","pcode":"CO23001","area_m2":96176}},{"type":"Polygon","arcs":[[13,14]],"properties":{"codigo":"23001202805008000103","sector":"230012028050080001","pcode":"CO23001","area_m2":252254}},{"type":"Polygon","arcs":[[15,16,17,18]],"properties":{"codigo":"23001200101011000101","sector":"230012001010110001","pcode":"CO23001","area_m2":353683}},{"type":"Polygon","arcs":[[-18,19,20,21,22]],"properties":{"codigo":"23001200101011000102","sector":"230012001010110001","pcode":"CO23001","area_m2":303467}},{"type":"MultiPolygon","arcs":[[[23,24,-16,25]],[[26]]],"properties":{"codigo":"23001200101011000104","sector":"230012001010110001","pcode":"CO23001","area_m2":170077}},{"type":"MultiPolygon","arcs":[[[27]],[[-26,28]]],"properties":{"codigo":"23001200101011000105","sector":"230012001010110001","pcode":"CO23001","area_m2":92706}},{"type":"MultiPolygon","arcs":[[[29,30]],[[31]]],"properties":{"codigo":"23001203103016000101","sector":"230012031030160001","pcode":"CO23001","area_m2":55188}},{"type":"Polygon","arcs":[[32,33]],"properties":{"codigo":"23001202101022000102","sector":"230012021010220001","pcode":"CO23001","area_m2":74061}},{"type":"Polygon","arcs":[[34,-10]],"properties":{"codigo":"23001200302020000102","sector":"230012003020200001","pcode":"CO23001","area_m2":128580}},{"type":"Polygon","arcs":[[35,36]],"properties":{"codigo":"23001202004021000101","sector":"230012020040210001","pcode":"CO23001","area_m2":102203}},{"type":"Polygon","arcs":[[-33,37]],"properties":{"codigo":"23001202101022000101","sector":"230012021010220001","pcode":"CO23001","area_m2":82744}},{"type":"Polygon","arcs":[[38]],"properties":{"codigo":"23001203101030000101","sector":"230012031010300001","pcode":"CO23001","area_m2":154528}},{"type":"Polygon","arcs":[[39]],"properties":{"codigo":"23001200801031000101","sector":"230012008010310001","pcode":"CO23001","area_m2":408150}},{"type":"Polygon","arcs":[[40]],"properties":{"codigo":"23001201103032000101","sector":"230012011030320001","pcode":"CO23001","area_m2":170214}},{"type":"Polygon","arcs":[[41]],"properties":{"codigo":"23001200404035000101","sector":"230012004040350001","pcode":"CO23001","area_m2":47752}},{"type":"Polygon","arcs":[[42,43]],"properties":{"codigo":"23001200205040000101","sector":"230012002050400001","pcode":"CO23001","area_m2":74838}},{"type":"Polygon","arcs":[[44]],"properties":{"codigo":"23001201303042000101","sector":"230012013030420001","pcode":"CO23001","area_m2":95618}},{"type":"Polygon","arcs":[[45]],"properties":{"codigo":"23001201305043000101","sector":"230012013050430001","pcode":"CO23001","area_m2":62337}},{"type":"Polygon","arcs":[[46]],"properties":{"codigo":"23001201504045000101","sector":"230012015040450001","pcode":"CO23001","area_m2":160529}},{"type":"Polygon","arcs":[[47]],"properties":{"codigo":"23001202502047000101","sector":"230012025020470001","pcode":"CO23001","area_m2":61924}},{"type":"Polygon","arcs":[[48]],"properties":{"codigo":"23001201203048000101","sector":"230012012030480001","pcode":"CO23001","area_m2":216469}},{"type":"Polygon","arcs":[[49]],"properties":{"codigo":"23001200503066000101","sector":"230012005030660001","pcode":"CO23001","area_m2":84615}},{"type":"Polygon","arcs":[[50]],"properties":{"codigo":"23001201907059000101","sector":"230012019070590001","pcode":"CO23001","area_m2":52219}},{"type":"Polygon","arcs":[[51]],"properties":{"codigo":"23001201305079000101","sector":"230012013050790001","pcode":"CO23001","area_m2":243263}},{"type":"MultiPolygon","arcs":[[[52]],[[53]]],"properties":{"codigo":"23001202005076000101","sector":"230012020050760001","pcode":"CO23001","area_m2":94820}},{"type":"Polygon","arcs":[[54]],"properties":{"codigo":"23001201805078000101","sector":"230012018050780001","pcode":"CO23001","area_m2":42085}},{"type":"Polygon","arcs":[[55]],"properties":{"codigo":"23001201607029000101","sector":"230012016070290001","pcode":"CO23001","area_m2":142633}},{"type":"MultiPolygon","arcs":[[[56]],[[57]]],"properties":{"codigo":"23001200603033000101","sector":"230012006030330001","pcode":"CO23001","area_m2":71058}},{"type":"Polygon","arcs":[[58,59]],"properties":{"codigo":"23001201905001000101","sector":"230012019050010001","pcode":"CO23001","area_m2":223480}},{"type":"Polygon","arcs":[[-59,60]],"properties":{"codigo":"23001201905001000102","sector":"230012019050010001","pcode":"CO23001","area_m2":235798}},{"type":"Polygon","arcs":[[-6,61]],"properties":{"codigo":"23001200104003000102","sector":"230012001040030001","pcode":"CO23001","area_m2":121394}},{"type":"Polygon","arcs":[[62,63,64,65,66]],"properties":{"codigo":"23001100000000003601","sector":"230011000000000036","pcode":"CO23001","area_m2":284374}},{"type":"Polygon","arcs":[[67,-14,68,-12]],"properties":{"codigo":"23001202805008000102","sector":"230012028050080001","pcode":"CO23001","area_m2":100649}},{"type":"MultiPolygon","arcs":[[[69]],[[70]]],"properties":{"codigo":"23001200102004000101","sector":"230012001020040001","pcode":"CO23001","area_m2":253451}},{"type":"Polygon","arcs":[[71,72]],"properties":{"codigo":"23001202405005000101","sector":"230012024050050001","pcode":"CO23001","area_m2":122447}},{"type":"MultiPolygon","arcs":[[[73,-72]],[[74]]],"properties":{"codigo":"23001202405005000102","sector":"230012024050050001","pcode":"CO23001","area_m2":128782}},{"type":"Polygon","arcs":[[75,-8,76,77]],"properties":{"codigo":"23001201002006000102","sector":"230012010020060001","pcode":"CO23001","area_m2":558381}},{"type":"MultiPolygon","arcs":[[[78]],[[-78,79]]],"properties":{"codigo":"23001201002006000103","sector":"230012010020060001","pcode":"CO23001","area_m2":80738}},{"type":"Polygon","arcs":[[80,81]],"properties":{"codigo":"23001201504007000101","sector":"230012015040070001","pcode":"CO23001","area_m2":153364}},{"type":"Polygon","arcs":[[-81,82]],"properties":{"codigo":"23001201504007000102","sector":"230012015040070001","pcode":"CO23001","area_m2":97443}},{"type":"Polygon","arcs":[[83]],"properties":{"codigo":"23001200702009000101","sector":"230012007020090001","pcode":"CO23001","area_m2":893636}},{"type":"MultiPolygon","arcs":[[[84]],[[85]]],"properties":{"codigo":"23001200701012000101","sector":"230012007010120001","pcode":"CO23001","area_m2":155144}},{"type":"Polygon","arcs":[[86]],"properties":{"codigo":"23001202603010000101","sector":"230012026030100001","pcode":"CO23001","area_m2":372083}},{"type":"Polygon","arcs":[[-17,-25,87,-20]],"properties":{"codigo":"23001200101011000103","sector":"230012001010110001","pcode":"CO23001","area_m2":285532}},{"type":"MultiPolygon","arcs":[[[88]],[[89]]],"properties":{"codigo":"23001201802013000101","sector":"230012018020130001","pcode":"CO23001","area_m2":208546}},{"type":"Polygon","arcs":[[-43,90]],"properties":{"codigo":"23001200205040000102","sector":"230012002050400001","pcode":"CO23001","area_m2":170835}},{"type":"Polygon","arcs":[[91]],"properties":{"codigo":"23001201402014000101","sector":"230012014020140001","pcode":"CO23001","area_m2":271295}},{"type":"Polygon","arcs":[[92]],"properties":{"codigo":"23001201204015000101","sector":"230012012040150001","pcode":"CO23001","area_m2":139198}},{"type":"Polygon","arcs":[[-30,93]],"properties":{"codigo":"23001203103016000102","sector":"230012031030160001","pcode":"CO23001","area_m2":53052}},{"type":"Polygon","arcs":[[94]],"properties":{"codigo":"23001201204017000101","sector":"230012012040170001","pcode":"CO23001","area_m2":317765}},{"type":"Polygon","arcs":[[95]],"properties":{"codigo":"23001200402018000101","sector":"230012004020180001","pcode":"CO23001","area_m2":211592}},{"type":"Polygon","arcs":[[-36,96]],"properties":{"codigo":"23001202004021000102","sector":"230012020040210001","pcode":"CO23001","area_m2":86934}},{"type":"Polygon","arcs":[[-22,97]],"properties":{"codigo":"23001200204036000101","sector":"230012002040360001","pcode":"CO23001","area_m2":473001}},{"type":"Polygon","arcs":[[98]],"properties":{"codigo":"23001202803037000101","sector":"230012028030370001","pcode":"CO23001","area_m2":241959}},{"type":"Polygon","arcs":[[99]],"properties":{"codigo":"23001202805038000101","sector":"230012028050380001","pcode":"CO23001","area_m2":84003}},{"type":"Polygon","arcs":[[100]],"properties":{"codigo":"23001201104039000101","sector":"230012011040390001","pcode":"CO23001","area_m2":149794}},{"type":"Polygon","arcs":[[101]],"properties":{"codigo":"23001201802041000101","sector":"230012018020410001","pcode":"CO23001","area_m2":51463}},{"type":"MultiPolygon","arcs":[[[102]],[[103]]],"properties":{"codigo":"23001201305044000101","sector":"230012013050440001","pcode":"CO23001","area_m2":80076}},{"type":"MultiPolygon","arcs":[[[104]],[[105]]],"properties":{"codigo":"23001202103046000101","sector":"230012021030460001","pcode":"CO23001","area_m2":76741}},{"type":"Polygon","arcs":[[106]],"properties":{"codigo":"23001202402049000101","sector":"230012024020490001","pcode":"CO23001","area_m2":175658}},{"type":"Polygon","arcs":[[107]],"properties":{"codigo":"23001201302050000101","sector":"230012013020500001","pcode":"CO23001","area_m2":93126}},{"type":"Polygon","arcs":[[108]],"properties":{"codigo":"23001202704051000101","sector":"230012027040510001","pcode":"CO23001","area_m2":46611}},{"type":"Polygon","arcs":[[109]],"properties":{"codigo":"23001202501052000101","sector":"230012025010520001","pcode":"CO23001","area_m2":64297}},{"type":"Polygon","arcs":[[110]],"properties":{"codigo":"23001202004053000101","sector":"230012020040530001","pcode":"CO23001","area_m2":23511}},{"type":"Polygon","arcs":[[111]],"properties":{"codigo":"23001200501054000101","sector":"230012005010540001","pcode":"CO23001","area_m2":161679}},{"type":"Polygon","arcs":[[112]],"properties":{"codigo":"23001200204055000101","sector":"230012002040550001","pcode":"CO23001","area_m2":151784}},{"type":"Polygon","arcs":[[113]],"properties":{"codigo":"23001200102062000101","sector":"230012001020620001","pcode":"CO23001","area_m2":184702}},{"type":"Polygon","arcs":[[114]],"properties":{"codigo":"23001200504063000101","sector":"230012005040630001","pcode":"CO23001","area_m2":68138}},{"type":"Polygon","arcs":[[115]],"properties":{"codigo":"23001202002064000101","sector":"230012020020640001","pcode":"CO23001","area_m2":136491}},{"type":"MultiPolygon","arcs":[[[116]],[[117]],[[118]]],"properties":{"codigo":"23001200303065000101","sector":"230012003030650001","pcode":"CO23001","area_m2":137103}},{"type":"Polygon","arcs":[[119]],"properties":{"codigo":"23001201105068000101","sector":"230012011050680001","pcode":"CO23001","area_m2":398555}},{"type":"Polygon","arcs":[[120]],"properties":{"codigo":"23001201002069000101","sector":"230012010020690001","pcode":"CO23001","area_m2":73151}},{"type":"MultiPolygon","arcs":[[[121]],[[122]]],"properties":{"codigo":"23001200205072000101","sector":"230012002050720001","pcode":"CO23001","area_m2":85855}},{"type":"MultiPolygon","arcs":[[[123]],[[124]],[[125]]],"properties":{"codigo":"23001201002073000101","sector":"230012010020730001","pcode":"CO23001","area_m2":42372}},{"type":"Polygon","arcs":[[126]],"properties":{"codigo":"23001201607074000101","sector":"230012016070740001","pcode":"CO23001","area_m2":212486}},{"type":"Polygon","arcs":[[127]],"properties":{"codigo":"23001201403034000101","sector":"230012014030340001","pcode":"CO23001","area_m2":84780}},{"type":"Polygon","arcs":[[128]],"properties":{"codigo":"23001202105077000101","sector":"230012021050770001","pcode":"CO23001","area_m2":21534}},{"type":"MultiPolygon","arcs":[[[129]],[[130]]],"properties":{"codigo":"23001200102075000101","sector":"230012001020750001","pcode":"CO23001","area_m2":288125}},{"type":"Polygon","arcs":[[131,132,133,134,135,136]],"properties":{"codigo":"23001100000000000104","sector":"230011000000000001","pcode":"CO23001","area_m2":137049}},{"type":"Polygon","arcs":[[137,138,139,140,141,142]],"properties":{"codigo":"23001100000000000303","sector":"230011000000000003","pcode":"CO23001","area_m2":208186}},{"type":"Polygon","arcs":[[143,144,145]],"properties":{"codigo":"23001100000000000609","sector":"230011000000000006","pcode":"CO23001","area_m2":128745}},{"type":"Polygon","arcs":[[146,147,148,149]],"properties":{"codigo":"23001100000000001104","sector":"230011000000000011","pcode":"CO23001","area_m2":52250}},{"type":"Polygon","arcs":[[150,151,152,153,154,155,156]],"properties":{"codigo":"23001100000000001907","sector":"230011000000000019","pcode":"CO23001","area_m2":324699}},{"type":"Polygon","arcs":[[157,158,159,160]],"properties":{"codigo":"23001100000000001408","sector":"230011000000000014","pcode":"CO23001","area_m2":59736}},{"type":"Polygon","arcs":[[161,162,163,164,165,166,167]],"properties":{"codigo":"23001100000000002403","sector":"230011000000000024","pcode":"CO23001","area_m2":88100}},{"type":"Polygon","arcs":[[168,169]],"properties":{"codigo":"23001100000000002706","sector":"230011000000000027","pcode":"CO23001","area_m2":161714}},{"type":"Polygon","arcs":[[170,171,172,173,174]],"properties":{"codigo":"23001100000000002004","sector":"230011000000000020","pcode":"CO23001","area_m2":59269}},{"type":"Polygon","arcs":[[175,176,177,178]],"properties":{"codigo":"23001100000000001205","sector":"230011000000000012","pcode":"CO23001","area_m2":21091}},{"type":"Polygon","arcs":[[179,180,181,182,183]],"properties":{"codigo":"23001100000000001703","sector":"230011000000000017","pcode":"CO23001","area_m2":51576}},{"type":"Polygon","arcs":[[-155,184]],"properties":{"codigo":"23001100000000001908","sector":"230011000000000019","pcode":"CO23001","area_m2":108195}},{"type":"Polygon","arcs":[[185,186,187,188,189,190,191]],"properties":{"codigo":"23001100000000000806","sector":"230011000000000008","pcode":"CO23001","area_m2":102711}},{"type":"Polygon","arcs":[[192,193,194]],"properties":{"codigo":"23001100000000002803","sector":"230011000000000028","pcode":"CO23001","area_m2":37985}},{"type":"Polygon","arcs":[[195,196,197,198,199]],"properties":{"codigo":"23001100000000002310","sector":"230011000000000023","pcode":"CO23001","area_m2":198196}},{"type":"Polygon","arcs":[[200,201,202]],"properties":{"codigo":"23001100000000001910","sector":"230011000000000019","pcode":"CO23001","area_m2":110121}},{"type":"Polygon","arcs":[[203,204,205,206]],"properties":{"codigo":"23001100000000002207","sector":"230011000000000022","pcode":"CO23001","area_m2":87187}},{"type":"Polygon","arcs":[[207,208,209,210,211,212,213]],"properties":{"codigo":"23001100000000001308","sector":"230011000000000013","pcode":"CO23001","area_m2":69173}},{"type":"Polygon","arcs":[[214,215,216,217,218,219]],"properties":{"codigo":"23001100000000000407","sector":"230011000000000004","pcode":"CO23001","area_m2":172279}},{"type":"Polygon","arcs":[[220,221,222,223]],"properties":{"codigo":"23001100000000000607","sector":"230011000000000006","pcode":"CO23001","area_m2":131702}},{"type":"Polygon","arcs":[[224,225,226,-192,227]],"properties":{"codigo":"23001100000000000807","sector":"230011000000000008","pcode":"CO23001","area_m2":89259}},{"type":"Polygon","arcs":[[228,229,230,231,232]],"properties":{"codigo":"23001100000000002502","sector":"230011000000000025","pcode":"CO23001","area_m2":130203}},{"type":"Polygon","arcs":[[233,234,235,-182,236,-179,237,238,239]],"properties":{"codigo":"23001100000000000308","sector":"230011000000000003","pcode":"CO23001","area_m2":158330}},{"type":"Polygon","arcs":[[240,241,242,243,244]],"properties":{"codigo":"23001100000000000207","sector":"230011000000000002","pcode":"CO23001","area_m2":108614}},{"type":"Polygon","arcs":[[245,246,247,248]],"properties":{"codigo":"23001100000000002306","sector":"230011000000000023","pcode":"CO23001","area_m2":139965}},{"type":"Polygon","arcs":[[-166,249,250,251,252,253]],"properties":{"codigo":"23001100000000001605","sector":"230011000000000016","pcode":"CO23001","area_m2":34349}},{"type":"Polygon","arcs":[[254,255,-65]],"properties":{"codigo":"23001100000000002613","sector":"230011000000000026","pcode":"CO23001","area_m2":154188}},{"type":"Polygon","arcs":[[256,257,258,259,260,-171,261]],"properties":{"codigo":"23001100000000002002","sector":"230011000000000020","pcode":"CO23001","area_m2":107649}},{"type":"Polygon","arcs":[[262,-157,263,-201,264,265]],"properties":{"codigo":"23001100000000001906","sector":"230011000000000019","pcode":"CO23001","area_m2":109081}},{"type":"Polygon","arcs":[[266,267,268]],"properties":{"codigo":"23001100000000003503","sector":"230011000000000035","pcode":"CO23001","area_m2":167373}},{"type":"Polygon","arcs":[[269,270,-234,271]],"properties":{"codigo":"23001100000000000307","sector":"230011000000000003","pcode":"CO23001","area_m2":63793}},{"type":"Polygon","arcs":[[272,273,274,-186,-227,275]],"properties":{"codigo":"23001100000000000703","sector":"230011000000000007","pcode":"CO23001","area_m2":99756}},{"type":"Polygon","arcs":[[276,277,-269,278,279]],"properties":{"codigo":"23001100000000003504","sector":"230011000000000035","pcode":"CO23001","area_m2":101412}},{"type":"Polygon","arcs":[[280,281,282,283,284,-164]],"properties":{"codigo":"23001100000000002402","sector":"230011000000000024","pcode":"CO23001","area_m2":55200}},{"type":"Polygon","arcs":[[285,286,287,288]],"properties":{"codigo":"23001100000000001406","sector":"230011000000000014","pcode":"CO23001","area_m2":43048}},{"type":"Polygon","arcs":[[289,290,291,292,293]],"properties":{"codigo":"23001100000000002907","sector":"230011000000000029","pcode":"CO23001","area_m2":72248}},{"type":"Polygon","arcs":[[294,295,296]],"properties":{"codigo":"23001100000000001502","sector":"230011000000000015","pcode":"CO23001","area_m2":132019}},{"type":"Polygon","arcs":[[-267,-278,297,298,299]],"properties":{"codigo":"23001100000000003502","sector":"230011000000000035","pcode":"CO23001","area_m2":140547}},{"type":"Polygon","arcs":[[300,-198,301,302]],"properties":{"codigo":"23001100000000002309","sector":"230011000000000023","pcode":"CO23001","area_m2":115234}},{"type":"Polygon","arcs":[[303,304,-200,305,-255,-64]],"properties":{"codigo":"23001100000000002612","sector":"230011000000000026","pcode":"CO23001","area_m2":81134}},{"type":"Polygon","arcs":[[-238,-178,306,307,308,309,310]],"properties":{"codigo":"23001100000000001201","sector":"230011000000000012","pcode":"CO23001","area_m2":72577}},{"type":"Polygon","arcs":[[311,312,313,314]],"properties":{"codigo":"23001100000000002604","sector":"230011000000000026","pcode":"CO23001","area_m2":153622}},{"type":"Polygon","arcs":[[315,316,317,318]],"properties":{"codigo":"23001100000000003101","sector":"230011000000000031","pcode":"CO23001","area_m2":71250}},{"type":"Polygon","arcs":[[319,320,321,322,323,-173]],"properties":{"codigo":"23001100000000002102","sector":"230011000000000021","pcode":"CO23001","area_m2":65428}},{"type":"Polygon","arcs":[[324,325,-228,-191,326,327]],"properties":{"codigo":"23001100000000000809","sector":"230011000000000008","pcode":"CO23001","area_m2":175660}},{"type":"Polygon","arcs":[[-67,328,329,330,331,332]],"properties":{"codigo":"23001100000000002605","sector":"230011000000000026","pcode":"CO23001","area_m2":741815}},{"type":"Polygon","arcs":[[333,334,335,336]],"properties":{"codigo":"23001100000000000202","sector":"230011000000000002","pcode":"CO23001","area_m2":115373}},{"type":"Polygon","arcs":[[337,338,339,340]],"properties":{"codigo":"23001100000000002107","sector":"230011000000000021","pcode":"CO23001","area_m2":50329}},{"type":"Polygon","arcs":[[341,342,343,344,-274,345]],"properties":{"codigo":"23001100000000000702","sector":"230011000000000007","pcode":"CO23001","area_m2":92924}},{"type":"Polygon","arcs":[[-285,346,347,-250,-165]],"properties":{"codigo":"23001100000000001603","sector":"230011000000000016","pcode":"CO23001","area_m2":49890}},{"type":"Polygon","arcs":[[348,349,-193,350,351,-281,-163,352]],"properties":{"codigo":"23001100000000002804","sector":"230011000000000028","pcode":"CO23001","area_m2":132002}},{"type":"Polygon","arcs":[[353,354,355,356,357,358,359]],"properties":{"codigo":"23001100000000000904","sector":"230011000000000009","pcode":"CO23001","area_m2":303519}},{"type":"Polygon","arcs":[[360,361,-217,362,-282,-352]],"properties":{"codigo":"23001100000000002801","sector":"230011000000000028","pcode":"CO23001","area_m2":68173}},{"type":"Polygon","arcs":[[363,364,365,366,367,368,-265,-203,369,370,371]],"properties":{"codigo":"23001100000000001905","sector":"230011000000000019","pcode":"CO23001","area_m2":227841}},{"type":"Polygon","arcs":[[372,373,374,375]],"properties":{"codigo":"23001100000000000204","sector":"230011000000000002","pcode":"CO23001","area_m2":112140}},{"type":"Polygon","arcs":[[376,377,378,379,380]],"properties":{"codigo":"23001100000000000605","sector":"230011000000000006","pcode":"CO23001","area_m2":89530}},{"type":"Polygon","arcs":[[381,-262,-175,382]],"properties":{"codigo":"23001100000000002003","sector":"230011000000000020","pcode":"CO23001","area_m2":59684}},{"type":"Polygon","arcs":[[383,384,385,386,-293]],"properties":{"codigo":"23001100000000002906","sector":"230011000000000029","pcode":"CO23001","area_m2":50957}},{"type":"Polygon","arcs":[[387,388,389,390,391,392,393]],"properties":{"codigo":"23001100000000000401","sector":"230011000000000004","pcode":"CO23001","area_m2":157935}},{"type":"Polygon","arcs":[[-323,394,395,396]],"properties":{"codigo":"23001100000000002103","sector":"230011000000000021","pcode":"CO23001","area_m2":68441}},{"type":"Polygon","arcs":[[-140,397,398,399,-336,400,401]],"properties":{"codigo":"23001100000000000302","sector":"230011000000000003","pcode":"CO23001","area_m2":102185}},{"type":"Polygon","arcs":[[402,403,404]],"properties":{"codigo":"23001100000000001005","sector":"230011000000000010","pcode":"CO23001","area_m2":49796}},{"type":"Polygon","arcs":[[405,406,407,408,409,410]],"properties":{"codigo":"23001100000000001709","sector":"230011000000000017","pcode":"CO23001","area_m2":185002}},{"type":"Polygon","arcs":[[411,412,413,414,415,416,417,418,-246]],"properties":{"codigo":"23001100000000002307","sector":"230011000000000023","pcode":"CO23001","area_m2":177751}},{"type":"Polygon","arcs":[[419,420,421,422]],"properties":{"codigo":"23001100000000000503","sector":"230011000000000005","pcode":"CO23001","area_m2":80032}},{"type":"Polygon","arcs":[[-149,423,424]],"properties":{"codigo":"23001100000000001105","sector":"230011000000000011","pcode":"CO23001","area_m2":56022}},{"type":"Polygon","arcs":[[-345,425,426,-187,-275]],"properties":{"codigo":"23001100000000000701","sector":"230011000000000007","pcode":"CO23001","area_m2":91532}},{"type":"Polygon","arcs":[[427,-248,428,429,430,431]],"properties":{"codigo":"23001100000000002303","sector":"230011000000000023","pcode":"CO23001","area_m2":89687}},{"type":"Polygon","arcs":[[432,433,434,435,436]],"properties":{"codigo":"23001100000000000706","sector":"230011000000000007","pcode":"CO23001","area_m2":72856}},{"type":"Polygon","arcs":[[437,438,439,-313,440,441]],"properties":{"codigo":"23001100000000002609","sector":"230011000000000026","pcode":"CO23001","area_m2":495443}},{"type":"Polygon","arcs":[[442,443,444,445,446]],"properties":{"codigo":"23001100000000001204","sector":"230011000000000012","pcode":"CO23001","area_m2":117776}},{"type":"Polygon","arcs":[[447,448,-167,-254,449]],"properties":{"codigo":"23001100000000002707","sector":"230011000000000027","pcode":"CO23001","area_m2":93561}},{"type":"Polygon","arcs":[[450,451,-328,452,453]],"properties":{"codigo":"23001100000000002602","sector":"230011000000000026","pcode":"CO23001","area_m2":186524}},{"type":"Polygon","arcs":[[454,-283,-363,-216,455]],"properties":{"codigo":"23001100000000002401","sector":"230011000000000024","pcode":"CO23001","area_m2":38344}},{"type":"Polygon","arcs":[[456,-239,-311,457,-243]],"properties":{"codigo":"23001100000000000208","sector":"230011000000000002","pcode":"CO23001","area_m2":82115}},{"type":"Polygon","arcs":[[458,459]],"properties":{"codigo":"23001100000000003506","sector":"230011000000000035","pcode":"CO23001","area_m2":115359}},{"type":"Polygon","arcs":[[460,461,462,463,464,465]],"properties":{"codigo":"23001100000000001304","sector":"230011000000000013","pcode":"CO23001","area_m2":84171}},{"type":"Polygon","arcs":[[466,-386,467]],"properties":{"codigo":"23001100000000002905","sector":"230011000000000029","pcode":"CO23001","area_m2":63985}},{"type":"Polygon","arcs":[[468,469,470,471]],"properties":{"codigo":"23001100000000002011","sector":"230011000000000020","pcode":"CO23001","area_m2":97246}},{"type":"Polygon","arcs":[[472,-468,-385,473]],"properties":{"codigo":"23001100000000002909","sector":"230011000000000029","pcode":"CO23001","area_m2":57584}},{"type":"Polygon","arcs":[[474,475,476,-450,-253,477]],"properties":{"codigo":"23001100000000001606","sector":"230011000000000016","pcode":"CO23001","area_m2":65843}},{"type":"Polygon","arcs":[[478,479,-365,480]],"properties":{"codigo":"23001100000000001011","sector":"230011000000000010","pcode":"CO23001","area_m2":103232}},{"type":"Polygon","arcs":[[-463,481,482,-390,483,484]],"properties":{"codigo":"23001100000000001302","sector":"230011000000000013","pcode":"CO23001","area_m2":47711}},{"type":"Polygon","arcs":[[485,-341,486,487,488,-322]],"properties":{"codigo":"23001100000000002105","sector":"230011000000000021","pcode":"CO23001","area_m2":82341}},{"type":"Polygon","arcs":[[489,490,-189,491,492,493]],"properties":{"codigo":"23001100000000000802","sector":"230011000000000008","pcode":"CO23001","area_m2":117731}},{"type":"Polygon","arcs":[[494,-456,-215,495]],"properties":{"codigo":"23001100000000001601","sector":"230011000000000016","pcode":"CO23001","area_m2":34955}},{"type":"Polygon","arcs":[[496,497,-343,498]],"properties":{"codigo":"23001100000000000602","sector":"230011000000000006","pcode":"CO23001","area_m2":79192}},{"type":"Polygon","arcs":[[499,500,501,-393]],"properties":{"codigo":"23001100000000000505","sector":"230011000000000005","pcode":"CO23001","area_m2":127028}},{"type":"Polygon","arcs":[[502,503,504]],"properties":{"codigo":"23001100000000001006","sector":"230011000000000010","pcode":"CO23001","area_m2":56196}},{"type":"Polygon","arcs":[[505,506,-168,-449,507]],"properties":{"codigo":"23001100000000002404","sector":"230011000000000024","pcode":"CO23001","area_m2":77160}},{"type":"Polygon","arcs":[[508,509,510,511,-308]],"properties":{"codigo":"23001100000000000109","sector":"230011000000000001","pcode":"CO23001","area_m2":221705}},{"type":"Polygon","arcs":[[512,513,514,515,516]],"properties":{"codigo":"23001100000000002201","sector":"230011000000000022","pcode":"CO23001","area_m2":85808}},{"type":"Polygon","arcs":[[-504,517,518,519,-258,520]],"properties":{"codigo":"23001100000000001003","sector":"230011000000000010","pcode":"CO23001","area_m2":91358}},{"type":"Polygon","arcs":[[521,522,-518,-503,523]],"properties":{"codigo":"23001100000000001007","sector":"230011000000000010","pcode":"CO23001","area_m2":61002}},{"type":"Polygon","arcs":[[524,525,526,-330,527,528,-517,529,530,531]],"properties":{"codigo":"23001100000000002209","sector":"230011000000000022","pcode":"CO23001","area_m2":458086}},{"type":"Polygon","arcs":[[532,-416,533,534]],"properties":{"codigo":"23001100000000002701","sector":"230011000000000027","pcode":"CO23001","area_m2":45372}},{"type":"Polygon","arcs":[[-219,535,-235,-271,536,537]],"properties":{"codigo":"23001100000000000406","sector":"230011000000000004","pcode":"CO23001","area_m2":90943}},{"type":"Polygon","arcs":[[538,539,540,-143,541,-391,-483]],"properties":{"codigo":"23001100000000000402","sector":"230011000000000004","pcode":"CO23001","area_m2":282881}},{"type":"Polygon","arcs":[[542,543,544,-229]],"properties":{"codigo":"23001100000000002010","sector":"230011000000000020","pcode":"CO23001","area_m2":67943}},{"type":"Polygon","arcs":[[-247,-419,545,546,-429]],"properties":{"codigo":"23001100000000002304","sector":"230011000000000023","pcode":"CO23001","area_m2":153116}},{"type":"Polygon","arcs":[[547,-134,548,549]],"properties":{"codigo":"23001100000000000105","sector":"230011000000000001","pcode":"CO23001","area_m2":51519}},{"type":"Polygon","arcs":[[550,551,-371,552]],"properties":{"codigo":"23001100000000003002","sector":"230011000000000030","pcode":"CO23001","area_m2":88217}},{"type":"Polygon","arcs":[[553,554,555,556,557,558,559,560]],"properties":{"codigo":"23001100000000002509","sector":"230011000000000025","pcode":"CO23001","area_m2":495571}},{"type":"Polygon","arcs":[[561,-132,562,-376,-244]],"properties":{"codigo":"23001100000000000206","sector":"230011000000000002","pcode":"CO23001","area_m2":79979}},{"type":"Polygon","arcs":[[563,-472,564,565,-230,-545]],"properties":{"codigo":"23001100000000002009","sector":"230011000000000020","pcode":"CO23001","area_m2":73062}},{"type":"Polygon","arcs":[[566,567,568,-484,-389]],"properties":{"codigo":"23001100000000001301","sector":"230011000000000013","pcode":"CO23001","area_m2":53896}},{"type":"Polygon","arcs":[[569,-513,-529,570]],"properties":{"codigo":"23001100000000002202","sector":"230011000000000022","pcode":"CO23001","area_m2":78792}},{"type":"Polygon","arcs":[[-295,571,572,-145,573,-224,574,-433,575]],"properties":{"codigo":"23001100000000000708","sector":"230011000000000007","pcode":"CO23001","area_m2":308069}},{"type":"Polygon","arcs":[[576,577,-447,578,-184,579]],"properties":{"codigo":"23001100000000001705","sector":"230011000000000017","pcode":"CO23001","area_m2":188980}},{"type":"Polygon","arcs":[[-356,580,581]],"properties":{"codigo":"23001100000000000903","sector":"230011000000000009","pcode":"CO23001","area_m2":171026}},{"type":"Polygon","arcs":[[-348,582,583,-251]],"properties":{"codigo":"23001100000000001604","sector":"230011000000000016","pcode":"CO23001","area_m2":49009}},{"type":"Polygon","arcs":[[584,-554,585]],"properties":{"codigo":"23001100000000002508","sector":"230011000000000025","pcode":"CO23001","area_m2":103423}},{"type":"Polygon","arcs":[[586,587,588,-470,589]],"properties":{"codigo":"23001100000000002006","sector":"230011000000000020","pcode":"CO23001","area_m2":111936}},{"type":"Polygon","arcs":[[590,591,592,593,-515,594,595,596]],"properties":{"codigo":"23001100000000002204","sector":"230011000000000022","pcode":"CO23001","area_m2":71762}},{"type":"Polygon","arcs":[[597,598,-160,599,600]],"properties":{"codigo":"23001100000000001405","sector":"230011000000000014","pcode":"CO23001","area_m2":36780}},{"type":"Polygon","arcs":[[-329,-66,-256,601,602,603,604,-571,-528]],"properties":{"codigo":"23001100000000002606","sector":"230011000000000026","pcode":"CO23001","area_m2":542728}},{"type":"Polygon","arcs":[[605,606,607,608,-592,609,610,-288]],"properties":{"codigo":"23001100000000001404","sector":"230011000000000014","pcode":"CO23001","area_m2":87978}},{"type":"Polygon","arcs":[[611,-374,612,613,614,-337,-400]],"properties":{"codigo":"23001100000000000203","sector":"230011000000000002","pcode":"CO23001","area_m2":171162}},{"type":"Polygon","arcs":[[-210,615,-466,616]],"properties":{"codigo":"23001100000000001305","sector":"230011000000000013","pcode":"CO23001","area_m2":66801}},{"type":"Polygon","arcs":[[-489,617,618,-395]],"properties":{"codigo":"23001100000000002104","sector":"230011000000000021","pcode":"CO23001","area_m2":76953}},{"type":"Polygon","arcs":[[-407,619,620,621,622]],"properties":{"codigo":"23001100000000002903","sector":"230011000000000029","pcode":"CO23001","area_m2":114842}},{"type":"Polygon","arcs":[[623,-499,-342,624,625]],"properties":{"codigo":"23001100000000000603","sector":"230011000000000006","pcode":"CO23001","area_m2":77948}},{"type":"Polygon","arcs":[[626,627,-276,-226,628,-435]],"properties":{"codigo":"23001100000000000705","sector":"230011000000000007","pcode":"CO23001","area_m2":77307}},{"type":"Polygon","arcs":[[629,630,631]],"properties":{"codigo":"23001100000000003401","sector":"230011000000000034","pcode":"CO23001","area_m2":149135}},{"type":"Polygon","arcs":[[-360,632,633,-493,634,-426,-344,-498,635,636,637,-401,-335,638,639,640,641,-136,642,643,-152,644,645,-367,646,-524,-505,-521,-257,-382,647,-587,648,-543,-233,649,-555,-585,650,651,652]],"properties":{"codigo":"23001100000000003201","sector":"230011000000000032","pcode":"CO23001","area_m2":2012632}},{"type":"Polygon","arcs":[[653,-372,-552,654]],"properties":{"codigo":"23001100000000003001","sector":"230011000000000030","pcode":"CO23001","area_m2":56163}},{"type":"Polygon","arcs":[[-402,-638,655,-421,656,-141]],"properties":{"codigo":"23001100000000000301","sector":"230011000000000003","pcode":"CO23001","area_m2":193195}},{"type":"Polygon","arcs":[[-648,-383,-174,-324,-397,657,-588]],"properties":{"codigo":"23001100000000002005","sector":"230011000000000020","pcode":"CO23001","area_m2":179560}},{"type":"Polygon","arcs":[[658,-289,-611,659,-430,-547]],"properties":{"codigo":"23001100000000002302","sector":"230011000000000023","pcode":"CO23001","area_m2":93350}},{"type":"Polygon","arcs":[[660,-539,-482,-462,661,662,663]],"properties":{"codigo":"23001100000000000404","sector":"230011000000000004","pcode":"CO23001","area_m2":146921}},{"type":"Polygon","arcs":[[664,-474,-384,-292]],"properties":{"codigo":"23001100000000002908","sector":"230011000000000029","pcode":"CO23001","area_m2":87865}},{"type":"Polygon","arcs":[[665,-603,666,-206,667,-597]],"properties":{"codigo":"23001100000000002206","sector":"230011000000000022","pcode":"CO23001","area_m2":94824}},{"type":"Polygon","arcs":[[668,-266,-369,669]],"properties":{"codigo":"23001100000000001903","sector":"230011000000000019","pcode":"CO23001","area_m2":97455}},{"type":"Polygon","arcs":[[-464,-485,-569,670]],"properties":{"codigo":"23001100000000001303","sector":"230011000000000013","pcode":"CO23001","area_m2":37520}},{"type":"Polygon","arcs":[[671,672,673,674]],"properties":{"codigo":"23001100000000001102","sector":"230011000000000011","pcode":"CO23001","area_m2":73713}},{"type":"Polygon","arcs":[[675,-442,676,677,-572,-297,678,-451,679,680,681,682]],"properties":{"codigo":"23001100000000002603","sector":"230011000000000026","pcode":"CO23001","area_m2":609515}},{"type":"Polygon","arcs":[[683,684,685,-496,-220,-538,686,-664]],"properties":{"codigo":"23001100000000000405","sector":"230011000000000004","pcode":"CO23001","area_m2":128185}},{"type":"Polygon","arcs":[[687,688,689,690,691]],"properties":{"codigo":"23001100000000000907","sector":"230011000000000009","pcode":"CO23001","area_m2":3736948}},{"type":"Polygon","arcs":[[-644,692,-153]],"properties":{"codigo":"23001100000000001909","sector":"230011000000000019","pcode":"CO23001","area_m2":91028}},{"type":"Polygon","arcs":[[-574,-144,693,694,-394,-502,695,-381,-221]],"properties":{"codigo":"23001100000000000608","sector":"230011000000000006","pcode":"CO23001","area_m2":418955}},{"type":"Polygon","arcs":[[696,697,-681]],"properties":{"codigo":"23001100000000002610","sector":"230011000000000026","pcode":"CO23001","area_m2":132181}},{"type":"Polygon","arcs":[[698,699,700,701,-331,-527,702,703,-532,704,-677,-441,-312]],"properties":{"codigo":"23001100000000002607","sector":"230011000000000026","pcode":"CO23001","area_m2":523042}},{"type":"Polygon","arcs":[[705,-142,-657,-420,706,-377,-696,-501]],"properties":{"codigo":"23001100000000000504","sector":"230011000000000005","pcode":"CO23001","area_m2":200778}},{"type":"Polygon","arcs":[[707,-176,-237,-181,708]],"properties":{"codigo":"23001100000000001701","sector":"230011000000000017","pcode":"CO23001","area_m2":29327}},{"type":"Polygon","arcs":[[709,-625,-346,-273,-628,710]],"properties":{"codigo":"23001100000000000704","sector":"230011000000000007","pcode":"CO23001","area_m2":87331}},{"type":"Polygon","arcs":[[711,-675,712,-147]],"properties":{"codigo":"23001100000000001103","sector":"230011000000000011","pcode":"CO23001","area_m2":56764}},{"type":"Polygon","arcs":[[713,-490,714,-633]],"properties":{"codigo":"23001100000000000804","sector":"230011000000000008","pcode":"CO23001","area_m2":133379}},{"type":"Polygon","arcs":[[-309,-512,715,-550,716]],"properties":{"codigo":"23001100000000000107","sector":"230011000000000001","pcode":"CO23001","area_m2":113919}},{"type":"Polygon","arcs":[[-280,717,-459,718]],"properties":{"codigo":"23001100000000003505","sector":"230011000000000035","pcode":"CO23001","area_m2":80178}},{"type":"Polygon","arcs":[[719,720,721,-624,-379]],"properties":{"codigo":"23001100000000000604","sector":"230011000000000006","pcode":"CO23001","area_m2":69807}},{"type":"Polygon","arcs":[[-700,722,723]],"properties":{"codigo":"23001100000000002608","sector":"230011000000000026","pcode":"CO23001","area_m2":113033}},{"type":"Polygon","arcs":[[-457,-242,724,725,-240]],"properties":{"codigo":"23001100000000000305","sector":"230011000000000003","pcode":"CO23001","area_m2":96691}},{"type":"Polygon","arcs":[[726,-161,-599,727,728,-567,-388,-695,729]],"properties":{"codigo":"23001100000000001401","sector":"230011000000000014","pcode":"CO23001","area_m2":189461}},{"type":"Polygon","arcs":[[-417,-533,730,-475,731]],"properties":{"codigo":"23001100000000002702","sector":"230011000000000027","pcode":"CO23001","area_m2":31431}},{"type":"Polygon","arcs":[[-683,732,733,-357,-582,734,735,736,-689,737]],"properties":{"codigo":"23001100000000000906","sector":"230011000000000009","pcode":"CO23001","area_m2":2353308}},{"type":"Polygon","arcs":[[-208,738,-684,-663,739]],"properties":{"codigo":"23001100000000001307","sector":"230011000000000013","pcode":"CO23001","area_m2":67225}},{"type":"Polygon","arcs":[[-403,740,-522,-647,-366,-480,741,742,-260,743]],"properties":{"codigo":"23001100000000001008","sector":"230011000000000010","pcode":"CO23001","area_m2":164541}},{"type":"Polygon","arcs":[[-581,-355,744,-735]],"properties":{"codigo":"23001100000000000902","sector":"230011000000000009","pcode":"CO23001","area_m2":219253}},{"type":"Polygon","arcs":[[745,-436,-629,-225,-326]],"properties":{"codigo":"23001100000000000808","sector":"230011000000000008","pcode":"CO23001","area_m2":79124}},{"type":"Polygon","arcs":[[746,-212,747,748]],"properties":{"codigo":"23001100000000001309","sector":"230011000000000013","pcode":"CO23001","area_m2":79754}},{"type":"Polygon","arcs":[[749,750,-318,751,-487,-340]],"properties":{"codigo":"23001100000000002108","sector":"230011000000000021","pcode":"CO23001","area_m2":92300}},{"type":"Polygon","arcs":[[752,753,-577,754,755]],"properties":{"codigo":"23001100000000001706","sector":"230011000000000017","pcode":"CO23001","area_m2":119729}},{"type":"Polygon","arcs":[[-422,-656,-637,756,-721,757]],"properties":{"codigo":"23001100000000000501","sector":"230011000000000005","pcode":"CO23001","area_m2":91760}},{"type":"Polygon","arcs":[[-649,-590,-469,-564,-544]],"properties":{"codigo":"23001100000000002007","sector":"230011000000000020","pcode":"CO23001","area_m2":114301}},{"type":"Polygon","arcs":[[758,759,-424,-148,-713,-674,760,761,-632,762]],"properties":{"codigo":"23001100000000003402","sector":"230011000000000034","pcode":"CO23001","area_m2":925809}},{"type":"Polygon","arcs":[[-600,-159,763,-593,-609,764]],"properties":{"codigo":"23001100000000001402","sector":"230011000000000014","pcode":"CO23001","area_m2":51782}},{"type":"Polygon","arcs":[[-623,765,-753,766,-408]],"properties":{"codigo":"23001100000000002902","sector":"230011000000000029","pcode":"CO23001","area_m2":75216}},{"type":"Polygon","arcs":[[-565,-471,-589,-658,-396,-619,767,-316,768,769]],"properties":{"codigo":"23001100000000002008","sector":"230011000000000020","pcode":"CO23001","area_m2":617473}},{"type":"Polygon","arcs":[[770,-601,-765,-608]],"properties":{"codigo":"23001100000000001403","sector":"230011000000000014","pcode":"CO23001","area_m2":46363}},{"type":"Polygon","arcs":[[-334,-615,771,772,-639]],"properties":{"codigo":"23001100000000000201","sector":"230011000000000002","pcode":"CO23001","area_m2":77072}},{"type":"Polygon","arcs":[[-488,-752,-317,-768,-618]],"properties":{"codigo":"23001100000000002109","sector":"230011000000000021","pcode":"CO23001","area_m2":75314}},{"type":"Polygon","arcs":[[-315,773,-723,-699]],"properties":{"codigo":"23001100000000002614","sector":"230011000000000026","pcode":"CO23001","area_m2":72411}},{"type":"Polygon","arcs":[[-195,774,-361,-351]],"properties":{"codigo":"23001100000000002802","sector":"230011000000000028","pcode":"CO23001","area_m2":62038}},{"type":"Polygon","arcs":[[-666,-596,775,-604]],"properties":{"codigo":"23001100000000002205","sector":"230011000000000022","pcode":"CO23001","area_m2":77035}},{"type":"Polygon","arcs":[[776,-508,-448,-477,777]],"properties":{"codigo":"23001100000000002705","sector":"230011000000000027","pcode":"CO23001","area_m2":89549}},{"type":"Polygon","arcs":[[-347,-284,-455,-495,-686,778,-583]],"properties":{"codigo":"23001100000000001602","sector":"230011000000000016","pcode":"CO23001","area_m2":37492}},{"type":"Polygon","arcs":[[779,780,-286,-659,-546,-418,-732]],"properties":{"codigo":"23001100000000001609","sector":"230011000000000016","pcode":"CO23001","area_m2":67881}},{"type":"Polygon","arcs":[[781,-373,-563,-137]],"properties":{"codigo":"23001100000000000103","sector":"230011000000000001","pcode":"CO23001","area_m2":62341}},{"type":"Polygon","arcs":[[-427,-635,-492,-188]],"properties":{"codigo":"23001100000000000801","sector":"230011000000000008","pcode":"CO23001","area_m2":139705}},{"type":"Polygon","arcs":[[-458,-310,-717,-549,-133,-562]],"properties":{"codigo":"23001100000000000106","sector":"230011000000000001","pcode":"CO23001","area_m2":71648}},{"type":"Polygon","arcs":[[-749,782,-728,-598,-771,-607]],"properties":{"codigo":"23001100000000001407","sector":"230011000000000014","pcode":"CO23001","area_m2":44785}},{"type":"Polygon","arcs":[[783,784,-672,-712,-150,-425,-760,785]],"properties":{"codigo":"23001100000000001106","sector":"230011000000000011","pcode":"CO23001","area_m2":286563}},{"type":"Polygon","arcs":[[786,-509,-307,-177,-708,787]],"properties":{"codigo":"23001100000000001202","sector":"230011000000000012","pcode":"CO23001","area_m2":44858}},{"type":"Polygon","arcs":[[-692,788,-759,789]],"properties":{"codigo":"23001100000000001109","sector":"230011000000000011","pcode":"CO23001","area_m2":1183752}},{"type":"Polygon","arcs":[[-151,-263,-669,790,-645]],"properties":{"codigo":"23001100000000001901","sector":"230011000000000019","pcode":"CO23001","area_m2":91576}},{"type":"Polygon","arcs":[[-218,-362,-775,-194,-350,791,792,793,-755,-580,-183,-236,-536]],"properties":{"codigo":"23001100000000001704","sector":"230011000000000017","pcode":"CO23001","area_m2":178298}},{"type":"Polygon","arcs":[[794,-290,795,-620,-406]],"properties":{"codigo":"23001100000000002904","sector":"230011000000000029","pcode":"CO23001","area_m2":75310}},{"type":"Polygon","arcs":[[-431,-660,-610,-591,-668,-205,796]],"properties":{"codigo":"23001100000000002301","sector":"230011000000000023","pcode":"CO23001","area_m2":86201}},{"type":"Polygon","arcs":[[797,-534,-415]],"properties":{"codigo":"23001100000000002704","sector":"230011000000000027","pcode":"CO23001","area_m2":121694}},{"type":"Polygon","arcs":[[798,-786,-789,-691]],"properties":{"codigo":"23001100000000001108","sector":"230011000000000011","pcode":"CO23001","area_m2":177226}},{"type":"Polygon","arcs":[[-299,799,-439,800]],"properties":{"codigo":"23001100000000003501","sector":"230011000000000035","pcode":"CO23001","area_m2":309860}},{"type":"Polygon","arcs":[[-223,801,-711,-627,-434,-575]],"properties":{"codigo":"23001100000000000707","sector":"230011000000000007","pcode":"CO23001","area_m2":113094}},{"type":"Polygon","arcs":[[-642,802,-613,-782]],"properties":{"codigo":"23001100000000000102","sector":"230011000000000001","pcode":"CO23001","area_m2":59065}},{"type":"Polygon","arcs":[[803,-725,-241,804,-398,-139]],"properties":{"codigo":"23001100000000000304","sector":"230011000000000003","pcode":"CO23001","area_m2":91378}},{"type":"Polygon","arcs":[[-634,-715,-494]],"properties":{"codigo":"23001100000000000803","sector":"230011000000000008","pcode":"CO23001","area_m2":91741}},{"type":"Polygon","arcs":[[-523,-741,-405,805,-519]],"properties":{"codigo":"23001100000000001004","sector":"230011000000000010","pcode":"CO23001","area_m2":45536}},{"type":"Polygon","arcs":[[-745,-354,-653,806,807,-736]],"properties":{"codigo":"23001100000000000905","sector":"230011000000000009","pcode":"CO23001","area_m2":254376}},{"type":"Polygon","arcs":[[-650,-232,808,809,810,811,-556]],"properties":{"codigo":"23001100000000002507","sector":"230011000000000025","pcode":"CO23001","area_m2":330531}},{"type":"Polygon","arcs":[[-481,-364,-654,812]],"properties":{"codigo":"23001100000000001009","sector":"230011000000000010","pcode":"CO23001","area_m2":174079}},{"type":"Polygon","arcs":[[-799,-690,-737,-808,813,814,-630,-762,815,-784]],"properties":{"codigo":"23001100000000001107","sector":"230011000000000011","pcode":"CO23001","area_m2":2515899}},{"type":"Polygon","arcs":[[-209,-740,-662,-461,-616]],"properties":{"codigo":"23001100000000001306","sector":"230011000000000013","pcode":"CO23001","area_m2":69714}},{"type":"Polygon","arcs":[[-806,-404,-744,-259,-520]],"properties":{"codigo":"23001100000000002001","sector":"230011000000000020","pcode":"CO23001","area_m2":45476}},{"type":"Polygon","arcs":[[-306,-199,-301,816,817,-207,-667,-602]],"properties":{"codigo":"23001100000000002308","sector":"230011000000000023","pcode":"CO23001","area_m2":151918}},{"type":"Polygon","arcs":[[818,-412,-249,-428,-817,-303]],"properties":{"codigo":"23001100000000002305","sector":"230011000000000023","pcode":"CO23001","area_m2":215028}},{"type":"Polygon","arcs":[[-780,-478,-252,-584,-779,-685,-739,-214,819]],"properties":{"codigo":"23001100000000001607","sector":"230011000000000016","pcode":"CO23001","area_m2":175580}},{"type":"Polygon","arcs":[[-535,-798,-414,820,-170,821,-778,-476,-731]],"properties":{"codigo":"23001100000000002703","sector":"230011000000000027","pcode":"CO23001","area_m2":187765}},{"type":"Polygon","arcs":[[-542,-706,-500,-392]],"properties":{"codigo":"23001100000000000506","sector":"230011000000000005","pcode":"CO23001","area_m2":78157}},{"type":"Polygon","arcs":[[-705,-531,822,-730,-694,-146,-573,-678]],"properties":{"codigo":"23001100000000000709","sector":"230011000000000007","pcode":"CO23001","area_m2":455828}},{"type":"Polygon","arcs":[[823,-742,-479,-813,-655,-551,824,-750,-339,825]],"properties":{"codigo":"23001100000000001010","sector":"230011000000000010","pcode":"CO23001","area_m2":411289}},{"type":"Polygon","arcs":[[-507,826,-353,-162]],"properties":{"codigo":"23001100000000002805","sector":"230011000000000028","pcode":"CO23001","area_m2":106824}},{"type":"Polygon","arcs":[[-791,-670,-368,-646]],"properties":{"codigo":"23001100000000001902","sector":"230011000000000019","pcode":"CO23001","area_m2":149290}},{"type":"Polygon","arcs":[[-437,-746,-325,-452,-679,-296,-576]],"properties":{"codigo":"23001100000000001501","sector":"230011000000000015","pcode":"CO23001","area_m2":166168}},{"type":"Polygon","arcs":[[-781,-820,-213,-747,-606,-287]],"properties":{"codigo":"23001100000000001608","sector":"230011000000000016","pcode":"CO23001","area_m2":124576}},{"type":"Polygon","arcs":[[-594,-764,-158,-727,-823,-530,-516]],"properties":{"codigo":"23001100000000001409","sector":"230011000000000014","pcode":"CO23001","area_m2":106024}},{"type":"Polygon","arcs":[[-453,-327,-190,-491,-714,-359,827]],"properties":{"codigo":"23001100000000000805","sector":"230011000000000008","pcode":"CO23001","area_m2":227307}},{"type":"Polygon","arcs":[[-196,-305,828]],"properties":{"codigo":"23001100000000002311","sector":"230011000000000023","pcode":"CO23001","area_m2":77423}},{"type":"Polygon","arcs":[[-785,-816,-761,-673]],"properties":{"codigo":"23001100000000001101","sector":"230011000000000011","pcode":"CO23001","area_m2":66206}},{"type":"Polygon","arcs":[[-776,-595,-514,-570,-605]],"properties":{"codigo":"23001100000000002203","sector":"230011000000000022","pcode":"CO23001","area_m2":55541}},{"type":"Polygon","arcs":[[-826,-338,-486,-321,829]],"properties":{"codigo":"23001100000000002106","sector":"230011000000000021","pcode":"CO23001","area_m2":58352}},{"type":"Polygon","arcs":[[-818,-432,-797,-204]],"properties":{"codigo":"23001100000000002208","sector":"230011000000000022","pcode":"CO23001","area_m2":49766}},{"type":"Polygon","arcs":[[-541,830,-272,-726,-804,-138]],"properties":{"codigo":"23001100000000000306","sector":"230011000000000003","pcode":"CO23001","area_m2":98493}},{"type":"Polygon","arcs":[[831,-640,-773]],"properties":{"codigo":"23001100000000000209","sector":"230011000000000002","pcode":"CO23001","area_m2":66323}},{"type":"Polygon","arcs":[[-652,832,-814,-807]],"properties":{"codigo":"23001100000000000901","sector":"230011000000000009","pcode":"CO23001","area_m2":536905}},{"type":"Polygon","arcs":[[-211,-617,-465,-671,-568,-729,-783,-748]],"properties":{"codigo":"23001100000000003301","sector":"230011000000000033","pcode":"CO23001","area_m2":170183}},{"type":"Polygon","arcs":[[-772,-614,-803,-641,-832]],"properties":{"codigo":"23001100000000000101","sector":"230011000000000001","pcode":"CO23001","area_m2":83393}},{"type":"Polygon","arcs":[[833,-445,834,-510,-787]],"properties":{"codigo":"23001100000000001203","sector":"230011000000000012","pcode":"CO23001","area_m2":84816}},{"type":"Polygon","arcs":[[-758,-720,-378,-707,-423]],"properties":{"codigo":"23001100000000000502","sector":"230011000000000005","pcode":"CO23001","area_m2":88105}},{"type":"Polygon","arcs":[[-687,-537,-270,-831,-540,-661]],"properties":{"codigo":"23001100000000000403","sector":"230011000000000004","pcode":"CO23001","area_m2":115045}},{"type":"Polygon","arcs":[[-579,-446,-834,-788,-709,-180]],"properties":{"codigo":"23001100000000001702","sector":"230011000000000017","pcode":"CO23001","area_m2":38604}},{"type":"Polygon","arcs":[[-231,-566,-770,835,-809]],"properties":{"codigo":"23001100000000002501","sector":"230011000000000025","pcode":"CO23001","area_m2":133917}},{"type":"Polygon","arcs":[[-734,836,-697,-680,-454,-828,-358]],"properties":{"codigo":"23001100000000002601","sector":"230011000000000026","pcode":"CO23001","area_m2":761084}},{"type":"Polygon","arcs":[[-743,-824,-830,-320,-172,-261]],"properties":{"codigo":"23001100000000002101","sector":"230011000000000021","pcode":"CO23001","area_m2":52122}},{"type":"Polygon","arcs":[[-560,837]],"properties":{"codigo":"23001100000000002510","sector":"230011000000000025","pcode":"CO23001","area_m2":355308}},{"type":"Polygon","arcs":[[-409,-767,-756,-794,838]],"properties":{"codigo":"23001100000000001707","sector":"230011000000000017","pcode":"CO23001","area_m2":95461}},{"type":"Polygon","arcs":[[-380,-626,-710,-802,-222]],"properties":{"codigo":"23001100000000000606","sector":"230011000000000006","pcode":"CO23001","area_m2":90671}},{"type":"Polygon","arcs":[[-682,-698,-837,-733]],"properties":{"codigo":"23001100000000002611","sector":"230011000000000026","pcode":"CO23001","area_m2":307290}},{"type":"Polygon","arcs":[[-757,-636,-497,-722]],"properties":{"codigo":"23001100000000000601","sector":"230011000000000006","pcode":"CO23001","area_m2":62380}},{"type":"Polygon","arcs":[[-410,-839,-793,839]],"properties":{"codigo":"23001100000000001708","sector":"230011000000000017","pcode":"CO23001","area_m2":88939}},{"type":"Polygon","arcs":[[-375,-612,-399,-805,-245]],"properties":{"codigo":"23001100000000000205","sector":"230011000000000002","pcode":"CO23001","area_m2":95936}},{"type":"Polygon","arcs":[[-754,-766,-622,840,-443,-578]],"properties":{"codigo":"23001100000000002901","sector":"230011000000000029","pcode":"CO23001","area_m2":122908}},{"type":"Polygon","arcs":[[-332,-702,841]],"properties":{"codigo":"23001100000000003701","sector":"230011000000000037","pcode":"CO23001","area_m2":10363}},{"type":"Polygon","arcs":[[842]],"properties":{"codigo":"23001100000000000908","sector":"230011000000000009","pcode":"CO23001","area_m2":38082}},{"type":"Polygon","arcs":[[843]],"properties":{"codigo":"23001202604070000101","sector":"230012026040700001","pcode":"CO23001","area_m2":75178}}]}},"arcs":[[[1046,4825],[6,-11],[-7,-5],[7,-12],[0,-9],[5,-10],[12,-18],[4,2],[6,-9],[-10,-4],[11,-6],[-6,-4],[-14,0],[-13,16],[-7,15],[-3,1],[-13,16],[-20,35],[10,2],[1,3],[21,2],[6,5],[4,-9]],[[4720,4060],[-27,-3]],[[4693,4057],[5,12],[-2,6],[-37,7],[2,6],[-12,3],[1,3],[13,-3],[4,11],[6,4],[16,-6],[24,13],[1,3],[-13,11],[4,3],[14,-13],[-5,-3],[2,-7],[9,-3],[-1,-24],[-7,-1],[-1,-6],[4,-13]],[[4720,4060],[5,-1],[5,-7],[10,1],[4,-12],[15,-1],[2,-14],[-17,3],[-6,-17],[-5,-2],[-7,10],[-50,-7],[-4,3],[-6,14],[3,1],[-5,13],[-15,4],[44,9]],[[5876,9245],[8,-10],[10,5],[10,-12],[3,-13],[23,-40],[-32,-6],[4,-25],[5,-19],[2,0],[-1,-18],[-5,1],[-1,-10],[-33,6],[-2,-8],[-8,0],[-7,-22],[-20,9],[7,22],[-3,2],[-22,-6],[-12,-8],[11,-7],[-3,-1],[-3,-21],[-29,12],[-4,-6],[-4,-20],[16,-7],[-4,-8],[-13,6],[-6,-18],[-9,-18],[-11,-14],[28,-10],[-9,-4],[-8,-9],[-8,5],[-13,-17],[-16,-13],[4,-3],[-16,-16],[-19,15],[3,2],[-5,11],[28,19],[6,8],[16,35],[-21,5],[7,22],[-13,5],[13,25],[10,-4],[3,5],[17,12],[-10,1],[10,16],[10,4],[4,18],[6,7],[-5,5],[19,11],[8,-11],[13,7],[1,-5],[16,-1],[11,8],[-4,7],[14,2],[-11,39],[45,18],[-18,25],[17,10]],[[7956,6864],[-4,-15],[3,-25],[-4,-33],[-5,-11]],[[7946,6780],[-4,2],[2,8],[-5,4],[-16,2],[1,6],[17,-1],[-7,5],[2,32],[8,25],[12,1]],[[4853,6547],[-10,-10],[-10,-17],[-9,-17],[-4,-16],[-2,-19]],[[4818,6468],[-13,0],[-25,3],[0,10],[7,19],[-18,0],[23,43],[-7,0],[3,8],[65,-4]],[[3127,8949],[-15,-5],[-5,-5],[-39,-35]],[[3068,8904],[-5,-1],[-12,6],[-6,12],[-7,-5],[-6,3],[4,7],[-11,7],[-6,7],[2,10],[9,-5],[15,-1],[14,3],[-4,15],[4,1],[5,-15],[18,5],[33,11],[17,2],[-5,-17]],[[3923,2465],[-24,-10],[-3,8],[5,16],[-47,-15]],[[3854,2464],[-20,25],[15,12],[5,-5],[5,11],[11,8],[16,-8],[-3,-5],[11,-6],[5,7],[10,-6],[7,8],[-11,-31],[2,-7],[13,2],[3,-4]],[[3848,2417],[23,6],[39,12],[15,2],[23,5]],[[3948,2442],[8,-6],[30,-15],[21,-7],[-10,-14],[-12,-12],[-13,-7],[-21,-5],[-19,-1],[-20,3],[-32,14],[-32,25]],[[6965,8587],[-6,-8],[-40,-48]],[[6919,8531],[-19,26],[3,7],[-15,2],[5,20],[0,11]],[[6893,8597],[8,1],[-11,17]],[[6890,8615],[12,7],[6,7],[3,14],[-1,14],[-19,25],[-20,15],[-17,18],[-10,17],[3,30],[-5,1],[4,32],[6,-1],[3,5],[-2,6],[17,21],[2,4],[28,9],[4,-6],[-23,-8],[-11,-18],[-6,-14],[-3,-22],[-4,-3],[7,-7],[-4,-6],[9,-11],[2,-20],[-7,-6],[8,0],[5,-5],[1,-9],[10,6],[8,-5],[-12,-12],[25,-27],[35,-20],[10,21],[32,39],[14,19],[12,10],[19,23],[4,-2],[-75,-92],[-4,-6],[7,0],[-6,-18],[-10,-17],[-6,-15],[-7,-9],[31,-12]],[[6893,8597],[-30,-1],[-14,8],[-23,4],[-51,22]],[[6775,8630],[-38,26],[-11,2],[-41,-4],[-37,-16],[-4,0],[-17,10]],[[6627,8648],[4,5],[29,28]],[[6660,8681],[26,24],[34,-8],[9,-4],[55,-33],[21,-15],[34,-26],[12,-6],[24,-1],[15,3]],[[7012,8557],[-15,2],[-5,-5],[8,-4],[-8,-9],[9,-5],[-4,-7],[-17,8],[-5,-6],[-10,4],[-3,-6],[-9,0],[-12,-16],[4,13],[-18,9],[-7,-7],[0,-4],[12,-13],[-4,-10],[-19,19]],[[6909,8520],[10,11]],[[6965,8587],[33,-13],[8,-5],[6,-12]],[[6998,8504],[15,-1],[-7,-14],[-18,-17],[-22,-15],[-13,14],[8,9],[7,-7],[13,17],[17,14]],[[7077,8569],[22,-17],[-22,-18],[-22,18],[-14,-11],[42,-37],[-19,-14],[-10,9],[-6,-6],[-9,8],[7,5],[-17,18],[-3,7],[49,39],[2,-1]],[[6965,8587],[3,4],[33,-15],[13,-13],[-2,-6]],[[575,5107],[-46,-19],[-6,3],[-29,-26]],[[494,5065],[-2,-2],[-14,8],[-10,1],[9,5],[5,-4],[11,16],[9,-4],[2,7],[23,11],[8,0],[10,4],[8,7],[10,1],[1,6],[11,-14]],[[484,5095],[-5,4],[5,3],[0,-7]],[[4775,2313],[7,24],[7,16],[11,0]],[[4800,2353],[20,-4],[7,2],[2,-13],[8,-5],[-3,-12],[-18,3],[-6,-22],[-21,9],[-14,2]],[[3127,8949],[-4,-14],[17,-30],[2,-24],[-17,5],[-5,-16],[-4,1],[5,-10],[9,1],[6,-8],[-6,-6],[-7,-3],[-10,19],[4,2],[-9,12],[-2,-7],[-12,7],[6,7],[-10,11],[-7,-5],[-4,6],[-11,7]],[[4782,3181],[9,-15],[10,-31]],[[4801,3135],[-34,-2],[-1,6],[-33,-4],[0,12],[-5,21],[-4,6],[19,-1],[0,3],[29,3],[10,2]],[[4775,2313],[-5,2],[-2,9],[-7,-1],[-1,9],[-9,8],[-16,8],[-12,4],[14,15],[0,4],[16,-6],[-2,-5],[11,-8],[0,17],[5,9],[11,7],[6,-8],[-4,-8],[7,-1],[9,-14],[4,-1]],[[1511,5453],[16,5],[9,-8],[-14,-14],[-7,1],[-13,-5],[-11,13],[-10,-8],[5,-1],[11,-11],[-15,-13],[-8,7],[-7,11],[-20,-8],[1,-5],[-17,-5],[7,-13],[7,-4],[-21,-8],[-15,2],[-8,7],[-11,-15],[-13,4],[13,13],[-15,5],[-22,1],[5,17],[-5,6],[8,0],[6,-5],[22,-2],[12,2],[8,9],[9,-10],[8,5],[1,6],[14,-7],[14,0],[5,11],[6,6],[7,0],[8,4],[4,-5],[7,5],[2,11],[10,7],[7,-11]],[[3625,6694],[3,-2],[11,5],[25,-8],[-15,-19],[-58,-71],[15,-7],[-11,-11],[-4,3],[-7,-8],[-3,10],[-13,-17],[-41,-49],[-33,26],[7,6],[-14,11],[20,13],[-13,13],[7,5],[6,-6],[-7,-5],[8,-7],[18,8],[15,31],[1,22],[13,19],[-2,10],[19,15],[39,-17],[27,11],[-22,9],[4,4],[-6,6],[7,3],[4,-3]],[[6401,5539],[5,-7],[19,0],[19,4],[4,-11],[-9,-2],[-35,-13],[1,-6],[-43,-18],[-7,6],[-19,23],[-15,-16],[-5,-10],[-4,-15],[-9,2],[8,21],[9,15],[6,6],[-15,7],[7,7],[10,17],[9,4],[12,-31],[8,9],[17,10],[5,-6],[25,20],[8,-5],[-11,-11]],[[577,9956],[17,-4],[-1,-5],[-12,5],[1,-8],[-6,-2],[-7,-11],[-5,-18],[-6,1],[-3,-15],[-13,2],[-1,26],[20,-3],[3,11],[-20,5],[5,15],[16,1],[5,3],[7,-3]],[[5798,8401],[-25,-45]],[[5773,8356],[-45,5],[-23,6],[5,8],[-4,12],[13,-2],[60,-3],[11,22],[8,-3]],[[5864,4796],[1,-9],[-8,-8],[-40,6],[-5,-24],[-8,2],[-2,-7],[-15,2],[0,11],[-43,6],[5,24],[38,-5],[-1,-5],[35,-4],[8,12],[6,-3],[4,8],[25,-4],[0,-2]],[[5938,3770],[-2,-11],[1,-24],[-5,0],[3,-12],[-6,0],[-2,7],[-24,4],[0,18],[-9,1],[-5,11],[10,1],[0,5],[25,-1],[0,6],[15,2],[-1,-7]],[[9668,2140],[18,-11],[-11,-9],[-8,-2],[12,-10],[7,5],[10,-5],[-13,-11],[-4,-16],[-24,2],[-6,-21],[-13,2],[8,7],[-11,14],[10,10],[-6,4],[-5,-5],[-26,17],[-14,-12],[-7,12],[12,9],[17,8],[6,5],[0,11],[7,2],[4,-8],[25,10],[12,-8]],[[1328,1778],[11,0],[9,4],[10,0],[21,-26],[-11,-1],[-27,-6],[-42,33],[4,6],[-10,9],[5,2],[23,-18],[7,-3]],[[6992,4859],[5,-3],[-11,-1],[-4,-17],[16,-12],[0,-8],[-7,-5],[8,-6],[-27,-13],[-74,-39],[-31,-15],[-7,11],[22,17],[-4,3],[8,7],[-6,7],[7,6],[-5,5],[9,3],[16,-12],[29,22],[4,-3],[1,9],[-8,6],[4,4],[5,-4],[11,9],[-3,2],[16,14],[10,13],[4,-2],[-2,16],[-6,9],[22,6],[4,-10],[-10,-12],[4,-7]],[[2883,8380],[24,8],[-6,13],[8,2],[-10,13],[-11,7],[20,11],[9,-11],[7,-13],[11,3],[-3,-4],[10,-18],[3,-1],[-11,-8],[-5,1],[-21,-20],[5,-3],[-7,-7],[-14,5],[2,2],[-12,8],[7,7],[-6,5]],[[7766,3949],[-16,-6],[-10,13],[6,5],[-13,27],[-5,4],[-9,-5],[-6,6],[5,2],[-9,14],[-12,-3],[-4,12],[6,1],[-6,22],[8,2],[6,-21],[9,-16],[14,-11],[7,11],[14,8],[3,-3],[-10,-10],[-6,-11],[28,-41]],[[5740,3970],[-2,-32],[11,-7],[11,-11],[4,2],[17,-17],[10,6],[16,-3],[13,-8],[-6,-10],[-16,9],[-6,-1],[-12,-11],[-3,-13],[-29,1],[-15,3],[-1,-17],[24,-2],[-1,-8],[7,-1],[-2,-5],[-18,1],[0,-4],[-12,0],[-2,-24],[10,-5],[-3,-20],[-8,0],[-1,-7],[-5,-3],[-8,7],[6,4],[-9,12],[8,9],[-1,9],[-11,-1],[-1,8],[-26,-6],[-3,12],[-12,10],[9,-1],[3,15],[15,-7],[-3,-15],[22,-7],[2,13],[7,0],[8,15],[-6,1],[5,26],[8,-1],[1,12],[-12,3],[3,13],[10,0],[1,14],[-10,1],[-19,13],[9,11],[-3,4],[6,5],[3,10],[17,-2]],[[5616,3073],[16,-7],[-4,-6],[27,-1],[6,7],[6,0],[-2,-25],[8,-3],[5,-8],[5,-2],[21,4],[3,-5],[-15,-2],[5,-5],[-18,-7],[-5,6],[-11,-6],[1,16],[-6,1],[1,11],[-10,7],[-4,-4],[-16,4],[2,3],[-13,3],[-14,-1],[9,14],[-5,3],[8,3]],[[5661,2988],[-1,-8],[-50,-1],[-8,9],[9,6],[51,3],[-1,-9]],[[8075,2066],[-3,25],[-10,-2],[-12,3],[3,8],[-1,10],[14,-2],[24,3],[1,-14],[-4,-2],[2,-17],[-2,-17],[-12,5]],[[9936,665],[13,-24],[16,-16],[13,0],[9,-13],[12,-50],[-11,-5],[-8,27],[-9,-2],[-6,14],[-10,12],[-23,-9],[-25,31],[30,12],[-8,12],[-21,-1],[-5,7],[0,7],[15,5],[4,6],[8,-4],[6,-9]],[[1710,6051],[-1,-8],[19,0],[-8,-15],[-10,4],[-17,2],[-1,-5],[-23,-1],[0,6],[-7,0],[3,17],[14,-1],[1,6],[7,-4],[23,-1]],[[1765,6022],[-10,-9],[-5,1],[-5,-9],[-20,6],[6,13],[13,14],[21,-16]],[[8611,2742],[-18,19],[8,7],[-28,26],[-60,58]],[[8513,2852],[21,22],[27,-15],[-11,-12],[6,-6],[40,-18],[5,6],[19,-9],[2,5],[10,-3],[15,-17],[-3,-6],[12,-6],[-3,-9],[-15,6],[-24,-19],[-7,-9],[8,-5],[0,-5],[7,-5],[-11,-5]],[[8611,2742],[7,-8],[-24,1],[-1,15],[-18,-14],[-1,-35],[-20,-2],[1,8],[-13,-1],[0,11],[6,30],[15,-3],[6,15],[-22,21],[-24,26],[-3,-1],[-17,18],[-5,-8],[-6,-4],[-8,1],[-10,13],[10,5],[-13,10],[7,5],[-6,2],[0,6],[26,-9],[9,12],[6,-4]],[[7956,6864],[6,2],[3,-11],[31,0],[1,7],[6,-1],[-12,-62],[-5,0],[-4,-19],[-10,3],[-26,-3]],[[6703,7134],[-56,-55],[-7,5],[-55,-26],[-5,3]],[[6580,7061],[1,8],[-15,8]],[[6566,7077],[19,24],[-6,9],[8,11],[11,-5],[24,36]],[[6622,7152],[14,-7],[22,28]],[[6658,7173],[23,-16],[22,-23]],[[3923,2465],[6,-10],[-4,-2],[3,-7],[18,3],[2,-7]],[[3848,2417],[-7,6],[21,11],[14,3],[-22,27]],[[7624,7893],[7,-11],[6,1],[3,-5],[38,20],[5,-4],[10,-15],[-6,-5],[-8,9],[-31,-17],[8,-4],[-5,-4],[8,-5],[-9,-9],[-9,5],[-24,-18],[-8,-13],[6,-11],[-6,-4],[13,-15],[8,4],[4,-3],[-7,-5],[3,-3],[-6,-4],[-7,6],[-9,-6],[-10,9],[7,5],[-4,25],[-16,3],[-13,6],[3,4],[-16,7],[-20,-4],[1,-7],[-9,-4],[-13,-13],[-10,14],[-10,-4],[-13,17],[-5,-1],[1,7],[31,11],[9,-16],[30,14],[1,-4],[28,11],[13,2],[1,-2],[23,13],[8,3],[-14,25],[8,3],[5,-8]],[[7468,7815],[-18,0],[-3,6],[19,2],[-3,6],[7,1],[8,-14],[-10,-1]],[[2396,1124],[-25,13],[-95,44],[-28,28]],[[2248,1209],[15,9],[2,-9],[25,-2],[19,-6],[-9,-17],[65,-33],[7,14],[14,-5],[-5,-12],[29,-10],[7,-4],[-9,-16],[-12,6]],[[2396,1124],[-5,-16],[-20,9],[-7,-9],[-27,13],[11,12],[-11,6],[-13,10],[-4,-4],[-16,-1],[-9,5],[-7,-9],[-14,4],[12,18],[-10,7],[-5,-3],[-31,28],[8,8],[-5,4],[5,3]],[[2269,1139],[-6,-6],[-5,4],[5,6],[6,-4]],[[5031,6525],[-13,-15],[-22,14],[-11,-13],[-10,7],[-32,14],[-1,10],[-14,1],[-13,-2],[-22,-13],[-22,-18],[-16,-16],[12,-6],[-6,-3],[-7,-13],[19,-6],[5,-6],[0,-10],[13,0],[0,-19],[-15,-4],[13,-27],[7,4],[14,-18],[-16,-7],[-18,10],[-17,17],[-10,14],[-13,-5],[-7,9],[-11,32],[0,12]],[[4853,6547],[13,10],[15,9],[16,7],[25,7],[36,2],[21,-2],[25,-6],[21,-7],[-12,-16]],[[5013,6551],[-8,-11],[26,-15]],[[5097,6519],[1,-9],[8,-12],[13,-7],[-3,-4],[-14,7],[-7,9],[-22,0],[-2,7],[-14,2],[5,9],[16,-2],[0,11],[3,0],[3,18],[-6,10],[13,8],[14,-20],[-1,-18],[-7,-9]],[[5013,6551],[15,-14],[13,-8],[7,-1],[1,-6],[-6,-5],[-12,8]],[[9233,1711],[-65,-3],[-8,-2]],[[9160,1706],[-8,15],[-13,32],[-10,11],[4,3],[10,-7],[16,-1],[12,2],[3,-6],[31,6],[5,-8],[9,1],[0,-18],[13,1],[1,-26]],[[9233,1711],[1,-7],[11,1],[0,-7],[-6,-5],[-15,3],[-12,-7],[-8,3],[-2,-6],[-11,-7],[8,-9],[5,-3],[-23,0],[11,-18],[-13,-7],[-9,19],[-5,5],[6,9],[-13,1],[3,10],[7,0],[6,11],[-10,-4],[-11,10],[7,3]],[[3282,6263],[-49,-32],[-18,-16],[-23,-23],[-3,-5],[-4,-19],[-4,-37],[-4,-39],[-3,-15],[-2,-22],[-8,4],[-32,-12],[-12,-7],[-16,-33],[-20,-27],[-22,11],[5,5],[10,32],[3,8],[14,15],[49,25],[14,5],[9,8],[5,9],[0,30],[-51,7],[-9,-2],[-2,41],[10,10],[21,-3],[5,23],[3,5],[7,-2],[2,5],[14,14],[31,13],[7,4],[-22,13],[5,9],[8,-4],[6,8],[24,-11],[19,35],[7,7],[22,16],[8,11],[11,27],[10,30],[5,11],[7,23],[2,4],[43,-31],[32,-25],[-26,-33],[-14,-18],[-22,-18],[-52,-34]],[[2882,7281],[20,-6],[-2,-11],[25,-5],[-2,-6],[-12,-6],[7,-1],[-4,-13],[-7,0],[-3,-12],[24,-5],[-6,-11],[-26,14],[-20,4],[2,8],[-6,11],[-10,2],[4,21],[10,9],[4,-2],[2,9]],[[2977,7281],[5,-14],[11,3],[-29,-25],[-11,12],[-5,-3],[-7,6],[5,15],[-8,2],[6,3],[-7,14],[6,4],[32,-11],[2,-6]],[[421,3355],[5,0],[7,-9],[-5,-2],[17,-19],[9,3],[15,2],[1,-21],[-3,-12],[4,-1],[-2,-10],[13,0],[-1,-21],[16,-11],[7,-25],[-7,-3],[4,-15],[-8,-2],[-1,-8],[-6,-1],[4,-7],[-4,-7],[-4,2],[-2,-11],[-11,-2],[-1,12],[-23,39],[-3,9],[-9,-2],[-2,5],[14,4],[2,5],[-7,20],[-26,-4],[-10,33],[-9,20],[-6,19],[-3,20],[-3,7],[20,1],[13,-3],[5,-5]],[[6909,8520],[-18,-22],[-28,17],[16,14],[-4,3],[6,5],[1,12],[-4,5],[-32,5],[1,12],[-21,4],[-3,-7],[-70,17],[-4,6],[9,19],[10,-4],[3,5],[-9,3],[13,16]],[[7180,2055],[2,-8],[7,3],[1,-20],[14,-8],[3,-4],[-4,-6],[16,-18],[13,16],[6,-5],[4,4],[8,-10],[-3,-6],[14,-10],[-4,-5],[-5,-14],[5,-2],[-1,-6],[-19,6],[-5,-9],[6,-3],[-7,-9],[-22,5],[-6,-13],[-4,0],[-7,-16],[-8,2],[7,14],[-23,2],[20,29],[-4,2],[16,24],[5,5],[-3,5],[-6,-5],[-8,6],[-4,-3],[-6,7],[18,12],[-13,18],[-6,-3],[-8,21],[11,2]],[[7314,2059],[-12,-12],[-8,7],[-10,-7],[4,-4],[-4,-7],[-20,-14],[-1,7],[-7,5],[5,8],[18,7],[3,-3],[26,18],[6,-5]],[[5798,8401],[1,17],[88,-27],[8,-6],[-10,-6],[-33,-16],[-27,-8],[-35,0],[-17,1]],[[8792,5133],[4,-6],[8,3],[15,-10],[18,-3],[-5,-11],[6,-3],[-11,-13],[14,-26],[-7,-3],[7,-13],[12,-16],[11,3],[-1,5],[7,1],[2,-6],[-10,-2],[7,-11],[-8,-3],[10,-14],[7,-3],[-9,-4],[-6,-18],[-29,7],[23,24],[-26,25],[-5,-4],[-8,5],[-5,-2],[1,-11],[-5,-1],[-10,5],[-2,19],[21,3],[-44,43],[-34,-10],[-1,7],[19,7],[-8,12],[-6,-1],[-6,10],[9,3],[36,25],[4,1],[5,-14]],[[5915,4597],[8,2],[6,-12],[16,5],[9,-5],[-6,-4],[11,-15],[3,-6],[-5,-2],[-5,9],[-11,10],[-3,-10],[-6,5],[-7,-3],[4,-3],[-6,-7],[-17,18],[-7,-8],[-4,4],[-10,-8],[-2,6],[-24,18],[3,9],[18,36],[14,-8],[32,-6],[-11,-25]],[[575,5107],[13,-11],[-14,-6],[-3,8],[-12,-6],[7,-14],[9,-2],[-1,-6],[-14,-4],[-2,17],[-16,-5],[-4,3],[-15,-11],[-2,3],[-11,-12],[-11,-1],[-5,5]],[[6544,4386],[-4,-9],[26,-14],[10,-8],[-4,-3],[16,-13],[25,15],[3,-7],[-11,-5],[4,-12],[16,-18],[9,-13],[24,14],[5,-6],[0,-6],[-33,-20],[-7,12],[-16,-6],[6,-8],[0,-6],[-5,-2],[-4,-13],[-22,-26],[-7,4],[11,14],[-4,6],[-12,6],[14,13],[6,-3],[9,9],[2,8],[-5,1],[3,7],[-21,18],[-5,-4],[-19,14],[-9,-15],[-3,2],[-10,-12],[-3,2],[15,20],[11,13],[-10,6],[-4,-4],[-7,5],[-19,-23],[-7,5],[-5,-5],[-6,5],[-10,-5],[-14,10],[32,27],[-5,3],[6,6],[-8,4],[5,13],[5,7],[15,-6],[13,21],[13,-8],[-5,-10]],[[2697,9997],[-5,-20],[-13,-2],[1,-6],[-11,0],[-8,-8],[-11,-27],[25,-3],[19,-8],[4,-5],[-8,-9],[-11,8],[-9,1],[-4,-9],[-15,5],[-2,-7],[-19,4],[-4,-15],[-8,1],[2,7],[7,3],[-17,3],[-8,5],[-2,-5],[-8,0],[-21,11],[8,9],[-15,8],[9,12],[3,-8],[10,-6],[5,6],[5,-2],[1,12],[-13,8],[3,4],[18,-6],[-7,8],[8,-1],[4,8],[-13,7],[3,5],[16,-11],[-4,-8],[9,-3],[1,-4],[19,-3],[15,30],[5,-6],[3,8],[20,-1],[3,12],[10,-2]],[[4782,3181],[9,-2],[27,1],[-3,12],[7,1],[14,-5],[14,13],[-12,9],[7,6],[13,-9],[15,11],[-6,-8],[5,-7],[-27,-25],[-11,-5],[3,-6],[-20,-4],[-1,-9],[4,-7],[-9,-2],[3,-11],[-13,1]],[[6627,8648],[-8,-13],[-10,-18],[-13,-26],[-9,-61],[-8,-45],[-9,-27],[-15,4],[5,13],[7,31],[13,79],[-22,7],[-12,7],[-35,26],[8,10],[11,28],[-10,7],[-4,-11],[-9,3],[5,14],[-1,8],[10,-2],[-2,-3],[10,-6],[14,18],[-20,13],[9,12],[31,-21],[18,-9],[5,5],[20,-15],[10,1],[10,13],[16,8],[9,-7],[9,-10]],[[3378,3379],[19,-3],[-8,-11],[19,-5],[12,-33],[46,10],[4,-7],[-8,-8],[-13,-6],[2,-10],[24,11],[11,-23],[-24,-12],[-7,7],[-5,-1],[-7,10],[-13,-2],[-31,-16],[-23,16],[-4,7],[20,20],[-6,3],[8,8],[-12,6],[3,4],[-11,4],[-22,-29],[-24,7],[18,21],[30,32],[2,0]],[[4417,3224],[-12,-17],[-13,5],[-33,6],[2,9],[1,30],[30,-6],[35,-12],[-10,-15]],[[8009,5865],[7,2],[8,-6],[6,-9],[25,-13],[-3,-19],[6,0],[15,-8],[-7,-7],[11,-10],[9,6],[1,7],[10,-1],[5,-11],[-11,-8],[-14,-7],[4,-3],[-11,-2],[-18,-8],[-6,4],[5,9],[0,7],[-15,-7],[-4,8],[18,8],[-30,31],[-11,-26],[-3,1],[-5,-15],[-11,-1],[4,11],[15,36],[6,10],[-22,21],[13,6],[3,-6]],[[6564,2049],[-2,-6],[-8,4],[-6,-5],[8,-5],[-1,-9],[10,3],[15,-1],[1,-9],[-18,0],[0,4],[-19,0],[2,-20],[-16,-4],[-3,-6],[-5,2],[-9,14],[8,1],[4,7],[-5,5],[7,4],[-7,4],[-1,7],[26,0],[13,12],[6,-2]],[[5349,4214],[34,-6],[71,-28],[-5,-8],[6,-3],[4,8],[11,-4],[-4,-9],[-5,2],[-5,-6],[-11,-1],[-4,6],[-8,3],[5,9],[-30,15],[-3,-6],[-19,-1],[-11,5],[8,14],[-12,3],[-3,-12],[-9,1],[1,4],[-27,6],[-10,-24],[-7,3],[8,9],[6,16],[-5,1],[6,7],[18,-4]],[[5327,4164],[-8,4],[3,9],[9,-3],[-4,-10]],[[5955,1855],[0,-8],[9,-2],[8,4],[3,-7],[6,-2],[-4,-13],[-25,-18],[-17,0],[-6,17],[14,3],[-2,16],[-4,9],[16,7],[2,-6]],[[5953,1898],[1,-14],[-8,-1],[2,-12],[-3,-4],[-10,0],[-1,31],[19,0]],[[2095,2313],[-33,-43],[-18,-16],[-4,-8],[1,-8],[-1,-15],[-47,13],[-3,-9],[-7,5],[5,4],[-6,4],[9,9],[-9,5],[41,33],[-2,1],[13,9],[13,12],[1,4],[8,-3],[5,5],[8,-5],[7,7],[8,-4],[3,4],[8,-4]],[[4915,4353],[11,-7],[10,2],[-4,-10],[-7,2],[-8,-11],[4,-7],[-3,-13],[2,-8],[9,0],[1,-12],[-6,0],[0,-17],[-19,3],[-4,-9],[-9,1],[-4,4],[1,8],[8,3],[5,9],[-10,5],[3,5],[-13,7],[-14,12],[10,7],[11,-8],[9,7],[17,27]],[[2362,3612],[11,-13],[-35,-27],[-4,6],[-4,-2],[-10,15],[10,5],[8,10],[24,15],[0,-9]],[[1399,2651],[13,-7],[-3,-3],[7,-3],[-1,-8],[-7,-1],[4,-9],[2,-16],[-6,-2],[3,-8],[9,-9],[-14,3],[-4,-8],[-9,-2],[-2,18],[-12,27],[11,27],[9,1]],[[4994,3098],[7,-8],[-8,-19],[-14,-4],[-9,18],[15,13],[9,0]],[[1603,8927],[1,-5],[13,3],[1,-3],[-9,-7],[4,-11],[-31,-16],[2,-12],[10,4],[6,-15],[-10,-6],[-5,-6],[11,-1],[6,3],[9,-24],[-5,-2],[-10,16],[-32,5],[3,-9],[10,-1],[-7,-7],[-6,17],[-40,6],[4,11],[6,-4],[9,-2],[15,14],[3,8],[5,-5],[11,4],[-7,6],[4,2],[-10,10],[-10,-2],[-4,11],[6,22],[39,7],[2,5],[6,-16]],[[6558,8997],[-14,-27],[5,-3],[-5,-4],[5,-4],[-4,-7],[22,-10],[-1,-3],[25,-10],[8,-1],[5,-12],[19,-21],[8,-15],[7,-25],[-1,-11],[-10,1],[-1,17],[-7,15],[-15,16],[-8,13],[-16,3],[2,7],[-26,13],[-23,6],[-8,4],[-16,15],[-6,-4],[-13,12],[9,8],[-10,3],[3,6],[35,-12],[8,6],[4,9],[-11,4],[5,9],[14,-5],[6,8],[5,-1]],[[7134,7921],[6,-10],[6,-4],[7,8],[13,-9],[9,-1],[6,7],[12,-6],[-7,-13],[12,-9],[4,4],[11,-8],[7,-10],[-7,-5],[-2,-9],[5,-15],[-15,-2],[-13,6],[2,10],[-17,7],[6,10],[-10,12],[4,5],[-6,3],[-8,-13],[-6,2],[-10,-24],[-17,5],[2,12],[-12,8],[-8,8],[8,7],[13,-9],[7,20],[-11,4],[-6,6],[-5,-5],[-12,9],[7,7],[-20,25],[29,0],[6,-16],[10,-17]],[[2257,8315],[10,1],[0,-9],[-9,-9],[-16,-22],[5,-2],[-8,-14],[-12,8],[-11,-4],[-9,1],[14,31],[9,14],[6,-3],[10,16],[11,-8]],[[6864,3349],[10,1],[9,8],[11,-6],[-9,-10],[16,-14],[3,-6],[-5,-15],[4,-4],[-7,-6],[3,-6],[-8,3],[-8,-11],[-10,-30],[-4,0],[2,13],[4,14],[-4,2],[15,21],[-24,8],[-14,-8],[-1,-7],[-14,-5],[-6,4],[5,14],[12,41],[-12,5],[5,9],[27,-15]],[[4075,8484],[8,5],[3,-18],[5,0],[2,-13],[35,-7],[7,15],[7,-2],[-4,-15],[-8,-17],[-35,8],[-21,2],[-3,21],[-18,4],[-10,34],[22,0],[3,-17],[7,0]],[[4096,8413],[-7,-4],[-3,6],[9,5],[1,-7]],[[4075,8413],[4,-5],[-47,-24],[-5,7],[-13,-7],[-6,7],[40,17],[-4,6],[33,11],[-2,-12]],[[7682,6219],[0,-2],[46,-1],[1,-13],[8,0],[1,-15],[-18,-4],[-3,4],[2,15],[-31,0],[0,-14],[11,-21],[-9,-2],[51,-50],[-16,-6],[-8,-6],[-11,-5],[-14,7],[7,31],[-4,10],[-4,0],[-9,10],[-8,-12],[-6,0],[-7,-8],[5,-2],[1,-15],[-4,-43],[-13,0],[-3,-21],[-35,3],[-8,5],[4,8],[-14,4],[5,6],[8,-2],[0,10],[15,-2],[-1,30],[-15,2],[1,15],[18,0],[13,35],[8,38],[3,-1],[15,20],[6,3],[12,-11]],[[5722,6120],[7,-30],[4,-15],[-14,-10],[-3,7],[8,5],[-4,19],[-11,3],[-6,-5],[-10,8],[-12,-8],[8,-13],[-14,-10],[4,-7],[-15,-11],[-13,19],[11,9],[38,30],[-14,6],[11,1],[16,12],[10,4],[-3,-10],[2,-4]],[[5423,8268],[9,1],[24,7],[6,-9],[-30,-8],[-8,-4],[-6,6],[-17,32],[1,8],[5,10],[8,5],[18,-5],[-7,-24],[-3,-19]],[[5424,8327],[-3,-3],[15,-3],[23,2],[5,7],[12,-5],[-13,-4],[1,-8],[-26,5],[-9,-1],[-17,7],[-3,-3],[-15,-2],[-2,9],[-5,2],[8,11],[29,-14]],[[5626,6065],[1,-7],[18,-18],[-21,-1],[-12,6],[0,2],[-13,14],[3,3],[20,4],[4,-3]],[[5536,6019],[17,0],[1,-4],[-21,-10],[-5,5],[0,9],[8,0]],[[5590,6039],[-23,7],[-3,3],[8,10],[10,-8],[8,-12]],[[9531,135],[-1,-9],[-32,2],[1,-22],[9,1],[-9,-5],[-9,-35],[0,-13],[-17,-41],[-1,-13],[-13,3],[-16,7],[0,4],[22,58],[8,17],[4,24],[2,24],[-3,69],[24,3],[0,-56],[1,-9],[6,-1],[1,-7],[23,-1]],[[7925,4602],[-3,-3],[14,-21],[-7,-9],[-5,2],[-13,-16],[-15,-20],[-17,15],[17,51],[10,-1],[7,11],[12,-9]],[[4795,1518],[1,-4],[26,2],[-3,-14],[-24,-1],[-2,3],[-12,-3],[0,11],[8,2],[0,8],[6,-4]],[[7357,7524],[7,-3],[8,3],[20,-1],[0,-5],[16,-1],[-1,-6],[-7,1],[-5,-12],[17,-1],[0,-11],[-16,0],[-8,-13],[17,-8],[-6,-8],[-18,8],[3,-19],[14,0],[0,-10],[9,0],[4,-5],[-19,-2],[1,-21],[10,-9],[-5,-8],[-9,0],[-1,8],[-36,1],[0,12],[-22,1],[3,13],[39,-2],[2,12],[-60,5],[1,14],[-12,-1],[-1,5],[21,0],[0,7],[13,1],[5,11],[12,4],[0,14],[-11,0],[-5,3],[4,9],[18,4],[-13,10],[0,5],[11,-5]],[[7395,7374],[10,-1],[2,10],[9,-1],[-3,-16],[8,0],[0,-7],[-14,1],[-6,-5],[-8,-1],[-4,34],[9,-1],[-3,-13]],[[5808,7197],[19,-33]],[[5827,7164],[-25,-8]],[[5802,7156],[-23,-4],[2,-4],[-16,-2]],[[5765,7146],[-20,56],[-5,8]],[[5740,7210],[-8,20],[24,6]],[[5756,7236],[32,-55],[17,6],[-4,7],[7,3]],[[6003,7185],[-21,15]],[[5982,7200],[-13,11],[-19,21],[-15,18]],[[5935,7250],[-3,3],[31,27]],[[5963,7280],[27,24]],[[5990,7304],[6,-22],[7,-8],[23,-7]],[[6026,7267],[-6,-21],[-15,-35],[-2,-26]],[[6237,7308],[-51,24],[16,24]],[[6202,7356],[16,25],[24,-10],[28,-13]],[[6270,7358],[-33,-50]],[[6671,8239],[-4,4],[-9,58]],[[6658,8301],[24,-6]],[[6682,8295],[9,-54]],[[6691,8241],[-20,-2]],[[5596,7394],[11,-10],[73,-60]],[[5680,7324],[-13,-27],[-9,-16]],[[5658,7281],[-29,24],[-10,-8],[-53,42],[-7,-3],[-7,6]],[[5552,7342],[13,12],[-20,15]],[[5545,7369],[3,3],[20,-16],[17,14],[-47,39],[-7,-6],[-13,11],[8,6]],[[5526,7420],[19,16]],[[5545,7436],[51,-42]],[[6309,7231],[2,-14],[17,2],[3,-14]],[[6331,7205],[-34,-5]],[[6297,7200],[-32,-5]],[[6265,7195],[-1,6],[6,16],[-5,8],[44,6]],[[6168,6935],[-20,11]],[[6148,6946],[-13,8]],[[6135,6954],[17,40]],[[6152,6994],[2,5]],[[6154,6999],[12,-6]],[[6166,6993],[36,-17]],[[6202,6976],[-11,-15],[-6,-3],[-17,-23]],[[6392,6898],[-2,-2],[-28,-2],[-3,-23],[-85,4],[-20,2],[-2,8],[-7,7],[-11,20],[2,2]],[[6236,6914],[8,-3],[47,-2],[51,-1],[22,-5],[3,-6],[25,1]],[[5879,7485],[-23,18],[5,4],[-10,8]],[[5851,7515],[3,7]],[[5854,7522],[10,19]],[[5864,7541],[42,-33]],[[5906,7508],[-27,-23]],[[5918,7086],[-6,3],[-7,-10]],[[5905,7079],[-5,0]],[[5900,7079],[2,13],[13,21]],[[5915,7113],[20,-9],[-17,-18]],[[5946,7028],[-25,15],[7,9],[-8,5]],[[5920,7057],[-1,1],[15,18]],[[5934,7076],[37,-20]],[[5971,7056],[-10,-11]],[[5961,7045],[-15,-17]],[[5545,7369],[-1,0],[-35,27],[1,2],[-35,30],[8,8],[9,-3],[10,8],[24,-21]],[[6165,7533],[-27,21]],[[6138,7554],[-8,6]],[[6130,7560],[44,43]],[[6174,7603],[9,-6]],[[6183,7597],[23,-18]],[[6206,7579],[4,-3]],[[6210,7576],[-45,-43]],[[6086,6951],[-16,-19]],[[6070,6932],[-16,12],[-12,5],[-22,22],[6,1]],[[6026,6972],[19,-6],[41,-15]],[[6543,7053],[2,-6],[-21,-21],[5,-3],[-25,-16],[20,-25]],[[6524,6982],[-21,-10],[-22,-7]],[[6481,6965],[-21,79]],[[6460,7044],[13,4],[-2,4],[9,5],[13,20]],[[6493,7077],[50,-24]],[[5618,7469],[-35,-29],[-22,19],[-3,-2]],[[5558,7457],[-24,22],[36,30],[32,-26]],[[5602,7483],[16,-14]],[[6435,7105],[3,6],[-50,14],[-3,-6]],[[6385,7119],[-29,37]],[[6356,7156],[2,2],[110,-32]],[[6468,7126],[-14,-12],[-7,0],[-6,-10],[-6,1]],[[6176,7100],[-18,10]],[[6158,7110],[17,17],[-4,2]],[[6171,7129],[33,26]],[[6204,7155],[7,-4]],[[6211,7151],[15,-7],[-12,-16],[-15,-13],[2,-1]],[[6201,7114],[-12,-12]],[[6189,7102],[-7,-7],[-6,5]],[[6102,7076],[-14,-35]],[[6088,7041],[-6,-3],[-6,-30]],[[6076,7008],[-25,9]],[[6051,7017],[-25,8],[1,9],[-9,0]],[[6018,7034],[0,18],[-16,2],[10,23]],[[6012,7077],[15,-4],[-1,-5],[33,4],[0,17],[27,-7],[16,-6]],[[6163,7365],[0,1],[-51,39]],[[6112,7405],[36,35]],[[6148,7440],[53,-35]],[[6201,7405],[-6,-7],[1,-8],[-9,-4],[-8,-7],[-9,-5],[-7,-9]],[[6214,7533],[-21,-20]],[[6193,7513],[-12,9]],[[6181,7522],[-16,11]],[[6210,7576],[37,-27],[-11,-10],[-8,6],[-14,-12]],[[6038,7579],[-45,39]],[[5993,7618],[-14,11]],[[5979,7629],[37,33]],[[6016,7662],[37,-31],[6,-4]],[[6059,7627],[-8,-22],[-13,-26]],[[5954,7144],[1,-36],[39,0]],[[5994,7108],[-10,-35],[-12,-16]],[[5972,7057],[-1,-1]],[[5934,7076],[-16,10]],[[5915,7113],[-5,3]],[[5910,7116],[-1,30]],[[5909,7146],[3,-2],[42,0]],[[5909,7212],[0,-13]],[[5909,7199],[0,-37]],[[5909,7162],[-55,0]],[[5854,7162],[0,52]],[[5854,7214],[27,0],[7,-2],[21,0]],[[6396,6959],[-41,31],[-20,17]],[[6335,7007],[25,9],[-12,23],[41,16]],[[6389,7055],[5,0]],[[6394,7055],[7,-15],[1,-17],[-6,-3],[4,-10],[-4,-51]],[[6154,6999],[10,26]],[[6164,7025],[12,30]],[[6176,7055],[19,-4]],[[6195,7051],[-12,-14]],[[6183,7037],[-17,-44]],[[6566,7077],[-11,5],[-49,13]],[[6506,7095],[6,8],[-12,6],[2,5],[-6,3],[-3,9],[3,4],[13,-7],[4,5],[13,-7],[9,11],[13,-5],[6,9],[20,-9],[6,10],[14,-6],[10,18],[8,9],[10,-6]],[[5921,7463],[-9,-10],[-3,-7],[-1,-19]],[[5908,7427],[-28,22]],[[5880,7449],[-46,34]],[[5834,7483],[5,9]],[[5839,7492],[12,23]],[[5879,7485],[17,-13],[7,6],[18,-15]],[[5613,7416],[-6,-5],[5,-4],[-16,-13]],[[5545,7436],[-6,6],[19,15]],[[5618,7469],[14,-11]],[[5632,7458],[-35,-30],[16,-12]],[[6789,7382],[-33,17],[-17,28]],[[6739,7427],[19,6],[60,25],[5,0],[26,-4]],[[6849,7454],[-26,-17],[18,-13],[-43,-35],[-9,-7]],[[6002,7145],[-3,-22]],[[5999,7123],[-5,-15]],[[5954,7144],[48,1]],[[6148,7489],[-11,6],[-22,15]],[[6115,7510],[-13,9]],[[6102,7519],[36,35]],[[6181,7522],[-33,-33]],[[6840,7375],[-14,-5],[0,4],[-22,1],[-18,3]],[[6786,7378],[3,4]],[[6849,7454],[16,-3]],[[6865,7451],[-25,-76]],[[6135,6954],[-29,18]],[[6106,6972],[3,23]],[[6109,6995],[4,5]],[[6113,7000],[1,5]],[[6114,7005],[38,-11]],[[6291,7061],[-6,21]],[[6285,7082],[-12,28]],[[6273,7110],[43,7]],[[6316,7117],[-17,-42],[2,-10],[-10,-4]],[[5975,6840],[3,-12],[-1,-11],[-6,-8]],[[5971,6809],[-10,-13]],[[5961,6796],[-39,13]],[[5922,6809],[9,30],[-4,1]],[[5927,6840],[2,1],[46,-1]],[[6319,7410],[-4,11],[-26,-9],[-4,11]],[[6285,7423],[2,3],[-9,44],[-3,5],[42,18]],[[6317,7493],[24,-75],[-22,-8]],[[6786,7378],[-12,-1],[3,-8],[-5,-9],[-10,4],[-20,14],[-20,21],[14,7],[-30,48],[9,0],[-3,30],[-10,6],[-5,8]],[[6697,7498],[4,16],[4,5]],[[6705,7519],[13,-11],[15,-17],[-7,-12],[5,-4],[2,-35],[6,-13]],[[6445,7062],[12,-9],[3,-9]],[[6481,6965],[-20,-7]],[[6461,6958],[-8,16],[-31,61],[9,4],[-5,10],[19,13]],[[6580,7061],[-5,4],[-18,-19]],[[6557,7046],[-14,7]],[[6493,7077],[13,18]],[[5900,7079],[-13,2]],[[5887,7081],[-1,9],[-4,2],[-22,-3],[0,21],[-6,0]],[[5854,7110],[-1,8]],[[5853,7118],[0,7]],[[5853,7125],[37,0],[20,-9]],[[6539,7340],[-12,-26],[-17,6],[9,15],[-29,10],[-8,-14],[-48,16],[-3,-1],[-7,13]],[[6424,7359],[50,24],[-13,19],[23,19],[25,-34]],[[6509,7387],[-5,-5],[-33,-17],[8,-4]],[[6479,7361],[28,-11],[32,-10]],[[5753,7681],[13,-10]],[[5766,7671],[-26,-24]],[[5740,7647],[-44,-41]],[[5696,7606],[-16,13],[51,45],[19,18],[3,-1]],[[5854,7522],[-28,21]],[[5826,7543],[-24,20]],[[5802,7563],[21,18]],[[5823,7581],[44,-34]],[[5867,7547],[-3,-6]],[[6277,7528],[-8,-12]],[[6269,7516],[-14,9],[-12,-12],[-29,20]],[[6206,7579],[26,28],[68,-43]],[[6300,7564],[-23,-36]],[[6658,7173],[-52,28],[-21,7],[-84,20]],[[6501,7228],[22,36],[19,-7],[13,21]],[[6555,7278],[10,-2],[24,5],[4,11],[34,-11]],[[6627,7281],[15,-4]],[[6642,7277],[29,-6],[18,-10],[38,-33],[46,-40],[-24,-19],[-14,-7],[-15,-4],[9,-9],[-26,-15]],[[5807,7293],[-3,44],[19,-4]],[[5823,7333],[27,-11],[19,-9],[20,-4]],[[5889,7309],[4,-10]],[[5893,7299],[-51,-14],[-15,-5],[-19,-1],[-1,14]],[[5790,7572],[-25,-22]],[[5765,7550],[-24,19]],[[5741,7569],[4,4],[-13,9],[11,9],[6,-5],[11,10]],[[5760,7596],[30,-24]],[[6085,7483],[-12,8]],[[6073,7491],[-35,24]],[[6038,7515],[27,31]],[[6065,7546],[24,-18],[13,-9]],[[6115,7510],[-30,-27]],[[6114,7005],[13,31]],[[6127,7036],[37,-11]],[[6155,6878],[-6,-8]],[[6149,6870],[-12,7],[-4,-4],[-34,21],[11,13],[-40,25]],[[6086,6951],[17,18]],[[6103,6969],[3,3]],[[6148,6946],[-6,-7],[-6,3],[-18,-20],[13,-8],[-12,-13],[36,-23]],[[6401,7783],[37,-12]],[[6438,7771],[-8,-13]],[[6430,7758],[-35,-51],[59,-36],[9,9]],[[6463,7680],[49,-30]],[[6512,7650],[-17,-19],[-63,39],[-19,-21],[-11,7],[-23,-28],[-5,0],[-7,9],[1,7],[-14,8],[-17,-28]],[[6337,7624],[-23,18],[1,8]],[[6315,7650],[8,1],[31,10],[7,6],[12,31],[3,4],[26,18],[9,14],[-16,4],[-14,29],[5,12],[10,-4],[5,8]],[[6103,6969],[-65,25]],[[6038,6994],[13,23]],[[6076,7008],[33,-13]],[[5709,7450],[10,-9]],[[5719,7441],[21,-18]],[[5740,7423],[37,-30],[3,-13]],[[5780,7380],[-33,-3],[-12,-4]],[[5735,7373],[-60,49]],[[5675,7422],[-43,36]],[[5602,7483],[16,13]],[[5618,7496],[16,-12]],[[5634,7484],[14,-12],[3,2],[30,-23],[-2,-2],[15,-12],[15,13]],[[5800,7212],[-21,35]],[[5779,7247],[17,11],[58,0]],[[5854,7258],[0,-44]],[[5854,7214],[-51,-1],[-3,-1]],[[6076,7374],[0,4],[-18,13]],[[6058,7391],[-16,11]],[[6042,7402],[31,31]],[[6073,7433],[15,-10],[24,-18]],[[6112,7405],[-6,-6],[4,-3],[-12,-17],[-2,-7],[-20,2]],[[5952,7493],[-11,-8],[-20,-22]],[[5906,7508],[20,-16],[13,11],[13,-10]],[[5922,6809],[-14,4],[-11,11]],[[5897,6824],[5,4],[-11,0],[-23,-15]],[[5868,6813],[0,28]],[[5868,6841],[59,-1]],[[6187,7251],[8,-6]],[[6195,7245],[-29,-4],[-21,10],[-8,-11],[-3,0],[-9,-12]],[[6125,7228],[-13,-14]],[[6112,7214],[-13,7],[17,12],[7,10],[-27,7],[-12,4]],[[6084,7254],[22,29]],[[6106,7283],[20,29]],[[6126,7312],[17,-12],[11,-19],[23,-23],[10,-7]],[[5823,7581],[28,25]],[[5851,7606],[32,-25]],[[5883,7581],[-16,-34]],[[5935,7250],[-26,0]],[[5909,7250],[0,8]],[[5909,7258],[-1,23],[-15,18]],[[5889,7309],[14,5],[9,0],[5,4]],[[5917,7318],[36,-30],[10,-8]],[[5809,7423],[-21,17],[37,33],[7,-1]],[[5832,7472],[1,-8],[8,-14]],[[5841,7450],[-32,-27]],[[6013,6790],[-3,4],[16,24]],[[6026,6818],[19,30]],[[6045,6848],[14,21]],[[6059,6869],[8,-2]],[[6067,6867],[24,-20],[23,-16]],[[6114,6831],[-71,-59],[-30,18]],[[6396,6959],[-2,-34]],[[6394,6925],[-1,-25]],[[6393,6900],[-23,-2],[-6,6],[-11,5],[-14,1]],[[6339,6910],[-4,18],[23,4],[-1,9],[-10,32],[-22,-1],[-2,5]],[[6323,6977],[-9,24]],[[6314,7001],[-4,13]],[[6310,7014],[-1,2]],[[6309,7016],[18,-5],[8,-4]],[[6029,7368],[7,-9],[-47,-43],[-1,1]],[[5988,7317],[-13,70]],[[5975,7387],[7,-3]],[[5982,7384],[15,-4],[25,-15],[7,3]],[[6682,8295],[44,-13]],[[6726,8282],[-16,-39],[-19,-2]],[[6065,7546],[14,17],[21,20]],[[6100,7583],[30,-23]],[[6425,7079],[-10,-9],[-21,-15]],[[6389,7055],[-5,9],[-19,17],[-8,1]],[[6357,7082],[-7,5],[10,26]],[[6360,7113],[37,-9]],[[6397,7104],[5,-6],[23,-19]],[[6226,7447],[-6,-11]],[[6220,7436],[-37,27]],[[6183,7463],[34,33]],[[6217,7496],[28,-19]],[[6245,7477],[-19,-30]],[[6519,7505],[18,-14],[42,-21],[20,17],[6,-5],[7,-11],[-2,-11],[13,8]],[[6623,7468],[-16,-13]],[[6607,7455],[-2,2],[-29,-13],[-24,-17],[-11,-16],[-23,-15],[-9,-9]],[[6424,7359],[-25,45]],[[6399,7404],[120,101]],[[5916,6964],[16,-18]],[[5932,6946],[-13,-10],[-17,-2],[-32,18],[12,3],[-17,11],[3,3],[-1,30]],[[5867,6999],[59,0]],[[5926,6999],[0,0]],[[5926,6999],[-9,-16],[-1,-19]],[[6229,7019],[-12,-40],[-5,-8]],[[6212,6971],[-10,5]],[[6183,7037],[16,-4],[-2,-7],[32,-7]],[[6372,7523],[-49,-27]],[[6323,7496],[-38,28],[-8,4]],[[6300,7564],[22,35]],[[6322,7599],[15,-12],[-9,-7],[18,-14],[-19,-17],[7,-4],[23,21],[15,-11],[-23,-19],[23,-13]],[[6112,7035],[-13,-31],[14,-4]],[[6088,7041],[24,-6]],[[5909,7162],[0,-16]],[[5853,7125],[1,37]],[[6868,7375],[11,36],[13,35]],[[6892,7446],[33,-5],[-15,-34],[14,0],[1,4],[10,0],[3,-5],[15,-1],[32,-7],[6,-4],[-26,5],[-5,-5],[-17,3],[-3,-8],[-13,1],[-2,-8],[-7,3],[-12,-1],[-19,5],[-7,-2],[-12,-12]],[[6136,7146],[-3,1],[-36,8]],[[6097,7155],[4,24],[1,18]],[[6102,7197],[28,-7]],[[6130,7190],[33,-9]],[[6163,7181],[3,-2]],[[6166,7179],[-15,-17],[-15,-16]],[[5819,6804],[-1,39],[50,-2]],[[5868,6813],[-27,-4],[-9,-4],[-13,-1]],[[5960,7607],[-31,-26]],[[5929,7581],[-28,24],[-5,2]],[[5896,7607],[23,45]],[[5919,7652],[48,-40],[-7,-5]],[[5873,6795],[-17,-15],[-11,10],[-3,9],[-15,-7],[-8,-6],[0,18]],[[5897,6824],[0,-8],[-15,-11],[-9,-10]],[[6270,7028],[0,-16]],[[6270,7012],[-19,5],[-1,-6],[-12,2]],[[6238,7013],[-9,6]],[[6195,7051],[41,-11],[34,-12]],[[5787,7504],[17,-13],[12,11],[6,-4]],[[5822,7498],[-82,-75]],[[5719,7441],[68,63]],[[6102,7197],[0,4]],[[6102,7201],[10,13]],[[6125,7228],[30,-7]],[[6155,7221],[-5,-21],[-15,3],[-5,-13]],[[5802,7563],[-12,9]],[[5760,7596],[-18,14],[21,19]],[[5763,7629],[24,-19]],[[5787,7610],[36,-29]],[[6169,7666],[16,-10],[-6,-8],[0,-12],[5,-7],[22,-16]],[[6206,7613],[-7,-3],[-16,-13]],[[6174,7603],[-60,42]],[[6114,7645],[6,22]],[[6120,7667],[43,-10],[6,9]],[[6126,7070],[-14,-35]],[[6102,7076],[24,-6]],[[6037,7456],[-34,21]],[[6003,7477],[35,38]],[[6073,7491],[-36,-35]],[[6106,7283],[-19,0],[-5,3],[-42,13]],[[6040,7299],[5,13],[11,14],[21,25]],[[6077,7351],[14,-13],[35,-26]],[[5884,7357],[-33,26],[-1,2]],[[5850,7385],[18,4],[14,14]],[[5882,7403],[23,-5],[-3,-37],[-16,0],[-2,-4]],[[6229,6922],[-23,-8],[-3,0]],[[6203,6914],[-35,21]],[[6212,6971],[4,-4],[4,-14],[-5,-22],[14,-9]],[[5887,7081],[-2,-23],[7,-35]],[[5892,7023],[-6,1],[-19,-3],[-14,0],[-15,-7],[-19,-5],[-22,4]],[[5797,7013],[-6,4],[10,1],[-1,5],[9,-2],[18,18],[0,10],[-10,2],[-23,-3],[-7,5],[-1,14],[4,4]],[[5790,7071],[5,1],[2,-7],[38,13],[-2,8],[12,2],[0,22],[9,0]],[[6419,7249],[-15,-35]],[[6404,7214],[-5,-12]],[[6399,7202],[-43,12]],[[6356,7214],[19,45]],[[6375,7259],[44,-10]],[[5850,7385],[-24,20]],[[5826,7405],[12,10],[5,-4],[16,13],[-2,4]],[[5857,7428],[23,21]],[[5908,7427],[-26,-24]],[[5828,7383],[8,1],[-63,50],[7,7],[26,-20]],[[5806,7421],[20,-16]],[[5884,7357],[-8,-5],[-14,3],[-34,28]],[[6407,7319],[9,-2]],[[6416,7317],[2,-3]],[[6418,7314],[18,-4],[44,-12],[75,-20]],[[6501,7228],[-23,6]],[[6478,7234],[-59,15]],[[6375,7259],[-21,6],[-5,3]],[[6349,7268],[-9,9],[-23,33],[23,13],[26,-13],[9,-3]],[[6375,7307],[7,1],[17,15],[8,-4]],[[6270,7001],[44,0]],[[6323,6977],[-14,0]],[[6309,6977],[-40,0],[1,24]],[[6018,7034],[-2,-2],[-44,25]],[[5999,7123],[18,0],[14,-3]],[[6031,7120],[-6,-14],[-14,1],[-3,-3],[14,-4],[-10,-23]],[[6102,7201],[-23,0],[-18,-35]],[[6061,7166],[-58,16]],[[6003,7182],[0,3]],[[6026,7267],[51,-12],[7,-1]],[[6038,7579],[-13,-25]],[[6025,7554],[-35,29],[-15,11]],[[5975,7594],[11,9],[0,6],[7,9]],[[6309,7016],[-13,29],[-3,11]],[[6293,7056],[47,19],[17,7]],[[5773,7120],[-8,26]],[[5802,7156],[15,-29]],[[5817,7127],[-35,-12],[-3,7],[-6,-2]],[[5627,7517],[23,-19]],[[5650,7498],[-16,-14]],[[5618,7496],[-28,23],[-42,35],[16,13],[63,-50]],[[6088,7822],[14,3],[18,-73],[12,-15]],[[6132,7737],[-25,-7],[-21,-22],[-9,-7]],[[6077,7701],[-8,1],[-11,6],[-68,55],[-7,-1]],[[5983,7762],[-11,-1]],[[5972,7761],[-4,3]],[[5968,7764],[-3,21],[-6,14],[-6,11],[-71,80],[-6,8]],[[5876,7898],[3,1]],[[5879,7899],[17,5],[21,-25],[4,8],[35,-46],[15,-21],[21,-25],[19,-15],[22,-2],[15,-15],[13,26],[3,29],[24,4]],[[5854,7162],[-27,0],[0,2]],[[5808,7197],[-8,15]],[[5975,7594],[-15,13]],[[5919,7652],[10,20]],[[5929,7672],[50,-43]],[[6195,7245],[2,-1]],[[6197,7244],[-17,-29]],[[6180,7215],[-25,6]],[[6449,7201],[-45,13]],[[6478,7234],[-29,-33]],[[6319,7410],[4,-12]],[[6323,7398],[-25,-9],[14,-34],[4,-5],[-13,-8],[-18,7],[-15,9]],[[6202,7356],[-24,2],[-15,7]],[[6201,7405],[19,31]],[[6226,7447],[54,-30],[5,6]],[[5982,6971],[0,-1],[-34,-3]],[[5948,6967],[-32,-3]],[[5926,6999],[7,13],[13,16]],[[5961,7045],[44,-26],[-2,-2],[13,-7],[-14,-23],[-11,-13],[-9,-3]],[[6430,7758],[56,-27]],[[6486,7731],[-17,-20],[14,-9],[-20,-22]],[[6127,7036],[12,30]],[[6139,7066],[37,-11]],[[6144,7741],[-12,-4]],[[6088,7822],[-1,4],[-13,-2],[-3,25],[11,2],[29,6],[9,-45],[15,-43],[0,-16],[9,-12]],[[5987,7535],[-2,-8],[-8,-9]],[[5977,7518],[-40,31],[-6,-6],[-48,38]],[[5883,7581],[13,26]],[[5929,7581],[41,-32],[17,-14]],[[6342,7175],[0,0]],[[6342,7175],[-1,2]],[[6341,7177],[-1,2],[13,30]],[[6353,7209],[3,5]],[[6399,7202],[-4,-9]],[[6395,7193],[-8,-19]],[[6387,7174],[-5,-11],[-40,12]],[[6270,7167],[-6,28]],[[6264,7195],[1,0]],[[6297,7200],[6,-28]],[[6303,7172],[-33,-5]],[[6506,7095],[-24,45]],[[6482,7140],[-1,1]],[[6481,7141],[-4,12],[-9,19]],[[6468,7172],[-12,23],[-7,6]],[[6273,7110],[-16,26]],[[6257,7136],[19,3]],[[6276,7139],[33,5],[10,31]],[[6319,7175],[22,2]],[[6342,7175],[-9,-22],[-15,-30]],[[6318,7123],[-2,-6]],[[5909,7258],[-55,0]],[[5779,7247],[-6,17],[-7,28]],[[5766,7292],[8,0]],[[5774,7292],[33,1]],[[6171,7129],[-35,17]],[[6166,7179],[38,-24]],[[5787,7610],[21,19],[-24,19],[7,6]],[[5791,7654],[60,-48]],[[6026,6818],[-30,13],[10,15],[-35,15]],[[5971,6861],[0,9],[-20,-2],[-5,23],[19,5],[8,4]],[[5973,6900],[25,-11]],[[5998,6889],[-10,-16],[57,-25]],[[6073,7433],[-36,23]],[[6085,7483],[22,-16]],[[6107,7467],[-34,-34]],[[6183,7463],[-22,17]],[[6161,7480],[-13,9]],[[6193,7513],[24,-17]],[[6547,8309],[-7,15],[9,17]],[[6549,8341],[1,0],[24,33]],[[6574,8374],[74,-11],[-7,-15],[-62,-31],[-32,-8]],[[6315,7650],[-15,0],[-25,3],[-19,0],[-44,-3],[-10,-3],[-11,32]],[[6191,7679],[-14,32],[-18,-4],[-18,-8],[-7,-6],[-10,-12],[-4,-14]],[[6114,7645],[-5,-16],[-13,-25],[-4,-15],[8,-6]],[[6003,7477],[-29,-32]],[[5974,7445],[-25,-25],[-5,-9],[-2,-15]],[[5942,7396],[-4,-51],[-13,-19],[-8,-8]],[[5823,7333],[1,17],[-31,7],[-9,-1]],[[5784,7356],[-29,-4],[-25,-9],[-12,-11],[-11,-15],[4,-6]],[[5711,7311],[19,-32]],[[5730,7279],[26,-43]],[[5740,7210],[-27,-6],[-35,-5],[3,-11],[-13,-23],[-4,-2],[-17,1],[-4,-4],[-14,11],[5,5],[-14,16],[-4,8],[12,10],[28,37],[-15,11]],[[5641,7258],[6,5],[11,18]],[[5680,7324],[10,18]],[[5690,7342],[17,14],[16,11],[12,6]],[[5780,7380],[48,3]],[[5952,7493],[8,6],[17,19]],[[5987,7535],[5,6],[9,5],[14,2],[10,6]],[[6059,7627],[11,35],[10,-2],[7,4],[-3,8],[-11,8],[-2,10],[6,11]],[[6144,7741],[7,6],[12,-5],[2,-11],[29,-1],[16,-5],[20,-11],[30,-20],[21,-17],[15,-7],[15,-4],[24,2],[15,11],[9,15],[2,19],[-1,23],[-7,23],[-19,45],[-5,10]],[[6329,7814],[17,5]],[[6346,7819],[9,-19],[6,-18],[7,13],[33,-12]],[[5693,7463],[16,-13]],[[5650,7498],[43,-35]],[[5942,7396],[24,-2],[9,-7]],[[5988,7317],[2,-13]],[[5883,7581],[0,0]],[[6293,7056],[-2,5]],[[6318,7123],[42,-10]],[[6048,7115],[15,34],[-8,3],[6,14]],[[6097,7155],[-8,-23],[6,-6]],[[6095,7126],[-1,-10],[19,-12]],[[6113,7104],[-11,-14],[-28,7],[4,9],[-30,9]],[[5961,6796],[-14,-20],[-13,-11],[-8,6],[0,5],[-29,9],[-24,10]],[[6387,7174],[56,-16],[-2,-6],[40,-11]],[[6482,7140],[-14,-14]],[[6356,7156],[-14,19]],[[5640,7393],[-27,23]],[[5675,7422],[-35,-29]],[[6180,7215],[-12,-21],[-5,-13]],[[6652,8241],[-17,-2],[1,-28],[1,-4],[-34,3],[15,2],[1,14]],[[6619,8226],[0,13],[-8,49]],[[6611,8288],[21,8]],[[6632,8296],[8,-43],[10,1],[2,-13]],[[6645,7653],[11,-7],[-9,-10],[-23,14],[-17,-34],[19,-12],[-3,-9],[-20,8],[-6,-5],[-9,5],[-24,-57],[-6,-9],[-39,-32]],[[6399,7404],[-9,-7],[-36,-11]],[[6354,7386],[-24,-7],[-7,19]],[[6317,7493],[6,3]],[[6372,7523],[8,-5],[32,1]],[[6412,7519],[18,-22],[11,-18],[9,-6],[28,21],[12,-10],[51,42]],[[6541,7526],[15,12],[6,10],[23,58]],[[6585,7606],[3,-1],[21,50],[9,19],[13,-13],[14,-8]],[[6113,7104],[23,-16]],[[6136,7088],[-6,-19]],[[6130,7069],[-4,1]],[[6031,7120],[17,-5]],[[6891,8198],[43,-55],[42,-52],[-64,-4],[-9,-13],[-78,-30],[22,-21],[19,-4],[6,-4],[8,7],[27,-15],[19,-10],[8,13],[13,-4],[20,-4],[11,1],[16,-4],[2,3],[15,-4],[-1,-20],[10,-4],[-39,-29],[-55,-41],[-81,-60],[-16,-11],[-12,-6],[-41,-30]],[[6776,7797],[-95,90],[-35,32],[-48,47],[-14,12]],[[6584,7978],[54,78],[85,122],[4,3]],[[6727,8181],[10,-4],[8,5],[6,14],[24,1],[28,6]],[[6803,8203],[8,1],[50,-2],[24,-4],[6,0]],[[5641,7258],[-58,48],[-40,32],[9,4]],[[6237,7308],[-18,-27],[6,-7]],[[6225,7274],[-38,-23]],[[6077,7351],[-3,3],[2,20]],[[6412,7519],[80,4]],[[6492,7523],[49,3]],[[6539,7340],[56,-19],[10,15]],[[6605,7336],[1,2],[34,-13]],[[6640,7325],[-9,-29]],[[6631,7296],[-4,-15]],[[6418,7314],[-2,3]],[[6416,7317],[-9,2]],[[6375,7307],[1,4],[-23,73],[1,2]],[[6040,7299],[-3,-10],[-11,-22]],[[6029,7368],[15,7],[14,16]],[[5907,7042],[-4,21],[2,16]],[[5920,7057],[-13,-15]],[[6134,7450],[-27,17]],[[6161,7480],[-27,-30]],[[6671,8239],[-18,-2],[-1,4]],[[6632,8296],[12,5],[14,0]],[[6315,7650],[-7,-4],[-91,-28],[-11,-5]],[[6169,7666],[9,7],[13,6]],[[5790,7071],[-17,49]],[[5817,7127],[5,-10],[31,1]],[[6865,7451],[27,-5]],[[6868,7375],[-4,-4],[-24,4]],[[6042,7402],[-27,19]],[[6015,7421],[-8,5]],[[6007,7426],[30,30]],[[6605,7336],[-34,11]],[[6571,7347],[2,4],[-15,5],[4,27],[-22,11],[4,7],[19,-10],[47,-23],[37,-19],[-7,-24]],[[5909,7199],[45,1]],[[5954,7200],[0,-56]],[[6319,7262],[3,-15],[-16,-2],[3,-14]],[[6264,7195],[-20,-3]],[[6244,7192],[-33,41],[-14,11]],[[6225,7274],[19,-23],[75,11]],[[6270,7001],[0,11]],[[6270,7028],[40,-14]],[[6585,7606],[-6,3],[-33,20]],[[6546,7629],[-20,12],[6,15],[-10,5],[-10,-11]],[[6486,7731],[32,-15],[20,25],[18,20],[-51,25],[-42,19]],[[6463,7805],[36,50]],[[6499,7855],[85,123]],[[6776,7797],[6,-6],[-20,-18],[-7,-13],[-17,-50],[-15,22],[-24,-14],[7,-8],[-26,-18],[-9,7],[-5,-4],[0,-7],[-8,0],[-12,-8],[3,-10],[-5,-10],[6,-1],[-5,-6]],[[6176,7100],[-14,-15],[-19,13],[-7,-10]],[[6095,7126],[8,-1],[5,7],[50,-22]],[[5809,7423],[-3,-2]],[[5822,7498],[4,4]],[[5826,7502],[13,-10]],[[5834,7483],[-2,-11]],[[6438,7771],[25,34]],[[6269,7516],[-24,-39]],[[6257,7136],[-3,0],[-28,-40],[-6,6],[-19,12]],[[6211,7151],[9,14],[15,-8],[13,19]],[[6248,7176],[3,-27],[6,-13]],[[5741,7569],[-43,34],[-4,2]],[[5694,7605],[2,1]],[[5740,7647],[23,-18]],[[6039,6884],[-15,9],[-13,15]],[[6011,6908],[-19,26],[-6,12],[-5,3],[-34,12],[1,6]],[[5982,6971],[20,-11],[41,-27],[3,-1]],[[6046,6932],[1,-25],[-14,-15],[8,-6],[-2,-2]],[[5974,7445],[33,-19]],[[6015,7421],[-22,-20],[-11,-17]],[[6811,8383],[-37,-86],[-11,-26]],[[6763,8271],[-37,11]],[[6611,8288],[-44,-18]],[[6567,8270],[-20,39]],[[6574,8374],[18,26],[67,-12],[5,13],[50,-15],[4,11],[41,-12],[6,9],[-39,12],[5,15],[-52,16],[5,12],[131,-40],[-3,-6],[2,-10],[-3,-10]],[[6331,7205],[22,4]],[[6319,7175],[-16,-3]],[[5998,6889],[13,19]],[[6039,6884],[20,-15]],[[5791,7654],[-24,18],[-1,-1]],[[5753,7681],[2,2],[116,69],[21,-15],[47,-46]],[[5939,7691],[-10,-19]],[[6276,7139],[-6,28]],[[5774,7292],[-2,29]],[[5772,7321],[14,1],[-2,34]],[[6479,7361],[13,8],[79,-22]],[[6026,6972],[12,22]],[[6395,7193],[73,-21]],[[6232,6918],[-3,4]],[[6238,7013],[-8,-29],[26,-6],[-5,-16],[-5,-6],[12,-6],[-24,-30],[-2,-2]],[[6130,7069],[9,-3]],[[6270,7028],[-1,24],[-23,8],[3,3]],[[6249,7063],[36,19]],[[5756,7236],[23,11]],[[6248,7176],[-4,16]],[[6733,8198],[-8,0],[-21,-9],[-9,-2],[-31,0],[-51,11],[-20,11],[9,17],[0,7]],[[6602,8233],[3,-8],[14,1]],[[6763,8271],[-12,-26],[-18,-47]],[[5916,7019],[-24,4]],[[5907,7042],[9,-19],[0,-4]],[[6803,8203],[-8,26],[46,17],[0,1],[-78,24]],[[6811,8383],[5,-1],[5,12],[31,-11],[35,-10],[8,11],[46,-14],[-20,-17],[31,-30],[-3,-6],[19,-17],[-3,-7],[31,8],[15,0],[-46,-72],[-1,-3],[57,-7],[-4,-17],[-21,9],[-26,1],[-12,-3],[-28,0],[-14,-9],[-13,-4],[-12,2]],[[5640,7393],[-6,-5],[56,-46]],[[6149,6870],[-7,-10]],[[6142,6860],[-52,33]],[[6090,6893],[12,12],[-51,32],[-5,-5]],[[6013,6790],[-3,1],[-39,18]],[[5975,6840],[-4,21]],[[6385,7119],[12,-15]],[[6339,6910],[-52,2],[2,23],[6,0],[1,12],[15,-1],[-4,6],[2,25]],[[6727,8181],[-1,7],[7,10]],[[6697,7498],[-5,-9],[-6,-3],[-38,-11],[-27,-11],[-14,-9]],[[6623,7468],[7,8],[37,85],[11,25],[7,-7],[14,8],[37,-51],[10,4],[-9,15],[4,1],[-6,10],[5,2],[-8,14],[6,7],[8,4],[-4,8],[18,7],[25,-54],[-35,-13],[-33,-14],[-12,-8]],[[6148,7440],[-14,10]],[[5730,7279],[29,12],[7,1]],[[5982,7200],[-28,0]],[[5909,7212],[0,38]],[[5841,7450],[16,-22]],[[6346,7819],[-3,13],[69,-24],[34,65]],[[6446,7873],[53,-18]],[[6016,7662],[-49,43],[-10,-8],[-11,9]],[[5946,7706],[16,32],[5,16],[1,10]],[[5968,7764],[4,-3]],[[5972,7761],[11,1]],[[5693,7463],[7,6],[-32,25],[1,1],[33,-2],[6,6],[-9,7],[10,9],[4,-3],[10,9],[18,-14],[19,17],[27,-20]],[[6446,7873],[-33,12],[6,12],[-72,26],[11,21],[6,5],[-40,14]],[[6324,7963],[7,5],[22,8],[42,23],[23,15],[22,26],[18,22],[3,12],[8,15],[23,29],[34,34],[23,22],[12,28],[1,23],[-18,37],[-22,29],[-16,29],[-3,12],[2,14],[5,11],[12,16],[13,-7],[-1,-15],[15,-10]],[[6567,8270],[33,-34],[2,-3]],[[6445,7062],[-20,17]],[[6425,7079],[19,14],[-11,7],[2,5]],[[6461,6958],[-34,-16],[-33,-17]],[[6189,7102],[9,-6],[4,-10],[33,-12],[14,-11]],[[6393,6900],[-1,-2]],[[6236,6914],[-4,4]],[[6349,7268],[-30,-6]],[[5801,7522],[25,-20]],[[5627,7517],[14,15],[12,15],[2,13],[39,45]],[[5765,7550],[36,-28]],[[6203,6914],[-20,-2],[-11,-10],[-17,-24]],[[6337,7624],[-15,-25]],[[6557,7046],[8,-4],[-23,-28],[25,-14],[-43,-18]],[[5826,7543],[-25,-21]],[[6003,7182],[0,-22],[-1,-15]],[[5772,7321],[-12,-1],[-7,16],[-27,-10],[3,-7],[-18,-8]],[[6329,7814],[-21,38],[-11,30],[-5,20],[-2,15],[5,21],[15,17],[14,8]],[[5916,7019],[0,-14],[10,-6]],[[5867,6999],[-48,-4],[0,10],[-21,2],[-1,6]],[[5939,7691],[7,15]],[[6546,7629],[-16,-18],[-19,10],[-44,-47],[13,-8],[-9,-11],[19,-10],[-9,-13],[11,-9]],[[5876,7898],[6,38],[-50,60],[-9,-5],[-23,28],[-10,9],[17,49],[12,24],[7,8],[35,-40],[21,-26],[12,-13],[-6,-55],[-9,-76]],[[6090,6893],[-23,-26]],[[6142,6860],[-28,-29]],[[5973,6900],[-1,2],[-18,-4],[-4,14],[15,3],[-10,15],[-23,16]],[[6631,7296],[16,-3],[-5,-16]],[[6848,7744],[3,-6],[-29,-34],[-15,23],[24,19],[2,-2],[9,9],[7,-4],[-1,-5]],[[38,2403],[6,-1],[12,-28],[4,1],[6,-21],[4,-5],[-22,0],[-2,-7],[-9,1],[-5,-18],[-6,-12],[-18,0],[6,13],[-14,0],[11,5],[8,7],[10,3],[3,13],[9,8],[0,9],[-11,8],[-4,12],[2,15],[10,-3]]]}
