{"type":"Topology","bbox":[-75.71444690334312,8.620060457004929,-75.53361277089505,9.018813687517406],"transform":{"scale":[0.000018085221766983633,0.000039879310982346],"translate":[-75.71444690334312,8.620060457004929]},"objects":{"municipios":{"type":"GeometryCollection","geometries":[{"type":"Polygon","arcs":[[0,1,2,3,4]],"properties":{"codigo":"23189100000000000401","sector":"231891000000000004","pcode":"CO23189","area_m2":65530}},{"type":"Polygon","arcs":[[5,6,7,8,9]],"properties":{"codigo":"23189100000000000202","sector":"231891000000000002","pcode":"CO23189","area_m2":52477}},{"type":"Polygon","arcs":[[10,11,12,13]],"properties":{"codigo":"23189100000000000304","sector":"231891000000000003","pcode":"CO23189","area_m2":61910}},{"type":"Polygon","arcs":[[14,15,16,17]],"properties":{"codigo":"23189100000000000403","sector":"231891000000000004","pcode":"CO23189","area_m2":57534}},{"type":"Polygon","arcs":[[18,19,20,21,22]],"properties":{"codigo":"23189100000000000101","sector":"231891000000000001","pcode":"CO23189","area_m2":109203}},{"type":"Polygon","arcs":[[23,24,25]],"properties":{"codigo":"23189100000000000104","sector":"231891000000000001","pcode":"CO23189","area_m2":40282}},{"type":"Polygon","arcs":[[26,-13,27,28,29,30,-26,31,-19,32]],"properties":{"codigo":"23189100000000000105","sector":"231891000000000001","pcode":"CO23189","area_m2":397254}},{"type":"Polygon","arcs":[[-21,33,-10,34,35]],"properties":{"codigo":"23189100000000000201","sector":"231891000000000002","pcode":"CO23189","area_m2":56569}},{"type":"Polygon","arcs":[[36,37,38,-17,39,40,41,42,-11]],"properties":{"codigo":"23189100000000000305","sector":"231891000000000003","pcode":"CO23189","area_m2":73614}},{"type":"Polygon","arcs":[[-30,43,-41,44,-1,45,46]],"properties":{"codigo":"23189100000000000301","sector":"231891000000000003","pcode":"CO23189","area_m2":57848}},{"type":"Polygon","arcs":[[-44,-29,47,-42]],"properties":{"codigo":"23189100000000000302","sector":"231891000000000003","pcode":"CO23189","area_m2":60470}},{"type":"Polygon","arcs":[[-48,-28,-12,-43]],"properties":{"codigo":"23189100000000000303","sector":"231891000000000003","pcode":"CO23189","area_m2":50074}},{"type":"Polygon","arcs":[[48,49,50,-15]],"properties":{"codigo":"23189100000000000404","sector":"231891000000000004","pcode":"CO23189","area_m2":224972}},{"type":"Polygon","arcs":[[51,52,53,-37,-14,54]],"properties":{"codigo":"23189100000000000407","sector":"231891000000000004","pcode":"CO23189","area_m2":183033}},{"type":"Polygon","arcs":[[55,56,-55,-27,57]],"properties":{"codigo":"23189100000000000408","sector":"231891000000000004","pcode":"CO23189","area_m2":216404}},{"type":"Polygon","arcs":[[58]],"properties":{"codigo":"23189200604003000101","sector":"231892006040030001","pcode":"CO23189","area_m2":144000}},{"type":"Polygon","arcs":[[59]],"properties":{"codigo":"23189200202004000101","sector":"231892002020040001","pcode":"CO23189","area_m2":242595}},{"type":"Polygon","arcs":[[60]],"properties":{"codigo":"23189200607021000101","sector":"231892006070210001","pcode":"CO23189","area_m2":169493}},{"type":"Polygon","arcs":[[61]],"properties":{"codigo":"23189200102034000101","sector":"231892001020340001","pcode":"CO23189","area_m2":235799}},{"type":"Polygon","arcs":[[62]],"properties":{"codigo":"23189200105044000101","sector":"231892001050440001","pcode":"CO23189","area_m2":122838}},{"type":"Polygon","arcs":[[63]],"properties":{"codigo":"23189200605045000101","sector":"231892006050450001","pcode":"CO23189","area_m2":99649}},{"type":"Polygon","arcs":[[64]],"properties":{"codigo":"23189200104028000101","sector":"231892001040280001","pcode":"CO23189","area_m2":168855}},{"type":"Polygon","arcs":[[-46,-5,65,-8,66]],"properties":{"codigo":"23189100000000000203","sector":"231891000000000002","pcode":"CO23189","area_m2":39420}},{"type":"Polygon","arcs":[[-40,-16,-51,67,68,-2,-45]],"properties":{"codigo":"23189100000000000402","sector":"231891000000000004","pcode":"CO23189","area_m2":88956}},{"type":"Polygon","arcs":[[-32,-25,69,-6,-34,-20]],"properties":{"codigo":"23189100000000000102","sector":"231891000000000001","pcode":"CO23189","area_m2":61943}},{"type":"Polygon","arcs":[[-31,-47,-67,-7,-70,-24]],"properties":{"codigo":"23189100000000000103","sector":"231891000000000001","pcode":"CO23189","area_m2":64549}},{"type":"Polygon","arcs":[[70,-35,-9,-66,-4,71,72]],"properties":{"codigo":"23189100000000000204","sector":"231891000000000002","pcode":"CO23189","area_m2":227406}},{"type":"Polygon","arcs":[[73]],"properties":{"codigo":"23189200303016000101","sector":"231892003030160001","pcode":"CO23189","area_m2":110547}},{"type":"Polygon","arcs":[[-72,-3,-69,74]],"properties":{"codigo":"23189100000000000205","sector":"231891000000000002","pcode":"CO23189","area_m2":519389}},{"type":"Polygon","arcs":[[-22,-36,-71,75]],"properties":{"codigo":"23189100000000000206","sector":"231891000000000002","pcode":"CO23189","area_m2":260484}},{"type":"Polygon","arcs":[[-53,76,-49,-18,-39,77]],"properties":{"codigo":"23189100000000000405","sector":"231891000000000004","pcode":"CO23189","area_m2":71677}},{"type":"Polygon","arcs":[[-54,-78,-38]],"properties":{"codigo":"23189100000000000406","sector":"231891000000000004","pcode":"CO23189","area_m2":47282}},{"type":"Polygon","arcs":[[-56,78]],"properties":{"codigo":"23189100000000000409","sector":"231891000000000004","pcode":"CO23189","area_m2":146384}},{"type":"Polygon","arcs":[[79,80]],"properties":{"codigo":"23189200401001000101","sector":"231892004010010001","pcode":"CO23189","area_m2":739203}},{"type":"Polygon","arcs":[[-81,81]],"properties":{"codigo":"23189200401001000102","sector":"231892004010010001","pcode":"CO23189","area_m2":296934}},{"type":"Polygon","arcs":[[82,83]],"properties":{"codigo":"23189200201005000101","sector":"231892002010050001","pcode":"CO23189","area_m2":54985}},{"type":"Polygon","arcs":[[-83,84]],"properties":{"codigo":"23189200201005000102","sector":"231892002010050001","pcode":"CO23189","area_m2":91957}},{"type":"Polygon","arcs":[[85]],"properties":{"codigo":"23189200301007000101","sector":"231892003010070001","pcode":"CO23189","area_m2":69350}},{"type":"Polygon","arcs":[[86]],"properties":{"codigo":"23189200105008000101","sector":"231892001050080001","pcode":"CO23189","area_m2":75906}},{"type":"MultiPolygon","arcs":[[[87]],[[88]]],"properties":{"codigo":"23189200402013000101","sector":"231892004020130001","pcode":"CO23189","area_m2":110568}},{"type":"Polygon","arcs":[[89]],"properties":{"codigo":"23189200303029000101","sector":"231892003030290001","pcode":"CO23189","area_m2":156930}},{"type":"Polygon","arcs":[[90]],"properties":{"codigo":"23189200601018000101","sector":"231892006010180001","pcode":"CO23189","area_m2":206281}},{"type":"Polygon","arcs":[[91]],"properties":{"codigo":"23189200505019000101","sector":"231892005050190001","pcode":"CO23189","area_m2":151425}},{"type":"Polygon","arcs":[[92]],"properties":{"codigo":"23189200505023000101","sector":"231892005050230001","pcode":"CO23189","area_m2":241312}},{"type":"Polygon","arcs":[[93]],"properties":{"codigo":"23189200403024000101","sector":"231892004030240001","pcode":"CO23189","area_m2":87294}},{"type":"Polygon","arcs":[[94]],"properties":{"codigo":"23189200404025000101","sector":"231892004040250001","pcode":"CO23189","area_m2":98547}},{"type":"Polygon","arcs":[[95]],"properties":{"codigo":"23189200503030000101","sector":"231892005030300001","pcode":"CO23189","area_m2":179177}},{"type":"Polygon","arcs":[[96]],"properties":{"codigo":"23189200503038000101","sector":"231892005030380001","pcode":"CO23189","area_m2":78581}},{"type":"Polygon","arcs":[[97]],"properties":{"codigo":"23189200504046000101","sector":"231892005040460001","pcode":"CO23189","area_m2":51589}}]}},"arcs":[[[5029,6408],[11,-24],[8,-36]],[[5048,6348],[-154,-16],[-14,1]],[[4880,6333],[83,61]],[[4963,6394],[36,30]],[[4999,6424],[15,-17],[15,1]],[[5109,6512],[-4,-25]],[[5105,6487],[-42,0]],[[5063,6487],[-92,-9]],[[4971,6478],[-27,30],[11,22]],[[4955,6530],[113,-7],[0,-10],[41,-1]],[[5460,6361],[-31,-1],[-66,6],[-35,-3]],[[5328,6363],[21,54]],[[5349,6417],[50,-6],[142,-39]],[[5541,6372],[-81,-11]],[[5267,6285],[-40,4],[-125,-9]],[[5102,6280],[-11,45]],[[5091,6325],[35,0],[157,-10]],[[5283,6315],[-16,-30]],[[5301,6615],[-11,-35],[-1,-30],[-14,-17]],[[5275,6533],[-70,5],[-44,-2],[9,32]],[[5170,6568],[31,33]],[[5201,6601],[3,32]],[[5204,6633],[44,0],[8,47],[55,-1],[-7,-49],[-44,1],[8,-18],[33,2]],[[5202,6434],[-14,59]],[[5188,6493],[81,2]],[[5269,6495],[0,-61],[-67,0]],[[5628,6374],[-87,-2]],[[5349,6417],[-114,-5]],[[5235,6412],[-129,-10]],[[5106,6402],[-11,17],[4,14]],[[5099,6433],[103,1]],[[5269,6495],[-5,15],[11,23]],[[5301,6615],[86,3],[54,6],[19,-10],[44,-41],[5,-16],[-10,-20],[-54,-29],[-54,-22],[8,-22],[-18,-40],[34,-4],[35,3],[155,34],[-29,-35],[-35,-1],[-21,-34],[15,-5],[96,0],[-3,-8]],[[5170,6568],[-34,-43],[-25,1],[-2,-14]],[[4955,6530],[19,19]],[[4974,6549],[25,-10],[0,10],[116,-10],[32,67],[54,-5]],[[5460,6361],[8,-8],[-71,-10]],[[5397,6343],[-26,-1],[-11,10],[-49,-9]],[[5311,6343],[-22,-9],[-6,-19]],[[5091,6325],[-8,19]],[[5083,6344],[60,4]],[[5143,6348],[107,5]],[[5250,6353],[45,2],[33,8]],[[5106,6402],[37,-54]],[[5083,6344],[-35,4]],[[5029,6408],[-2,18],[47,-1],[-3,8]],[[5071,6433],[28,0]],[[5235,6412],[15,-59]],[[5267,6285],[22,-9],[19,-20],[-2,-13],[21,2]],[[5327,6245],[-16,-13],[-63,-12],[-17,7],[-42,-4],[-38,-15],[-39,-9],[-48,-33],[-115,17],[51,25],[-59,5],[96,65]],[[5037,6278],[87,-7],[-22,9]],[[5751,6317],[-18,-15],[-21,-1],[-11,-15],[-53,10],[-34,-1],[-11,-11],[-53,3],[-44,-9],[-33,-22],[-40,11]],[[5433,6267],[1,20]],[[5434,6287],[31,9],[-68,47]],[[5541,6372],[81,-20],[56,-17],[73,-18]],[[6035,6290],[7,-10],[40,-15],[58,-14],[-28,-27],[-17,-1]],[[6095,6223],[-344,94]],[[5628,6374],[41,6],[51,-1],[126,-34],[87,-27],[6,-6],[96,-22]],[[9679,1557],[30,12],[48,11],[63,-13],[79,-5],[40,17],[42,5],[18,-8],[-40,-20],[-5,-35],[-30,-25],[-61,-19],[-2,-4],[-75,-4],[23,55],[-1,10],[-89,24],[-22,-8],[-18,7]],[[3178,8326],[25,28],[73,20],[57,-11],[42,12],[-5,6],[86,20],[104,8],[14,7],[35,-24],[-22,-6],[0,-13],[-41,-4],[-49,-11],[7,-9],[-63,-12],[8,-12],[-68,-19],[-13,8],[-66,-8],[33,-32],[-82,-9],[-46,-1],[11,24],[-20,4],[6,14],[-38,8],[12,12]],[[9339,44],[-38,6],[-18,-20],[-56,-28],[-18,3],[16,21],[-8,13],[24,34],[30,27],[22,50],[-5,22],[-17,17],[-34,14],[29,5],[41,-5],[28,-16],[47,-1],[-10,-29],[59,-6],[-12,-37],[31,-12],[-11,-5],[-41,16],[-39,-10],[-20,-59]],[[961,8152],[-52,-53],[-53,9],[-126,5],[-177,22],[16,40],[55,-6],[4,8],[45,-4],[15,18],[81,-11],[18,13],[29,5],[38,-46],[37,18],[63,12],[7,26],[84,26],[-84,-82]],[[378,6916],[22,-4],[181,-203],[5,-9],[-21,-107],[-50,3],[23,34],[-17,1],[27,36],[7,29],[-51,52],[-49,66],[-31,36],[-23,18],[-47,11],[-33,38],[50,7],[7,-8]],[[9812,325],[-20,-15],[6,-16],[21,-3],[-17,-25],[-72,12],[-25,-18],[14,-4],[-34,-24],[-18,3],[-49,-15],[-29,11],[17,26],[14,-4],[61,54],[24,17],[70,1],[22,9],[15,-9]],[[2510,7455],[67,1],[-3,-21],[20,-26],[-9,-19],[30,-19],[-16,-11],[41,-46],[7,-28],[-13,-27],[47,-31],[-43,-2],[-2,9],[-31,25],[-17,28],[-12,-3],[-15,37],[-42,44],[8,5],[-14,30],[-72,-1],[-7,56],[76,-1]],[[4999,6424],[4,31],[-32,23]],[[5063,6487],[-2,-23],[10,-31]],[[5037,6278],[-34,9],[-82,31],[-16,-15],[-44,13]],[[4861,6316],[19,17]],[[5188,6493],[-83,-6]],[[4906,6781],[24,-43],[41,-44],[21,-120],[-18,-25]],[[4963,6394],[-12,2],[-24,-18],[-67,11],[-30,-4],[-6,27],[-19,1]],[[4805,6413],[11,34],[22,33],[95,-2],[-12,10],[19,3],[-9,17],[-20,1],[43,61],[-2,41],[-10,67],[-14,24],[-44,54],[-9,65],[15,1],[4,-42],[12,1]],[[7142,7726],[7,-8],[-30,-4],[-17,-12],[11,-23],[-17,-2],[23,-26],[-36,-3],[2,-20],[23,-10],[-34,-5],[19,-8],[12,-20],[-34,-9],[-27,9],[-7,12],[19,7],[-63,-7],[-5,10],[26,2],[-11,34],[19,-1],[4,17],[-35,3],[31,53],[53,3],[2,7],[65,1]],[[4861,6316],[-18,-16],[-34,4],[-48,-37],[-52,-10],[-77,-5],[-105,-25],[-49,-15],[-81,-31],[-49,-43],[-13,3],[39,35],[63,29],[62,21],[105,25],[-9,9],[30,6],[7,-9],[112,12],[18,9],[49,36],[-50,25],[12,8],[-49,1],[-51,11],[-118,36],[8,-15],[-27,0],[-15,-26],[-51,1],[-62,-9],[11,34],[-48,0],[12,18],[-37,6],[-10,-12],[-18,2],[-14,-17],[-96,14],[13,33],[-111,5],[5,39],[-21,9],[37,9],[1,-14],[89,10],[49,-2],[128,-20],[121,-33],[79,-15],[52,-4],[155,5]],[[4906,6781],[13,14],[53,-64],[75,4],[1,-10],[-45,-7],[26,-39],[171,-10],[4,-36]],[[5433,6267],[-74,-12],[-32,-10]],[[5311,6343],[87,-65],[36,9]],[[6035,6290],[95,5],[114,-10],[-25,-3],[-37,-43],[66,-24],[71,-11],[65,-22],[20,-19],[-1,-22],[-308,82]],[[329,6304],[-16,3],[-27,-12],[-21,18],[-41,2],[-69,26],[-48,0],[-1,-7],[-61,-14],[-42,18],[78,20],[30,17],[40,10],[-18,10],[16,19],[-29,4],[22,29],[-39,4],[4,12],[29,-1],[14,21],[67,-11],[20,1],[5,22],[17,-1],[0,16],[-85,11],[-15,28],[2,27],[74,-5],[5,36],[325,-16]],[[565,6591],[-18,-58],[-30,-136],[-23,2],[-164,-6],[-151,-2],[15,-36],[-9,-3],[106,-25],[53,-17],[-15,-6]],[[565,6591],[15,0],[-83,-344],[-38,0],[2,37],[-16,1],[-5,40],[-45,-6],[2,-24],[-22,0],[-8,-46],[-37,6],[-1,49]],[[5696,9957],[21,-8],[37,-25],[24,2],[18,-14],[50,-10]],[[5846,9902],[-19,-9],[-61,22],[-55,-7],[-21,-7],[-42,3],[-32,-7],[-9,5],[47,18],[-8,10],[20,13],[-64,12],[70,5],[24,-3]],[[5696,9957],[0,14],[38,-3],[32,-11],[58,-2],[53,7],[10,-7],[87,16],[29,11],[-14,10],[22,7],[21,-10],[32,4],[-64,-31],[-144,-40],[4,-17],[-14,-3]],[[6053,9883],[-19,-15],[5,-20],[-16,-9],[21,-17],[-41,3],[-11,-16],[-80,17],[-52,-15],[-42,7],[64,8],[25,12],[37,9],[15,25],[38,14],[69,18],[-13,-21]],[[1955,6635],[-17,-23],[-47,3],[-24,-4],[-72,15],[-42,-40],[1,-45],[-77,2],[-7,24],[31,6],[-21,39],[114,25],[15,-6],[76,-12],[15,18],[55,-2]],[[3664,6450],[87,-4],[-11,-14],[-61,-11],[-5,15],[-33,-4],[-20,-13],[-54,-9],[-10,-15],[-11,15],[38,21],[1,16],[-15,-4],[-47,3],[-76,-2],[3,-11],[-20,-12],[-111,9],[14,11],[48,17],[30,3],[253,-11]],[[3795,6489],[-16,-36],[-87,4],[17,16],[-4,20],[16,-3],[-1,-18],[30,11],[19,-2],[9,19],[27,9],[-10,-20]],[[8242,7635],[-10,-17],[29,-3],[1,-20],[28,-3],[-4,-17],[-47,8],[-21,-15],[35,-13],[38,-6],[-27,-20],[-50,11],[-29,13],[-39,-11],[-19,15],[-81,-9],[-10,20],[-22,20],[-19,-5],[-14,11],[71,6],[47,-18],[40,18],[3,31],[-37,4],[5,23],[44,-4],[-10,-22],[38,-4],[18,35],[53,-4],[-11,-24]],[[8693,3768],[45,-4],[21,-20],[14,5],[67,-8],[19,3],[-10,13],[12,14],[38,1],[41,-25],[48,5],[35,-7],[6,12],[24,3],[93,-20],[57,-9],[-24,-17],[34,-6],[72,6],[-5,7],[44,11],[33,0],[35,-12],[26,18],[43,-2],[2,-28],[37,-1],[32,-25],[-7,-16],[-49,-1],[-45,3],[4,8],[-70,12],[-12,-12],[-35,-2],[13,24],[-39,-7],[5,9],[-42,-8],[-5,10],[-82,2],[-46,10],[10,12],[-42,2],[-115,18],[-45,-14],[-12,8],[-68,-8],[-7,-10],[-41,5],[-23,-10],[-38,-4],[-7,13],[16,14],[-36,16],[-26,2],[-32,-11],[-11,24],[48,-3]],[[9654,4533],[10,-53],[-30,0],[-2,-20],[16,-28],[44,0],[10,-9],[48,-15],[-50,-13],[-50,-21],[-7,-14],[9,-23],[-13,-4],[-3,-38],[-41,-3],[-5,70],[-41,6],[39,38],[4,16],[0,93],[12,17],[50,1]],[[8531,4782],[-5,-25],[12,-3],[3,-28],[-60,-1],[35,-17],[-2,-10],[-31,-9],[91,-28],[-11,14],[9,15],[13,-10],[70,-22],[3,-20],[-90,-1],[-66,-9],[-3,-22],[-29,2],[-72,12],[-19,8],[2,17],[34,-4],[18,17],[-45,5],[9,29],[32,22],[-39,6],[17,18],[-35,37],[12,10],[46,8],[36,-15],[8,35],[55,-12],[2,-19]],[[4318,5627],[42,-10],[42,-45],[-12,-4],[44,-19],[-46,-20],[-27,21],[-53,-3],[-26,15],[14,7],[-8,12],[-43,8],[13,7],[-23,6],[17,14],[51,20],[15,-9]],[[3606,5227],[-35,-24],[40,-9],[37,9],[10,-4],[-50,-9],[-4,-30],[44,-11],[-56,-2],[2,-15],[-70,18],[-83,25],[5,6],[-35,5],[52,14],[-46,25],[34,17],[28,-44],[31,10],[35,-5],[17,11],[-16,6],[32,5],[29,18],[-3,8],[40,-12],[-38,-12]],[[7734,5359],[-11,-6],[40,-14],[29,2],[-7,-10],[50,-14],[17,-12],[-23,-4],[-26,14],[-77,20],[-53,-29],[-67,-29],[-29,14],[43,21],[34,30],[-33,10],[-39,3],[9,-13],[-26,-6],[-8,11],[-31,-2],[21,40],[20,17],[-15,3],[23,22],[60,10],[54,2],[-12,-21],[34,-3],[2,-38],[38,-8],[-17,-10]],[[8178,5456],[-44,-20],[6,-31],[-24,-2],[-46,18],[52,24],[-55,20],[4,13],[33,5],[-16,7],[-35,-6],[-26,13],[38,8],[31,-1],[6,-11],[61,-25],[15,13],[22,-5],[12,9],[45,11],[39,20],[-11,6],[40,13],[-7,6],[33,6],[11,-25],[-72,-18],[-20,-12],[-44,-13],[-26,-22],[-22,-1]],[[6953,4371],[28,-15],[-6,-23],[-55,4],[-7,29],[-64,-9],[43,17],[-47,6],[-28,-12],[-11,8],[34,12],[9,22],[27,20],[25,-12],[-27,-27],[41,-8],[28,3],[10,-15]]]}
