{"type":"Topology","bbox":[-75.6888836120678,9.232792069128486,-75.58420792676816,9.325009738355519],"transform":{"scale":[0.000010468615391503105,0.00000922268919162243],"translate":[-75.6888836120678,9.232792069128486]},"objects":{"municipios":{"type":"GeometryCollection","geometries":[{"type":"Polygon","arcs":[[0,1,2,3]],"properties":{"codigo":"23464100000000000101","sector":"234641000000000001","pcode":"CO23464","area_m2":149872}},{"type":"Polygon","arcs":[[4,5,6,7,8]],"properties":{"codigo":"23464100000000000102","sector":"234641000000000001","pcode":"CO23464","area_m2":378709}},{"type":"Polygon","arcs":[[-6,9,-2,10]],"properties":{"codigo":"23464100000000000103","sector":"234641000000000001","pcode":"CO23464","area_m2":56839}},{"type":"Polygon","arcs":[[-3,-10,-5,11]],"properties":{"codigo":"23464100000000000106","sector":"234641000000000001","pcode":"CO23464","area_m2":357733}},{"type":"Polygon","arcs":[[12,13,14,15,16,17]],"properties":{"codigo":"23464100000000000202","sector":"234641000000000002","pcode":"CO23464","area_m2":47886}},{"type":"Polygon","arcs":[[18,19,20,-13,21]],"properties":{"codigo":"23464100000000000203","sector":"234641000000000002","pcode":"CO23464","area_m2":79795}},{"type":"Polygon","arcs":[[22]],"properties":{"codigo":"23464200202003000101","sector":"234642002020030001","pcode":"CO23464","area_m2":34268}},{"type":"Polygon","arcs":[[23]],"properties":{"codigo":"23464200102007000101","sector":"234642001020070001","pcode":"CO23464","area_m2":85486}},{"type":"Polygon","arcs":[[24,25]],"properties":{"codigo":"23464200103001000101","sector":"234642001030010001","pcode":"CO23464","area_m2":176604}},{"type":"Polygon","arcs":[[26,27,-22,-18,-7,-11,-1]],"properties":{"codigo":"23464100000000000104","sector":"234641000000000001","pcode":"CO23464","area_m2":133547}},{"type":"Polygon","arcs":[[28,-19,-28]],"properties":{"codigo":"23464100000000000105","sector":"234641000000000001","pcode":"CO23464","area_m2":69359}},{"type":"Polygon","arcs":[[29,30]],"properties":{"codigo":"23464100000000000208","sector":"234641000000000002","pcode":"CO23464","area_m2":153030}},{"type":"Polygon","arcs":[[-17,31,32,-31,33,-8]],"properties":{"codigo":"23464100000000000201","sector":"234641000000000002","pcode":"CO23464","area_m2":190279}},{"type":"Polygon","arcs":[[34,-14,-21,35]],"properties":{"codigo":"23464100000000000204","sector":"234641000000000002","pcode":"CO23464","area_m2":30172}},{"type":"Polygon","arcs":[[36,37,-35]],"properties":{"codigo":"23464100000000000205","sector":"234641000000000002","pcode":"CO23464","area_m2":74587}},{"type":"Polygon","arcs":[[-38,38,39,-15]],"properties":{"codigo":"23464100000000000206","sector":"234641000000000002","pcode":"CO23464","area_m2":51804}},{"type":"Polygon","arcs":[[-16,-40,40,-32]],"properties":{"codigo":"23464100000000000207","sector":"234641000000000002","pcode":"CO23464","area_m2":46736}},{"type":"Polygon","arcs":[[-25,41]],"properties":{"codigo":"23464200103001000102","sector":"234642001030010001","pcode":"CO23464","area_m2":155044}},{"type":"Polygon","arcs":[[42]],"properties":{"codigo":"23464200101002000101","sector":"234642001010020001","pcode":"CO23464","area_m2":213901}},{"type":"Polygon","arcs":[[43]],"properties":{"codigo":"23464200104005000101","sector":"234642001040050001","pcode":"CO23464","area_m2":68965}},{"type":"Polygon","arcs":[[44]],"properties":{"codigo":"23464200103006000101","sector":"234642001030060001","pcode":"CO23464","area_m2":210050}}]}},"arcs":[[[1620,827],[-43,-78],[-30,31],[23,50],[-65,74]],[[1505,904],[-79,103]],[[1426,1007],[156,186],[-157,144],[-32,38]],[[1393,1375],[34,-3],[11,82],[74,10],[28,-45],[38,36],[23,-10],[54,16],[87,6],[-34,-116],[59,-6],[-4,-42],[-64,9],[-27,-198],[-3,-157],[-17,-81],[-32,-49]],[[703,1430],[10,-69],[44,-125],[12,-81],[26,-70],[38,-54],[101,-115],[90,111],[89,-88],[73,123],[107,-117]],[[1293,945],[-108,-166],[116,-100]],[[1301,679],[-86,-87]],[[1215,592],[-80,63],[-276,148],[-53,24],[9,25],[-121,133],[-51,-45],[-362,352],[-173,170],[-8,19]],[[100,1481],[603,-51]],[[1293,945],[44,-48],[89,110]],[[1505,904],[-128,-149],[-76,-76]],[[703,1430],[690,-55]],[[1280,539],[-55,-82],[65,-46],[-33,-70]],[[1257,341],[-25,-59]],[[1232,282],[-61,27],[-69,61],[-57,67]],[[1045,437],[54,48]],[[1099,485],[116,107]],[[1215,592],[65,-53]],[[1337,496],[56,-41],[-27,-58],[129,-68],[221,-107]],[[1716,222],[-27,-47],[-27,5],[-37,-26],[-26,-45],[-27,16]],[[1572,125],[-315,216]],[[1280,539],[57,-43]],[[6729,1169],[-28,-8],[-45,69],[58,31],[-6,37],[39,10],[15,-25],[42,8],[-2,37],[105,26],[22,-28],[-39,-168],[-73,13],[9,51],[-48,17],[0,-45],[-49,-25]],[[852,6569],[-66,-206],[-51,-100],[-32,85],[15,37],[-16,80],[-35,59],[-108,148],[-63,48],[-91,141],[42,39],[174,-177],[113,-68],[30,-9],[88,-77]],[[5413,6612],[75,-54],[136,-67],[-6,-32],[69,-38]],[[5687,6421],[-39,-183],[16,-48],[-35,-26],[-38,10],[-96,63],[-22,-73],[-21,-22],[-13,-65],[-18,90],[19,94],[-17,9],[-194,-223],[-43,-27],[-29,8],[34,85],[26,148],[38,79],[158,272]],[[1620,827],[63,-40],[-70,-124],[20,-12],[-24,-37],[80,-57],[-14,-85],[-49,-76]],[[1626,396],[-17,11],[-22,-38],[-55,34],[18,30],[-51,37],[27,47],[-116,118],[-73,-139]],[[1626,396],[107,-53],[-17,-121]],[[631,840],[-38,-26],[6,-43],[-28,-46],[-31,1],[-57,-51],[-33,-57],[28,-56],[-52,-47],[-50,-2],[-156,32],[59,191],[95,335]],[[374,1071],[21,60],[59,-57],[57,-98],[60,-55],[87,-64],[-27,-17]],[[1099,485],[-110,109],[-43,-60],[-129,117],[-22,-82]],[[795,569],[-73,21],[-100,66],[25,68],[88,-61],[53,103],[-41,-1],[-18,46],[-50,43],[-8,-40],[-40,26]],[[374,1071],[-85,51],[35,28],[-63,35],[-107,118],[-48,110],[-49,15],[-57,37],[11,23],[89,-7]],[[1368,42],[-18,20],[52,128],[-110,68],[-60,24]],[[1572,125],[-42,-30],[-48,27],[-16,-33],[-33,25],[-24,-44],[-41,-28]],[[1368,42],[-10,-20],[-48,34],[-68,-50],[-36,44],[-50,-50],[-103,98],[-10,61],[-27,6]],[[1016,165],[72,78],[72,-68],[72,107]],[[1016,165],[-36,77],[-30,-6],[-23,39],[8,44],[-23,13]],[[912,332],[133,105]],[[912,332],[19,52],[-31,59],[-19,-15],[-26,35],[22,16],[-61,34],[11,38],[-32,18]],[[5413,6612],[180,317],[20,25],[67,31],[21,-327],[85,-39],[139,100],[88,50],[14,-18],[-138,-81],[38,-79],[-16,-59],[-99,1],[-5,-49],[-39,-101],[-81,38]],[[4671,9987],[64,-21],[-2,-26],[73,-150],[14,17],[21,102],[61,-19],[-34,-133],[-36,-99],[22,-52],[-6,-178],[14,-103],[58,-170],[41,-51],[-7,-36],[-57,-33],[-57,24],[-107,25],[-9,-22],[-41,19],[18,43],[-5,46],[-91,-41],[-12,172],[45,11],[82,-14],[-2,140],[-8,65],[-26,26],[45,-7],[4,82],[-39,49],[2,46],[-87,9],[34,70],[-18,35],[-55,34],[24,63],[56,89],[21,-12]],[[868,3501],[77,-29],[-22,-86],[53,-22],[-12,-18],[-39,22],[-40,-69],[8,-25],[-24,-137],[-118,36],[28,133],[-44,19],[-32,40],[50,77],[18,69],[37,-19],[-12,179],[30,-10],[-12,-42],[11,-105],[43,-13]],[[9902,4653],[25,-31],[1,-102],[66,6],[5,-220],[-19,-3],[-13,-62],[1,-80],[-13,-74],[16,-3],[-9,-68],[-17,3],[10,65],[-113,18],[-23,-84],[45,-11],[-21,-96],[-49,12],[-7,-34],[-88,32],[23,58],[-36,36],[16,51],[-18,8],[28,83],[-139,57],[10,36],[-38,10],[28,74],[-26,32],[62,8],[118,1],[21,8],[37,146],[52,-31],[5,65],[-11,148],[71,8],[0,-66]]]}
