{"type":"Topology","bbox":[-76.3076104136162,8.667337081757184,-76.12557080218158,8.79540235459388],"transform":{"scale":[0.000018205781721633974,0.000012807808064476114],"translate":[-76.3076104136162,8.667337081757184]},"objects":{"municipios":{"type":"GeometryCollection","geometries":[{"type":"Polygon","arcs":[[0]],"properties":{"codigo":"23090200105020000101","sector":"230902001050200001","pcode":"CO23090","area_m2":251562}},{"type":"Polygon","arcs":[[1,2,3,4]],"properties":{"codigo":"23090100000000000102","sector":"230901000000000001","pcode":"CO23090","area_m2":132831}},{"type":"Polygon","arcs":[[5,-3,6]],"properties":{"codigo":"23090100000000000101","sector":"230901000000000001","pcode":"CO23090","area_m2":193388}},{"type":"Polygon","arcs":[[7,-4,-6,8]],"properties":{"codigo":"23090100000000000103","sector":"230901000000000001","pcode":"CO23090","area_m2":184404}},{"type":"Polygon","arcs":[[9,-5,-8]],"properties":{"codigo":"23090100000000000104","sector":"230901000000000001","pcode":"CO23090","area_m2":205431}},{"type":"Polygon","arcs":[[10]],"properties":{"codigo":"23090200105001000101","sector":"230902001050010001","pcode":"CO23090","area_m2":146544}},{"type":"Polygon","arcs":[[11,12,13,14]],"properties":{"codigo":"23090200404002000101","sector":"230902004040020001","pcode":"CO23090","area_m2":61001}},{"type":"Polygon","arcs":[[-13,15,-15,16]],"properties":{"codigo":"23090200404002000102","sector":"230902004040020001","pcode":"CO23090","area_m2":92747}},{"type":"Polygon","arcs":[[-12,-16]],"properties":{"codigo":"23090200404002000103","sector":"230902004040020001","pcode":"CO23090","area_m2":27252}},{"type":"Polygon","arcs":[[17]],"properties":{"codigo":"23090200301021000101","sector":"230902003010210001","pcode":"CO23090","area_m2":67164}},{"type":"Polygon","arcs":[[18]],"properties":{"codigo":"23090200303023000101","sector":"230902003030230001","pcode":"CO23090","area_m2":48917}},{"type":"Polygon","arcs":[[19]],"properties":{"codigo":"23090200104007000101","sector":"230902001040070001","pcode":"CO23090","area_m2":40210}},{"type":"Polygon","arcs":[[20]],"properties":{"codigo":"23090200301013000101","sector":"230902003010130001","pcode":"CO23090","area_m2":344074}},{"type":"Polygon","arcs":[[21]],"properties":{"codigo":"23090200302022000101","sector":"230902003020220001","pcode":"CO23090","area_m2":71917}}]}},"arcs":[[[1957,3349],[-48,-6],[-65,10],[-44,60],[-11,98],[-34,167],[12,43],[80,70],[121,7],[70,-86],[-57,-112],[-5,-107],[-19,-144]],[[3469,9067],[-44,209],[-29,14]],[[3396,9290],[62,48],[126,75],[18,-54]],[[3602,9359],[41,-123]],[[3643,9236],[-61,-55],[11,-47],[-42,-46],[-13,31],[-69,-52]],[[3653,9728],[-5,-75],[72,-216],[-118,-78]],[[3396,9290],[-13,12],[65,45],[-52,147],[252,235],[5,-1]],[[3893,9311],[-108,-63],[-24,67],[-118,-79]],[[3653,9728],[4,91],[45,-4],[-14,-98],[78,6],[-14,-87],[8,-30],[49,-6],[12,-35],[-15,-41],[-45,-13],[7,-140],[30,34],[40,-18],[55,-76]],[[3893,9311],[-8,-43],[-50,-17],[-13,-79],[-40,-19],[-7,-35],[32,-23],[-2,-44],[-67,-93],[-53,-9],[-19,106],[-132,-76],[-40,-40],[-25,128]],[[2625,2051],[21,-2],[-10,-148],[42,-13],[21,-42],[0,-112],[-27,-71],[-31,-23],[-37,9],[-96,-23],[-2,26],[79,47],[8,114],[-176,68],[17,43],[101,-34],[20,39],[16,137],[54,-15]],[[5432,241],[-99,-88],[22,-48]],[[5355,105],[-41,-47]],[[5314,58],[-61,96],[-24,81],[53,5],[26,44],[18,-46],[48,46]],[[5374,284],[18,-33],[22,22],[18,-32]],[[5355,105],[12,-19],[97,86],[-32,69]],[[5374,284],[-22,20],[24,56],[47,-41],[43,22],[106,-166],[-45,-65],[-41,18],[-27,-27],[-56,-13],[-18,-81],[-22,-7],[-49,58]],[[8390,9955],[30,-5],[29,-44],[5,-63],[60,68],[45,-85],[-65,-59],[-64,-37],[4,65],[-38,28],[-4,73],[-26,-10],[-47,71],[49,42],[22,-44]],[[8178,4376],[4,-50],[-58,-36],[-48,-54],[-49,-5],[-33,127],[24,21],[18,-26],[141,33],[1,-10]],[[91,1389],[33,-2],[6,-31],[55,8],[7,-45],[-27,-52],[-107,69],[-20,-18],[-38,28],[42,37],[-28,60],[38,0],[39,-54]],[[6753,7362],[51,-12],[34,-61],[26,-16],[-26,-58],[94,-33],[19,-53],[44,-2],[-70,-121],[85,-3],[7,29],[60,-45],[130,-52],[22,2],[47,-52],[-1,-71],[-13,-22],[-41,48],[-37,-39],[-21,30],[-16,-29],[-34,42],[36,58],[-6,29],[-47,18],[-94,55],[-74,-1],[-36,-24],[-92,-87],[-45,35],[-28,-22],[-41,26],[-30,106],[52,370],[10,36],[29,-26],[6,-55]],[[9951,6530],[48,-6],[-16,-72],[-26,7],[-11,-31],[-73,-71],[-48,-66],[-12,21],[-42,-98],[24,-103],[-35,10],[12,84],[3,101],[-17,30],[-55,26],[29,16],[1,34],[49,-41],[55,14],[57,108],[20,-21],[37,58]]]}
