{"type":"Topology","bbox":[-75.74127956273725,8.09273540583991,-75.43215869111333,8.514135007539942],"transform":{"scale":[0.00003091517868025982,0.000042144174587461867],"translate":[-75.74127956273725,8.09273540583991]},"objects":{"municipios":{"type":"GeometryCollection","geometries":[{"type":"Polygon","arcs":[[0,1,2]],"properties":{"codigo":"23555100000000000306","sector":"235551000000000003","pcode":"CO23555","area_m2":77890}},{"type":"Polygon","arcs":[[3,4,5,6]],"properties":{"codigo":"23555100000000000201","sector":"235551000000000002","pcode":"CO23555","area_m2":162564}},{"type":"Polygon","arcs":[[7,8,9,10,11,-6]],"properties":{"codigo":"23555100000000000202","sector":"235551000000000002","pcode":"CO23555","area_m2":135536}},{"type":"Polygon","arcs":[[12,13,14,15,-10]],"properties":{"codigo":"23555100000000000203","sector":"235551000000000002","pcode":"CO23555","area_m2":142205}},{"type":"Polygon","arcs":[[16,17,18,19,-13,-9]],"properties":{"codigo":"23555100000000000204","sector":"235551000000000002","pcode":"CO23555","area_m2":108775}},{"type":"Polygon","arcs":[[20,21,22,-14,-20]],"properties":{"codigo":"23555100000000000205","sector":"235551000000000002","pcode":"CO23555","area_m2":73882}},{"type":"Polygon","arcs":[[23,24,25,-22]],"properties":{"codigo":"23555100000000000206","sector":"235551000000000002","pcode":"CO23555","area_m2":89598}},{"type":"Polygon","arcs":[[-2,26,27,-24,-21,-19]],"properties":{"codigo":"23555100000000000207","sector":"235551000000000002","pcode":"CO23555","area_m2":113533}},{"type":"Polygon","arcs":[[28]],"properties":{"codigo":"23555201002020000101","sector":"235552010020200001","pcode":"CO23555","area_m2":23900}},{"type":"Polygon","arcs":[[29]],"properties":{"codigo":"23555200505005000101","sector":"235552005050050001","pcode":"CO23555","area_m2":166631}},{"type":"Polygon","arcs":[[30,-3,-18,31]],"properties":{"codigo":"23555100000000000305","sector":"235551000000000003","pcode":"CO23555","area_m2":77562}},{"type":"Polygon","arcs":[[32,33,34,35,36,37]],"properties":{"codigo":"23555100000000000103","sector":"235551000000000001","pcode":"CO23555","area_m2":148690}},{"type":"Polygon","arcs":[[38,-4,39,40,-35]],"properties":{"codigo":"23555100000000000104","sector":"235551000000000001","pcode":"CO23555","area_m2":105756}},{"type":"Polygon","arcs":[[41,-40,-7,-12,42,43,44]],"properties":{"codigo":"23555100000000000107","sector":"235551000000000001","pcode":"CO23555","area_m2":114543}},{"type":"Polygon","arcs":[[45,46,-39,-34,47]],"properties":{"codigo":"23555100000000000302","sector":"235551000000000003","pcode":"CO23555","area_m2":120551}},{"type":"Polygon","arcs":[[48,49,50,-5,-47]],"properties":{"codigo":"23555100000000000303","sector":"235551000000000003","pcode":"CO23555","area_m2":90927}},{"type":"Polygon","arcs":[[51,-32,-17,-8,-51]],"properties":{"codigo":"23555100000000000304","sector":"235551000000000003","pcode":"CO23555","area_m2":141576}},{"type":"Polygon","arcs":[[52,53,54]],"properties":{"codigo":"23555100000000000402","sector":"235551000000000004","pcode":"CO23555","area_m2":44839}},{"type":"Polygon","arcs":[[55,56,57,58]],"properties":{"codigo":"23555100000000000404","sector":"235551000000000004","pcode":"CO23555","area_m2":86197}},{"type":"Polygon","arcs":[[59]],"properties":{"codigo":"23555200403007000101","sector":"235552004030070001","pcode":"CO23555","area_m2":144379}},{"type":"Polygon","arcs":[[60]],"properties":{"codigo":"23555201102001000101","sector":"235552011020010001","pcode":"CO23555","area_m2":201431}},{"type":"Polygon","arcs":[[61,62]],"properties":{"codigo":"23555200803002000101","sector":"235552008030020001","pcode":"CO23555","area_m2":134458}},{"type":"Polygon","arcs":[[-62,63]],"properties":{"codigo":"23555200803002000102","sector":"235552008030020001","pcode":"CO23555","area_m2":170070}},{"type":"Polygon","arcs":[[64,65]],"properties":{"codigo":"23555200704004000101","sector":"235552007040040001","pcode":"CO23555","area_m2":197849}},{"type":"Polygon","arcs":[[-66,66]],"properties":{"codigo":"23555200704004000102","sector":"235552007040040001","pcode":"CO23555","area_m2":244571}},{"type":"Polygon","arcs":[[67]],"properties":{"codigo":"23555200102013000101","sector":"235552001020130001","pcode":"CO23555","area_m2":71859}},{"type":"Polygon","arcs":[[68]],"properties":{"codigo":"23555200304024000101","sector":"235552003040240001","pcode":"CO23555","area_m2":304436}},{"type":"Polygon","arcs":[[69]],"properties":{"codigo":"23555200205035000101","sector":"235552002050350001","pcode":"CO23555","area_m2":64955}},{"type":"Polygon","arcs":[[70]],"properties":{"codigo":"23555200801047000101","sector":"235552008010470001","pcode":"CO23555","area_m2":84112}},{"type":"Polygon","arcs":[[71]],"properties":{"codigo":"23555200806039000101","sector":"235552008060390001","pcode":"CO23555","area_m2":79505}},{"type":"Polygon","arcs":[[72,-27,-1,73]],"properties":{"codigo":"23555100000000000307","sector":"235551000000000003","pcode":"CO23555","area_m2":113559}},{"type":"Polygon","arcs":[[74]],"properties":{"codigo":"23555200203015000101","sector":"235552002030150001","pcode":"CO23555","area_m2":58677}},{"type":"Polygon","arcs":[[-37,75,76]],"properties":{"codigo":"23555100000000000108","sector":"235551000000000001","pcode":"CO23555","area_m2":151214}},{"type":"Polygon","arcs":[[77,-45,78,79]],"properties":{"codigo":"23555100000000000101","sector":"235551000000000001","pcode":"CO23555","area_m2":116852}},{"type":"Polygon","arcs":[[-42,-78,80,-76,-36,-41]],"properties":{"codigo":"23555100000000000102","sector":"235551000000000001","pcode":"CO23555","area_m2":101363}},{"type":"Polygon","arcs":[[81,82,-43,-11,-16]],"properties":{"codigo":"23555100000000000105","sector":"235551000000000001","pcode":"CO23555","area_m2":104995}},{"type":"Polygon","arcs":[[-83,83,-79,-44]],"properties":{"codigo":"23555100000000000106","sector":"235551000000000001","pcode":"CO23555","area_m2":58154}},{"type":"Polygon","arcs":[[84]],"properties":{"codigo":"23555200406044000101","sector":"235552004060440001","pcode":"CO23555","area_m2":80409}},{"type":"Polygon","arcs":[[85,-48,-33,86]],"properties":{"codigo":"23555100000000000301","sector":"235551000000000003","pcode":"CO23555","area_m2":238831}},{"type":"Polygon","arcs":[[-54,-58,87,-49,-46,-86,88,89]],"properties":{"codigo":"23555100000000000401","sector":"235551000000000004","pcode":"CO23555","area_m2":121936}},{"type":"Polygon","arcs":[[-59,-53,90]],"properties":{"codigo":"23555100000000000403","sector":"235551000000000004","pcode":"CO23555","area_m2":53547}},{"type":"Polygon","arcs":[[-57,91,92,-50,-88]],"properties":{"codigo":"23555100000000000405","sector":"235551000000000004","pcode":"CO23555","area_m2":128899}},{"type":"Polygon","arcs":[[93,-74,-31,-52,-93,94]],"properties":{"codigo":"23555100000000000406","sector":"235551000000000004","pcode":"CO23555","area_m2":447909}},{"type":"Polygon","arcs":[[95,96]],"properties":{"codigo":"23555100000000000407","sector":"235551000000000004","pcode":"CO23555","area_m2":58854}},{"type":"Polygon","arcs":[[-94,97,-96,98,-25,-28,-73]],"properties":{"codigo":"23555100000000000408","sector":"235551000000000004","pcode":"CO23555","area_m2":642795}},{"type":"Polygon","arcs":[[-92,-56,-91,-55,-90,99]],"properties":{"codigo":"23555100000000000409","sector":"235551000000000004","pcode":"CO23555","area_m2":311123}},{"type":"Polygon","arcs":[[100]],"properties":{"codigo":"23555200102003000101","sector":"235552001020030001","pcode":"CO23555","area_m2":170364}},{"type":"Polygon","arcs":[[101]],"properties":{"codigo":"23555200302008000101","sector":"235552003020080001","pcode":"CO23555","area_m2":109297}},{"type":"Polygon","arcs":[[102]],"properties":{"codigo":"23555200504010000101","sector":"235552005040100001","pcode":"CO23555","area_m2":52415}},{"type":"Polygon","arcs":[[103]],"properties":{"codigo":"23555200401011000101","sector":"235552004010110001","pcode":"CO23555","area_m2":88517}},{"type":"Polygon","arcs":[[104]],"properties":{"codigo":"23555200401012000101","sector":"235552004010120001","pcode":"CO23555","area_m2":62738}},{"type":"Polygon","arcs":[[105]],"properties":{"codigo":"23555200603030000101","sector":"235552006030300001","pcode":"CO23555","area_m2":83647}},{"type":"Polygon","arcs":[[106]],"properties":{"codigo":"23555200503022000101","sector":"235552005030220001","pcode":"CO23555","area_m2":48136}},{"type":"Polygon","arcs":[[107]],"properties":{"codigo":"23555200701006000101","sector":"235552007010060001","pcode":"CO23555","area_m2":151091}},{"type":"Polygon","arcs":[[108]],"properties":{"codigo":"23555201005019000101","sector":"235552010050190001","pcode":"CO23555","area_m2":71653}}]}},"arcs":[[[5137,7377],[-121,12]],[[5016,7389],[7,29],[13,28]],[[5036,7446],[51,-8],[-5,-23],[45,-5],[10,-33]],[[4989,7614],[110,-28]],[[5099,7586],[-18,-38]],[[5081,7548],[-86,20],[-11,-19],[-28,8],[-63,7]],[[4893,7564],[9,42],[15,26],[72,-18]],[[5081,7548],[-18,-41]],[[5063,7507],[-89,26],[-9,-17]],[[4965,7516],[-37,11],[-37,3],[-44,-10]],[[4847,7520],[-4,43],[20,2]],[[4863,7565],[30,-1]],[[4965,7516],[-19,-38],[-33,-8]],[[4913,7470],[-29,-2],[-28,2],[-26,-6]],[[4830,7464],[-70,-9],[4,34],[33,6]],[[4797,7495],[51,10],[-1,15]],[[5063,7507],[-16,-35]],[[5047,7472],[-11,-26]],[[5036,7446],[-74,14]],[[4962,7460],[-49,10]],[[4962,7460],[-21,-38]],[[4941,7422],[-65,9],[-22,-7]],[[4854,7424],[-24,40]],[[4941,7422],[20,-3],[-14,-66]],[[4947,7353],[-26,3]],[[4921,7356],[-31,3],[-36,65]],[[5016,7389],[-7,-43]],[[5009,7346],[-62,7]],[[3657,3717],[6,-6],[-15,-18],[11,-9],[-20,-16],[-26,21],[19,16],[-7,6],[17,15],[15,-9]],[[3100,6043],[30,-4],[-4,-16],[15,-2],[-5,-37],[-11,-49],[-12,-2],[-5,-12],[-31,-22],[-8,9],[17,21],[-18,41],[-19,4],[-14,53],[-57,2],[-1,15],[59,-3],[-2,9],[66,-7]],[[5170,7461],[-28,-57],[-5,-27]],[[5047,7472],[69,-19],[0,7],[54,1]],[[5104,7749],[11,-22],[23,-26],[12,-23],[-21,-32]],[[5129,7646],[-12,-21]],[[5117,7625],[-27,0],[6,18],[-110,31],[-9,-2]],[[4977,7672],[-16,33]],[[4961,7705],[40,-7],[30,-2],[43,-12],[19,47],[1,48]],[[5094,7779],[11,2],[-6,-13],[5,-19]],[[5117,7625],[-18,-39]],[[4989,7614],[7,18],[-19,5]],[[4977,7637],[11,13],[-11,22]],[[4891,7660],[86,-23]],[[4863,7565],[10,18],[-54,29]],[[4819,7612],[23,32],[9,-4],[17,25]],[[4868,7665],[23,-5]],[[5250,7620],[-30,-60]],[[5220,7560],[-61,14],[-60,12]],[[5129,7646],[71,-23],[50,-3]],[[5220,7560],[-8,-16]],[[5212,7544],[-16,-32]],[[5196,7512],[-115,36]],[[5196,7512],[-26,-51]],[[5380,7570],[-53,-10]],[[5327,7560],[-25,36],[-4,13]],[[5298,7609],[21,0],[17,18],[44,-57]],[[5373,7486],[-16,-8],[-1,-14],[22,-2],[-23,-21]],[[5355,7441],[-45,87],[-62,-10],[-15,26]],[[5233,7544],[94,16]],[[5327,7560],[46,-74]],[[7141,4850],[22,-3],[11,8],[16,-3],[9,-20],[43,-2],[-8,-12],[-28,6],[-33,-8],[7,-38],[-14,0],[-4,-16],[25,-19],[-3,-15],[-77,42],[-55,28],[34,21],[6,-5],[40,18],[-16,20],[15,8],[10,-10]],[[231,3043],[-12,-15],[-29,-23],[7,-4],[-64,-56],[-6,3],[-19,-16],[-27,-2],[-23,4],[-16,12],[-37,8],[-5,7],[21,7],[-5,17],[31,6],[43,13],[5,-9],[17,7],[12,21],[-18,10],[10,6],[24,-12],[8,5],[12,-11],[32,23],[15,-4],[8,11],[29,23],[29,29],[14,-8],[-13,-10],[-43,-42]],[[2409,34],[-39,6],[-108,59]],[[2262,99],[43,43],[53,42],[16,-21],[-26,-23],[34,-23],[-29,-30],[35,-22],[-20,-17],[41,-14]],[[2409,34],[-20,-3],[-49,12],[-21,-25],[-18,7],[-27,-25],[-93,20],[-11,-10],[-7,7],[65,62],[-14,8],[19,18],[21,-13],[8,7]],[[3615,2007],[-2,-21],[-13,0],[-1,-76],[-11,-1],[-1,-23],[-35,1],[1,-9],[-31,3],[-16,24],[-15,2],[-14,21],[-9,5],[5,13],[-12,33],[-1,16],[14,20]],[[3474,2015],[18,-1],[0,-36],[97,3],[1,13],[12,0],[0,14],[13,-1]],[[3474,2015],[6,23],[-8,14],[21,-1],[2,36],[24,-1],[4,41],[35,-4],[29,-15],[28,-6],[-11,-20],[-1,-39],[14,-1],[-2,-35]],[[2728,9933],[26,5],[5,-8],[-31,-6],[3,-12],[-21,-2],[-6,19],[-16,10],[-42,7],[-11,20],[-15,4],[-1,13],[24,-8],[128,-8],[-3,-11],[-29,-6],[-14,-10],[3,-7]],[[8715,5984],[82,-17],[26,8],[63,-16],[0,-13],[-19,-15],[18,-16],[-54,-54],[-32,13],[-15,21],[-20,-4],[-11,-15],[-31,-13],[-40,-7],[6,14],[-21,22],[3,20],[8,3],[-9,14],[23,17],[-3,13],[9,3],[5,17],[12,5]],[[9163,7736],[46,-6],[23,-7],[41,1],[42,-10],[-10,-12],[-43,-1],[-13,-8],[-23,3],[-20,22],[-119,17],[5,16],[71,-15]],[[3282,2055],[4,7],[33,-12],[40,-8],[88,-11],[24,-7],[-4,-13],[-28,7],[-75,10],[-6,-40],[-34,-12],[-25,-4],[-7,11],[32,12],[0,17],[-17,4],[-1,23],[-28,10],[4,6]],[[3848,1223],[3,-36],[6,-13],[10,2],[7,-32],[0,-18],[12,-9],[12,4],[15,-5],[2,-17],[-14,3],[-3,-19],[-40,11],[-20,-1],[10,11],[-39,17],[4,7],[29,0],[12,10],[-2,25],[-13,5],[4,26],[-10,4],[5,25],[-7,-1],[-6,37],[12,2],[11,-38]],[[5150,7319],[-45,-16],[-10,35],[-44,-11],[-5,15],[-37,4]],[[5137,7377],[2,-22],[11,-36]],[[6876,8380],[8,-2],[-12,-26],[-5,-34],[8,-16],[-13,-10],[-12,29],[-14,3],[13,42],[0,14],[-22,4],[47,43],[10,-12],[-8,-35]],[[4961,7705],[-11,21],[43,18],[-5,14],[7,10]],[[4995,7768],[28,2],[-4,10],[35,8],[1,-6],[39,-3]],[[4938,7746],[-47,-86]],[[4868,7665],[-22,7],[-53,25],[-29,17]],[[4764,7714],[44,22],[4,16],[14,-24],[52,-3],[8,14],[34,-10],[18,17]],[[4938,7746],[57,22]],[[4797,7495],[-15,61],[7,1],[14,23],[-14,7],[15,23],[-19,12]],[[4785,7622],[5,6],[29,-16]],[[4785,7622],[-7,5],[41,48],[-71,31],[16,8]],[[4131,5994],[25,-12],[4,5],[40,-19],[-9,-13],[-24,12],[-5,-7],[-40,22],[-23,-19],[-18,13],[-12,-16],[-17,6],[102,135],[17,-6],[-71,-94],[31,-7]],[[5340,7717],[-35,-17],[-22,-19],[-33,-61]],[[5104,7749],[128,-41],[58,29],[29,-8],[21,-12]],[[5233,7544],[-21,0]],[[5340,7717],[24,-17]],[[5364,7700],[-26,-9],[-47,-25],[-31,-56],[38,-1]],[[5380,7570],[32,-47],[-40,-11],[10,-20],[-9,-6]],[[5355,7441],[9,-22],[-10,-16]],[[5354,7403],[-15,7],[-29,30],[-36,32],[-16,22],[-62,18]],[[5177,7283],[-14,-5],[-13,41]],[[5354,7403],[-46,-31],[-33,-32],[1,-16],[-36,-7],[-59,-19],[-4,-15]],[[5413,6998],[-87,2],[-1,9],[-49,1],[-1,21],[54,-1]],[[5329,7030],[78,-2],[6,-30]],[[5177,7283],[61,-219],[67,15],[24,-49]],[[5413,6998],[1,-5],[-79,-17],[-2,-16],[-25,2],[-19,-10],[-73,81],[-8,13],[-31,100],[-28,0],[-14,30],[-17,17],[-13,22],[-21,20],[-41,26],[-55,6],[-28,5],[-30,17],[-5,21],[1,20],[-5,26]],[[5364,7700],[27,-26],[-10,-8],[46,-135],[18,-47],[-20,-11],[6,-79],[-41,-21],[-23,26],[-13,4]],[[3954,9995],[4,-18],[38,-13],[6,-8],[19,5],[17,-11],[1,-30],[11,-13],[33,-19],[-4,-10],[-28,-3],[-18,-8],[-20,5],[-31,23],[-26,9],[-13,-12],[-22,13],[9,7],[-15,10],[32,25],[-13,10],[-20,31],[-15,6],[45,5],[10,-4]],[[9954,7007],[44,33],[-18,-24],[-22,-20],[-3,-9],[-21,-23],[15,-9],[-24,1],[-17,-13],[-19,-24],[-4,-28],[-10,22],[5,12],[-13,18],[12,34],[11,7],[18,32],[-2,26],[9,24],[8,3],[15,-38],[16,-24]],[[3709,5763],[14,0],[18,-14],[37,23],[14,-2],[19,-19],[-37,-22],[-9,-23],[-65,52],[-22,14],[8,5],[23,-14]],[[6312,6708],[-4,-20],[8,-28],[27,-22],[12,-36],[-12,-2],[-25,31],[-31,2],[-22,-9],[4,9],[-8,21],[-22,31],[16,23],[33,-10],[8,14],[16,-4]],[[5697,7005],[12,-6],[19,16],[31,-18],[-9,-6],[43,-39],[-23,-13],[-29,29],[-30,-14],[-16,4],[-7,43],[-17,7],[6,10],[20,-13]],[[2539,4959],[1,-23],[-12,-1],[18,-35],[-4,-32],[13,-14],[-20,-7],[12,-24],[-23,0],[5,9],[-21,52],[-14,0],[1,27],[-15,25],[14,4],[-15,17],[18,-5],[33,10],[9,-3]],[[4438,7292],[37,-10],[-11,-27],[-53,0],[-24,4],[9,16],[-13,3],[8,15],[13,-3],[10,21],[14,-4],[-6,-11],[16,-4]],[[4126,5154],[10,0],[19,-19],[28,10],[16,-32],[26,-19],[49,-39],[27,14],[6,-5],[-39,-20],[-15,14],[-25,-16],[-34,27],[8,8],[-6,10],[-28,18],[-44,-28],[-8,14],[-20,-9],[-6,11],[-63,-31],[-7,6],[69,33],[-10,13],[22,39],[21,12],[4,-11]],[[3568,3140],[1,-7],[53,0],[-1,-49],[-106,-10],[2,22],[25,-2],[9,28],[8,0],[0,25],[9,-7]]]}
