{"type":"Topology","bbox":[-75.96306587436317,8.835093289123288,-75.73769967825575,8.965611464103636],"transform":{"scale":[0.00002253887349809139,0.000013053122810315911],"translate":[-75.96306587436317,8.835093289123288]},"objects":{"municipios":{"type":"GeometryCollection","geometries":[{"type":"Polygon","arcs":[[0]],"properties":{"codigo":"23162200104004000101","sector":"231622001040040001","pcode":"CO23162","area_m2":266627}},{"type":"Polygon","arcs":[[1]],"properties":{"codigo":"23162200102005000101","sector":"231622001020050001","pcode":"CO23162","area_m2":50138}},{"type":"MultiPolygon","arcs":[[[2]],[[3]]],"properties":{"codigo":"23162200104010000101","sector":"231622001040100001","pcode":"CO23162","area_m2":187332}},{"type":"Polygon","arcs":[[4]],"properties":{"codigo":"23162200205033000101","sector":"231622002050330001","pcode":"CO23162","area_m2":138060}},{"type":"Polygon","arcs":[[5]],"properties":{"codigo":"23162200302003000101","sector":"231622003020030001","pcode":"CO23162","area_m2":416898}},{"type":"Polygon","arcs":[[6]],"properties":{"codigo":"23162200301014000101","sector":"231622003010140001","pcode":"CO23162","area_m2":81533}},{"type":"Polygon","arcs":[[7]],"properties":{"codigo":"23162200301027000101","sector":"231622003010270001","pcode":"CO23162","area_m2":124914}},{"type":"MultiPolygon","arcs":[[[8]],[[9]]],"properties":{"codigo":"23162200303034000101","sector":"231622003030340001","pcode":"CO23162","area_m2":219631}},{"type":"Polygon","arcs":[[10,11]],"properties":{"codigo":"23162200203002000101","sector":"231622002030020001","pcode":"CO23162","area_m2":325614}},{"type":"Polygon","arcs":[[-12,12]],"properties":{"codigo":"23162200203002000102","sector":"231622002030020001","pcode":"CO23162","area_m2":582750}},{"type":"Polygon","arcs":[[13]],"properties":{"codigo":"23162200304012000101","sector":"231622003040120001","pcode":"CO23162","area_m2":192270}},{"type":"MultiPolygon","arcs":[[[14]],[[15]]],"properties":{"codigo":"23162200303016000101","sector":"231622003030160001","pcode":"CO23162","area_m2":365141}},{"type":"Polygon","arcs":[[16]],"properties":{"codigo":"23162200202023000101","sector":"231622002020230001","pcode":"CO23162","area_m2":33453}},{"type":"Polygon","arcs":[[17]],"properties":{"codigo":"23162200301013000101","sector":"231622003010130001","pcode":"CO23162","area_m2":287075}},{"type":"MultiPolygon","arcs":[[[18]],[[19]],[[20]]],"properties":{"codigo":"23162200301035000101","sector":"231622003010350001","pcode":"CO23162","area_m2":181956}},{"type":"Polygon","arcs":[[21,22,23,24,25]],"properties":{"codigo":"23162100000000000101","sector":"231621000000000001","pcode":"CO23162","area_m2":537419}},{"type":"Polygon","arcs":[[26,27,28,29,30,31,32]],"properties":{"codigo":"23162100000000000301","sector":"231621000000000003","pcode":"CO23162","area_m2":148442}},{"type":"Polygon","arcs":[[33,34,35]],"properties":{"codigo":"23162100000000000507","sector":"231621000000000005","pcode":"CO23162","area_m2":116453}},{"type":"Polygon","arcs":[[36,37,38,39]],"properties":{"codigo":"23162100000000000207","sector":"231621000000000002","pcode":"CO23162","area_m2":763427}},{"type":"Polygon","arcs":[[40,41,-40,42,43]],"properties":{"codigo":"23162100000000000208","sector":"231621000000000002","pcode":"CO23162","area_m2":1682105}},{"type":"Polygon","arcs":[[44,45,46,47,48,49]],"properties":{"codigo":"23162100000000000408","sector":"231621000000000004","pcode":"CO23162","area_m2":188558}},{"type":"Polygon","arcs":[[50,-45,51]],"properties":{"codigo":"23162100000000000409","sector":"231621000000000004","pcode":"CO23162","area_m2":99822}},{"type":"Polygon","arcs":[[52,53]],"properties":{"codigo":"23162200303032000101","sector":"231622003030320001","pcode":"CO23162","area_m2":118464}},{"type":"Polygon","arcs":[[54,55,56,-36,57,58]],"properties":{"codigo":"23162100000000000503","sector":"231621000000000005","pcode":"CO23162","area_m2":153831}},{"type":"Polygon","arcs":[[59,60,-24]],"properties":{"codigo":"23162100000000000109","sector":"231621000000000001","pcode":"CO23162","area_m2":325847}},{"type":"Polygon","arcs":[[-25,-61,61,62,63,64,65]],"properties":{"codigo":"23162100000000000108","sector":"231621000000000001","pcode":"CO23162","area_m2":170049}},{"type":"Polygon","arcs":[[66,67,68,69,70,71]],"properties":{"codigo":"23162100000000000404","sector":"231621000000000004","pcode":"CO23162","area_m2":122589}},{"type":"Polygon","arcs":[[72,73,74]],"properties":{"codigo":"23162200203006000103","sector":"231622002030060001","pcode":"CO23162","area_m2":43353}},{"type":"MultiPolygon","arcs":[[[-59,75,76,77,78,79]],[[80]]],"properties":{"codigo":"23162100000000000505","sector":"231621000000000005","pcode":"CO23162","area_m2":381044}},{"type":"Polygon","arcs":[[81,-49,82,83,-71]],"properties":{"codigo":"23162100000000000403","sector":"231621000000000004","pcode":"CO23162","area_m2":125601}},{"type":"Polygon","arcs":[[-32,84,-63,85,86]],"properties":{"codigo":"23162100000000000110","sector":"231621000000000001","pcode":"CO23162","area_m2":237826}},{"type":"Polygon","arcs":[[87,88,89,90]],"properties":{"codigo":"23162100000000000305","sector":"231621000000000003","pcode":"CO23162","area_m2":171085}},{"type":"Polygon","arcs":[[91,92,93,94]],"properties":{"codigo":"23162200203006000101","sector":"231622002030060001","pcode":"CO23162","area_m2":758088}},{"type":"Polygon","arcs":[[95,96,97,98,99,100]],"properties":{"codigo":"23162100000000000510","sector":"231621000000000005","pcode":"CO23162","area_m2":839585}},{"type":"Polygon","arcs":[[101,-76,-58]],"properties":{"codigo":"23162100000000000504","sector":"231621000000000005","pcode":"CO23162","area_m2":15903}},{"type":"Polygon","arcs":[[-79,102,103,-88,104,105,106,107,108]],"properties":{"codigo":"23162100000000000509","sector":"231621000000000005","pcode":"CO23162","area_m2":819614}},{"type":"Polygon","arcs":[[-77,-102,-35,109,110]],"properties":{"codigo":"23162100000000000506","sector":"231621000000000005","pcode":"CO23162","area_m2":121180}},{"type":"Polygon","arcs":[[-47,111,112,113,114]],"properties":{"codigo":"23162100000000000401","sector":"231621000000000004","pcode":"CO23162","area_m2":100293}},{"type":"Polygon","arcs":[[115,116,-27,117,118]],"properties":{"codigo":"23162100000000000105","sector":"231621000000000001","pcode":"CO23162","area_m2":108207}},{"type":"Polygon","arcs":[[-64,-85,-31,119,120,121,122,123]],"properties":{"codigo":"23162100000000000201","sector":"231621000000000002","pcode":"CO23162","area_m2":465746}},{"type":"Polygon","arcs":[[124,-28,-117,125,126]],"properties":{"codigo":"23162100000000000104","sector":"231621000000000001","pcode":"CO23162","area_m2":107221}},{"type":"Polygon","arcs":[[127,-122,128,129,-114,130,131,-44,132]],"properties":{"codigo":"23162100000000000206","sector":"231621000000000002","pcode":"CO23162","area_m2":1617774}},{"type":"Polygon","arcs":[[-90,133,134,-67,135,-29,-125,136]],"properties":{"codigo":"23162100000000000303","sector":"231621000000000003","pcode":"CO23162","area_m2":189219}},{"type":"Polygon","arcs":[[-48,-115,-130,137,-83]],"properties":{"codigo":"23162100000000000402","sector":"231621000000000004","pcode":"CO23162","area_m2":135074}},{"type":"Polygon","arcs":[[-92,138,-75,139]],"properties":{"codigo":"23162200203006000102","sector":"231622002030060001","pcode":"CO23162","area_m2":381026}},{"type":"Polygon","arcs":[[-65,-124,140,141]],"properties":{"codigo":"23162100000000000107","sector":"231621000000000001","pcode":"CO23162","area_m2":1700478}},{"type":"Polygon","arcs":[[142,-93,-140,-74,143]],"properties":{"codigo":"23162200202025000101","sector":"231622002020250001","pcode":"CO23162","area_m2":338917}},{"type":"Polygon","arcs":[[-110,-34,-57,144,-99,145,146,147]],"properties":{"codigo":"23162100000000000501","sector":"231621000000000005","pcode":"CO23162","area_m2":294966}},{"type":"Polygon","arcs":[[-60,-23,148,149,-119,150,-86,-62]],"properties":{"codigo":"23162100000000000102","sector":"231621000000000001","pcode":"CO23162","area_m2":637613}},{"type":"Polygon","arcs":[[-84,-138,-129,-121,151,-72]],"properties":{"codigo":"23162100000000000203","sector":"231621000000000002","pcode":"CO23162","area_m2":241513}},{"type":"Polygon","arcs":[[152,153,154,-52,-50,-82,-70,155,-97]],"properties":{"codigo":"23162100000000000407","sector":"231621000000000004","pcode":"CO23162","area_m2":575302}},{"type":"Polygon","arcs":[[-78,-111,-148,156,157,-103]],"properties":{"codigo":"23162100000000000502","sector":"231621000000000005","pcode":"CO23162","area_m2":286938}},{"type":"Polygon","arcs":[[-123,-128,158,-53,159,-141]],"properties":{"codigo":"23162100000000000209","sector":"231621000000000002","pcode":"CO23162","area_m2":1206972}},{"type":"Polygon","arcs":[[160,-68,-135,161,-157,-147]],"properties":{"codigo":"23162100000000000406","sector":"231621000000000004","pcode":"CO23162","area_m2":150121}},{"type":"MultiPolygon","arcs":[[[162,163]],[[164]],[[165]],[[166]],[[167]],[[168]],[[169]],[[170]]],"properties":{"codigo":"23162200304001000102","sector":"231622003040010001","pcode":"CO23162","area_m2":487409}},{"type":"Polygon","arcs":[[171,-126,-116,-150]],"properties":{"codigo":"23162100000000000103","sector":"231621000000000001","pcode":"CO23162","area_m2":42247}},{"type":"Polygon","arcs":[[172,173,-38,174,-112,-46,-51,-155]],"properties":{"codigo":"23162100000000000205","sector":"231621000000000002","pcode":"CO23162","area_m2":185539}},{"type":"Polygon","arcs":[[-104,-158,-162,-134,-89]],"properties":{"codigo":"23162100000000000304","sector":"231621000000000003","pcode":"CO23162","area_m2":220945}},{"type":"Polygon","arcs":[[-105,-91,-137,-127,-172,-149,-22,175]],"properties":{"codigo":"23162100000000000302","sector":"231621000000000003","pcode":"CO23162","area_m2":1426149}},{"type":"Polygon","arcs":[[-163,176,177,178]],"properties":{"codigo":"23162200304001000101","sector":"231622003040010001","pcode":"CO23162","area_m2":312074}},{"type":"Polygon","arcs":[[-175,-37,-42,179,-131,-113]],"properties":{"codigo":"23162100000000000204","sector":"231621000000000002","pcode":"CO23162","area_m2":283419}},{"type":"Polygon","arcs":[[-180,-41,-132]],"properties":{"codigo":"23162100000000000210","sector":"231621000000000002","pcode":"CO23162","area_m2":207558}},{"type":"Polygon","arcs":[[-151,-118,-33,-87]],"properties":{"codigo":"23162100000000000106","sector":"231621000000000001","pcode":"CO23162","area_m2":225710}},{"type":"Polygon","arcs":[[-146,-98,-156,-69,-161]],"properties":{"codigo":"23162100000000000405","sector":"231621000000000004","pcode":"CO23162","area_m2":170757}},{"type":"Polygon","arcs":[[180,-94,-143,181,182,183,-173,-154,184]],"properties":{"codigo":"23162200203018000101","sector":"231622002030180001","pcode":"CO23162","area_m2":523136}},{"type":"Polygon","arcs":[[-183,185]],"properties":{"codigo":"23162200202026000101","sector":"231622002020260001","pcode":"CO23162","area_m2":121562}},{"type":"Polygon","arcs":[[-100,-145,-56,186]],"properties":{"codigo":"23162100000000000511","sector":"231621000000000005","pcode":"CO23162","area_m2":1146516}},{"type":"Polygon","arcs":[[187,-108,188]],"properties":{"codigo":"23162100000000000601","sector":"231621000000000006","pcode":"CO23162","area_m2":175524}},{"type":"Polygon","arcs":[[-136,-152,-120,-30]],"properties":{"codigo":"23162100000000000202","sector":"231621000000000002","pcode":"CO23162","area_m2":119093}},{"type":"Polygon","arcs":[[-96,189,-185,-153]],"properties":{"codigo":"23162100000000000410","sector":"231621000000000004","pcode":"CO23162","area_m2":198929}},{"type":"Polygon","arcs":[[-178,190,-189,-107,191]],"properties":{"codigo":"23162100000000000508","sector":"231621000000000005","pcode":"CO23162","area_m2":307622}}]}},"arcs":[[[3551,4628],[53,-19],[-13,-101],[36,-20],[-16,-61],[38,-22],[-42,-120],[15,-14],[-11,-44],[-36,-60],[21,-49],[-32,-36],[-15,49],[-31,-36],[-50,0],[-75,64],[8,24],[-42,34],[-6,-24],[-80,69],[22,43],[138,-92],[10,65],[6,-21],[46,41],[33,110],[-10,2],[-9,69],[-6,122],[48,27]],[[65,7337],[-65,70],[27,65],[17,-22],[72,-51],[54,-19],[1,19],[33,-26],[13,-42],[-27,-30],[-33,28],[7,36],[-50,11],[-13,-66],[-36,27]],[[3900,5609],[10,10],[29,-34],[-9,-27],[31,-58],[31,-121],[9,-84],[18,10],[14,-87],[-12,-11],[37,-61],[-10,-39],[-39,62],[-33,155],[-10,14],[0,70],[-43,84],[-47,-56],[12,-20],[-38,-103],[-31,17],[34,130],[31,92],[-20,30],[-39,4],[-67,-48],[-3,18],[43,42],[-3,21],[63,6],[42,-16]],[[4121,5821],[7,-52],[-27,-20],[-37,-54],[23,-81],[-32,-61],[-50,-70],[-9,74],[-28,62],[-24,-4],[-29,29],[4,22],[30,-6],[62,43],[7,-22],[24,28],[61,110],[18,2]],[[9759,634],[19,-55],[131,-106],[-21,-71],[-19,4],[4,-156],[-121,70],[35,125],[-32,15],[-35,64],[-34,-29],[-6,22],[37,34],[-13,32],[32,27],[1,33],[22,-9]],[[9890,9480],[-1,-78],[36,5],[-7,-70],[-30,9],[0,-31],[63,-49],[3,-24],[34,41],[11,-19],[-75,-86],[-8,-27],[23,-55],[-44,-32],[4,-52],[-15,-3],[-176,-266],[-13,28],[-47,-69],[-52,104],[56,64],[4,22],[-57,79],[-33,13],[-23,75],[-8,-25],[-42,46],[9,28],[41,-46],[70,-10],[36,-45],[10,11],[39,-40],[96,78],[12,55],[-19,-1],[0,53],[-40,17],[9,75],[64,-23],[20,44],[-27,7],[-8,82],[36,-11],[2,31],[-161,56],[31,24],[106,-27],[-6,66],[79,-10],[-2,-14]],[[9010,9437],[-7,-23],[-20,19],[-22,-80],[34,-10],[10,32],[38,-41],[-13,-61],[-14,8],[0,-54],[-32,19],[-24,-57],[-42,27],[6,145],[-14,39],[-28,23],[10,42],[36,-82],[35,60],[31,79],[33,-22],[-17,-63]],[[9834,9873],[88,54],[12,-73],[-44,-16],[7,-31],[-22,-9],[-6,33],[-25,-13],[0,-48],[-17,-13],[41,-84],[46,13],[4,-65],[-4,-87],[-21,8],[0,27],[-49,2],[-7,65],[23,1],[-11,35],[-39,-3],[-2,39],[-28,-11],[-33,10],[4,48],[49,34],[-13,31],[-31,-11],[-10,22],[27,5],[10,73],[28,15],[-8,48],[53,27],[9,-66],[-37,-18],[6,-42]],[[7830,6198],[19,-30],[40,4],[27,20],[18,-29],[-11,-30],[-21,7],[0,-49],[19,-8],[11,-46],[-11,-47],[-6,-85],[36,13],[-5,-51],[-27,-19],[-9,-68],[58,-1],[-33,-177],[-1,-46],[-17,-8],[-6,98],[19,12],[-13,52],[35,32],[-19,19],[-36,-42],[-13,29],[19,23],[-46,23],[-43,34],[-42,85],[2,32],[39,93],[-19,-7],[9,64],[30,-7],[-22,63],[-38,26],[25,71],[32,-50]],[[7744,6270],[20,-12],[7,-35],[-11,-38],[-61,23],[18,57],[27,5]],[[6077,614],[-20,-39],[-177,-67],[-12,-15],[-79,-208],[27,-52],[-14,-52],[-24,-33],[-33,27],[-67,-175],[-10,10],[28,87],[33,79],[-23,51],[-19,-8],[-42,35],[-74,26],[5,22],[41,-23],[80,-6],[67,88],[38,106],[-11,12],[11,143],[3,189]],[[5805,811],[20,-5],[-8,-69],[37,-2],[3,67],[124,-22],[48,-80],[24,-24],[-14,-43],[38,-19]],[[5805,811],[4,162],[26,214],[46,141],[-27,19],[8,92],[34,22],[36,-15],[31,49],[11,-8],[40,126],[3,-23],[-44,-194],[28,-29],[-2,-29],[-29,29],[-5,-30],[44,-47],[24,-67],[-10,-18],[-23,-103],[-17,12],[-12,-85],[-22,6],[-6,-112],[41,-14],[2,16],[35,-57],[165,218],[-14,24],[21,26],[8,-36],[50,-43],[-145,-374],[-29,-69]],[[8953,5565],[10,-39],[11,19],[15,-32],[-27,-47],[9,-176],[-31,-15],[3,-37],[27,13],[-5,-50],[49,-175],[12,13],[26,-98],[-15,-20],[12,-30],[20,24],[17,-63],[-81,17],[-10,41],[-18,-21],[-15,94],[-17,50],[-19,-24],[-11,35],[15,20],[-27,68],[-5,71],[-12,44],[2,71],[14,5],[-5,70],[-14,-6],[-9,74],[28,8],[-2,71],[53,25]],[[7759,7538],[17,-9],[10,-52],[-12,-63],[57,0],[12,13],[11,63],[14,-31],[26,-11],[-23,-87],[10,-40],[-56,8],[-8,-108],[35,-3],[-17,-64],[-60,-9],[-4,-65],[57,-6],[-12,-53],[30,-4],[0,-62],[-29,7],[0,-35],[-19,-1],[8,-93],[-17,-14],[13,-28],[-66,-58],[5,-14],[-37,-30],[-82,-106],[-17,-45],[-18,25],[-21,-64],[43,-22],[5,31],[18,-9],[5,-41],[23,-7],[19,-52],[-25,-46],[2,-32],[-84,-20],[-12,87],[-45,-27],[-3,22],[31,13],[3,67],[-40,1],[-8,52],[-44,-38],[0,29],[63,47],[22,-20],[22,75],[29,-5],[35,58],[56,61],[-11,31],[8,53],[15,-8],[25,31],[32,-40],[-10,55],[-19,25],[32,70],[6,38],[-22,53],[1,70],[22,136],[-10,132],[13,79],[-5,57],[-22,49],[24,23],[-1,-39]],[[7772,7669],[-15,-10],[-11,-49],[-20,-12],[0,31],[-60,23],[4,34],[69,-19],[25,33],[8,-31]],[[5665,2472],[30,3],[-14,-110],[-34,14],[6,137],[15,102],[43,-4],[-12,-74],[-34,-68]],[[9573,8079],[-12,-166],[-10,2],[-3,-130],[-21,-36],[14,-32],[-9,-28],[14,-153],[-41,-3],[-41,-27],[-13,-65],[-5,-84],[19,0],[0,-33],[-32,2],[-1,78],[-20,14],[9,57],[19,35],[-41,20],[-74,59],[-18,28],[10,17],[-24,42],[-12,-22],[-27,38],[13,39],[-63,83],[-47,13],[-80,-73],[-30,-58],[-10,-91],[-28,-85],[-11,3],[22,162],[-16,7],[23,97],[2,40],[22,-56],[42,37],[-9,40],[42,8],[34,30],[0,-24],[47,-8],[7,60],[47,-27],[-16,-52],[35,-54],[58,-47],[6,-51],[59,-76],[49,1],[13,15],[4,56],[-14,13],[13,42],[-11,15],[25,18],[26,43],[11,58],[3,94],[27,23],[6,92],[46,139],[8,-4],[-36,-135]],[[8883,7296],[21,-19],[-25,-42],[-74,-75],[-15,-34],[-35,-138],[4,-79],[46,-108],[-51,-30],[-18,90],[-12,115],[-45,-8],[-79,9],[-23,45],[7,27],[35,-60],[23,81],[-20,2],[-3,44],[81,-21],[34,-16],[20,85],[-17,14],[29,85],[15,-28],[41,40],[6,-15],[48,53],[7,-17]],[[8702,7253],[-44,38],[16,56],[50,-34],[-22,-60]],[[8566,7427],[0,-26],[62,23],[3,-20],[-48,-36],[6,-20],[32,8],[2,-53],[-63,18],[-32,112],[38,-6]],[[8130,4665],[-70,-49],[-63,-96],[-49,-38],[-76,-33]],[[7872,4449],[73,134],[14,57],[11,94],[16,52]],[[7986,4786],[46,162],[-2,269],[-4,86],[-21,90]],[[8005,5393],[18,0]],[[8023,5393],[30,-1],[51,31],[39,44],[39,81],[4,83],[-58,134],[-5,55],[7,54],[19,10],[36,-19],[60,19],[-82,-53],[-17,-44],[10,-63],[37,-85],[3,-61],[24,1],[19,-81],[-15,-36],[17,-65],[18,-16],[-8,-39],[-34,-2],[-3,-68],[-38,5],[-7,-45],[-30,-100],[40,-118],[11,-67],[-16,-66],[-79,-86],[-25,-2],[39,-106],[21,-22]],[[7545,4284],[97,-69]],[[7642,4215],[26,7],[29,-145]],[[7697,4077],[5,-68],[-83,-95],[-56,-46]],[[7563,3868],[1,182]],[[7564,4050],[-18,156],[-22,72]],[[7524,4278],[5,6]],[[7529,4284],[16,0]],[[7673,2894],[-17,50],[-30,196]],[[7626,3140],[98,95],[12,-50],[46,-135],[15,-29]],[[7797,3021],[-124,-127]],[[6712,3786],[18,-120],[85,31],[13,-81],[150,17]],[[6978,3633],[24,-61],[69,-123],[16,-50],[1,-53],[-18,-107],[-18,-69],[-31,-64],[-66,-25],[-154,-4],[-73,-12]],[[6728,3065],[-11,24],[33,26],[17,-36],[29,32],[-137,310],[-32,262],[-29,-6],[28,66],[47,39]],[[6673,3782],[39,4]],[[6838,4224],[-11,-99],[35,-171]],[[6862,3954],[-27,0],[-99,-25],[9,-116],[-33,-27]],[[6673,3782],[-47,7],[-25,-17],[0,70],[15,0],[2,107],[-40,14],[5,52],[26,67],[-12,101],[-43,77],[31,29],[-39,95],[-41,163],[-12,30],[-220,275],[59,186],[5,29],[55,45],[-13,18],[14,60],[34,62],[-9,45],[-43,60],[19,99],[-8,36]],[[6386,5492],[65,-28],[85,-133],[-38,-93],[0,-87],[33,83],[39,-39],[17,39],[56,-26],[41,-6],[34,-30],[51,-25],[-9,-39],[19,-18],[7,-167],[-15,-201],[-11,-12],[-25,-106],[25,-10],[-31,-13],[6,-54],[26,2],[18,-33],[23,-78],[31,-8],[22,-27],[-17,-159]],[[7276,3352],[-81,107],[-30,-69],[-31,-51]],[[7134,3339],[-33,136],[-29,82],[-53,113]],[[7019,3670],[28,24],[83,-16]],[[7130,3678],[109,-26],[-10,-122],[37,-10]],[[7266,3520],[35,-9]],[[7301,3511],[-8,-98],[-17,-61]],[[7097,3106],[32,45],[17,110],[-12,78]],[[7276,3352],[-73,-165],[-91,-119],[-15,38]],[[6814,5987],[-154,-75]],[[6660,5912],[-25,71],[-7,53],[16,8],[-11,84],[22,28],[39,5],[52,25],[68,-199]],[[8049,2847],[-37,-10],[-103,22],[-43,-4],[-75,-39],[-76,-22]],[[7715,2794],[-3,0]],[[7712,2794],[-39,100]],[[7797,3021],[16,-44],[76,77]],[[7889,3054],[51,-177],[57,50],[10,-51],[42,-29]],[[7986,4786],[-115,106],[-18,29],[-48,173],[28,-9],[29,20]],[[7862,5105],[13,29],[-9,153],[2,36],[33,45],[104,25]],[[7862,5105],[-12,-3],[-100,38],[-45,-24],[-51,-83],[-37,-27],[-96,20],[-23,-20],[1,-38],[39,-127]],[[7538,4841],[2,-73],[-28,-32],[-86,32],[-36,-4]],[[7390,4764],[-2,11]],[[7388,4775],[39,8],[70,-21],[24,56],[-40,154],[13,51],[19,18],[55,-8],[39,7]],[[7607,5040],[43,35],[46,60],[-24,54],[25,44],[130,-57],[23,53],[-21,59],[26,22],[8,30],[32,39],[34,15],[-19,32],[13,16],[-14,44],[59,32],[37,-44],[46,9],[11,-47],[-34,-16],[-5,-27]],[[7541,3704],[10,-22]],[[7551,3682],[33,-62],[54,-24],[4,-44]],[[7642,3552],[-185,48],[-15,-188]],[[7442,3412],[-72,19]],[[7370,3431],[21,261],[12,38]],[[7403,3730],[47,-49],[50,-4],[41,27]],[[6074,1771],[-46,-102],[-10,10],[21,73],[37,90]],[[6076,1842],[41,67],[40,39]],[[6157,1948],[13,-135],[-54,-7],[-42,-35]],[[7889,3054],[-14,42]],[[7875,3096],[34,33],[-36,46]],[[7873,3175],[44,179],[56,-20],[16,-20]],[[7989,3314],[61,-84],[55,-113],[89,-94]],[[8194,3023],[-54,-67],[47,-49],[41,-79],[-69,-46],[-16,53],[-42,71],[-52,-59]],[[8098,2795],[42,-85],[-42,-52],[-37,34],[22,22],[-13,37],[28,44]],[[7370,3431],[-36,9],[4,62],[-37,9]],[[7266,3520],[23,284],[8,31]],[[7297,3835],[51,-27],[55,-78]],[[7524,4278],[-38,56],[-127,74],[-39,44],[-2,60],[31,66],[16,63],[11,84],[14,39]],[[7538,4841],[9,4],[51,-83]],[[7598,4762],[-34,-65],[15,-31],[-25,-59],[-15,19],[-70,-153],[16,-18],[-40,-33],[-15,-31],[72,-61],[27,-46]],[[8068,3732],[-59,-18]],[[8009,3714],[-52,40],[-75,112],[-40,76]],[[7842,3942],[-45,83]],[[7797,4025],[15,42],[5,57],[28,-12],[7,49],[57,-79],[-19,-42],[96,-168],[27,-10],[-1,55],[56,-2],[0,-183]],[[6428,1401],[49,90],[60,169],[-23,-3],[-34,86]],[[6480,1743],[31,43],[6,104],[-21,152],[-27,101],[-18,43]],[[6451,2186],[10,9]],[[6461,2195],[23,-54],[49,54],[13,-60],[-25,-2],[12,-32],[35,8],[-18,-83],[79,-30],[36,-30],[2,-35],[24,-19],[-6,-27],[-21,16],[-9,-30],[-15,17],[-13,-35],[29,-27],[35,20],[14,-24],[24,22],[29,-71],[101,-31],[-19,-36],[-31,14],[-4,-35],[-93,9],[1,-124],[11,-23],[-4,-67],[23,4],[56,-28],[-33,-105],[-81,-239],[-66,34],[-203,193],[24,33],[-12,29]],[[6843,2519],[29,67],[46,65],[69,70]],[[6987,2721],[408,411],[107,111]],[[7502,3243],[38,38]],[[7540,3281],[-23,-50],[-2,-32],[45,-338],[-5,-47],[-20,-47],[-26,-27]],[[7509,2740],[-276,-75]],[[7233,2665],[-31,-16],[-141,-152],[-74,-92],[-98,18],[1,-15],[-55,4],[-22,23],[30,84]],[[7797,3021],[78,75]],[[7989,3314],[12,96],[32,59],[-80,73],[41,157],[-6,7]],[[7988,3706],[21,8]],[[8068,3732],[254,87]],[[8322,3819],[-5,-6],[21,-247],[25,-6]],[[8363,3560],[21,-175],[0,-72],[-9,-47]],[[8375,3266],[-55,-87]],[[8320,3179],[-126,-156]],[[7626,3140],[-8,64],[129,125],[-7,51],[19,7]],[[7759,3387],[5,-123],[109,-89]],[[7019,3670],[-18,50],[-1,70],[14,31]],[[7014,3821],[58,69],[56,55]],[[7128,3945],[26,14]],[[7154,3959],[-9,-80],[-15,-201]],[[7727,4540],[26,-56]],[[7753,4484],[-18,-24],[-39,-210],[-55,-5],[1,-30]],[[7545,4284],[31,44],[26,85],[56,-33],[40,216]],[[7698,4596],[29,-56]],[[7564,4050],[-21,-4],[5,-66],[-159,17]],[[7389,3997],[-14,66]],[[7375,4063],[-73,342],[-109,440]],[[7193,4845],[-3,10]],[[7190,4855],[20,60],[12,-40],[51,55],[16,-31],[20,21],[39,-64],[31,30],[9,-111]],[[7707,4093],[-10,-16]],[[7753,4484],[7,11],[64,-126]],[[7824,4369],[-25,-99],[-53,-88],[-40,-49],[1,-40]],[[6659,5715],[-40,-185],[-2,-34],[35,-115],[57,-43],[99,-38],[64,84],[84,-206],[-9,-43],[13,-101],[-1,-88],[-24,-80],[-22,-42],[-6,-111],[-14,-2],[3,-95],[26,-12],[63,3],[42,-63],[3,25],[44,-19],[100,-18],[1,111],[-10,44],[5,48],[23,110]],[[7375,4063],[-187,19],[-16,-132]],[[7172,3950],[-18,9]],[[7128,3945],[-21,19]],[[7107,3964],[-1,34],[-29,113],[-63,-19],[-79,76],[-97,56]],[[6386,5492],[1,52],[45,-11],[60,-102],[58,131],[46,118],[4,36],[59,-1]],[[7842,3942],[-23,-35],[-6,18],[-44,-55],[-69,-39],[11,-59]],[[7711,3772],[-56,-11],[0,-16],[-104,-63]],[[7541,3704],[10,30],[12,134]],[[7707,4093],[59,-1],[2,-38],[29,-29]],[[7172,3950],[13,-37],[35,-48],[77,-30]],[[6428,1401],[-23,-33],[-69,69],[-22,36],[5,19],[-54,94],[-10,36],[21,89],[-41,57],[-62,16],[-80,-35],[-19,22]],[[6157,1948],[26,0],[100,-56],[59,-41],[111,-105],[27,-3]],[[7190,4855],[-45,169],[-140,413],[-161,458],[-30,92]],[[6814,5987],[68,37],[30,35],[63,-112],[-13,-28],[67,-37],[78,31],[17,-53],[96,50],[19,-79],[-99,-52],[9,-55],[275,131],[14,-40],[1,-48],[-32,-218],[83,-193],[49,-124],[17,-7],[51,-185]],[[6347,2583],[-16,-118],[11,-52],[29,-66],[80,-161]],[[6076,1842],[-43,79],[26,32],[75,10],[-13,39],[70,-4],[72,-18],[141,-94],[18,139],[-12,2],[-34,115],[-11,62],[-38,-9],[-29,40],[2,49],[14,10],[-10,42],[-8,161],[3,99],[48,-13]],[[7712,2794],[-203,-54]],[[7540,3281],[142,146]],[[7682,3427],[58,58]],[[7740,3485],[22,-16],[-3,-82]],[[7872,4449],[-17,-21]],[[7855,4428],[-94,185],[-34,-73]],[[7698,4596],[-100,166]],[[7389,3997],[37,-170],[18,-22],[56,-19],[41,-82]],[[6987,2721],[-11,130],[-12,100],[-145,11]],[[6819,2962],[-3,83]],[[6816,3045],[108,-23],[74,17],[58,25],[41,42]],[[7442,3412],[36,-9],[-5,-62],[36,-10],[-7,-88]],[[7740,3485],[3,3]],[[7743,3488],[177,178],[68,40]],[[6659,5715],[9,41],[-8,156]],[[6814,5987],[0,0]],[[7682,3427],[-5,11],[-53,-6],[18,120]],[[7711,3772],[26,14],[12,-195],[-6,-103]],[[8562,2791],[32,84],[23,36],[81,-6],[54,13],[0,65],[39,20],[57,108]],[[8848,3111],[6,1],[48,144],[23,43],[-35,-123],[59,-24],[72,19],[32,-8],[23,14],[-39,-82],[-6,-31],[20,-43],[-103,13],[-54,14],[-25,-71],[61,-63],[-7,-32],[42,-10],[44,22],[-1,-90],[102,-88],[-43,18],[-40,39],[-10,-57],[-67,23],[-20,27],[-23,-54],[-28,2],[-14,65],[-47,-48],[1,-14],[-58,-22],[-43,75],[-32,28],[-8,-48],[-37,5],[-79,36]],[[9213,2143],[-39,19],[-21,102],[-33,49],[-2,36],[30,127],[-7,75],[-28,45],[-17,78],[13,2],[5,-47],[42,-88],[4,-49],[-31,-140],[7,-38],[31,-54],[10,-63],[39,-40],[-3,-14]],[[8663,2640],[-3,-26],[-37,3],[3,52],[19,34],[26,1],[-8,-64]],[[9112,3171],[-12,55],[29,19],[11,-54],[-28,-20]],[[9159,3264],[15,22],[3,57],[28,-1],[-1,-59],[-45,-19]],[[8973,3310],[-35,7],[17,58],[12,-3],[6,-62]],[[8991,3391],[-32,3],[5,40],[27,-43]],[[9042,3550],[-29,0],[-27,-75],[-27,2],[15,50],[51,93],[-3,-52],[20,-18]],[[7855,4428],[-31,-59]],[[6816,3045],[-116,-5]],[[6700,3040],[28,25]],[[6978,3633],[2,132],[14,45],[20,11]],[[8130,4665],[33,14],[61,63],[69,-79],[33,-166],[18,-258],[101,-29],[-46,-153],[-10,-15],[-67,-223]],[[8562,2791],[-47,-78],[-13,15],[57,93],[-54,56],[11,17]],[[8516,2894],[53,11],[10,65],[53,74],[17,86],[6,147],[-8,53],[-43,3],[30,18],[-2,24],[-28,-4],[-3,32]],[[8601,3403],[51,25],[65,-28],[-3,-68],[38,-8],[-15,-103],[15,-4],[9,37],[16,-17],[17,62],[37,-17],[-14,-60],[24,-17],[-19,-91],[26,-3]],[[6862,3954],[178,-70],[67,80]],[[6812,2866],[-50,12],[-81,-43],[-63,-45],[0,-14],[-45,-70],[-5,9],[-41,-65],[-16,32],[-34,-72],[-36,7],[-28,-157],[31,-21],[27,35],[9,61],[26,-25],[65,-115],[-10,-18],[12,-49],[34,-52],[-7,-23],[-32,-15],[-9,39],[-53,-38],[-45,-44]],[[6347,2583],[40,94]],[[6387,2677],[40,62],[27,62],[68,112],[70,72],[67,43]],[[6659,3028],[41,12]],[[6819,2962],[-7,-96]],[[6387,2677],[-16,-7],[-31,35],[21,52],[-4,39],[24,-26],[33,85],[-48,32],[26,10],[3,33],[-37,25],[4,20],[60,-55],[24,17],[-15,21],[14,25],[-21,46],[16,40],[23,-54],[23,23],[25,-77],[64,58],[11,-18],[71,42],[2,-15]],[[7715,2794],[82,-239],[53,25],[33,4],[13,-37],[14,9],[49,-76],[-12,-58],[-125,17],[5,-57],[-90,-28],[28,-61],[49,-182],[-17,-26],[-72,-24],[-125,-65],[-4,-150],[-95,11],[55,54],[3,20],[-61,172],[-6,29],[-107,263],[-68,2],[0,78],[-16,98],[-67,-9],[-1,101]],[[8512,2938],[1,12],[-72,16],[-2,14],[23,218],[-5,28],[-22,-17],[-30,3],[-17,-55],[-17,-126],[-26,22],[-19,-62],[-29,1],[15,89],[28,68],[-20,30]],[[8375,3266],[43,-35],[29,9],[34,59],[42,13],[56,-16],[-7,-90],[-18,-12],[-2,-132],[-32,-5],[-1,-120],[-7,1]],[[6843,2519],[-7,12],[-25,170],[-13,9],[5,109],[9,47]],[[8516,2894],[-4,44]],[[8363,3560],[74,-32],[104,74],[19,-87],[-67,-41],[18,-80],[90,9]]]}
