{"type":"Topology","bbox":[-75.53049873332822,8.585306357292351,-75.31340913305917,8.98984322648719],"transform":{"scale":[0.000021711131140018837,0.00004045773269275318],"translate":[-75.53049873332822,8.585306357292351]},"objects":{"municipios":{"type":"GeometryCollection","geometries":[{"type":"Polygon","arcs":[[0,1,2,3,4,5]],"properties":{"codigo":"23660100000000000207","sector":"236601000000000002","pcode":"CO23660","area_m2":98490}},{"type":"Polygon","arcs":[[6,7,8,9,10]],"properties":{"codigo":"23660100000000000401","sector":"236601000000000004","pcode":"CO23660","area_m2":83369}},{"type":"Polygon","arcs":[[11,-10,12,13,14,15]],"properties":{"codigo":"23660100000000000302","sector":"236601000000000003","pcode":"CO23660","area_m2":86558}},{"type":"Polygon","arcs":[[16,17,-8,18]],"properties":{"codigo":"23660100000000000402","sector":"236601000000000004","pcode":"CO23660","area_m2":82712}},{"type":"Polygon","arcs":[[19,20,21,22,-18]],"properties":{"codigo":"23660100000000000403","sector":"236601000000000004","pcode":"CO23660","area_m2":88075}},{"type":"Polygon","arcs":[[-15,23,24,25]],"properties":{"codigo":"23660100000000000301","sector":"236601000000000003","pcode":"CO23660","area_m2":92850}},{"type":"Polygon","arcs":[[26,27]],"properties":{"codigo":"23660100000000000509","sector":"236601000000000005","pcode":"CO23660","area_m2":46370}},{"type":"Polygon","arcs":[[-16,-26,28,29,30]],"properties":{"codigo":"23660100000000000104","sector":"236601000000000001","pcode":"CO23660","area_m2":149475}},{"type":"Polygon","arcs":[[31,32,33,34,35,36]],"properties":{"codigo":"23660100000000000102","sector":"236601000000000001","pcode":"CO23660","area_m2":136899}},{"type":"Polygon","arcs":[[37,38,-1,39]],"properties":{"codigo":"23660100000000000206","sector":"236601000000000002","pcode":"CO23660","area_m2":111284}},{"type":"Polygon","arcs":[[40,-19,-7,41,42]],"properties":{"codigo":"23660100000000000106","sector":"236601000000000001","pcode":"CO23660","area_m2":128700}},{"type":"Polygon","arcs":[[43,44,45]],"properties":{"codigo":"23660100000000000108","sector":"236601000000000001","pcode":"CO23660","area_m2":127277}},{"type":"Polygon","arcs":[[-35,46,47,48,49]],"properties":{"codigo":"23660100000000000203","sector":"236601000000000002","pcode":"CO23660","area_m2":71945}},{"type":"Polygon","arcs":[[-5,50,51,-47,-34,52]],"properties":{"codigo":"23660100000000000204","sector":"236601000000000002","pcode":"CO23660","area_m2":56917}},{"type":"Polygon","arcs":[[-29,-25,53,-40,-6,-53,54]],"properties":{"codigo":"23660100000000000205","sector":"236601000000000002","pcode":"CO23660","area_m2":135821}},{"type":"Polygon","arcs":[[-24,-14,55,56,-38,-54]],"properties":{"codigo":"23660100000000000303","sector":"236601000000000003","pcode":"CO23660","area_m2":93400}},{"type":"Polygon","arcs":[[57,58,-56,-13]],"properties":{"codigo":"23660100000000000304","sector":"236601000000000003","pcode":"CO23660","area_m2":90786}},{"type":"Polygon","arcs":[[-23,59,-58,-9]],"properties":{"codigo":"23660100000000000305","sector":"236601000000000003","pcode":"CO23660","area_m2":111912}},{"type":"Polygon","arcs":[[60,61,62,-20,63]],"properties":{"codigo":"23660100000000000404","sector":"236601000000000004","pcode":"CO23660","area_m2":188752}},{"type":"Polygon","arcs":[[64,65,66,-64,-17,67]],"properties":{"codigo":"23660100000000000405","sector":"236601000000000004","pcode":"CO23660","area_m2":123488}},{"type":"Polygon","arcs":[[-39,-57,-59,-60,-22,68,69,70,71,-28,72,73,-2]],"properties":{"codigo":"23660100000000000501","sector":"236601000000000005","pcode":"CO23660","area_m2":1283830}},{"type":"Polygon","arcs":[[74,75,76,-71,77]],"properties":{"codigo":"23660100000000000502","sector":"236601000000000005","pcode":"CO23660","area_m2":93763}},{"type":"Polygon","arcs":[[78,-69,-21,-63]],"properties":{"codigo":"23660100000000000503","sector":"236601000000000005","pcode":"CO23660","area_m2":45048}},{"type":"Polygon","arcs":[[79,80,-62]],"properties":{"codigo":"23660100000000000504","sector":"236601000000000005","pcode":"CO23660","area_m2":26508}},{"type":"Polygon","arcs":[[81,-78,-70,-79,-81]],"properties":{"codigo":"23660100000000000505","sector":"236601000000000005","pcode":"CO23660","area_m2":48004}},{"type":"Polygon","arcs":[[82,83,84,85,86]],"properties":{"codigo":"23660100000000000507","sector":"236601000000000005","pcode":"CO23660","area_m2":294099}},{"type":"Polygon","arcs":[[-77,87,88,-73,-27,-72]],"properties":{"codigo":"23660100000000000508","sector":"236601000000000005","pcode":"CO23660","area_m2":257375}},{"type":"Polygon","arcs":[[89]],"properties":{"codigo":"23660200404017000101","sector":"236602004040170001","pcode":"CO23660","area_m2":180635}},{"type":"Polygon","arcs":[[-85,90,91,92]],"properties":{"codigo":"23660100000000000802","sector":"236601000000000008","pcode":"CO23660","area_m2":111328}},{"type":"Polygon","arcs":[[93,-86,-93,94,95,-88,-76]],"properties":{"codigo":"23660100000000000801","sector":"236601000000000008","pcode":"CO23660","area_m2":526934}},{"type":"Polygon","arcs":[[96]],"properties":{"codigo":"23660200302001000101","sector":"236602003020010001","pcode":"CO23660","area_m2":135502}},{"type":"Polygon","arcs":[[97]],"properties":{"codigo":"23660200403003000101","sector":"236602004030030001","pcode":"CO23660","area_m2":135065}},{"type":"Polygon","arcs":[[98,99]],"properties":{"codigo":"23660200603004000101","sector":"236602006030040001","pcode":"CO23660","area_m2":544316}},{"type":"Polygon","arcs":[[100]],"properties":{"codigo":"23660200502020000101","sector":"236602005020200001","pcode":"CO23660","area_m2":28727}},{"type":"Polygon","arcs":[[-100,101]],"properties":{"codigo":"23660200603004000102","sector":"236602006030040001","pcode":"CO23660","area_m2":410067}},{"type":"Polygon","arcs":[[102,103]],"properties":{"codigo":"23660200601008000101","sector":"236602006010080001","pcode":"CO23660","area_m2":144984}},{"type":"Polygon","arcs":[[104,-103]],"properties":{"codigo":"23660200601008000102","sector":"236602006010080001","pcode":"CO23660","area_m2":346772}},{"type":"Polygon","arcs":[[105]],"properties":{"codigo":"23660200604022000101","sector":"236602006040220001","pcode":"CO23660","area_m2":94541}},{"type":"Polygon","arcs":[[106]],"properties":{"codigo":"23660200803006000101","sector":"236602008030060001","pcode":"CO23660","area_m2":156647}},{"type":"Polygon","arcs":[[107]],"properties":{"codigo":"23660200502030000101","sector":"236602005020300001","pcode":"CO23660","area_m2":67205}},{"type":"Polygon","arcs":[[108]],"properties":{"codigo":"23660200504011000101","sector":"236602005040110001","pcode":"CO23660","area_m2":170934}},{"type":"Polygon","arcs":[[109]],"properties":{"codigo":"23660200905013000101","sector":"236602009050130001","pcode":"CO23660","area_m2":123143}},{"type":"Polygon","arcs":[[110]],"properties":{"codigo":"23660200102014000101","sector":"236602001020140001","pcode":"CO23660","area_m2":170779}},{"type":"Polygon","arcs":[[111]],"properties":{"codigo":"23660200903016000101","sector":"236602009030160001","pcode":"CO23660","area_m2":131554}},{"type":"Polygon","arcs":[[112]],"properties":{"codigo":"23660200704025000101","sector":"236602007040250001","pcode":"CO23660","area_m2":78893}},{"type":"Polygon","arcs":[[113]],"properties":{"codigo":"23660200801061000101","sector":"236602008010610001","pcode":"CO23660","area_m2":40454}},{"type":"Polygon","arcs":[[114]],"properties":{"codigo":"23660200601031000101","sector":"236602006010310001","pcode":"CO23660","area_m2":97632}},{"type":"Polygon","arcs":[[115]],"properties":{"codigo":"23660200505032000101","sector":"236602005050320001","pcode":"CO23660","area_m2":66988}},{"type":"Polygon","arcs":[[116]],"properties":{"codigo":"23660200803034000101","sector":"236602008030340001","pcode":"CO23660","area_m2":242619}},{"type":"Polygon","arcs":[[117]],"properties":{"codigo":"23660200204037000101","sector":"236602002040370001","pcode":"CO23660","area_m2":125431}},{"type":"Polygon","arcs":[[118]],"properties":{"codigo":"23660200205040000101","sector":"236602002050400001","pcode":"CO23660","area_m2":80484}},{"type":"Polygon","arcs":[[119]],"properties":{"codigo":"23660200604048000101","sector":"236602006040480001","pcode":"CO23660","area_m2":117777}},{"type":"Polygon","arcs":[[120]],"properties":{"codigo":"23660200502054000101","sector":"236602005020540001","pcode":"CO23660","area_m2":121470}},{"type":"Polygon","arcs":[[121]],"properties":{"codigo":"23660200202068000101","sector":"236602002020680001","pcode":"CO23660","area_m2":160170}},{"type":"Polygon","arcs":[[122]],"properties":{"codigo":"23660200904064000101","sector":"236602009040640001","pcode":"CO23660","area_m2":30105}},{"type":"Polygon","arcs":[[123,-46,124,125,126,127]],"properties":{"codigo":"23660100000000000113","sector":"236601000000000001","pcode":"CO23660","area_m2":590330}},{"type":"Polygon","arcs":[[128]],"properties":{"codigo":"23660200603023000101","sector":"236602006030230001","pcode":"CO23660","area_m2":74153}},{"type":"Polygon","arcs":[[-30,-55,-33,129,130]],"properties":{"codigo":"23660100000000000103","sector":"236601000000000001","pcode":"CO23660","area_m2":111842}},{"type":"Polygon","arcs":[[131,-36,-50,132,133,-44,-124,134,135]],"properties":{"codigo":"23660100000000000101","sector":"236601000000000001","pcode":"CO23660","area_m2":223076}},{"type":"Polygon","arcs":[[136,137,-42,-11,-12,-31,-131,138,139,140,141,142]],"properties":{"codigo":"23660100000000000105","sector":"236601000000000001","pcode":"CO23660","area_m2":612092}},{"type":"Polygon","arcs":[[-68,-41,143]],"properties":{"codigo":"23660100000000000107","sector":"236601000000000001","pcode":"CO23660","area_m2":60167}},{"type":"Polygon","arcs":[[-130,-32,144,-139]],"properties":{"codigo":"23660100000000000109","sector":"236601000000000001","pcode":"CO23660","area_m2":58578}},{"type":"Polygon","arcs":[[-143,145]],"properties":{"codigo":"23660100000000000110","sector":"236601000000000001","pcode":"CO23660","area_m2":141372}},{"type":"Polygon","arcs":[[-145,-37,-132,146,147,-140]],"properties":{"codigo":"23660100000000000111","sector":"236601000000000001","pcode":"CO23660","area_m2":241540}},{"type":"Polygon","arcs":[[-148,148,-141]],"properties":{"codigo":"23660100000000000112","sector":"236601000000000001","pcode":"CO23660","area_m2":64036}},{"type":"Polygon","arcs":[[-45,-134,149,150,-125]],"properties":{"codigo":"23660100000000000201","sector":"236601000000000002","pcode":"CO23660","area_m2":367121}},{"type":"Polygon","arcs":[[151,-150,-133,-49]],"properties":{"codigo":"23660100000000000202","sector":"236601000000000002","pcode":"CO23660","area_m2":111713}},{"type":"Polygon","arcs":[[-51,-4,152,153]],"properties":{"codigo":"23660100000000000208","sector":"236601000000000002","pcode":"CO23660","area_m2":246383}},{"type":"Polygon","arcs":[[-152,-48,-52,-154,154,-126,-151]],"properties":{"codigo":"23660100000000000209","sector":"236601000000000002","pcode":"CO23660","area_m2":430116}},{"type":"Polygon","arcs":[[155,-87,-94,-75,-82,-80,-61,-67,156]],"properties":{"codigo":"23660100000000000506","sector":"236601000000000005","pcode":"CO23660","area_m2":1033456}},{"type":"Polygon","arcs":[[157,158,-157,-66,159,160]],"properties":{"codigo":"23660100000000000510","sector":"236601000000000005","pcode":"CO23660","area_m2":432605}},{"type":"Polygon","arcs":[[161,162,-158,163]],"properties":{"codigo":"23660100000000000511","sector":"236601000000000005","pcode":"CO23660","area_m2":96452}},{"type":"Polygon","arcs":[[-162,164]],"properties":{"codigo":"23660100000000000512","sector":"236601000000000005","pcode":"CO23660","area_m2":147702}},{"type":"Polygon","arcs":[[165,166,167,-91,-84,168]],"properties":{"codigo":"23660100000000000601","sector":"236601000000000006","pcode":"CO23660","area_m2":696601}},{"type":"Polygon","arcs":[[-166,169]],"properties":{"codigo":"23660100000000000602","sector":"236601000000000006","pcode":"CO23660","area_m2":49325}},{"type":"Polygon","arcs":[[170]],"properties":{"codigo":"23660200802012000101","sector":"236602008020120001","pcode":"CO23660","area_m2":172190}},{"type":"Polygon","arcs":[[-160,-65,-144,-43,-138,171]],"properties":{"codigo":"23660100000000000701","sector":"236601000000000007","pcode":"CO23660","area_m2":792320}},{"type":"Polygon","arcs":[[172,-95,-92,-168]],"properties":{"codigo":"23660100000000000803","sector":"236601000000000008","pcode":"CO23660","area_m2":751700}},{"type":"Polygon","arcs":[[173]],"properties":{"codigo":"23660200605002000101","sector":"236602006050020001","pcode":"CO23660","area_m2":368876}},{"type":"Polygon","arcs":[[174]],"properties":{"codigo":"23660200101007000101","sector":"236602001010070001","pcode":"CO23660","area_m2":197899}},{"type":"Polygon","arcs":[[175]],"properties":{"codigo":"23660200705015000101","sector":"236602007050150001","pcode":"CO23660","area_m2":123333}},{"type":"Polygon","arcs":[[176]],"properties":{"codigo":"23660200804005000101","sector":"236602008040050001","pcode":"CO23660","area_m2":205114}},{"type":"Polygon","arcs":[[177]],"properties":{"codigo":"23660200602009000101","sector":"236602006020090001","pcode":"CO23660","area_m2":223220}},{"type":"Polygon","arcs":[[178]],"properties":{"codigo":"23660200705010000101","sector":"236602007050100001","pcode":"CO23660","area_m2":100623}},{"type":"Polygon","arcs":[[179]],"properties":{"codigo":"23660200604024000101","sector":"236602006040240001","pcode":"CO23660","area_m2":156700}},{"type":"Polygon","arcs":[[180]],"properties":{"codigo":"23660200502028000101","sector":"236602005020280001","pcode":"CO23660","area_m2":83809}},{"type":"Polygon","arcs":[[181]],"properties":{"codigo":"23660200405029000101","sector":"236602004050290001","pcode":"CO23660","area_m2":65512}},{"type":"Polygon","arcs":[[182]],"properties":{"codigo":"23660200605047000101","sector":"236602006050470001","pcode":"CO23660","area_m2":159216}},{"type":"Polygon","arcs":[[183]],"properties":{"codigo":"23660200901066000101","sector":"236602009010660001","pcode":"CO23660","area_m2":51381}},{"type":"Polygon","arcs":[[-135,-128,184]],"properties":{"codigo":"23660200201067000101","sector":"236602002010670001","pcode":"CO23660","area_m2":154905}}]}},"arcs":[[[3679,9041],[-95,-15],[-68,-43]],[[3516,8983],[-21,14]],[[3495,8997],[-13,8]],[[3482,9005],[14,13],[51,35],[-12,11]],[[3535,9064],[61,9],[-7,15],[63,9]],[[3652,9097],[27,-56]],[[4082,9001],[1,0]],[[4083,9001],[-48,-56],[-10,-14]],[[4025,8931],[-92,23]],[[3933,8954],[53,68]],[[3986,9022],[68,-12],[28,-9]],[[3955,9028],[31,-6]],[[3933,8954],[-97,23]],[[3836,8977],[0,0]],[[3836,8977],[46,72]],[[3882,9049],[19,-9],[54,-12]],[[4173,8962],[-63,-57]],[[4110,8905],[-85,26]],[[4083,9001],[57,-23],[8,7],[25,-23]],[[4110,8905],[-63,-64]],[[4047,8841],[-15,-17]],[[4032,8824],[-73,13]],[[3959,8837],[66,94]],[[3836,8977],[-106,28]],[[3730,9005],[73,68],[20,10]],[[3823,9083],[59,-34]],[[3878,8783],[-124,-20]],[[3754,8763],[-19,38],[33,12],[23,-2],[22,7],[38,-26],[27,-9]],[[3823,9083],[-12,8]],[[3811,9091],[80,41],[-18,15],[29,12]],[[3902,9159],[23,-15],[68,5],[-18,-89],[-20,-32]],[[3779,9227],[30,-10],[27,16],[63,-17]],[[3899,9216],[-170,-79]],[[3729,9137],[-39,21]],[[3690,9158],[-27,15]],[[3663,9173],[48,75]],[[3711,9248],[68,-21]],[[3711,9010],[-16,-7],[-44,-42],[10,-9]],[[3661,8952],[-48,-1],[-41,7],[-56,25]],[[3679,9041],[12,-25],[20,-6]],[[4269,9022],[-30,-10],[11,-11],[-26,-8],[12,-11],[-63,-20]],[[4082,9001],[58,31],[32,22],[97,24]],[[4269,9078],[38,-22],[-55,-24],[17,-10]],[[3588,9338],[15,-48],[-94,-60]],[[3509,9230],[-79,34]],[[3430,9264],[53,57],[17,11],[-10,7],[6,12],[34,-14],[58,1]],[[3690,9158],[-43,-24],[-123,-60]],[[3524,9074],[-16,19]],[[3508,9093],[-5,13],[84,41],[27,9],[35,24]],[[3649,9180],[14,-7]],[[3535,9064],[-8,7]],[[3527,9071],[-3,3]],[[3729,9137],[-53,-23],[-29,-7],[5,-10]],[[3730,9005],[-19,5]],[[3729,9137],[82,-46]],[[3836,8977],[-14,-18],[-47,-29]],[[3775,8930],[-114,22]],[[3933,8954],[-68,-85]],[[3865,8869],[-42,30],[-20,19],[-28,12]],[[3959,8837],[-51,14],[-43,18]],[[4306,8841],[-93,-63],[-37,-19]],[[4176,8759],[-16,19],[-31,-2]],[[4129,8776],[1,24],[35,0],[-2,9],[-74,10],[7,12],[-49,10]],[[4110,8905],[102,-31],[40,-26],[19,8],[35,-15]],[[4206,8939],[51,-24],[26,-32],[91,0]],[[4374,8883],[-57,-36]],[[4317,8847],[-11,-6]],[[4173,8962],[33,-23]],[[4032,8824],[37,-3],[-4,-52]],[[4065,8769],[-22,-2]],[[4043,8767],[-45,-2],[-49,-23]],[[3949,8742],[-12,21],[-59,20]],[[3754,8763],[20,-42],[-6,-7],[84,-50],[-25,1],[-95,-60]],[[3732,8605],[-12,-22],[-146,14],[87,72],[-17,4],[18,23],[-62,19],[-21,-5],[-14,10],[4,22],[28,11],[10,10],[-114,32],[-100,43],[-67,38],[169,121]],[[4064,8712],[38,-29],[-62,-23],[11,-15]],[[4051,8645],[-10,-1],[-27,22],[-37,49],[-18,7]],[[3959,8722],[-10,20]],[[4043,8767],[6,-39],[15,-16]],[[4129,8776],[-64,-7]],[[4176,8759],[0,-34],[-48,-5]],[[4128,8720],[1,56]],[[4128,8720],[-64,-8]],[[4132,8463],[11,-4],[-23,-157],[-9,-8],[-98,-3]],[[4013,8291],[29,39],[-4,11],[-41,26],[-5,33],[4,13],[-15,2]],[[3981,8415],[19,47]],[[4000,8462],[49,134]],[[4049,8596],[15,-39],[-9,-19],[39,-8],[-30,-43],[68,-24]],[[3959,8722],[-9,-51],[-24,-14],[-43,-14],[-59,-36],[-18,6],[-35,-27]],[[3771,8586],[-39,19]],[[7217,5495],[-2,-18],[-59,0],[-20,3],[9,14],[30,-4],[17,61],[-37,4],[-1,14],[38,73],[-23,16],[-24,26],[26,10],[67,-13],[-16,-22],[54,-15],[-11,-41],[-13,-72],[-9,-36],[-26,0]],[[3981,8415],[-2,-4]],[[3979,8411],[-157,-16]],[[3822,8395],[3,18],[-9,1],[26,95],[48,-3],[-19,-65],[37,2],[40,-5],[11,28],[41,-4]],[[4051,8645],[6,-20],[-8,-29]],[[3822,8395],[-19,-1]],[[3803,8394],[-38,-2],[12,43],[30,99],[-44,28],[16,18],[-8,6]],[[1501,9961],[36,1],[-1,-7],[-45,-31],[10,-15],[-8,-17],[-28,8],[-53,-10],[-23,9],[-31,-10],[2,62],[4,9],[33,27],[22,12],[43,-12],[-13,-10],[52,-16]],[[7073,6847],[1,-9],[45,-13],[-7,-19],[15,-10],[19,-27],[22,-21],[-12,-2],[-47,7],[-74,-6],[-16,4],[-36,55],[7,40],[26,-6],[13,17],[44,-10]],[[1717,3788],[19,-10],[-31,-69],[16,-3],[20,-26],[-14,-3],[24,-41],[-51,-2],[-31,-6],[-56,-119],[-38,-1],[16,31],[-18,2],[-11,20],[-51,78],[-26,-2],[-20,10],[-53,34],[1,13],[19,5],[8,13],[39,35],[-1,37],[-16,16],[8,27]],[[1470,3827],[43,-7],[-23,-26],[9,-30],[53,-6],[15,14],[16,-5],[12,11],[19,-8],[19,16],[69,-6],[15,8]],[[1560,6957],[-6,-26],[13,-5],[-24,-7],[-55,14],[16,30],[30,-9],[11,22],[13,10],[7,-13],[-5,-16]],[[1470,3827],[-48,16],[5,6],[66,-20],[13,4],[18,22],[-18,10],[29,17],[-19,7],[25,8],[17,17],[22,-7],[17,14],[19,-4],[9,8],[42,-13],[57,14],[17,-5],[11,12],[56,-24],[4,33],[52,-21],[-1,-12],[-25,-2],[-10,-12],[-25,1],[-19,-26],[-52,-60],[-15,-22]],[[1477,5787],[-12,11],[-41,-13],[-51,37],[-54,-15],[-12,12]],[[1307,5819],[28,5],[12,18],[-29,34],[57,7],[5,-10],[-12,-12],[15,-11],[22,1],[10,-8],[113,30],[7,-9],[-32,-8],[19,-21],[45,5],[15,-23],[-51,-9],[18,-25],[-39,-3],[-13,13],[-20,-6]],[[1477,5787],[10,-8],[-20,-7],[-22,13],[-35,-8],[-10,6],[-38,-10],[-6,4],[-36,-8],[-30,20],[-24,-8],[59,-30],[-44,-22],[-28,28],[11,4],[-23,18],[-24,-2],[-58,-19],[16,-10],[-19,-6],[-16,13],[-57,-24],[8,-4],[-22,-13],[-34,-7],[-23,-17],[-5,-15],[28,-39],[11,1],[-1,-17],[18,-44],[-14,-2],[-11,19],[-36,15],[-29,0],[-12,-12],[-89,-34],[-22,-32],[-48,-42],[-56,17],[-49,11],[19,22],[60,-17],[22,5],[16,-5],[48,48],[-32,14],[-14,-11],[-27,10],[-34,-11],[-17,-20],[-25,6],[24,24],[26,12],[-80,38],[-27,-1],[-38,17],[-12,-2],[-7,17],[68,-7],[25,-6],[18,-12],[73,-32],[29,21],[15,-4],[-18,-16],[28,-4],[-4,-9],[60,10],[75,10],[19,25],[-14,23],[0,37],[44,4],[30,17],[55,38],[61,23],[44,28],[31,-13],[67,17],[2,7]],[[2823,3196],[67,-18],[107,-21],[9,21],[8,-11],[20,-6],[-10,-28],[-25,14],[-38,7],[-8,-9],[-45,8],[-50,5],[27,-33],[11,2],[11,-14],[-16,-14],[-52,60],[-30,15],[-87,7],[-27,-12],[-4,8],[-42,14],[2,7],[50,-9],[32,0],[2,10],[70,-4],[18,1]],[[2085,1293],[22,-1],[15,-35],[24,-21],[23,-10],[55,-17],[54,-51],[19,-5],[20,6],[9,-8],[36,12],[7,-6],[-23,-23],[-39,0],[-52,-25],[-11,6],[-35,-25],[-6,-24],[21,-34],[-13,-2],[-20,27],[-10,31],[57,40],[-1,14],[-15,1],[2,14],[-22,30],[-22,12],[-11,-9],[-19,4],[2,9],[-27,13],[-21,22],[-78,-9],[-14,-4],[-11,12],[24,2],[-9,10],[32,10],[10,-8],[25,6],[-1,14],[-23,15],[26,7]],[[2395,6295],[19,-11],[-70,-30],[-2,-38],[-44,-5],[-23,13],[14,61],[32,9],[44,-2],[30,3]],[[441,6003],[8,-10],[47,0],[4,-29],[-19,-42],[17,-16],[-35,-11],[-26,-4],[-15,-11],[0,-26],[14,-4],[-13,-25],[-19,-4],[-60,17],[-24,-14],[-28,-4],[1,-14],[-22,5],[-5,10],[-41,-3],[-8,7],[54,16],[-1,16],[-12,9],[-31,9],[0,13],[54,-17],[13,-17],[-16,-13],[16,-12],[19,3],[32,17],[57,-17],[-8,17],[-2,31],[23,8],[-16,5],[-4,23],[-17,10],[8,6],[15,-17],[12,5],[3,19],[-17,3],[-17,25],[-23,3],[4,7],[43,-6],[3,28],[14,4],[-21,18],[-23,11],[7,13],[55,-42]],[[6417,93],[44,-22],[-25,-6],[-57,-24],[7,-35],[-21,-5],[-31,12],[-21,37],[-16,18],[19,3],[-7,19],[-19,-2],[-7,16],[18,4],[-12,23],[53,3],[-1,-12],[76,-29]],[[9955,8130],[33,11],[11,-10],[-55,-20],[-39,-1],[23,-33],[-32,0],[1,-8],[-46,-10],[-19,12],[-24,2],[-98,-16],[-16,-14],[-30,-5],[8,13],[-11,7],[33,10],[38,21],[83,21],[9,24],[-26,19],[3,13],[23,12],[18,-1],[79,-31],[34,-16]],[[7561,1548],[29,-2],[33,-14],[34,-5],[0,-18],[49,-8],[33,-2],[30,-10],[0,-18],[-27,-1],[-16,-11],[-30,-2],[-45,-29],[-33,5],[20,30],[-52,10],[-7,5],[9,18],[-51,22],[2,11],[21,10],[1,9]],[[6770,4031],[4,-5],[67,-31],[44,-8],[46,0],[19,-31],[-93,-8],[-12,13],[-28,1],[-15,-23],[-38,16],[22,7],[15,29],[-55,30],[1,18],[22,0],[1,-8]],[[4361,2826],[-28,-32],[-82,43],[-30,0],[-10,12],[37,1],[17,-5],[42,-25],[24,21],[9,26],[20,-3],[11,-9],[-10,-29]],[[1256,5407],[13,3],[20,-16],[-12,-7],[16,-15],[-16,-19],[18,-33],[-7,-6],[13,-24],[-30,-21],[8,-43],[-23,-3],[-17,53],[-56,3],[17,11],[22,-1],[2,9],[22,1],[14,25],[-2,22],[-15,15],[-61,42],[56,18],[18,-14]],[[712,4562],[9,-4],[70,-4],[37,-17],[40,3],[11,-17],[-36,0],[-19,7],[-49,5],[-168,5],[-40,3],[8,22],[59,-6],[78,3]],[[1800,1377],[11,8],[45,-14],[-3,-3],[43,-19],[37,-12],[-12,-2],[-38,-58],[-49,-2],[-2,-15],[-26,2],[12,42],[-72,17],[-37,-12],[-10,12],[-16,-3],[-7,18],[-23,-3],[-11,28],[-27,15],[31,12],[64,17],[-26,28],[17,1],[18,-18],[38,-10],[13,-21],[30,-8]],[[6878,9493],[20,-4],[-8,-14],[16,-2],[3,-12],[-25,-16],[44,-20],[36,-34],[-3,-25],[-11,-12],[-37,-14],[-14,13],[25,8],[-43,38],[-72,17],[-34,0],[-29,-12],[-36,9],[54,32],[78,-7],[10,13],[19,49],[7,-7]],[[7499,7755],[-6,-13],[20,-1],[-13,-24],[29,-6],[-27,-46],[-13,3],[-9,-28],[17,-5],[-10,-16],[-14,3],[-8,-11],[-14,3],[-14,-11],[-16,5],[19,14],[20,29],[-6,2],[12,37],[-25,2],[9,35],[22,-1],[1,8],[-48,3],[0,15],[40,-1],[3,12],[33,-3],[-2,-5]],[[1715,2545],[-32,-35],[-14,-22],[27,-30],[57,-83],[45,17],[19,-11],[-16,-11],[-12,10],[-26,-19],[24,-40],[8,-26],[-29,-1],[-9,32],[-18,-4],[-89,124],[32,5],[-14,18],[-45,28],[36,20],[27,27],[29,1]],[[1313,6403],[24,-1],[13,-41],[15,-8],[25,-31],[-12,-33],[-26,-3],[-42,2],[-14,-7],[-23,11],[-17,22],[2,30],[30,17],[0,42],[-13,8],[39,12],[-1,-20]],[[5502,9308],[-9,-22],[-36,-3],[-2,-10],[-79,-11],[-17,-25],[-31,-3],[-85,-53],[-17,20],[24,13],[-47,0],[-45,24],[-33,6],[-25,-1],[-65,-12],[-17,-11],[-29,-6],[43,18],[27,7],[-13,17],[15,3],[-6,20],[44,-2],[6,-20],[58,4],[44,-4],[52,-14],[48,2],[-4,7],[26,2],[17,32],[11,-4],[22,10],[74,16],[49,0]],[[9701,196],[7,-10],[-39,9],[-19,-6],[-34,33],[44,11],[-17,17],[13,4],[24,-21],[21,-37]],[[3583,9353],[5,-15]],[[3430,9264],[-44,18],[-16,1],[-164,2],[-33,-1]],[[3173,9284],[-114,7],[-15,5]],[[3044,9296],[136,83],[137,29],[127,29],[105,22]],[[3549,9459],[34,-106]],[[1631,3344],[48,-57],[1,-10],[-36,-66],[-37,5],[30,52],[-1,13],[-47,57],[-7,-4],[-13,27],[38,11],[24,-28]],[[3899,9216],[-1,-14],[18,-18]],[[3916,9184],[-37,-10],[23,-15]],[[3748,9324],[-37,-76]],[[3649,9180],[-84,27]],[[3565,9207],[-56,23]],[[3583,9353],[41,0],[0,-13]],[[3624,9340],[-4,-20],[128,4]],[[4107,9162],[77,-6],[12,-18],[33,-29],[9,-18],[43,-8]],[[4281,9083],[-12,-5]],[[3916,9184],[44,16],[-30,32],[-72,21]],[[3858,9253],[43,43]],[[3901,9296],[62,-14],[19,33],[13,61]],[[3995,9376],[95,-8]],[[4090,9368],[-72,-142],[49,-7],[-13,-25],[-26,4],[-7,-29],[86,-7]],[[4269,9022],[21,-14],[52,-18],[-21,-22],[-26,11],[-39,-31],[-30,11],[-20,-20]],[[3779,9227],[22,41],[57,-15]],[[4090,9368],[48,-6],[-51,-105],[44,-11],[-24,-84]],[[3748,9324],[20,44],[32,30],[51,-10],[78,-7]],[[3929,9381],[-13,-70],[-15,-15]],[[3929,9381],[66,-5]],[[3565,9207],[-31,-37],[-50,28],[-14,-6],[-21,-22]],[[3449,9170],[-22,2],[-5,-9],[-56,5],[-192,40],[-52,8],[35,42],[16,26]],[[3508,9093],[-50,4],[-5,22],[21,-2],[8,31],[-14,1],[16,16],[-35,5]],[[3482,9005],[-60,24],[-77,23],[-47,7],[-29,0],[-66,-8],[6,31],[18,56]],[[3227,9138],[44,0],[116,-20],[22,-6],[38,-21],[59,-20],[21,0]],[[3227,9138],[-64,2],[-22,3],[-67,26],[-33,4],[-59,-3],[-51,3],[113,123]],[[4541,8670],[-58,12],[-42,-92],[-61,-2],[-12,2],[-89,-31],[-59,-8],[15,-14],[-103,-74]],[[4317,8847],[43,-10],[31,-20],[17,-20],[0,-19],[13,-24],[40,-19],[65,-41],[15,-24]],[[4641,8732],[-31,1],[8,-27],[-3,-19]],[[4615,8687],[-32,-27],[-42,10]],[[4374,8883],[133,-1],[33,-24],[70,-34],[71,-16]],[[4681,8808],[-23,-5],[-2,-34],[-15,-37]],[[4835,8705],[-8,-29],[-35,3]],[[4792,8679],[1,8],[-46,3],[-93,19],[-6,-27],[-33,5]],[[4641,8732],[8,-2],[149,12],[-1,-18],[36,-9],[2,-10]],[[4835,8705],[52,-7],[44,-12],[50,-4],[17,31],[43,-7],[-10,-33],[-14,2],[-30,-54],[-38,9],[-7,-12],[-18,7],[-74,2],[3,18],[-66,6],[5,28]],[[3666,7869],[-42,48],[-35,-22],[-33,-26]],[[3556,7869],[-12,-2],[-33,22],[75,21],[153,68],[9,12],[63,-2],[10,11],[43,112]],[[3864,8111],[56,152],[37,89],[22,59]],[[4013,8291],[-33,-87],[20,-35],[4,-31],[8,-17],[-2,-22],[17,-3],[-9,-16],[-13,2],[-11,-25],[41,-2],[35,4],[24,8],[-3,8],[29,-2],[46,7],[40,10],[7,-7],[-39,-24],[-50,2],[-64,-8],[-49,-3],[-65,-27],[-28,-29],[-11,-1],[-35,-35],[19,-5],[6,-20],[-4,-25],[-36,4],[-5,-14],[20,-29],[25,-24],[-29,-8],[-23,23],[1,16],[-25,0],[-17,-28],[1,14],[-23,9],[37,38],[-33,13],[-28,-24],[-9,14],[6,26],[-51,4],[-36,-21],[2,-22],[25,-18],[-29,-12]],[[3666,7869],[9,-20],[-12,-7],[-48,10],[-59,17]],[[3545,1707],[-6,-11],[92,-4],[38,2],[-17,-20],[22,-4],[-22,-5],[-20,-24],[-17,3],[-14,-8],[-36,5],[-54,-39],[-2,-29],[-15,4],[1,22],[-23,32],[-20,1],[3,14],[-52,5],[-4,15],[14,9],[16,-6],[25,3],[22,30],[32,5],[11,12],[25,11],[14,-13],[-13,-10]],[[4281,9083],[32,-17],[43,-5],[52,-19],[19,-2],[318,-83],[-76,-18],[58,-24],[27,-14],[-15,-6],[-29,0],[-26,-15],[75,-10],[-18,-60],[-18,-4],[-42,2]],[[3864,8111],[-99,38],[-57,44],[13,7],[-60,28],[-90,10],[-103,17],[-25,28],[12,37],[72,-1],[266,5],[10,70]],[[263,3963],[-12,-6],[12,-23],[-24,-34],[-25,-21],[22,-4],[-11,-9],[-43,8],[-35,-7],[-18,9],[-10,-6],[20,-14],[-23,-4],[-7,-9],[41,-6],[-5,-10],[-17,2],[-4,-18],[-23,2],[9,-29],[-15,-11],[7,-8],[-1,-22],[34,-11],[-28,-22],[-9,-20],[-22,-1],[5,26],[-44,-5],[-2,16],[-18,0],[3,12],[27,5],[-1,24],[9,10],[-46,0],[6,108],[30,1],[22,16],[-21,8],[-18,-1],[23,15],[-41,2],[-10,25],[52,1],[38,-17],[35,15],[21,2],[36,13],[-2,6],[48,0],[22,-9],[0,11],[40,12],[15,-6],[-42,-16]],[[8403,8845],[-14,-10],[26,-7],[-6,-7],[49,-26],[-19,-6],[51,-42],[-10,-5],[3,-15],[18,1],[32,-41],[1,-12],[-35,3],[0,-37],[23,-24],[27,-14],[104,-30],[-5,-6],[-136,31],[-33,-3],[-13,10],[13,22],[-6,21],[-31,35],[-23,8],[-14,-3],[4,18],[-29,91],[-30,17],[3,22],[9,8],[35,10],[6,-9]],[[8016,2863],[0,-15],[-17,-33],[-58,-51],[-32,-1],[-28,-37],[-8,-1],[-38,-32],[-2,-15],[-19,-1],[5,10],[-33,15],[13,9],[32,1],[25,27],[-13,5],[72,55],[3,7],[41,26],[-43,19],[27,15],[34,-6],[13,34],[-8,10],[40,-12],[-6,-29]],[[6098,1224],[5,-15],[39,-5],[27,-36],[23,2],[16,-13],[65,19],[7,-10],[-24,0],[-45,-16],[-38,-8],[-24,-10],[-7,-13],[12,-14],[18,-3],[-2,-12],[18,-15],[-27,3],[-9,18],[-24,27],[-30,-3],[-43,-18],[-36,-8],[-24,-12],[-6,-12],[11,-22],[18,5],[23,-10],[-37,-11],[-18,13],[-34,-2],[-54,-11],[-31,-12],[-24,-1],[-20,26],[74,22],[-17,12],[54,7],[0,-8],[87,25],[11,19],[-24,3],[9,23],[-8,12],[15,0],[7,-11],[48,-2],[36,9],[-17,13],[2,25],[-8,-2],[1,25],[-14,3],[1,13],[18,-9]],[[4247,4103],[41,-29],[-11,-13],[26,-10],[-34,-8],[-8,-30],[-18,-10],[-30,-6],[-26,15],[-46,34],[-59,8],[20,9],[0,21],[-24,21],[21,5],[-7,9],[27,13],[-17,13],[15,10],[-32,17],[-17,27],[11,2],[15,-14],[32,-21],[41,-17],[8,-9],[47,-4],[25,-33]],[[8669,3744],[25,-13],[-9,-12],[12,-4],[-19,-28],[4,-5],[-72,19],[-79,-19],[-3,3],[-95,-23],[-26,-1],[-1,10],[109,27],[63,25],[43,26],[18,-5],[62,39],[13,-7],[-45,-32]],[[2562,2265],[-2,-6],[-52,3],[-8,-11],[-30,-10],[5,-11],[-56,-20],[-35,-20],[-9,5],[-10,-16],[-46,4],[-1,17],[-42,5],[-38,-9],[-80,-4],[-31,-12],[-42,-4],[-36,-16],[-1,19],[36,6],[13,7],[54,2],[-2,7],[46,12],[60,7],[56,3],[79,16],[36,15],[35,22],[29,4],[-6,40],[37,0],[1,-16],[-10,-25],[53,-6],[-3,-8]],[[2143,6145],[-67,-42],[11,-12],[-28,-25],[-6,-31],[7,-10],[-25,-11],[-22,13],[-8,18],[-13,6],[18,11],[-16,8],[45,23],[-26,18],[19,33],[54,-12],[18,12],[26,7],[13,-6]],[[3265,5604],[29,-12],[12,6],[24,-3],[11,-17],[-49,-23],[0,-22],[-44,-5],[-21,26],[-2,24],[-10,29],[29,2],[21,-5]],[[1407,2767],[19,-3],[-14,-28],[11,-20],[-5,-18],[-21,-18],[25,-18],[51,-2],[31,10],[31,-6],[-4,-10],[-62,-19],[-12,-9],[-57,19],[-23,3],[-51,22],[-6,11],[-34,13],[5,14],[28,5],[-4,18],[-25,30],[117,6]],[[6203,3030],[-15,-16],[28,-1],[0,-6],[41,1],[-8,-20],[-29,10],[-27,3],[-3,-7],[-46,-1],[-65,9],[-16,7],[-13,-7],[-24,3],[43,13],[34,-8],[-3,7],[58,13],[8,-3],[33,19],[13,-4],[-9,-12]],[[3549,9459],[-30,87],[44,7],[32,0],[0,-18],[17,-60],[30,-66],[1,-62],[-19,-7]]]}
