{"type":"Topology","bbox":[-76.41669542101806,8.787853777398329,-76.15086239508781,8.900570789572441],"transform":{"scale":[0.000026585961189143798,0.00001127282850026126],"translate":[-76.41669542101806,8.787853777398329]},"objects":{"municipios":{"type":"GeometryCollection","geometries":[{"type":"Polygon","arcs":[[0,1]],"properties":{"codigo":"23419100000000000103","sector":"234191000000000001","pcode":"CO23419","area_m2":134955}},{"type":"Polygon","arcs":[[2,3]],"properties":{"codigo":"23419100000000000101","sector":"234191000000000001","pcode":"CO23419","area_m2":59542}},{"type":"Polygon","arcs":[[-1,4,5,-4,6,7,8,9]],"properties":{"codigo":"23419100000000000102","sector":"234191000000000001","pcode":"CO23419","area_m2":313161}},{"type":"Polygon","arcs":[[-6,10,11,12,-7,-3]],"properties":{"codigo":"23419100000000000104","sector":"234191000000000001","pcode":"CO23419","area_m2":225330}},{"type":"Polygon","arcs":[[13]],"properties":{"codigo":"23419200202004000101","sector":"234192002020040001","pcode":"CO23419","area_m2":82145}},{"type":"Polygon","arcs":[[14]],"properties":{"codigo":"23419200402012000101","sector":"234192004020120001","pcode":"CO23419","area_m2":77989}},{"type":"Polygon","arcs":[[-12,15]],"properties":{"codigo":"23419100000000000105","sector":"234191000000000001","pcode":"CO23419","area_m2":103351}},{"type":"Polygon","arcs":[[-9,16]],"properties":{"codigo":"23419100000000000106","sector":"234191000000000001","pcode":"CO23419","area_m2":21028}},{"type":"Polygon","arcs":[[17]],"properties":{"codigo":"23419200208030000101","sector":"234192002080300001","pcode":"CO23419","area_m2":241560}},{"type":"Polygon","arcs":[[18]],"properties":{"codigo":"23419200403002000101","sector":"234192004030020001","pcode":"CO23419","area_m2":143434}},{"type":"Polygon","arcs":[[19]],"properties":{"codigo":"23419200101005000101","sector":"234192001010050001","pcode":"CO23419","area_m2":109316}},{"type":"Polygon","arcs":[[20]],"properties":{"codigo":"23419200301011000101","sector":"234192003010110001","pcode":"CO23419","area_m2":49179}},{"type":"Polygon","arcs":[[21]],"properties":{"codigo":"23419200303013000101","sector":"234192003030130001","pcode":"CO23419","area_m2":54564}},{"type":"Polygon","arcs":[[22]],"properties":{"codigo":"23419200404020000101","sector":"234192004040200001","pcode":"CO23419","area_m2":41381}},{"type":"Polygon","arcs":[[23]],"properties":{"codigo":"23419200203026000101","sector":"234192002030260001","pcode":"CO23419","area_m2":122884}},{"type":"Polygon","arcs":[[24]],"properties":{"codigo":"23419200205010000102","sector":"234192002050100001","pcode":"CO23419","area_m2":28990}},{"type":"Polygon","arcs":[[25]],"properties":{"codigo":"23419200205010000101","sector":"234192002050100001","pcode":"CO23419","area_m2":66591}},{"type":"Polygon","arcs":[[26]],"properties":{"codigo":"23419200203019000101","sector":"234192002030190001","pcode":"CO23419","area_m2":38422}},{"type":"Polygon","arcs":[[27]],"properties":{"codigo":"23419200302025000101","sector":"234192003020250001","pcode":"CO23419","area_m2":38749}}]}},"arcs":[[[2393,9396],[-9,20],[-64,161],[15,49],[-21,27],[18,100],[7,55]],[[2339,9808],[14,-15],[15,-24],[14,-41],[7,-18],[15,-29],[11,-27],[6,-25],[2,-31],[2,-17],[9,-12],[13,1],[23,19],[6,2],[11,-4],[12,-27],[8,-38],[-1,-27],[-4,-13],[-7,-9],[-46,-22],[-25,-18],[-16,-16],[-15,-21]],[[2290,9229],[-25,18],[-15,-48],[-10,-37],[-5,10],[-9,34],[-2,-7],[-13,17]],[[2211,9216],[7,32],[-7,13],[38,158],[9,-11],[13,57],[23,-38],[9,-21],[10,-26],[-10,-27],[6,-6],[-19,-118]],[[2393,9396],[-13,-26],[-12,-37],[-3,-26],[5,-75],[12,-36],[7,-37],[8,-22],[25,-47],[4,-19],[-2,-17],[-15,-28],[-4,-19],[2,-17],[22,-45],[-8,-7],[-19,-12],[-15,-4],[-14,0]],[[2373,8922],[-2,27],[-8,47],[-4,77],[0,49],[-9,100],[-16,0],[0,-22],[-18,13],[-26,16]],[[2211,9216],[-21,-111]],[[2190,9105],[-2,2],[-45,63],[76,341],[-1,2],[-19,8],[57,222],[-4,5],[3,9],[12,21],[12,29]],[[2279,9807],[2,-3],[7,25],[2,17],[15,9]],[[2305,9855],[3,-13],[8,-13],[23,-21]],[[2373,8922],[0,-59],[0,-5]],[[2373,8858],[-4,-2],[-10,-26],[-3,-18],[-8,-14],[-11,-25],[-11,-11],[-6,-13],[-9,-11]],[[2311,8738],[-9,19],[-8,25],[-2,37],[1,71],[-26,26],[-2,7],[2,94],[-3,19],[-44,-146],[-58,44],[-3,1],[31,170]],[[93,8808],[16,-130],[-46,-30],[-3,27],[-2,9],[-10,5],[-5,17],[-11,10],[-6,0],[1,21],[-3,11],[-3,32],[-5,5],[-11,1],[-4,7],[4,25],[-5,22],[3,23],[0,26],[5,11],[0,25],[18,17],[17,9],[20,24],[13,3],[14,18],[4,-3],[-10,-37],[-2,-21],[0,-41],[3,-34],[6,-34],[2,-18]],[[9715,8433],[7,-30],[11,1],[12,4],[39,4],[6,-53],[-15,-3],[-2,3],[-6,-74],[6,-27],[9,-29],[-1,-5],[9,-31],[-8,-10],[2,-10],[7,5],[5,-2],[16,-20],[14,-53],[18,-36],[21,-19],[-14,-60],[24,-32],[-4,-18],[3,-10],[-3,-12],[-31,43],[-6,13],[3,23],[-11,13],[-1,9],[-5,-4],[-6,-18],[-7,22],[-14,-18],[-8,31],[10,18],[-8,28],[-3,32],[-31,129],[-22,71],[3,5],[-8,27],[-10,-11],[-22,79],[-2,14],[7,11],[2,-10],[13,16],[1,-6]],[[2373,8858],[2,-11],[7,5],[5,-23],[7,-2],[3,-24],[0,-38],[1,-18],[5,-2],[19,-36],[-4,-34],[-6,-19],[7,-20],[5,-21],[3,4],[24,-34],[5,-26],[-7,-4],[-11,-27],[-2,-11],[-21,-16],[-27,6],[-1,38],[0,26],[-1,15],[-2,45],[-3,15],[-7,-34],[-10,-23],[-5,-18],[-14,24],[-5,-8],[-11,-34],[-34,20],[4,51],[12,49],[2,13],[-1,42],[-1,10]],[[2279,9807],[-6,14],[-3,16],[-2,41],[9,92],[0,14],[16,13],[18,2],[2,-24],[-4,-47],[-6,-34],[2,-39]],[[4522,2496],[69,-61],[-2,-16],[27,-45],[-91,-208],[-4,-10],[-53,-3],[-9,0],[0,-16],[-5,-14],[-14,4],[-12,13],[-12,5],[-36,-3],[0,6],[-23,0],[-1,33],[23,6],[-5,66],[62,13],[-1,15],[-16,6],[0,55],[-27,59],[7,23],[-2,32],[-4,14],[19,-2],[-3,32],[-7,22],[23,61],[9,-9],[88,-78]],[[8157,5483],[9,-5],[9,1],[4,-4],[15,4],[13,-19],[12,-3],[12,12],[10,-5],[4,-10],[-1,-51],[3,-16],[13,4],[7,-17],[-2,-20],[34,15],[0,-121],[12,-9],[6,-20],[3,-4],[2,13],[4,4],[6,-3],[13,1],[-1,-46],[-2,-32],[-38,23],[-44,19],[-1,-18],[-41,-1],[-1,19],[-55,-10],[-16,304],[5,3],[6,-8]],[[2753,306],[-1,-23],[35,-16],[29,-15],[10,27],[15,-26],[-12,-27],[50,-15],[6,-23],[-6,-6],[-15,1],[-45,26],[-9,-52],[-8,-51],[-26,19],[-5,-30],[-8,5],[-3,-26],[-18,10],[-4,-46],[-2,-38],[-11,9],[-26,17],[7,71],[-18,13],[1,21],[-15,6],[15,133],[1,14],[6,31],[30,-22],[5,25],[22,-12]],[[4922,6722],[-10,-68],[-7,-47],[-20,-66],[-12,-28],[-13,-31],[-50,-95],[-19,69],[53,107],[35,99],[10,38],[11,-12],[8,48],[14,-14]],[[5706,4877],[16,-63],[-12,-13],[-12,23],[-7,-23],[-6,10],[-6,-13],[-5,12],[-21,-38],[-8,-20],[-7,20],[-3,2],[-20,-5],[2,35],[16,85],[6,41],[6,20],[6,9],[23,24],[17,52],[18,-48],[-17,-50],[15,-59],[-1,-1]],[[9921,2406],[9,-29],[14,23],[7,-21],[-4,-10],[-10,-18],[3,-19],[17,20],[3,-3],[15,19],[10,-47],[5,-35],[9,-62],[-13,-20],[-14,-23],[-9,-24],[-7,25],[-13,28],[-11,53],[-11,50],[-9,49],[-4,15],[2,4],[4,29],[7,-4]],[[151,8369],[10,-76],[12,-90],[10,-70],[9,-82],[5,-30],[0,-17],[-104,-12],[-7,-2],[-2,20],[0,24],[-2,5],[0,15],[4,6],[-2,21],[1,21],[5,28],[-4,30],[1,22],[-2,10],[1,19],[-3,0],[1,26],[-2,18],[4,23],[1,26],[-2,8],[-3,40],[6,14],[31,4],[32,-1]],[[4832,7744],[-10,-11],[-11,5],[-5,-21],[-14,-36],[-16,-19],[-10,-20],[-6,14],[-8,33],[-3,25],[-2,45],[0,9],[-13,5],[1,29],[8,4],[46,-24],[47,-23],[-4,-15]],[[4616,7729],[-2,-9],[4,-33],[-11,-32],[10,-31],[-5,-11],[-8,-8],[-1,10],[-8,21],[-5,-15],[-16,-18],[-4,-12],[0,-30],[-12,-8],[-7,2],[-15,21],[-10,-4],[-3,9],[14,21],[-2,11],[-16,46],[-6,-26],[-9,-17],[-14,-14],[-8,-5],[-12,42],[-2,13],[-3,32],[39,18],[-1,34],[27,10],[1,-10],[18,8],[2,-21],[29,13],[41,17],[-1,-12],[-4,-12]],[[2037,6560],[-4,-32],[2,-12],[11,-5],[10,-19],[-15,-36],[-3,-1],[-13,-33],[-4,7],[2,6],[-8,17],[-10,-10],[-13,-8],[-23,1],[-9,34],[26,85],[10,5],[8,71],[28,-12],[-5,-40],[10,-18]],[[6983,4533],[13,-36],[-22,-57],[6,-38],[-2,-2],[2,-20],[-15,-5],[-1,7],[-21,-6],[-1,29],[1,9],[-42,0],[-1,54],[4,1],[0,20],[11,5],[0,8],[6,11],[-6,43],[27,11],[12,-68],[18,14],[11,20]]]}
