{"type":"Topology","bbox":[-73.59158344304927,4.638774110691343,-73.45681251884815,4.706784703258365],"transform":{"scale":[0.000013478440264138472,0.000006801739430645289],"translate":[-73.59158344304927,4.638774110691343]},"objects":{"municipios":{"type":"GeometryCollection","geometries":[{"type":"Polygon","arcs":[[0,1,2,3]],"properties":{"codigo":"25293100000000000102","sector":"252931000000000001","pcode":"CO25293","area_m2":38517}},{"type":"Polygon","arcs":[[-2,4,5,6]],"properties":{"codigo":"25293100000000000103","sector":"252931000000000001","pcode":"CO25293","area_m2":70249}},{"type":"Polygon","arcs":[[-5,-1,7]],"properties":{"codigo":"25293100000000000104","sector":"252931000000000001","pcode":"CO25293","area_m2":64434}},{"type":"Polygon","arcs":[[8]],"properties":{"codigo":"25293200201003000101","sector":"252932002010030001","pcode":"CO25293","area_m2":11627}},{"type":"Polygon","arcs":[[-3,-7,9]],"properties":{"codigo":"25293100000000000101","sector":"252931000000000001","pcode":"CO25293","area_m2":157442}},{"type":"Polygon","arcs":[[10]],"properties":{"codigo":"25293200103006000101","sector":"252932001030060001","pcode":"CO25293","area_m2":109186}}]}},"arcs":[[[5411,8485],[-8,-113],[-8,-186],[-13,-107]],[[5382,8079],[-75,11]],[[5307,8090],[1,79],[33,9],[6,93],[-42,-14],[1,120],[20,116]],[[5326,8493],[33,-6],[2,32],[33,-6],[17,-28]],[[5382,8079],[-18,-229],[41,2]],[[5405,7852],[22,-21],[16,-134],[-51,-38],[0,-19],[-39,2],[0,20],[-45,9],[10,-57],[-42,-26],[3,-13],[-48,-33],[-23,73]],[[5208,7615],[55,31],[16,214],[-9,138],[-15,96],[52,-4]],[[5411,8485],[42,-18],[5,24],[22,-7],[-5,-25],[59,-85],[36,-33],[-71,-166],[-54,-147],[-38,-59],[-12,-38],[14,-31],[-4,-48]],[[133,202],[-37,-101],[-15,-6],[-55,-62],[-12,-33],[-14,77],[79,51],[-22,40],[11,42],[8,-12],[27,56],[30,-52]],[[5208,7615],[-86,-31],[-86,-18],[40,78],[37,97],[0,27],[21,99],[-11,9],[9,77],[20,-9],[1,23],[20,35],[-31,60],[-59,43],[38,113],[40,39],[31,64],[7,61],[-7,32],[17,39],[12,91],[7,-11],[98,-40]],[[9969,9975],[27,14],[3,-32],[-30,-24],[-79,-29],[-43,-65],[-118,-80],[-13,-25],[-23,-102],[-25,-58],[-35,-49],[-16,-36],[-42,-18],[-46,-44],[-19,-6],[-30,-76],[-27,-1],[-39,58],[-53,29],[-31,48],[-7,-12],[-14,45],[-50,9],[6,52],[-23,49],[13,184],[44,-38],[41,-82],[37,15],[55,-39],[-7,-88],[18,-4],[7,-83],[21,-4],[35,20],[5,-37],[37,38],[67,93],[33,21],[24,30],[10,39],[-30,13],[6,64],[34,-14],[11,36],[25,29],[-3,59],[108,46],[1,-33],[42,51],[-6,41],[16,12],[6,-38],[58,11],[0,32],[19,3],[0,-24]]]}
