{"type":"Topology","bbox":[-74.73819962058553,4.395395759814552,-74.62005207169369,4.470855511148819],"transform":{"scale":[0.00001181593648283237,0.00000754672980640727],"translate":[-74.73819962058553,4.395395759814552]},"objects":{"municipios":{"type":"GeometryCollection","geometries":[{"type":"Polygon","arcs":[[0,1,2,3,4]]},{"type":"Polygon","arcs":[[-4,5,6,7]]},{"type":"Polygon","arcs":[[8,9,10,11,-3]]},{"type":"Polygon","arcs":[[12,13,14,-5,-8,15,16]]},{"type":"Polygon","arcs":[[17,-13,18]]},{"type":"Polygon","arcs":[[19]]},{"type":"Polygon","arcs":[[20,21,22]]},{"type":"Polygon","arcs":[[23]]},{"type":"Polygon","arcs":[[-7,24,25,-23,26,-16]]},{"type":"Polygon","arcs":[[27,28,-21,-26,29]]},{"type":"Polygon","arcs":[[-28,30,31]]},{"type":"Polygon","arcs":[[-31,-30,-25,32,33]]},{"type":"Polygon","arcs":[[34,-33,-6,-12]]},{"type":"Polygon","arcs":[[35,36,37,38,-14,-18,39]]},{"type":"Polygon","arcs":[[40,-1,-15,-39,41]]},{"type":"Polygon","arcs":[[42,43,-9,-2,-41]]},{"type":"Polygon","arcs":[[44,-10,-44,45,46]]},{"type":"Polygon","arcs":[[47,-46,-43,-42,-38]]},{"type":"Polygon","arcs":[[48,49,-36]]},{"type":"Polygon","arcs":[[50,-47,-48,-37,-50]]},{"type":"Polygon","arcs":[[51]]},{"type":"Polygon","arcs":[[52]]}]}},"arcs":[[[8568,8592],[19,-120]],[[8587,8472],[-10,-136],[0,-169],[33,-60],[52,-17]],[[8662,8090],[0,-56],[-73,47],[-21,43],[-135,101],[-67,23],[-64,3],[-50,-22]],[[8252,8229],[2,42],[71,74],[60,28],[-108,61],[21,135]],[[8298,8569],[7,65],[82,-13],[101,43],[1,-97],[79,25]],[[8252,8229],[-107,-75],[-142,-138]],[[8003,8016],[-19,137],[-31,183],[5,159]],[[7958,8495],[31,-9],[3,40],[55,-11],[5,67],[35,46],[102,-18],[11,-64],[98,23]],[[8662,8090],[1,17],[58,-1]],[[8721,8106],[-10,-28],[-44,-230]],[[8667,7848],[-40,4],[-151,-32]],[[8476,7820],[-1,44],[-26,-1],[-29,280],[-174,62],[6,24]],[[8134,8971],[76,-24],[158,36],[50,-4],[50,-76],[38,65]],[[8506,8968],[-1,-97]],[[8505,8871],[11,-19],[14,-111],[38,-149]],[[7958,8495],[14,91],[36,130],[-5,22],[27,266]],[[8030,9004],[28,-17],[76,-16]],[[8612,9128],[-44,-40],[-28,-71],[-34,-49]],[[8134,8971],[1,7],[-71,521],[-34,287],[35,96],[25,116],[121,-96],[42,-47],[-9,-117],[46,-38],[70,-81],[-6,-51],[109,-102],[26,-13],[5,-75],[-10,-51],[26,27],[52,-20],[9,-88],[22,-41],[-45,2],[8,-95],[26,23],[30,-7]],[[146,2037],[20,-59],[-73,-29],[77,-25],[77,-62],[21,-61],[50,-506],[-34,-215],[63,17],[35,-71],[-80,-60],[-32,-9],[45,-164],[75,-63],[45,122],[-50,77],[84,122],[19,-105],[24,23],[35,-96],[-20,-89],[46,-159],[-15,-10],[45,-201],[24,-71],[-29,-19],[-45,18],[-75,-44],[2,-101],[52,17],[10,-123],[-83,-71],[-51,-20],[-1,41],[-69,-28],[-2,41],[-31,129],[59,31],[-58,153],[-77,-147],[-26,-32],[-46,125],[-1,67],[74,69],[21,183],[60,-18],[4,67],[-14,-3],[-21,129],[-88,191],[-17,81],[14,35],[17,117],[-3,121],[-20,398],[-26,36],[-157,126],[29,87],[22,-13],[84,88],[11,-37]],[[7682,8041],[-14,-92]],[[7668,7949],[-159,185],[60,126],[70,125],[72,3],[1,-129],[22,-83]],[[7734,8176],[-18,-74],[-34,-61]],[[7227,7356],[18,-54],[-121,-93],[31,-93],[-39,-36],[-157,-110],[-51,6],[-86,-47],[6,-104],[-152,-112],[-36,-14],[-68,125],[39,19],[-26,275],[83,98],[57,-149],[48,37],[33,97],[30,-38],[29,-7],[61,34],[36,-5],[-31,90],[11,26],[34,-102],[96,71],[-37,99],[58,34],[24,-67],[47,41],[-9,32],[40,33],[32,-86]],[[8003,8016],[-214,-224]],[[7789,7792],[-107,249]],[[7734,8176],[32,43],[-14,43],[24,36],[44,19],[23,104],[-55,14],[45,70],[37,-36],[27,59],[-39,35],[7,77],[40,3],[47,46],[0,94],[-77,14],[7,141],[-20,43],[77,4],[-7,131],[39,2],[59,-114]],[[7669,7669],[-54,130],[37,38],[-11,28]],[[7641,7865],[39,46],[-12,38]],[[7789,7792],[-120,-123]],[[7669,7669],[-166,-169],[-145,-111]],[[7358,7389],[-24,73],[38,61],[6,-113],[30,21],[-15,42],[48,44],[24,72],[36,45],[15,80],[19,16],[15,119],[49,84],[42,-68]],[[8003,8016],[37,-275]],[[8040,7741],[1,-14],[-73,-28],[-122,-77],[-260,-186],[-2,-34],[-47,-45],[-56,-18],[-25,-30],[-47,43],[-52,-12],[-36,22],[37,27]],[[8476,7820],[-2,-36],[-40,-6],[-5,33],[-158,-22],[-231,-48]],[[9461,8965],[-46,-79],[-18,-70],[-8,-118],[-21,-55],[4,-135]],[[9372,8508],[11,-75],[-73,2],[-110,-45]],[[9200,8390],[1,187],[-69,-9],[-84,-26]],[[9048,8542],[-1,111],[-136,7],[-106,17],[-183,56],[-65,92],[-52,46]],[[8612,9128],[97,3],[2,-70],[38,-53],[32,26],[50,-6],[-12,-17],[15,-61],[10,-118],[-44,2],[-13,-42],[38,-1],[49,-56],[3,29],[60,243],[74,-1],[6,88],[20,55],[65,98],[46,29],[52,2],[22,-23],[6,-261],[233,-17],[0,-12]],[[9048,8446],[-86,-1],[-103,14],[-272,13]],[[9048,8542],[0,-96]],[[9048,8446],[4,-201],[10,-129]],[[9062,8116],[-81,-2],[-231,3],[-29,-11]],[[9361,7871],[-146,-29],[-268,-46],[-280,52]],[[9062,8116],[84,18],[-10,122],[78,11]],[[9214,8267],[54,16],[33,49],[27,10],[-5,-46],[38,-425]],[[9200,8390],[14,-123]],[[9461,8965],[86,-96],[51,-78],[97,109],[78,-63],[-33,-43]],[[9740,8794],[-43,-52],[-31,61],[-163,-183],[-69,-66],[4,-32],[-66,-14]],[[9740,8794],[29,-52],[-95,-114],[50,-128],[-14,-39],[44,-32],[49,25],[22,-18],[-60,-77],[-35,-119],[38,1],[94,-130],[69,99],[37,4],[-44,42],[13,58],[34,-17],[28,-172],[-82,-97],[42,-53],[-262,-39],[-336,-65]],[[3609,3839],[13,-143],[25,-348],[-36,17],[-42,51],[-33,-23],[-32,-68],[-8,-210],[-36,19],[-19,39],[4,55],[-36,9],[-5,31],[-60,-3],[1,42],[-34,-1],[-32,137],[57,53],[-6,92],[-19,21],[35,33],[19,71],[-32,53],[-3,40],[-42,3],[-122,-163],[44,-61],[-189,-275],[-38,-47],[-55,103],[32,99],[181,384],[15,21],[165,159],[111,71],[59,61],[115,137],[32,16],[75,-5],[-8,-58],[-38,-5],[-37,-36],[-42,-93],[21,-278]],[[6255,7858],[14,-52],[-28,-5],[18,-60],[47,13],[1,71],[41,4],[12,24],[44,-37],[-19,-76],[3,-38],[-100,-12],[-36,-37],[-1,-46],[-27,-55],[33,-10],[-8,-85],[91,29],[9,-46],[46,34],[11,-31],[-24,-28],[32,-32],[-7,-73],[-36,-101],[-37,-199],[-9,-98],[65,2],[14,-45],[71,43],[27,-125],[-134,-73],[25,-49],[-55,-26],[-31,-57],[8,-15],[-41,-60],[-33,106],[-57,5],[-67,-49],[-12,47],[-178,-122],[-25,172],[36,17],[13,-84],[109,60],[-7,64],[-22,-8],[-15,106],[-41,121],[-41,-10],[-17,95],[-83,-2],[-11,29],[35,42],[38,-5],[-24,40],[3,39],[-45,2],[7,60],[-15,57],[-73,55],[23,124],[35,130],[42,-107],[-3,-72],[18,6],[5,-53],[23,20],[51,-6],[55,42],[5,37],[34,30],[-7,35],[31,16],[7,-43],[36,13],[7,-47],[74,78],[-26,94],[28,9],[6,-51],[29,10],[5,106],[-12,118],[40,25]]]}
