{"type":"Topology","bbox":[-74.01014838616675,5.045446324628464,-73.93617048073395,5.0950405399818],"transform":{"scale":[0.000007398530396319457,0.000004959917527086305],"translate":[-74.01014838616675,5.045446324628464]},"objects":{"municipios":{"type":"GeometryCollection","geometries":[{"type":"Polygon","arcs":[[0]]},{"type":"Polygon","arcs":[[1]]},{"type":"Polygon","arcs":[[2]]},{"type":"Polygon","arcs":[[3]]},{"type":"Polygon","arcs":[[4]]},{"type":"Polygon","arcs":[[5]]},{"type":"Polygon","arcs":[[6,7]]},{"type":"Polygon","arcs":[[8,9,10,11,12]]},{"type":"Polygon","arcs":[[13,14,-9,15,-7]]},{"type":"Polygon","arcs":[[-15,16,17,-10]]},{"type":"Polygon","arcs":[[18,19,20,21,-11,-18]]},{"type":"Polygon","arcs":[[22,-20]]},{"type":"Polygon","arcs":[[23]]},{"type":"Polygon","arcs":[[24]]},{"type":"Polygon","arcs":[[-12,-22,25]]}]}},"arcs":[[[7085,9972],[62,4],[32,-91],[100,-76],[73,-133],[89,-82],[-26,-178],[33,-147],[-51,38],[-35,-108],[-92,60],[-7,99],[-133,-87],[-275,210],[22,108],[-18,73],[45,67],[109,-101],[57,371],[15,-27]],[[5707,3647],[32,-107],[152,-346],[14,30],[125,43],[113,81],[94,-204],[-129,-236],[-146,178],[-171,-159],[-73,119],[-35,-39],[-60,88],[-198,376],[105,47],[172,157],[5,-28]],[[2191,4383],[151,-282],[-170,-267],[-25,-106],[88,-139],[92,-81],[50,35],[40,-84],[-167,-323],[24,-115],[-28,-68],[102,-139],[11,-66],[-82,-93],[-40,55],[-80,-138],[-15,-56],[42,-188],[-27,-187],[-108,4],[-72,39],[-22,55],[55,249],[77,-80],[61,-13],[-16,64],[-70,79],[-196,416],[-71,191],[96,491],[30,-52],[74,-41],[40,145],[-52,90],[-28,-54],[-28,91],[135,146],[-67,153],[24,90],[136,7],[36,172]],[[9971,2413],[20,-97],[-58,-111],[66,-109],[-37,-68],[-21,38],[-49,-107],[-51,-181],[102,-160],[-33,-94],[-17,-143],[-182,259],[-121,-183],[149,-178],[-38,-118],[73,-81],[-283,-176],[95,-96],[-3,-85],[-63,-169],[-115,-70],[144,-220],[-101,-137],[-13,16],[-92,-143],[-412,569],[-129,283],[168,94],[-132,258],[177,272],[247,-317],[129,421],[-207,238],[18,147],[231,-251],[96,110],[-220,305],[90,60],[120,143],[174,-288],[222,315],[56,54]],[[4067,6059],[14,-11],[-85,-195],[-67,-91],[118,-258],[63,-48],[-9,-33],[-132,-113],[-105,-4],[-22,105],[-56,-30],[-3,58],[-47,84],[116,81],[-107,213],[152,61],[37,178],[133,3]],[[9470,5884],[106,-123],[-173,-203],[-57,-81],[69,-102],[-125,-174],[-195,-447],[-123,191],[-101,-146],[-88,144],[-76,-84],[-126,-57],[-34,208],[48,13],[-19,111],[102,36],[29,72],[129,-68],[35,-58],[294,294],[-42,95],[104,78],[63,150],[69,-62],[111,213]],[[5122,3543],[-154,-45],[-91,-50],[8,59],[-52,79],[-25,105]],[[4808,3691],[44,124],[107,245],[11,82],[70,145],[-141,253],[-74,-44],[-68,-129],[34,-96],[-66,-219],[-43,8],[-43,184],[67,46],[110,213],[78,48],[-145,262],[58,100],[145,-329],[74,99],[84,24],[128,216],[58,-136],[-77,-166],[-45,-59],[-123,-254],[92,-161],[-59,-158],[-75,-77],[5,-115],[-77,-138],[28,-85],[43,-14],[110,25],[4,-42]],[[4546,3679],[95,-229]],[[4641,3450],[-104,-99],[-126,291],[-125,-131],[-168,-30]],[[4118,3481],[-126,93],[-64,89]],[[3928,3663],[1,8]],[[3929,3671],[14,196],[49,95],[3,114],[51,100],[25,209],[-29,141],[77,174],[131,-61],[-26,-140],[8,-125],[48,-97],[105,-38],[-13,-138],[149,-13],[22,-216],[-26,-84],[29,-109]],[[5122,3543],[164,62],[108,26],[40,-373],[-164,59],[-72,0],[-100,-50],[107,-213],[-85,-43],[-45,89],[-38,-25],[-47,135],[-74,-32],[-45,186],[-41,64],[-128,-91]],[[4702,3337],[-61,113]],[[4546,3679],[262,12]],[[4702,3337],[-105,-82]],[[4597,3255],[-139,-138],[1,-45],[-57,-144],[-60,-86],[-174,342],[-43,114],[-7,183]],[[4597,3255],[-84,-273],[84,-19],[-20,-183],[-101,44],[-89,-193],[11,-21],[-184,-258],[-55,96]],[[4159,2448],[-33,95],[-64,283],[-233,-249],[-113,-153],[-28,-63]],[[3688,2361],[-61,-203],[-51,44],[41,90],[15,118],[-47,89],[109,167],[-78,160],[41,92],[11,107]],[[3668,3025],[80,35],[153,152],[-127,352],[52,71],[-9,106],[111,-78]],[[4159,2448],[-119,-133],[-48,168],[-52,-105],[-12,30],[-143,-191],[-97,144]],[[307,1659],[42,-3],[481,-229],[-114,-310],[52,-105],[170,-210],[77,-233],[70,-6],[22,-38],[-15,-126],[-71,-35],[-46,51],[-91,22],[-177,-45],[-103,29],[-59,-34],[-46,30],[-119,-40],[-26,26],[-210,6],[-117,-30],[-26,111],[25,57],[-10,75],[36,160],[8,172],[86,-50],[-10,-122],[264,-128],[77,0],[65,-75],[161,-67],[32,94],[123,-113],[58,15],[24,113],[-104,92],[21,53],[-46,5],[-67,223],[-88,128],[-13,64],[-59,92],[-97,66],[-45,-45],[-69,51],[-98,148],[-57,42],[56,139],[33,-20]],[[4617,8001],[7,-167],[39,-142],[1,-125],[28,-139],[-122,-8],[-146,-83],[-80,-93],[-170,158],[43,101],[150,55],[1,96],[65,30],[-32,289],[5,195],[164,-2],[47,-165]],[[3668,3025],[-123,270],[-159,388],[156,263],[-103,168],[8,103],[30,-72],[124,-50],[24,31],[58,-44],[-112,-173],[97,-65],[64,148],[23,-108],[92,-48],[29,-117],[53,-48]]]}
