{"type":"Topology","bbox":[-73.94069991577021,4.5188486480138925,-73.91910949707346,4.6021179885456975],"transform":{"scale":[0.000002159257795454184,0.000008327766829863488],"translate":[-73.94069991577021,4.5188486480138925]},"objects":{"municipios":{"type":"GeometryCollection","geometries":[{"type":"Polygon","arcs":[[0,1,2]],"properties":{"codigo":"25181100000000000103","sector":"251811000000000001","pcode":"CO25181","area_m2":285846}},{"type":"Polygon","arcs":[[3,-1,4]],"properties":{"codigo":"25181100000000000104","sector":"251811000000000001","pcode":"CO25181","area_m2":112794}},{"type":"Polygon","arcs":[[5]],"properties":{"codigo":"25181200101003000101","sector":"251812001010030001","pcode":"CO25181","area_m2":253628}},{"type":"Polygon","arcs":[[6,7,-2]],"properties":{"codigo":"25181100000000000101","sector":"251811000000000001","pcode":"CO25181","area_m2":400760}},{"type":"Polygon","arcs":[[-7,-4,8]],"properties":{"codigo":"25181100000000000102","sector":"251811000000000001","pcode":"CO25181","area_m2":315411}}]}},"arcs":[[[9319,1805],[-181,-41],[-451,-157],[-159,-99],[-250,-37],[-8,-296]],[[8270,1175],[-1056,0]],[[7214,1175],[58,214],[-84,71],[-155,14],[33,66],[283,-5],[-32,152],[262,153],[-10,53],[319,-15],[201,76],[496,74],[193,52],[366,19],[94,67],[324,14],[105,-117],[-36,-131],[72,-27],[178,-4],[43,-34],[-200,-41],[-405,-21]],[[9516,1333],[20,-71],[-598,-8],[1,-80],[-669,1]],[[9319,1805],[116,-129],[-115,-23],[68,-87],[76,-18],[-65,-90],[117,-125]],[[1777,9924],[136,-49],[197,34],[231,-44],[207,61],[353,-111],[189,-11],[-205,-49],[107,-10],[106,-59],[-258,-28],[-160,9],[-125,-25],[3,-59],[-85,1],[-27,-178],[-132,-27],[-521,109],[-144,-2],[-616,-45],[-177,76],[-474,41],[-118,152],[6,124],[-152,54],[-118,10],[212,44],[75,57],[225,-34],[328,25],[8,-25],[256,21],[123,-45],[294,1],[177,-33],[79,15]],[[8270,1175],[-17,-217],[-112,-92],[292,-284],[74,-109],[-246,-130],[-60,-61],[38,-44],[175,-74],[131,-115]],[[8545,49],[-451,-15],[-34,-34],[-638,36],[0,67],[-316,28],[-234,56],[33,181],[-960,56],[-39,-23],[-403,58],[119,94],[141,68],[191,-24],[364,28],[295,-9],[58,96],[-134,13],[-103,58],[424,-16],[115,26],[-19,74],[183,30],[59,137],[18,141]],[[9516,1333],[109,7],[199,-71],[-4,-48],[-131,-36],[-214,-17],[3,-62],[183,-28],[185,-95],[-186,-23],[-25,-74],[-79,-26],[130,-16],[-124,-60],[-7,-59],[429,-10],[15,-70],[-94,-57],[86,-56],[-43,-44],[-711,-53],[-29,-9],[-95,-306],[-568,-71]]]}
