{"type":"Topology","bbox":[-73.8742402019945,4.311390872752102,-73.85973818734277,4.334600792600825],"transform":{"scale":[0.0000014503464998225227,0.0000023212241072830286],"translate":[-73.8742402019945,4.311390872752102]},"objects":{"municipios":{"type":"GeometryCollection","geometries":[{"type":"Polygon","arcs":[[0]],"properties":{"codigo":"25594200201003000101","sector":"255942002010030001","pcode":"CO25594","area_m2":25036}},{"type":"Polygon","arcs":[[1,2]],"properties":{"codigo":"25594100000000000101","sector":"255941000000000001","pcode":"CO25594","area_m2":126411}},{"type":"Polygon","arcs":[[3,-2]],"properties":{"codigo":"25594100000000000102","sector":"255941000000000001","pcode":"CO25594","area_m2":128247}},{"type":"Polygon","arcs":[[4]],"properties":{"codigo":"25594200101002000101","sector":"255942001010020001","pcode":"CO25594","area_m2":95602}}]}},"arcs":[[[5921,814],[175,-173],[131,93],[89,-125],[-107,-181],[-200,-37],[182,-214],[-189,-57],[182,-85],[-354,-28],[-287,188],[-58,-37],[-145,178],[-128,14],[-99,275],[808,189]],[[8894,8402],[-166,-34],[-82,74],[-958,-251],[-2,-26],[-893,-460],[-390,-6],[-154,-123],[65,-90]],[[6314,7486],[20,-92],[-391,-116],[-294,-180],[-244,-31],[-291,123],[-194,194],[18,155],[711,374],[407,123],[245,25],[216,258],[-46,460],[345,250],[589,67],[151,-59],[226,87],[494,34],[105,-59],[-30,-138],[219,-299],[223,-115],[101,-145]],[[8894,8402],[92,28],[183,-143],[-137,-46],[95,-110],[358,166],[353,-304],[157,-276],[-154,-68],[-256,-308],[-352,-129],[-706,-61],[-457,157],[-211,-111],[-480,-103],[-363,230],[-417,-34],[-285,196]],[[1440,9902],[549,-390],[-383,-204],[284,-183],[-52,-87],[172,-140],[-68,-87],[411,-190],[56,-175],[-40,-207],[-326,-253],[79,-241],[410,-329],[503,-285],[213,-49],[243,-132],[-69,-50],[222,-130],[101,59],[207,-65],[415,-246],[-99,-106],[162,-4],[314,-152],[219,-269],[-101,-39],[-285,300],[-403,193],[-771,446],[-822,324],[-616,461],[-77,-43],[-251,362],[186,24],[39,252],[-61,191],[-366,369],[-567,238],[-413,145],[62,76],[-360,198],[-157,244],[109,68],[238,-12],[487,48],[370,167],[236,-97]]]}
