{"type":"Topology","bbox":[-73.60677608394008,5.201440315566044,-73.58597749755967,5.225419692476127],"transform":{"scale":[0.000002080066644705303,0.000002398177508759121],"translate":[-73.60677608394008,5.201440315566044]},"objects":{"municipios":{"type":"GeometryCollection","geometries":[{"type":"Polygon","arcs":[[0,1,2,3,4]],"properties":{"codigo":"25873100000000000103","sector":"258731000000000001","pcode":"CO25873","area_m2":93164}},{"type":"Polygon","arcs":[[-3,5,6]],"properties":{"codigo":"25873100000000000101","sector":"258731000000000001","pcode":"CO25873","area_m2":189112}},{"type":"Polygon","arcs":[[7,8,-6,-2]],"properties":{"codigo":"25873100000000000102","sector":"258731000000000001","pcode":"CO25873","area_m2":454533}},{"type":"Polygon","arcs":[[9,-5,10]],"properties":{"codigo":"25873100000000000104","sector":"258731000000000001","pcode":"CO25873","area_m2":620044}},{"type":"Polygon","arcs":[[-8,-1,-10,11]],"properties":{"codigo":"25873100000000000105","sector":"258731000000000001","pcode":"CO25873","area_m2":472213}}]}},"arcs":[[[5914,5836],[-421,-367]],[[5493,5469],[-126,49],[-469,58],[-460,142],[19,52],[-428,83],[-407,-34]],[[3622,5819],[-20,114],[271,400],[-153,66],[283,225],[296,161],[-21,33]],[[4278,6818],[138,62]],[[4416,6880],[214,-355],[638,-378],[646,-311]],[[3622,5819],[-290,-305],[-104,-376],[-223,-398]],[[3005,4740],[-610,353],[129,145],[-8,112],[-861,311],[117,198],[-382,153],[116,184],[509,-194],[92,786],[294,-118],[151,268],[391,87],[532,-153],[39,56],[315,-59],[136,78],[118,-245],[195,116]],[[5493,5469],[-247,-216],[185,-82],[295,129],[101,-52],[124,85],[158,-87]],[[6109,5246],[190,-333],[-30,-183],[-243,-84],[-172,107],[-231,-93],[-78,-117],[-251,128],[-85,-178],[-224,-88],[-338,2],[-388,-317],[-37,329],[-865,-655],[-999,-733],[-377,-367],[-215,-282],[-290,-580],[-441,-1237],[-69,-70],[-158,-414],[-325,-70],[-116,75],[-367,-86],[539,1268],[140,430],[276,465],[180,208],[209,312],[-136,69],[21,102],[307,619],[199,-170],[401,589],[186,201],[450,311],[233,336]],[[7752,8988],[-134,-6],[7,-295],[-211,-1022],[-270,-675],[-309,-399],[-220,-216],[-701,-539]],[[4416,6880],[-105,54],[-233,500],[49,104],[-65,199],[-208,125],[-375,-112],[-121,94],[412,293],[172,164],[777,-502],[221,222],[-148,94],[160,85],[-561,312],[-460,337],[-158,166],[204,84],[755,-439],[284,283],[36,119],[332,313],[139,221],[-143,58],[265,345],[224,-52],[114,-99],[170,115],[42,-383],[362,309],[372,108],[78,-94],[-228,-180],[199,-299],[-78,-232],[198,-113],[222,42],[270,265],[-110,294],[250,48],[126,-52],[-96,-267],[463,26],[-4,-111],[-350,-103],[-117,-233]],[[7752,8988],[155,-375],[213,-228],[553,-184],[85,-120],[99,-723],[691,-175],[-127,-554],[23,-370],[486,-5],[69,-474],[-630,-259],[-559,-30],[-388,-142],[-268,286],[-184,63],[-133,-202],[-198,-98],[-367,-7],[-103,-40],[-194,-202],[-197,-66],[-231,9],[-94,-54],[-344,208]]]}
