{"type":"Topology","bbox":[-73.8412354370451,5.268203789505075,-73.7925421401116,5.3509198105000735],"transform":{"scale":[0.000004869816675016802,0.000008272429342434063],"translate":[-73.8412354370451,5.268203789505075]},"objects":{"municipios":{"type":"GeometryCollection","geometries":[{"type":"Polygon","arcs":[[0,1]],"properties":{"codigo":"25843200104014000101","sector":"258432001040140001","pcode":"CO25843","area_m2":52641}},{"type":"Polygon","arcs":[[2,-1]],"properties":{"codigo":"25843200104014000102","sector":"258432001040140001","pcode":"CO25843","area_m2":21093}},{"type":"Polygon","arcs":[[3]],"properties":{"codigo":"25843200103001000101","sector":"258432001030010001","pcode":"CO25843","area_m2":229453}},{"type":"Polygon","arcs":[[4]],"properties":{"codigo":"25843100000000000210","sector":"258431000000000002","pcode":"CO25843","area_m2":27253}},{"type":"Polygon","arcs":[[5,6,7]],"properties":{"codigo":"25843100000000000105","sector":"258431000000000001","pcode":"CO25843","area_m2":55525}},{"type":"Polygon","arcs":[[8,9,10,11,12,13,14]],"properties":{"codigo":"25843100000000000205","sector":"258431000000000002","pcode":"CO25843","area_m2":267308}},{"type":"Polygon","arcs":[[15,16]],"properties":{"codigo":"25843200103009000101","sector":"258432001030090001","pcode":"CO25843","area_m2":1407968}},{"type":"Polygon","arcs":[[17,18,19,20,21,22,23]],"properties":{"codigo":"25843100000000000203","sector":"258431000000000002","pcode":"CO25843","area_m2":737996}},{"type":"Polygon","arcs":[[24,25,26,27]],"properties":{"codigo":"25843100000000000104","sector":"258431000000000001","pcode":"CO25843","area_m2":371176}},{"type":"Polygon","arcs":[[28,-27,29,30]],"properties":{"codigo":"25843100000000000103","sector":"258431000000000001","pcode":"CO25843","area_m2":196659}},{"type":"Polygon","arcs":[[31,32,-10,33]],"properties":{"codigo":"25843100000000000207","sector":"258431000000000002","pcode":"CO25843","area_m2":32755}},{"type":"Polygon","arcs":[[34,-21]],"properties":{"codigo":"25843200104011000101","sector":"258432001040110001","pcode":"CO25843","area_m2":308593}},{"type":"Polygon","arcs":[[35,36,37]],"properties":{"codigo":"25843200102005000101","sector":"258432001020050001","pcode":"CO25843","area_m2":502402}},{"type":"Polygon","arcs":[[38,-32]],"properties":{"codigo":"25843100000000000208","sector":"258431000000000002","pcode":"CO25843","area_m2":46027}},{"type":"Polygon","arcs":[[39]],"properties":{"codigo":"25843200101007000101","sector":"258432001010070001","pcode":"CO25843","area_m2":1010748}},{"type":"Polygon","arcs":[[-19,40]],"properties":{"codigo":"25843100000000000209","sector":"258431000000000002","pcode":"CO25843","area_m2":116454}},{"type":"Polygon","arcs":[[41,42,43,-12,44]],"properties":{"codigo":"25843100000000000201","sector":"258431000000000002","pcode":"CO25843","area_m2":175599}},{"type":"Polygon","arcs":[[-6,45,-43,46,-36,47,48]],"properties":{"codigo":"25843100000000000101","sector":"258431000000000001","pcode":"CO25843","area_m2":459985}},{"type":"Polygon","arcs":[[-42,49,-30,-26,50,-37,-47]],"properties":{"codigo":"25843100000000000102","sector":"258431000000000001","pcode":"CO25843","area_m2":586109}},{"type":"Polygon","arcs":[[51,-28,-29,52,-23]],"properties":{"codigo":"25843100000000000204","sector":"258431000000000002","pcode":"CO25843","area_m2":417998}},{"type":"Polygon","arcs":[[-39,-34,-9,53,-24,-53,-31,-50,-45,-11,-33]],"properties":{"codigo":"25843100000000000202","sector":"258431000000000002","pcode":"CO25843","area_m2":582173}},{"type":"Polygon","arcs":[[-16,54,-14,55,-7,-49,56]],"properties":{"codigo":"25843200103010000101","sector":"258432001030100001","pcode":"CO25843","area_m2":459445}},{"type":"Polygon","arcs":[[-44,-46,-8,-56,-13]],"properties":{"codigo":"25843100000000000206","sector":"258431000000000002","pcode":"CO25843","area_m2":314940}}]}},"arcs":[[[4513,35],[-41,126],[-61,42]],[[4411,203],[70,178],[182,67],[11,-59],[-40,-81],[74,-71],[201,-33],[-38,-60],[-164,-105],[-194,-4]],[[4513,35],[-393,-35],[-26,5],[53,70],[122,20],[142,108]],[[9067,9974],[21,15],[199,-53],[-29,-43],[28,-45],[104,-55],[147,-20],[123,-34],[135,37],[131,10],[73,-20],[-191,-242],[-17,-107],[17,-134],[-317,22],[-126,25],[-289,21],[-38,46],[-25,96],[-31,33],[25,93],[-52,63],[13,29],[91,18],[-90,66],[-4,43],[-156,11],[-5,21],[87,76],[91,48],[85,-20]],[[3673,3443],[-15,-60],[-205,56],[-61,-18],[-138,135],[154,28],[229,74],[17,-30],[-116,-62],[135,-123]],[[6353,5431],[-321,133],[46,26],[278,198],[72,33]],[[6428,5821],[200,-113]],[[6628,5708],[-101,-93],[-69,-87],[-105,-97]],[[7628,4956],[-354,175],[-210,-139]],[[7064,4992],[-203,108]],[[6861,5100],[-48,32]],[[6813,5132],[164,71]],[[6977,5203],[182,104],[239,110],[254,108],[167,86]],[[7819,5611],[189,101]],[[8008,5712],[209,-110],[-227,-122],[286,-155],[-205,-137],[43,-23],[-202,-133],[29,-16],[-190,-125],[-123,65]],[[8533,5986],[-78,-24],[57,97]],[[8512,6059],[95,143],[-291,61],[-18,-14],[-217,50],[115,178],[-240,46],[139,211],[-147,33],[75,110],[-133,42],[140,135],[-122,46],[-206,108],[74,61],[-247,130],[81,83],[159,51],[68,75],[80,30],[160,34],[39,60],[244,107],[122,107],[70,127],[-42,137],[21,58],[124,52],[558,14],[109,-43],[-21,-22],[136,1],[446,-97],[6,-9],[-205,-298],[-92,-149],[-369,-551],[-56,-94],[-148,-214],[-187,-296],[288,-59],[-88,-131],[161,-62],[-12,-14],[280,-150],[-193,-134],[94,-46],[-203,-130],[-419,216],[-207,-66]],[[6079,4022],[-238,-152],[337,-177]],[[6178,3693],[216,-116]],[[6394,3577],[-529,-364],[-118,109],[-241,-188],[-161,91],[-14,-77]],[[5331,3148],[-69,34]],[[5262,3182],[-62,46],[-122,15],[-109,156],[37,11],[9,62],[-118,63],[-12,46],[-86,-64],[-119,-45],[-70,12],[-93,-94],[-93,-28],[-74,63],[-3,27]],[[4347,3452],[156,99],[76,28],[1,40],[57,2],[1,77],[-138,31],[-178,106],[203,27],[-1,18],[-185,122],[42,58],[77,46],[160,30],[44,103],[77,46],[77,-5],[-93,59],[76,3],[259,-85],[34,31],[-53,78],[96,25]],[[5135,4391],[195,-86],[58,-14],[440,-174],[251,-95]],[[3728,4239],[-124,12],[2,97],[-75,33],[-67,-21],[-141,50],[64,19],[-42,56],[139,49],[-109,42],[51,21],[89,-31],[128,-3],[-95,74],[14,143],[56,93],[-211,143],[80,56]],[[3487,5072],[336,182],[108,-35],[255,-23],[52,-15],[170,-136]],[[4408,5045],[-221,-147],[193,-109],[363,-191]],[[4743,4598],[-716,-207],[-214,-77],[-85,-75]],[[4949,4494],[-206,104]],[[4408,5045],[206,131],[134,-70],[660,-373]],[[5408,4733],[-130,-88],[-329,-151]],[[7058,4811],[-303,156]],[[6755,4967],[-47,25],[153,108]],[[7064,4992],[152,-81],[-158,-100]],[[5331,3148],[-52,-97],[-414,-378],[-666,-584],[-608,-570],[-90,-79],[-175,29],[1,50],[47,34],[19,109],[94,73],[127,52],[16,93],[92,48],[52,109],[52,46],[144,45],[20,32],[-15,93],[127,115],[193,79],[33,32],[-23,39],[-81,45],[22,47],[206,132],[204,114],[318,246],[148,28],[74,58],[66,-6]],[[5529,6273],[-43,-23],[-60,-102],[-91,-59]],[[5335,6089],[-61,-60],[-215,-167],[-116,-113],[-77,-58]],[[4866,5691],[-300,153],[-33,-13],[-229,128],[-129,-74],[-93,79],[-178,-15],[-111,32],[-39,41],[10,97],[88,40],[77,76],[81,34],[97,89],[102,-5],[128,79],[60,21],[-60,21],[7,58],[77,4],[32,75],[102,-6],[-113,82],[69,56],[207,-41],[136,-51],[136,-75],[189,-52],[260,-86],[254,-56],[-74,-70],[-90,-39]],[[7058,4811],[-255,-165],[-347,182],[44,28],[49,-24],[206,135]],[[1387,5136],[137,-4],[115,-18],[166,24],[165,-44],[302,15],[123,-32],[274,-3],[174,-94],[135,-99],[-41,-26],[5,-65],[-23,-142],[-24,-28],[-111,-48],[-37,-101],[-146,-26],[-227,-65],[-176,-15],[-180,-69],[-135,-138],[-145,-49],[-16,-45],[-76,-10],[-152,19],[-17,48],[-68,21],[-128,-13],[-209,-69],[-156,-17],[-136,11],[-155,60],[-228,-5],[4,56],[123,79],[-219,-4],[64,58],[-167,15],[-26,32],[-68,10],[-105,82],[12,19],[151,58],[-67,60],[-80,37],[20,41],[98,19],[241,22],[54,-36],[75,4],[153,99],[237,37],[130,-6],[12,49],[134,-18],[20,42],[156,68],[-35,32],[-100,-1],[-26,38],[79,54],[30,123],[28,9],[62,-51]],[[6178,3693],[310,198],[165,-58],[114,75],[119,-61],[13,9],[288,-113],[-79,-52],[-39,11],[-89,-44],[-246,-149],[-114,-49],[-226,117]],[[5661,4889],[285,170]],[[5946,5059],[19,-8],[103,107],[251,244]],[[6319,5402],[448,-146],[210,-53]],[[6813,5132],[-384,-149],[-430,-275],[-338,181]],[[6353,5431],[-34,-29]],[[5946,5059],[-554,255],[-338,160],[176,118],[30,365],[92,121],[-17,11]],[[5529,6273],[157,-81],[68,-17],[198,-98],[199,-80]],[[6151,5997],[266,-141],[11,-35]],[[5661,4889],[-253,-156]],[[3487,5072],[-301,181],[146,32],[42,45],[-87,71],[65,38],[10,81],[63,11],[69,-76],[35,99],[79,-18],[41,-94],[-30,-61],[89,63],[94,89],[156,103],[159,-59],[281,-119],[177,69],[138,86],[153,78]],[[4347,3452],[-36,28],[-149,48],[-139,8],[-146,-17],[-94,12],[83,50],[-155,10],[0,92],[-88,93],[62,37],[-9,80],[-72,9],[-54,63],[131,39],[108,-48],[7,78],[36,41],[-38,36],[-38,106],[-28,22]],[[4949,4494],[186,-103]],[[7628,4956],[-184,-117],[-326,-176],[-180,-113],[-615,-372],[-244,-156]],[[8533,5986],[2,-67],[191,-105],[-180,-143],[-338,168],[-200,-127]],[[7819,5611],[-59,62],[-110,78],[-226,98],[-498,139],[-298,-280]],[[6151,5997],[235,168],[-166,86],[130,74],[447,-228],[129,96],[91,-39],[76,-1],[498,472],[173,-45],[-77,-134],[-108,8],[-103,-169],[327,-81],[-33,-51],[183,-48],[-45,-70],[156,-37],[60,40],[66,95],[322,-74]]]}
