{"type":"Topology","bbox":[-73.81096963757966,5.039691799469274,-73.78655029513641,5.0570992860682615],"transform":{"scale":[0.000002442178462171456,0.000001740922752173945],"translate":[-73.81096963757966,5.039691799469274]},"objects":{"municipios":{"type":"GeometryCollection","geometries":[{"type":"Polygon","arcs":[[0]]},{"type":"Polygon","arcs":[[1,2]]},{"type":"Polygon","arcs":[[3,4]]},{"type":"Polygon","arcs":[[-4,5]]},{"type":"Polygon","arcs":[[6]]},{"type":"Polygon","arcs":[[-3,7]]}]}},"arcs":[[[8906,5033],[371,-301],[282,71],[440,-602],[-230,-349],[72,-107],[-699,-1151],[-324,117],[-527,503],[266,626],[-368,436],[717,757]],[[2223,5578],[-29,-231],[-384,-637],[-169,-79],[-380,-837],[-100,1164],[-84,254],[-527,1027]],[[550,6239],[-2,291],[194,288],[323,-202],[335,112],[36,378],[265,-305],[282,-637],[-63,-305],[303,-281]],[[5943,5146],[-186,-482],[-54,-369],[424,-412],[-112,-410],[-602,-1727]],[[5413,1746],[-557,581],[-153,-231],[-432,425],[78,110],[-389,327],[158,801],[136,168],[-178,136],[192,483],[167,-143],[173,1665],[60,237],[296,-442],[628,-482],[66,126],[285,-361]],[[5943,5146],[67,183],[615,-653],[387,-632],[612,214],[180,-270],[-554,-596],[242,-412],[-55,-327],[360,-313],[162,-351],[348,-431],[80,-493],[-474,-863],[-381,-202],[-555,944],[-263,252],[-366,-510],[139,-266],[-290,-352],[-97,217],[-197,-185],[-128,366],[113,203],[-486,439],[82,251],[-176,109],[105,278]],[[5919,9746],[228,4],[429,-303],[672,89],[-160,-774],[88,-74],[-153,-449],[-69,213],[-282,239],[-62,-129],[-418,251],[152,132],[-246,198],[-355,-326],[-266,205],[-22,259],[-1352,-199],[-13,454],[141,128],[476,45],[-1,-135],[664,-83],[307,210],[86,280],[156,-235]],[[550,6239],[-124,41],[-161,409],[-265,923],[473,387],[662,451],[-71,346],[161,107],[292,-86],[333,231],[308,338],[604,-133],[273,-265],[-162,-23],[-223,-356],[-110,-1804],[-90,-617],[-227,-610]]]}