{"type":"Topology","bbox":[-73.83987694160606,4.930686965875643,-73.82590919859877,4.9395000989111075],"transform":{"scale":[0.0000013969139921291434,8.814014436908073e-7],"translate":[-73.83987694160606,4.930686965875643]},"objects":{"municipios":{"type":"GeometryCollection","geometries":[{"type":"Polygon","arcs":[[0,1,2,3]],"properties":{"codigo":"25326100000000000102","sector":"253261000000000001","pcode":"CO25326","area_m2":34934}},{"type":"Polygon","arcs":[[4,5,6,7]],"properties":{"codigo":"25326100000000000103","sector":"253261000000000001","pcode":"CO25326","area_m2":61882}},{"type":"Polygon","arcs":[[8,-5,9,-2,10]],"properties":{"codigo":"25326100000000000104","sector":"253261000000000001","pcode":"CO25326","area_m2":37039}},{"type":"Polygon","arcs":[[-10,-8,11,-3]],"properties":{"codigo":"25326100000000000101","sector":"253261000000000001","pcode":"CO25326","area_m2":158218}},{"type":"Polygon","arcs":[[12,-6,-9,13,14]],"properties":{"codigo":"25326100000000000106","sector":"253261000000000001","pcode":"CO25326","area_m2":99095}},{"type":"Polygon","arcs":[[15,-14,-11,-1,16]],"properties":{"codigo":"25326100000000000105","sector":"253261000000000001","pcode":"CO25326","area_m2":235422}},{"type":"Polygon","arcs":[[-15,-16,17]],"properties":{"codigo":"25326100000000000107","sector":"253261000000000001","pcode":"CO25326","area_m2":200900}}]}},"arcs":[[[4504,6468],[-24,-311]],[[4480,6157],[-135,-787],[-267,142]],[[4078,5512],[-456,297],[169,705],[-810,391],[-472,191],[-421,425],[115,1001]],[[2203,8522],[217,40],[450,-855],[131,8],[265,-255],[-2,-195],[235,81],[242,-291],[279,-126],[345,-473],[139,12]],[[3662,3810],[-199,-641],[-447,-32],[-80,-67],[134,-230]],[[3070,2840],[-282,-486],[-371,-328]],[[2417,2026],[-687,63],[-417,142],[-776,467],[123,352],[136,110],[172,806],[274,-61],[409,-496],[399,-150],[529,1332]],[[2579,4591],[41,101],[153,-468],[889,-414]],[[4760,5103],[-129,-536],[143,-198],[-6,-259],[-199,-839],[-1302,-339],[-197,-92]],[[3662,3810],[416,1702]],[[4480,6157],[286,-193],[-74,-343],[156,-105],[-88,-413]],[[2579,4591],[-73,124],[-255,33],[-384,-66],[-355,166],[-145,259],[-127,15],[-253,-183],[-582,-249],[-35,664],[-134,379],[-236,253],[253,341],[138,743],[130,366],[489,497],[444,294],[486,524],[149,4],[114,-233]],[[4372,54],[-220,176],[27,738],[-235,182],[-204,-26],[-249,-219],[-1029,963],[-45,158]],[[4760,5103],[1355,-818]],[[6115,4285],[-685,-968],[-888,-2649],[-170,-614]],[[9520,8156],[-1162,-1168],[-51,-102],[-1116,-1218],[-1076,-1383]],[[4504,6468],[89,126],[-193,249],[60,305],[221,32],[436,516],[119,740],[399,791],[300,738],[612,30],[124,-285],[-105,-518],[225,409],[377,-290],[375,-92],[694,-685],[176,-258],[437,645],[205,180],[99,-179],[266,338],[402,-760],[-302,-344]],[[9520,8156],[468,-1119],[-125,-246],[-505,1151],[-491,-542],[481,-988],[-710,-740],[230,-294],[-289,-716],[80,-313],[125,-106],[-444,-1068],[-144,-142],[8,-308],[-226,193],[122,498],[-272,-359],[-449,384],[145,385],[-120,-116],[-135,234],[-481,-637],[-154,198],[83,-535],[-336,-462],[545,-806],[187,-323],[-74,-538],[-706,-280],[-138,142],[-43,-386],[-310,-84],[-206,113],[-263,-255],[-203,27],[-76,-118],[-90,473],[-317,-326],[-315,-93]]]}
