{"type":"Topology","bbox":[-74.32164452477065,4.304161562452814,-74.29417768661995,4.32930616391114],"transform":{"scale":[0.00000274695851092122,0.000002514711616994286],"translate":[-74.32164452477065,4.304161562452814]},"objects":{"municipios":{"type":"GeometryCollection","geometries":[{"type":"Polygon","arcs":[[0,1,2]],"properties":{"codigo":"25535100000000000101","sector":"255351000000000001","pcode":"CO25535","area_m2":151119}},{"type":"Polygon","arcs":[[-2,3,4,5,6]],"properties":{"codigo":"25535100000000000102","sector":"255351000000000001","pcode":"CO25535","area_m2":96471}},{"type":"Polygon","arcs":[[7]],"properties":{"codigo":"25535200102002000101","sector":"255352001020020001","pcode":"CO25535","area_m2":205089}},{"type":"Polygon","arcs":[[8,9,10,-5]],"properties":{"codigo":"25535100000000000103","sector":"255351000000000001","pcode":"CO25535","area_m2":68160}},{"type":"Polygon","arcs":[[11,-4,-1,12]],"properties":{"codigo":"25535100000000000104","sector":"255351000000000001","pcode":"CO25535","area_m2":114883}},{"type":"Polygon","arcs":[[13,-9,-12]],"properties":{"codigo":"25535100000000000105","sector":"255351000000000001","pcode":"CO25535","area_m2":89272}},{"type":"Polygon","arcs":[[-11,14,-6]],"properties":{"codigo":"25535100000000000106","sector":"255351000000000001","pcode":"CO25535","area_m2":88726}}]}},"arcs":[[[7857,2116],[-76,-174]],[[7781,1942],[-384,234],[-580,222],[-527,62],[-770,353],[-102,-109],[-124,136],[95,110],[-56,152]],[[5333,3102],[21,146],[278,-48],[277,-152],[280,-260],[540,37],[-124,132],[-247,32],[34,309],[301,-38],[236,185],[435,-238],[101,61],[182,-172],[376,-158],[-149,-107],[-280,-63],[-31,-107],[254,-294],[40,-251]],[[7781,1942],[-113,-201]],[[7668,1741],[-212,291],[-90,33],[-258,-145],[-303,258],[-224,-13]],[[6581,2165],[-210,-186],[-361,244],[-275,126],[-266,-37],[-151,110]],[[5318,2422],[-264,302],[-257,34],[-127,169],[-16,328],[124,29],[442,-82],[113,-100]],[[2782,9775],[199,-49],[-159,-498],[-169,45],[-180,-533],[-121,-170],[-146,14],[-216,-471],[-74,42],[-350,-120],[-68,-168],[-151,76],[-204,-506],[-93,57],[-136,-351],[72,-33],[-127,-553],[-107,-114],[-401,187],[-246,-442],[-105,160],[26,369],[94,160],[257,246],[88,446],[162,214],[238,180],[271,408],[121,120],[589,244],[92,89],[21,208],[196,386],[144,93],[155,488],[328,-224]],[[7668,1741],[-88,-93],[119,-348],[-467,-175],[-180,-435],[-108,-138]],[[6944,552],[-168,-164],[186,392],[231,689],[-430,153],[-123,-294],[-158,54],[70,282]],[[6552,1664],[171,335],[-142,166]],[[8453,859],[-159,286],[-316,63],[-243,272],[-67,261]],[[7857,2116],[198,-88],[98,-137],[408,-57],[89,-166],[161,-4],[184,-213],[233,-80],[225,14],[136,-121],[242,-32],[168,-106],[-98,-103],[-43,-341],[-279,177],[-92,-201],[-504,348],[-179,17],[-288,282],[-97,-155],[99,-238],[-65,-53]],[[8453,859],[-192,-237],[-125,52],[-163,-311],[-100,20],[-161,-383],[-42,207],[-81,-96],[-26,233],[-619,208]],[[6552,1664],[-346,122],[-51,-303],[-179,14],[-328,-102],[1,93],[-418,18],[-175,319],[-48,261],[48,156],[262,180]]]}
