{"type":"Topology","bbox":[-74.5961328972262,4.946091916566027,-74.59064002905973,4.952810262029558],"transform":{"scale":[5.493417508221365e-7,6.71901736526831e-7],"translate":[-74.5961328972262,4.946091916566027]},"objects":{"municipios":{"type":"GeometryCollection","geometries":[{"type":"Polygon","arcs":[[0,1,2]],"properties":{"codigo":"25168100000000000101","sector":"251681000000000001","pcode":"CO25168","area_m2":52997}},{"type":"Polygon","arcs":[[3,-1,4]],"properties":{"codigo":"25168100000000000102","sector":"251681000000000001","pcode":"CO25168","area_m2":90984}},{"type":"Polygon","arcs":[[5,-2,-4]],"properties":{"codigo":"25168100000000000103","sector":"251681000000000001","pcode":"CO25168","area_m2":85670}}]}},"arcs":[[[7683,6722],[-687,257],[-355,540],[-863,-239],[-153,-772],[-420,-343],[-327,-478],[-1859,419],[-332,-29],[0,-263],[-919,-10],[57,-863],[-200,-401]],[[1625,4540],[-329,-537],[-701,-369]],[[595,3634],[-595,291],[191,251],[562,-76],[330,374],[-554,1205],[191,1041],[408,520],[402,39],[366,-586],[525,-298],[308,634],[354,249],[-292,376],[320,354],[-41,429],[748,-542],[460,-232],[615,-36],[546,573],[859,-224],[185,55],[10,1962],[369,-46],[-114,-1039],[-14,-1258],[940,90],[9,-1018]],[[7315,1588],[358,236],[114,370],[-168,340],[-918,733],[-1904,787],[-936,49],[-73,-494],[-1132,587],[-1031,344]],[[7683,6722],[210,-30],[497,-1038],[-576,-114],[-148,-656],[188,-468],[-32,-504],[862,-139],[-436,-821],[664,-511],[725,-79],[340,-278],[-59,-291],[-761,-823],[-497,219],[-502,-187],[43,402],[-207,85],[-502,-173],[-177,272]],[[7315,1588],[-309,-82],[132,-827],[-428,-408],[106,-258],[-1256,45],[-1049,118],[-559,157],[-792,28],[-75,126],[489,273],[-247,610],[-26,431],[-715,202],[-416,356],[-848,225],[-756,-76],[29,1126]]]}
