{"type":"Topology","bbox":[-74.54941717379637,4.258663129069779,-74.32220848575884,4.399625312715356],"transform":{"scale":[0.000022723141117865334,0.000014097628127370437],"translate":[-74.54941717379637,4.258663129069779]},"objects":{"municipios":{"type":"GeometryCollection","geometries":[{"type":"Polygon","arcs":[[0,1,2]]},{"type":"Polygon","arcs":[[3,4,5,6,7]]},{"type":"Polygon","arcs":[[8,9,10,-5,11,12]]},{"type":"Polygon","arcs":[[-2,13,14,15,16]]},{"type":"Polygon","arcs":[[17,18,19,-15]]},{"type":"Polygon","arcs":[[20,21]]},{"type":"Polygon","arcs":[[22,23,24,25,26,27]]},{"type":"Polygon","arcs":[[-27,28,29,30]]},{"type":"Polygon","arcs":[[31,32,33,34,35]]},{"type":"Polygon","arcs":[[36,37,38,-34]]},{"type":"Polygon","arcs":[[39,-37,-33,40]]},{"type":"Polygon","arcs":[[41,42,43,44]]},{"type":"Polygon","arcs":[[45,46,47,48,49]]},{"type":"Polygon","arcs":[[50,51,-50,52,53]]},{"type":"Polygon","arcs":[[-49,54,55,56]]},{"type":"Polygon","arcs":[[-56,57,58,59,60,61,62]]},{"type":"Polygon","arcs":[[63,-53,-57,64,65]]},{"type":"Polygon","arcs":[[66,-54,-64,67,68]]},{"type":"Polygon","arcs":[[69,-65,-63,70,71]]},{"type":"Polygon","arcs":[[72,73,-71,-62,74,75]]},{"type":"Polygon","arcs":[[76,77,-72,-74,78]]},{"type":"Polygon","arcs":[[79,80,-51,-67]]},{"type":"Polygon","arcs":[[-12,-4,81,82]]},{"type":"Polygon","arcs":[[83,84,85,86,87]]},{"type":"Polygon","arcs":[[88,89,90,91,92,-85]]},{"type":"Polygon","arcs":[[-35,-39,93,-83,94,-90,95]]},{"type":"Polygon","arcs":[[96,97,-36,-96,-89,-84,98]]},{"type":"Polygon","arcs":[[-40,99,-13,-94,-38]]},{"type":"Polygon","arcs":[[-95,-82,-8,100,101,-91]]},{"type":"Polygon","arcs":[[102,-87,103,104,105,106,107,-47]]},{"type":"Polygon","arcs":[[108,109,110,111]]},{"type":"Polygon","arcs":[[-111,112,113,114]]},{"type":"Polygon","arcs":[[115,116,117,-3,-17,118,119]]},{"type":"Polygon","arcs":[[120]]},{"type":"Polygon","arcs":[[121]]},{"type":"Polygon","arcs":[[122,123,-60,124,125,126,127]]},{"type":"Polygon","arcs":[[-58,-55,-48,-108,128,129,130]]},{"type":"Polygon","arcs":[[131,-130,132,133,134]]},{"type":"Polygon","arcs":[[-28,-31,135,136,137]]},{"type":"Polygon","arcs":[[138,-79,-73,139]]},{"type":"Polygon","arcs":[[-135,140,141,-126,142]]},{"type":"Polygon","arcs":[[-125,-59,-131,-132,-143]]},{"type":"Polygon","arcs":[[-129,-107,143,144,-133]]},{"type":"Polygon","arcs":[[-116,145,146,-25,147]]},{"type":"Polygon","arcs":[[-18,-14,-1,-118,148,149,150,151]]},{"type":"Polygon","arcs":[[152,-149,-117,-148,-24,153,-114]]},{"type":"Polygon","arcs":[[154,-77,-139,155]]},{"type":"Polygon","arcs":[[156,-127,-142,157,158]]},{"type":"Polygon","arcs":[[159,160,-43,161,-112,-115,-154,-23,-138,162]]},{"type":"Polygon","arcs":[[163,164,-10,165,166]]},{"type":"Polygon","arcs":[[-147,167,-29,-26]]},{"type":"Polygon","arcs":[[-9,-100,168,-166]]},{"type":"Polygon","arcs":[[169,-144,-106,170,171,172,173,174,-21]]},{"type":"Polygon","arcs":[[175,-68,-66,-70,-78,-155,176]]},{"type":"Polygon","arcs":[[-168,-146,-120,177,-136,-30]]},{"type":"Polygon","arcs":[[178,-128,-157,179]]},{"type":"Polygon","arcs":[[180,181,182,183,-109,-162,-42]]},{"type":"Polygon","arcs":[[-167,-169,-41,-32,-98,184,185]]},{"type":"Polygon","arcs":[[-165,186,187,-6,-11]]},{"type":"Polygon","arcs":[[-75,-61,-124,188,189]]},{"type":"Polygon","arcs":[[-152,190,-19]]},{"type":"Polygon","arcs":[[-81,191,192,193,-99,-88,-103,-46,-52]]},{"type":"Polygon","arcs":[[-7,-188,194,-182,195,-101]]},{"type":"Polygon","arcs":[[196,197,-44,-161,198,-173]]},{"type":"Polygon","arcs":[[199,-192,-80,200]]},{"type":"Polygon","arcs":[[201,-185,-97,-194]]},{"type":"Polygon","arcs":[[-184,202,-150,-153,-113,-110]]},{"type":"Polygon","arcs":[[-104,-86,-93,203,-197,-172,204]]},{"type":"Polygon","arcs":[[-158,-141,-134,-145,-170,-22,205]]},{"type":"Polygon","arcs":[[-199,-160,206,-174]]},{"type":"Polygon","arcs":[[-205,-171,-105]]},{"type":"Polygon","arcs":[[-201,-69,-176,207]]},{"type":"Polygon","arcs":[[-181,-45,-198,-204,-92,-102,-196]]},{"type":"Polygon","arcs":[[-189,-123,-179,208]]},{"type":"Polygon","arcs":[[209]]},{"type":"Polygon","arcs":[[210]]},{"type":"Polygon","arcs":[[211]]},{"type":"Polygon","arcs":[[212]]}]}},"arcs":[[[6464,4829],[-51,0]],[[6413,4829],[-1,158]],[[6412,4987],[54,10],[-2,-168]],[[8081,4778],[105,-25]],[[8186,4753],[-3,-56]],[[8183,4697],[-7,-47],[-65,4]],[[8111,4654],[1,64],[-58,12]],[[8054,4730],[5,53],[22,-5]],[[8303,4777],[-55,-40],[4,-100]],[[8252,4637],[-4,-3]],[[8248,4634],[-22,10],[-43,53]],[[8186,4753],[4,63]],[[8190,4816],[33,-3],[29,15],[33,24],[18,-75]],[[6413,4829],[-106,1]],[[6307,4830],[1,261]],[[6308,5091],[56,35],[46,10]],[[6410,5136],[2,-149]],[[6307,4830],[-88,0]],[[6219,4830],[0,109],[-10,14],[-14,97]],[[6195,5050],[113,41]],[[7665,6013],[-41,5]],[[7624,6018],[0,11],[-59,189],[47,38],[40,-124],[13,-119]],[[6902,5388],[-26,-93],[-40,-145]],[[6836,5150],[-19,8]],[[6817,5158],[-29,10]],[[6788,5168],[10,53]],[[6798,5221],[39,198]],[[6837,5419],[65,-31]],[[6798,5221],[-57,29],[25,131]],[[6766,5381],[13,68]],[[6779,5449],[58,-30]],[[8354,5064],[-16,-63]],[[8338,5001],[-5,-17]],[[8333,4984],[-24,19],[-14,-5],[-98,9]],[[8197,5007],[-6,36],[-1,89]],[[8190,5132],[30,1],[40,-14],[-6,-46],[42,-37],[8,26],[28,21],[22,-19]],[[8333,4984],[1,-127]],[[8334,4857],[-22,-9],[-11,12],[-7,58],[-25,3],[1,22],[-66,13]],[[8204,4956],[-7,51]],[[8344,4819],[-10,38]],[[8338,5001],[22,-18],[-5,-19],[16,-20],[12,-2],[-1,-63],[-38,-60]],[[7787,4827],[-30,-17],[25,-83],[-100,-79],[-44,-27],[-58,233],[17,72],[-2,19],[-73,104],[-15,25],[-1,20]],[[7506,5094],[58,89]],[[7564,5183],[14,-13],[27,2],[61,13],[102,51]],[[7768,5236],[13,-94],[-30,-17],[14,-126],[22,-172]],[[8265,5801],[-66,-54],[-26,-34]],[[8173,5713],[-3,33],[-61,33],[-27,25],[-2,46],[-8,5]],[[8072,5855],[35,12],[58,38]],[[8165,5905],[71,48],[62,6]],[[8298,5959],[2,-133],[-35,-25]],[[8433,5917],[-26,-6],[6,-38],[-2,-48],[-16,-78],[-3,-49]],[[8392,5698],[-54,42],[-25,5],[-29,-3],[-11,11],[-8,48]],[[8298,5959],[30,2],[38,28],[65,29]],[[8431,6018],[2,-101]],[[8165,5905],[-3,34],[-1,227]],[[8161,6166],[77,1],[61,5]],[[8299,6172],[-1,-213]],[[8161,6166],[1,45]],[[8162,6211],[-5,49],[-18,5],[-5,13]],[[8134,6278],[28,70],[14,57]],[[8176,6405],[16,-42],[10,23],[34,26],[19,21]],[[8255,6433],[45,53]],[[8300,6486],[30,-48],[-6,-29],[-17,-14],[-7,-22],[-4,-56],[3,-145]],[[8439,6138],[1,-34],[-12,-18],[3,-68]],[[8299,6172],[57,8],[81,18]],[[8437,6198],[2,-60]],[[8556,5978],[-39,-16],[-61,-43],[-23,-2]],[[8439,6138],[66,12],[19,7]],[[8524,6157],[17,-132],[30,37],[5,-27],[-30,-27],[10,-30]],[[8435,6411],[2,-213]],[[8300,6486],[13,37]],[[8313,6523],[33,-5],[7,-28],[34,-19],[10,-25],[33,9],[5,-44]],[[8354,6662],[1,-29]],[[8355,6633],[-29,-58],[-13,-52]],[[8255,6433],[-16,50],[8,26],[-6,30],[8,47],[-1,63]],[[8248,6649],[23,26],[73,-17],[10,4]],[[8422,6615],[3,-42],[34,-19],[0,-10],[50,-28],[-27,-45],[-10,-32]],[[8472,6439],[-21,-23],[-16,-5]],[[8355,6633],[17,-4],[30,-46],[13,7],[7,25]],[[8556,5978],[10,-45],[-19,-21],[-5,-39],[-11,-30],[-11,-125]],[[8520,5718],[-27,15],[-23,34],[-6,-15],[15,-14],[-5,-27],[-13,10],[-17,-30],[-13,15],[13,23],[-29,31],[-8,-72],[-15,10]],[[8081,4778],[3,29],[8,12],[-11,38],[6,39]],[[8087,4896],[44,-39],[59,-41]],[[8226,5528],[-46,-107],[3,-9],[-57,-129]],[[8126,5283],[-112,132],[-8,13]],[[8006,5428],[62,70],[13,23]],[[8081,5521],[59,132],[25,48]],[[8165,5701],[29,-85],[5,-49],[27,-39]],[[8126,5283],[19,-23]],[[8145,5260],[-12,-23],[-118,-261]],[[8015,4976],[-25,33],[-7,19]],[[7983,5028],[-14,41],[-41,135],[-5,5],[-22,71],[-10,20]],[[7891,5300],[115,128]],[[8204,4956],[-6,-74],[-8,-66]],[[8087,4896],[-72,80]],[[8145,5260],[54,-63],[-9,-65]],[[8250,5498],[6,-59],[12,-73],[24,-92],[8,-23],[52,-93],[28,-63]],[[8380,5095],[-26,-31]],[[8226,5528],[24,-30]],[[8344,4819],[-16,-31],[-19,-21],[-6,10]],[[8054,4730],[-24,1],[-75,23],[-35,8]],[[7920,4762],[25,131],[38,135]],[[8173,5713],[-8,-12]],[[8081,5521],[-128,147]],[[7953,5668],[-15,22],[29,62]],[[7967,5752],[16,-25],[30,38],[-14,32],[18,24],[24,-21],[3,55]],[[8044,5855],[3,-1]],[[8047,5854],[25,1]],[[7480,5064],[-7,-18],[-75,-105],[-149,-190]],[[7249,4751],[-48,103],[-15,129]],[[7186,4983],[-4,37],[13,100]],[[7195,5120],[149,-9],[32,-10],[76,-36],[28,-1]],[[7186,4983],[-304,-102]],[[6882,4881],[-3,56],[-2,202]],[[6877,5139],[64,-7],[88,-13],[77,5],[73,-1],[16,-3]],[[6660,5189],[-47,-157]],[[6613,5032],[-59,-203]],[[6554,4829],[-90,0]],[[6410,5136],[44,13],[75,16]],[[6529,5165],[110,24],[21,0]],[[6982,8992],[40,5],[13,-11],[1,-23],[-5,-63],[25,8],[-2,-61],[-10,-29],[-33,0],[-22,40],[-27,-3],[-17,35],[-18,-3],[3,72],[-14,25],[-5,38],[6,19],[36,37],[15,9],[3,-79],[11,-16]],[[7131,9919],[18,14],[30,-5],[24,-35],[34,-15],[-3,19],[20,21],[27,2],[23,22],[39,14],[22,43],[26,-2],[29,-21],[27,4],[0,-17],[-44,-13],[-8,-9],[-87,-29],[-21,-63],[21,-12],[-9,-62],[16,-6],[-10,-33],[-20,-6],[-35,11],[8,13],[-18,28],[-24,25],[-21,33],[-44,25],[-25,3],[5,51]],[[8065,6563],[17,-21],[14,-34],[13,5],[5,-36],[26,1],[27,-6]],[[8167,6472],[9,-67]],[[8134,6278],[-31,18],[-13,28],[-14,48],[-23,32]],[[8053,6404],[-5,27]],[[8048,6431],[-14,89],[6,27],[13,14]],[[8053,6561],[12,2]],[[8047,5854],[-14,50],[-22,16],[-30,84],[-28,27],[-28,-4],[-28,43],[-25,22],[-4,13],[7,27],[-5,37]],[[7870,6169],[15,-11],[15,3],[20,21],[36,9],[15,16],[-15,36]],[[7956,6243],[42,37],[5,-15],[27,20],[11,-67],[13,-32],[16,9],[92,16]],[[7932,6303],[24,-60]],[[7870,6169],[-5,19],[-48,4],[-13,42],[-20,19],[-7,51]],[[7777,6304],[13,3]],[[7790,6307],[8,-43],[24,-20],[15,-1],[61,23],[34,37]],[[6779,5449],[24,118]],[[6803,5567],[128,-22],[8,-30]],[[6939,5515],[-37,-127]],[[8529,6769],[-12,-8],[-69,-87],[-29,-10],[3,-49]],[[8354,6662],[-32,69],[-18,13],[30,113],[40,-31],[40,11],[22,77],[8,10],[85,-155]],[[7790,6307],[-11,98],[-6,82]],[[7773,6487],[165,31],[77,-66],[14,-16],[19,-5]],[[8053,6404],[-35,-16],[-47,-43],[-39,-42]],[[8044,5855],[-32,11],[-29,21],[-42,39],[-137,79],[-21,7],[-48,1]],[[7735,6013],[2,103],[12,21],[25,2],[-11,34],[-15,61],[15,59],[14,11]],[[6660,5189],[2,5]],[[6662,5194],[45,0],[81,-26]],[[6817,5158],[-10,-53],[-28,-10],[-3,-77],[-50,-31],[5,-25],[-45,-29],[-51,106],[-22,-7]],[[6554,4829],[206,-1]],[[6760,4828],[-9,-20],[-17,-61]],[[6734,4747],[-15,-2],[-18,29],[-13,8],[-45,-2],[-13,-31],[-10,-10],[-30,23],[-20,-27],[-2,-36],[12,-9],[-9,-15],[13,-40],[-37,-3],[-23,-13],[-24,36],[-55,23],[1,10],[-23,1],[-53,-6],[-62,28],[-31,1],[-19,-6],[-70,35],[-36,12],[-17,-11]],[[6135,4742],[-6,12],[4,28],[28,37],[21,9],[37,2]],[[6882,4881],[-99,-47],[-23,-6]],[[6836,5150],[41,-11]],[[8706,6477],[-3,7],[-24,-19],[-43,-14],[-44,-5],[-42,-10],[-58,-6],[-20,9]],[[8529,6769],[4,2],[39,-63],[-21,-49],[-18,-67],[101,-62],[12,66],[75,-37],[34,2],[1,-14],[32,-10],[6,-29],[-26,-32],[-17,-9],[-45,10]],[[7939,6628],[14,-6],[18,-22],[42,-6],[37,-24],[3,-9]],[[7773,6487],[1,37],[-30,-49],[-21,16],[0,66],[-3,8]],[[7720,6565],[22,14],[8,29],[-2,18],[32,8],[39,-24],[36,11],[-18,33],[-26,29],[6,20],[9,-5],[43,35],[21,-61],[31,5],[7,-47],[11,-2]],[[7489,5525],[70,-69],[40,-15]],[[7599,5441],[-21,-218],[-14,-40]],[[7506,5094],[-26,-30]],[[6939,5515],[21,7],[36,-17],[70,-26],[299,-132],[17,7],[-17,41],[18,108],[14,34],[38,20],[7,-40],[47,8]],[[8593,4844],[7,-6],[-3,-44],[-14,-60],[-2,-37],[-9,-15],[-21,-10],[-35,-6],[-64,-32],[-24,-20],[-19,-40],[-26,-40],[-28,-21],[-19,7],[-26,26],[-31,-20],[-33,-8]],[[8246,4518],[2,116]],[[8252,4637],[57,1],[3,36],[21,48],[27,28],[14,24],[-28,39]],[[8346,4813],[10,25],[44,45],[14,20],[32,-5],[3,-97],[5,-19],[27,-15],[60,5],[25,50],[6,18],[21,4]],[[6662,5194],[4,14],[40,206],[60,-33]],[[8344,4819],[2,-6]],[[7665,6013],[70,0]],[[7967,5752],[19,42],[-34,46],[3,11],[-21,26],[-90,-176],[-21,21],[-7,-15],[22,-20]],[[7838,5687],[-13,-25],[-40,-154]],[[7785,5508],[-121,103],[-9,-32],[-15,0],[-26,35]],[[7614,5614],[13,142]],[[7627,5756],[14,165],[-6,54],[-11,43]],[[8778,6259],[1,-17],[-59,5],[-53,-21],[-57,-39],[-86,-30]],[[8706,6477],[73,-200],[-1,-18]],[[6529,5165],[78,440],[100,-17],[96,-21]],[[8180,6643],[-39,-5],[-19,-18],[-30,-7],[-4,11],[-28,-22],[5,-39]],[[7939,6628],[18,22],[14,-5],[23,32],[28,0],[22,23],[11,37],[-6,86],[8,14],[28,-39],[23,-75],[37,-63],[35,-17]],[[7787,4827],[28,-144],[44,6],[6,-14],[-3,-52],[38,0]],[[7900,4623],[1,-119]],[[7901,4504],[-7,-18],[-19,18],[-51,33],[-18,-9],[-21,13],[-21,-27],[-5,-30],[-26,-10],[-40,-1],[-37,22],[-30,-4],[-32,18],[-24,7],[-80,4],[-23,17],[-33,57],[-29,13],[-35,24],[-35,33],[-43,-96],[-135,46],[-1,9],[45,63]],[[7201,4686],[48,65]],[[8380,5095],[13,-31]],[[8393,5064],[8,-19],[16,33],[37,-22],[10,20],[24,-24],[-26,-74],[58,-35],[24,-33],[20,-42],[29,-24]],[[8246,4518],[-1,-17],[34,-23],[-7,-26],[-29,19],[-30,-18],[-29,11],[-8,25],[-29,7],[-38,-3]],[[8109,4493],[5,17],[-3,144]],[[8167,6472],[1,58],[17,67],[4,31]],[[8189,6628],[5,5],[3,69],[-12,61],[-21,61],[11,71],[8,-2],[18,-47],[14,-50],[-22,-17],[16,-59],[2,13],[20,0],[20,-15],[-14,-5],[6,-60],[5,-4]],[[6135,4742],[22,-26],[29,-14],[9,-27],[-14,-13],[-27,-5],[-49,6],[-86,-8],[-53,-24],[-23,-6],[-44,0],[-33,47],[-33,85],[-5,30],[-40,3],[-34,102],[-9,54],[29,15],[34,-8],[20,-14],[66,-4],[2,-3],[65,-1],[137,52],[62,27],[7,17],[28,23]],[[8520,5718],[27,-19],[22,-34],[13,-5],[3,16]],[[8585,5676],[16,11],[37,3],[37,-32],[-8,-42],[0,-25],[-37,41],[-12,25],[-9,-26],[6,-23],[-14,-27],[-38,74],[-15,10],[-12,28],[-35,-8],[-13,-12],[-20,-34],[-8,9],[-12,-14],[-24,-58],[-16,14],[-2,-15],[-27,-36],[4,-35],[12,18],[22,-11],[-3,-24],[-27,12],[5,-40],[-3,-22]],[[8389,5437],[-8,-14],[-27,42],[-35,35],[-9,21],[7,74],[10,39],[-61,13],[-6,-83],[-10,-66]],[[8109,4493],[-28,-2],[-20,-9],[-21,8],[-18,29],[-47,28],[-30,-15],[0,-17],[-29,-32],[-15,21]],[[7900,4623],[8,75],[12,64]],[[7785,5508],[29,-87],[-29,-13],[45,-141]],[[7830,5267],[-62,-31]],[[7599,5441],[15,173]],[[8687,5839],[-9,-122],[-28,25],[-20,44],[-23,33],[-45,19],[22,-41],[-8,-32],[3,-30],[-5,-38],[11,-21]],[[8556,5978],[27,3],[16,-70],[13,-2],[12,-43],[17,-28],[14,-10],[32,11]],[[8389,5437],[28,-22],[-10,-91],[5,-15],[46,40],[20,-2],[-11,-71],[3,-35],[5,6],[2,-40],[-36,10],[-1,-49],[13,-11],[-10,-27],[-31,15],[-22,1],[-3,-41],[14,-23],[-8,-18]],[[7201,4686],[-32,13],[-13,26],[-19,-1],[-19,-14],[-31,-8],[-28,11],[-15,32],[-54,-15],[-14,6],[-30,-5],[-20,4],[-29,-31],[-27,-7],[-28,11],[-49,33],[-37,-2],[-22,8]],[[7891,5300],[-61,-33]],[[7838,5687],[9,15],[19,-12],[61,-76],[26,54]],[[7624,6018],[-7,3],[-124,3],[-4,-90],[-4,-153],[-9,-1],[-12,32],[-8,67],[-89,104],[-21,-9],[-13,8],[-150,204],[-72,76],[-80,78],[-41,52],[-1,8],[44,11],[104,-3],[21,106],[20,90],[27,96],[20,13],[-7,36],[14,144],[39,-38],[11,12],[25,44],[5,-39],[11,-29],[50,-65],[0,-39],[62,2],[18,-11],[43,-59],[9,-25],[15,4],[74,-6],[25,14],[14,44],[-3,53],[23,-22],[9,-68],[20,-52],[26,-19],[12,-29]],[[7489,5525],[4,115],[-19,69],[25,30],[32,-46],[37,-17],[43,87],[16,-7]],[[8778,6259],[54,14],[2,-25],[21,3],[2,-33],[26,-1],[-8,-27],[-15,-8],[-25,5],[12,-36],[17,9],[-1,-20],[-13,-3],[-30,-26],[-18,7],[-13,33],[8,20],[-31,31],[-12,-17],[7,-45],[-10,-24],[-13,-2],[-5,-127],[-6,-10],[17,-48],[-6,-106],[-11,-3],[-40,19]],[[8180,6643],[9,-15]],[[9998,9308],[-5,-17],[-34,-42],[9,-17],[-28,-31],[-34,-69],[6,-20],[-13,-21],[-14,20],[-18,-26],[-13,25],[-36,10],[-19,14],[-5,39],[9,7],[-2,22],[40,5],[18,14],[-25,94],[25,-4],[28,-21],[43,-19],[27,14],[17,28],[17,7],[7,-12]],[[162,175],[39,-3],[2,-33],[11,-3],[4,-26],[14,-8],[3,-24],[-10,-18],[-27,-1],[-29,-30],[-39,-14],[-61,12],[-38,31],[-27,46],[-3,50],[16,-24],[23,-19],[30,5],[14,12],[16,33],[36,17],[26,-3]],[[2144,799],[11,-2],[9,-41],[-36,-21],[-64,-44],[-38,-33],[-46,-32],[3,-20],[27,-105],[21,-97],[63,-251],[-1,-23],[-21,-27],[-18,-1],[-39,10],[-17,-5],[-16,-19],[-28,-10],[-37,6],[-7,-14],[3,-38],[-4,-28],[-19,-4],[-68,3],[-53,15],[-32,-18],[-47,5],[5,73],[8,33],[18,40],[111,222],[17,97],[1,74],[5,23],[3,120],[-7,65],[-7,17],[53,-29],[59,17],[37,-8],[33,3],[31,13],[57,12],[30,22]],[[5205,4435],[27,-31],[39,-25],[25,0],[48,15],[11,-7],[14,-34],[69,18],[81,36],[41,27],[6,-5],[-26,-25],[-17,-30],[-27,-25],[-52,-27],[-50,-50],[-21,-36],[-55,-55],[-16,-33],[-45,-123],[-28,-48],[-16,-14],[-44,-27],[-17,-22],[-22,-54],[-7,-32],[-4,-76],[16,-42],[1,-58],[-12,-30],[-5,-103],[3,-43],[-6,-40],[-16,-47],[-4,-41],[-8,-30],[-33,-70],[-15,-48],[-63,-144],[-28,-104],[-13,-108],[0,-24],[10,-54],[-6,-36],[3,-64],[12,-99],[6,-28],[23,-43],[-11,-14],[-72,-35],[7,-21],[-40,-42],[26,-59],[-21,-30],[-32,-20],[-30,-9],[-28,6],[-47,-16],[-38,-66],[-19,6],[-35,0],[-50,-33],[-28,-29],[-53,-41],[-95,-28],[-23,-13],[-32,-46],[-42,-44],[-58,-47],[-39,-12],[-5,-15],[-55,-45],[-12,-29],[-22,-33],[-13,-3],[-29,-56],[-19,-16],[-22,-44],[-7,8],[17,49],[4,72],[-18,3],[-33,-21],[-21,12],[-25,-21],[-18,1],[-25,-12],[-13,-14],[-33,-13],[-9,6],[-81,-49],[-23,11],[-19,-24],[-26,-19],[-11,-18],[-21,20],[-15,-5],[-23,-23],[-25,-5],[-16,-18],[-31,-10],[-32,-2],[-36,-21],[-8,-16],[-19,-5],[-17,-21],[-29,-17],[-46,-20],[-110,261],[-62,-71],[-67,-72],[-154,-173],[57,-140],[-14,-21],[-25,-18],[-41,-49],[-30,-15],[-24,-49],[-37,-38],[-20,-28],[-20,-18],[-22,-46],[-23,-70],[-15,-26],[-29,-11],[-3,-32],[-29,-72],[-8,-44],[-28,-17],[-22,-45],[-19,48],[-18,-12],[-71,225],[-1,14],[-107,-35],[-32,-14],[-235,-149],[-24,79],[19,12],[5,-15],[22,16],[-23,93],[30,21],[14,1],[8,-36],[36,25],[-7,26],[57,6],[26,57],[7,23],[30,-2],[-10,17],[-17,2],[-24,86],[24,21],[25,31],[24,19],[22,31],[55,25],[46,4],[11,8],[18,-12],[48,28],[40,19],[44,42],[26,13],[64,13],[73,24],[44,37],[51,11],[10,14],[21,2],[19,12],[24,48],[21,24],[46,25],[57,69],[35,49],[15,53],[8,50],[12,31],[-1,17],[15,23],[32,20],[4,-6],[42,6],[45,32],[0,52],[30,-3],[19,10],[31,4],[46,34],[54,51],[17,41],[29,30],[4,40],[16,5],[16,48],[22,-15],[59,40],[38,57],[49,61],[31,66],[35,24],[30,31],[36,23],[27,32],[14,31],[17,63],[14,10],[40,1],[32,44],[46,9],[34,26],[48,54],[15,33],[2,21],[-7,29],[3,13],[78,16],[19,9],[-5,32],[34,39],[4,34],[16,10],[17,58],[28,53],[8,36],[-7,47],[37,38],[23,6],[19,21],[28,21],[36,64],[52,25],[44,33],[34,35],[22,29],[20,49],[29,23],[26,64],[-13,24],[4,38],[-6,146],[4,35],[25,58],[37,9],[27,21],[41,51],[22,13],[10,17],[40,48],[26,23],[38,79],[7,33],[27,13],[13,33],[-8,14],[5,36],[19,36],[16,9],[13,27],[82,6],[19,-8]]]}