{"type":"Topology","bbox":[-73.71574564156623,5.299931738396742,-73.70726466715973,5.3105062562072245],"transform":{"scale":[8.48182258875441e-7,0.0000010575575368019377],"translate":[-73.71574564156623,5.299931738396742]},"objects":{"municipios":{"type":"GeometryCollection","geometries":[{"type":"Polygon","arcs":[[0,1,2]],"properties":{"codigo":"25407100000000000101","sector":"254071000000000001","pcode":"CO25407","area_m2":191067}},{"type":"Polygon","arcs":[[-2,3,4]],"properties":{"codigo":"25407100000000000102","sector":"254071000000000001","pcode":"CO25407","area_m2":129430}},{"type":"Polygon","arcs":[[5,-4,-1]],"properties":{"codigo":"25407100000000000103","sector":"254071000000000001","pcode":"CO25407","area_m2":198170}}]}},"arcs":[[[6498,4114],[47,727],[52,331],[-1616,422]],[[4981,5594],[105,550],[58,576],[151,545],[517,1671],[73,765]],[[5885,9701],[120,298],[86,-23],[1615,-613],[-329,-340],[-64,-214],[500,46],[619,91],[-246,-773],[-52,-282],[-17,-705],[-40,-220],[1353,-329],[-244,-966],[813,-312],[-171,-300],[-253,85],[-460,-168],[-344,-308],[427,-351],[-348,-189],[-96,20],[-174,-422],[-657,190],[140,-218],[-79,-215],[-1336,255],[178,341],[-328,35]],[[4981,5594],[-1327,284],[-551,98],[-509,28],[-834,271],[-790,148]],[[970,6423],[-951,147],[23,72],[289,162],[245,79],[301,-56],[259,55],[546,192],[241,115],[686,37],[124,-43],[12,209],[124,140],[52,206],[-401,134],[64,430],[211,147],[-302,282],[97,93],[328,542],[949,-336],[169,402],[471,-123],[234,587],[869,-203],[275,8]],[[6498,4114],[-56,-76],[-277,-677],[10,-179],[-328,-584],[-362,-786],[-392,-679],[-259,-851],[-51,-271],[-115,77],[-33,177],[-440,503],[-306,525],[-123,389],[12,156],[209,539],[272,338],[718,767],[-540,258],[-230,15],[-922,-169],[-437,-118],[-871,-109],[-1130,-77],[-148,620],[379,36],[-34,140],[-165,-48],[-341,21],[-292,-157],[-246,644],[33,103],[226,96],[185,-151],[261,0],[123,-59],[216,702],[-201,288],[-412,210],[416,416],[123,280]]]}
