{"type":"Topology","bbox":[-74.08367633769154,4.836748875981589,-73.98359002217336,4.901766223941129],"transform":{"scale":[0.000010009632515069833,0.000006502385034457485],"translate":[-74.08367633769154,4.836748875981589]},"objects":{"municipios":{"type":"GeometryCollection","geometries":[{"type":"Polygon","arcs":[[0,1,2,3]],"properties":{"codigo":"25175100000000000101","sector":"251751000000000001","pcode":"CO25175","area_m2":184240}},{"type":"Polygon","arcs":[[4,5,6,7,8]],"properties":{"codigo":"25175100000000000103","sector":"251751000000000001","pcode":"CO25175","area_m2":136742}},{"type":"Polygon","arcs":[[9,10,11,12,13,-9]],"properties":{"codigo":"25175100000000000104","sector":"251751000000000001","pcode":"CO25175","area_m2":764925}},{"type":"Polygon","arcs":[[14,15,16,17,-6,18]],"properties":{"codigo":"25175100000000000105","sector":"251751000000000001","pcode":"CO25175","area_m2":202889}},{"type":"Polygon","arcs":[[-1,-17,19,20,21]],"properties":{"codigo":"25175100000000000106","sector":"251751000000000001","pcode":"CO25175","area_m2":357815}},{"type":"Polygon","arcs":[[22,23,-20,-16,24,25]],"properties":{"codigo":"25175100000000000107","sector":"251751000000000001","pcode":"CO25175","area_m2":399098}},{"type":"Polygon","arcs":[[26,27,28,29,-21,-24]],"properties":{"codigo":"25175100000000000109","sector":"251751000000000001","pcode":"CO25175","area_m2":962259}},{"type":"Polygon","arcs":[[30,31,32]],"properties":{"codigo":"25175100000000000209","sector":"251751000000000002","pcode":"CO25175","area_m2":490936}},{"type":"Polygon","arcs":[[33,34]],"properties":{"codigo":"25175100000000000303","sector":"251751000000000003","pcode":"CO25175","area_m2":452712}},{"type":"Polygon","arcs":[[35]],"properties":{"codigo":"25175200102002000101","sector":"251752001020020001","pcode":"CO25175","area_m2":204347}},{"type":"Polygon","arcs":[[36]],"properties":{"codigo":"25175200101010000101","sector":"251752001010100001","pcode":"CO25175","area_m2":91893}},{"type":"Polygon","arcs":[[37]],"properties":{"codigo":"25175200101025000101","sector":"251752001010250001","pcode":"CO25175","area_m2":14437}},{"type":"Polygon","arcs":[[38,39]],"properties":{"codigo":"25175200101006000101","sector":"251752001010060001","pcode":"CO25175","area_m2":64137}},{"type":"Polygon","arcs":[[40,-13,41,42]],"properties":{"codigo":"25175100000000000208","sector":"251751000000000002","pcode":"CO25175","area_m2":196077}},{"type":"Polygon","arcs":[[43,44]],"properties":{"codigo":"25175100000000000404","sector":"251751000000000004","pcode":"CO25175","area_m2":234167}},{"type":"Polygon","arcs":[[-18,-4,45,-7]],"properties":{"codigo":"25175100000000000102","sector":"251751000000000001","pcode":"CO25175","area_m2":146923}},{"type":"Polygon","arcs":[[-25,-15,46,47]],"properties":{"codigo":"25175100000000000501","sector":"251751000000000005","pcode":"CO25175","area_m2":150956}},{"type":"Polygon","arcs":[[-33,48,49,50]],"properties":{"codigo":"25175100000000000203","sector":"251751000000000002","pcode":"CO25175","area_m2":764462}},{"type":"Polygon","arcs":[[51,-47,-19,-5,-14,-41]],"properties":{"codigo":"25175100000000000108","sector":"251751000000000001","pcode":"CO25175","area_m2":298975}},{"type":"Polygon","arcs":[[52,-12,53,54]],"properties":{"codigo":"25175100000000000201","sector":"251751000000000002","pcode":"CO25175","area_m2":656480}},{"type":"Polygon","arcs":[[55,-49,-32,56,57,-55,58,59,60]],"properties":{"codigo":"25175100000000000202","sector":"251751000000000002","pcode":"CO25175","area_m2":1836304}},{"type":"Polygon","arcs":[[61,62,-57,-31,-51,63,64,65]],"properties":{"codigo":"25175100000000000204","sector":"251751000000000002","pcode":"CO25175","area_m2":3011266}},{"type":"Polygon","arcs":[[66,67,-42,-53,-58,-63]],"properties":{"codigo":"25175100000000000205","sector":"251751000000000002","pcode":"CO25175","area_m2":1116921}},{"type":"Polygon","arcs":[[68,-26,-48,-52,-43,-68,69]],"properties":{"codigo":"25175100000000000206","sector":"251751000000000002","pcode":"CO25175","area_m2":453881}},{"type":"Polygon","arcs":[[70]],"properties":{"codigo":"25175200101003000101","sector":"251752001010030001","pcode":"CO25175","area_m2":606219}},{"type":"Polygon","arcs":[[71,72,-70,-67,-62]],"properties":{"codigo":"25175100000000000207","sector":"251751000000000002","pcode":"CO25175","area_m2":714277}},{"type":"Polygon","arcs":[[73,-64,-50,-56,74]],"properties":{"codigo":"25175100000000000210","sector":"251751000000000002","pcode":"CO25175","area_m2":573306}},{"type":"Polygon","arcs":[[-65,-74,75]],"properties":{"codigo":"25175100000000000211","sector":"251751000000000002","pcode":"CO25175","area_m2":169460}},{"type":"Polygon","arcs":[[76,-2,-22,-30,77,78,-34,79,80,81]],"properties":{"codigo":"25175100000000000301","sector":"251751000000000003","pcode":"CO25175","area_m2":1313176}},{"type":"Polygon","arcs":[[-46,-3,-77,82,-10,-8]],"properties":{"codigo":"25175100000000000302","sector":"251751000000000003","pcode":"CO25175","area_m2":359236}},{"type":"Polygon","arcs":[[83,84,-27,-23,-69,-73,85,-45]],"properties":{"codigo":"25175100000000000401","sector":"251751000000000004","pcode":"CO25175","area_m2":1807707}},{"type":"Polygon","arcs":[[86,87,-28,-85]],"properties":{"codigo":"25175100000000000402","sector":"251751000000000004","pcode":"CO25175","area_m2":287064}},{"type":"Polygon","arcs":[[-78,-29,-88,88]],"properties":{"codigo":"25175100000000000403","sector":"251751000000000004","pcode":"CO25175","area_m2":326979}},{"type":"Polygon","arcs":[[89,90,91,-39]],"properties":{"codigo":"25175100000000000601","sector":"251751000000000006","pcode":"CO25175","area_m2":689774}},{"type":"Polygon","arcs":[[92,-60,93,-91]],"properties":{"codigo":"25175100000000000602","sector":"251751000000000006","pcode":"CO25175","area_m2":872180}},{"type":"Polygon","arcs":[[94]],"properties":{"codigo":"25175200101005000101","sector":"251752001010050001","pcode":"CO25175","area_m2":30965}},{"type":"Polygon","arcs":[[95,96,97,98]],"properties":{"codigo":"25175200101013000101","sector":"251752001010130001","pcode":"CO25175","area_m2":392793}},{"type":"Polygon","arcs":[[-96,99]],"properties":{"codigo":"25175200101019000101","sector":"251752001010190001","pcode":"CO25175","area_m2":640212}},{"type":"Polygon","arcs":[[100]],"properties":{"codigo":"25175200101020000101","sector":"251752001010200001","pcode":"CO25175","area_m2":53297}},{"type":"Polygon","arcs":[[101,-98,102,-81]],"properties":{"codigo":"25175200101021000101","sector":"251752001010210001","pcode":"CO25175","area_m2":153720}},{"type":"Polygon","arcs":[[103]],"properties":{"codigo":"25175200101023000101","sector":"251752001010230001","pcode":"CO25175","area_m2":32682}},{"type":"Polygon","arcs":[[104]],"properties":{"codigo":"25175200102026000101","sector":"251752001020260001","pcode":"CO25175","area_m2":2319030}}]}},"arcs":[[[2261,3208],[-29,-195],[-91,-422],[-53,-200]],[[2088,2391],[-112,91],[-216,239],[4,31]],[[1764,2752],[47,44],[134,180],[66,137],[62,200]],[[2073,3313],[5,15],[183,-120]],[[2458,4007],[-60,-204]],[[2398,3803],[-36,-102]],[[2362,3701],[-149,89],[-132,104]],[[2081,3894],[-155,95]],[[1926,3989],[33,203],[-58,36],[30,103],[302,-188],[12,12],[213,-148]],[[1926,3989],[-92,45],[-17,-47],[-93,9]],[[1724,3996],[-44,53],[-3,107],[-55,168],[45,44],[-2,82],[35,46],[65,-19],[-14,73],[14,134],[45,-8],[17,34],[-60,47],[8,84],[-31,45],[20,68],[10,113],[27,0],[9,-72],[20,-8],[71,52],[-44,117],[12,50],[75,43],[-15,54],[-29,13],[2,56],[62,22]],[[1964,5394],[25,-105],[88,-100],[47,-17],[86,-62],[256,-206],[67,226],[153,-102],[97,-75],[123,-117]],[[2906,4836],[-94,-168],[-45,-49]],[[2767,4619],[-56,-59],[-58,-141],[-67,41],[-128,-453]],[[2486,3744],[117,-78],[180,-136]],[[2783,3530],[-168,-532]],[[2615,2998],[-145,73],[-209,137]],[[2261,3208],[40,246],[73,236],[-12,11]],[[2398,3803],[88,-59]],[[2615,2998],[170,-115]],[[2785,2883],[-23,-64],[-154,-477],[-76,-256]],[[2532,2086],[-444,305]],[[3541,3174],[-127,-668]],[[3414,2506],[-522,316],[-107,61]],[[2783,3530],[93,-44]],[[2876,3486],[115,-62],[36,-1],[227,-174],[48,-51],[144,-115],[95,91]],[[3414,2506],[-53,-195],[-106,-358],[-69,-127],[-72,-54],[-43,-9],[-58,-168],[4,-15],[122,-88],[10,-18]],[[3149,1474],[-77,-241],[-25,6],[-25,-48],[-159,-466],[-38,25]],[[2825,750],[-166,115],[-59,91],[-72,139]],[[2528,1095],[-31,120],[-72,500],[13,62],[94,309]],[[4070,6008],[-610,378]],[[3460,6386],[183,368],[92,255],[62,203]],[[3797,7212],[251,-162],[-46,-162],[20,-69],[184,-150],[201,-148],[11,-20],[137,-88],[-75,-273],[-232,146],[-37,-130],[-86,57],[-55,-205]],[[1689,1007],[-78,-302]],[[1611,705],[-62,-217],[-87,-238],[-84,-250],[-100,70],[-119,71],[-145,115],[-90,51],[-15,-64],[-110,-4],[-21,-77],[-246,-68],[23,20],[-17,43],[91,93],[56,105],[21,93],[56,175],[20,-50],[191,-132],[19,-51],[71,186],[33,112],[94,257],[92,-59],[48,179],[-16,8],[22,73],[63,-56],[40,100],[32,-38],[116,-69],[-3,-11],[105,-65]],[[7405,7491],[-141,110],[163,385],[63,137],[111,369],[34,76],[29,0],[78,121],[31,27],[124,22],[75,49],[28,-8],[-29,-87],[-58,-15],[-29,-41],[-11,-69],[-10,-194],[105,49],[39,-44],[-37,-101],[-129,-68],[-21,14],[-80,-52],[-43,-75],[-144,-127],[-40,-73],[-18,79],[-13,-109],[-102,-208],[38,-57],[-13,-110]],[[2988,9532],[-61,-163],[21,-15],[-44,-144],[38,-26],[-62,-182],[-89,67],[19,63],[-83,63],[10,38],[-78,49],[100,300],[29,-18],[27,82],[173,-114]],[[1622,6990],[-16,-60],[-41,27],[-23,-74],[-47,32],[96,247],[50,-102],[-19,-70]],[[2620,8898],[-239,175],[-20,-59],[-65,50]],[[2296,9064],[72,206],[278,-202],[12,37],[56,-64],[149,-110],[-25,-72],[-185,138],[-33,-99]],[[3278,4090],[49,168],[-231,150],[-179,109],[-150,102]],[[2906,4836],[13,-15],[247,-164],[96,-7],[140,-87],[160,-55],[-11,-126],[-55,-244]],[[3496,4138],[-218,-48]],[[3944,2726],[33,-49],[129,-227],[111,-276],[69,-115]],[[4286,2059],[-183,-158],[-53,-88],[-100,-35],[-83,-4],[-155,119],[-1,42],[65,188],[-21,22],[39,134],[151,395],[-1,52]],[[2073,3313],[-94,58],[28,97],[-294,186],[14,70],[200,-118],[71,-50],[44,195],[39,143]],[[2486,3744],[42,178],[542,123]],[[3070,4045],[-37,-151],[-80,-264],[-22,21],[-55,-165]],[[3797,7212],[62,194],[109,243]],[[3968,7649],[445,-280],[17,-30],[92,-70],[8,-61],[138,-102]],[[4668,7106],[-58,-226],[68,30],[79,-34],[60,-49],[-3,-25],[77,-76],[146,-127],[-135,-347],[-15,-16],[-50,-146],[-261,230],[2,-107],[30,-209],[-33,-14],[1,-143],[-148,106],[-45,-153],[-313,208]],[[3278,4090],[-208,-45]],[[3209,5686],[-152,-513],[-87,-262],[-64,-75]],[[1964,5394],[13,68],[52,-36],[10,-47],[-34,-4],[-5,-65],[21,-18],[41,30],[25,-114],[38,-4],[32,52],[-1,89],[22,5],[6,-71],[52,-10],[38,130],[52,-31],[34,102],[-32,66],[-3,109],[-53,23],[-64,-53],[-21,42],[44,20],[86,85],[-7,32],[-61,5],[-15,94],[32,12],[71,-81],[40,137],[48,-17],[-22,-47],[16,-31],[45,51],[51,12],[17,61],[-67,-10],[-9,75],[127,-18],[17,32]],[[2600,6069],[170,-81],[354,-239],[85,-63]],[[4201,8354],[-110,-372],[-123,-333]],[[3460,6386],[-104,-202],[-28,-67],[-65,-220]],[[3263,5897],[-54,-211]],[[2600,6069],[25,66],[-37,35],[-18,-46],[-30,-5],[-14,53],[39,46],[54,-9],[7,76],[27,92],[-37,75],[79,59],[42,49],[-13,68],[-66,30],[-19,35],[89,16],[55,-18],[28,82]],[[2811,6773],[4,100],[86,-16],[8,155]],[[2909,7012],[9,141],[30,50],[39,-11],[1,-85],[31,-12],[34,149],[55,18],[13,104],[-36,16],[-5,72],[52,91],[-14,54],[20,93],[22,34],[44,-15],[49,54],[3,31],[-58,30],[-48,-32],[-27,55],[57,37],[44,-2],[55,54],[56,130],[-15,139],[63,64],[39,78],[-31,55],[-55,-36],[-6,60],[41,24],[33,-16],[21,30],[-6,133],[-38,6],[-13,-53],[-150,113],[48,145],[157,-125],[32,60],[60,13],[2,95],[43,-8],[41,50],[-2,61],[-55,34],[27,61],[-8,43],[21,62],[294,-217],[-88,-315],[411,-270]],[[4811,4099],[-98,37],[-50,40],[-77,145],[-33,33]],[[4553,4354],[-5,132],[9,137],[-440,301],[-267,190],[90,300],[-134,99],[-31,-2],[-186,136],[-217,174],[-109,76]],[[4668,7106],[41,106],[59,272],[11,125]],[[4779,7609],[32,74],[47,16],[54,-25],[402,-304],[74,338]],[[5388,7708],[150,-97],[57,-48],[137,-410],[63,-81],[26,-200],[14,-404],[28,-85],[71,-85],[-22,-141],[-35,-10],[-45,28],[-82,-26],[-57,-140],[-58,37],[-24,98],[-29,-149],[-1,-69],[-48,-7],[-135,-93],[6,-80],[51,-35],[28,-70],[-115,-85],[-40,-50],[-91,-178],[18,-187],[-63,-16],[-1,-76],[-26,-67],[-28,25],[-111,-266],[-99,-252],[-66,-265],[-37,-39],[-13,-86]],[[4553,4354],[-44,0],[-748,-159]],[[3761,4195],[-265,-57]],[[3545,3194],[-4,-20]],[[3761,4195],[-97,-375],[-31,-136],[-88,-490]],[[2148,6207],[-4,-83],[-37,-153],[-155,95],[-20,-92],[-74,-260],[47,-36],[-28,-110],[-32,28],[-72,-214],[111,-101],[-21,-67],[-137,87],[-53,-174],[-32,14],[-25,64],[-54,10],[-45,68],[10,76],[-49,45],[18,64],[-74,59],[10,31],[-122,84],[-24,49],[10,35],[-105,74],[-29,-87],[-77,67],[58,211],[83,263],[7,-5],[74,191],[102,-68],[-34,-112],[129,-87],[-3,-32],[75,-47],[41,137],[39,-25],[12,39],[-24,67],[-33,36],[32,60],[-26,15],[8,60],[58,211],[231,-155],[-44,-134],[275,-179],[3,-19]],[[4811,4099],[56,-16],[116,-10],[58,15],[221,103],[84,24],[48,-8],[37,-44],[-92,-213],[-27,-128],[-8,-135],[-22,-135],[-63,-99],[-200,-191],[-55,-26],[-34,13],[-11,72],[13,48],[83,152],[6,35],[-31,53],[-49,-20],[-52,-52],[-42,4],[-63,87],[-23,116],[12,106],[30,145],[-10,62],[-76,9],[-38,-37],[-75,134],[-38,-127],[-54,36],[6,22],[-70,50],[-45,-155],[-87,49],[-11,-38],[-114,65],[-23,-75],[-92,-177],[-1,-21],[-93,-299],[-44,-167],[-108,68],[-6,-24],[-88,49],[-87,-298]],[[3649,3121],[-104,73]],[[4825,8096],[-35,-305],[-11,-182]],[[4201,8354],[2,8],[176,-130],[-9,-34],[50,-34],[28,40],[30,-10],[114,346],[284,-238],[-51,-206]],[[4825,8096],[246,-167],[113,-69],[188,-131],[16,-21]],[[1616,2755],[148,-3]],[[2528,1095],[-73,-291],[-58,-181],[-24,-210],[-206,168],[-233,2],[-133,95],[-32,-73]],[[1769,605],[-12,-11],[-146,111]],[[1689,1007],[47,171],[-158,128],[-68,73],[28,76],[21,8],[39,139],[-24,22],[73,188],[-47,40],[14,37],[75,-47],[37,139],[-21,57],[33,-23],[21,80],[-120,96],[62,213],[-109,89],[-124,-96],[-22,-36],[-168,-8],[-76,-34]],[[1202,2319],[-27,10],[252,389]],[[1427,2718],[70,45],[119,-8]],[[1616,2755],[9,114],[-56,211],[-11,83],[51,201],[-2,93],[-26,57],[13,44],[37,24],[15,50],[-32,36],[32,151],[-15,111],[26,22],[33,-25],[39,36],[-5,33]],[[4286,2059],[25,18],[62,-133],[-4,-136],[81,-204],[41,-48],[87,-140],[262,-152],[26,-35],[107,-239],[-25,-120],[-44,-3],[-19,-35],[-12,-101],[-24,-89],[-47,-72],[-35,-12],[-160,37],[-123,59],[-97,89],[-13,-30],[-58,28],[-76,-3],[-88,-35],[-40,-33],[-169,-208],[-85,-96],[-243,545],[-69,149],[-50,59]],[[3496,1119],[-122,92],[-135,126],[-90,137]],[[3649,3121],[247,-161],[48,-234]],[[3496,1119],[-59,-227],[-102,-288],[-72,42],[-49,-10],[-49,-85],[-108,96],[-29,-86],[10,-28],[-38,-50],[-53,54],[-118,83],[-44,-116],[-36,31]],[[2749,535],[76,215]],[[2749,535],[-176,-483],[-251,196],[-24,-76],[-114,61],[13,56],[-93,77],[-97,63],[-71,-201],[-131,96],[-4,30],[60,189],[-92,62]],[[2620,8898],[141,-102],[6,-58],[-22,-66],[92,-67],[-22,-67],[-4,-88],[-54,-105],[36,-25],[-29,-113],[63,-45],[88,-32],[-115,-390],[-48,-152],[-71,57],[-11,-39],[-111,58],[-60,-196]],[[2499,7468],[-225,138],[13,56],[-105,61],[53,209],[-39,51],[25,89],[-3,131],[-189,117],[11,31]],[[2040,8351],[256,713]],[[2499,7468],[184,-107],[40,-42],[58,-230],[128,-77]],[[2811,6773],[-186,154],[-179,139],[-56,-219],[-64,61],[-308,217],[-36,-111],[-8,-66],[4,-150],[-132,84],[-32,-108],[-80,62],[37,94],[49,188],[-141,98],[-57,23],[211,549],[-369,334],[65,161],[82,-70],[149,378],[280,-240]],[[88,1290],[18,-20],[30,64],[62,-75],[-14,-32],[64,-66],[-8,-27],[42,-42],[-42,-90],[-240,258],[39,82],[49,-52]],[[510,3531],[59,-24],[346,-197],[22,10],[60,221],[161,-92],[44,-69],[118,-48]],[[1320,3332],[69,-39],[-52,-193],[-59,40],[-25,-95],[104,-68],[-12,-47],[-84,57],[-30,-95],[-27,18],[-13,-49],[-48,57],[-43,-153]],[[1100,2765],[-24,16],[-14,-45],[-68,45]],[[994,2781],[-74,44],[-554,343],[-54,5],[25,117],[54,-29],[42,163],[-56,57],[-22,-75],[-36,88],[54,119],[83,-89],[54,7]],[[510,3531],[30,92],[6,167],[21,84],[47,99],[77,357],[66,103],[23,93],[3,136],[12,48],[145,-76],[-13,-103],[12,-21],[135,-62],[371,-202],[-94,-416],[-24,-74],[-45,-2],[-17,-70],[54,-29],[-15,-69],[96,-60],[-43,-153],[-24,11],[-13,-52]],[[467,1974],[62,-45],[20,50],[89,-91],[-3,-41],[-58,-81],[-81,-187],[-63,66],[58,159],[-73,66],[-40,-83],[-95,83],[58,124],[32,-29],[25,63],[69,-54]],[[1202,2319],[-57,-155],[-54,-46],[-34,37],[12,37],[-271,197],[45,155],[85,19],[66,218]],[[1100,2765],[29,34],[27,-19],[-28,-101],[114,-79],[25,99],[69,-43],[47,148],[14,-58],[30,-28]],[[655,2830],[43,-40],[8,23],[66,-31],[26,-34],[-24,-80],[27,-20],[-20,-64],[-80,38],[-173,117],[33,105],[30,-19],[10,39],[54,-34]],[[9289,9393],[90,-23],[38,10],[107,83],[49,126],[101,-36],[37,-50],[37,36],[42,-64],[64,61],[62,-43],[-3,-161],[49,39],[37,-31],[-2,-162],[-11,-56],[-21,49],[-50,-126],[-12,-60],[20,-52],[-39,-42],[-11,-59],[-80,-90],[-24,-91],[-1,-104],[61,-13],[42,152],[41,10],[-106,-764],[-28,-63],[-54,-74],[-59,-122],[-42,-34],[-253,130],[-462,267],[-412,213],[-435,253],[-2,209],[-38,16],[-17,67],[20,577],[173,174],[137,454],[215,-162],[246,-175],[122,-55],[277,-116],[44,-63],[51,-35]]]}
