{"type":"Topology","bbox":[-74.3182247327768,4.721266270440838,-74.19820673366598,4.851437072912047],"transform":{"scale":[0.000012003000211102545,0.000013018382085329448],"translate":[-74.3182247327768,4.721266270440838]},"objects":{"municipios":{"type":"GeometryCollection","geometries":[{"type":"Polygon","arcs":[[0,1,2]]},{"type":"Polygon","arcs":[[3,4,5,6,7,8]]},{"type":"Polygon","arcs":[[9]]},{"type":"Polygon","arcs":[[10,11,12,13]]},{"type":"Polygon","arcs":[[14,15,16,17]]},{"type":"Polygon","arcs":[[-15,18,-11]]},{"type":"Polygon","arcs":[[19,20,-9,21,22]]},{"type":"Polygon","arcs":[[23,24,25,26]]},{"type":"Polygon","arcs":[[27,28,-4,-21,29,-24]]},{"type":"Polygon","arcs":[[30,31,-22,-8]]},{"type":"Polygon","arcs":[[-16,-14,32,33]]},{"type":"Polygon","arcs":[[34,-2,35,36]]},{"type":"Polygon","arcs":[[37,38,39,40,-6,41,42]]},{"type":"Polygon","arcs":[[43,-39]]},{"type":"Polygon","arcs":[[44]]},{"type":"Polygon","arcs":[[45]]},{"type":"Polygon","arcs":[[-42,-5,-29,46,47]]},{"type":"Polygon","arcs":[[-25,-30,-20,48,49]]},{"type":"Polygon","arcs":[[-47,-28,-27,50]]},{"type":"Polygon","arcs":[[51,-31,-7,-41,52,53,-36,-1,54,-12,-19,-18,55,56]]},{"type":"Polygon","arcs":[[-38,57,-53,-40,-44]]},{"type":"Polygon","arcs":[[58,-57]]},{"type":"Polygon","arcs":[[59,-33,-13,-55,-3,-35,60]]},{"type":"MultiPolygon","arcs":[[[61]],[[62]]]},{"type":"Polygon","arcs":[[63,-49,-23,-32,-52,-59,-56,-17,-34,-60,64,65]]},{"type":"Polygon","arcs":[[66]]},{"type":"MultiPolygon","arcs":[[[67]],[[68]],[[69]],[[70]],[[71]]]},{"type":"MultiPolygon","arcs":[[[-66,72]],[[73]]]}]}},"arcs":[[[3109,678],[98,-105],[-232,-143],[73,-106],[-61,-33]],[[2987,291],[-35,47],[-17,-10],[-112,144]],[[2823,472],[286,206]],[[4475,966],[85,-42],[103,-68],[71,-37]],[[4734,819],[-22,-37],[-215,-103]],[[4497,679],[-53,-26],[-33,67],[-80,137]],[[4331,857],[4,14]],[[4335,871],[46,40],[36,84]],[[4417,995],[58,-29]],[[6291,7378],[0,-74],[-57,-6],[3,-106],[-16,23],[-108,-17],[-1,19],[99,23],[-4,45],[-116,-24],[-20,45],[-166,-18],[-128,-11],[-28,13],[0,-32],[-35,0],[-13,-30],[-7,74],[156,21],[-7,62],[37,7],[-10,46],[50,11],[27,-113],[344,42]],[[3497,841],[-103,-272]],[[3394,569],[-73,27],[-208,89]],[[3113,685],[144,249]],[[3257,934],[240,-93]],[[3566,818],[-69,23]],[[3497,841],[48,121],[95,259]],[[3640,1221],[45,-28]],[[3685,1193],[-29,-84],[-35,-121],[-55,-170]],[[3566,818],[-58,-171],[-18,-41],[-44,0],[-12,-32],[-40,-5]],[[4877,1269],[-29,-23],[5,-40],[-43,7],[-43,86],[-44,27],[-40,-8],[-97,-60],[-2,39],[-22,43],[-10,-38],[-35,-50],[-58,-52],[20,-38],[43,-20],[58,-7],[2,-25],[-53,-48],[-15,-32]],[[4514,1030],[-39,-64]],[[4417,995],[-51,22],[-118,25]],[[4248,1042],[104,204],[106,195],[52,24],[55,-7],[312,-189]],[[5077,761],[-195,300]],[[4882,1061],[196,86],[60,57],[97,109],[80,62],[-28,51]],[[5287,1426],[30,5],[164,77],[258,-16],[77,-19],[77,-38],[82,-77],[46,-78],[59,-115]],[[6080,1165],[-132,-59],[-343,-178],[53,-95],[-126,-62],[-104,178],[-220,-90],[-131,-98]],[[5077,761],[-48,-38],[-69,-80]],[[4960,643],[-57,46],[-78,75],[-91,55]],[[4514,1030],[96,-59],[60,72],[63,-56],[149,74]],[[4335,871],[-136,78],[-40,-51],[-80,38],[-30,-54],[-58,21],[79,178]],[[4070,1081],[178,-39]],[[3257,934],[229,387]],[[3486,1321],[154,-100]],[[2600,314],[223,158]],[[2987,291],[-80,-44],[75,-115]],[[2982,132],[-41,-5],[-177,95],[-164,92]],[[4270,175],[-24,30]],[[4246,205],[-66,83],[-36,0],[62,40],[-93,116],[-58,-33]],[[4055,411],[-22,61]],[[4033,472],[75,24],[43,90],[57,100],[55,53],[51,66],[17,52]],[[4497,679],[34,-56],[105,-223]],[[4636,400],[-75,14],[-53,-9],[-65,-26],[-82,-65],[-35,-127],[-56,-12]],[[4246,205],[-56,-35],[-154,199],[19,42]],[[9704,9788],[-99,117],[13,9],[40,-48],[1,26],[49,17],[74,-77],[136,127],[70,40],[11,-33],[-42,-19],[12,-13],[-89,-82],[-35,-13],[23,-20],[-62,-58],[-32,-7],[-36,13],[-9,33],[-25,-12]],[[12,4105],[234,-230],[-43,-33],[-152,149],[-51,-2],[27,36],[-23,78],[8,2]],[[4960,643],[221,-172],[121,-103]],[[5302,368],[-88,-96],[-39,-23],[-6,-66],[-54,-44],[-37,-77],[-12,-48],[-75,10],[-55,-3],[-54,9],[-20,71],[-106,190],[-73,10],[-47,99]],[[4877,1269],[28,29],[-46,55],[10,33],[68,49],[-47,24],[-32,-29],[-100,-34],[-33,16],[3,76],[86,43],[16,26],[-6,37]],[[4824,1594],[208,-56],[142,-12],[84,-64],[29,-36]],[[6080,1165],[89,-176],[-50,-24],[90,-167],[-160,-73],[-84,159],[-259,-135],[110,-192],[163,-317],[-12,-28],[-225,-174],[-11,-13],[-201,147],[-124,103],[-104,93]],[[3896,1124],[174,-43]],[[4033,472],[-289,-90]],[[3744,382],[-314,-102],[-328,-110],[-120,-38]],[[3109,678],[4,7]],[[3685,1193],[50,-25]],[[3735,1168],[-5,-18],[50,-34],[-11,-114],[66,-25],[49,103],[12,44]],[[4270,175],[-83,-41],[-28,35],[-86,-60],[46,-50],[-49,-51],[-10,16],[-48,-24],[-35,52],[-87,105],[-12,32],[-134,193]],[[3735,1168],[161,-44]],[[3461,1359],[25,-38]],[[2600,314],[-45,33],[121,133],[-77,60],[-401,332],[84,118],[270,-222],[98,108],[10,0],[245,255],[15,6],[103,107],[5,15],[187,193],[22,7],[68,-44],[-12,30],[107,-59],[23,-27],[38,0]],[[1557,5995],[73,-66],[34,33],[96,-79],[-34,-45],[-87,83],[-12,-8],[-316,262],[10,24],[236,-204]],[[1285,6260],[-2,-36],[-22,15],[-95,-137],[-13,8],[73,114],[-8,5],[95,120],[10,-8],[-38,-81]],[[4657,1777],[59,21],[11,-17],[-44,-71],[35,9],[42,32],[28,-3],[50,-30],[-6,-17],[-51,-10],[3,-29],[40,-68]],[[3461,1359],[18,19],[78,-5],[70,14],[215,86]],[[3842,1473],[52,13],[294,55],[359,64],[-14,123],[-14,-2],[-17,68],[19,-4],[75,21],[15,-71],[48,9],[-2,28]],[[8192,7684],[51,-18],[-7,-15],[142,-73],[-7,-17],[49,-24],[-30,-40],[-75,40],[-27,-40],[39,-21],[-33,-61],[-71,52],[-14,-54],[-46,27],[18,59],[-54,39],[-83,-265],[28,-12],[-20,-74],[20,-28],[134,-68],[-31,-40],[-82,-1],[-194,56],[11,92],[-12,30],[-97,65],[-18,-24],[-261,38],[-9,122],[-46,0],[3,79],[-30,21],[299,43],[24,58],[66,-46],[160,28],[35,85],[24,32],[30,-30],[114,-15]],[[8850,6720],[42,-96],[-38,-30],[-52,50],[-34,-12],[-39,-45],[-40,51],[-65,-80],[-42,93],[83,82],[37,-24],[65,69],[-17,27],[55,49],[69,-119],[-24,-15]],[[8650,6762],[-11,-12],[-57,36],[57,68],[-16,14],[52,62],[51,-86],[-76,-82]],[[8480,6851],[-21,-29],[-81,-31],[-30,59],[-99,-83],[-28,62],[70,80],[-3,68],[-57,36],[70,62],[51,-84],[-36,-33],[164,-107]],[[8569,7028],[-40,-49],[-15,21],[29,30],[-13,14],[40,52],[27,-34],[-28,-34]],[[8438,7318],[28,-43],[-23,4],[-43,-25],[-11,21],[49,43]],[[3842,1473],[42,30],[275,341],[44,29],[35,53],[108,23],[85,13],[35,-84],[74,24],[10,34],[-57,62],[32,2],[67,-61],[-2,-35],[64,-31],[7,-22],[-29,-70],[25,-4]],[[3734,1625],[-49,73],[147,103],[64,-86],[-69,-34],[-93,-56]]]}
