{"type":"Topology","bbox":[-74.56278664643253,4.381264324767863,-74.4511705959714,4.477556660149147],"transform":{"scale":[0.000011162721318244124,0.000009630196557784146],"translate":[-74.56278664643253,4.381264324767863]},"objects":{"municipios":{"type":"GeometryCollection","geometries":[{"type":"Polygon","arcs":[[0]]},{"type":"Polygon","arcs":[[1,2]]},{"type":"Polygon","arcs":[[-2,3,4,5,6,7]]},{"type":"Polygon","arcs":[[8,9,10,11,-6]]},{"type":"Polygon","arcs":[[12,-7,13,14]]},{"type":"Polygon","arcs":[[15,-14,-12,16,17]]},{"type":"Polygon","arcs":[[-11,18,-17]]},{"type":"Polygon","arcs":[[-5,19,-9]]},{"type":"Polygon","arcs":[[-15,-16,20]]},{"type":"Polygon","arcs":[[21]]},{"type":"Polygon","arcs":[[22]]}]}},"arcs":[[[5603,244],[80,-86],[12,33],[38,51],[47,-55],[-20,-18],[34,-41],[39,-11],[7,-34],[16,-10],[-28,-42],[-21,-2],[-5,29],[-17,-5],[7,-38],[-71,-15],[-40,20],[10,23],[-32,22],[10,23],[-125,137],[-28,10],[-10,-14],[-47,39],[83,114],[37,-33],[24,-97]],[[3870,5771],[-12,-73],[-31,-66],[-34,-44],[-47,-31],[-16,9],[-6,51],[44,66],[23,91],[-6,44],[37,76],[14,47],[202,5],[42,8]],[[4080,5954],[3,-47],[-158,-2],[-52,-28],[-11,-86],[8,-20]],[[3870,5771],[20,4],[79,-47],[5,-16],[-22,-63],[-21,-94],[13,-28],[-3,-73],[-26,-48],[7,-86],[-10,-23],[-49,-33],[-28,-4],[-71,8]],[[3764,5268],[-83,49],[-65,16],[-55,0]],[[3561,5333],[31,156],[3,76],[38,124],[31,114],[43,181],[21,72]],[[3728,6056],[28,-6],[73,2],[53,-34],[67,4],[138,64]],[[4087,6086],[177,8],[15,-27],[-87,-125],[-73,17],[-39,-5]],[[3561,5333],[-13,2],[15,68],[-13,83],[-5,70]],[[3545,5556],[8,7]],[[3553,5563],[25,47],[-18,34],[-72,44],[4,60],[59,72],[7,40],[-40,26]],[[3518,5886],[59,82],[49,89],[42,33],[60,-34]],[[3942,6486],[25,-28],[82,-73],[-3,-55],[66,-41],[25,-5],[48,-32],[-34,-26],[-54,0],[-37,-28],[-33,-4],[-77,7],[25,-32],[27,-7],[70,5],[35,28],[25,-8],[-1,-57],[-44,-44]],[[3728,6056],[8,36],[-66,60],[-11,24],[-7,101],[-12,54],[-39,114]],[[3601,6445],[108,60],[-8,36],[47,21],[15,-116],[69,19],[110,21]],[[3551,6762],[8,-81],[2,-100],[6,-40],[34,-96]],[[3518,5886],[-26,16],[-37,1],[-77,126],[-110,170],[-51,106],[-3,22],[-47,25],[-31,46],[-77,19],[-66,5],[-19,-17],[-3,-48],[-36,-19],[-91,26],[-39,-11]],[[2805,6353],[-10,25],[-104,-36],[-35,-22],[-40,5],[-54,-10],[-40,6],[-37,59],[22,29],[-15,33],[23,13],[11,-22],[-10,-39],[9,-22],[39,-26],[28,5],[69,41],[60,-3],[179,64],[-4,17],[70,27],[23,-21],[12,30],[69,30],[5,-25],[-15,-21],[102,1],[6,-47],[19,-45],[40,22],[30,30],[-11,95],[-17,29],[76,56],[6,-39],[35,-65],[16,30],[-30,52],[14,58],[-5,68],[156,29],[54,-2]],[[3553,5563],[-136,74],[-29,87],[-27,24],[-20,41],[-53,-1],[-79,-23],[-7,-10],[-81,19],[4,39],[-14,14],[9,52],[18,28],[47,-8],[70,8],[-56,63],[-36,51],[7,40],[-138,-164],[-67,-65],[-33,50],[-22,56],[-27,105],[-5,97],[-47,101],[-85,24],[59,88]],[[3764,5268],[-27,-64],[-36,-47],[2,-33],[26,3],[13,-30],[-16,-183],[5,-66],[-81,47],[-32,39],[-27,-26],[25,-20],[6,-43],[-69,26],[-6,-37],[15,-51],[28,19],[24,-74],[-33,17],[-3,20],[-35,3],[-45,-74],[-4,-22],[26,-16],[16,-29],[-54,-10],[-1,-35],[-21,-5],[-1,76],[-29,36],[18,70],[40,9],[48,64],[5,43],[18,46],[-14,53],[-27,16],[13,40],[-23,16],[-89,15],[5,108],[-4,56],[-88,102],[-28,76],[7,56],[30,43],[35,12],[72,-9],[30,9],[67,42]],[[3551,6762],[65,2],[44,11],[96,1],[-4,57],[-26,73],[30,71],[27,20],[29,-41],[42,3],[5,51],[39,0],[5,25],[144,-4],[-23,-52],[12,-54],[14,-23],[-9,-58],[13,9],[22,-66],[-23,-27],[-180,-53],[-62,-22],[26,-55],[105,-144]],[[9825,9969],[-19,-20],[156,-161],[-11,-35],[-12,-147],[60,-27],[-3,-24],[-85,-3],[-2,-54],[-33,15],[3,33],[-27,56],[-86,50],[-11,-21],[-83,113],[12,61],[-44,47],[-4,34],[23,48],[79,47],[6,-16],[96,34],[-15,-30]],[[405,7269],[29,-18],[69,-5],[21,-17],[-60,-8],[-58,6],[17,-78],[-15,-157],[12,-59],[-53,-41],[-6,-32],[30,-21],[-9,-20],[-43,26],[-48,15],[-42,-79],[-28,3],[26,-38],[-63,-43],[43,-67],[-1,-28],[-98,11],[-99,36],[-29,28],[30,36],[7,38],[-8,33],[28,45],[67,153],[28,11],[41,-40],[37,29],[-5,18],[50,-2],[38,-12],[31,183],[4,68],[25,-10],[19,36],[13,0]]]}
