{"type":"Topology","bbox":[-74.47408205392321,4.840310322527053,-74.46421317141522,4.880913566124764],"transform":{"scale":[9.869869494937059e-7,0.000004060730432814365],"translate":[-74.47408205392321,4.840310322527053]},"objects":{"municipios":{"type":"GeometryCollection","geometries":[{"type":"Polygon","arcs":[[0,1]]},{"type":"Polygon","arcs":[[-2,2]]},{"type":"Polygon","arcs":[[3]]}]}},"arcs":[[[9998,9363],[-492,-97],[483,-143],[-223,-36],[-421,116],[-368,-73],[-156,94],[-278,-71],[-73,-111],[-403,-188],[-356,-30],[-764,-152],[111,-42],[-981,-135],[-366,87],[159,88]],[[5870,8670],[690,36],[253,288],[373,235],[-540,124],[187,156],[295,-23],[165,110],[1158,-94],[318,-214],[1229,75]],[[5870,8670],[-735,-33],[-191,40],[-11,182],[-1128,64],[495,333],[-5,250],[727,45],[750,6],[-228,187],[-42,172],[680,83],[1352,-40],[787,-296],[806,-37],[353,-61],[518,-202]],[[2327,422],[932,-105],[-320,-106],[-613,68],[-468,-127],[28,-75],[-584,-77],[-440,69],[-511,18],[-45,-69],[-306,96],[184,166],[1350,-105],[628,252],[165,-5]]]}