{"type":"Topology","bbox":[-74.46918645899717,4.873384656659721,-74.41953939032203,4.918557291490877],"transform":{"scale":[0.000004965203387853009,0.000004517715254641027],"translate":[-74.46918645899717,4.873384656659721]},"objects":{"municipios":{"type":"GeometryCollection","geometries":[{"type":"Polygon","arcs":[[0,1,2]],"properties":{"codigo":"25019100000000000101","sector":"250191000000000001","pcode":"CO25019","area_m2":200125}},{"type":"Polygon","arcs":[[3,4,-2]],"properties":{"codigo":"25019100000000000103","sector":"250191000000000001","pcode":"CO25019","area_m2":89137}},{"type":"Polygon","arcs":[[-4,-1,5]],"properties":{"codigo":"25019100000000000102","sector":"250191000000000001","pcode":"CO25019","area_m2":162680}},{"type":"Polygon","arcs":[[6]],"properties":{"codigo":"25019200101001000101","sector":"250192001010010001","pcode":"CO25019","area_m2":281263}},{"type":"Polygon","arcs":[[7]],"properties":{"codigo":"25019200101002000101","sector":"250192001010020001","pcode":"CO25019","area_m2":182731}},{"type":"Polygon","arcs":[[8]],"properties":{"codigo":"25019200102003000101","sector":"250192001020030001","pcode":"CO25019","area_m2":400284}}]}},"arcs":[[[6540,1166],[-72,-7],[-1,-185],[-247,38]],[[6220,1012],[-171,198],[-92,-111],[79,-140],[-123,-81],[-150,318],[-162,138]],[[5601,1334],[11,233],[261,311],[-52,163],[13,75],[143,114],[2,-180],[108,-76],[99,200],[69,-15],[142,-120],[37,-329],[-99,-261],[-3,-131],[46,-71],[162,-81]],[[6220,1012],[-23,-304],[144,-32],[-27,-157],[-132,38],[21,-183],[-69,30],[27,-125]],[[6161,279],[-243,-66],[-121,138],[36,-1],[97,231],[-72,158],[45,26],[-91,197],[-133,134],[20,34],[-114,79],[16,125]],[[6540,1166],[138,-74],[185,-388],[-6,-347],[58,-85],[-27,-132],[-76,-102],[-152,-38],[-111,43],[-27,81],[-118,114],[-47,-77],[-97,-10],[-99,128]],[[438,9788],[97,-63],[-47,81],[92,35],[69,-74],[35,-142],[124,-2],[189,209],[31,85],[64,-175],[51,-36],[-214,-238],[-46,-156],[41,-99],[-31,-95],[94,-327],[-56,-72],[-45,39],[-76,-62],[-61,117],[-56,24],[-99,-47],[0,-196],[86,6],[-104,-179],[-94,0],[-18,63],[-91,-21],[-54,48],[-161,-68],[-63,54],[-34,121],[24,129],[115,142],[-27,530],[-59,223],[-114,142],[58,-11],[-46,113],[77,113],[349,-211]],[[1841,6670],[137,168],[114,-50],[-4,-66],[123,99],[48,-57],[-90,-75],[109,-204],[-62,-20],[112,-113],[61,81],[32,-71],[204,200],[99,-218],[-53,-44],[54,-215],[-115,-128],[29,-135],[-217,25],[-5,36],[-435,-1],[-11,194],[22,104],[-144,57],[-117,106],[-11,68],[-103,-52],[-76,57],[114,194],[-33,112],[-63,33],[31,121],[78,-40],[172,-166]],[[9762,8552],[73,1],[164,97],[-63,-292],[-78,-201],[-70,-82],[-109,-288],[11,-183],[38,-143],[-64,-172],[13,-107],[-40,-201],[-60,-85],[-169,82],[-6,177],[-114,181],[-139,133],[-48,122],[-182,50],[-79,71],[-4,90],[-112,-67],[-88,137],[-163,148],[79,209],[170,52],[260,-43],[-39,44],[152,148],[26,203],[97,352],[58,-44],[483,-137],[10,-141],[-84,-67],[77,-44]]]}
