{"type":"Topology","bbox":[-74.5158682278788,4.026873946620431,-74.4748954521117,4.0925852607579465],"transform":{"scale":[0.0000040976873454447566,0.000006571788592610802],"translate":[-74.5158682278788,4.026873946620431]},"objects":{"municipios":{"type":"GeometryCollection","geometries":[{"type":"Polygon","arcs":[[0]]},{"type":"Polygon","arcs":[[1]]},{"type":"Polygon","arcs":[[2,3]]},{"type":"Polygon","arcs":[[-3,4]]}]}},"arcs":[[[294,263],[29,1],[30,-18],[25,8],[26,-43],[26,2],[19,-48],[76,16],[80,-67],[28,-30],[23,12],[-33,-71],[-21,-25],[-78,15],[-66,33],[-41,-41],[-75,56],[-81,-29],[-31,49],[-41,5],[-4,90],[-174,52],[-6,35],[79,82],[136,-42],[74,-42]],[[7367,8848],[71,-77],[-43,-32],[-75,-9],[-73,12],[-41,-2],[-145,-21],[-25,-7],[11,70],[79,23],[130,3],[111,40]],[[9751,9605],[36,-40],[63,-98],[-583,28],[-156,1],[-12,-60],[-24,-41],[-61,-53],[-88,-64],[-48,-41],[-51,-77],[-41,-29],[-75,-32],[-143,-29],[-108,-6],[-25,-10]],[[8435,9054],[-76,-14],[-60,8],[-44,-9],[101,-62],[-94,-55],[-119,49],[-75,-64],[-19,10],[62,64],[126,83],[-58,37],[42,17],[145,14],[30,-12],[84,1],[42,-31],[161,12],[-62,89],[-178,200],[236,-7],[38,62],[82,8],[74,-1],[15,7],[-17,53],[21,16],[-8,124],[-107,10],[-63,33],[325,29],[-29,17],[-38,65],[42,8],[-12,53],[-45,117],[82,14],[262,-14],[-56,-147],[282,-33],[61,-3],[10,-95],[42,-29],[93,-84],[18,11]],[[9751,9605],[57,63],[150,34],[40,-56],[-176,-43],[-8,-5],[151,-75],[-23,-35],[34,-53],[-16,-4],[39,-53],[-57,-16],[20,-41],[-317,-8],[1,-5],[-130,-38],[-43,-6],[-25,35],[-159,-12],[-167,-8],[96,-48],[-171,-36],[45,-78],[-121,-24],[50,-82],[-86,-33],[-56,104],[-23,30],[-120,-54],[-59,-1],[-111,-18],[-123,-5],[-8,20]]]}
