{"type":"Topology","bbox":[-73.69217330241474,5.137635818174043,-73.67395000924148,5.1527924931866975],"transform":{"scale":[0.0000018225115684832693,0.0000015158190831738004],"translate":[-73.69217330241474,5.137635818174043]},"objects":{"municipios":{"type":"GeometryCollection","geometries":[{"type":"Polygon","arcs":[[0,1,2,3]],"properties":{"codigo":"25183100000000000105","sector":"251831000000000001","pcode":"CO25183","area_m2":120157}},{"type":"Polygon","arcs":[[4,5,6]],"properties":{"codigo":"25183100000000000108","sector":"251831000000000001","pcode":"CO25183","area_m2":31280}},{"type":"Polygon","arcs":[[7,8,9]],"properties":{"codigo":"25183100000000000110","sector":"251831000000000001","pcode":"CO25183","area_m2":21552}},{"type":"Polygon","arcs":[[-9,10,11]],"properties":{"codigo":"25183100000000000111","sector":"251831000000000001","pcode":"CO25183","area_m2":24077}},{"type":"Polygon","arcs":[[12,-4,13,14,-6,15,16]],"properties":{"codigo":"25183100000000000104","sector":"251831000000000001","pcode":"CO25183","area_m2":303950}},{"type":"Polygon","arcs":[[17,18,19]],"properties":{"codigo":"25183100000000000101","sector":"251831000000000001","pcode":"CO25183","area_m2":161612}},{"type":"Polygon","arcs":[[20,-3,-20,21]],"properties":{"codigo":"25183100000000000102","sector":"251831000000000001","pcode":"CO25183","area_m2":197535}},{"type":"Polygon","arcs":[[-21,22,-14]],"properties":{"codigo":"25183100000000000103","sector":"251831000000000001","pcode":"CO25183","area_m2":187114}},{"type":"Polygon","arcs":[[23,24,-10,-12,25,-18,-2]],"properties":{"codigo":"25183100000000000106","sector":"251831000000000001","pcode":"CO25183","area_m2":241363}},{"type":"Polygon","arcs":[[26,-24,-1,-13]],"properties":{"codigo":"25183100000000000107","sector":"251831000000000001","pcode":"CO25183","area_m2":251829}},{"type":"Polygon","arcs":[[-16,-5,27]],"properties":{"codigo":"25183100000000000109","sector":"251831000000000001","pcode":"CO25183","area_m2":36055}}]}},"arcs":[[[5646,4358],[-462,-354],[-1042,-742],[-206,-173]],[[3936,3089],[-297,489],[-269,508],[-280,477]],[[3090,4563],[440,301],[1186,975]],[[4716,5839],[342,-593],[588,-888]],[[9643,7879],[-226,-381],[-110,37],[-467,-233]],[[8840,7302],[-302,686],[612,763]],[[9150,8751],[75,-122],[74,39],[344,-789]],[[2953,614],[-135,-72],[-138,34]],[[2680,576],[30,303],[-310,432],[-241,-6],[-320,353]],[[1839,1658],[-115,125],[325,407],[32,81],[766,-1171],[106,-486]],[[2680,576],[-731,13],[-127,87],[-269,390]],[[1553,1066],[208,129],[42,100],[36,363]],[[8748,4224],[-1060,389],[-197,90],[-244,-69],[-424,455],[-84,-81],[-732,-418],[-361,-232]],[[4716,5839],[959,736],[457,328],[1477,1132],[213,129],[827,645],[121,188],[818,536]],[[9588,9533],[77,-209],[-515,-573]],[[8840,7302],[-367,-204],[241,-459]],[[8714,6639],[-36,-29],[-518,-31],[-372,-79],[-386,-199],[293,-601],[343,-902],[650,-162],[60,-412]],[[3090,4563],[-2013,-1481],[-194,-289],[-132,-516]],[[751,2277],[-206,55],[-51,306],[199,287],[108,84],[-96,125],[112,117],[-34,109],[-232,238],[106,185],[-175,165],[-204,111],[-74,266],[-204,205],[117,299],[180,129],[172,-236],[6,-83],[208,-94],[57,-312],[195,-184],[121,120],[176,-91],[26,98],[-104,57],[-168,198],[101,173],[-176,223],[191,274],[38,150],[212,200],[-240,299],[250,280]],[[1362,6030],[479,-123],[284,242],[720,-1156],[245,-430]],[[2946,7237],[382,-597],[71,-154],[806,381],[511,-1028]],[[1362,6030],[-144,-4],[-279,213],[-439,536],[158,212],[297,278],[135,66],[351,47],[789,-152],[376,-25],[340,36]],[[2946,7237],[1303,173],[688,79],[319,96],[755,330],[944,449],[-90,244],[520,224],[61,-163],[592,258],[510,249],[697,435],[572,388],[131,-227],[-360,-239]],[[3936,3089],[180,-277]],[[4116,2812],[-78,-82],[-240,220],[-181,-172],[-358,-236],[147,-402],[-211,-168],[-27,-146],[63,-159],[-78,-74],[91,-199],[-126,-76],[184,-263],[288,-323],[239,-168],[286,-279],[182,-266],[-161,-19],[-460,175],[-628,318],[-95,121]],[[1553,1066],[-24,38],[-371,60],[-591,432],[184,681]],[[8748,4224],[256,-86],[164,31],[-166,-251],[211,-495],[-530,-435],[-36,121],[89,99],[-229,467],[-585,232],[-25,-75],[-258,-111],[-424,-362],[-477,-440],[-106,-70],[-631,-222],[90,-758],[-202,0],[-237,-145],[-813,659],[-271,234],[-75,14],[-116,-162],[353,-374],[-269,-182],[-216,258],[2,464],[-131,177]],[[9643,7879],[89,150],[267,-554],[-154,-91],[-63,124],[-130,-63],[92,-183],[116,-415],[-206,-73],[35,-89],[-844,-88],[-131,42]]]}
