{"type":"Topology","bbox":[-74.3519940032698,4.639205119114833,-74.3046281874154,4.7456965876098245],"transform":{"scale":[0.000004737055290968222,0.000010650211870686205],"translate":[-74.3519940032698,4.639205119114833]},"objects":{"municipios":{"type":"GeometryCollection","geometries":[{"type":"Polygon","arcs":[[0,1,2,3]],"properties":{"codigo":"25099100000000000101","sector":"250991000000000001","pcode":"CO25099","area_m2":188811}},{"type":"Polygon","arcs":[[4,-2]],"properties":{"codigo":"25099100000000000102","sector":"250991000000000001","pcode":"CO25099","area_m2":267824}},{"type":"Polygon","arcs":[[-4,5,6,7]],"properties":{"codigo":"25099100000000000103","sector":"250991000000000001","pcode":"CO25099","area_m2":295244}},{"type":"Polygon","arcs":[[-7,8]],"properties":{"codigo":"25099100000000000104","sector":"250991000000000001","pcode":"CO25099","area_m2":429472}},{"type":"Polygon","arcs":[[9]],"properties":{"codigo":"25099200104002000101","sector":"250992001040020001","pcode":"CO25099","area_m2":79422}}]}},"arcs":[[[2268,9059],[-34,-39],[144,-25],[-37,-60],[22,-64],[19,-83],[237,-3],[1,7],[193,-9],[-11,-46],[-93,4],[-13,-68],[11,-52]],[[2707,8621],[-90,7],[-208,26],[-10,60],[-290,-14],[-29,-7],[-206,-13],[-49,169]],[[1825,8849],[74,3],[-16,68],[-33,51],[-167,96],[-106,-12],[-16,-68],[-265,15],[84,79],[93,100]],[[1473,9181],[176,-96],[262,29],[177,104],[18,-112],[-17,-21],[179,-26]],[[2707,8621],[221,-18],[28,-6],[-59,-60],[-115,-85],[-30,-40],[-10,-64],[-398,-17],[-5,-34],[-310,-10],[4,77],[-202,-16],[-28,30],[-50,151],[-137,-10],[-53,282],[-21,59],[283,-11]],[[1473,9181],[-76,26]],[[1397,9207],[80,47],[-107,54],[-28,53],[-48,117],[-18,130],[-12,15],[-187,118],[68,58],[211,-8]],[[1356,9791],[129,-7],[54,-75],[119,-59],[12,-38],[193,-5],[27,-25],[277,-26],[45,-13],[146,-4],[302,-18],[-76,-106],[-131,-153],[-233,128],[-124,40],[-352,56],[-134,-126],[209,-42],[85,25],[54,-13],[-71,-46],[204,-64],[22,3],[116,-30],[142,-15],[-103,-119]],[[1397,9207],[-105,30],[-215,54],[-312,-13],[-119,-2],[-190,-9],[-136,-11],[-11,5],[21,86],[-27,12],[-131,27],[-169,23],[60,32],[179,140],[84,78],[53,95],[106,226],[69,19],[92,-4],[150,-24],[260,-23],[330,-17],[-34,-107],[4,-33]],[[8765,318],[-7,-17],[66,-2],[26,-14],[53,0],[40,-16],[71,-6],[45,-16],[59,8],[12,29],[64,-7],[32,8],[29,40],[36,-4],[30,-32],[140,10],[-7,12],[65,3],[45,-51],[-5,-17],[216,1],[59,-23],[54,3],[111,-9],[-66,-28],[-19,-57],[67,-80],[-3,-20],[-38,-24],[-59,-9],[-65,6],[-31,15],[-119,116],[-93,47],[-81,12],[-745,65],[-284,24],[-26,16],[37,13],[95,12],[47,-12],[75,3],[4,18],[70,-17]]]}
