{"type":"Topology","bbox":[-74.68041017256724,4.3580568528302175,-74.6588537865722,4.390289556499107],"transform":{"scale":[0.0000021558541849225652,0.0000032235927261616025],"translate":[-74.68041017256724,4.3580568528302175]},"objects":{"municipios":{"type":"GeometryCollection","geometries":[{"type":"Polygon","arcs":[[0,1,2,3]],"properties":{"codigo":"25001100000000000103","sector":"250011000000000001","pcode":"CO25001","area_m2":169931}},{"type":"Polygon","arcs":[[4,-4,5,6]],"properties":{"codigo":"25001100000000000203","sector":"250011000000000002","pcode":"CO25001","area_m2":122616}},{"type":"Polygon","arcs":[[7,8,9,10]],"properties":{"codigo":"25001100000000000205","sector":"250011000000000002","pcode":"CO25001","area_m2":294911}},{"type":"Polygon","arcs":[[11,12,13,14,15]],"properties":{"codigo":"25001100000000000101","sector":"250011000000000001","pcode":"CO25001","area_m2":197821}},{"type":"Polygon","arcs":[[16,-6,-3,-16,17]],"properties":{"codigo":"25001100000000000102","sector":"250011000000000001","pcode":"CO25001","area_m2":98687}},{"type":"Polygon","arcs":[[18,19,-14]],"properties":{"codigo":"25001100000000000107","sector":"250011000000000001","pcode":"CO25001","area_m2":71438}},{"type":"Polygon","arcs":[[-2,20,21,22,23,24,-12]],"properties":{"codigo":"25001100000000000104","sector":"250011000000000001","pcode":"CO25001","area_m2":466585}},{"type":"Polygon","arcs":[[25,-7,-17,26,27,-8]],"properties":{"codigo":"25001100000000000202","sector":"250011000000000002","pcode":"CO25001","area_m2":370945}},{"type":"Polygon","arcs":[[-22,28,29]],"properties":{"codigo":"25001100000000000105","sector":"250011000000000001","pcode":"CO25001","area_m2":703188}},{"type":"Polygon","arcs":[[30,-24]],"properties":{"codigo":"25001100000000000106","sector":"250011000000000001","pcode":"CO25001","area_m2":174788}},{"type":"Polygon","arcs":[[-9,-28,31,32]],"properties":{"codigo":"25001100000000000206","sector":"250011000000000002","pcode":"CO25001","area_m2":397152}},{"type":"Polygon","arcs":[[-32,-27,-18,-15,-20,33]],"properties":{"codigo":"25001100000000000201","sector":"250011000000000002","pcode":"CO25001","area_m2":452120}},{"type":"Polygon","arcs":[[34,-29,-21,-1,-5,-26,-11]],"properties":{"codigo":"25001100000000000204","sector":"250011000000000002","pcode":"CO25001","area_m2":359942}}]}},"arcs":[[[5617,4950],[118,-107],[39,-105],[-134,-250],[-88,-308],[-144,-255]],[[5408,3925],[-110,37],[-202,210],[-257,8],[-260,84],[-49,150],[-74,55],[-438,176],[49,57],[-118,123],[-259,358],[-134,235]],[[3556,5418],[1156,318]],[[4712,5736],[271,-374],[108,-207],[225,-325],[301,120]],[[7169,6074],[-260,-271],[-203,-87],[-239,-35],[-273,-141],[-53,-66],[-446,-270],[-78,-254]],[[4712,5736],[315,95]],[[5027,5831],[1212,354],[126,-60],[268,-44],[430,12],[106,-19]],[[7213,6128],[410,613],[269,283],[-25,342],[-145,269],[-127,113],[-27,102],[186,232]],[[7754,8082],[65,63],[214,-64],[218,-103],[270,-66]],[[8521,7912],[564,-51],[-29,-114],[-245,-26],[3,-133],[90,-178],[439,-96],[15,-41],[-309,-220],[-270,-151],[163,-154],[409,-275],[53,-134],[420,-51],[175,-125],[-26,-116],[-200,-157],[-112,73],[-183,-8],[-261,-138]],[[9217,5817],[-519,-86],[-385,-3],[-251,121],[-157,33],[-171,81],[-233,60],[-173,86],[-115,19]],[[3556,5418],[-380,-96],[-39,62],[-245,-30],[-119,94],[-561,-232],[-215,-31],[-233,8],[-653,167],[-177,19],[-139,-139]],[[795,5240],[-482,214],[110,162],[487,513],[129,120]],[[1039,6249],[602,-459],[449,257]],[[2090,6047],[473,277],[527,24]],[[3090,6348],[10,-38],[456,-892]],[[4654,6274],[129,-98],[244,-345]],[[3090,6348],[344,-111],[335,107],[263,49],[220,-54],[239,-13],[163,-52]],[[1039,6249],[14,9],[-589,475],[74,540]],[[538,7273],[15,-8],[1537,-1218]],[[5408,3925],[131,-71],[60,-308],[-34,-285],[283,-325],[278,-204]],[[6126,2732],[-14,-8]],[[6112,2724],[-50,-6],[-498,139],[-241,120],[-107,187],[-54,233],[31,135],[-403,24],[-122,276],[-198,129],[-220,-51],[-98,-152],[-359,-202],[143,-169],[-538,-92],[-78,-393],[-211,77],[-114,74],[-20,108],[-159,201],[-205,318],[-201,-12]],[[2410,3668],[-138,156],[-139,103],[228,20],[-415,266],[103,233],[65,80],[-340,236],[-265,144],[-105,-98],[185,-104],[-323,-269],[-97,25],[113,90],[-244,-4],[-33,256],[44,160],[-82,78],[32,91],[-165,40],[-125,-18]],[[709,5153],[86,87]],[[7213,6128],[-44,-54]],[[4654,6274],[154,144],[299,65],[166,-25],[147,234],[-37,249],[18,769]],[[5401,7710],[243,8],[287,-31],[557,-107],[51,122],[262,420],[953,-40]],[[6126,2732],[304,128],[76,81],[28,358],[254,512],[171,228],[15,126],[-59,203],[-36,258],[37,223],[-75,123],[17,163],[-39,268],[422,-17],[149,46]],[[7390,5432],[-82,-121],[46,-190],[-29,-124],[40,-106],[-44,-54],[79,-213],[138,-180],[138,-79],[50,-104],[-17,-135],[38,-115],[193,-192],[116,-152],[173,-92],[111,-132],[20,-98],[-127,-196],[-39,-180],[-533,2],[11,-112],[-133,-94],[-213,36],[-214,0],[-157,-105],[-76,-101],[-44,-309],[-68,-76],[17,-142],[-125,-173],[129,-37],[43,-138],[166,-271],[200,-30],[-248,-108],[149,-98],[314,-15],[205,-34],[297,-247],[-228,-86],[-603,-160],[-282,-51],[-13,-106],[145,-68],[-163,-198],[-138,15],[6,-215],[-1829,-48],[-79,2088],[1382,636]],[[2410,3668],[-236,-15],[-516,12],[1,-39],[-633,53],[-277,-63],[-379,553],[-102,111],[-268,417],[322,78],[95,52],[292,326]],[[5401,7710],[17,393],[-184,0],[6,337]],[[5240,8440],[23,698],[47,556],[524,235],[119,2],[178,68],[211,-206],[385,-248],[-72,-40],[192,-75],[230,1],[56,-199],[296,-160],[134,4],[51,-243],[112,-142],[293,-123],[189,-53],[169,164],[360,-111],[-107,-185],[-109,-298],[47,-7],[-47,-166]],[[538,7273],[210,30],[301,-109],[177,-7],[221,-113],[167,-30],[53,-62],[30,118],[122,179],[204,-94],[203,-135],[331,-60],[-66,78],[285,120],[121,-35],[242,215],[407,282],[3,131],[185,-31],[190,59],[154,-18],[149,138],[429,92],[-156,309],[100,26],[67,-141],[162,-59],[136,65],[-201,204],[201,62],[92,-63],[183,16]],[[9217,5817],[62,-45],[-135,-95],[-156,-206],[-197,-65],[-349,32],[-268,-49],[-20,-62],[-248,-4],[-92,-314],[-108,47],[40,262],[-224,118],[-132,-4]]]}
