{"type":"Topology","bbox":[-74.22230806236377,5.1142323184138,-74.13990414059901,5.256012035196455],"transform":{"scale":[0.000008241216298104908,0.000014179389617227234],"translate":[-74.22230806236377,5.1142323184138]},"objects":{"municipios":{"type":"GeometryCollection","geometries":[{"type":"Polygon","arcs":[[0,1,2,3]],"properties":{"codigo":"25513100000000000103","sector":"255131000000000001","pcode":"CO25513","area_m2":116492}},{"type":"Polygon","arcs":[[4,5,6]],"properties":{"codigo":"25513100000000000203","sector":"255131000000000002","pcode":"CO25513","area_m2":320960}},{"type":"Polygon","arcs":[[7,8,9]],"properties":{"codigo":"25513100000000000101","sector":"255131000000000001","pcode":"CO25513","area_m2":541931}},{"type":"Polygon","arcs":[[10,11,12,-10,13,-2,14]],"properties":{"codigo":"25513100000000000102","sector":"255131000000000001","pcode":"CO25513","area_m2":209660}},{"type":"Polygon","arcs":[[-4,15,16]],"properties":{"codigo":"25513100000000000104","sector":"255131000000000001","pcode":"CO25513","area_m2":353130}},{"type":"Polygon","arcs":[[17,-15,-1,-17,18]],"properties":{"codigo":"25513100000000000201","sector":"255131000000000002","pcode":"CO25513","area_m2":636177}},{"type":"Polygon","arcs":[[-6,19,-18,20,21,22,23]],"properties":{"codigo":"25513100000000000202","sector":"255131000000000002","pcode":"CO25513","area_m2":370587}},{"type":"Polygon","arcs":[[24,25,-11,-20,-5]],"properties":{"codigo":"25513100000000000204","sector":"255131000000000002","pcode":"CO25513","area_m2":175546}},{"type":"Polygon","arcs":[[26,-8,-13,27]],"properties":{"codigo":"25513100000000000205","sector":"255131000000000002","pcode":"CO25513","area_m2":212636}},{"type":"Polygon","arcs":[[-22,28,29]],"properties":{"codigo":"25513100000000000206","sector":"255131000000000002","pcode":"CO25513","area_m2":162060}},{"type":"Polygon","arcs":[[-23,-30,30]],"properties":{"codigo":"25513100000000000207","sector":"255131000000000002","pcode":"CO25513","area_m2":884489}},{"type":"Polygon","arcs":[[31,-28,-12,-26]],"properties":{"codigo":"25513100000000000208","sector":"255131000000000002","pcode":"CO25513","area_m2":178416}},{"type":"Polygon","arcs":[[32,33]],"properties":{"codigo":"25513200101001000101","sector":"255132001010010001","pcode":"CO25513","area_m2":36670}},{"type":"Polygon","arcs":[[-33,34]],"properties":{"codigo":"25513200101001000102","sector":"255132001010010001","pcode":"CO25513","area_m2":40594}}]}},"arcs":[[[7702,1633],[-23,-123],[-28,-83],[-14,-20],[-17,-63],[13,-105],[19,-43]],[[7652,1196],[-28,-19],[-51,-71],[-8,-44],[-14,-14],[-92,-23],[-47,-26],[-6,11],[-66,18],[-10,14]],[[7330,1042],[58,45],[-2,33]],[[7386,1120],[27,10],[6,57],[39,-1],[38,64],[26,74],[16,64],[27,86],[25,49],[1,46],[10,67],[101,-3]],[[8307,1110],[-180,27],[-82,19],[-76,26],[-5,-41],[-48,-10]],[[7916,1131],[-11,37],[-21,5],[-17,21],[0,20],[52,57],[34,52],[0,58],[50,115],[80,95],[12,19],[-16,39],[24,37],[-7,26],[25,4],[30,36],[84,46]],[[8235,1798],[49,-29],[61,-16],[58,-30],[53,4],[59,-18],[48,-31],[-4,-15],[-55,-36],[-48,2],[-41,-8],[-36,-30],[-1,-14],[28,-45],[69,-58],[1,-14],[50,-7],[5,-12],[-38,-14],[-22,7],[-95,-29],[-54,-34],[-50,-25],[-63,-4],[-28,-11],[57,-34],[-39,-58],[-14,5],[-26,-30],[-42,-27],[45,-16],[157,-36],[-12,-25]],[[7423,692],[22,-10],[-17,-9],[-19,-40],[11,-10],[-20,-22],[7,-11],[4,-61],[-35,-43],[4,-35],[-15,-22],[14,-15],[-14,-17],[26,-2],[3,-121],[55,-8]],[[7449,266],[-2,-35],[-10,-20],[-75,-7],[-34,-12],[-6,-42],[-22,-26],[46,-108],[-9,-9],[-220,-4],[-28,-3],[-12,30],[-25,31],[-30,25],[-53,29],[-23,-15],[-106,-4],[-57,23],[-50,31],[-3,10],[20,33],[25,18],[44,10],[16,16],[-41,45],[-64,25],[19,32],[-28,23],[-10,56],[36,18],[36,32],[43,9],[-14,14],[32,28],[-16,29],[55,12],[17,21],[57,37],[35,28],[49,29],[15,18],[71,26],[63,8],[14,17]],[[7204,744],[129,63],[-40,-83],[66,-11],[-5,-9],[69,-12]],[[7809,1141],[-13,-52],[-47,-98],[-16,-76]],[[7733,915],[-70,12],[-60,-148],[-34,6],[5,15],[-48,5],[-29,-9],[-8,-59]],[[7489,737],[-66,-45]],[[7204,744],[-39,48],[4,22],[20,18],[72,29],[4,24],[16,12],[78,31],[-14,14],[-89,4],[0,17],[49,41],[33,4],[-18,27],[10,7]],[[7652,1196],[52,-34],[18,6],[13,-13],[74,-14]],[[7386,1120],[-42,-4],[-31,-18],[-84,10],[56,-29],[-126,-53],[-53,27],[-43,-18],[-154,69],[53,35],[19,-7],[54,21],[-9,12],[63,21],[13,35],[18,-2],[21,44],[21,17],[-41,8],[-69,-5],[-26,-8],[-34,37],[62,18],[16,50],[21,3],[9,29],[58,-1],[51,-26],[73,-19],[70,51],[48,-8],[-13,11],[19,30],[-22,5],[-44,-16],[-7,15],[-132,39],[15,15],[-121,33],[27,26],[43,27],[108,81],[59,-9],[86,19],[29,-62],[51,35],[17,24],[84,50],[-23,19],[28,23]],[[7604,1774],[53,-53],[42,-30],[3,-58]],[[8289,2275],[-7,-21],[-170,-47],[-41,-26],[-11,-14],[-14,-65],[-10,-21],[13,-48],[-1,-31],[-23,-58],[-33,-67],[-15,-41],[29,-90],[-40,-123],[-37,-53],[-22,-90],[-17,-48],[-18,-65],[-44,-140],[-19,-86]],[[7604,1774],[-29,26],[-65,-29],[-19,2],[-115,52],[57,46],[25,-1],[31,26],[-15,24],[4,21],[-45,82],[208,18],[-78,48],[-4,45],[-21,37],[7,50],[-9,20],[52,19],[-2,15],[19,27],[-66,56],[-3,38],[20,38],[117,-54],[28,-28],[-14,-24],[11,-20],[31,-7],[29,6],[44,-3],[40,-14],[39,-23],[47,7],[29,-2],[22,-15],[57,-1],[37,-15],[32,7],[3,19],[42,14],[114,-8],[25,2]],[[7916,1131],[-107,10]],[[8289,2275],[-1,27]],[[8288,2302],[13,21],[32,18],[-35,23],[-4,25],[124,13],[84,19]],[[8502,2421],[27,6],[60,-4],[163,48],[26,5],[154,4],[263,-1],[82,-16]],[[9277,2463],[-11,-33],[-36,-23],[-10,-16],[-40,-15],[-48,-38],[-7,35],[-19,15],[-69,-3],[-36,-10],[-58,29],[-57,-11],[-26,-20],[-16,-36],[-19,-9],[-32,2],[-40,19],[-21,19],[-29,-8],[1,-37],[-30,-10],[-27,-29],[-37,-2],[-41,17],[-28,28],[-67,-36],[-41,7],[-30,-30],[-37,-23],[17,-14],[-23,-8],[-14,-30],[-28,-9],[-31,-34],[-30,-6],[21,-34],[-68,-29],[-64,-32],[-11,-50],[19,-21],[-30,-86],[45,-3],[65,-15],[9,-49],[-8,-27]],[[8307,1110],[46,-6],[-33,-12],[-14,-16],[-40,-2],[-61,-51],[-11,-21],[32,-14],[19,3],[38,-13],[-9,-8],[57,-2],[-3,-12],[42,-13],[-11,-13],[-63,3],[-44,8],[-51,20],[-59,-1],[-40,-10],[-62,8],[-25,-14],[-13,-27],[22,-22],[-3,-23],[-63,-45]],[[7958,827],[-28,22],[-34,4],[-93,-14],[-16,-10],[-31,7],[7,15],[38,19],[-2,11],[-27,0],[-16,-17],[-26,2],[3,49]],[[7950,473],[-21,-10],[6,-31],[-12,-46],[-28,13],[-54,7],[-45,-11],[-124,-18],[-109,-25],[-60,-48],[-15,-30],[-39,-8]],[[7489,737],[63,-18],[64,-38],[58,-56],[58,-25],[115,-61],[28,-1],[43,-18],[5,-35],[27,-12]],[[8288,2302],[-105,14],[-36,17],[-1,23],[37,15],[-6,21],[-56,-4],[-13,49],[9,12],[47,8],[-10,71],[15,0],[6,38],[-72,-5],[-120,45],[-85,43],[41,31],[90,50]],[[8029,2730],[73,-27],[73,-16],[55,-34],[86,-66],[28,-10],[134,19],[14,-104],[-2,-47],[12,-24]],[[8029,2730],[42,32],[20,-9],[64,-2],[41,5],[28,-6],[24,-20],[86,3],[27,9],[16,24],[46,12],[109,-11],[68,-12],[46,16],[8,19],[24,8],[66,-22],[58,-5],[30,10],[25,27],[32,7],[21,-11],[20,21],[28,1],[16,12],[76,15],[33,-4],[35,11],[43,-3],[67,39],[24,8],[50,43],[64,28],[45,-2],[18,-19],[44,-10],[7,18],[37,35],[37,25],[30,7],[88,-3],[46,18],[152,29],[45,-11],[58,10],[-16,-22],[-57,-17],[-60,-70],[-6,-15],[12,-39],[1,-41],[66,29],[79,-58],[7,-11],[-16,-28],[-82,-32],[-68,11],[27,-40],[84,-27],[-28,-18],[-240,-110],[-314,-140],[-85,19]],[[7958,827],[39,-33],[-2,-18],[34,-26],[-12,-18],[15,-31],[-43,0],[-120,-23],[75,-80],[12,-30],[166,-11],[-2,-68],[-27,-19],[-29,18],[-72,1],[-42,-16]],[[199,9988],[-26,-9],[-8,-38],[69,-6],[-17,-80],[53,-4],[-3,-18]],[[267,9833],[-61,0],[3,8],[-69,2],[-127,14],[19,97],[41,-3],[4,17],[62,23],[59,8],[1,-11]],[[199,9988],[63,5],[53,-16],[0,-30],[83,-5],[-4,-19],[68,-7],[-10,-44],[21,-12],[-92,4],[1,-37],[-115,6]]]}
