{"type":"Topology","bbox":[-74.3944260161237,4.587014669011919,-74.339011182908,4.618520733851601],"transform":{"scale":[0.000005542037525323227,0.000003150921576125845],"translate":[-74.3944260161237,4.587014669011919]},"objects":{"municipios":{"type":"GeometryCollection","geometries":[{"type":"Polygon","arcs":[[0,1]],"properties":{"codigo":"25645200104001000101","sector":"256452001040010001","pcode":"CO25645","area_m2":101499}},{"type":"Polygon","arcs":[[2]],"properties":{"codigo":"25645200103019000101","sector":"256452001030190001","pcode":"CO25645","area_m2":9483}},{"type":"Polygon","arcs":[[3,4]],"properties":{"codigo":"25645200104020000101","sector":"256452001040200001","pcode":"CO25645","area_m2":12879}},{"type":"Polygon","arcs":[[5]],"properties":{"codigo":"25645200103011000101","sector":"256452001030110001","pcode":"CO25645","area_m2":66180}},{"type":"Polygon","arcs":[[6]],"properties":{"codigo":"25645200104016000101","sector":"256452001040160001","pcode":"CO25645","area_m2":24065}},{"type":"Polygon","arcs":[[-4,7,-1,8]],"properties":{"codigo":"25645200104001000102","sector":"256452001040010001","pcode":"CO25645","area_m2":222277}},{"type":"Polygon","arcs":[[9]],"properties":{"codigo":"25645200103017000101","sector":"256452001030170001","pcode":"CO25645","area_m2":27089}},{"type":"Polygon","arcs":[[10,11]],"properties":{"codigo":"25645100000000000101","sector":"256451000000000001","pcode":"CO25645","area_m2":113371}},{"type":"Polygon","arcs":[[-11,12]],"properties":{"codigo":"25645100000000000102","sector":"256451000000000001","pcode":"CO25645","area_m2":95176}},{"type":"Polygon","arcs":[[13]],"properties":{"codigo":"25645200103018000101","sector":"256452001030180001","pcode":"CO25645","area_m2":100673}}]}},"arcs":[[[9280,2779],[-11,-300],[199,-121],[63,-243],[-11,-100],[-133,-261],[-105,-77]],[[9282,1677],[34,189],[-96,-67],[-1,123],[-244,-20],[-50,-191],[-54,184],[-169,-70],[6,223],[-31,-10],[-137,164],[33,58],[-53,119],[42,117],[26,-132],[75,61],[175,-238],[94,56],[81,-286],[87,45],[19,256],[-47,137],[44,240],[-32,185],[69,10],[127,-51]],[[111,6544],[106,-222],[-105,-186],[-112,246],[111,162]],[[9405,854],[-10,-91]],[[9395,763],[-136,-6],[10,-124],[-51,-79],[-107,82],[6,264],[120,-70],[97,106],[71,-82]],[[4767,2017],[-28,-211],[-180,-304],[-34,-208],[-153,88],[-42,127],[8,311],[67,40],[64,148],[59,-13],[-6,444],[34,60],[229,-74],[0,-133],[-43,-121],[25,-154]],[[8006,682],[61,-113],[-34,-80],[79,-31],[76,-114],[-130,-239],[-85,-105],[-81,106],[76,256],[-79,256],[58,133],[59,-69]],[[9405,854],[-35,148],[-67,74],[-73,367],[-59,186],[111,48]],[[9280,2779],[92,43],[153,-112],[75,165],[91,-102],[66,-428],[59,-106],[47,-189],[-61,-41],[86,-259],[111,126],[-24,-120],[9,-247],[-83,-221],[-131,-162],[-16,-58],[164,157],[27,-347],[-140,57],[-67,-7],[-22,-266],[-44,25],[-39,-110],[-66,114],[-121,-53],[-51,125]],[[336,4354],[204,-185],[103,-138],[1,-71],[84,-19],[-202,-205],[-46,7],[-122,386],[-84,133],[-26,156],[84,1],[4,-65]],[[7917,8784],[-85,27],[-113,235],[54,94],[-288,449],[-29,181]],[[7456,9770],[85,1],[157,-61],[94,-179],[33,29],[59,196],[32,-78],[51,44],[-25,94],[168,144],[176,-89],[80,23],[-12,-131],[-69,-3],[-105,-72],[68,-75],[-46,-113],[-71,-9],[-28,-94],[76,-33],[77,32],[17,-53],[-106,-122],[-96,-217],[64,-75],[-12,-112],[-206,-33]],[[7917,8784],[2,-60],[-157,-221],[-78,39],[-44,-109],[-108,111],[-90,-28],[-43,73],[17,198],[48,40],[-83,169],[-33,147],[-116,239],[37,59],[20,266],[55,13],[49,110],[63,-60]],[[958,3883],[73,30],[-10,104],[86,53],[29,-96],[85,36],[5,-56],[137,32],[10,-70],[90,65],[49,-295],[-44,-119],[2,-122],[-51,85],[-81,-9],[-2,-99],[51,-213],[120,-262],[-1,-119],[-51,91],[-64,-108],[58,-77],[-28,-222],[-45,-6],[-67,233],[-45,-97],[-15,226],[-51,-31],[-25,267],[45,164],[-24,161],[-74,-21],[-73,153],[-193,6],[-5,217],[62,105],[-18,176],[38,34],[27,-216]]]}
