{"type":"Topology","bbox":[-74.12262759433622,4.799226011846745,-74.09449484261955,4.8275550860327225],"transform":{"scale":[0.0000028135565273196054,0.0000028331907376715303],"translate":[-74.12262759433622,4.799226011846745]},"objects":{"municipios":{"type":"GeometryCollection","geometries":[{"type":"Polygon","arcs":[[0,1,2,3,4,5]]},{"type":"Polygon","arcs":[[6,-6,7]]},{"type":"Polygon","arcs":[[8,9,-1]]},{"type":"Polygon","arcs":[[-3,10,11]]},{"type":"Polygon","arcs":[[12]]},{"type":"Polygon","arcs":[[13]]},{"type":"Polygon","arcs":[[-4,-12,14]]},{"type":"Polygon","arcs":[[15,-9,-7]]},{"type":"MultiPolygon","arcs":[[[16]],[[17]],[[18]]]}]}},"arcs":[[[7172,3474],[-198,183],[-319,401],[-51,-4],[-805,565],[-377,299],[-130,50]],[[5292,4968],[178,415],[55,281],[-80,-29],[-238,195],[-76,-52],[94,290],[15,334],[63,73]],[[5303,6475],[1039,-800],[402,-293],[311,390],[298,502],[-135,130],[-17,113],[361,393]],[[7562,6910],[636,-440],[474,-306],[556,-201],[-33,-40]],[[9195,5923],[-115,-132]],[[9080,5791],[-429,-499],[-676,-865],[-803,-953]],[[8895,2071],[-668,366],[-117,93],[-938,944]],[[9080,5791],[374,-250],[243,-226],[-404,-437],[244,-183],[-247,-253],[-18,-206],[47,-143],[109,-61],[-44,-117],[169,-77],[-54,-350],[-306,149],[-16,-186],[69,-149],[123,-74],[-233,-366],[447,-305],[-281,-386],[-192,109],[-215,-209]],[[7172,3474],[-1594,-1841]],[[5578,1633],[-16,13],[-453,-528],[-161,132],[170,201],[-705,601],[-337,248],[444,594],[-301,242],[591,629],[205,136],[259,452],[-12,418],[30,197]],[[5303,6475],[-140,144],[-231,48],[-175,96],[-276,-180],[-86,27],[212,211],[-59,50],[279,338],[115,74],[-4,212],[89,315],[165,162],[-127,192],[26,96],[205,153],[333,110]],[[5629,8523],[9,-313],[-100,-164],[88,-414],[147,-35],[219,-170],[287,373],[1283,-890]],[[6521,9815],[168,-29],[162,-163],[-109,-3],[-133,-195],[-287,-95],[-56,359],[97,310],[158,-184]],[[9431,602],[92,-234],[-198,-72],[151,-138],[-238,-142],[-239,174],[-161,-190],[-353,450],[-13,65],[251,94],[389,306],[143,-34],[176,-279]],[[5629,8523],[26,187],[141,252],[226,-115],[109,236],[129,99],[190,-4],[-33,-159],[55,-195],[-15,-257],[651,641],[635,-591],[-12,-111],[367,-302],[135,75],[666,-539],[590,-409],[-77,-92],[50,-116],[268,-310],[171,213],[98,-87],[-121,-215],[-305,-365],[388,-276],[-151,-209],[-190,-54],[-61,-150],[-364,253]],[[8895,2071],[415,-291],[-362,-465],[-381,340],[-383,-462],[84,-105],[-189,-184],[-237,263],[-73,-68],[-135,167],[-331,-183],[239,-248],[-123,-119],[-332,291],[-216,-96],[253,-261],[139,-274],[-314,-160],[-481,460],[-437,-237],[-60,77],[115,164],[298,255],[-344,364],[-462,334]],[[2082,2376],[206,-168],[-166,-122],[127,-62],[-86,-110],[-179,206],[-93,7],[-243,356],[226,96],[223,-13],[-15,-190]],[[957,3534],[262,-231],[140,-37],[488,49],[63,-91],[203,-37],[-58,-232],[-292,34],[-18,-169],[-115,-114],[-171,198],[79,138],[-74,38],[-79,-168],[-219,140],[-30,-54],[-165,127],[47,85],[-74,147],[-365,122],[204,102],[174,-47]],[[209,3784],[211,-101],[-22,-56],[-352,118],[-46,131],[107,26],[102,-118]]]}
