{"type":"Topology","bbox":[-74.0138777872616,4.647375498967478,-73.86621692138658,4.7894963018437196],"transform":{"scale":[0.000014767563343836897,0.000014213501637787908],"translate":[-74.0138777872616,4.647375498967478]},"objects":{"municipios":{"type":"GeometryCollection","geometries":[{"type":"Polygon","arcs":[[0]]},{"type":"Polygon","arcs":[[1]]},{"type":"MultiPolygon","arcs":[[[2]],[[3]]]},{"type":"Polygon","arcs":[[4]]},{"type":"Polygon","arcs":[[5]]},{"type":"Polygon","arcs":[[6,7]]},{"type":"Polygon","arcs":[[8]]},{"type":"Polygon","arcs":[[9]]},{"type":"Polygon","arcs":[[10]]},{"type":"Polygon","arcs":[[11]]},{"type":"Polygon","arcs":[[12,13,14,15,16,17,18,19]]},{"type":"Polygon","arcs":[[-18,20,21,22]]},{"type":"Polygon","arcs":[[23,-15]]},{"type":"Polygon","arcs":[[24,-21,-17]]},{"type":"Polygon","arcs":[[25,26,27]]},{"type":"Polygon","arcs":[[-26,28,-19,-23,29]]},{"type":"Polygon","arcs":[[30,-13,31]]},{"type":"Polygon","arcs":[[-7,32,-32,-20,-29,-28,33]]}]}},"arcs":[[[9940,1059],[21,-2],[-12,-21],[-7,-81],[57,0],[-2,-50],[-137,8],[-3,-7],[-61,-1],[3,66],[32,40],[38,37],[63,25],[8,-14]],[[7309,48],[-14,5],[-5,37],[-20,32],[-53,-2],[18,31],[43,3],[4,38],[31,-5],[36,-60],[21,-83],[-6,-36],[-33,-8],[-22,48]],[[156,8438],[-2,-71],[-6,-33],[20,-32],[38,-17],[28,-42],[29,-70],[84,40],[10,-47],[28,-47],[34,-89],[18,-6],[8,-56],[-41,8],[-18,18],[-41,11],[-35,30],[-28,35],[-76,-1],[-13,55],[11,15],[-93,73],[16,56],[-6,57],[18,79],[-16,3],[2,29],[31,2]],[[117,8189],[-16,-20],[-11,12],[14,20],[13,-12]],[[4140,9477],[73,-19],[-2,-92],[-38,-77],[32,-17],[-9,-27],[178,-97],[62,-40],[-13,-37],[-50,-106],[-15,-73],[-74,9],[-33,-17],[-52,-2],[-29,16],[-42,52],[-26,4],[-57,30],[-15,30],[-22,-41],[-38,-37],[-12,8],[15,43],[-31,11],[-1,19],[63,0],[29,13],[15,60],[90,387],[2,0]],[[1578,2367],[-41,-101],[32,-7],[43,-32],[8,45],[31,-8],[0,-12],[50,-3],[17,62],[37,-16],[12,71],[86,-12],[-22,-125],[-20,2],[-14,-67],[-34,15],[3,-112],[22,-26],[5,-68],[-24,-57],[34,-31],[-20,-36],[-64,9],[-85,51],[-39,34],[-78,126],[-7,-22],[-39,21],[-50,-9],[-10,-38],[-33,32],[10,38],[-28,41],[66,14],[-36,93],[23,4],[-15,39],[-15,5],[3,30],[17,-5],[5,18],[31,15],[12,32],[28,-11],[12,40],[25,-10],[69,-11],[-7,-18]],[[3830,5444],[-120,50]],[[3710,5494],[17,38],[31,37],[-18,15],[-15,46],[-60,25],[53,141],[62,156],[-30,27],[48,19],[15,39],[73,-43],[-40,-139],[18,-9],[32,31],[13,25],[31,-18],[-9,-70],[44,-22],[2,30],[49,10],[9,73],[-51,32],[6,45],[50,-36],[8,85],[-123,94],[20,62],[110,-84],[68,-33],[-13,-80],[109,-26],[36,41],[0,17],[41,-62],[0,-46],[-51,-47],[-21,-60],[10,-48],[-12,-57],[-73,35],[-109,24],[-16,-48],[-37,14],[-24,-45],[-59,24],[-14,-50],[52,-37],[-12,-32],[18,-9],[6,-22],[-7,-43],[-28,13],[-20,49],[-25,37],[-50,-81],[21,-45],[-15,-42]],[[9685,1835],[-5,-20],[27,-9],[-2,-14],[80,-45],[-17,-51],[38,-3],[-40,-59],[-16,14],[-50,1],[19,-9],[-9,-43],[37,-21],[3,-47],[-35,-66],[-96,85],[16,-58],[-51,16],[4,49],[-32,74],[-54,53],[-29,11],[-19,30],[29,21],[6,46],[68,-10],[8,34],[47,-27],[23,48],[29,-7],[8,24],[13,-17]],[[130,7915],[-9,-19],[-46,-29],[-4,-34],[-18,26],[-11,-4],[-17,36],[-13,-5],[-12,24],[28,-6],[41,15],[10,-11],[39,24],[12,-17]],[[2415,9819],[29,-19],[27,9],[5,-56],[40,41],[73,-54],[-42,-18],[-29,5],[-71,-20],[-4,27],[-30,-13],[-12,11],[-51,-45],[23,-34],[56,-34],[-53,-77],[-91,54],[-43,-92],[16,-9],[-19,-35],[-16,9],[-15,-26],[118,-63],[-79,-148],[-23,37],[-25,-14],[-71,-1],[-24,18],[-19,-50],[35,9],[-6,-47],[-40,15],[-55,-110],[107,-48],[-25,-46],[20,-27],[-68,-65],[-15,15],[-55,-105],[-65,-99],[-62,-42],[-51,-45],[-21,-11],[-31,2],[-21,34],[-28,11],[-25,-40],[-93,-10],[-21,-14],[-37,5],[35,18],[53,13],[53,25],[56,46],[81,82],[-102,78],[-50,34],[40,123],[30,58],[114,-58],[34,54],[-49,24],[-26,32],[-15,39],[29,30],[-9,10],[38,42],[-47,60],[46,55],[21,-19],[-7,-11],[45,-30],[35,63],[119,-14],[-8,22],[10,20],[-36,11],[14,37],[54,-17],[23,2],[33,48],[-32,14],[24,13],[21,36],[-63,35],[14,31],[-37,21],[35,80],[94,-27],[68,172],[-43,26],[59,20],[-19,24],[30,72],[12,-3],[25,-47],[19,-15],[13,-48],[53,-66]],[[2519,8550],[21,0],[-8,-21],[-8,-79],[10,-33],[-46,-1],[-15,-55],[-3,-37],[-125,16],[14,51],[44,-5],[-6,38],[5,36],[-77,31],[-16,-18],[-25,1],[-11,-29],[-52,-18],[-18,-23],[-34,34],[-66,-32],[-1,10],[-34,-6],[-2,21],[46,21],[-30,41],[-42,33],[8,22],[64,-2],[53,-33],[55,-17],[76,33],[45,16],[152,8],[26,-3]],[[3035,5144],[-18,-33],[-17,-3],[-27,-28],[19,-28],[-24,-63],[65,-49],[-5,-70],[21,-108]],[[3049,4762],[-30,-28],[-32,-10]],[[2987,4724],[-68,49],[25,24],[-26,48]],[[2918,4845],[-28,-3],[-41,19],[-58,48],[30,15],[-20,10],[-20,33],[-59,-35],[-34,-32],[-20,-33],[-62,89],[76,40]],[[2682,4996],[26,18],[47,56],[-18,63],[45,15]],[[2782,5148],[15,-8],[79,20],[24,36],[48,35]],[[2948,5231],[22,-35],[64,-52]],[[3034,5144],[1,0]],[[2782,5148],[-31,46],[8,15],[-6,56],[-34,40]],[[2719,5305],[10,26],[-80,62],[105,172],[15,-19]],[[2769,5546],[77,-80],[31,44],[26,-21],[-44,-36],[23,-26],[-55,-63],[41,-44],[43,-32],[37,-57]],[[2987,4724],[-51,-22],[-30,58],[-36,-29],[-42,11],[-35,-16],[21,-43],[-42,-12],[-14,23],[-25,-9],[2,-44],[-17,-42],[-90,14],[-8,19],[6,42],[18,39],[35,-23],[42,-1],[34,9],[-41,57],[8,16],[51,16],[31,-6],[24,-31],[17,9],[32,67],[41,19]],[[2682,4996],[-65,54],[51,55],[-9,10],[43,17],[-60,88],[86,54],[-19,15],[10,16]],[[3120,5297],[21,25],[42,28],[39,50],[48,81],[-49,34],[31,50]],[[3252,5565],[34,-32],[18,2],[46,51],[17,-18],[49,-12]],[[3416,5556],[-4,-60],[-88,-90],[19,-24],[-4,-20],[-41,-42],[-55,-37],[-23,-49],[-100,63]],[[3120,5297],[-54,-90],[-32,-63]],[[2769,5546],[59,37],[50,38],[86,-84],[54,15],[12,-9],[84,-7],[-3,68],[28,63],[53,-54],[60,-48]],[[3228,4965],[-30,-79],[94,-54],[35,-13],[-61,-92],[-23,6],[-24,-14],[-3,-30],[-88,-71],[5,-22],[57,-4],[38,-13],[60,30],[49,8],[17,-48],[-24,-13],[-38,-3],[-40,-20],[-37,1],[-25,17],[-32,-17],[-47,-14],[11,60],[-4,32],[-21,8],[-5,38],[-37,102],[-6,2]],[[3035,5144],[80,-47],[85,-57],[-5,-70],[33,-5]],[[3830,5444],[94,-42],[35,-48],[28,13],[26,27],[51,38],[25,4],[15,-24],[-126,-68],[-64,-18],[-45,13],[-92,13],[3,24],[-64,11],[-84,32],[-24,-17],[-24,-46],[-99,32],[7,29],[-11,25],[-58,-46],[-50,-74],[-27,-32],[15,-25],[-16,-87],[18,-13],[-23,-25],[-25,-45],[-48,-57],[-1,-47],[-23,-27],[-15,1]],[[3416,5556],[25,48],[17,14],[22,-5],[24,-22],[43,-7],[63,-38],[52,-9],[48,-43]]]}