{"type":"Topology","bbox":[-74.49726166728578,4.755233885512255,-74.4283781568048,4.819465340820897],"transform":{"scale":[0.000006889039952093893,0.000006423787909655148],"translate":[-74.49726166728578,4.755233885512255]},"objects":{"municipios":{"type":"GeometryCollection","geometries":[{"type":"Polygon","arcs":[[0,1,2]],"properties":{"codigo":"25040200106002000102","sector":"250402001060020001","pcode":"CO25040","area_m2":116625}},{"type":"Polygon","arcs":[[3,4,5,6,7]],"properties":{"codigo":"25040100000000000104","sector":"250401000000000001","pcode":"CO25040","area_m2":55672}},{"type":"Polygon","arcs":[[8,-7,9,10]],"properties":{"codigo":"25040100000000000102","sector":"250401000000000001","pcode":"CO25040","area_m2":304912}},{"type":"Polygon","arcs":[[11,12,-5]],"properties":{"codigo":"25040100000000000103","sector":"250401000000000001","pcode":"CO25040","area_m2":221570}},{"type":"Polygon","arcs":[[-10,-6,-13,13]],"properties":{"codigo":"25040100000000000101","sector":"250401000000000001","pcode":"CO25040","area_m2":192498}},{"type":"Polygon","arcs":[[14,-8,-9]],"properties":{"codigo":"25040100000000000105","sector":"250401000000000001","pcode":"CO25040","area_m2":141619}},{"type":"Polygon","arcs":[[15,-2,16]],"properties":{"codigo":"25040200106002000101","sector":"250402001060020001","pcode":"CO25040","area_m2":189682}},{"type":"Polygon","arcs":[[-17,-1,17]],"properties":{"codigo":"25040200106002000103","sector":"250402001060020001","pcode":"CO25040","area_m2":161112}},{"type":"Polygon","arcs":[[18]],"properties":{"codigo":"25040200101003000101","sector":"250402001010030001","pcode":"CO25040","area_m2":58965}},{"type":"Polygon","arcs":[[19]],"properties":{"codigo":"25040200101006000101","sector":"250402001010060001","pcode":"CO25040","area_m2":47997}}]}},"arcs":[[[9260,3186],[-13,-277],[53,-35],[66,-296]],[[9366,2578],[-45,-42],[-68,-81],[-61,-137],[-17,-25],[-102,-84],[-36,-71],[-36,-53],[-19,-67],[-44,-79]],[[8938,1939],[-35,-22],[-59,-14],[28,56],[74,96],[26,67],[3,47],[-17,118],[3,44],[58,103],[19,17],[45,87],[-2,32],[15,58],[7,156],[-8,161],[15,57],[60,175],[69,98],[35,0],[-14,-89]],[[4852,513],[-71,72],[-87,64],[-25,-99],[-34,-29],[-8,-63],[-67,-23],[-5,30],[4,99]],[[4559,564],[38,128],[70,133],[58,95],[-20,12],[40,57]],[[4745,989],[17,12]],[[4762,1001],[59,-68],[75,-54],[47,-49]],[[4943,830],[-40,-68],[-76,-143],[21,-18],[40,-71],[-36,-17]],[[5522,599],[-10,-34],[-80,-58],[-53,1],[-73,30],[-41,28],[-130,107],[-117,105],[-75,52]],[[4762,1001],[111,177],[53,52],[128,183],[86,142],[56,61],[35,26]],[[5231,1642],[60,48],[77,-58],[-39,-42],[-41,-18],[-7,-82],[48,-75],[-5,-49],[24,-18],[21,29],[61,17],[32,45],[80,-30],[0,-20],[-42,-56],[14,-50],[-8,-96],[25,-51],[46,-22],[12,-21],[-4,-54],[-22,-36],[57,-46],[13,-89],[-6,-90],[-22,-33],[-78,-45],[-14,-29],[9,-72]],[[4559,564],[-23,4],[10,76],[-12,46],[-69,49],[-26,5],[-61,-14],[-21,15],[-42,-12],[-40,-72],[-49,-7],[-57,19],[-92,-14],[-40,5],[-111,45],[-20,31],[-38,126],[-39,-11],[-96,24],[-1,106],[160,14],[17,-67],[0,-60],[38,12],[90,66],[58,14],[93,-5],[18,86],[32,40],[81,44],[5,56],[-44,47],[63,73],[-33,11],[-130,165],[-76,49],[-33,43],[-22,54],[-3,38],[28,26],[62,35],[27,4],[71,-40],[45,-153],[1,-30]],[[4280,1507],[24,-35],[82,-65],[41,-25],[41,-48],[41,-92],[5,-29],[38,-61],[114,-64],[-9,-12],[88,-87]],[[4280,1507],[47,39],[59,27],[-3,40],[71,54],[154,176],[123,-29],[23,-82],[-10,-111],[3,-44],[80,-2],[64,17],[35,28],[0,-21],[30,-1],[10,43],[43,11],[50,-65],[43,-8],[6,25],[31,8],[64,55],[28,-25]],[[5522,599],[32,6],[81,-30],[-30,-44],[0,-66],[-18,-41],[-60,-12],[-75,41],[-78,11],[-130,-40],[-66,18],[25,-91],[3,-46],[37,-58],[2,-46],[17,-50],[-17,-49],[-28,-16],[-49,53],[-9,39],[-89,-18],[-11,-42],[-29,9],[-57,-105],[-59,23],[-10,-45],[-18,0],[-2,62],[17,59],[28,50],[8,41],[-15,42],[-46,65],[-19,77],[1,40],[-28,65],[22,12]],[[9539,2532],[-60,0],[35,-109],[38,-55],[112,-68],[46,-55],[160,76],[30,-60],[8,7],[91,-140],[-43,-32],[-51,-76],[-34,-17],[-31,15],[-93,66],[-12,18],[-128,-72],[-10,-21],[-156,-88],[-34,83],[11,5],[-23,47],[-85,-39],[3,-8],[-105,-47],[-11,74],[-11,-10],[-119,-174],[-129,87]],[[9366,2578],[78,18],[23,-5],[12,-28],[60,4],[0,-35]],[[9260,3186],[64,0],[62,-19],[47,-46],[21,10],[15,-20],[28,20],[33,73],[53,-6],[12,-25],[58,13],[44,-94],[-26,-19],[33,-28],[24,6],[56,-11],[14,-25],[42,-14],[24,-22],[-19,-29],[-18,-71],[22,4],[0,-213],[-33,-14],[-72,6],[-75,-33],[-4,-98],[-126,1]],[[405,8216],[11,-18],[-1,-74],[25,-8],[-13,-65],[3,-35],[-18,-63],[36,-78],[36,-50],[-24,-36],[-32,-19],[-58,64],[-31,48],[-13,72],[-38,15],[1,30],[-103,13],[-19,10],[-75,3],[-5,47],[45,30],[48,-20],[15,6],[-56,72],[-34,5],[-52,-35],[-53,-6],[15,163],[65,10],[-8,-61],[16,-26],[69,-13],[24,33],[49,-37],[75,-80],[11,2],[-19,91],[-16,30],[33,18],[6,70],[-76,69],[40,56],[40,-28],[46,-60],[5,-98],[30,-47]],[[2560,9969],[14,-5],[123,-111],[27,-13],[28,32],[35,18],[22,-59],[-4,-49],[-39,-9],[10,-16],[-2,-62],[56,-71],[57,-40],[-5,-38],[-55,-2],[-49,-44],[-19,0],[-93,83],[4,30],[-36,26],[-14,62],[-14,16],[-37,-9],[-36,33],[-25,49],[-25,103],[43,39],[-14,12],[35,55],[13,-30]]]}
