{"type":"Topology","bbox":[-73.93629137789787,4.817471009232299,-73.86966609370359,4.873736582732476],"transform":{"scale":[0.000006663194738902671,0.000005627120062023894],"translate":[-73.93629137789787,4.817471009232299]},"objects":{"municipios":{"type":"GeometryCollection","geometries":[{"type":"Polygon","arcs":[[0,1,2]]},{"type":"Polygon","arcs":[[3,4,5,-1]]},{"type":"Polygon","arcs":[[-2,-6,6,7]]},{"type":"Polygon","arcs":[[-5,8,-7]]},{"type":"Polygon","arcs":[[9]]},{"type":"Polygon","arcs":[[10]]}]}},"arcs":[[[9446,7932],[-29,11],[-218,240],[-309,298],[-173,216]],[[8717,8697],[211,298],[63,-59],[363,417]],[[9354,9353],[155,-168],[154,-102],[153,-154],[98,119],[85,-79],[-49,-29],[36,-73],[-39,-100],[-130,-223],[65,-76],[-198,-246],[-52,49],[-186,-339]],[[9446,7932],[184,-135],[-70,-96],[72,-147],[-62,-32],[-62,148],[-179,-135],[-173,56],[-43,-23],[-26,92],[-66,390],[-92,-110],[-100,86],[-72,4],[-100,99],[-121,-181],[106,-140],[-14,-326],[-117,130],[-33,73],[-270,307],[25,26]],[[8233,8018],[265,264],[149,168],[-63,84],[120,146]],[[8704,8680],[13,17]],[[8704,8680],[-185,221],[188,292],[-157,222],[-30,60]],[[8520,9475],[92,385],[84,72],[144,-35],[35,102],[181,-99],[25,-184],[-72,14],[128,-144],[44,-77],[32,18],[141,-174]],[[8233,8018],[-38,105],[54,54],[-46,60],[78,80],[94,-105],[94,88],[33,63],[-182,298],[-77,143],[-292,-74],[-346,380],[51,69],[-137,51],[-48,81],[86,135],[196,-166],[19,30],[74,-46],[478,218],[117,33],[79,-40]],[[426,610],[-81,-106],[-76,-222],[9,-53],[-65,-11],[-14,-209],[-163,-8],[52,104],[6,163],[-45,1],[31,126],[-80,13],[12,67],[194,-28],[10,60],[50,-9],[51,82],[51,137],[76,-10],[-18,-97]],[[2607,5018],[40,9],[84,-57],[0,-68],[119,-34],[162,-78],[52,7],[150,95],[88,-76],[-194,-94],[-88,33],[-87,-5],[7,45],[-214,71],[-119,105],[0,47]]]}