{"type":"Topology","bbox":[-74.14870022269878,5.300944408226887,-74.02219114129241,5.409736712831321],"transform":{"scale":[0.000012652173357972627,0.000010880318492292575],"translate":[-74.14870022269878,5.300944408226887]},"objects":{"municipios":{"type":"GeometryCollection","geometries":[{"type":"Polygon","arcs":[[0]],"properties":{"codigo":"25653200102002000101","sector":"256532001020020001","pcode":"CO25653","area_m2":19041}},{"type":"Polygon","arcs":[[1]],"properties":{"codigo":"25653200204005000101","sector":"256532002040050001","pcode":"CO25653","area_m2":63952}},{"type":"Polygon","arcs":[[2]],"properties":{"codigo":"25653100000000000101","sector":"256531000000000001","pcode":"CO25653","area_m2":209397}},{"type":"Polygon","arcs":[[3]],"properties":{"codigo":"25653200201001000101","sector":"256532002010010001","pcode":"CO25653","area_m2":41044}},{"type":"Polygon","arcs":[[4]],"properties":{"codigo":"25653200203003000101","sector":"256532002030030001","pcode":"CO25653","area_m2":37060}}]}},"arcs":[[[74,1456],[24,-152],[-49,-18],[-25,4],[11,28],[-9,66],[-19,-4],[-5,35],[18,43],[52,12],[2,-14]],[[5827,5],[-28,-5],[-45,34],[29,100],[56,6],[164,126],[26,-59],[-27,-28],[31,-44],[-81,-80],[-60,-39],[-65,-11]],[[9922,3155],[24,-88],[22,-22],[-13,-49],[-26,-46],[15,-67],[52,-47],[-35,-75],[-19,31],[-75,66],[-83,-111],[-19,18],[-42,-91],[-33,-10],[-129,21],[162,333],[-47,39],[18,40],[82,45],[20,35],[70,34],[44,46],[20,4],[36,-44],[-46,-48],[2,-14]],[[4604,9987],[25,8],[44,-16],[3,13],[39,-17],[23,-53],[-13,-61],[15,-19],[-20,-51],[-41,15],[-97,17],[9,57],[16,-3],[4,74],[-33,-6],[-3,53],[29,-11]],[[7954,1730],[14,17],[32,-43],[87,-68],[-8,-18],[-53,42],[-28,11],[1,-55],[-23,-54],[-1,-36],[-48,-11],[-9,16],[-60,29],[6,26],[19,-16],[46,190],[25,-30]]]}
