{"type":"Topology","bbox":[-73.85517739389161,5.196869345991348,-73.8468415263902,5.251733846569159],"transform":{"scale":[8.336701171532504e-7,0.00000548699875765691],"translate":[-73.85517739389161,5.196869345991348]},"objects":{"municipios":{"type":"GeometryCollection","geometries":[{"type":"Polygon","arcs":[[0,1]],"properties":{"codigo":"25781100000000000102","sector":"257811000000000001","pcode":"CO25781","area_m2":103748}},{"type":"Polygon","arcs":[[2]],"properties":{"codigo":"25781200103003000101","sector":"257812001030030001","pcode":"CO25781","area_m2":42030}},{"type":"Polygon","arcs":[[-1,3]],"properties":{"codigo":"25781100000000000101","sector":"257811000000000001","pcode":"CO25781","area_m2":107115}},{"type":"Polygon","arcs":[[4]],"properties":{"codigo":"25781200102002000101","sector":"257812001020020001","pcode":"CO25781","area_m2":55705}},{"type":"Polygon","arcs":[[5]],"properties":{"codigo":"25781200103004000101","sector":"257812001030040001","pcode":"CO25781","area_m2":42325}}]}},"arcs":[[[3093,9515],[-92,-12],[-482,-3],[-402,-37],[-237,-77],[-188,-131],[416,-22],[438,-52],[-210,-152],[-21,-176],[-887,-67],[-79,-19]],[[1349,8767],[-346,-83],[-83,-1],[-97,101],[-158,77],[-510,158],[-134,72],[22,118],[452,290],[338,239],[-671,37],[276,76],[115,106],[103,32],[540,8],[-135,-54],[-179,-162],[528,-17],[-146,-28],[18,-63],[209,-13],[146,-38],[309,-37],[573,-14],[342,29],[277,-70],[-45,-15]],[[1869,8385],[232,-64],[450,15],[869,-45],[262,-2],[44,-37],[129,0],[41,-46],[-308,-6],[158,-31],[492,5],[371,-101],[338,7],[-180,-75],[-631,-73],[-274,50],[-114,35],[-502,73],[-722,-24],[-246,21],[-129,49],[-482,13],[-384,27],[-297,67],[470,66],[232,53],[181,23]],[[3093,9515],[232,-19],[237,36],[359,16],[335,-48],[253,9],[147,-21],[-95,-40],[207,-11],[-21,-38],[129,-21],[-228,-54],[416,-84],[431,-40],[370,-64],[106,-30],[-310,-37],[-406,-61],[-110,-26],[-541,-51],[-293,9],[-246,-26],[-274,-2],[-398,-54],[-625,-22],[-284,-40],[-465,-28],[-286,1],[37,-21],[-209,-84],[-212,103]],[[8964,387],[190,-4],[266,-54],[383,-39],[187,-31],[-194,-41],[-149,-107],[-170,28],[-211,-48],[-274,-32],[-182,-48],[-174,10],[-377,-19],[-743,128],[-235,83],[-186,47],[260,23],[-23,33],[452,101],[-662,98],[304,28],[472,57],[189,9],[696,-112],[177,-43],[4,-67]],[[9618,8816],[-277,-39],[-246,-1],[-99,-35],[115,-29],[170,23],[146,-25],[-128,-19],[30,-38],[-502,-61],[-6,-55],[-553,49],[-1195,-124],[-196,62],[60,59],[-167,49],[0,42],[-137,31],[-130,70],[-15,53],[191,-8],[141,28],[431,15],[111,-18],[400,3],[346,-42],[345,4],[187,20],[301,10],[292,40],[385,-64]]]}
