{"type":"Topology","bbox":[-74.21238661938662,4.784677691700723,-74.11220564202324,4.901196946718881],"transform":{"scale":[0.00001001909964630258,0.000011653090810896887],"translate":[-74.21238661938662,4.784677691700723]},"objects":{"municipios":{"type":"GeometryCollection","geometries":[{"type":"Polygon","arcs":[[0]]},{"type":"Polygon","arcs":[[1]]},{"type":"Polygon","arcs":[[2]]},{"type":"Polygon","arcs":[[3]]},{"type":"Polygon","arcs":[[4]]},{"type":"Polygon","arcs":[[5]]},{"type":"Polygon","arcs":[[6]]},{"type":"Polygon","arcs":[[7]]},{"type":"Polygon","arcs":[[8,9,10,11,12,13,14]]},{"type":"Polygon","arcs":[[-9,15]]},{"type":"Polygon","arcs":[[16,17,18,-12,19]]},{"type":"Polygon","arcs":[[-20,-11,20]]},{"type":"Polygon","arcs":[[-14,21]]},{"type":"Polygon","arcs":[[-18,22]]}]}},"arcs":[[[7852,6702],[25,-34],[-88,-39],[-116,26],[-53,23],[75,33],[-22,51],[104,43],[75,-103]],[[3849,42],[25,21],[66,-39],[-31,-24],[-60,42]],[[8037,8504],[20,31],[43,-43],[45,-21],[1,48],[46,-1],[34,-21],[-21,-30],[21,-35],[-48,-34],[-79,82],[-62,24]],[[126,1400],[98,-71],[55,13],[71,-122],[116,-118],[54,41],[144,-121],[190,-115],[-39,-34],[124,-80],[-214,-166],[-26,20],[-122,-105],[-205,183],[126,105],[-290,245],[-154,127],[-54,63],[44,13],[-44,29],[57,81],[26,-21],[43,33]],[[7620,8377],[65,-43],[54,-13],[52,15],[44,28],[21,-27],[-30,-14],[49,-74],[33,15],[82,-141],[-114,-29],[-43,70],[-116,-40],[-38,64],[47,18],[-10,14],[-53,-11],[-43,78],[8,31],[-31,55],[23,4]],[[6134,7662],[-36,-25],[42,-32],[-38,-2],[-60,34],[-55,-3],[-86,-35],[-17,71],[46,17],[21,-26],[36,13],[-7,32],[27,39],[42,11],[-52,41],[1,18],[136,25],[20,-34],[-20,-20],[45,-17],[-47,-55],[2,-52]],[[9797,9975],[52,-51],[45,28],[47,-18],[17,-48],[-38,-63],[-12,-54],[-24,-33],[19,-29],[0,-88],[39,-42],[26,-162],[31,-64],[-97,2],[-16,-29],[-62,-61],[-84,-97],[-61,103],[-36,25],[16,16],[-35,34],[37,24],[55,-43],[52,2],[10,50],[-42,43],[-60,86],[-40,-10],[81,197],[54,-20],[62,95],[-107,82],[-85,-4],[-108,69],[1,26],[113,18],[6,18],[61,-18],[40,40],[43,-24]],[[8732,8609],[49,3],[37,-32],[-17,-64],[87,-92],[-42,-34],[-103,125],[-1,16],[-59,86],[49,-8]],[[7241,8096],[53,-19]],[[7294,8077],[35,-63],[45,-39],[58,-72],[-67,-40]],[[7365,7863],[-58,-16],[-72,11],[-38,-8]],[[7197,7850],[-118,-19],[-170,-149],[-99,-46],[-27,-21],[32,-49],[-139,-54],[-129,-60],[-32,51],[-150,5],[-84,25]],[[6281,7533],[-33,50],[30,53],[64,16],[31,-27],[-47,84],[-37,29],[46,34],[-24,59],[-40,13],[11,50],[58,-55],[84,19],[-30,25],[-49,8],[110,23],[-39,35],[25,0],[35,36],[-7,113],[83,-23],[50,7],[11,-75],[34,-41]],[[6647,7966],[94,0],[-68,-69],[5,-12],[64,16],[53,-48],[124,-26],[51,62],[104,92],[12,25],[-17,52]],[[7069,8058],[-11,44],[76,48],[45,6],[62,-60]],[[7241,8096],[38,7],[-6,40],[56,1],[31,24],[10,44],[84,20],[57,-80],[-72,-40],[-85,-32],[-60,-3]],[[7452,7648],[22,-39],[-52,-24],[16,-26],[-36,-15],[33,-56],[11,-54]],[[7446,7434],[-95,27],[-179,27],[-264,31],[77,-173],[-173,-75],[-79,-24],[144,-253],[96,44],[56,12]],[[7029,7050],[44,-36],[165,-191],[-184,-82],[-73,122],[-58,-6],[-2,44],[-76,-28],[-80,8],[-45,15],[-15,24],[-85,-36],[-17,-24],[-77,113],[15,17],[-52,116],[-29,35],[-71,-88],[-22,56],[-195,256],[-28,109],[56,35],[81,24]],[[7197,7850],[116,-219],[58,-12],[81,29]],[[7365,7863],[88,-133],[73,34],[48,-61],[-122,-55]],[[6647,7966],[48,70],[82,27],[29,-21],[23,-54],[99,-21],[140,80],[1,11]],[[7446,7434],[29,-9],[-53,-40],[-94,-33],[76,-135],[-62,-33],[-213,-85],[-100,-49]]]}