{"type":"Topology","bbox":[-73.87773364781549,4.2027587926877095,-73.80886695830162,4.275384361533649],"transform":{"scale":[0.000006887357687155525,0.000007263283212915254],"translate":[-73.87773364781549,4.2027587926877095]},"objects":{"municipios":{"type":"GeometryCollection","geometries":[{"type":"Polygon","arcs":[[0]],"properties":{"codigo":"25335200204003000101","sector":"253352002040030001","pcode":"CO25335","area_m2":14394}},{"type":"Polygon","arcs":[[1]],"properties":{"codigo":"25335200102008000101","sector":"253352001020080001","pcode":"CO25335","area_m2":93605}},{"type":"Polygon","arcs":[[2]],"properties":{"codigo":"25335200205005000101","sector":"253352002050050001","pcode":"CO25335","area_m2":79809}},{"type":"Polygon","arcs":[[3]],"properties":{"codigo":"25335200104006000101","sector":"253352001040060001","pcode":"CO25335","area_m2":28276}},{"type":"Polygon","arcs":[[4]],"properties":{"codigo":"25335100000000000101","sector":"253351000000000001","pcode":"CO25335","area_m2":439858}},{"type":"Polygon","arcs":[[5]],"properties":{"codigo":"25335200102002000101","sector":"253352001020020001","pcode":"CO25335","area_m2":139717}},{"type":"Polygon","arcs":[[6]],"properties":{"codigo":"25335200105004000101","sector":"253352001050040001","pcode":"CO25335","area_m2":127176}}]}},"arcs":[[[113,1589],[112,-3],[-7,-50],[67,-10],[26,-20],[76,8],[66,-35],[26,-3],[51,26],[12,-22],[-66,-30],[-51,13],[-72,36],[-35,-1],[-35,26],[-1,-19],[-141,12],[2,-40],[-37,0],[-4,43],[-34,6],[-25,-27],[-43,25],[71,82],[42,-17]],[[8191,6825],[93,-77],[98,-131],[116,-141],[54,-56],[93,-12],[-76,-107],[-56,8],[-46,-20],[-210,205],[-91,130],[-31,-4],[-33,44],[4,31],[-44,21],[1,54],[-65,17],[-119,47],[-47,70],[43,52],[100,54],[34,-20],[38,-90],[144,-75]],[[8798,327],[-18,-45],[27,-42],[-19,-31],[53,-13],[29,87],[51,28],[34,-39],[-35,-26],[9,-75],[78,-21],[45,14],[25,-37],[35,-17],[-20,-29],[-153,46],[-79,33],[-90,23],[-16,-35],[-1,-120],[-31,-28],[-43,15],[-68,47],[-185,90],[-2,83],[19,95],[46,19],[-1,55],[18,48],[57,-49],[13,9],[38,-44],[16,14],[19,-27],[66,-37],[41,1],[16,98],[26,36],[45,-30],[-45,-96]],[[9984,1332],[14,-28],[-46,-189],[-16,-34],[-23,6],[-28,-51],[-2,-60],[-23,5],[12,-73],[44,-34],[-13,-33],[-36,-31],[-32,52],[-18,72],[-30,-4],[-16,81],[58,-7],[8,72],[-11,127],[35,28],[12,36],[34,31],[51,7],[26,27]],[[9047,2099],[41,20],[28,-50],[48,23],[8,-16],[-80,-38],[21,-28],[24,-103],[102,-114],[14,-3],[63,33],[55,19],[37,-95],[-23,-27],[-21,-82],[-17,-22],[103,-94],[103,-125],[118,-170],[-129,-92],[-72,-32],[-80,-87],[18,-112],[-25,22],[-99,-18],[0,-17],[-144,-40],[-3,29],[-104,-13],[-55,148],[11,2],[-27,112],[3,31],[38,89],[-2,106],[37,0],[-15,47],[8,27],[-51,35],[-24,33],[-22,62],[-10,99],[15,101],[-49,-2],[-58,75],[8,16],[-53,46],[49,66],[124,-4],[84,11],[-39,45],[-58,17],[-88,-13],[-33,11],[-25,59],[50,108],[-4,46],[-47,100],[-3,31],[17,205],[-16,51],[-52,72],[-86,138],[-22,67],[4,45],[-26,35],[-80,58],[-87,30],[-15,26],[13,74],[49,111],[104,48],[15,-8],[-11,-66],[6,-49],[42,-118],[60,-149],[86,-129],[43,-138],[64,-26],[5,-62],[46,-150],[-5,-25],[24,-36],[24,-100],[14,-88],[34,-88]],[[7479,7384],[52,27],[49,-13],[34,-34],[-36,-24],[-15,-32],[-59,-32],[-18,-45],[2,-43],[106,-13],[1,43],[19,36],[92,-6],[124,-45],[54,-35],[127,-63],[7,-65],[-112,-57],[-59,-43],[-27,-49],[-29,-10],[-45,12],[-62,43],[-1,16],[-42,7],[-103,69],[-25,1],[-97,-22],[18,-59],[-118,-28],[-37,2],[30,45],[-11,30],[69,53],[-50,36],[-69,21],[27,8],[-28,28],[17,13],[-42,30],[-9,30],[-42,15],[1,48],[21,30],[21,-9],[69,38],[165,74],[31,-28]],[[6784,9913],[1,-48],[-17,-54],[8,-55],[-7,-247],[-16,-69],[11,-153],[-84,-17],[-51,6],[-64,53],[-44,76],[-40,151],[-58,38],[-5,100],[22,14],[-116,181],[11,64],[45,-3],[110,-26],[14,-20],[60,-18],[23,58],[41,3],[8,-32],[45,-13],[30,22],[30,75],[37,-57],[6,-29]]]}
