{"type":"Topology","bbox":[-74.4902591925561,5.077371482628255,-74.45036642887811,5.123223406052228],"transform":{"scale":[0.000003989675335331845,0.00000458565090748802],"translate":[-74.4902591925561,5.077371482628255]},"objects":{"municipios":{"type":"GeometryCollection","geometries":[{"type":"Polygon","arcs":[[0,1]],"properties":{"codigo":"25592200104001000101","sector":"255922001040010001","pcode":"CO25592","area_m2":109046}},{"type":"Polygon","arcs":[[2,3]],"properties":{"codigo":"25592100000000000101","sector":"255921000000000001","pcode":"CO25592","area_m2":75658}},{"type":"Polygon","arcs":[[4,-3]],"properties":{"codigo":"25592100000000000102","sector":"255921000000000001","pcode":"CO25592","area_m2":109804}},{"type":"Polygon","arcs":[[-2,5]],"properties":{"codigo":"25592200104001000102","sector":"255922001040010001","pcode":"CO25592","area_m2":178456}},{"type":"Polygon","arcs":[[6]],"properties":{"codigo":"25592200102003000101","sector":"255922001020030001","pcode":"CO25592","area_m2":26538}}]}},"arcs":[[[1142,395],[101,-53],[116,-130],[-79,-21],[-78,104],[-45,-2],[-24,39],[-116,32],[-132,-104],[13,-180],[55,-80],[-357,106],[-57,-94],[-107,55],[-87,-24],[-14,129],[-157,-62],[-132,19],[-41,62],[23,75],[25,154],[-3,59],[28,59],[140,2]],[[214,540],[120,-4],[75,13],[192,79],[75,20],[134,-10],[159,-122],[29,-36],[144,-85]],[[2683,8435],[-13,13],[8,212],[-25,208],[41,32],[-67,204],[-63,57],[-112,47],[-73,74],[-98,196]],[[2281,9478],[43,-24],[49,-72],[117,-75],[154,-11],[124,-52],[162,5],[-46,-133],[281,-53],[-21,-93],[-90,-128],[52,-139],[-13,-74],[-153,27],[-62,-101],[18,-60],[-40,-134],[-105,31],[-68,43]],[[2683,8435],[-21,-15],[-108,8],[-22,55],[-116,1],[-32,-31],[-77,-15],[-97,-49],[-154,-10],[20,122],[148,98],[-83,54],[-60,77],[14,129],[-18,22],[-138,67],[11,92],[80,16],[162,188],[18,221],[71,13]],[[214,540],[-45,28],[-25,80],[37,75],[-54,95],[85,151],[43,-7],[82,41],[-8,123],[38,41],[205,29],[95,-23],[47,27],[96,192],[-11,68],[73,63],[51,-51],[102,-65],[17,-82],[69,-77],[31,-129],[-8,-39],[73,-144],[195,162],[56,-160],[-158,-135],[97,-92],[34,-73],[2,-61],[-291,-182]],[[9968,9662],[-68,-49],[-88,11],[-55,-59],[-20,31],[-67,-12],[-97,157],[52,102],[78,94],[65,39],[98,23],[73,-71],[60,-100],[-80,-53],[16,-101],[33,-12]]]}
