{"type":"Topology","bbox":[-73.92535611973761,5.057412693249318,-73.8694852402349,5.13239775823946],"transform":{"scale":[0.000005587646714943502,0.000007499256424656667],"translate":[-73.92535611973761,5.057412693249318]},"objects":{"municipios":{"type":"GeometryCollection","geometries":[{"type":"Polygon","arcs":[[0]],"properties":{"codigo":"25486200102006000101","sector":"254862001020060001","pcode":"CO25486","area_m2":122085}},{"type":"Polygon","arcs":[[1,2,3,4,5]],"properties":{"codigo":"25486100000000000103","sector":"254861000000000001","pcode":"CO25486","area_m2":90767}},{"type":"Polygon","arcs":[[6]],"properties":{"codigo":"25486200101001000101","sector":"254862001010010001","pcode":"CO25486","area_m2":118156}},{"type":"Polygon","arcs":[[7]],"properties":{"codigo":"25486200102002000101","sector":"254862001020020001","pcode":"CO25486","area_m2":90769}},{"type":"Polygon","arcs":[[8]],"properties":{"codigo":"25486200104005000101","sector":"254862001040050001","pcode":"CO25486","area_m2":33540}},{"type":"Polygon","arcs":[[9,10]],"properties":{"codigo":"25486100000000000101","sector":"254861000000000001","pcode":"CO25486","area_m2":161294}},{"type":"Polygon","arcs":[[11,-10,12,-5]],"properties":{"codigo":"25486100000000000102","sector":"254861000000000001","pcode":"CO25486","area_m2":100868}},{"type":"Polygon","arcs":[[13]],"properties":{"codigo":"25486200104003000101","sector":"254862001040030001","pcode":"CO25486","area_m2":140261}},{"type":"Polygon","arcs":[[14,-2,15]],"properties":{"codigo":"25486100000000000104","sector":"254861000000000001","pcode":"CO25486","area_m2":310147}},{"type":"Polygon","arcs":[[16,-3,-15]],"properties":{"codigo":"25486100000000000105","sector":"254861000000000001","pcode":"CO25486","area_m2":143832}}]}},"arcs":[[[5149,7792],[47,-20],[75,-83],[4,-22],[-266,-19],[-92,-27],[-82,59],[-35,55],[-14,64],[19,75],[-72,60],[-78,29],[-96,67],[28,96],[-4,113],[234,107],[31,-40],[48,-99],[28,-35],[140,-247],[85,-133]],[[8473,1553],[21,-13],[74,-104]],[[8568,1436],[90,-170],[69,-50],[120,-108],[-68,-51],[119,-74],[-16,-27],[-121,22],[-78,26],[-93,1]],[[8590,1005],[-9,8]],[[8581,1013],[-148,95],[87,76],[-123,47],[-102,22],[-96,235]],[[8199,1488],[274,65]],[[5570,9670],[-30,-11],[22,-51],[-137,-69],[-11,-14],[62,-30],[-87,-112],[-196,11],[6,-60],[-14,-57],[-44,8],[8,26],[-42,11],[6,22],[-35,38],[24,102],[-33,49],[58,28],[-23,37],[-10,91],[23,74],[-21,95],[-94,141],[165,-77],[33,34],[120,-63],[-36,-35],[144,-80],[68,18],[53,65],[121,-56],[65,-78],[-13,-37],[-92,1],[-60,-21]],[[155,3318],[75,27],[97,-5],[65,19],[83,2],[58,-30],[99,-13],[31,-34],[68,-35],[-146,-102],[36,-33],[-126,-29],[-145,-95],[-14,-17],[66,-86],[-35,-66],[-46,37],[-59,93],[-224,226],[-16,24],[142,100],[-9,17]],[[9259,137],[-57,-89],[-16,-48],[-164,42],[-187,33],[-72,-33],[0,62],[-19,13],[-7,72],[150,16],[5,-69],[77,0],[53,19],[90,55],[41,-23],[87,-19],[19,-31]],[[7729,1442],[88,-115],[-94,4],[24,-89],[-54,-25],[-70,-87]],[[7623,1130],[-72,8],[-61,73],[-43,-37],[-30,2],[-94,113],[-35,-19],[-91,54],[-65,-31],[-81,10],[-108,-32],[-7,9],[-165,-27],[-4,-22],[-66,-15],[-52,57],[-243,-41],[-38,76],[398,108],[-55,80],[-46,29],[249,131],[49,-33],[-78,-35],[48,-49],[133,-42],[99,8],[205,-11],[359,-52]],[[8581,1013],[-31,-26],[-132,86],[-107,20],[-44,52],[-56,26],[-101,-11],[-20,-66],[-39,20],[12,25],[-76,27],[65,-3],[27,25],[-118,42],[-9,-20],[-35,30],[-95,10],[-4,-55],[-86,-27],[58,-32],[-84,-66],[-20,47],[-41,-4],[21,-38],[-19,-52],[11,-40],[33,-33],[1,-55],[-44,-58],[27,-20],[-17,-55],[-47,11],[-31,35],[71,149],[-26,49],[15,60],[-17,64]],[[7729,1442],[160,-10],[106,11],[204,45]],[[6123,1069],[-109,-13],[-201,-51],[-14,25],[-73,-17],[-77,-34],[-20,24],[-47,-19],[14,-33],[-120,-57],[95,-126],[-59,-23],[-116,155],[-48,-27],[-24,-101],[33,-53],[-68,-26],[10,-23],[-83,-20],[-13,-17],[-73,100],[-54,-19],[-99,-5],[-62,-12],[27,-42],[-67,-18],[-27,33],[-203,-72],[121,-204],[-26,-7],[-117,203],[-35,-14],[94,-146],[-51,-43],[-98,-41],[16,38],[-22,105],[-79,-21],[10,-15],[-51,-19],[-41,35],[-136,-79],[20,-34],[-48,-23],[-18,22],[-6,-45],[-52,-4],[-105,-66],[-30,16],[47,8],[97,64],[29,38],[95,57],[-17,15],[46,41],[58,11],[-10,20],[55,-12],[109,45],[-33,95],[-40,-20],[-86,101],[22,10],[45,-30],[38,-66],[20,10],[-71,228],[0,24],[274,46],[45,-143],[86,23],[26,-38],[116,31],[8,-19],[49,9],[66,-52],[10,-33],[79,29],[237,164],[74,34],[227,86],[-47,74],[59,12],[13,-45],[71,10],[10,-19],[227,51],[122,32],[38,-62],[-62,-16]],[[8930,1323],[-95,-46],[-181,206],[-86,-47]],[[8473,1553],[-45,79],[244,24],[12,-55],[105,40],[125,79],[83,84],[114,200],[-177,7],[-10,100],[10,82],[6,256],[195,-68],[61,6],[60,-18],[28,72],[59,79],[37,-24],[55,48],[63,38],[5,-21],[67,44],[99,47],[64,63],[105,45],[20,-23],[109,-19],[-91,-36],[123,-86],[-192,-117],[-218,-94],[-29,26],[-145,-82],[-39,-11],[-76,-194],[-13,-82],[131,-7],[225,-21],[-148,-146],[-44,-18],[-61,17],[-52,-71],[-22,1],[-22,-53],[38,-12],[-19,-22],[-96,29],[-46,-92],[25,-16],[-31,-56],[-62,-80],[-50,-39],[-83,-117],[-40,-16]],[[8930,1323],[-18,-89],[18,-36],[-20,-102],[24,-47],[32,-4],[89,-60],[87,-109],[4,-31],[37,-24],[8,-81],[-90,48],[-97,-7],[-19,-19],[105,-62],[-173,-87],[-107,-29],[33,-73],[-26,-8],[-43,61],[-117,62],[-144,64],[15,76],[-34,23],[19,50],[-15,22],[71,28],[2,35],[32,71],[-13,10]]]}
