{"type":"Topology","bbox":[-73.71511824599372,4.6392857411792185,-73.63855340607677,4.83008335599044],"transform":{"scale":[0.000007657249716667163,0.000019081669648086947],"translate":[-73.71511824599372,4.6392857411792185]},"objects":{"municipios":{"type":"GeometryCollection","geometries":[{"type":"Polygon","arcs":[[0]],"properties":{"codigo":"25372200101004000101","sector":"253722001010040001","pcode":"CO25372","area_m2":83360}},{"type":"Polygon","arcs":[[1]],"properties":{"codigo":"25372200105007000101","sector":"253722001050070001","pcode":"CO25372","area_m2":280862}},{"type":"Polygon","arcs":[[2,3]],"properties":{"codigo":"25372100000000000101","sector":"253721000000000001","pcode":"CO25372","area_m2":215966}},{"type":"Polygon","arcs":[[4,-3]],"properties":{"codigo":"25372100000000000102","sector":"253721000000000001","pcode":"CO25372","area_m2":124337}},{"type":"Polygon","arcs":[[5]],"properties":{"codigo":"25372200401001000101","sector":"253722004010010001","pcode":"CO25372","area_m2":53400}},{"type":"Polygon","arcs":[[6]],"properties":{"codigo":"25372200401002000101","sector":"253722004010020001","pcode":"CO25372","area_m2":49104}},{"type":"Polygon","arcs":[[7]],"properties":{"codigo":"25372200104006000101","sector":"253722001040060001","pcode":"CO25372","area_m2":48309}},{"type":"Polygon","arcs":[[8]],"properties":{"codigo":"25372200102008000101","sector":"253722001020080001","pcode":"CO25372","area_m2":58195}}]}},"arcs":[[[1481,8983],[130,-22],[124,-46],[29,14],[39,-11],[-79,-55],[48,-5],[-38,-26],[19,-20],[-170,12],[3,-16],[-67,2],[2,-14],[-50,-6],[-46,42],[38,64],[-53,10],[24,30],[-9,24],[56,23]],[[6786,9966],[38,-2],[60,-22],[101,-17],[47,-18],[-158,-66],[-88,-31],[53,-35],[-80,-36],[58,-45],[-37,0],[-76,-26],[71,-26],[-96,-22],[-28,35],[-77,41],[-6,17],[-82,23],[-139,28],[-237,-9],[-153,67],[52,12],[60,0],[142,-22],[166,24],[6,62],[92,26],[-41,40],[118,31],[110,-5],[84,-22],[40,-2]],[[6683,7800],[19,87],[29,46],[90,116]],[[6821,8049],[56,-4],[30,26],[61,31],[52,50],[45,-2],[60,-45],[-13,-26],[4,-60],[-70,-109],[116,3],[38,-6],[-81,-55],[-15,-48],[-28,-51],[41,-51],[-33,9],[-84,49],[-154,16],[-163,24]],[[6683,7800],[-171,8],[-48,10],[40,73],[-85,6],[12,17],[-24,32],[-24,2],[9,79],[82,4],[103,-13],[6,10],[84,-9],[23,45],[131,-15]],[[9961,591],[38,-9],[-26,-18],[21,-31],[-62,-6],[-106,-49],[-26,7],[37,26],[-180,11],[-17,47],[-30,12],[211,-6],[28,12],[3,31],[46,28],[74,2],[-5,-24],[-33,-17],[27,-16]],[[7619,121],[52,-20],[112,5],[14,-8],[-72,-65],[-36,-21],[-123,18],[-44,-30],[-81,23],[-5,20],[37,32],[51,13],[-81,27],[78,8],[40,-20],[58,18]],[[4475,9350],[-148,-62],[-34,-27],[-20,-41],[-77,-14],[-94,16],[28,28],[-7,55],[51,-13],[48,6],[39,32],[51,17],[86,5],[37,12],[9,19],[78,30],[5,-34],[-52,-29]],[[337,7804],[97,-21],[-86,-21],[-72,19],[-92,-9],[-2,-17],[-90,-6],[-54,-67],[-30,8],[-6,27],[42,-4],[5,48],[27,37],[-36,35],[126,31],[143,26],[28,-86]]]}
