{"type":"Topology","bbox":[-74.796767880728,4.246891800123878,-74.71010321203926,4.35906457114258],"transform":{"scale":[0.00000866733360223429,0.000011218398941764415],"translate":[-74.796767880728,4.246891800123878]},"objects":{"municipios":{"type":"GeometryCollection","geometries":[{"type":"Polygon","arcs":[[0]],"properties":{"codigo":"25612200105003000101","sector":"256122001050030001","pcode":"CO25612","area_m2":112041}},{"type":"Polygon","arcs":[[1]],"properties":{"codigo":"25612200105002000101","sector":"256122001050020001","pcode":"CO25612","area_m2":116785}},{"type":"Polygon","arcs":[[2]],"properties":{"codigo":"25612200105007000101","sector":"256122001050070001","pcode":"CO25612","area_m2":157081}},{"type":"Polygon","arcs":[[3,4]],"properties":{"codigo":"25612100000000000105","sector":"256121000000000001","pcode":"CO25612","area_m2":209777}},{"type":"Polygon","arcs":[[5]],"properties":{"codigo":"25612200101001000101","sector":"256122001010010001","pcode":"CO25612","area_m2":350429}},{"type":"Polygon","arcs":[[6,7]],"properties":{"codigo":"25612200103004000101","sector":"256122001030040001","pcode":"CO25612","area_m2":298022}},{"type":"Polygon","arcs":[[-7,8]],"properties":{"codigo":"25612200103006000101","sector":"256122001030060001","pcode":"CO25612","area_m2":459501}},{"type":"Polygon","arcs":[[9,10,11,12,13]],"properties":{"codigo":"25612100000000000103","sector":"256121000000000001","pcode":"CO25612","area_m2":1940980}},{"type":"Polygon","arcs":[[-11,14]],"properties":{"codigo":"25612100000000000104","sector":"256121000000000001","pcode":"CO25612","area_m2":505851}},{"type":"Polygon","arcs":[[15,16,-13,17,-4]],"properties":{"codigo":"25612100000000000101","sector":"256121000000000001","pcode":"CO25612","area_m2":2825871}},{"type":"Polygon","arcs":[[18,19,20]],"properties":{"codigo":"25612100000000000201","sector":"256121000000000002","pcode":"CO25612","area_m2":26407}},{"type":"Polygon","arcs":[[21,22,-20,23]],"properties":{"codigo":"25612100000000000202","sector":"256121000000000002","pcode":"CO25612","area_m2":130485}},{"type":"Polygon","arcs":[[24,-24,-19,25]],"properties":{"codigo":"25612100000000000203","sector":"256121000000000002","pcode":"CO25612","area_m2":798828}},{"type":"Polygon","arcs":[[-26,-21,-23,26,-16,-5,-18,-12,-15,-10,27]],"properties":{"codigo":"25612100000000000102","sector":"256121000000000001","pcode":"CO25612","area_m2":7063537}}]}},"arcs":[[[9892,1054],[-142,-56],[-53,-41],[-257,-102],[-9,14],[-218,-185],[-11,-70],[-82,-46],[-10,-61],[-125,-133],[-27,4],[-28,89],[-248,-61],[-59,-29],[21,-38],[-35,-15],[8,89],[-13,21],[114,17],[59,46],[20,-17],[138,29],[17,107],[95,43],[66,-16],[46,55],[130,129],[119,59],[83,24],[160,76],[113,21],[1,23],[55,24],[158,114],[21,-6],[-120,-92],[13,-16]],[[5660,653],[-33,-46],[25,-50],[75,-61],[218,81],[-2,31],[113,32],[-9,-44],[28,-41],[-85,-36],[46,-70],[-86,-27],[-23,9],[3,-77],[30,-66],[70,-108],[39,-92],[8,-80],[-55,-8],[-25,86],[-68,99],[-33,82],[-86,102],[-149,119],[-124,89],[-31,35],[67,20],[64,52],[23,-31]],[[5914,1284],[119,-2],[113,-20],[-45,-115],[13,-129],[-388,15],[-82,-14],[-68,-69],[-42,47],[-31,-33],[-1,-47],[-85,30],[-75,61],[20,17],[86,5],[60,-19],[28,19],[68,-2],[40,49],[-45,32],[50,33],[41,67],[72,23],[22,46],[52,26],[78,-20]],[[3158,2878],[-72,53],[21,20],[-119,58],[-37,-40],[43,-32],[-84,-32],[-21,63],[-142,286],[-15,100],[-47,52]],[[2685,3406],[156,88],[-2,-81],[-23,-63],[606,-259],[-264,-213]],[[4761,9996],[134,-18],[102,2],[79,-42],[1,-31],[70,-1],[69,32],[28,-34],[-20,-40],[89,-40],[-31,-42],[86,-33],[-53,-54],[51,-63],[50,-21],[161,-32],[30,5],[59,-65],[-103,-83],[-59,-130],[-60,24],[-6,-29],[-141,51],[-37,-131],[-26,-24],[-158,41],[17,27],[-74,18],[128,97],[31,42],[-155,61],[73,124],[96,-11],[-22,95],[-40,9],[3,44],[-64,-74],[-55,51],[-92,-39],[8,96],[40,0],[45,64],[-160,34],[-41,-31],[-123,-15],[-73,42],[49,32],[78,95],[16,-3]],[[8728,4409],[50,99]],[[8778,4508],[-36,31],[5,33],[-98,27],[-82,-23],[2,41],[-55,63],[183,35],[160,57],[166,-151],[106,-72],[60,-18],[-1,-52],[240,-90],[185,-101],[2,-23],[-70,-2],[-80,-65],[-29,56],[-72,-49],[14,-18],[-61,-31],[-37,34],[-64,0],[-5,68],[-29,-16],[-101,14],[-76,49],[-52,53],[-61,-3],[-81,24],[-55,-4],[-28,34]],[[8728,4409],[-39,-78],[-44,-50],[74,-92],[5,-29],[97,-24],[68,-97],[62,-50],[-65,-64],[-35,26],[-106,-32],[-25,-33],[-84,-18],[25,-20],[-81,-28],[-50,4],[17,-40],[53,-25],[-23,-109],[-98,-93],[-19,-41],[-21,66],[-86,-4],[11,104],[-10,48],[71,38],[64,53],[82,2],[29,19],[-110,150],[-72,77],[-104,31],[-27,45],[-69,-50],[64,-40],[5,-66],[-46,9],[-114,-52],[-39,12],[-6,78],[128,62],[11,43],[-63,-1],[19,28],[-52,24],[-43,-32],[-83,39],[73,63],[-68,60],[76,96],[13,38],[128,-63],[23,23],[155,-68],[71,93],[-8,96],[63,-4],[36,-24],[20,42],[53,8],[75,-14],[69,-37]],[[2457,4775],[131,-35]],[[2588,4740],[11,-46]],[[2599,4694],[-102,-74],[-277,-423],[-150,60],[-75,-109],[-227,92],[250,316],[-26,25],[-86,16],[-25,-36],[-151,58],[-93,6],[-175,-245],[-30,-50],[-82,-89]],[[1350,4241],[-63,20],[-367,81],[-141,76],[-71,117],[-284,268],[-79,47],[-109,8]],[[236,4858],[14,229],[30,31],[87,46],[44,39],[30,80],[52,29],[108,-11],[46,17],[82,63],[38,82],[55,33],[27,-13],[155,-155],[84,-159],[57,-52],[59,-80],[61,-28],[64,2],[159,-18],[90,-33],[34,-30],[-22,-53],[-55,-29],[-3,-54],[29,-53],[77,-20],[30,41],[60,190],[24,134],[43,151],[84,38],[173,12],[88,65],[91,34],[106,5],[85,-24],[32,-25],[-15,-48],[-130,-112],[-41,-88],[-8,-76],[40,-143],[41,-82],[31,-25],[85,7]],[[2588,4740],[197,-10],[137,-87],[53,3],[114,-49],[22,-42],[112,-69],[-91,-96],[-235,128],[-121,-203],[-67,-101],[282,-147],[-82,-98],[-273,145],[-70,-109],[23,-9],[456,-268],[-222,-78],[-113,63],[-64,49],[-237,-91],[-37,24],[94,149],[-35,13],[-51,-84],[-47,17],[-35,-34],[-97,83],[433,655],[107,115],[-142,85]],[[3158,2878],[-147,-112],[-425,-287],[-2,-53],[-29,-15],[-135,-16],[-40,-27],[-95,6]],[[2285,2374],[11,18],[42,223],[16,208],[-11,109],[-63,216],[-58,65],[-149,55],[-186,48],[-206,42],[-231,25],[-637,78],[-568,127],[-204,96],[-41,2],[105,76],[134,110],[36,78],[42,49],[100,55],[7,39],[-24,62],[-116,152],[16,133],[-61,193],[-10,106],[7,119]],[[1350,4241],[382,-135],[55,-23],[200,-110],[123,-96],[424,-369],[78,-63],[73,-39]],[[2512,2131],[-39,-46],[-47,-85]],[[2426,2000],[-130,42],[70,125]],[[2366,2167],[140,-2],[6,-34]],[[1969,1923],[267,364]],[[2236,2287],[141,-34],[-11,-86]],[[2426,2000],[-55,-98],[-63,22],[-56,-97],[-283,96]],[[3287,1594],[-16,34],[-69,51],[-165,36],[-176,12],[-105,-7],[-244,-75],[-317,-81],[-189,-29],[-117,5],[-107,44],[-18,31],[24,57],[181,251]],[[2512,2131],[53,46],[209,134],[336,-216],[150,-80],[126,-2],[26,-47],[73,-28],[76,-81],[-104,-128],[-38,12],[-52,-121],[-80,-26]],[[2236,2287],[49,87]],[[2457,4775],[127,128],[9,58],[56,30],[98,-109],[512,-71],[-9,-39],[278,-63],[-63,-57],[36,-123],[-12,-70],[-220,-318],[-11,-117],[-87,-288],[-47,-74],[-66,-49],[214,-87],[37,60],[41,157],[184,-34],[9,49],[-24,82],[85,122],[105,-41],[-69,-141],[407,-142],[205,-63],[0,-43],[-81,-461],[-5,-12],[520,-212],[96,87],[53,-7],[64,-38],[26,-66],[62,39],[27,-70],[-31,-121],[142,88],[88,-129],[123,33],[151,24],[155,-99],[-27,-51],[24,-9],[-72,-172],[-322,36],[-38,15],[-11,213],[-225,-114],[-122,-14],[-83,-22],[-94,12],[-96,-50],[17,-17],[-239,-131],[88,-130],[41,-43],[83,-244],[74,-64],[125,-126],[72,-97],[71,-134],[12,-67],[50,-26],[108,-113],[178,-94],[-86,-35],[-5,-17],[-158,-80],[-201,-88],[-177,-50],[-168,-68],[-227,-69],[-175,-44],[-211,-44],[-60,-24],[-56,-64],[-21,-131],[-117,-67],[-92,-9],[-85,37],[-23,30],[-7,69],[15,53],[74,151],[83,105],[48,98],[-1,152],[-21,93],[-25,19],[-207,19],[-139,-45],[-113,-105],[-48,5],[-99,66],[-26,48],[21,77],[142,83],[41,36],[88,129],[55,53],[12,65]]]}
