{"type":"Topology","bbox":[-74.55372402858569,4.79002632714832,-74.51307439055859,4.875524908902712],"transform":{"scale":[0.000004065370339744483,0.000008550713246763838],"translate":[-74.55372402858569,4.79002632714832]},"objects":{"municipios":{"type":"GeometryCollection","geometries":[{"type":"Polygon","arcs":[[0,1]]},{"type":"Polygon","arcs":[[2]]},{"type":"Polygon","arcs":[[-2,3]]},{"type":"Polygon","arcs":[[4]]}]}},"arcs":[[[3692,9433],[24,-24],[-66,-60],[-195,-36],[-45,-22],[-277,-33],[-74,14],[38,71],[20,95],[-15,31],[-97,54],[-34,47],[-4,68],[49,-2],[55,64],[64,22]],[[3135,9722],[98,-10],[43,-81],[-27,-4],[57,-42],[58,51],[342,-104],[-14,-99]],[[9789,557],[103,-29],[107,-74],[-23,-12],[-132,66],[-152,17],[-102,-17],[56,58],[66,-13],[-38,42],[65,-7],[50,-31]],[[3135,9722],[18,25],[174,9],[15,30],[130,122],[54,-8],[40,25],[164,3],[-32,71],[66,-1],[63,-47],[8,-52],[69,-65],[219,-52],[-50,-50],[-220,48],[-33,-75],[17,-117],[-41,-55],[-104,-100]],[[226,70],[86,-16],[61,48],[89,-65],[75,28],[-14,32],[53,20],[105,-40],[135,-30],[88,1],[-25,-26],[-178,26],[-189,-20],[2,-13],[-163,3],[-221,-18],[-29,30],[23,27],[-52,-2],[-38,41],[-34,105],[49,-11],[104,-119],[73,-1]]]}
