{"type":"Topology","bbox":[-74.70328453006823,4.559544498109736,-74.68621106430692,4.566420540252114],"transform":{"scale":[0.0000017075173278641718,6.876729815359228e-7],"translate":[-74.70328453006823,4.559544498109736]},"objects":{"municipios":{"type":"GeometryCollection","geometries":[{"type":"Polygon","arcs":[[0,1]]},{"type":"Polygon","arcs":[[-1,2]]}]}},"arcs":[[[5031,5895],[-64,-3209]],[[4967,2686],[-479,329],[-591,272],[-42,-660],[1071,-768],[-33,-1197],[-309,128],[-175,388],[-701,546],[-20,498],[-353,-168],[-123,-716],[320,-845],[-235,-493],[-132,287],[-456,345],[-752,-147],[40,628],[-929,298],[-587,-202],[-481,434],[318,142],[139,290],[1067,-89],[447,-203],[281,389],[128,-505],[104,55],[411,1241],[-27,491],[-120,263],[335,1746],[-58,959],[-111,182],[-405,1385],[-476,-1110],[29,1612],[-174,1444],[258,42],[94,-988],[1090,-2186],[472,533],[-99,581],[565,602],[56,178],[103,-679],[634,632],[-30,-2755]],[[5031,5895],[1174,-136],[67,-2200],[200,-215],[37,1174],[273,-149],[-121,-1265],[517,-378],[1456,-293],[866,-235],[465,16],[34,-803],[-408,274],[-673,-51],[-161,-340],[-127,209],[-309,137],[1,-537],[-93,-95],[-489,421],[-501,338],[-313,9],[-412,-133],[-373,507],[-760,-27],[-61,225],[-353,338]]]}
