{"type":"Topology","bbox":[-73.81882360089293,5.446880864008614,-73.80834354280614,5.464985161752368],"transform":{"scale":[0.000001048110619740428,0.0000018106108354589674],"translate":[-73.81882360089293,5.446880864008614]},"objects":{"municipios":{"type":"GeometryCollection","geometries":[{"type":"Polygon","arcs":[[0,1,2,3]]},{"type":"Polygon","arcs":[[4,-2,5,6]]},{"type":"Polygon","arcs":[[-3,-5,7]]},{"type":"Polygon","arcs":[[-6,-1,8]]}]}},"arcs":[[[6314,4453],[-1724,22],[159,-517],[116,-143]],[[4865,3815],[-1198,-25]],[[3667,3790],[11,1508]],[[3678,5298],[-13,390],[-913,482],[-190,18],[-169,391],[1165,274],[-105,381],[-110,56],[-673,976],[-214,197],[-383,78],[254,55],[218,255],[617,65],[-754,1030],[189,42],[872,-138],[75,-140],[529,102],[446,187],[-139,-803],[1083,-238],[163,258],[904,-120],[-163,-282],[-132,6],[-399,-294],[-130,164],[-200,-360],[112,-126],[-317,-302],[257,-112],[-80,-112],[-299,20],[-126,-204],[161,-150],[-481,42],[42,-418],[530,-245],[363,41],[151,-87],[-373,-93],[410,-603],[-56,-254],[112,-117],[-285,-127],[525,-271],[-131,-259],[704,-60],[-253,-173],[-158,-267]],[[3592,1228],[521,7],[112,865],[-366,40],[124,499],[-561,88],[232,796],[13,267]],[[4865,3815],[3665,-478],[1213,-203]],[[9743,3134],[-705,-686],[-1418,220],[-241,-436],[-1731,150],[42,-1446],[99,-483],[-462,-10],[154,-358],[-281,-85],[-358,187],[-637,485],[-235,298],[-220,52],[-158,206]],[[3592,1228],[-308,181],[-406,630],[-450,206],[-98,263],[-350,238],[-327,-39],[-71,113],[223,142],[-188,289],[-617,49],[-559,-51],[-441,73],[32,115],[358,-25],[-149,257],[-57,402],[919,-151],[142,-77],[1089,-168],[413,133],[462,757],[-507,14],[-401,91],[276,139],[781,-95],[47,588],[273,-4]],[[6314,4453],[-317,-569],[1057,-128],[160,261],[969,-88],[-53,-277],[1869,-264],[-256,-254]]]}