{"type":"Topology","bbox":[-74.66381117306264,5.454833704065392,-74.56613955790192,5.760511848779767],"transform":{"scale":[0.000009768138329905055,0.00003057087155859336],"translate":[-74.66381117306264,5.454833704065392]},"objects":{"municipios":{"type":"GeometryCollection","geometries":[{"type":"MultiPolygon","arcs":[[[0]],[[1]]],"properties":{"codigo":"25572200201005000101","sector":"255722002010050001","pcode":"CO25572","area_m2":21837}},{"type":"Polygon","arcs":[[2,3]],"properties":{"codigo":"25572100000000000107","sector":"255721000000000001","pcode":"CO25572","area_m2":46938}},{"type":"Polygon","arcs":[[4,5]],"properties":{"codigo":"25572200101003000102","sector":"255722001010030001","pcode":"CO25572","area_m2":50861}},{"type":"Polygon","arcs":[[6,7,8,9]],"properties":{"codigo":"25572100000000000101","sector":"255721000000000001","pcode":"CO25572","area_m2":474249}},{"type":"Polygon","arcs":[[10,11,-8,12,13]],"properties":{"codigo":"25572100000000000102","sector":"255721000000000001","pcode":"CO25572","area_m2":63807}},{"type":"Polygon","arcs":[[14,-14,15,16]],"properties":{"codigo":"25572100000000000103","sector":"255721000000000001","pcode":"CO25572","area_m2":300310}},{"type":"Polygon","arcs":[[-4,17,18,19,-17,20,21,22]],"properties":{"codigo":"25572100000000000104","sector":"255721000000000001","pcode":"CO25572","area_m2":414583}},{"type":"Polygon","arcs":[[-13,-7,23,-21,-16]],"properties":{"codigo":"25572100000000000105","sector":"255721000000000001","pcode":"CO25572","area_m2":107805}},{"type":"Polygon","arcs":[[24,-9,-12]],"properties":{"codigo":"25572100000000000106","sector":"255721000000000001","pcode":"CO25572","area_m2":216870}},{"type":"Polygon","arcs":[[-18,-3,25]],"properties":{"codigo":"25572100000000000108","sector":"255721000000000001","pcode":"CO25572","area_m2":66678}},{"type":"Polygon","arcs":[[-19,-26,-23,26]],"properties":{"codigo":"25572100000000000109","sector":"255721000000000001","pcode":"CO25572","area_m2":288327}},{"type":"Polygon","arcs":[[27]],"properties":{"codigo":"25572200503001000101","sector":"255722005030010001","pcode":"CO25572","area_m2":67925}},{"type":"MultiPolygon","arcs":[[[-5,28]],[[29]]],"properties":{"codigo":"25572200101003000101","sector":"255722001010030001","pcode":"CO25572","area_m2":158054}}]}},"arcs":[[[9684,8363],[3,-4],[-15,-15],[81,-9],[-27,-5],[4,-11],[-20,-5],[-48,5],[-54,2],[-2,17],[-35,13],[16,5],[49,-1],[15,8],[33,0]],[[9914,8310],[19,-12],[26,-3],[40,-13],[-25,-2],[-21,-5],[-19,6],[0,8],[-20,13],[-44,13],[-31,4],[6,4],[57,-9],[12,-4]],[[1441,498],[50,-8],[67,-7],[21,-5],[-27,-11],[24,-6],[-21,-10],[-38,-11],[20,-8],[-4,-11],[23,-12]],[[1556,409],[-52,-11],[-31,17],[-63,16],[-79,17],[110,50]],[[3509,9816],[-67,43],[62,9],[-2,3],[128,18]],[[3630,9889],[36,-24],[49,-12],[63,-6],[-17,-19],[12,-19],[-96,16],[-54,10],[-19,-5],[-95,-14]],[[667,339],[23,-8],[52,-5],[-23,-32],[21,-26]],[[740,268],[23,-30],[-29,-3]],[[734,235],[-109,-13],[-151,-16],[-113,-25],[-99,-12],[-111,-11]],[[151,158],[-22,44],[-26,45],[3,31],[-9,76],[-65,104],[-32,27],[145,13],[64,4],[38,-1],[51,-9],[16,-8],[7,-47],[23,-15],[-6,-32],[13,-30],[10,-12],[30,-19],[46,-11],[28,0],[146,16],[56,5]],[[977,196],[-51,1],[-94,4],[0,-8],[-12,-9],[-36,1]],[[784,185],[-28,6],[-26,-10],[1,16],[11,17],[-8,21]],[[740,268],[178,-11]],[[918,257],[33,-3],[100,-31],[-74,-27]],[[1379,262],[37,-7],[333,-77],[-92,-86],[-54,-50],[-57,12],[23,10],[-33,8],[20,9],[-55,14],[27,12],[-23,6],[23,10],[-13,4],[15,8],[-4,7],[-67,11],[-34,9],[-5,6],[-32,1],[-37,14],[-28,16],[-5,12],[-29,3],[-38,-11],[-115,-9],[3,-16],[-58,-11],[-11,9],[-31,3],[1,11],[-58,2],[-5,4]],[[918,257],[21,36],[15,16]],[[954,309],[105,-7],[65,17],[70,-11],[104,-26],[81,-20]],[[1556,409],[28,6]],[[1584,415],[31,6]],[[1615,421],[7,-6],[-26,-9],[1,-7],[52,-2],[30,-5],[10,-5],[26,-4],[-3,-13],[-10,-13],[-48,-21],[-36,-7],[-73,-5],[-46,0],[-13,-55],[-100,-5],[-7,-2]],[[954,309],[21,23],[19,40],[25,32],[52,18],[9,12],[54,35],[15,15],[43,24],[33,24]],[[1225,532],[63,32]],[[1288,564],[47,-4],[8,3],[64,-13],[68,-20],[-62,-26],[28,-6]],[[667,339],[126,12],[126,15],[10,8],[79,54],[119,58],[98,46]],[[784,185],[-39,-8],[3,-39],[8,-6],[43,5],[5,-7],[-35,-11],[-13,-44],[5,-16],[22,-8],[-11,-5],[3,-17],[-31,-9],[17,-13],[-43,-7],[-6,9],[-15,-1],[-39,22],[-28,12],[-17,4],[17,12],[10,0],[-7,17],[-15,20],[-26,20],[-18,26],[-56,-6],[-12,2],[-27,-15],[-83,-4],[-23,9],[-32,-1],[-25,-5],[-139,-7],[-17,25],[-9,19]],[[1441,498],[87,38],[170,78],[34,17],[21,-4],[1,-7],[-34,-15],[-4,-7],[-104,-48],[50,-83],[-2,-8],[-74,-26],[-2,-18]],[[1288,564],[141,68],[45,-8],[60,-23],[71,-17],[81,36],[140,83],[224,132],[59,-8],[28,-2],[112,45],[12,-1],[-29,-14],[25,2],[-49,-23],[-268,-121],[-55,-24],[-132,-62],[7,-16],[26,4],[26,-14],[38,-9],[22,-20],[-31,-3],[9,-8],[-36,-4],[16,-15],[33,2],[15,-10],[18,2],[21,-10],[-11,-4],[-48,-7],[79,-33],[-175,-32],[-147,-29]],[[7128,575],[12,-9],[-11,-15],[3,-7],[-31,-5],[20,-2],[13,-17],[-26,-18],[34,-1],[58,2],[37,-3],[-6,-8],[-60,-31],[-26,4],[-25,10],[-49,-4],[-14,6],[-39,1],[5,3],[-73,-2],[-8,4],[10,15],[38,11],[-5,15],[-25,10],[20,12],[-8,5],[24,11],[26,4],[15,9],[33,14],[20,-1],[38,-13]],[[3509,9816],[43,-26],[-5,-5],[-45,-8],[-162,61],[-60,26],[42,14],[-3,11],[25,6],[-3,8],[-105,66],[27,5],[153,25],[56,-28],[27,6],[48,-35],[42,-26],[41,-27]],[[3664,9914],[-15,22],[83,8],[2,-26],[-70,-4]]]}
