{"type":"Topology","bbox":[-74.18617072219854,4.912186600607522,-74.12906797208348,5.006694993600711],"transform":{"scale":[0.000005710846096115994,0.000009451784477766624],"translate":[-74.18617072219854,4.912186600607522]},"objects":{"municipios":{"type":"GeometryCollection","geometries":[{"type":"Polygon","arcs":[[0]]},{"type":"Polygon","arcs":[[1]]},{"type":"Polygon","arcs":[[2]]},{"type":"Polygon","arcs":[[3,4,5]]},{"type":"Polygon","arcs":[[-5,6,7]]},{"type":"Polygon","arcs":[[-4,8,-7]]},{"type":"Polygon","arcs":[[9]]}]}},"arcs":[[[9320,9933],[80,15],[-3,-102],[36,-6],[2,-47],[275,0],[-12,-40],[39,-80],[-34,-75],[140,-9],[24,-39],[79,-28],[53,-51],[-76,-53],[-248,136],[-36,-68],[-51,-50],[-41,18],[-151,-76],[194,-74],[-315,6],[-13,-104],[-41,-58],[-359,215],[199,149],[-42,12],[52,74],[-23,45],[76,71],[-42,92],[96,79],[-8,45],[142,68],[8,-65]],[[5444,5565],[63,1],[133,-63],[-128,-130],[262,-113],[-49,-57],[-131,79],[-155,81],[-162,-117],[-137,70],[10,8],[-156,91],[180,118],[54,6],[-53,31],[204,7],[65,-12]],[[378,3531],[29,-13],[126,82],[45,-21],[-47,-32],[98,-62],[128,-4],[120,-55],[-97,-73],[170,-83],[148,-101],[52,-50],[62,18],[36,-54],[160,-143],[-106,-26],[80,-85],[-29,-6],[129,-114],[-165,-8],[-99,-19],[-5,79],[-69,57],[-116,7],[-232,64],[-35,-23],[-81,42],[-165,165],[-87,57],[-105,95],[55,22],[-145,170],[-23,48],[60,55],[-90,40],[-68,60],[-112,66],[302,119],[135,-123],[-166,-73],[107,-78]],[[1905,1449],[34,27],[-19,142],[365,194]],[[2285,1812],[173,-132],[303,-171]],[[2761,1509],[-138,-90],[78,-72],[-48,-25],[-46,38],[-54,-35],[26,-41],[-62,-68],[-111,-34],[9,92],[-67,79],[-212,25],[-31,-43],[-61,10],[-112,-9],[-27,113]],[[2285,1812],[485,266],[41,80]],[[2811,2158],[95,15],[-4,-56],[-32,-24],[59,-66],[88,-61],[-41,-42],[183,-62],[94,-43],[44,-65],[-116,-12],[-352,-199],[-68,-34]],[[1905,1449],[-13,45],[-80,10],[75,20],[-61,50],[83,46],[-59,10],[-33,65],[-386,249],[40,25],[-105,70],[306,152],[112,-110],[46,27],[250,-69],[36,-4],[507,275],[188,-152]],[[5877,399],[12,-67],[-148,22],[-44,-44],[149,-82],[-71,-50],[-85,0],[-121,-67],[59,-79],[-118,-29],[-12,111],[-50,31],[15,69],[112,-43],[74,94],[-59,90],[-62,-14],[-5,62],[-78,75],[281,135],[102,-100],[49,-114]]]}
