{"type":"Topology","bbox":[-73.80287422579022,5.080984694633206,-73.70420778584668,5.217835877038874],"transform":{"scale":[0.000009867630757430006,0.000013686486889255766],"translate":[-73.80287422579022,5.080984694633206]},"objects":{"municipios":{"type":"GeometryCollection","geometries":[{"type":"Polygon","arcs":[[0,1,2]]},{"type":"Polygon","arcs":[[3]]},{"type":"Polygon","arcs":[[4,5]]},{"type":"Polygon","arcs":[[6,7]]},{"type":"Polygon","arcs":[[-3,8,9,10]]},{"type":"Polygon","arcs":[[-10,11,12]]},{"type":"Polygon","arcs":[[-12,-9,-2,13]]},{"type":"Polygon","arcs":[[14]]},{"type":"Polygon","arcs":[[-5,15,-7,16,17,18]]},{"type":"Polygon","arcs":[[19,-18]]}]}},"arcs":[[[763,1276],[-105,-10],[-202,-71],[-127,-25],[-191,-44],[71,169],[-38,37],[-4,42],[21,72],[-188,-26],[94,94]],[[94,1514],[39,36],[32,13],[141,29]],[[306,1592],[137,13],[115,3],[32,-102],[97,-117],[76,-113]],[[9799,9993],[-2,-72],[14,-17],[71,-28],[70,-4],[47,-47],[-56,9],[-37,-31],[-57,3],[-44,31],[-44,-37],[-18,37],[-23,-1],[10,41],[-49,78],[98,18],[20,20]],[[1897,814],[-46,-45],[4,-32],[-33,-42],[-54,15],[-174,-54],[-51,-39],[-181,-35],[-51,70],[-10,63],[-32,23],[-50,-3],[15,-68],[-76,2],[-17,89],[39,5],[-3,22]],[[1177,785],[171,35],[51,5],[54,17],[63,-21],[142,18],[128,-4],[43,-27],[41,24],[27,-18]],[[1933,540],[-55,51],[17,26],[48,39],[-68,11],[5,34],[52,88],[93,47]],[[2025,836],[23,38],[98,-97],[-35,-44],[108,-42],[-16,-80],[-39,7],[-36,22],[-146,-63],[-52,8],[29,-18],[-26,-27]],[[306,1592],[-10,68],[56,5],[-27,93],[89,5],[-29,75]],[[385,1838],[182,42],[27,68],[33,15],[84,-10],[51,9]],[[762,1962],[-15,-65],[-26,-25],[-8,-53],[39,-119],[30,-17],[18,-34],[42,-4],[106,19],[-5,-13],[72,-26],[45,1],[-14,-54],[-78,5],[-169,-2],[30,-49],[78,4],[46,-7],[-1,-14],[-140,-7],[6,-30],[59,-2],[6,-33],[31,3],[15,-26],[-99,-16],[62,-99],[-129,-23]],[[385,1838],[-42,93]],[[343,1931],[39,3],[7,38],[50,104],[8,43],[20,17],[87,41],[40,3],[155,-40],[26,39],[110,-37],[-59,-71],[-64,-109]],[[94,1514],[-54,36],[-7,33],[8,61],[71,173],[-56,15],[-18,70],[-26,18],[27,40],[1,94],[21,2],[57,-99],[112,-4],[113,-22]],[[5315,2100],[36,-13],[-81,-53],[-35,-120],[110,-77],[-46,-17],[-73,33],[-30,-39],[-36,-74],[-26,-27],[-30,1],[-60,-27],[-47,-5],[-30,61],[44,6],[-21,69],[26,9],[32,55],[41,-14],[48,52],[-32,29],[49,32],[-36,77],[-47,37],[39,38],[101,67],[104,-100]],[[1897,814],[25,18],[91,20],[12,-16]],[[1933,540],[-112,-35],[22,-16],[93,2],[58,22],[20,-9],[-17,-36],[-152,-16],[-29,13],[-45,-43],[10,-26],[65,-11],[-1,-21],[-150,-5],[-77,29],[-18,-14],[18,-88],[-42,-19]],[[1576,267],[-38,143],[-144,81],[-100,29],[-59,-13],[-31,4],[-43,-51],[-80,-1],[39,44],[-41,17]],[[1079,520],[32,46],[-110,71],[-57,30],[35,115],[52,150],[68,14],[32,-138],[32,1],[14,-24]],[[1576,267],[-9,-39],[-52,-7],[-120,12],[-112,31],[-156,1],[-39,-10],[-49,-162],[-33,-93],[-47,3],[2,24],[-253,1],[-4,48],[80,150],[10,33],[71,-33],[36,2],[61,-17],[2,61],[-77,10],[-10,73],[65,43],[114,84],[44,19],[-21,19]]]}
