{"type":"Topology","bbox":[-74.71744142967901,4.679752882716399,-74.59291412589522,4.696569673544751],"transform":{"scale":[0.000012453975775956925,0.0000016818472675619197],"translate":[-74.71744142967901,4.679752882716399]},"objects":{"municipios":{"type":"GeometryCollection","geometries":[{"type":"Polygon","arcs":[[0]]},{"type":"Polygon","arcs":[[1,2]]},{"type":"Polygon","arcs":[[-2,3]]}]}},"arcs":[[[9913,9717],[19,-40],[-5,-128],[40,-103],[-7,-131],[9,-59],[1,-201],[27,-401],[2,-188],[-28,-24],[-2,-156],[-21,-204],[-13,1],[-8,303],[-18,488],[-9,28],[-11,354],[-11,42],[-6,233],[-15,47],[2,89],[19,-37],[10,59],[10,310],[9,-11],[-2,-236],[8,-35]],[[148,499],[24,290],[14,29],[38,-162],[44,116],[-21,133],[17,133],[-8,313],[-8,93],[69,31],[17,-23],[42,-138],[-5,214]],[[371,1528],[16,39],[14,-132],[35,42],[8,-37],[38,56],[-20,-97],[-3,-322],[11,7],[-3,-541],[3,-476],[5,-67],[-80,213],[2,48],[-33,85],[-25,-177],[-35,128],[-29,198],[-21,50],[-3,-165],[-19,2],[-1,-133],[-31,124],[-53,33],[1,93]],[[148,499],[-9,7],[-16,-132],[-10,-244],[-12,162],[-2,159],[-23,-3],[-27,-139],[-25,-209],[-21,-11],[-1,259],[10,99],[23,46],[7,-89],[17,23],[15,109],[31,135],[-6,201],[10,37],[-22,206],[-4,264],[13,109],[-21,218],[19,290],[10,66],[-5,116],[2,323],[9,197],[25,355],[-3,134],[7,213],[22,-63],[28,-173],[-2,-329],[-9,-75],[43,-126],[19,27],[18,113],[20,-107],[-14,-222],[6,-241],[11,-19],[3,-219],[43,-247],[44,-191]]]}