{"type":"Topology","bbox":[-74.8342425618888,4.393900062776291,-74.81632627629335,4.405008083272627],"transform":{"scale":[0.0000017918077403187652,0.0000011109131409476362],"translate":[-74.8342425618888,4.393900062776291]},"objects":{"municipios":{"type":"GeometryCollection","geometries":[{"type":"Polygon","arcs":[[0,1,2]]},{"type":"Polygon","arcs":[[3,4,5]]},{"type":"Polygon","arcs":[[-4,6,-2,7]]},{"type":"Polygon","arcs":[[-8,-1,8,9]]},{"type":"Polygon","arcs":[[-5,-10,10]]}]}},"arcs":[[[3612,5442],[-383,-846],[440,-564],[663,-747]],[[4332,3285],[-811,-1906],[-417,452],[-38,-90],[-644,811],[79,288],[-635,103]],[[1866,2943],[235,766],[-143,179],[799,2113],[219,-139],[57,185],[579,-605]],[[5667,3377],[-78,179],[370,248],[-42,180]],[[5917,3984],[1341,1857],[646,828],[332,376],[459,639]],[[8695,7684],[212,269],[373,-286],[206,-332],[345,-327],[-5,-490],[173,-447],[-327,-431],[287,-402],[-30,-232],[-342,-113],[-315,-214],[-241,-573],[-411,-289],[-7,-258],[-764,-101],[-1406,-40],[-370,-694],[-365,497],[-41,156]],[[5667,3377],[-312,-378],[29,-201],[-356,-565],[-579,-823],[-247,-20],[-404,-345],[-52,-226],[-480,-401],[29,-392],[-456,57],[-280,396],[-388,-125],[-272,153],[49,80],[-303,130],[64,374],[-111,42],[-158,416],[-221,233],[-6,320],[-685,78],[-10,368],[-498,36],[-20,127],[255,136],[676,180],[935,-84]],[[4332,3285],[265,614],[103,-103],[403,321],[814,-133]],[[3612,5442],[600,1340]],[[4212,6782],[485,-68],[367,-868],[453,-15],[-571,-711],[293,-549],[678,-587]],[[4212,6782],[-1234,981],[-54,-31],[-701,558],[332,1040],[374,65],[624,-219],[730,424],[270,-30],[334,-186],[308,-389],[62,323],[302,329],[264,-127],[166,55],[116,238],[340,174],[1141,-1533],[259,373],[603,-853],[247,-290]]]}