{"type":"Topology","bbox":[-74.40296730166983,5.050328057640116,-74.37519130896601,5.073555641974725],"transform":{"scale":[0.000002777877058088134,0.000002322990732534112],"translate":[-74.40296730166983,5.050328057640116]},"objects":{"municipios":{"type":"GeometryCollection","geometries":[{"type":"Polygon","arcs":[[0]]},{"type":"Polygon","arcs":[[1,2]]},{"type":"Polygon","arcs":[[-3,3,4]]},{"type":"Polygon","arcs":[[-4,5]]}]}},"arcs":[[[926,2631],[95,-448],[90,-227],[368,-400],[341,-161],[289,-78],[26,-259],[-77,-13],[-431,-243],[-166,-315],[-20,-295],[-67,-145],[-231,-47],[-88,50],[-115,416],[-290,-161],[-134,48],[-200,336],[-229,508],[-69,244],[-7,582],[87,275],[176,296],[128,99],[260,114],[213,46],[51,-222]],[[9853,7829],[-35,-239],[-172,-429],[88,-236],[-150,-202],[25,-112],[-163,-157],[24,134],[-466,-105],[42,232],[-75,151],[-178,53],[-56,-66],[-164,37],[45,524],[91,208],[-204,97],[47,108],[-105,210],[-574,145]],[[7873,8182],[169,187],[142,60],[522,-46],[137,87],[-52,-168],[183,-98],[101,281],[514,-307],[229,-207],[35,-142]],[[7873,8182],[-192,-69],[-59,48],[-190,401]],[[7432,8562],[322,83],[220,295],[39,299],[138,169],[292,41],[249,-230],[76,157],[137,-53],[166,145],[43,193],[162,-55],[64,283],[61,-29],[255,139],[103,-184],[197,-17],[43,-191],[-48,-253],[-171,-206],[-30,-142],[-5,-490],[101,-54],[51,-308],[-44,-325]],[[7873,8182],[-266,-612],[-82,-36],[-127,130],[-161,59],[-203,-228],[-111,-218],[-161,-68],[-342,-22],[-3,284],[-71,74],[170,341],[-59,76],[170,191],[-148,162],[-128,251],[55,68],[93,-139],[239,215],[136,-151],[21,-385],[132,21],[6,-95],[-140,-67],[139,-173],[132,-75],[-2,197],[-107,60],[181,428],[79,-48],[117,140]]]}