{"type":"Topology","bbox":[-73.54619169457118,5.0058493907835935,-73.5351909401914,5.012496361447673],"transform":{"scale":[0.0000011001854565235733,6.647635427622472e-7],"translate":[-73.54619169457118,5.0058493907835935]},"objects":{"municipios":{"type":"GeometryCollection","geometries":[{"type":"Polygon","arcs":[[0]],"properties":{"codigo":"25436100000000000102","sector":"254361000000000001","pcode":"CO25436","area_m2":28828}},{"type":"Polygon","arcs":[[1],[-1]],"properties":{"codigo":"25436100000000000101","sector":"254361000000000001","pcode":"CO25436","area_m2":439056}}]}},"arcs":[[[4742,3018],[-373,-301],[-811,108],[-251,499],[-234,-103],[-70,202],[402,577],[805,387],[432,322],[444,548],[462,-787],[-443,-893],[-363,-559]],[[8750,8261],[762,-630],[-147,-415],[-208,179],[117,-1009],[-46,-729],[771,-482],[-154,-546],[-614,152],[-133,-326],[-358,577],[-132,-609],[-472,-179],[153,-1151],[-577,-242],[-1152,-1790],[-550,-765],[-283,480],[-376,370],[-464,-679],[-711,-467],[-1006,503],[-465,829],[-215,585],[-300,332],[-304,-121],[-681,-559],[-120,607],[-230,185],[-114,382],[-741,936],[789,450],[497,-258],[269,-5],[363,357],[-310,1799],[300,514],[-106,389],[440,133],[186,174],[-136,639],[669,680],[298,-689],[671,314],[106,-649],[298,147],[234,-97],[118,748],[538,-471],[131,-383],[448,491],[443,329],[116,-343],[801,468],[1618,801],[152,782],[707,-215],[27,-303],[-334,-633],[-583,-587]]]}
