{"type":"Topology","bbox":[-73.49900379559051,4.336631596717358,-73.25499764668774,4.575667656933632],"transform":{"scale":[0.000024403055195796562,0.00002390599662128955],"translate":[-73.49900379559051,4.336631596717358]},"objects":{"municipios":{"type":"GeometryCollection","geometries":[{"type":"Polygon","arcs":[[0,1,2]],"properties":{"codigo":"25438100000000000101","sector":"254381000000000001","pcode":"CO25438","area_m2":151878}},{"type":"Polygon","arcs":[[3,4,5,-2]],"properties":{"codigo":"25438100000000000102","sector":"254381000000000001","pcode":"CO25438","area_m2":431380}},{"type":"Polygon","arcs":[[6]],"properties":{"codigo":"25438200905004000101","sector":"254382009050040001","pcode":"CO25438","area_m2":69305}},{"type":"Polygon","arcs":[[7,-4,-1,8]],"properties":{"codigo":"25438100000000000103","sector":"254381000000000001","pcode":"CO25438","area_m2":632992}},{"type":"Polygon","arcs":[[-8,9,-5]],"properties":{"codigo":"25438100000000000104","sector":"254381000000000001","pcode":"CO25438","area_m2":341042}},{"type":"Polygon","arcs":[[10]],"properties":{"codigo":"25438201005003000101","sector":"254382010050030001","pcode":"CO25438","area_m2":29473}},{"type":"Polygon","arcs":[[11]],"properties":{"codigo":"25438200206005000101","sector":"254382002060050001","pcode":"CO25438","area_m2":41548}},{"type":"Polygon","arcs":[[12]],"properties":{"codigo":"25438201001006000101","sector":"254382010010060001","pcode":"CO25438","area_m2":80056}},{"type":"Polygon","arcs":[[13]],"properties":{"codigo":"25438201003010000101","sector":"254382010030100001","pcode":"CO25438","area_m2":27435}},{"type":"Polygon","arcs":[[14]],"properties":{"codigo":"25438200105011000101","sector":"254382001050110001","pcode":"CO25438","area_m2":71783}}]}},"arcs":[[[6189,7293],[-21,-27],[-79,-44]],[[6089,7222],[-49,80],[-44,71],[-9,22],[-17,-17],[-1,8]],[[5969,7386],[2,26],[73,29],[28,-44],[18,-17],[26,-19],[12,-5],[61,-63]],[[6089,7222],[55,-88],[55,-74],[41,-53],[13,-20],[10,-23]],[[6263,6964],[-106,-20],[-1,8],[-17,-4],[-43,-20],[-66,125],[1,24],[-12,-3],[8,60],[0,19],[-15,5],[-12,14],[-8,-4],[-15,12],[-36,-17]],[[5941,7163],[-22,39],[8,4],[-15,52],[10,28],[36,31],[15,3],[-7,31],[3,35]],[[5468,2205],[-6,-10],[25,-29],[-40,-42],[10,-8],[-6,-27],[-17,-22],[-28,21],[21,17],[-26,27],[-7,-6],[-22,23],[-23,-16],[-8,8],[34,26],[-9,10],[12,0],[28,17],[14,18],[9,-9],[29,27],[14,-14],[-4,-11]],[[6280,6902],[-17,62]],[[6189,7293],[5,-5],[20,9],[20,-46],[-28,-19],[32,-47],[39,54],[52,33],[5,22],[15,2],[115,-168],[14,-20],[-24,-18],[41,-79],[-61,-42],[-71,-47],[-78,-37],[-5,17]],[[6280,6902],[-114,-31],[7,-63],[-4,-3],[-144,-8],[-45,74],[13,25],[-56,50],[37,19],[42,101],[-59,35],[-7,21],[16,0],[-25,41]],[[1719,71],[-7,-14],[14,-15],[-22,-22],[9,-8],[-19,-12],[-13,13],[-12,-11],[-14,36],[-4,22],[28,25],[14,-15],[19,16],[7,-15]],[[9950,7819],[23,5],[21,-10],[5,-8],[-18,-33],[-16,-13],[-6,-11],[-12,10],[8,10],[-7,7],[-8,-10],[-19,8],[6,7],[-7,23],[-16,12],[-7,18],[16,19],[-1,11],[12,8],[33,-25],[-11,-11],[4,-17]],[[2026,3733],[21,-21],[-22,-15],[21,-20],[-6,-7],[0,-23],[-33,-13],[-35,1],[-20,-9],[-16,28],[-11,11],[13,17],[-9,8],[7,8],[-21,19],[14,2],[24,26],[13,-13],[22,27],[38,-26]],[[36,2103],[9,-8],[15,15],[22,-19],[-1,-25],[13,-11],[-22,-18],[-25,21],[-11,-14],[-17,13],[13,15],[-32,24],[19,24],[17,-17]],[[7068,9984],[7,3],[37,-41],[44,-2],[12,-9],[-25,-16],[14,-16],[15,7],[10,-8],[-21,-16],[20,-14],[-28,-10],[-46,-4],[-8,19],[-17,11],[-15,27],[-19,15],[7,5],[-25,28],[0,9],[32,27],[6,-15]]]}
