{"type":"Topology","bbox":[-74.83334841856663,4.285489995223081,-74.76030882216213,4.3926445475886124],"transform":{"scale":[0.000007304690109460822,0.000010716526889242075],"translate":[-74.83334841856663,4.285489995223081]},"objects":{"municipios":{"type":"GeometryCollection","geometries":[{"type":"Polygon","arcs":[[0,1,2,3,4,5]],"properties":{"codigo":"25307100000000000204","sector":"253071000000000002","pcode":"CO25307","area_m2":80224}},{"type":"Polygon","arcs":[[6,7,-4]],"properties":{"codigo":"25307100000000000205","sector":"253071000000000002","pcode":"CO25307","area_m2":68319}},{"type":"Polygon","arcs":[[8,9,-6,10,11,12]],"properties":{"codigo":"25307100000000000202","sector":"253071000000000002","pcode":"CO25307","area_m2":104747}},{"type":"Polygon","arcs":[[13,14]],"properties":{"codigo":"25307100000000000209","sector":"253071000000000002","pcode":"CO25307","area_m2":6883}},{"type":"Polygon","arcs":[[15,16,17,-1,-10,18]],"properties":{"codigo":"25307100000000000203","sector":"253071000000000002","pcode":"CO25307","area_m2":59613}},{"type":"Polygon","arcs":[[19,20,21,22,23,24]],"properties":{"codigo":"25307100000000002301","sector":"253071000000000023","pcode":"CO25307","area_m2":75849}},{"type":"Polygon","arcs":[[25,26,27]],"properties":{"codigo":"25307100000000003204","sector":"253071000000000032","pcode":"CO25307","area_m2":36990}},{"type":"Polygon","arcs":[[28,29]],"properties":{"codigo":"25307100000000001608","sector":"253071000000000016","pcode":"CO25307","area_m2":37188}},{"type":"Polygon","arcs":[[30,-19,-9,31,32]],"properties":{"codigo":"25307100000000003904","sector":"253071000000000039","pcode":"CO25307","area_m2":109450}},{"type":"Polygon","arcs":[[33,34,35,36]],"properties":{"codigo":"25307100000000000701","sector":"253071000000000007","pcode":"CO25307","area_m2":113099}},{"type":"Polygon","arcs":[[37,38,39,40]],"properties":{"codigo":"25307100000000001801","sector":"253071000000000018","pcode":"CO25307","area_m2":80529}},{"type":"Polygon","arcs":[[41,42,43,44,-22,45]],"properties":{"codigo":"25307100000000002201","sector":"253071000000000022","pcode":"CO25307","area_m2":86029}},{"type":"Polygon","arcs":[[46,47,48,49,50]],"properties":{"codigo":"25307100000000003402","sector":"253071000000000034","pcode":"CO25307","area_m2":134000}},{"type":"Polygon","arcs":[[-51,51,52,53,54,55]],"properties":{"codigo":"25307100000000003401","sector":"253071000000000034","pcode":"CO25307","area_m2":133791}},{"type":"Polygon","arcs":[[56,57,58,-41,59,60,61]],"properties":{"codigo":"25307100000000001901","sector":"253071000000000019","pcode":"CO25307","area_m2":127465}},{"type":"Polygon","arcs":[[62,-37,63,64]],"properties":{"codigo":"25307100000000000302","sector":"253071000000000003","pcode":"CO25307","area_m2":115972}},{"type":"Polygon","arcs":[[-45,65,66,67,68,-23]],"properties":{"codigo":"25307100000000001002","sector":"253071000000000010","pcode":"CO25307","area_m2":95785}},{"type":"Polygon","arcs":[[69,70,71,72,-66,-44]],"properties":{"codigo":"25307100000000002001","sector":"253071000000000020","pcode":"CO25307","area_m2":74124}},{"type":"Polygon","arcs":[[73,74,-61,75,76]],"properties":{"codigo":"25307100000000001401","sector":"253071000000000014","pcode":"CO25307","area_m2":62121}},{"type":"Polygon","arcs":[[77,78]],"properties":{"codigo":"25307100000000003906","sector":"253071000000000039","pcode":"CO25307","area_m2":651221}},{"type":"Polygon","arcs":[[79]],"properties":{"codigo":"25307200101004000101","sector":"253072001010040001","pcode":"CO25307","area_m2":60788}},{"type":"Polygon","arcs":[[-11,-5,-8,80,81,-15,82,83,84]],"properties":{"codigo":"25307100000000000206","sector":"253071000000000002","pcode":"CO25307","area_m2":107252}},{"type":"Polygon","arcs":[[85,86]],"properties":{"codigo":"25307100000000000109","sector":"253071000000000001","pcode":"CO25307","area_m2":73846}},{"type":"Polygon","arcs":[[-72,87,88,89,90,91]],"properties":{"codigo":"25307100000000001101","sector":"253071000000000011","pcode":"CO25307","area_m2":141508}},{"type":"Polygon","arcs":[[92,93,94,95,96]],"properties":{"codigo":"25307100000000001701","sector":"253071000000000017","pcode":"CO25307","area_m2":112182}},{"type":"Polygon","arcs":[[97,98,99,100,101,102]],"properties":{"codigo":"25307100000000000105","sector":"253071000000000001","pcode":"CO25307","area_m2":97906}},{"type":"Polygon","arcs":[[103,104,105,106,107]],"properties":{"codigo":"25307100000000003201","sector":"253071000000000032","pcode":"CO25307","area_m2":142457}},{"type":"Polygon","arcs":[[108,109]],"properties":{"codigo":"25307200102005000106","sector":"253072001020050001","pcode":"CO25307","area_m2":124426}},{"type":"Polygon","arcs":[[110,111,-57,-70,-43,112]],"properties":{"codigo":"25307100000000002101","sector":"253071000000000021","pcode":"CO25307","area_m2":136296}},{"type":"Polygon","arcs":[[113,114]],"properties":{"codigo":"25307100000000004002","sector":"253071000000000040","pcode":"CO25307","area_m2":44989}},{"type":"Polygon","arcs":[[115,116,117,118]],"properties":{"codigo":"25307200102005000104","sector":"253072001020050001","pcode":"CO25307","area_m2":41077}},{"type":"Polygon","arcs":[[119,120,121,122]],"properties":{"codigo":"25307100000000003203","sector":"253071000000000032","pcode":"CO25307","area_m2":33580}},{"type":"Polygon","arcs":[[123,124,-115,125,126,-83,-14,127]],"properties":{"codigo":"25307100000000004003","sector":"253071000000000040","pcode":"CO25307","area_m2":61136}},{"type":"Polygon","arcs":[[128,129,-47,-56,130]],"properties":{"codigo":"25307100000000003601","sector":"253071000000000036","pcode":"CO25307","area_m2":108105}},{"type":"Polygon","arcs":[[-73,-92,131,-67]],"properties":{"codigo":"25307100000000001001","sector":"253071000000000010","pcode":"CO25307","area_m2":66207}},{"type":"Polygon","arcs":[[132,133,134,135,136]],"properties":{"codigo":"25307100000000001603","sector":"253071000000000016","pcode":"CO25307","area_m2":409930}},{"type":"Polygon","arcs":[[137,138,139,140,141]],"properties":{"codigo":"25307100000000000402","sector":"253071000000000004","pcode":"CO25307","area_m2":118968}},{"type":"Polygon","arcs":[[-90,142,143,-99,144,145,146]],"properties":{"codigo":"25307100000000000501","sector":"253071000000000005","pcode":"CO25307","area_m2":92528}},{"type":"Polygon","arcs":[[147,-104,148,-38,-59]],"properties":{"codigo":"25307100000000003002","sector":"253071000000000030","pcode":"CO25307","area_m2":149554}},{"type":"Polygon","arcs":[[149,150,151,152,153,154,155]],"properties":{"codigo":"25307100000000001607","sector":"253071000000000016","pcode":"CO25307","area_m2":411340}},{"type":"Polygon","arcs":[[156,-136,157,158,-154]],"properties":{"codigo":"25307100000000001605","sector":"253071000000000016","pcode":"CO25307","area_m2":296256}},{"type":"Polygon","arcs":[[159,-128,-82,160]],"properties":{"codigo":"25307100000000004001","sector":"253071000000000040","pcode":"CO25307","area_m2":55260}},{"type":"Polygon","arcs":[[-28,161,162,163]],"properties":{"codigo":"25307100000000003205","sector":"253071000000000032","pcode":"CO25307","area_m2":48664}},{"type":"Polygon","arcs":[[164,-24,-69,165,166]],"properties":{"codigo":"25307100000000001003","sector":"253071000000000010","pcode":"CO25307","area_m2":114631}},{"type":"Polygon","arcs":[[167,168,169,170,-35]],"properties":{"codigo":"25307100000000000702","sector":"253071000000000007","pcode":"CO25307","area_m2":82329}},{"type":"Polygon","arcs":[[171,172,173,-101,174,175,176,177,178,179,180,181]],"properties":{"codigo":"25307100000000000106","sector":"253071000000000001","pcode":"CO25307","area_m2":2331589}},{"type":"Polygon","arcs":[[-32,-13,182,183,184,185,186]],"properties":{"codigo":"25307100000000003905","sector":"253071000000000039","pcode":"CO25307","area_m2":171539}},{"type":"Polygon","arcs":[[-155,-159,187]],"properties":{"codigo":"25307100000000001606","sector":"253071000000000016","pcode":"CO25307","area_m2":124765}},{"type":"Polygon","arcs":[[188,189,190]],"properties":{"codigo":"25307100000000001301","sector":"253071000000000013","pcode":"CO25307","area_m2":87067}},{"type":"Polygon","arcs":[[191,192,193,194,-20,195,196,197,198]],"properties":{"codigo":"25307100000000002501","sector":"253071000000000025","pcode":"CO25307","area_m2":401079}},{"type":"Polygon","arcs":[[199,-107,-163,200,201,-94,202]],"properties":{"codigo":"25307100000000003101","sector":"253071000000000031","pcode":"CO25307","area_m2":241517}},{"type":"Polygon","arcs":[[-36,203,204,205,-124,-160,206,-64]],"properties":{"codigo":"25307100000000000301","sector":"253071000000000003","pcode":"CO25307","area_m2":202302}},{"type":"Polygon","arcs":[[-198,207,-169,208]],"properties":{"codigo":"25307100000000000801","sector":"253071000000000008","pcode":"CO25307","area_m2":54432}},{"type":"Polygon","arcs":[[209,210,211,-178]],"properties":{"codigo":"25307100000000004101","sector":"253071000000000041","pcode":"CO25307","area_m2":141764}},{"type":"Polygon","arcs":[[-211,212,-176,213,-150,214]],"properties":{"codigo":"25307100000000004102","sector":"253071000000000041","pcode":"CO25307","area_m2":506539}},{"type":"Polygon","arcs":[[-100,-144,215,-191,216,-151,-214,-175]],"properties":{"codigo":"25307100000000001302","sector":"253071000000000013","pcode":"CO25307","area_m2":179266}},{"type":"Polygon","arcs":[[217,-180,218,219]],"properties":{"codigo":"25307100000000004203","sector":"253071000000000042","pcode":"CO25307","area_m2":246374}},{"type":"Polygon","arcs":[[220,221,222,223,-111]],"properties":{"codigo":"25307100000000002801","sector":"253071000000000028","pcode":"CO25307","area_m2":108372}},{"type":"Polygon","arcs":[[-185,224,225]],"properties":{"codigo":"25307100000000003907","sector":"253071000000000039","pcode":"CO25307","area_m2":42099}},{"type":"Polygon","arcs":[[226,-39,227,-203,-93]],"properties":{"codigo":"25307100000000001702","sector":"253071000000000017","pcode":"CO25307","area_m2":68213}},{"type":"Polygon","arcs":[[-40,-227,-97,-76,-60]],"properties":{"codigo":"25307100000000001501","sector":"253071000000000015","pcode":"CO25307","area_m2":91382}},{"type":"Polygon","arcs":[[228,229,230,231,-141,232,-102,-174,233,-87]],"properties":{"codigo":"25307100000000000102","sector":"253071000000000001","pcode":"CO25307","area_m2":202639}},{"type":"Polygon","arcs":[[-220,234,235]],"properties":{"codigo":"25307100000000004201","sector":"253071000000000042","pcode":"CO25307","area_m2":199934}},{"type":"Polygon","arcs":[[-12,-85,236,-183]],"properties":{"codigo":"25307100000000000201","sector":"253071000000000002","pcode":"CO25307","area_m2":71233}},{"type":"Polygon","arcs":[[-52,-50,237,-221,-113,-42,238]],"properties":{"codigo":"25307100000000002802","sector":"253071000000000028","pcode":"CO25307","area_m2":139567}},{"type":"Polygon","arcs":[[-205,239,240,-142,-232,241]],"properties":{"codigo":"25307100000000000403","sector":"253071000000000004","pcode":"CO25307","area_m2":88258}},{"type":"Polygon","arcs":[[242,-17,243]],"properties":{"codigo":"25307100000000003903","sector":"253071000000000039","pcode":"CO25307","area_m2":51281}},{"type":"Polygon","arcs":[[-153,244,-137,-157]],"properties":{"codigo":"25307100000000001604","sector":"253071000000000016","pcode":"CO25307","area_m2":67831}},{"type":"Polygon","arcs":[[245,-116,246]],"properties":{"codigo":"25307200102005000105","sector":"253072001020050001","pcode":"CO25307","area_m2":35247}},{"type":"Polygon","arcs":[[-62,-75,247,-88,-71]],"properties":{"codigo":"25307100000000001201","sector":"253071000000000012","pcode":"CO25307","area_m2":116569}},{"type":"Polygon","arcs":[[248,249,250,251]],"properties":{"codigo":"25307100000000003801","sector":"253071000000000038","pcode":"CO25307","area_m2":57925}},{"type":"Polygon","arcs":[[-213,-210,-177]],"properties":{"codigo":"25307100000000000104","sector":"253071000000000001","pcode":"CO25307","area_m2":88816}},{"type":"Polygon","arcs":[[-197,252,-167,253,-170,-208]],"properties":{"codigo":"25307100000000000901","sector":"253071000000000009","pcode":"CO25307","area_m2":163017}},{"type":"Polygon","arcs":[[254,-103,-233,-140]],"properties":{"codigo":"25307100000000000101","sector":"253071000000000001","pcode":"CO25307","area_m2":67880}},{"type":"Polygon","arcs":[[255,256,-2,-18,-243,257,-33,-187,258,-78]],"properties":{"codigo":"25307100000000003901","sector":"253071000000000039","pcode":"CO25307","area_m2":4414948}},{"type":"Polygon","arcs":[[259,260,-48,-130]],"properties":{"codigo":"25307100000000003501","sector":"253071000000000035","pcode":"CO25307","area_m2":120160}},{"type":"Polygon","arcs":[[261,262,263,264,265]],"properties":{"codigo":"25307200102005000101","sector":"253072001020050001","pcode":"CO25307","area_m2":367000}},{"type":"Polygon","arcs":[[266,-172,267,268]],"properties":{"codigo":"25307100000000000108","sector":"253071000000000001","pcode":"CO25307","area_m2":81030}},{"type":"Polygon","arcs":[[-166,-68,-132,-91,-147,269,-240,-204,-171,-254]],"properties":{"codigo":"25307100000000000601","sector":"253071000000000006","pcode":"CO25307","area_m2":150070}},{"type":"Polygon","arcs":[[-27,270,-123,271,-201,-162]],"properties":{"codigo":"25307100000000003206","sector":"253071000000000032","pcode":"CO25307","area_m2":80979}},{"type":"Polygon","arcs":[[-225,-184,-237,-84,-127,272,273,274]],"properties":{"codigo":"25307100000000000107","sector":"253071000000000001","pcode":"CO25307","area_m2":478854}},{"type":"Polygon","arcs":[[-181,-218,-236,275]],"properties":{"codigo":"25307100000000004202","sector":"253071000000000042","pcode":"CO25307","area_m2":385594}},{"type":"Polygon","arcs":[[276,277,278,-109]],"properties":{"codigo":"25307200102005000107","sector":"253072001020050001","pcode":"CO25307","area_m2":140095}},{"type":"Polygon","arcs":[[-146,279,-138,-241,-270]],"properties":{"codigo":"25307100000000000404","sector":"253071000000000004","pcode":"CO25307","area_m2":105686}},{"type":"Polygon","arcs":[[280,281,-193]],"properties":{"codigo":"25307100000000002401","sector":"253071000000000024","pcode":"CO25307","area_m2":91821}},{"type":"Polygon","arcs":[[-25,-165,-253,-196]],"properties":{"codigo":"25307100000000002302","sector":"253071000000000023","pcode":"CO25307","area_m2":57109}},{"type":"Polygon","arcs":[[-108,-200,-228,-149]],"properties":{"codigo":"25307100000000003001","sector":"253071000000000030","pcode":"CO25307","area_m2":16308}},{"type":"Polygon","arcs":[[282,283,-105,-148,-58,-112,-224]],"properties":{"codigo":"25307100000000002901","sector":"253071000000000029","pcode":"CO25307","area_m2":233868}},{"type":"Polygon","arcs":[[-284,284,-120,-271,-26,-164,-106]],"properties":{"codigo":"25307100000000003202","sector":"253071000000000032","pcode":"CO25307","area_m2":389926}},{"type":"Polygon","arcs":[[-217,-190,285,-77,-96,286,-133,-245,-152]],"properties":{"codigo":"25307100000000001601","sector":"253071000000000016","pcode":"CO25307","area_m2":360931}},{"type":"Polygon","arcs":[[-280,-145,-98,-255,-139]],"properties":{"codigo":"25307100000000000401","sector":"253071000000000004","pcode":"CO25307","area_m2":217043}},{"type":"Polygon","arcs":[[-53,-239,-46,-21,-195,287]],"properties":{"codigo":"25307100000000002701","sector":"253071000000000027","pcode":"CO25307","area_m2":118872}},{"type":"Polygon","arcs":[[-252,288,-281,-192,289]],"properties":{"codigo":"25307100000000002402","sector":"253071000000000024","pcode":"CO25307","area_m2":145087}},{"type":"Polygon","arcs":[[290,-247,-119,291]],"properties":{"codigo":"25307200102006000101","sector":"253072001020060001","pcode":"CO25307","area_m2":129166}},{"type":"Polygon","arcs":[[-246,-291,292,-265,293,294,-117]],"properties":{"codigo":"25307200102005000103","sector":"253072001020050001","pcode":"CO25307","area_m2":74071}},{"type":"Polygon","arcs":[[-3,-257,295,-65,-207,-161,-81,-7]],"properties":{"codigo":"25307100000000000207","sector":"253071000000000002","pcode":"CO25307","area_m2":107194}},{"type":"Polygon","arcs":[[-282,-289,-251,296,-54,-288,-194]],"properties":{"codigo":"25307100000000002601","sector":"253071000000000026","pcode":"CO25307","area_m2":149965}},{"type":"Polygon","arcs":[[-272,-122,297,-30,298,-134,-287,-95,-202]],"properties":{"codigo":"25307100000000001602","sector":"253071000000000016","pcode":"CO25307","area_m2":893307}},{"type":"Polygon","arcs":[[-114,-125,-206,-242,-231,299,-273,-126]],"properties":{"codigo":"25307100000000004004","sector":"253071000000000040","pcode":"CO25307","area_m2":153411}},{"type":"Polygon","arcs":[[-250,300,-131,-55,-297]],"properties":{"codigo":"25307100000000003701","sector":"253071000000000037","pcode":"CO25307","area_m2":102282}},{"type":"Polygon","arcs":[[301,-229,-86,-234,-173,-267]],"properties":{"codigo":"25307100000000000103","sector":"253071000000000001","pcode":"CO25307","area_m2":388140}},{"type":"Polygon","arcs":[[302,303,304,-262]],"properties":{"codigo":"25307200102005000201","sector":"253072001020050002","pcode":"CO25307","area_m2":176541}},{"type":"Polygon","arcs":[[-74,-286,-189,-216,-143,-89,-248]],"properties":{"codigo":"25307100000000001303","sector":"253071000000000013","pcode":"CO25307","area_m2":274737}},{"type":"Polygon","arcs":[[-49,-261,305,-222,-238]],"properties":{"codigo":"25307100000000003301","sector":"253071000000000033","pcode":"CO25307","area_m2":164976}},{"type":"Polygon","arcs":[[-274,-300,-230,-302,-269,306]],"properties":{"codigo":"25307100000000000110","sector":"253071000000000001","pcode":"CO25307","area_m2":413221}},{"type":"Polygon","arcs":[[-244,-16,-31,-258]],"properties":{"codigo":"25307100000000003902","sector":"253071000000000039","pcode":"CO25307","area_m2":62000}},{"type":"Polygon","arcs":[[-304,307]],"properties":{"codigo":"25307200102005000202","sector":"253072001020050002","pcode":"CO25307","area_m2":152251}},{"type":"Polygon","arcs":[[-294,-264,308,-278,309]],"properties":{"codigo":"25307200102005000102","sector":"253072001020050001","pcode":"CO25307","area_m2":72909}}]}},"arcs":[[[6396,2748],[-167,-114],[154,-107]],[[6383,2527],[-46,-31],[39,-26],[-85,-57]],[[6291,2413],[-37,26]],[[6254,2439],[-155,107],[-43,-30],[-125,90]],[[5931,2606],[41,26],[-41,29],[85,58]],[[6016,2719],[83,-57],[210,144],[87,-58]],[[6254,2439],[-125,-85],[-87,-56],[-238,163],[42,30],[-41,29]],[[5805,2520],[126,86]],[[6329,2994],[59,-73],[65,-73],[-56,-40],[44,-30]],[[6441,2778],[-45,-30]],[[6016,2719],[-127,88]],[[5889,2807],[165,110],[90,65],[101,69]],[[6245,3051],[14,4],[70,-61]],[[5561,2679],[-34,35]],[[5527,2714],[122,80],[43,-28],[-131,-87]],[[6497,2779],[64,-45]],[[6561,2734],[65,-61]],[[6626,2673],[-104,-71],[41,-29],[-125,-84],[-55,38]],[[6441,2778],[27,19],[29,-18]],[[4634,1094],[-163,-47]],[[4471,1047],[-33,44]],[[4438,1091],[-88,36],[-90,41],[-154,87]],[[4106,1255],[82,-9],[83,11]],[[4271,1257],[183,29],[206,35]],[[4660,1321],[-26,-227]],[[1740,677],[-252,23],[-65,38]],[[1423,738],[201,131],[23,-17]],[[1647,852],[119,-84],[-26,-91]],[[447,1021],[-30,-56],[-63,24],[8,14],[-33,4],[-47,-47],[-46,-31],[-60,-24],[-131,-31],[-45,74],[94,32],[81,79]],[[175,1059],[169,-11],[103,-27]],[[6886,2910],[-91,-44],[-25,22],[-56,-6],[-75,-33],[-142,-70]],[[6329,2994],[89,47],[157,75],[123,63]],[[6698,3179],[43,-72],[47,-102],[98,-95]],[[5637,1955],[-44,4],[-45,-10],[-17,-20],[-19,-60],[-35,-39]],[[5477,1830],[-93,51],[-54,-47],[-85,48],[-82,-65],[-119,68],[-40,-32],[-150,88]],[[4854,1941],[58,53],[67,38],[30,11],[94,16],[18,8]],[[5121,2067],[31,-21],[16,-22],[62,-4],[57,-18],[20,5],[52,39],[51,22],[35,-1],[59,-31],[59,-17],[71,-48],[3,-16]],[[3031,1299],[-38,-24],[-179,-22],[-163,3],[-12,-122],[-129,16]],[[2510,1150],[20,228],[97,-3],[37,5]],[[2664,1380],[134,10],[53,38],[48,-35],[49,35],[52,-33]],[[3000,1395],[84,-64],[-53,-32]],[[4148,915],[-54,40],[-145,73],[-18,15]],[[3931,1043],[17,45],[43,48],[-7,5]],[[3984,1141],[40,67],[38,54]],[[4062,1262],[44,-7]],[[4438,1091],[-219,-122],[-71,-54]],[[4216,334],[-68,-47],[-36,-30],[-35,-43],[-85,-15],[-56,0]],[[3936,199],[-69,14],[-58,21],[-96,49],[-95,55],[-72,-16]],[[3546,322],[31,36],[17,77],[26,39],[56,51]],[[3676,525],[96,90]],[[3772,615],[67,-88],[377,-193]],[[3772,615],[62,52],[81,76]],[[3915,743],[55,-22],[254,-84]],[[4224,637],[22,-7],[83,-60],[131,-34]],[[4460,536],[-58,-50],[-111,-90]],[[4291,396],[-75,-62]],[[3578,1355],[-63,-85],[-66,-72]],[[3449,1198],[-26,9],[-105,-46],[-83,-29]],[[3235,1132],[-32,34],[-172,133]],[[3000,1395],[178,111]],[[3178,1506],[100,-56],[106,80]],[[3384,1530],[109,-127],[85,-48]],[[5816,1990],[-40,-25],[-55,-18],[-50,12],[-34,-4]],[[5121,2067],[87,37],[390,161],[140,55]],[[5738,2320],[41,-271],[27,-27],[10,-32]],[[4062,1262],[3,34]],[[4065,1296],[11,137],[15,94],[51,197],[0,30]],[[4142,1754],[18,10],[161,-90]],[[4321,1674],[-22,-175],[49,-41],[-56,-32],[-21,-169]],[[3984,1141],[-150,84],[-256,130]],[[3578,1355],[53,69],[47,71]],[[3678,1495],[95,-47]],[[3773,1448],[292,-152]],[[3225,1702],[93,-24],[67,-48]],[[3385,1630],[75,-41],[-76,-59]],[[3178,1506],[-50,30],[-106,87],[-68,36]],[[2954,1659],[159,51],[80,-61],[32,53]],[[9270,3526],[-26,-46],[-23,-6],[-230,-5],[-69,-12],[-136,-30],[-123,-31],[-69,-35],[-31,-29],[-82,-106],[-25,-26],[-33,-20],[-114,-56],[-43,-12],[-38,-2],[-162,31],[-230,49],[-45,23],[-36,40],[-122,153],[-42,49],[-33,19],[-56,19],[-61,5]],[[7441,3498],[-1,6],[-101,209],[190,32],[102,-217],[27,8],[38,28],[135,55],[69,66],[97,-18],[69,1],[58,14],[176,55],[52,7],[65,-4],[42,-14],[67,-44],[38,-38],[35,-16],[59,-6],[15,30],[-10,22],[-49,32],[-58,26],[-58,40],[4,28],[24,11],[63,7],[105,-3],[224,-112],[45,-17],[59,-34],[115,-47],[133,-79]],[[9043,9992],[21,5],[101,-42],[32,-34],[29,-12],[42,30],[19,-11],[26,16],[50,-10],[27,31],[30,-63],[-50,-18],[-41,18],[-5,15],[-62,-23],[57,-95],[52,0],[29,-8],[64,24],[52,-72],[-86,-43],[-44,-15],[-11,5],[-46,62],[-35,-2],[-15,31],[-33,-9],[-36,4],[-22,16],[-24,1],[-1,-32],[32,-21],[52,-49],[-60,-15],[-36,23],[12,14],[-42,19],[-31,31],[-51,-67],[-50,25],[17,42],[27,10],[23,-9],[19,18],[-1,25],[34,10],[-42,21],[46,12],[21,15],[41,-15],[24,25],[-12,16],[-102,59],[-89,39],[14,10],[34,-7]],[[5805,2520],[-93,-62]],[[5712,2458],[-10,51],[-47,68],[-94,102]],[[5527,2714],[-39,41]],[[5488,2755],[81,51],[177,102]],[[5746,2908],[143,-101]],[[4305,3051],[181,-68],[41,-39],[76,-63]],[[4603,2881],[-40,-25],[16,-13],[-11,-38],[-305,44],[-249,37],[3,4],[163,94],[125,67]],[[3678,1495],[53,108],[17,56],[16,81],[-57,9],[28,132],[4,58],[-19,33]],[[3720,1972],[29,33],[17,42],[20,82]],[[3786,2129],[85,-42],[-6,-56],[-13,-3],[44,-95],[84,-46],[142,-87]],[[4122,1800],[0,-39]],[[4122,1761],[-6,-7],[-108,-73],[-32,-47],[-45,-152],[-71,32],[-22,-2],[-65,-64]],[[2669,1485],[-129,6],[-3,-36],[-194,8],[4,36],[-117,3]],[[2230,1502],[-4,5]],[[2226,1507],[354,232]],[[2580,1739],[54,35],[82,17],[76,-5],[39,-10],[35,-19],[76,-93],[12,-5]],[[2954,1659],[-105,-25],[-70,-26],[-104,-29],[-6,-94]],[[4389,2477],[-291,-62],[-24,24],[-92,9],[-111,-53]],[[3871,2395],[-11,36]],[[3860,2431],[13,108]],[[3873,2539],[23,150]],[[3896,2689],[160,-4],[112,-10]],[[4168,2675],[-12,-82],[246,-16],[-53,-20],[40,-80]],[[2538,1052],[-5,-96],[130,-8],[65,7],[33,-33]],[[2761,922],[-38,-23],[-112,-23],[-33,-25],[-125,-69],[-144,-91]],[[2309,691],[-15,8],[-65,8],[-61,20],[-54,-1],[-8,20],[-81,10],[4,36],[20,52],[-43,46]],[[2006,890],[141,61],[148,67],[46,37]],[[2341,1055],[131,1],[66,-4]],[[6170,7547],[-28,6],[-75,50],[-91,139],[-59,86],[-64,15],[-142,85],[-47,35]],[[5664,7963],[95,58],[-33,26],[34,37],[22,37],[297,-88],[56,-33],[13,-36],[40,-51],[13,-27],[-32,-8],[-52,-58],[-34,-16],[19,-15],[-17,-11],[56,-46],[-16,-9],[18,-17],[31,-57],[-64,-42],[7,-19],[53,-41]],[[3704,960],[-204,116],[-96,50]],[[3404,1126],[51,70],[-6,2]],[[3931,1043],[-10,-92],[-97,-58],[-120,67]],[[5256,2490],[-65,41],[-147,31],[59,141],[70,-13],[45,32]],[[5218,2722],[31,-19],[-9,-9],[64,-40],[10,6],[64,-38],[34,27],[-16,-54],[-140,-105]],[[6811,7701],[-54,-31],[-198,-128]],[[6559,7542],[-133,101]],[[6426,7643],[65,48],[140,85],[13,-6]],[[6644,7770],[31,-17],[136,-52]],[[1341,798],[-98,72]],[[1243,870],[7,4]],[[1250,874],[7,-4],[254,170]],[[1511,1040],[99,-68],[-117,-78],[-152,-96]],[[5398,2448],[-101,34],[-15,-9]],[[5282,2473],[-26,17]],[[5218,2722],[153,113]],[[5371,2835],[117,-80]],[[5561,2679],[-163,-231]],[[4460,134],[-321,-95],[-120,-32],[-37,-3]],[[3982,4],[-31,84],[-13,-6],[4,31],[-11,26],[5,60]],[[4291,396],[62,-32],[13,-38],[45,-29],[6,-91],[43,-72]],[[4122,1761],[20,-7]],[[2437,2313],[86,-129],[196,53],[137,28],[-13,-60],[3,-36],[-253,-69],[-9,-4],[48,-68],[-140,-43],[-127,-34]],[[2365,1951],[-425,-123],[-147,-44],[-114,-28]],[[1679,1756],[-204,72],[-85,24],[157,193],[73,102],[-42,95]],[[1578,2242],[306,58],[94,25]],[[1978,2325],[83,-74],[17,-4],[-107,-50],[36,-82],[7,-4],[97,45],[326,157]],[[4777,2268],[-233,-63]],[[4544,2205],[-85,147],[-28,64],[123,36],[-31,58]],[[4523,2510],[9,-3],[319,80],[2,36]],[[4853,2623],[3,2]],[[4856,2625],[24,-3],[69,-63],[-29,-11],[91,-74],[-52,-16],[-114,-99],[-65,-60],[-3,-31]],[[3786,2129],[12,91]],[[3798,2220],[19,136],[10,34],[33,41]],[[3871,2395],[44,-86],[153,-288]],[[4068,2021],[82,-113],[19,-54],[-6,-32]],[[4163,1822],[-41,-22]],[[3235,1132],[-108,-38],[-151,-57],[-80,-41],[-54,-32],[-81,-42]],[[2538,1052],[-28,98]],[[2926,2790],[241,-77],[204,-61]],[[3371,2652],[-162,-262]],[[3209,2390],[-117,35],[-105,8],[-18,43],[4,30],[-73,19],[-6,-6],[-14,-77],[-231,-63],[0,-3],[-215,-56]],[[2434,2320],[-39,78]],[[2395,2398],[-41,78],[-37,60],[-148,201],[-7,7]],[[2162,2744],[27,39],[-23,40],[129,155],[37,-13]],[[2332,2965],[43,-32],[78,-22],[22,-14],[-26,-31],[201,-33],[57,-14],[104,-10],[115,-19]],[[2395,2398],[-91,-38],[-44,-22],[-96,83],[-186,-96]],[[1578,2242],[-5,60],[7,219],[39,196],[90,14],[271,64]],[[1980,2795],[116,-6],[33,-12],[33,-33]],[[5730,2339],[-332,109]],[[5712,2458],[18,-119]],[[1647,852],[86,58],[131,-94],[25,-4],[26,71],[-103,75],[42,29]],[[1854,987],[90,-65],[38,-13],[24,-19]],[[2006,890],[-56,-90],[-52,-138],[-158,15]],[[4797,1360],[-53,-25],[-84,-14]],[[4321,1674],[128,-71]],[[4449,1603],[228,-125],[39,-24],[81,-94]],[[5477,1830],[-34,-26],[-103,-48],[-36,-33],[-7,-37]],[[5297,1686],[-73,38],[-27,9],[-57,35],[-102,-88]],[[5038,1680],[-297,165]],[[4741,1845],[113,96]],[[4434,4127],[-18,-55],[-48,-101],[-49,-109]],[[4319,3862],[-124,-292],[24,-54],[0,-46],[-39,-126],[-13,-86],[8,-86],[-3,-17]],[[4172,3155],[-39,-51],[-189,-191],[-14,-25],[-34,-199]],[[3873,2539],[-76,17],[-74,39],[-87,10],[-107,22],[-149,41]],[[3380,2668],[19,27],[175,289],[192,313],[109,164]],[[3875,3461],[63,93],[90,141],[31,65],[5,25],[-3,97],[-9,28]],[[4052,3910],[-161,275]],[[3891,4185],[-116,195],[-13,38],[-4,68],[17,54],[47,87],[78,124],[20,53],[-71,33],[-17,14],[-35,54],[-15,33],[-6,42],[-45,122],[0,35],[12,24],[-53,-10],[-89,-1],[-43,-9],[-52,-23],[-67,-16],[-108,-21],[-100,-1],[-272,30],[-166,47],[-254,59],[-132,19],[-65,21],[-176,26],[-266,54],[-59,14],[273,259],[227,-39],[8,-20],[29,-14],[45,2],[39,-13],[144,-10],[247,-31],[17,-8],[101,-14],[67,-4],[106,-24],[66,0],[7,-36],[18,-15],[64,-20],[135,-29],[72,-2],[48,14],[89,-32],[65,-29],[99,-57],[91,75],[132,122]],[[4030,5425],[10,-1],[34,147],[18,65],[21,27],[41,22],[131,37],[66,29]],[[4351,5751],[365,-107]],[[4716,5644],[-29,-115],[49,-13],[-13,-27],[-65,-71],[305,-84],[-30,-67],[-27,-75],[-54,-127],[-19,-52],[-67,-155],[-51,-125],[-50,-115],[49,-35],[-2,-9],[-47,-25],[-61,-22],[-34,-87],[-74,-167],[-62,-146]],[[6245,3051],[-38,29],[8,6],[-81,73],[-43,-25],[-41,28]],[[6050,3162],[30,47],[115,77],[-62,60],[-50,-9]],[[6083,3337],[-16,48],[106,16],[19,-37]],[[6192,3364],[80,32],[174,55],[129,-28]],[[6575,3423],[-45,-17],[40,-36],[90,-92],[66,-82],[-28,-17]],[[1980,2795],[-174,103],[-44,43],[53,15],[92,5],[24,-7],[10,13],[-24,10],[30,25],[77,31],[25,19],[41,50],[98,109],[35,-1],[79,-25],[14,20],[30,-18],[-54,-79],[23,-8],[19,22],[24,-10],[-15,-24],[2,-21],[31,-13],[-33,-58],[-11,-31]],[[3382,2259],[-124,24],[-14,-30],[26,-4],[-38,-101],[-15,-4],[-63,-47],[2,-24],[-29,-159]],[[3127,1914],[-32,10],[-202,19],[55,45],[28,36],[156,249],[45,58],[22,43]],[[3199,2374],[103,14],[84,18],[55,-13],[14,-62],[89,-5],[-3,-29],[-86,6],[-51,13],[-22,-57]],[[5449,787],[-52,-35],[-46,-15],[-139,-33]],[[5212,704],[-41,18],[-98,36],[30,42],[-8,23],[2,39],[-72,24],[-43,2],[-55,-43],[-22,-28],[-77,25],[-41,34],[-80,-61]],[[4707,815],[-25,26],[-58,4],[-114,-39],[-116,-34]],[[4394,772],[-54,34],[30,47],[38,24],[143,74],[-80,96]],[[4634,1094],[395,119],[-161,124],[-65,26]],[[4803,1363],[119,51],[107,52]],[[5029,1466],[74,20],[25,2],[160,-4]],[[5288,1484],[-1,-63],[-7,-61],[13,-41],[-1,-71],[26,-62],[18,-61],[25,-42],[3,-36],[-23,-126],[18,-28],[90,-106]],[[2375,1166],[-7,-36],[-27,-75]],[[1854,987],[-200,146]],[[1654,1133],[572,374]],[[2230,1502],[40,-57],[12,-3],[54,-57],[84,-4],[-7,-74],[-31,1],[-2,-37],[-20,0],[-26,-58],[-56,-47],[97,0]],[[4854,1941],[-111,128],[-1,7]],[[4742,2076],[24,1],[11,31],[59,39],[313,234],[76,59],[23,11]],[[5248,2451],[34,22]],[[5730,2339],[8,-19]],[[5029,1466],[15,48],[40,94],[19,36],[-65,36]],[[5297,1686],[5,-72],[-14,-91],[0,-39]],[[4052,3910],[-205,-118],[26,-22],[-162,-85],[-34,-32]],[[3677,3653],[-105,52],[11,11],[-19,14]],[[3564,3730],[34,30],[-21,22],[-34,57],[-39,32],[-9,31],[-37,29],[3,10],[64,46],[52,-72],[76,64],[78,72],[109,97],[33,34],[18,3]],[[3677,3653],[-30,-49],[15,-27],[90,-42],[7,-43],[116,-31]],[[3380,2668],[-9,-16]],[[2926,2790],[27,256],[-2,32],[6,103],[19,33],[24,3],[24,-15],[54,-3],[114,3],[111,19],[7,44],[-13,36],[-33,146],[-29,58],[-20,26],[245,175],[58,34],[25,-17],[21,7]],[[3798,2220],[-201,15],[-134,6],[-81,18]],[[3199,2374],[10,16]],[[4517,5948],[-45,-85],[-65,-71],[-56,-41]],[[4030,5425],[-49,34],[16,37],[-130,36],[20,34],[25,-6],[72,127],[-217,47],[78,137],[15,32],[-35,20],[27,19],[18,48],[-18,16],[32,6],[-8,12],[36,9],[10,33],[30,12],[-4,14],[55,72]],[[4003,6164],[96,-42],[418,-174]],[[3704,960],[-70,-70],[-130,-157]],[[3504,733],[-102,42],[-55,-64],[-113,-21],[-30,28],[-41,14],[-76,-14]],[[3087,718],[-10,11]],[[3077,729],[165,103],[39,35],[131,145],[-66,38],[58,76]],[[6083,3337],[-41,-7]],[[6042,3330],[-81,224],[-13,29],[34,19],[35,1],[79,-13],[60,-27],[29,-62],[45,-114],[-42,-14],[4,-9]],[[2669,1485],[-5,-105]],[[2510,1150],[-135,16]],[[4603,2881],[50,-37],[71,171],[34,-9]],[[4758,3006],[55,-13]],[[4813,2993],[-89,-150],[-42,-18],[25,-56],[51,-34],[52,-47],[31,-7],[53,-47]],[[4894,2634],[-38,-9]],[[4853,2623],[-261,19],[-82,5],[-342,28]],[[4172,3155],[15,-51],[54,-29],[64,-24]],[[4003,6164],[78,75],[69,57],[53,57],[46,20],[77,-26],[194,-72],[7,8],[77,-3],[43,23],[50,44],[17,1],[81,71],[-24,14],[12,9],[-10,28],[-25,24],[20,14],[-57,28],[56,22],[21,-23],[64,-32],[6,-12],[-3,-66],[9,-19],[41,-36],[41,-27]],[[4946,6343],[-92,-72],[-107,-57],[-152,-125],[-22,-28],[-56,-113]],[[5746,2908],[229,149],[25,26],[50,79]],[[3676,525],[-109,47],[-69,26],[91,104],[-85,31]],[[4148,915],[-68,-44],[-66,-36],[-99,-92]],[[4742,2076],[-12,8]],[[4730,2084],[17,21],[-20,40],[87,32],[17,11],[-47,79],[-7,1]],[[4894,2634],[53,-50],[46,-25],[75,-12],[105,-28],[33,-25],[42,-43]],[[6931,2733],[97,-93],[11,-35],[-9,-17],[-79,-40],[-118,1],[6,75],[-162,1],[-51,48]],[[6561,2734],[370,-1]],[[2434,2320],[3,-7]],[[6642,7482],[-83,60]],[[6811,7701],[72,-25],[-3,-26],[-18,-25],[-29,-8],[-17,-23],[8,-35],[23,-27],[-5,-17],[-49,-1],[-53,-8],[-32,-19],[-66,-5]],[[3385,1630],[135,132],[65,54],[18,25],[117,131]],[[5054,290],[-46,-33],[-182,-35],[-31,-9]],[[4795,213],[-40,77],[-17,-10],[-52,8],[-59,101],[11,36],[-38,106]],[[4600,531],[58,5]],[[4658,536],[19,-17],[56,-29],[51,-37],[-6,-48],[104,-53],[41,-29],[20,-4],[61,17],[50,-46]],[[4803,1363],[-6,-3]],[[4449,1603],[292,242]],[[4523,2510],[-134,-33]],[[9270,3526],[129,-61],[189,-60],[162,-70],[46,-28],[17,-71],[23,-62],[27,-115],[-9,-74],[-57,-123],[-11,-52],[9,-89],[37,-58],[105,-91],[60,-62],[0,-32],[-19,-41],[-47,-34],[-44,-14],[-91,0],[-42,13],[-19,21],[-8,75],[-11,21],[-47,23],[-67,-1],[-91,-22],[-58,-30],[-45,-47],[-20,-28],[-42,-21],[-55,-4],[-63,-11],[-204,-82],[-158,-57],[-62,-38],[-70,-22],[-98,-49],[-68,-15],[-83,-2],[-67,-13],[-168,-92],[-178,-69],[-40,-20],[-49,-41],[-31,-35],[-12,-30],[1,-30],[20,-59],[54,-64],[47,-35],[22,-34],[-10,-60],[-75,-60],[-78,-76],[-51,-11],[-47,6],[-38,26],[-48,86],[-32,80],[-16,69],[2,51],[7,29],[50,92],[42,41],[112,77],[17,18],[1,32],[-39,25],[-100,26],[-41,2],[-85,-8],[-108,-35],[-105,-68],[-109,-4],[-96,-8],[-70,-18],[-30,-22],[-16,-38],[4,-29],[-38,-92],[-29,-140],[-71,-199],[-35,-42],[-23,-3],[-70,23],[-33,55],[-4,42],[8,16],[65,29],[21,32],[4,24],[-40,32],[-106,34],[-189,19],[-76,-2],[-72,29],[-71,83],[-36,22],[-31,33],[-47,71],[-12,30],[-41,66],[-50,41],[-134,121],[-24,12]],[[5991,2150],[3,16],[60,31],[44,80],[41,17],[3,23],[34,29],[55,11],[77,37],[-17,19]],[[6931,2733],[-9,9],[140,79],[-111,74],[-65,15]],[[6575,3423],[110,29],[195,71],[58,14],[67,-2],[173,-21],[263,-16]],[[3982,4],[-101,-4],[-109,9],[-146,28],[-92,30],[-56,35],[-85,67]],[[3393,169],[40,53],[-2,65],[95,26],[20,9]],[[5981,6834],[-42,3],[-32,20],[-65,-44],[-113,-41]],[[5729,6772],[-103,96],[-35,25],[83,7],[-3,5],[-92,1],[-25,19],[-36,68],[45,55],[39,-8],[93,47],[2,31],[-70,41],[-30,50],[113,49],[57,-49],[112,6],[97,-56],[18,14],[-12,23],[39,19],[33,8],[36,-18],[-30,-28],[22,-16],[67,-27],[74,1],[47,75]],[[6270,7210],[97,87],[49,33],[40,12]],[[6456,7342],[166,34]],[[6622,7376],[18,-22],[-206,-64],[-57,-39],[-67,-71],[-44,-75],[122,-51],[164,-83],[122,-58],[100,-43],[-96,-80],[134,-93],[-70,-28],[-65,49],[-57,37],[-147,71],[-108,-112],[-127,43],[7,10],[-144,67],[8,19],[-64,0],[-64,-19]],[[4547,3818],[-65,-2],[-64,36],[-99,10]],[[4434,4127],[172,-47],[1,-3],[-73,-147],[22,-14],[158,-62],[215,-30]],[[4929,3824],[-30,-78],[-240,38],[-112,34]],[[4163,1822],[7,-21],[132,23],[-5,64],[120,56],[91,39],[93,44],[129,57]],[[1423,738],[-82,60]],[[1511,1040],[143,93]],[[5371,2835],[-36,23],[-297,76],[-219,57]],[[4819,2991],[102,111],[57,94],[16,-9],[133,-43],[-26,-31],[119,-34],[100,111],[43,33],[-1,18],[-54,-15],[-123,4],[-73,-6],[-30,9],[-49,-8],[-43,9],[42,74],[-5,14],[81,22],[106,13],[275,28],[101,80],[27,7]],[[5617,3472],[36,-22],[298,-139],[91,19]],[[4946,6343],[71,-49],[100,-63],[318,-202],[123,-82],[-102,-73],[-27,-28],[-167,-127],[-496,173],[-73,-96],[-25,-49],[82,-47],[-24,-56],[-10,0]],[[6170,7547],[18,-11]],[[6188,7536],[-39,-24],[-14,12]],[[6135,7524],[-73,45],[-27,-12],[-16,-38],[-42,-28],[-12,6],[-71,-40],[-76,11],[8,16],[-61,70],[-41,-7],[-64,23],[15,22],[-43,20],[-24,22],[30,18],[-69,44],[126,91],[-51,25],[-81,55],[-3,37],[96,58],[8,1]],[[4068,2021],[127,11],[129,5],[105,14],[-19,31],[180,53],[-46,70]],[[5212,704],[37,-70],[-5,-11],[-76,-19],[-39,8],[-42,26],[3,-41],[-52,4],[14,-57],[-76,0]],[[4976,544],[-4,13],[-84,85],[-181,173]],[[3077,729],[-43,40],[-41,22],[-84,28],[-44,5],[-83,-13],[-324,-154],[-186,-83],[-139,-72]],[[2133,502],[-81,79],[-51,37],[7,32],[59,-4],[98,-16],[76,22],[68,39]],[[2133,502],[-67,-37],[-99,-63],[-53,-26],[-172,-103],[-157,-105],[-79,-41],[-42,13],[-28,59],[23,42],[-18,30],[-58,22],[-21,42],[-27,29],[-43,10],[-3,45],[-34,22],[-14,34],[37,19],[4,31],[-51,28],[-22,-22],[-27,10],[26,74],[3,37],[-27,13],[-69,0],[-20,11],[-48,60],[167,116],[29,18]],[[3127,1914],[2,-45],[22,-72],[27,-64],[47,-31]],[[2580,1739],[-47,32],[-20,31],[-51,20],[-27,19],[16,18],[-24,31],[-29,7],[-33,54]],[[4394,772],[-158,-119],[-12,-16]],[[4658,536],[135,-40],[101,7],[81,31],[1,10]],[[5449,787],[34,-39],[27,-66],[-7,-40],[-47,-27],[-72,-31],[-24,-16],[-26,-35],[-25,-58],[-18,-24],[-42,-31],[-39,-19],[-40,-29],[-38,-36],[-78,-46]],[[6726,7417],[-84,65]],[[6644,7770],[120,154],[136,-48],[39,30],[83,5],[80,13],[-4,-25],[52,-3],[-2,-21],[26,-1],[-6,-43],[-80,4],[-8,-65],[34,-2],[-20,-78],[-29,2],[-26,-64],[85,-44],[-52,-41],[-74,37],[-67,-56],[-73,-52],[-56,-26],[-76,-29]],[[6726,7417],[-104,-41]],[[6456,7342],[-27,12],[-72,57],[-142,106]],[[6215,7517],[31,20],[10,-7],[104,68],[27,30],[39,15]],[[5991,2150],[-47,-8],[-26,-25],[-7,-38],[-39,-48],[-56,-41]],[[4600,531],[-65,-9],[-75,14]],[[1250,874],[-134,95],[-35,21],[-61,13],[-133,1],[-230,-16],[-148,19],[-62,14]],[[175,1059],[47,66],[47,58],[88,-36],[47,38],[68,65],[101,-5],[11,-28],[37,-2],[40,8],[43,-7],[7,11],[37,-14],[63,40],[-8,42],[113,134],[44,48],[-15,30],[38,49],[57,2],[315,-123],[29,-13],[151,169],[106,102],[-18,7],[56,56]],[[4813,2993],[6,-2]],[[4795,213],[-31,-9],[-304,-70]],[[4547,3818],[-6,-23],[17,-37],[-10,-34],[-19,-14],[-1,-35],[19,-23],[-9,-14],[64,-63],[-11,-24],[29,-15],[-10,-30],[23,-19],[45,-56],[54,-39],[-3,-34],[41,-20],[26,-34],[17,-8],[-6,-24],[-9,-111],[0,-54],[-16,-66],[-24,-35]],[[5981,6834],[25,-17],[1,-30],[24,-15],[-95,-17],[-36,-28],[-66,-25],[-87,-42],[-198,-105],[42,-40],[77,18],[55,-2],[55,-75],[87,-1],[6,-60],[-225,-79],[-72,93],[-11,32],[-50,-6],[-111,-45],[-17,-4],[-97,8],[-71,10],[-32,10],[-70,48]],[[5115,6462],[71,57],[119,89],[54,32],[227,82]],[[5586,6722],[143,50]],[[3393,169],[-31,30],[-48,65],[-28,50],[-54,136],[-52,146],[-30,50],[-63,72]],[[4929,3824],[164,-28],[-2,-16],[272,-160],[254,-148]],[[5115,6462],[-70,-49],[-41,16],[-29,31],[17,13],[-103,156],[-45,-10],[-59,59],[47,26],[-8,9],[24,55],[31,1],[48,-21],[0,16],[31,9],[1,15],[40,16],[137,-56],[99,51],[-96,98],[38,53],[42,-44],[37,-50],[68,-69],[56,-30],[-7,-23],[121,49],[92,-61]],[[6270,7210],[-75,48],[-35,14],[-133,66],[-3,22],[-85,50],[32,20],[36,-27],[72,41],[56,80]],[[6188,7536],[27,-19]]]}
