{"type":"Topology","bbox":[-74.49329616988155,5.179002743559502,-74.47198912856027,5.199181593408989],"transform":{"scale":[0.000002130917223850288,0.0000020180867936280885],"translate":[-74.49329616988155,5.179002743559502]},"objects":{"municipios":{"type":"GeometryCollection","geometries":[{"type":"Polygon","arcs":[[0,1,2,3]]},{"type":"Polygon","arcs":[[4,-4,5,6]]},{"type":"Polygon","arcs":[[7,-7,8,9]]},{"type":"Polygon","arcs":[[10,11,12,-1,-5,-8]]},{"type":"Polygon","arcs":[[-13,13,14,-2]]},{"type":"Polygon","arcs":[[15,-9,-6,-3,-15,16]]},{"type":"Polygon","arcs":[[-11,-10,-16,17]]}]}},"arcs":[[[5575,3797],[150,-225]],[[5725,3572],[-35,-67],[-579,113],[-1014,18],[-127,34]],[[3970,3670],[86,498],[173,452],[185,258]],[[4414,4878],[178,-93],[983,-988]],[[5724,4084],[-149,-287]],[[4414,4878],[371,444],[246,585],[263,401],[565,552]],[[5859,6860],[508,-600],[-996,-1996],[353,-180]],[[6888,5158],[-282,4],[-598,-1223],[-284,145]],[[5859,6860],[509,445]],[[6368,7305],[180,-223],[172,-724],[168,-1200]],[[6888,5158],[-159,-979],[115,-627],[201,-478],[175,-217]],[[7220,2857],[-40,-71]],[[7180,2786],[-641,485],[-396,138],[-186,-151],[-232,314]],[[7180,2786],[57,-83],[-525,-118],[39,-314],[-103,-436],[-518,136],[-369,-123],[-226,-299],[-13,-323],[138,-273],[-346,103],[-321,198],[-262,41],[-409,-143],[-14,-232],[-288,-305],[-363,-93],[-83,105],[-244,-305],[-119,-322],[-271,39],[8,283],[-120,262],[75,242],[327,512],[209,846]],[[3439,2184],[194,768],[337,718]],[[5740,8806],[510,-1018],[118,-483]],[[3439,2184],[-972,266],[462,1172],[-301,193],[-578,-18],[-740,150],[-18,454],[151,618],[-600,229],[-265,-44],[-52,463],[-152,352],[-224,-363],[-87,200],[43,301],[-81,427],[74,378],[-99,223],[323,1167],[140,1134],[209,92],[238,-189],[70,123],[293,8],[153,146],[575,333],[167,-71],[224,-725],[324,-312],[1021,-101],[542,-194],[502,-124],[503,53],[456,281]],[[5740,8806],[305,366],[-36,133],[261,108],[350,-311],[487,-217],[487,106],[397,425],[860,295],[130,-116],[244,-486],[448,-344],[125,-238],[201,-611],[-89,-82],[-326,71],[-39,-141],[-281,-268],[-441,-172],[-405,29],[-428,396],[-286,-194],[66,-222],[251,-138],[235,-636],[-197,-377],[-61,-374],[139,-415],[427,-450],[74,-564],[397,-133],[324,-302],[-54,-262],[-166,-8],[-476,296],[73,-741],[-231,-686],[-505,-225],[-780,539]]]}