{"type":"Topology","bbox":[-74.41608120609897,4.647521849915245,-74.387147445768,4.658375242741395],"transform":{"scale":[0.0000028936653996371474,0.0000010854478273977675],"translate":[-74.41608120609897,4.647521849915245]},"objects":{"municipios":{"type":"GeometryCollection","geometries":[{"type":"Polygon","arcs":[[0,1]],"properties":{"codigo":"25797100000000000101","sector":"257971000000000001","pcode":"CO25797","area_m2":87138}},{"type":"Polygon","arcs":[[2,-1]],"properties":{"codigo":"25797100000000000102","sector":"257971000000000001","pcode":"CO25797","area_m2":110778}},{"type":"Polygon","arcs":[[3]],"properties":{"codigo":"25797200103001000101","sector":"257972001030010001","pcode":"CO25797","area_m2":290368}}]}},"arcs":[[[9359,4961],[34,624],[183,158],[41,219],[25,523],[-45,256],[-212,898],[-38,239],[53,320],[0,515],[-65,107],[-185,-72],[-118,386]],[[9032,9134],[98,443],[-51,422],[234,-31],[-1,-440],[-36,-570],[-117,-203],[61,-8],[268,261],[101,191],[-71,126],[92,0],[151,275],[73,263],[5,-181],[135,-241],[-139,-441],[164,-741],[-127,-124],[125,-540],[-209,-594],[-34,-246],[83,-178],[-185,-530],[-93,-368],[26,-200],[-68,-60],[62,-635],[30,143],[280,159],[49,-41],[24,-261],[-3,-472],[-74,-274],[-61,-43],[-245,193],[-264,65],[-22,374],[66,177],[0,157]],[[9359,4961],[-61,76],[-4,501],[-275,-217],[-52,354],[-20,555],[-28,69],[-136,-62],[-248,206],[-167,-14],[20,259],[-88,353],[169,327],[18,655],[141,40],[181,268],[-23,189],[229,184],[-14,230],[31,200]],[[299,6338],[120,55],[264,-65],[3,-194],[-110,-288],[110,-175],[41,-641],[85,-486],[260,-542],[97,-65],[83,-498],[69,-7],[211,-493],[92,180],[64,-227],[319,288],[96,-487],[-67,-240],[-71,-100],[197,-865],[-83,-362],[-302,-472],[-138,-5],[-74,-183],[-230,-99],[-124,49],[-158,-58],[-137,-129],[-228,-54],[-16,-166],[-204,53],[-103,198],[-45,326],[-122,134],[32,432],[-123,211],[32,1390],[74,17],[-23,405],[91,65],[-190,826],[107,190],[-30,546],[47,193],[-116,353],[-17,280],[-69,-58],[-12,151],[85,414],[143,301],[70,-98]]]}
