{"type":"Topology","bbox":[-73.34747272028261,4.348673236134161,-73.10769641623347,4.631408860028428],"transform":{"scale":[0.000023980028407755183,0.000028276390028429595],"translate":[-73.34747272028261,4.348673236134161]},"objects":{"municipios":{"type":"GeometryCollection","geometries":[{"type":"MultiPolygon","arcs":[[[0]],[[1]]],"properties":{"codigo":"25530200403001000101","sector":"255302004030010001","pcode":"CO25530","area_m2":173671}},{"type":"MultiPolygon","arcs":[[[2]],[[3]],[[4]]],"properties":{"codigo":"25530200902002000101","sector":"255302009020020001","pcode":"CO25530","area_m2":88398}},{"type":"Polygon","arcs":[[5]],"properties":{"codigo":"25530200102003000101","sector":"255302001020030001","pcode":"CO25530","area_m2":24697}},{"type":"MultiPolygon","arcs":[[[6]],[[7]],[[8]]],"properties":{"codigo":"25530200902006000101","sector":"255302009020060001","pcode":"CO25530","area_m2":83284}},{"type":"Polygon","arcs":[[9,10]],"properties":{"codigo":"25530100000000000101","sector":"255301000000000001","pcode":"CO25530","area_m2":340110}},{"type":"Polygon","arcs":[[-10,11]],"properties":{"codigo":"25530100000000000102","sector":"255301000000000001","pcode":"CO25530","area_m2":266598}},{"type":"Polygon","arcs":[[12]],"properties":{"codigo":"25530200403007000101","sector":"255302004030070001","pcode":"CO25530","area_m2":123330}}]}},"arcs":[[[8941,5131],[17,-16],[59,-44],[10,13],[16,1],[-93,-94],[34,-28],[-54,-34],[5,-9],[-12,-5],[-13,37],[11,24],[-47,36],[0,20],[-6,12],[-28,27],[22,25],[22,30],[19,8],[16,18],[22,-21]],[[9132,5047],[-34,8],[12,17],[36,-21],[-14,-4]],[[249,100],[10,-4],[8,-19],[15,-62],[-73,-13],[-14,57],[15,4],[-3,13],[12,9],[-8,21],[11,3],[-10,30],[19,3],[18,-42]],[[86,37],[-38,-14],[-41,-23],[-5,18],[12,4],[-7,8],[18,5],[14,16],[29,21],[29,-32],[-11,-3]],[[182,73],[4,-16],[-59,-10],[-6,19],[21,5],[2,-6],[38,8]],[[5244,9996],[9,-9],[14,1],[11,-11],[-10,-6],[6,-12],[21,-21],[4,-27],[-18,1],[-3,15],[-8,-5],[-40,51],[-13,13],[24,13],[3,-3]],[[2044,947],[16,-1],[14,-11],[-1,-20],[13,0],[1,-15],[11,11],[21,-16],[9,-19],[-14,-4],[-10,8],[-31,-28],[-31,59],[-18,11],[-7,12],[19,23],[8,-10]],[[1902,924],[-19,-27],[-31,12],[10,25],[40,-10]],[[1905,1057],[1,-69],[4,-5],[32,3],[6,-4],[8,19],[-7,9],[23,15],[6,-6],[27,20],[15,1],[-35,-28],[-8,-18],[5,-24],[23,-14],[-7,-11],[-51,32],[-40,-2],[0,-13],[-11,-2],[0,23],[-14,20],[4,19],[11,17],[-2,11],[10,7]],[[5653,978],[-4,-56],[-12,-118]],[[5637,804],[-62,5],[8,44],[14,36],[-37,4],[-19,-2],[-47,9],[-3,-12],[-73,11],[-8,-22],[-23,12],[16,19],[-18,14],[-21,28],[12,22],[-25,13],[15,-1],[17,21],[52,-21],[2,7],[18,9],[28,151],[42,5],[-23,-126],[78,-2],[0,-49],[73,-1]],[[5653,978],[72,-1],[13,34],[35,-8],[-9,-27],[24,-1],[-8,-32],[0,-29],[67,-5],[5,-5],[29,-62],[-18,-9],[-15,16],[-18,-13],[1,12],[-22,26],[-40,-13],[43,-58],[23,-26],[-126,20],[-72,7]],[[9997,4968],[-1,-12],[-31,10],[-41,-41],[-25,-11],[-3,5],[-23,-11],[-166,-53],[6,-11],[-32,-11],[8,-5],[-18,-17],[-15,7],[5,7],[-16,9],[-10,-2],[-5,13],[47,17],[50,20],[8,-5],[30,10],[-58,55],[-16,-2],[-16,12],[14,13],[47,-31],[21,-1],[18,5],[36,18],[17,1],[39,-29],[41,20],[72,58],[9,-9],[-8,-5],[18,-19],[-2,-5]]]}
