{"type":"Topology","bbox":[-74.43752851676862,4.911797001856672,-74.41672114126447,4.968553809579915],"transform":{"scale":[0.000002080945644979322,0.000005676248397164015],"translate":[-74.43752851676862,4.911797001856672]},"objects":{"municipios":{"type":"GeometryCollection","geometries":[{"type":"Polygon","arcs":[[0,1,2,3]]},{"type":"Polygon","arcs":[[4,-1]]},{"type":"Polygon","arcs":[[5,-3]]},{"type":"Polygon","arcs":[[6]]},{"type":"Polygon","arcs":[[7]]}]}},"arcs":[[[3266,8013],[-209,146],[-248,34],[-107,68],[5,67],[-150,62],[-74,87],[-8,74],[-103,91],[-403,165],[-194,108],[-141,130],[-102,-19],[-128,93],[-221,126],[-198,76],[-165,33],[-361,10],[-222,-40],[75,93]],[[312,9417],[52,28],[25,78],[83,10]],[[472,9533],[110,-28],[257,-8],[323,19],[135,37],[-177,89],[328,87],[69,-16],[222,-109],[137,-7],[118,45],[-158,128],[8,135]],[[1844,9905],[436,42],[363,13],[182,39],[12,-290],[-126,-97],[223,-62],[-135,-41],[-1,-65],[195,-73],[-25,-107],[-134,-88],[-9,-42],[103,-98],[20,-111],[170,-103],[378,-159],[294,-62],[307,-79],[-231,-92],[242,-38],[184,-95],[90,-125],[-41,-107],[18,-43],[307,-113],[228,-131],[-388,-94],[-247,-36],[-114,145],[-169,101],[-384,116],[-130,84],[-196,-81]],[[3266,8013],[-373,-86],[-105,78],[-518,0],[-194,11],[-303,1],[-381,-21],[42,64],[216,107],[51,55],[45,113],[336,-4],[114,54],[24,87],[-62,99],[-55,32],[-525,176],[-195,23],[-337,21],[-92,105],[-242,139],[-66,90],[-111,38],[-269,10],[-183,53],[-83,127],[95,74],[-48,65],[55,30],[105,-38],[30,-76],[75,-23]],[[472,9533],[477,127],[895,245]],[[7084,891],[4,-7],[542,2],[66,-124],[-35,-92],[30,-76],[61,-56],[239,21],[393,53],[-17,-97],[158,-122],[247,-2],[13,45],[210,12],[-27,-68],[108,-22],[256,-5],[20,-89],[228,-14],[20,-36],[-144,2],[-435,34],[-110,-25],[177,-117],[-209,-54],[35,-25],[-151,-29],[-48,96],[-72,22],[-107,-39],[-282,-39],[-174,-1],[-184,35],[201,54],[58,67],[-82,45],[-308,34],[-727,59],[-209,34],[-174,86],[-7,77],[74,126],[-136,160],[480,92],[18,-17]],[[9153,3777],[204,-27],[153,30],[215,22],[92,-158],[182,-83],[-659,-118],[149,-244],[-314,-67],[-123,-12],[-75,22],[-176,126],[-343,277],[-37,72],[120,143],[55,34],[362,58],[195,-75]]]}