{"type":"Topology","bbox":[-73.76976234204773,5.246175056381516,-73.76231371238839,5.25379353693494],"transform":{"scale":[7.449374596796027e-7,7.61924247767139e-7],"translate":[-73.76976234204773,5.246175056381516]},"objects":{"municipios":{"type":"GeometryCollection","geometries":[{"type":"Polygon","arcs":[[0,1]],"properties":{"codigo":"25224100000000000101","sector":"252241000000000001","pcode":"CO25224","area_m2":187398}},{"type":"Polygon","arcs":[[2,-1]],"properties":{"codigo":"25224100000000000102","sector":"252241000000000001","pcode":"CO25224","area_m2":183973}}]}},"arcs":[[[7603,4258],[-482,27],[-538,-230],[-491,-463],[-620,-170],[-158,357],[-893,528],[-824,427],[-677,267],[-338,-544],[-1113,704]],[[1469,5161],[718,1779],[587,1686],[1410,698],[547,675],[597,-345],[343,158],[690,-542],[-436,-815],[722,-367],[530,627],[388,-195],[71,-416],[-451,-639],[-83,-367],[506,-5],[288,100],[488,-7],[187,-148],[-222,-382],[156,-155],[-555,-1148],[-120,-62],[-582,147],[-220,150],[-95,294],[-206,-672],[562,-174],[214,-348],[-216,-191],[316,-239]],[[7603,4258],[250,-76],[456,-325],[297,-6],[767,-437],[386,0],[240,-191],[-1765,-2159],[-379,-406],[-24,-183],[-622,-436],[-236,-39],[-624,1183],[-1616,528],[-610,277],[-1488,-792],[-226,-23],[-2060,1262],[725,1140],[-1074,560],[412,591],[-167,93],[477,648],[747,-306]]]}
