{"type":"Topology","bbox":[-74.42919975302516,4.702057357529396,-74.37243426217759,4.763826241221004],"transform":{"scale":[0.000005677116796436387,0.000006177506119772749],"translate":[-74.42919975302516,4.702057357529396]},"objects":{"municipios":{"type":"GeometryCollection","geometries":[{"type":"Polygon","arcs":[[0,1,2]],"properties":{"codigo":"25898100000000000101","sector":"258981000000000001","pcode":"CO25898","area_m2":73450}},{"type":"Polygon","arcs":[[3,4,-2]],"properties":{"codigo":"25898100000000000102","sector":"258981000000000001","pcode":"CO25898","area_m2":50738}},{"type":"Polygon","arcs":[[-4,-1,5]],"properties":{"codigo":"25898100000000000103","sector":"258981000000000001","pcode":"CO25898","area_m2":121047}},{"type":"Polygon","arcs":[[6]],"properties":{"codigo":"25898200103004000101","sector":"258982001030040001","pcode":"CO25898","area_m2":54934}},{"type":"Polygon","arcs":[[7]],"properties":{"codigo":"25898200102005000101","sector":"258982001020050001","pcode":"CO25898","area_m2":91334}},{"type":"Polygon","arcs":[[8]],"properties":{"codigo":"25898200103001000101","sector":"258982001030010001","pcode":"CO25898","area_m2":152639}},{"type":"Polygon","arcs":[[9]],"properties":{"codigo":"25898200103006000101","sector":"258982001030060001","pcode":"CO25898","area_m2":155533}},{"type":"Polygon","arcs":[[10]],"properties":{"codigo":"25898200103007000101","sector":"258982001030070001","pcode":"CO25898","area_m2":144485}}]}},"arcs":[[[8899,9865],[-23,-128],[-32,-45],[-74,-189],[-41,-131],[-22,-103]],[[8707,9269],[-85,28],[-176,41]],[[8446,9338],[86,234],[64,105],[-50,14],[42,142],[125,-4],[-13,169],[55,-10],[136,-81],[8,-42]],[[8707,9269],[24,-8],[-28,-130],[-42,-107],[-145,-107]],[[8516,8917],[-46,6],[-52,-64],[-39,-98],[-21,0],[27,175],[-42,10],[25,119],[40,14],[-39,19],[29,118],[13,-2],[35,124]],[[8899,9865],[131,-33],[46,-53],[29,-3],[-10,-122],[38,-3],[59,32],[77,-24],[-81,-88],[-155,-62],[-28,-35],[27,-46],[-7,-33],[-78,-164],[-25,-96],[-25,-198],[-19,-79],[-23,1],[44,-71],[-195,28],[-8,14],[-150,41],[-30,46]],[[230,3061],[99,-102],[54,-29],[-44,-41],[115,-147],[-49,-48],[-55,24],[-6,-28],[-66,-63],[-133,-22],[-10,-20],[-85,-22],[16,35],[-50,39],[-16,148],[68,59],[67,135],[95,82]],[[9727,9494],[98,14],[37,-23],[63,-93],[74,-47],[-36,-105],[-27,23],[-101,7],[-76,97],[-179,-101],[56,-28],[30,-126],[-34,-52],[-63,20],[-21,-16],[-142,-18],[0,86],[-99,-62],[28,133],[-56,0],[20,68],[90,236],[92,133],[132,-95],[114,-51]],[[816,837],[-20,-24],[39,-54],[-35,-20],[81,-108],[-33,-59],[111,-4],[54,-47],[25,-70],[-3,-40],[-118,63],[-16,-7],[-11,-76],[-28,-57],[-99,-21],[-42,-50],[-95,-17],[-24,-86],[-78,-41],[-77,-79],[-118,-15],[-79,-25],[-49,44],[-16,55],[18,50],[46,32],[63,90],[163,122],[-37,26],[-57,98],[7,25],[-25,91],[7,23],[-34,48],[42,10],[26,50],[41,37],[35,0],[13,37],[38,8],[81,-19],[24,26],[53,4],[32,-44],[42,21],[12,56],[41,-53]],[[2775,1465],[32,-53],[-25,-29],[-104,-53],[-44,-38],[-53,-2],[-63,-24],[-37,-45],[-28,-76],[-72,-8],[-8,-76],[-49,-56],[-23,3],[-39,74],[-73,-32],[-100,-14],[13,-40],[79,-29],[6,-30],[-49,-10],[-65,-40],[-47,-10],[-97,18],[-122,-6],[-11,43],[-53,90],[52,10],[-47,182],[-25,141],[23,31],[67,0],[89,31],[2,38],[143,14],[19,-27],[51,-1],[13,-67],[71,7],[22,-63],[109,34],[95,68],[41,-8],[25,37],[48,25],[45,-4],[134,95],[36,-30],[19,-70]],[[807,1670],[76,-38],[71,20],[53,-87],[74,6],[28,-12],[-7,-42],[36,-28],[-6,-104],[-34,-75],[-11,-165],[36,-31],[1,-45],[-65,-72],[-26,-81],[-70,-47],[-65,9],[8,43],[-90,16],[-82,-66],[-80,58],[30,38],[-6,50],[18,40],[-69,41],[-56,102],[0,61],[52,113],[-30,4],[-20,40],[55,74],[86,66],[26,61],[67,51]]]}
