{"type":"Topology","bbox":[-74.47763265959128,4.53700724806155,-74.3913840270933,4.602219761460297],"transform":{"scale":[0.000008625725822380647,0.000006521903530227757],"translate":[-74.47763265959128,4.53700724806155]},"objects":{"municipios":{"type":"GeometryCollection","geometries":[{"type":"Polygon","arcs":[[0,1,2,3,4]],"properties":{"codigo":"25245100000000000104","sector":"252451000000000001","pcode":"CO25245","area_m2":94592}},{"type":"Polygon","arcs":[[5,6,7,-5,8]],"properties":{"codigo":"25245100000000000201","sector":"252451000000000002","pcode":"CO25245","area_m2":137118}},{"type":"Polygon","arcs":[[9,10,11,-1,-8]],"properties":{"codigo":"25245100000000000203","sector":"252451000000000002","pcode":"CO25245","area_m2":196543}},{"type":"Polygon","arcs":[[12,13,14]],"properties":{"codigo":"25245100000000000302","sector":"252451000000000003","pcode":"CO25245","area_m2":287703}},{"type":"Polygon","arcs":[[15,16]],"properties":{"codigo":"25245200105002000102","sector":"252452001050020001","pcode":"CO25245","area_m2":33155}},{"type":"Polygon","arcs":[[17]],"properties":{"codigo":"25245200101003000101","sector":"252452001010030001","pcode":"CO25245","area_m2":114600}},{"type":"Polygon","arcs":[[18,19,20]],"properties":{"codigo":"25245100000000000101","sector":"252451000000000001","pcode":"CO25245","area_m2":78454}},{"type":"Polygon","arcs":[[-9,-4,21,-19,22]],"properties":{"codigo":"25245100000000000102","sector":"252451000000000001","pcode":"CO25245","area_m2":83825}},{"type":"Polygon","arcs":[[23,-15,24,25,-2,-12]],"properties":{"codigo":"25245100000000000204","sector":"252451000000000002","pcode":"CO25245","area_m2":177732}},{"type":"Polygon","arcs":[[26]],"properties":{"codigo":"25245100000000000205","sector":"252451000000000002","pcode":"CO25245","area_m2":21058}},{"type":"Polygon","arcs":[[-26,27,28,-20,-22,-3]],"properties":{"codigo":"25245100000000000103","sector":"252451000000000001","pcode":"CO25245","area_m2":147120}},{"type":"Polygon","arcs":[[-10,-7,29]],"properties":{"codigo":"25245100000000000202","sector":"252451000000000002","pcode":"CO25245","area_m2":305009}},{"type":"Polygon","arcs":[[-14,30,31,32,-28,-25]],"properties":{"codigo":"25245100000000000301","sector":"252451000000000003","pcode":"CO25245","area_m2":161179}},{"type":"MultiPolygon","arcs":[[[-32,33]],[[34]]],"properties":{"codigo":"25245100000000000303","sector":"252451000000000003","pcode":"CO25245","area_m2":260294}},{"type":"Polygon","arcs":[[35,36]],"properties":{"codigo":"25245200102001000101","sector":"252452001020010001","pcode":"CO25245","area_m2":259679}},{"type":"Polygon","arcs":[[-16,37]],"properties":{"codigo":"25245200105002000101","sector":"252452001050020001","pcode":"CO25245","area_m2":86052}},{"type":"Polygon","arcs":[[-36,38]],"properties":{"codigo":"25245200102004000101","sector":"252452001020040001","pcode":"CO25245","area_m2":38168}}]}},"arcs":[[[3951,6881],[26,-120],[9,-79]],[[3986,6682],[-102,-226],[-76,-145],[-35,-38]],[[3773,6273],[-13,140],[-77,545]],[[3683,6958],[267,52]],[[3950,7010],[1,-129]],[[4114,7366],[53,-3],[-2,-21],[48,-209],[16,-32],[31,2],[248,75],[114,27],[32,-35],[-24,-32],[5,-87]],[[4635,7051],[-63,-30],[-36,20],[-55,-8],[-77,-57],[-44,-19],[-35,-41],[-96,2],[-52,-43]],[[4177,6875],[-27,-9],[-20,30],[-37,5],[-46,-27],[-34,23],[-62,-16]],[[3950,7010],[-35,108],[18,200],[-7,28],[121,23],[67,-3]],[[4177,6875],[33,-126],[46,-19],[90,-11],[147,-113],[43,21],[-59,-85],[129,-79],[320,-189]],[[4926,6274],[-6,-17],[41,-25],[-2,-62],[-36,-16],[-55,0],[-32,-40],[-29,-5],[-34,66],[-25,15],[-37,-13],[-27,18],[-51,9],[-61,-18],[-57,58]],[[4515,6244],[-51,62],[-108,8],[-58,17],[-29,26],[-10,47],[-97,10],[-60,113],[-74,110],[-42,45]],[[4473,5922],[18,-80],[59,-58],[43,-116],[44,-83],[6,-72],[-52,-31],[1,-111],[-17,-94],[12,-37],[-61,-36],[8,-95],[-31,-25],[-44,59],[-75,-122],[-29,-62],[-83,84],[-33,13],[-10,37],[67,125],[-36,45],[-21,-46],[-57,-84],[-85,62],[16,36],[34,-25],[11,25],[-20,19],[27,36],[19,-14],[59,23],[10,26]],[[4253,5321],[19,75],[-31,42],[-41,30],[-15,34],[-131,117],[-24,27],[55,87],[28,59],[-63,67],[-64,111],[14,56],[-8,100]],[[3992,6126],[45,-2],[41,-26],[87,-10],[53,-42],[55,1],[50,-52],[73,-23],[77,-50]],[[7654,338],[177,75]],[[7831,413],[-14,-41],[18,-34],[-39,-67],[-14,-46],[50,-21],[-13,-41],[-29,-3],[-10,-58],[-22,-11],[-52,-91],[-40,98],[16,65],[-4,97],[-11,9],[-80,-40],[-16,59],[83,50]],[[9646,9990],[6,-35],[136,41],[-7,-86],[19,-64],[22,-119],[15,0],[39,-65],[76,-179],[-29,-27],[4,-56],[72,-66],[-43,-53],[27,-113],[-37,4],[-26,-30],[-83,-2],[6,62],[-13,52],[-29,54],[23,18],[-57,160],[-8,9],[-56,-35],[-82,10],[-30,-28],[-3,-115],[-10,-20],[-25,73],[1,129],[51,65],[44,23],[35,41],[-4,38],[-29,64],[-36,146],[-10,100],[41,4]],[[3678,7338],[42,-139],[-78,-42],[21,-66]],[[3663,7091],[-229,-212],[-111,-110],[-117,-128]],[[3206,6641],[1,33],[42,72],[78,215],[-4,32],[23,126],[49,36],[68,19],[-3,33],[41,2],[105,83],[25,31],[7,105],[28,15],[12,-105]],[[3683,6958],[-20,133]],[[3678,7338],[126,41],[12,25],[32,-27],[6,39],[31,14],[32,72],[52,20],[14,-31],[76,-59],[50,-14],[5,-52]],[[4515,6244],[-42,-282],[0,-40]],[[3992,6126],[-23,-13],[-37,12],[-52,0],[-65,93]],[[3815,6218],[-41,36],[-1,19]],[[5078,6995],[12,-72],[-35,-40],[-41,-65],[-44,3],[-78,45],[69,82],[-42,46],[49,44],[41,51],[69,-94]],[[3815,6218],[-3,-19]],[[3812,6199],[-63,27],[-57,42],[-65,75],[16,48],[-40,55],[-76,32],[-13,-44],[-51,14],[37,20],[16,31],[-6,34],[-51,-16],[-5,18],[-51,9],[-12,25],[-32,-5],[-67,35],[-96,26],[10,16]],[[4635,7051],[122,-15],[57,-60],[31,-20],[28,-83],[-7,-28],[52,-40],[67,-26],[80,-9],[13,-54],[39,-2],[-26,-181],[3,-94],[21,-52],[75,-97],[-42,-148],[-222,132]],[[4253,5321],[-125,85],[42,79],[-156,131],[-2,-44],[15,-85],[81,-96],[-10,-28],[-81,-82],[-87,70],[-99,95]],[[3831,5446],[6,82],[-16,25],[25,44],[-61,55],[48,128],[-109,82],[-93,80]],[[3631,5942],[54,111],[52,89],[67,34],[8,23]],[[3831,5446],[-117,-184],[-69,-61],[-4,14],[-47,-49],[-53,-34],[16,-35],[27,19],[76,-141],[27,-25],[-89,-94],[-39,64],[17,54],[-60,112],[-54,-75],[-33,43],[5,23],[49,76],[-29,54],[-56,-56],[-36,-56],[-71,60],[-61,8],[-44,94],[-7,29],[152,179],[29,18],[7,50],[28,32],[62,31],[60,79],[61,194],[53,73]],[[3269,5057],[18,15],[123,-91],[-32,-48],[46,-39],[-41,-75],[-29,-13],[-48,19],[-180,112],[48,123],[69,83],[31,-34],[-25,-35],[20,-17]],[[422,543],[-5,-43],[-73,-39],[-112,-69]],[[232,392],[-35,165],[77,162],[-10,15],[88,107],[-81,114],[-18,-33],[-42,-35],[-15,62],[2,38],[28,50],[63,45],[123,188],[65,53],[48,5],[118,-22],[37,-32],[-1,-37],[17,-25],[-19,-39],[63,-76],[29,42],[70,-78],[30,8],[37,-138],[-65,-4],[-36,-30],[-103,-122],[-6,-23],[47,-73],[-41,-60],[-41,37],[-13,-67],[5,-58],[-83,13],[-40,-10],[-16,24],[-14,-38],[-50,-5],[-28,28]],[[7654,338],[-5,55],[-48,68],[-41,10],[4,-42],[-137,-8],[-9,35],[-62,-6],[-97,9],[-31,45],[87,30],[76,44],[89,39],[48,29],[142,-55],[147,94],[18,-52],[60,27],[25,-81],[54,45],[11,-32],[-135,-143],[-19,-36]],[[422,543],[23,-44],[19,-71],[27,-52],[86,-221],[10,-35],[-62,47],[-37,91],[-50,54],[-15,42],[-22,4],[9,60],[-27,-28],[-74,-6],[-18,-105],[-53,-105],[-14,5],[-32,-55],[-35,-80],[-9,51],[64,148],[30,23],[22,109],[-39,-6],[-3,-57],[-40,9],[-4,-71],[-19,3],[3,79],[-54,-3],[-60,24],[-48,65],[21,23],[27,-48],[36,-30],[54,-13],[51,8],[43,34]]]}
