{"type":"Topology","bbox":[-74.29597282292383,4.964535044731923,-74.28614134000583,4.980101322196113],"transform":{"scale":[9.832466164619083e-7,0.00000155678342476148],"translate":[-74.29597282292383,4.964535044731923]},"objects":{"municipios":{"type":"GeometryCollection","geometries":[{"type":"Polygon","arcs":[[0,1,2]],"properties":{"codigo":"25658100000000000102","sector":"256581000000000001","pcode":"CO25658","area_m2":120171}},{"type":"Polygon","arcs":[[-3,3,4]],"properties":{"codigo":"25658100000000000101","sector":"256581000000000001","pcode":"CO25658","area_m2":231998}},{"type":"Polygon","arcs":[[-4,-2,5]],"properties":{"codigo":"25658100000000000103","sector":"256581000000000001","pcode":"CO25658","area_m2":419452}}]}},"arcs":[[[7528,7762],[299,-112],[133,-142],[-23,-137],[100,-143],[101,24],[152,-104],[81,21],[267,-353],[331,-125]],[[8969,6691],[54,-213],[137,-297],[21,-189],[-200,-241],[-1186,-329],[-76,-65],[-300,471],[-959,-291],[-246,258],[-222,273],[-582,-213],[-313,469]],[[5097,6324],[565,192],[-464,601],[439,154],[909,374],[-86,335],[130,-5],[256,-84],[272,-157],[126,-14],[284,42]],[[5097,6324],[-249,-71],[-97,0],[-424,129],[-119,-274],[-136,-27]],[[4072,6081],[-23,193],[-134,387],[1,256],[67,240],[-31,97],[-187,78],[-368,10],[-185,42],[-279,125],[-34,106],[-92,80],[5,97],[324,256],[152,178],[113,80],[-93,152],[-201,122],[-139,24],[-412,22],[-259,138],[-482,202],[-144,42],[-180,4],[-372,-62],[-183,3],[-145,56],[-198,158],[-392,216],[-201,172],[135,6],[553,-59],[520,16],[-97,118],[162,19],[339,-83],[325,-141],[122,-25],[325,31],[445,-125],[134,-18],[338,-147],[69,15],[276,-66],[-39,-23],[278,-97],[151,-97],[306,221],[244,139],[127,102],[300,-87],[219,14],[73,126],[386,92],[676,5],[167,201],[319,307],[885,-637],[454,-291],[-248,-205],[-311,-183],[378,-278],[37,-68],[-104,-112],[333,-163],[-32,-23],[-545,-175],[-172,-102]],[[8969,6691],[226,45],[144,-66],[209,41],[29,-34],[-163,-160],[6,-108],[93,-129],[271,-169],[17,-119],[183,-155],[10,-159],[-324,-88],[-101,-134],[-44,-222],[63,-152],[-95,-160],[-96,-1],[-367,96],[38,-64],[-64,-255],[-97,-137],[-203,-84],[-19,-132],[-120,-164],[105,-194],[-19,-175],[166,-14],[94,-113],[-22,-155],[116,-239],[-64,-27],[187,-142],[24,-72],[261,-238],[246,-494],[78,-221],[77,-103],[-765,-484],[-1131,-640],[-709,-454],[-459,-281],[35,-30],[-253,-105],[-97,86],[-424,243],[-207,71],[-245,9],[-240,39],[-155,82],[30,229],[1,230],[78,228],[-17,104],[-248,237],[181,238],[455,317],[77,150],[153,100],[304,105],[190,114],[12,126],[-184,99],[-238,-26],[-243,-128],[-244,13],[-163,97],[-107,178],[57,255],[-51,243],[82,155],[-185,124],[-5,126],[89,35],[-542,11],[-232,-25],[-392,79],[-85,116],[9,114],[328,224],[185,149],[252,246],[316,419],[-9,71],[-290,90],[-265,160],[-311,96],[-120,108],[71,206],[-31,138]]]}
