{"type":"Topology","bbox":[-74.27227033575025,5.033212570453589,-74.22998718104407,5.065030004195286],"transform":{"scale":[0.000004228738344452772,0.0000031820615803277314],"translate":[-74.27227033575025,5.033212570453589]},"objects":{"municipios":{"type":"GeometryCollection","geometries":[{"type":"Polygon","arcs":[[0,1]],"properties":{"codigo":"25777100000000000101","sector":"257771000000000001","pcode":"CO25777","area_m2":273458}},{"type":"Polygon","arcs":[[2,-1]],"properties":{"codigo":"25777100000000000102","sector":"257771000000000001","pcode":"CO25777","area_m2":211934}},{"type":"Polygon","arcs":[[3]],"properties":{"codigo":"25777200101001000101","sector":"257772001010010001","pcode":"CO25777","area_m2":11396}}]}},"arcs":[[[9726,8627],[-43,34],[-193,211],[-66,57],[-59,37],[-159,58],[-180,77],[-95,27],[-124,1],[-24,-4],[-175,-101],[-143,-85],[-332,-207],[13,-26],[-143,-104],[-35,-31],[-16,-44],[-69,-126],[-40,-67],[-21,-46]],[[7822,8288],[-73,37],[90,187],[67,71],[-73,108],[-47,-37],[-155,221],[199,221],[226,280],[101,138],[-55,148],[-29,64],[-59,110],[-4,50],[-40,65],[10,48],[21,-8],[291,-53],[81,-95],[46,40],[58,-93],[53,-110],[58,-82],[18,-45],[275,191],[-8,27],[84,101],[35,-33],[72,-19],[54,36],[90,-129],[42,-72],[21,-3],[11,35],[8,88],[21,126],[91,80],[65,-40],[94,-102],[-98,-176],[-38,-77],[-5,-43],[55,-28],[58,-11],[84,-88],[62,-113],[16,-56],[60,-89],[36,-114],[1,-30],[33,-68],[83,-113],[30,-28],[38,-104],[18,-33],[5,-176],[-58,47],[-103,43],[-62,15],[-50,30]],[[9726,8627],[-133,-34],[-107,-59],[-43,-17],[-12,73],[-217,-36],[22,-69],[-154,-71],[-215,-124],[-24,117],[-233,-184],[55,-94],[34,-25],[47,-106],[-69,-76],[35,-41],[59,-39],[-169,-196],[-4,6],[-89,-79],[-55,118],[-65,162],[-52,46],[-9,20],[-25,112],[-15,30],[-109,-86],[-20,-39],[-108,-53],[-35,46],[-35,23],[19,34],[16,60],[-1,33],[-85,87],[-98,94],[-10,28]],[[463,399],[0,-53],[-51,-9],[-8,55],[-63,-53],[34,-61],[-134,-117],[-3,-27],[-42,-5],[-34,-30],[29,-39],[-37,-60],[-37,72],[-32,-19],[-11,23],[-53,51],[-21,51],[20,25],[26,1],[188,115],[140,131],[82,20],[7,-71]]]}
