{"type":"Topology","bbox":[-74.57403027042443,4.650280771489112,-74.53205647059576,4.790572307443403],"transform":{"scale":[0.0000041977997628430625,0.00001403055665109422],"translate":[-74.57403027042443,4.650280771489112]},"objects":{"municipios":{"type":"GeometryCollection","geometries":[{"type":"Polygon","arcs":[[0]],"properties":{"codigo":"25596200106002000101","sector":"255962001060020001","pcode":"CO25596","area_m2":78660}},{"type":"Polygon","arcs":[[1,2]],"properties":{"codigo":"25596100000000000101","sector":"255961000000000001","pcode":"CO25596","area_m2":72041}},{"type":"Polygon","arcs":[[-2,3]],"properties":{"codigo":"25596100000000000102","sector":"255961000000000001","pcode":"CO25596","area_m2":61851}},{"type":"Polygon","arcs":[[4]],"properties":{"codigo":"25596200101001000101","sector":"255962001010010001","pcode":"CO25596","area_m2":102439}},{"type":"Polygon","arcs":[[5]],"properties":{"codigo":"25596200105004000101","sector":"255962001050040001","pcode":"CO25596","area_m2":24740}},{"type":"Polygon","arcs":[[6]],"properties":{"codigo":"25596200101003000101","sector":"255962001010030001","pcode":"CO25596","area_m2":27164}}]}},"arcs":[[[1940,180],[-62,-51],[-129,-16],[2,-27],[-124,34],[2,-11],[-155,-24],[-474,-85],[23,70],[-80,-2],[49,65],[-20,4],[200,58],[156,-16],[66,-2],[127,31],[115,11],[304,-39]],[[9782,6726],[-340,16],[-37,-9]],[[9405,6733],[-47,12],[-42,61],[50,-4],[55,48],[100,11],[47,36],[7,45],[-17,1],[43,44],[-48,6],[7,20],[53,-6],[65,25],[112,-14],[-20,-31],[229,-25],[-5,-35],[-97,2],[-2,-7],[-97,2],[1,-27],[-57,0],[-6,-35],[83,-6],[-9,-33],[17,-46],[-19,-40],[-26,-11]],[[9782,6726],[29,-11],[-51,-26],[-66,-11],[77,-64],[-17,-35],[-112,4],[-14,-39],[-48,-36],[2,-38],[-36,-10],[110,-53],[-114,-18],[-134,35],[-11,25],[33,3],[15,32],[-31,39],[34,98],[-50,9],[6,28],[-61,2],[49,13],[3,17],[43,-1],[-33,44]],[[6013,9999],[12,-19],[-85,-3],[3,-12],[-105,-6],[45,-20],[-57,-8],[-175,6],[11,-56],[65,-25],[-306,-1],[-21,-38],[-103,-9],[2,18],[-139,15],[-16,-101],[-267,1],[-11,75],[-43,1],[16,30],[78,21],[55,24],[-64,19],[33,46],[236,14],[159,-2],[-3,8],[183,12],[173,-15],[143,9],[53,-9],[-1,19],[129,6]],[[319,4427],[-28,-6],[93,-36],[63,-46],[-26,-13],[-62,5],[-84,-26],[-87,-35],[-188,30],[60,24],[-40,11],[99,14],[82,39],[37,37],[56,12],[25,-10]],[[2239,8965],[109,-5],[-19,-84],[-183,-1],[-14,-41],[-67,0],[29,39],[-83,8],[4,42],[-60,2],[19,55],[50,-2],[187,20],[-28,-31],[56,-2]]]}
