{"type":"Topology","bbox":[-74.39732032559692,5.194317797971157,-74.39167820132877,5.2027499309364815],"transform":{"scale":[5.642688537003173e-7,8.432976262951263e-7],"translate":[-74.39732032559692,5.194317797971157]},"objects":{"municipios":{"type":"GeometryCollection","geometries":[{"type":"Polygon","arcs":[[0,1]]},{"type":"Polygon","arcs":[[-1,2]]}]}},"arcs":[[[6935,9901],[45,-190],[628,-129],[509,-292],[125,-364],[12,-965],[-332,-795],[-916,-1328],[-16,-408],[-433,-768],[-778,-870],[-303,122],[-128,-195],[-633,-431],[-120,25],[-713,-381],[-909,-843],[-314,-174],[-588,1],[-833,339],[-472,8],[-489,-304]],[[277,1959],[-158,188],[834,416],[118,507],[226,118],[758,-231],[513,-236],[340,396],[579,-155],[299,276],[500,264],[-566,229],[301,1140],[297,454],[317,39],[-283,411],[441,48],[290,-112],[168,340],[312,-36],[75,239],[-306,140],[279,212],[-62,622],[-259,24],[29,206],[302,-22],[-141,1041],[-273,57],[66,237],[-380,249],[68,290],[-210,157],[1219,399],[593,82],[372,-47]],[[6935,9901],[512,98],[720,-282],[338,-450],[558,-512],[78,-447],[-219,-308],[303,-231],[-185,-383],[217,-314],[641,301],[50,-187],[-318,-176],[-196,-364],[-238,35],[-109,-449],[-434,-584],[-329,-276],[-38,-235],[-489,-928],[-607,-347],[208,-544],[-358,-251],[-176,209],[-753,-46],[-567,313],[-1269,-695],[163,-73],[-301,-240],[-388,57],[-528,-561],[-391,-274],[62,-481],[205,-122],[-433,-804],[-23,-176],[400,-130],[-969,-44],[-584,52],[83,674],[-156,175],[-641,313],[-316,319],[-181,426]]]}