{"type":"Topology","bbox":[-73.94203956723447,4.335635984111386,-73.91072620105723,4.346003116690162],"transform":{"scale":[0.0000031316497827026708,0.0000010368169395715544],"translate":[-73.94203956723447,4.335635984111386]},"objects":{"municipios":{"type":"GeometryCollection","geometries":[{"type":"Polygon","arcs":[[0,1,2,3]],"properties":{"codigo":"25281100000000000102","sector":"252811000000000001","pcode":"CO25281","area_m2":73653}},{"type":"Polygon","arcs":[[4]],"properties":{"codigo":"25281200101002000101","sector":"252812001010020001","pcode":"CO25281","area_m2":99343}},{"type":"Polygon","arcs":[[5,-2]],"properties":{"codigo":"25281100000000000101","sector":"252811000000000001","pcode":"CO25281","area_m2":72229}},{"type":"Polygon","arcs":[[-4,6]],"properties":{"codigo":"25281100000000000103","sector":"252811000000000001","pcode":"CO25281","area_m2":89605}}]}},"arcs":[[[1472,2374],[-259,-644],[-107,-83]],[[1106,1647],[-222,1192],[-240,-406],[28,320],[-12,275],[-97,452],[-204,288],[-41,173]],[[318,3941],[136,153],[-219,513],[-122,531],[137,297],[139,-569],[91,164],[200,263],[149,278]],[[829,5571],[30,-212],[70,-51],[-52,-1114],[179,-1108],[140,221],[174,-917],[71,127],[31,-143]],[[9743,9997],[138,-298],[118,-547],[-132,-538],[26,-264],[-309,-203],[-74,-492],[-117,-486],[-411,-531],[-143,272],[-54,-81],[-78,408],[78,102],[-14,345],[-68,588],[-70,882],[57,1],[38,250],[68,12],[325,-555],[22,359],[-25,542],[59,133],[299,-532],[117,-434],[103,556],[47,511]],[[1106,1647],[-212,-306],[92,-421],[-166,-532],[5,-388],[-79,20],[0,490],[-42,-17],[-76,408],[-138,437],[-74,397],[-102,-356],[-33,78],[-46,-236],[-235,333],[0,58],[329,1102],[-58,399],[-132,419],[179,409]],[[829,5571],[130,-42],[90,-225],[114,272],[22,-176],[89,-310],[40,-266],[219,13],[143,92],[222,-114],[177,-27],[82,-206],[-167,-448],[40,-299],[-209,-255],[-54,-239],[-36,-413],[-73,-274],[-84,-40],[-102,-240]]]}
