{"type":"Topology","bbox":[-74.48934186908787,3.9781553620931227,-74.47894569485084,3.9921143528071794],"transform":{"scale":[0.0000010397213958426053,0.000001396038675273198],"translate":[-74.48934186908787,3.9781553620931227]},"objects":{"municipios":{"type":"GeometryCollection","geometries":[{"type":"Polygon","arcs":[[0,1]],"properties":{"codigo":"25120100000000000102","sector":"251201000000000001","pcode":"CO25120","area_m2":138478}},{"type":"Polygon","arcs":[[2,-1]],"properties":{"codigo":"25120100000000000101","sector":"251201000000000001","pcode":"CO25120","area_m2":130271}}]}},"arcs":[[[5612,5109],[-911,161],[-113,-325],[-448,69]],[[4140,5014],[78,367],[-7,439],[-142,419],[-452,220],[-818,94],[-676,154],[-326,189],[-189,279],[-138,516],[-30,422],[-152,361],[-305,345],[-759,266],[-224,348],[169,62],[-84,412],[597,92],[166,-259],[144,-424],[277,-319],[269,-55],[389,52],[209,-22],[133,-87],[356,-401],[172,-506],[117,-165],[439,-246],[253,-215],[576,-53],[428,-114],[463,-355],[165,-80],[-281,-138],[84,-131],[-26,-283],[259,141],[207,-112],[4,-201],[310,-61],[6,-682],[368,-59],[-64,-207],[-345,117],[-148,-25]],[[5612,5109],[-167,-218],[249,-28],[-89,-593],[49,-533],[78,-496],[537,3],[176,-276],[-320,-196],[605,-442],[438,-433],[934,-564],[170,70],[813,-545],[481,-252],[-82,-98],[395,-169],[120,-155],[-251,-178],[-205,93],[-210,-99],[-238,65],[-646,238],[-732,232],[-330,212],[-448,450],[-252,378],[-221,501],[-300,335],[-317,164],[-472,49],[-381,81],[-247,-308],[-97,137],[-370,211],[-41,348],[-132,132],[-143,404],[0,384],[86,294],[51,614],[37,93]]]}
