{"type":"Topology","bbox":[-74.45097819285394,5.419731087389285,-74.26997734193935,5.759764911602175],"transform":{"scale":[0.000018101895280986694,0.00003400678309959896],"translate":[-74.45097819285394,5.419731087389285]},"objects":{"municipios":{"type":"GeometryCollection","geometries":[{"type":"Polygon","arcs":[[0]]},{"type":"Polygon","arcs":[[1]]},{"type":"Polygon","arcs":[[2]]},{"type":"Polygon","arcs":[[3,4,5]]},{"type":"Polygon","arcs":[[6,7,8,-5]]},{"type":"Polygon","arcs":[[9,-6,-9,10]]},{"type":"Polygon","arcs":[[-7,-4,-10,11]]},{"type":"Polygon","arcs":[[12]]},{"type":"Polygon","arcs":[[13]]},{"type":"MultiPolygon","arcs":[[[14]],[[15]]]},{"type":"MultiPolygon","arcs":[[[16]],[[17]]]}]}},"arcs":[[[9883,130],[27,-9],[14,1],[0,-6],[12,-4],[-4,-26],[6,1],[13,-20],[36,-29],[-24,-10],[36,-15],[-16,-10],[-48,2],[-15,-5],[-32,29],[9,5],[-3,12],[9,6],[-10,18],[-26,21],[-16,8],[6,4],[-11,8],[-6,13],[25,-5],[12,13],[6,-2]],[[3406,5143],[17,1],[3,-4],[-15,-5],[-16,-20],[-3,-11],[-32,-21],[-23,-8],[4,-3],[-18,-8],[-14,11],[42,21],[15,11],[0,18],[21,16],[19,2]],[[6313,9520],[0,-6],[13,-2],[-13,-30],[-7,-8],[-8,2],[-25,-12],[-15,-1],[17,16],[-11,16],[2,11],[26,13],[21,1]],[[6308,1187],[-1,-26],[-11,-24],[-18,-52],[-5,-20]],[[6273,1065],[-33,8],[-4,18],[11,16],[23,42],[-5,19],[-29,-2],[-20,-20],[-27,-2],[-3,8],[-30,3]],[[6156,1155],[8,6],[15,-3],[34,41],[35,2],[13,-17],[47,3]],[[6273,1065],[-24,-8],[-3,-6]],[[6246,1051],[-21,-20],[-17,-2],[-28,0],[-29,-4],[-2,30],[6,10],[-12,25],[-39,1],[-8,8],[-36,18],[-1,17],[7,10],[16,-1],[0,7],[30,11],[17,2]],[[6129,1163],[8,-7],[19,-1]],[[6326,1256],[-23,-6],[2,-14],[3,-49]],[[6129,1163],[-11,26],[24,7],[-21,2],[-22,18],[10,9],[18,8],[27,22],[7,12],[-14,3],[9,14],[-4,12],[12,10],[0,8],[30,0],[12,14],[11,-6],[28,-4],[1,-8],[36,-14],[29,-25],[19,-1],[-4,-14]],[[6326,1256],[7,-5],[17,-25],[2,-12],[21,-44],[-3,-3],[12,-19],[-8,-16],[2,-10],[15,-13],[-3,-16],[-8,-12],[5,-17],[-12,-14],[7,-5],[-8,-5],[-26,-7],[-8,9],[-42,5],[-50,4]],[[7927,4037],[6,-6],[-4,-9],[18,-7],[49,25],[8,-4],[-14,-8],[15,2],[27,-2],[1,-15],[18,0],[-5,-7],[21,2],[-18,-8],[-14,0],[-12,-18],[-11,-1],[-23,14],[0,6],[-26,8],[-49,2],[-35,-1],[1,17],[-31,4],[5,5],[21,-2],[4,4],[27,0],[21,5],[0,-6]],[[1883,9970],[23,-16],[17,-7],[44,5],[27,18],[36,4],[55,0],[-3,-8],[25,-2],[9,-17],[16,-9],[-4,-3],[-38,16],[-51,1],[-29,-1],[-31,-12],[0,-5],[-17,-11],[-8,5],[-46,7],[-19,5],[-6,-5],[-25,12],[-72,30],[33,20],[21,-1],[6,-7],[37,-19]],[[41,8745],[19,-9],[41,-14],[37,23],[5,-3],[-23,-14],[-7,-10],[8,-1],[0,-30],[10,-10],[17,0],[-10,-5],[5,-11],[24,-5],[2,-16],[-27,-3],[-15,33],[-15,17],[-32,2],[-35,24],[-21,6],[-8,-5],[-16,7],[39,26],[2,-2]],[[192,8777],[-9,-15],[-13,3],[13,15],[-18,3],[22,16],[15,-6],[-10,-16]],[[8114,3069],[18,4],[12,9],[58,1],[17,2],[12,-3],[-24,-7],[2,-5],[-25,-5],[-44,-7],[-1,7],[-25,4]],[[8114,3069],[-28,-4],[-18,-5],[-54,13],[0,13],[-36,-10],[-18,1],[-47,15],[28,19],[21,-5],[11,3],[41,-9],[21,-1],[0,5],[51,0],[-5,-22],[19,-5],[14,-8]]]}