{"type":"Topology","bbox":[-73.53665753718121,4.642820796098941,-73.31907589869627,4.8510219619867545],"transform":{"scale":[0.000021760339882482654,0.000020822198808662222],"translate":[-73.53665753718121,4.642820796098941]},"objects":{"municipios":{"type":"GeometryCollection","geometries":[{"type":"Polygon","arcs":[[0,1]],"properties":{"codigo":"25839200401003000102","sector":"258392004010030001","pcode":"CO25839","area_m2":506833}},{"type":"Polygon","arcs":[[2]],"properties":{"codigo":"25839200303006000101","sector":"258392003030060001","pcode":"CO25839","area_m2":53258}},{"type":"Polygon","arcs":[[3,4,5]],"properties":{"codigo":"25839100000000000102","sector":"258391000000000001","pcode":"CO25839","area_m2":26381}},{"type":"MultiPolygon","arcs":[[[6]],[[7]]],"properties":{"codigo":"25839200202010000101","sector":"258392002020100001","pcode":"CO25839","area_m2":73186}},{"type":"Polygon","arcs":[[8,-1]],"properties":{"codigo":"25839200401003000101","sector":"258392004010030001","pcode":"CO25839","area_m2":193276}},{"type":"Polygon","arcs":[[9]],"properties":{"codigo":"25839200303005000101","sector":"258392003030050001","pcode":"CO25839","area_m2":47374}},{"type":"Polygon","arcs":[[10,11,-5,12]],"properties":{"codigo":"25839100000000000101","sector":"258391000000000001","pcode":"CO25839","area_m2":79993}},{"type":"Polygon","arcs":[[-6,-12,13,14]],"properties":{"codigo":"25839100000000000103","sector":"258391000000000001","pcode":"CO25839","area_m2":347326}},{"type":"Polygon","arcs":[[-14,-11,15]],"properties":{"codigo":"25839100000000000104","sector":"258391000000000001","pcode":"CO25839","area_m2":230317}},{"type":"Polygon","arcs":[[16]],"properties":{"codigo":"25839200203002000101","sector":"258392002030020001","pcode":"CO25839","area_m2":28577}},{"type":"MultiPolygon","arcs":[[[17]],[[18]],[[19]]],"properties":{"codigo":"25839200503004000101","sector":"258392005030040001","pcode":"CO25839","area_m2":159583}}]}},"arcs":[[[9718,5785],[-1,32],[-38,16],[-7,9],[10,30],[21,39],[5,33],[-3,22],[-18,29]],[[9687,5995],[2,60],[11,38],[3,-14],[75,28],[76,-62],[98,-76],[35,-12],[-24,-15],[36,-32],[-15,-30],[13,-8],[-29,-27],[-15,-32],[-50,-91],[-51,-23],[-10,11],[-7,-39],[-26,-20],[-20,21],[-27,-12],[-14,-22],[5,48],[-3,32],[8,21],[-36,-5],[-4,51]],[[6587,9965],[0,-18],[17,-14],[23,8],[-8,-15],[8,-25],[20,-32],[-24,-18],[-40,-17],[-24,39],[1,15],[-28,74],[4,34],[17,2],[34,-33]],[[45,4845],[-10,21]],[[35,4866],[80,66]],[[115,4932],[17,-45],[-67,-59],[-20,17]],[[2294,6766],[21,-1],[8,-38],[35,-5],[-5,-23],[-20,12],[-37,-23],[-8,14],[-65,-49],[-7,-27],[-58,19],[13,48],[34,3],[49,29],[13,43],[27,-2]],[[2394,6734],[-15,-7],[-34,64],[19,12],[24,-18],[6,-17],[21,-20],[-21,-14]],[[9718,5785],[-46,-6],[0,-9],[-61,-6],[-9,-34],[-22,8],[-27,27],[-33,2],[-5,50],[26,20],[-12,19],[-17,85],[24,2],[45,14],[39,-8],[26,1],[41,45]],[[6415,8093],[24,-20],[-2,-15],[35,-28],[15,-24],[-14,-29],[-16,-11],[-11,6],[-25,37],[-58,-15],[-13,27],[26,18],[6,19],[16,9],[-7,15],[13,22],[11,-11]],[[255,5192],[1,-23],[13,-20]],[[269,5149],[-48,-26],[-15,-17],[-11,-30],[-29,-33],[-27,-10],[-12,-18],[-6,-75],[-6,-8]],[[35,4866],[-35,23],[34,17],[35,44],[21,11],[17,27],[16,50],[42,12],[-51,26],[10,21],[56,19],[16,42],[-17,6],[17,30],[34,-22],[25,20]],[[269,5149],[25,-11],[-5,-27]],[[289,5111],[-3,-46],[-6,-16],[11,-14],[-5,-31],[26,-19],[23,-30],[0,-10],[-29,-15],[-13,-25],[-29,-37],[-34,-56],[-37,-43],[-13,5],[-18,-18],[-35,-18],[31,-54],[29,-32],[4,-43],[-23,2],[-28,96],[-14,-29],[-34,30],[2,6],[-29,39],[-9,-2],[4,31],[-19,41],[4,22]],[[255,5192],[16,59],[-13,14],[12,33],[-4,17],[11,40],[18,30],[9,30],[24,-9],[3,-58],[-9,-43],[16,-11],[37,8],[39,1],[53,9],[11,-34],[17,-31],[-28,-18],[16,-45],[-42,-16],[-25,-5],[5,-19],[-20,-17],[-2,-18],[-21,15],[-33,-14],[-56,1]],[[3549,8098],[46,-10],[41,-33],[-26,-23],[-36,11],[-31,-7],[-20,35],[15,36],[11,-9]],[[9731,264],[14,-23],[36,-29],[52,-53],[22,-9],[20,2],[25,-8],[-3,-38],[-13,-21],[5,-27],[18,-15],[5,16],[26,-7],[-6,-18],[-21,7],[-8,-34],[-22,2],[22,23],[-95,24],[-12,14],[-22,8],[7,24],[-39,9],[-24,30],[-43,-4],[5,57],[-43,18],[8,14],[20,-6],[4,26],[16,-8],[10,26],[11,-2],[7,22],[18,-20]],[[9753,30],[-7,-20],[-23,10],[7,19],[23,-9]],[[9765,61],[0,0]]]}
