{"type":"Topology","bbox":[-74.28274650412874,4.527730988212283,-74.17526486322606,4.614937993623646],"transform":{"scale":[0.000010749239014169081,0.000008721572698406158],"translate":[-74.28274650412874,4.527730988212283]},"objects":{"municipios":{"type":"GeometryCollection","geometries":[{"type":"Polygon","arcs":[[0,1,2,3,4,5]]},{"type":"Polygon","arcs":[[6,7,8,9,10,11]]},{"type":"Polygon","arcs":[[12,13,14,15,16,-8]]},{"type":"Polygon","arcs":[[17,18,19,-16,20,21]]},{"type":"Polygon","arcs":[[-5,22,23,24]]},{"type":"Polygon","arcs":[[-9,-17,-20,25,26,27,28]]},{"type":"Polygon","arcs":[[29,-10,-29,30,31,32]]},{"type":"Polygon","arcs":[[-19,33,-26]]},{"type":"Polygon","arcs":[[-31,-28,34,35,36]]},{"type":"Polygon","arcs":[[37,38,39]]},{"type":"Polygon","arcs":[[40,-38,41,-32,-37,42]]},{"type":"Polygon","arcs":[[43,-39,-41,44,45]]},{"type":"Polygon","arcs":[[-24,46,47,-11,-30,48]]},{"type":"Polygon","arcs":[[-3,49,-12,-48,50]]},{"type":"Polygon","arcs":[[-51,-47,-23,-4]]},{"type":"Polygon","arcs":[[-1,51,52,53,54]]},{"type":"Polygon","arcs":[[55,-53,56,57]]},{"type":"Polygon","arcs":[[58,59,-58,60,61,62]]},{"type":"Polygon","arcs":[[63,-61,-57,-52,-6,-25,-49,-33,-42,-40,-44,64,65]]},{"type":"Polygon","arcs":[[66,-7,-50,67,68]]},{"type":"Polygon","arcs":[[69,-68,-2,70,71]]},{"type":"Polygon","arcs":[[72,73,-69,-70,74,75,76]]},{"type":"Polygon","arcs":[[77,78,-71,-55,79,80]]},{"type":"Polygon","arcs":[[81,82,83,84,-78]]},{"type":"Polygon","arcs":[[-84,85,86,-75,87]]},{"type":"Polygon","arcs":[[88,89,90,-77,91]]},{"type":"Polygon","arcs":[[-88,-72,-79,-85]]},{"type":"Polygon","arcs":[[92,93,94,-13,-67,-74,95]]},{"type":"Polygon","arcs":[[-91,96,97,-96,-73]]},{"type":"Polygon","arcs":[[98,99,100,101]]},{"type":"Polygon","arcs":[[102,103,104,105,-93,-98,106]]},{"type":"Polygon","arcs":[[107,108,109,110,111,-107,-97,112]]},{"type":"Polygon","arcs":[[-103,-112,113,114,115,116,117,118,-14,-95,119,-105,120]]},{"type":"Polygon","arcs":[[121,-117,122]]},{"type":"Polygon","arcs":[[-104,-121]]},{"type":"Polygon","arcs":[[123,124,-99,125,126]]},{"type":"Polygon","arcs":[[127,128,129,130,131,132,-123,-116]]},{"type":"Polygon","arcs":[[-106,-120,-94]]},{"type":"Polygon","arcs":[[133,134,135,136]]},{"type":"Polygon","arcs":[[137,138,139,140,141,142]]},{"type":"Polygon","arcs":[[-136,143,144,-132,145]]},{"type":"Polygon","arcs":[[-134,146,147,148,149,150]]},{"type":"Polygon","arcs":[[-149,151,152,153,154]]},{"type":"Polygon","arcs":[[155,156,157,-124,158,159]]},{"type":"Polygon","arcs":[[160,161,-160,162,163]]},{"type":"Polygon","arcs":[[164,165,-164,166,167]]},{"type":"Polygon","arcs":[[168,-154,169,170]]},{"type":"Polygon","arcs":[[171,-157,172,-171,173,174]]},{"type":"Polygon","arcs":[[175,-100,-125,-158,-172]]},{"type":"Polygon","arcs":[[-140,176,177,178]]},{"type":"Polygon","arcs":[[-179,179,180,-141]]},{"type":"Polygon","arcs":[[181,182,183,184,185,186,187]]},{"type":"Polygon","arcs":[[188,189,190,191,192]]},{"type":"Polygon","arcs":[[193,-189,194,195,196,197,-143]]},{"type":"Polygon","arcs":[[198,-196,199,-184]]},{"type":"Polygon","arcs":[[-194,-142,-181,200,-190]]},{"type":"Polygon","arcs":[[201,-126,-102,202,-197,-199,203,204]]},{"type":"Polygon","arcs":[[-200,-195,-193,205,206,-185]]},{"type":"Polygon","arcs":[[207,-186,-207]]},{"type":"Polygon","arcs":[[-183,208,-204]]},{"type":"Polygon","arcs":[[-209,-182,209,-205]]},{"type":"Polygon","arcs":[[210,211,212,213,-108,214,-89]]},{"type":"Polygon","arcs":[[215,216,217,218,219,220,221]]},{"type":"Polygon","arcs":[[-80,-54,-56,-60,222,223]]},{"type":"Polygon","arcs":[[224,-223,-59,225,226]]},{"type":"Polygon","arcs":[[227,-81,-224,-225,228,229]]},{"type":"Polygon","arcs":[[230,231,232,233,-82,-228]]},{"type":"Polygon","arcs":[[-231,-230,234,-219,235]]},{"type":"Polygon","arcs":[[-235,236,237,238,-220]]},{"type":"Polygon","arcs":[[-229,-227,239,-237]]},{"type":"Polygon","arcs":[[240,241,242,243,244,245]]},{"type":"Polygon","arcs":[[246,247,248,249,250,251,-245]]},{"type":"Polygon","arcs":[[-252,252,-246]]},{"type":"Polygon","arcs":[[253,254,255,256,-249]]},{"type":"Polygon","arcs":[[257,258,259,-255,260]]},{"type":"Polygon","arcs":[[261,262,-261,-254,-248,263]]},{"type":"Polygon","arcs":[[-260,264,265,266,-256]]},{"type":"Polygon","arcs":[[267,268,269,270,-265,-259,271]]},{"type":"Polygon","arcs":[[272,-266,-271,273,274,275,276]]},{"type":"Polygon","arcs":[[277,278,-268,279]]},{"type":"Polygon","arcs":[[280,281,282,283,-269,-279]]},{"type":"Polygon","arcs":[[-270,-284,284,285,286,287,288,-274]]},{"type":"Polygon","arcs":[[289,290,291,292]]},{"type":"Polygon","arcs":[[293,294]]},{"type":"Polygon","arcs":[[295,296,-292,297]]},{"type":"Polygon","arcs":[[298,299,300,-296,301,302]]},{"type":"Polygon","arcs":[[-291,303,-302,-298]]},{"type":"Polygon","arcs":[[304,305,-303,-304]]},{"type":"Polygon","arcs":[[306,307,308]]},{"type":"Polygon","arcs":[[309,310,311,-299,-306,312]]},{"type":"Polygon","arcs":[[313,314,315,316,-311]]},{"type":"Polygon","arcs":[[317,-316,318,319]]},{"type":"Polygon","arcs":[[320,321,322,323,324,325]]},{"type":"Polygon","arcs":[[326,327,-285,-283]]},{"type":"Polygon","arcs":[[328,329,330,331,332,333]]},{"type":"Polygon","arcs":[[334,335,336,-329,337,338]]},{"type":"Polygon","arcs":[[339,340,-339,341]]},{"type":"Polygon","arcs":[[342,-331,343,344,-242,345]]},{"type":"Polygon","arcs":[[-337,346,347,348,-344,-330]]},{"type":"Polygon","arcs":[[-341,349,350,351,-335]]},{"type":"Polygon","arcs":[[352,353,354,-350,-340,355]]},{"type":"Polygon","arcs":[[-238,-240,-226,356,357,358]]},{"type":"Polygon","arcs":[[-221,-239,-359,359,360,361]]},{"type":"Polygon","arcs":[[362,-222,-362,363,-322]]},{"type":"Polygon","arcs":[[-364,-361,364,-323]]},{"type":"Polygon","arcs":[[365,366,367,-326,368]]},{"type":"Polygon","arcs":[[369,-216,-363,-321,-368]]},{"type":"Polygon","arcs":[[370,371,372,-324,-365,-360,-358,373,374]]},{"type":"Polygon","arcs":[[-355,375,376,377,378,379,380,-351]]},{"type":"Polygon","arcs":[[381,-375,-280,-272,-258,-263]]},{"type":"Polygon","arcs":[[382,383,384,-264,-247,-244]]},{"type":"Polygon","arcs":[[-379,385,386,-372,387,388]]},{"type":"Polygon","arcs":[[-385,389,-388,-371,-382,-262]]},{"type":"Polygon","arcs":[[390,391,392,-386,-378]]},{"type":"Polygon","arcs":[[-349,393,-383,-243,-345]]},{"type":"Polygon","arcs":[[394,395,-376,-354,396,397,398]]},{"type":"Polygon","arcs":[[399,-399,400]]},{"type":"Polygon","arcs":[[401,402,403,-327,-282]]},{"type":"Polygon","arcs":[[404,405,406,407,-395,-400]]},{"type":"Polygon","arcs":[[-396,-408,408,409,-391,-377]]},{"type":"Polygon","arcs":[[410,-409,-407,411]]},{"type":"Polygon","arcs":[[-286,-328,-404,412,413]]},{"type":"Polygon","arcs":[[-403,414,415,416,-413]]},{"type":"Polygon","arcs":[[-393,417,418,-293,-297,-301,419,420,-387]]},{"type":"Polygon","arcs":[[-411,421,422,423,-309,424,-418,-392,-410]]},{"type":"Polygon","arcs":[[425,426,427,428,-288]]},{"type":"Polygon","arcs":[[429,430,431,-427]]},{"type":"Polygon","arcs":[[432,433,-431]]},{"type":"Polygon","arcs":[[-278,-374,-357,-63,434,435,436]]},{"type":"Polygon","arcs":[[-436,437,438,-415,439]]},{"type":"Polygon","arcs":[[-281,-437,-440,-402]]},{"type":"Polygon","arcs":[[-438,-435,-62,-64,440]]},{"type":"Polygon","arcs":[[-21,-15,-119,441,442,443,444]]},{"type":"Polygon","arcs":[[445,-443,446]]},{"type":"Polygon","arcs":[[-27,-34,-18,447,448,449,-35]]},{"type":"Polygon","arcs":[[-445,450,451,452,453,-448,-22]]},{"type":"Polygon","arcs":[[-145,454,-165,455,-447,-442,-118,-122,-133]]},{"type":"Polygon","arcs":[[-446,-456,-168,456,-451,-444]]},{"type":"Polygon","arcs":[[-452,-457,-167,-163,-159,-127,-202,-210,-188,457]]},{"type":"Polygon","arcs":[[458,459,460,461]]},{"type":"Polygon","arcs":[[-460,462,463]]},{"type":"Polygon","arcs":[[464]]},{"type":"Polygon","arcs":[[465]]},{"type":"Polygon","arcs":[[-381,466,-347,-336,-352]]},{"type":"Polygon","arcs":[[-394,-348,-467,-380,-389,-390,-384]]},{"type":"Polygon","arcs":[[467,468,469,-294,470,471,472]]},{"type":"Polygon","arcs":[[-129,473,474]]},{"type":"Polygon","arcs":[[-43,-36,-450,475,476,477,-45]]},{"type":"Polygon","arcs":[[-211,-92,-76,-87,478]]},{"type":"Polygon","arcs":[[479,-473,480,481,-114,-111]]},{"type":"Polygon","arcs":[[482,483,-474,-128,-115,-482]]},{"type":"Polygon","arcs":[[484,485,486,-468,-480,-110]]},{"type":"Polygon","arcs":[[487,-486,488]]},{"type":"Polygon","arcs":[[489,-469,-487,-488]]},{"type":"Polygon","arcs":[[490,491,492,493]]},{"type":"Polygon","arcs":[[494,-150,-155,-169,-173,-156,-162]]},{"type":"Polygon","arcs":[[-144,-135,-151,-495,-161,-166,-455]]},{"type":"Polygon","arcs":[[-174,-170,-153,495,496,497,498,-177,-139,499]]},{"type":"Polygon","arcs":[[-175,-500,-138,-198,-203,-101,-176]]},{"type":"Polygon","arcs":[[500,501,-191,-201,-180,-178,-499]]},{"type":"Polygon","arcs":[[-498,502,503,504,505,-501]]},{"type":"Polygon","arcs":[[506,507,508,-212,-479,-86,-83,-234]]},{"type":"Polygon","arcs":[[-113,-90,-215]]},{"type":"Polygon","arcs":[[-232,-236,-218,509]]},{"type":"Polygon","arcs":[[510,-213,-509,511,-507,-233,-510,-217,-370,-367]]},{"type":"Polygon","arcs":[[-508,-512]]},{"type":"Polygon","arcs":[[512,-493,513]]},{"type":"Polygon","arcs":[[514,515,516,-250,-257,-267,-273,517,-494,-513,518]]},{"type":"Polygon","arcs":[[519,520,-516,521]]},{"type":"Polygon","arcs":[[-332,-343,522,-520,523]]},{"type":"Polygon","arcs":[[-523,-346,-241,-253,-251,-517,-521]]},{"type":"Polygon","arcs":[[-276,524,525,526]]},{"type":"Polygon","arcs":[[-491,-518,-277,-527,527]]},{"type":"Polygon","arcs":[[-313,-305,-290,-419,-425,-308,528]]},{"type":"Polygon","arcs":[[529,-314,-310,-529,-307,-424,530]]},{"type":"Polygon","arcs":[[531,532,-319,-315,-530,533]]},{"type":"Polygon","arcs":[[-320,-533,534]]},{"type":"Polygon","arcs":[[535,536]]},{"type":"Polygon","arcs":[[-429,537,-525,-275,-289]]},{"type":"Polygon","arcs":[[-536,538,-534,-531,-423,539,540]]},{"type":"Polygon","arcs":[[-333,-524,-522,-515,541]]},{"type":"Polygon","arcs":[[-353,542,-397]]},{"type":"Polygon","arcs":[[-421,543,-369,-325,-373]]},{"type":"Polygon","arcs":[[544,-540,-422,-412,-406]]},{"type":"Polygon","arcs":[[-426,-287,-414,-417,545,-433,-430]]},{"type":"Polygon","arcs":[[-416,-439,-441,-66,546,547]]},{"type":"Polygon","arcs":[[-65,-46,-478,548,-547]]},{"type":"Polygon","arcs":[[-476,-449,-454,549]]},{"type":"Polygon","arcs":[[550,-463,-459,551,-504]]},{"type":"Polygon","arcs":[[552,-505,-552,-462,553,-496,-152,-148,554]]},{"type":"Polygon","arcs":[[-554,-461,-464,-551,-503,-497]]},{"type":"Polygon","arcs":[[-555,-147,-137,-146,-131,555]]},{"type":"Polygon","arcs":[[-472,556,-483,-481]]},{"type":"Polygon","arcs":[[557]]}]}},"arcs":[[[6553,6519],[28,-152],[0,-15],[25,-51]],[[6606,6301],[-135,-90],[-123,-85]],[[6348,6126],[-10,9],[-10,45]],[[6328,6180],[74,45],[-16,89],[-9,8],[-37,230]],[[6340,6552],[144,38]],[[6484,6590],[14,-87],[55,16]],[[6135,6043],[-148,-93],[-9,0]],[[5978,5950],[-19,70],[-40,168],[-7,4],[-25,107],[5,7]],[[5892,6306],[-17,107]],[[5875,6413],[167,51]],[[6042,6464],[-2,-7],[21,-101]],[[6061,6356],[32,-137],[30,-118],[12,-58]],[[5978,5950],[-95,-60],[-76,-43]],[[5807,5847],[-111,-67],[-83,-72],[-42,-19]],[[5571,5689],[16,38],[52,168]],[[5639,5895],[24,77],[34,129]],[[5697,6101],[32,17],[-27,125],[95,42],[12,-7],[83,28]],[[5428,6287],[3,0]],[[5431,6287],[62,-22],[18,-18]],[[5511,6247],[50,-50],[55,-67],[23,-20],[37,-10],[21,1]],[[5639,5895],[-106,0],[-35,-5],[-101,3]],[[5397,5893],[9,122],[12,118],[10,154]],[[6340,6552],[-123,-34]],[[6217,6518],[-33,156]],[[6184,6674],[56,-5],[-18,105],[132,33],[127,-1],[0,-143],[3,-73]],[[5511,6247],[16,11],[2,27],[21,46],[18,26],[-7,32],[8,43],[-10,42]],[[5559,6474],[-17,50],[-23,92]],[[5519,6616],[12,36],[24,42],[47,37],[23,1],[55,22],[52,13],[89,15]],[[5821,6782],[22,-116],[3,-55],[29,-198]],[[6006,6810],[16,-91],[-22,-3],[23,-144],[21,-101],[-2,-7]],[[5821,6782],[-1,7]],[[5820,6789],[116,24]],[[5936,6813],[6,-13],[64,10]],[[5431,6287],[4,67],[32,106],[5,-1],[15,50],[18,-12],[54,-23]],[[5519,6616],[-9,14],[-22,188],[-1,111],[-30,89],[-47,109],[-47,98]],[[5363,7225],[53,-8],[7,95]],[[5423,7312],[98,-4],[-6,-78],[0,-49],[-16,-4],[-1,-70],[3,-106],[95,6],[4,-44],[75,-11],[6,-21],[20,21],[74,-89],[12,-32],[14,0],[19,-42]],[[5935,6817],[-12,114],[-2,37],[-23,14],[-1,33],[22,57],[-88,10],[16,209]],[[5847,7291],[157,-16],[168,-15]],[[6172,7260],[-13,-379],[-4,-11],[-98,-22],[-38,-20],[-84,-11]],[[5695,7393],[-9,-86],[161,-16]],[[5935,6817],[1,-4]],[[5423,7312],[6,102],[167,-11],[99,-10]],[[6155,7898],[16,-66],[8,-152],[-6,-277],[-1,-143]],[[5695,7393],[26,468],[-2,70]],[[5719,7931],[111,-8],[73,8],[33,-10],[90,2],[59,-7],[70,-18]],[[6217,6518],[-107,-33],[23,-107]],[[6133,6378],[-72,-22]],[[6006,6810],[76,22],[72,15],[29,-152],[1,-21]],[[6348,6126],[-209,-142],[7,20],[-11,39]],[[6133,6378],[74,21],[30,-124],[29,-135],[62,40]],[[6553,6519],[-14,83],[25,9],[101,26],[-14,84],[24,7],[38,129],[25,-11]],[[6738,6846],[-36,-107],[12,-81],[23,-124],[27,-130]],[[6764,6404],[-6,-3]],[[6758,6401],[-52,-32],[-100,-68]],[[6828,6444],[-64,-40]],[[6738,6846],[74,-45]],[[6812,6801],[1,-112],[7,-33],[-35,13],[43,-225]],[[7077,6594],[-222,-134]],[[6855,6460],[-27,-16]],[[6812,6801],[15,-4]],[[6827,6797],[53,-13],[79,-31],[36,-24]],[[6995,6729],[-29,-68],[70,-49],[41,-18]],[[6930,7534],[34,-89],[59,-114],[2,-18],[-12,-67],[-15,-38],[-35,-110],[-84,-126],[-20,-94],[-32,-81]],[[6155,7898],[6,-2]],[[6161,7896],[27,-9],[189,-175],[63,-182],[151,-233],[12,-6],[60,39],[247,170],[20,34]],[[6136,5790],[-79,66],[-31,32],[-28,19],[-20,43]],[[6348,6126],[10,-9],[44,-88]],[[6402,6029],[-27,-21],[-80,-79],[-117,-105],[-42,-34]],[[6512,5856],[-80,113],[-30,60]],[[6606,6301],[9,-12],[22,-95],[37,-135]],[[6674,6059],[-67,-76],[-40,-51],[-16,-27],[-39,-49]],[[6256,5515],[-41,137],[-38,69]],[[6177,5721],[-41,69]],[[6512,5856],[-53,-68]],[[6459,5788],[-24,-30],[-79,-117]],[[6356,5641],[-97,-130],[-3,4]],[[6914,5969],[-47,-29],[-17,41],[-74,-37],[-14,7],[-57,-18]],[[6705,5933],[-31,126]],[[6758,6401],[29,-134],[59,-142]],[[6846,6125],[38,-101],[30,-55]],[[6914,5969],[45,-85],[63,-163]],[[7022,5721],[-182,-50],[27,-93],[-50,-20],[29,-84],[-128,20]],[[6718,5494],[5,102],[11,136]],[[6734,5732],[0,67],[-29,134]],[[6718,5494],[-1,-20],[-44,0]],[[6673,5474],[-8,16],[-36,33],[15,13],[-48,56],[-137,196]],[[6512,5856],[63,-88],[51,-75],[38,47],[70,-8]],[[6516,5468],[-25,-22],[31,-56]],[[6522,5390],[-114,-50],[11,-28],[-11,0],[-34,-92]],[[6374,5220],[-66,131],[-52,164]],[[6356,5641],[22,-69],[43,-44],[95,-60]],[[5997,5565],[-37,-29],[-29,-44]],[[5931,5492],[-42,41],[25,59],[-5,13],[-19,-11],[-64,153],[6,27]],[[5832,5774],[-25,73]],[[6177,5721],[-79,-64],[-101,-92]],[[6374,5220],[-35,-46],[-27,-46]],[[6312,5128],[-133,173],[-82,119],[-64,88],[-36,57]],[[4081,5382],[21,-140]],[[4102,5242],[-82,-19],[-102,-19]],[[3918,5204],[-67,145]],[[3851,5349],[-16,39],[134,28],[8,-58],[104,24]],[[6161,5151],[-52,65]],[[6109,5216],[-183,227]],[[5926,5443],[-14,19]],[[5912,5462],[19,30]],[[6312,5128],[-34,-78],[-41,14],[-24,23],[-52,64]],[[6503,4951],[54,-78],[95,-62],[20,-37],[13,-60],[54,-28],[17,-62]],[[6756,4624],[7,-110],[0,-64],[19,-33],[-38,-109],[6,-63],[14,-22],[11,8],[21,46],[65,-10],[-26,-41],[-20,-20],[7,-17],[-11,-24],[15,-48],[-40,14],[15,-46],[-7,-44],[-82,-18],[-24,-44]],[[6688,3979],[-30,-18],[-28,-9],[-40,15],[-126,90],[-31,26],[-30,52],[-94,189]],[[6309,4324],[-27,77],[-68,219],[-18,40],[-26,11],[-31,-12],[-99,-60]],[[6040,4599],[-20,38],[1,31],[10,31],[38,60],[30,34],[26,50],[-16,20],[-22,58],[-26,23],[96,205],[4,2]],[[6374,5220],[53,-92],[8,-68],[68,-109]],[[6040,4599],[19,-35],[26,-61],[-63,-53],[-72,-85],[-27,-9],[-30,0],[-20,-21]],[[5873,4335],[-46,35]],[[5827,4370],[-9,29],[-40,96],[0,25],[10,45],[-11,66],[13,-4],[1,31],[-29,80],[-26,85],[3,46],[10,4],[32,-18],[22,12],[-80,158],[-19,51],[-47,10],[-46,27],[-23,29]],[[5588,5142],[-23,30],[-4,74],[1,60],[-42,126],[-30,76]],[[5490,5508],[52,65],[0,48]],[[5542,5621],[29,68]],[[5832,5774],[-117,-80],[40,-99],[55,-56],[67,-46],[35,-31]],[[5926,5443],[-99,-149],[38,-32],[57,-66],[15,-34],[38,-126],[6,-29],[128,209]],[[5281,5055],[59,144],[86,186],[64,123]],[[5588,5142],[-127,-84],[-13,-15],[-100,76],[-67,-64]],[[4379,5305],[-163,-37]],[[4216,5268],[-114,-26]],[[4081,5382],[236,54],[27,4],[7,16]],[[4351,5456],[5,-13],[23,-138]],[[5827,4370],[-2,-30],[-29,-130],[11,-52]],[[5807,4158],[1,-29],[-259,-161]],[[5549,3968],[2,29],[-27,4],[-55,-78],[-36,-23]],[[5433,3900],[-105,79],[-145,92],[-149,92]],[[5034,4163],[7,20],[32,125],[62,243]],[[5135,4551],[94,360],[20,63],[32,81]],[[4902,3938],[-25,23],[-94,61],[-22,-54],[-62,244]],[[4699,4212],[-24,123],[3,74]],[[4678,4409],[109,-15],[7,-4],[-10,-77],[-31,-75],[33,-23],[214,-126]],[[5000,4089],[-12,-24],[-86,-127]],[[3759,5327],[80,-172]],[[3839,5155],[-7,4],[-141,-25],[11,-86],[-64,-49],[-27,-28],[-37,-28],[-23,-10],[-42,25]],[[3509,4958],[0,112],[-4,35],[11,89]],[[3516,5194],[18,111],[-105,58]],[[3429,5363],[7,24],[123,-68]],[[3559,5319],[78,-17],[122,25]],[[4678,4409],[14,250],[73,-23]],[[4765,4636],[50,-17],[113,-25],[155,-29],[52,-14]],[[5034,4163],[-34,-74]],[[4902,3938],[-82,-124],[-53,-76]],[[4767,3738],[-37,18],[-153,57]],[[4577,3813],[3,323],[-36,1],[1,43]],[[4545,4180],[37,-13],[48,5]],[[4630,4172],[69,40]],[[4577,3813],[-258,85]],[[4319,3898],[-3,196]],[[4316,4094],[-3,156]],[[4313,4250],[6,5],[226,-75]],[[4432,4791],[-5,5],[-53,0],[0,-54],[-152,-2]],[[4222,4740],[-1,40]],[[4221,4780],[-2,64],[-3,158],[0,72],[-2,144],[2,50]],[[4379,5305],[30,9]],[[4409,5314],[12,-126],[6,-102],[5,-240],[0,-55]],[[4593,4902],[-3,-37],[-2,-116],[3,-22]],[[4591,4727],[-17,-2],[-143,2],[1,64]],[[4409,5314],[1,9],[61,37],[38,9]],[[4509,5369],[0,-19],[-16,-8],[3,-21],[29,-10],[-9,-25],[-1,-30],[11,-64],[-2,-15],[26,-70],[16,1],[24,-139],[9,-37],[-6,-30]],[[4810,4960],[-8,-51],[-16,5],[-107,-8]],[[4679,4906],[-86,-4]],[[4509,5369],[-18,48],[-25,46],[-15,15],[165,37],[21,15]],[[4637,5530],[19,-95],[109,-419],[17,-81],[28,25]],[[4229,4463],[1,-132],[2,-50],[-7,-3],[88,-28]],[[4316,4094],[-123,43],[-2,27],[-54,302]],[[4137,4466],[4,-4],[88,1]],[[4106,4778],[115,2]],[[4222,4740],[1,-94],[4,-6],[2,-177]],[[4137,4466],[-19,110],[-8,32],[-67,148]],[[4043,4756],[47,25],[16,-3]],[[4106,4778],[-60,141],[-128,285]],[[3509,4958],[-10,-2],[-65,79]],[[3434,5035],[-206,250],[26,82]],[[3254,5367],[45,-21],[106,-57],[-33,-91],[54,-26],[15,44],[2,20],[73,-42]],[[3254,5367],[29,81]],[[3283,5448],[1,-6],[145,-79]],[[4163,5806],[-130,-68]],[[4033,5738],[-21,96],[-31,102],[-19,-10],[-145,-41],[1,-251],[-1,-3]],[[3817,5631],[-85,0]],[[3732,5631],[-92,3],[1,205],[92,0],[-2,241]],[[3731,6080],[99,27]],[[3830,6107],[241,69]],[[4071,6176],[30,-115],[38,-131],[24,-124]],[[3570,5621],[-5,-149]],[[3565,5472],[-67,3],[-3,6],[-166,90],[-134,10],[-11,-44],[-17,2]],[[3167,5539],[-84,43],[-26,-2]],[[3057,5580],[0,16]],[[3057,5596],[58,38],[48,6],[133,-9],[121,-7],[36,2],[117,-5]],[[3559,5319],[5,88],[1,65]],[[3570,5621],[162,-7]],[[3732,5614],[1,-13],[-47,-63],[-65,-70],[-2,-68],[190,-9]],[[3809,5391],[-1,-53]],[[3808,5338],[-49,-11]],[[3817,5631],[-6,-16],[-2,-224]],[[3732,5614],[0,17]],[[3283,5448],[-124,70],[8,21]],[[4230,5512],[83,20],[38,-76]],[[3851,5349],[-43,-11]],[[3817,5631],[6,-6],[151,80]],[[3974,5705],[4,-6],[18,-98],[7,-77],[14,-95],[216,53],[-3,30]],[[3057,5596],[-11,62],[-44,57],[-95,50],[-61,26],[58,30],[191,88]],[[3095,5909],[36,11],[139,34],[174,46],[287,80]],[[3095,5909],[-18,58],[22,13],[24,36],[25,24],[37,16],[19,0],[40,31],[65,70],[35,59],[23,18],[41,56],[9,29],[28,46],[19,68],[3,67],[-2,83],[8,9],[8,75],[-24,75],[-17,33],[4,10],[26,-39],[60,-107],[69,-84],[25,-16],[129,-30],[36,-41],[18,-177],[23,-184]],[[4033,5738],[-59,-33]],[[4163,5806],[28,-44],[27,-32],[26,-54],[-38,-12],[2,-59],[22,-93]],[[6516,5468],[15,-9],[24,-86]],[[6555,5373],[2,-5],[160,-188],[47,-62],[14,-62],[14,-9],[25,8],[37,-13],[12,-23],[36,-85],[18,-13]],[[6920,4921],[6,-46]],[[6926,4875],[1,-30],[-105,-204],[-22,-24],[-27,-4],[-17,11]],[[6503,4951],[31,40],[69,76],[-6,64],[-22,122],[-17,74],[-36,63]],[[7425,5983],[-17,-10],[-79,-100]],[[7329,5873],[-24,-32]],[[7305,5841],[-52,58],[-60,60]],[[7193,5959],[-59,66]],[[7134,6025],[82,47],[28,-65],[108,89]],[[7352,6096],[52,-87]],[[7404,6009],[21,-26]],[[6855,6460],[49,-90],[9,-3],[102,-163]],[[7015,6204],[-83,-43],[-86,-36]],[[7078,6160],[-63,44]],[[7077,6594],[15,-19],[77,-39],[23,-29],[70,-182]],[[7262,6325],[-154,-93],[-30,-72]],[[6998,5969],[-28,27],[-17,-23],[-12,14],[-27,-18]],[[7078,6160],[24,-52]],[[7102,6108],[-39,-30],[-54,-64],[-11,-45]],[[6998,5969],[5,-28],[15,-24],[81,-89]],[[7099,5828],[-16,-23],[37,-44],[56,-83],[0,-17]],[[7176,5661],[-90,-73]],[[7086,5588],[-30,105],[-18,-14],[-16,42]],[[7102,6108],[32,-83]],[[7193,5959],[-94,-131]],[[7102,6108],[198,119]],[[7300,6227],[22,-58]],[[7322,6169],[30,-73]],[[7262,6325],[38,-98]],[[8916,6547],[-8,-42]],[[8908,6505],[10,-54],[18,-33]],[[8936,6418],[-14,-31]],[[8922,6387],[-40,60],[-23,26],[-9,-17],[-24,36],[-18,7],[-39,43],[-33,5],[5,46],[-60,12]],[[8681,6605],[9,79],[10,-3],[5,37],[32,35]],[[8737,6753],[147,-242],[11,4],[21,32]],[[8681,6605],[-9,-4],[-16,-116],[-85,16]],[[8571,6501],[15,86]],[[8586,6587],[15,59],[34,246]],[[8635,6892],[2,-3]],[[8637,6889],[49,-61]],[[8686,6828],[51,-75]],[[8686,6828],[37,52],[13,50],[20,21],[18,2],[32,-23],[76,-189],[66,-127],[1,-10],[-33,-57]],[[8586,6587],[-29,69],[-126,260]],[[8431,6916],[-81,173]],[[8350,7089],[123,92]],[[8473,7181],[72,-146],[25,-56],[33,-48],[32,-39]],[[8340,6846],[-198,419]],[[8142,7265],[102,63]],[[8244,7328],[84,-193],[22,-46]],[[8431,6916],[-91,-70]],[[8555,6394],[-101,214]],[[8454,6608],[-114,238]],[[8571,6501],[-16,-107]],[[8244,7328],[45,28]],[[8289,7356],[77,47]],[[8366,7403],[107,-222]],[[8093,7235],[-38,105],[-79,186]],[[7976,7526],[-63,156],[1,4]],[[7914,7686],[63,158]],[[7977,7844],[104,14],[36,-92],[52,-122],[97,-241],[23,-47]],[[8142,7265],[-49,-30]],[[8427,7440],[-61,-37]],[[7977,7844],[-38,19],[52,133]],[[7991,7996],[3,1]],[[7994,7997],[139,9],[82,9],[111,5]],[[8326,8020],[-22,-144],[100,-386],[-41,-24],[64,-26]],[[7900,7107],[-30,45]],[[7870,7152],[35,20],[-10,20],[-89,213],[-8,7],[178,114]],[[8093,7235],[-141,-96],[-52,-32]],[[7870,7152],[-181,98]],[[7689,7250],[20,21],[83,205]],[[7792,7476],[89,218]],[[7881,7694],[10,6],[23,-14]],[[7881,7694],[-27,10],[-228,69]],[[7626,7773],[-26,9]],[[7600,7782],[22,55],[24,-16],[12,29],[-45,23],[18,87],[28,3],[2,9]],[[7661,7972],[36,6],[47,-4],[137,13]],[[7881,7987],[110,9]],[[8850,4832],[4,-14],[61,-94],[13,-43],[9,-58],[13,-47],[32,-40],[5,-24],[-29,-59],[-19,-17]],[[8939,4436],[-21,29],[-37,23],[-29,-7],[-87,21],[-16,8]],[[8749,4510],[18,122],[1,40],[-45,83]],[[8723,4755],[12,40],[37,32],[32,7],[33,-10],[13,8]],[[6171,3327],[36,15],[52,6],[-8,38],[15,3]],[[6266,3389],[2,-26],[18,-80],[3,-53],[9,-4],[22,-55],[10,3],[13,-49],[-4,-21],[-25,-9],[1,-31],[-17,-22],[-2,-28],[-11,-5],[-11,25],[-39,64],[-22,102],[-20,78],[-22,49]],[[8557,4202],[-61,106],[-5,4]],[[8491,4312],[35,33],[11,19],[-4,24],[9,30],[20,36],[45,31],[18,20],[41,11],[17,18],[48,103],[2,29],[-10,41],[0,48]],[[8749,4510],[-2,-19],[-75,-122],[-70,-103],[-26,-43],[-19,-21]],[[8712,4010],[26,-56],[-7,-8]],[[8731,3946],[-49,1],[-66,-24],[-19,43],[-23,12],[-48,-11],[-23,27],[7,21],[-22,-20],[-99,-4],[-20,5],[1,19],[25,39],[11,55]],[[8406,4109],[33,59],[33,81],[19,63]],[[8557,4202],[46,-84]],[[8603,4118],[33,-59],[36,48],[19,-4],[1,-40],[20,-53]],[[8939,4436],[-24,1],[-27,-9],[-68,-47],[-29,-25],[-9,7],[-69,-59],[-110,-186]],[[8939,4436],[6,-76],[-11,-54],[-19,-31],[-37,-44],[-7,-16]],[[8871,4215],[-8,-20],[-113,-97],[-38,-88]],[[9286,4712],[12,-36],[8,-43],[-4,-28],[-18,-54],[-1,-46],[-23,-136],[-15,-26],[-91,181],[10,22],[23,88],[-8,7]],[[9179,4641],[-30,73]],[[9149,4714],[21,-11],[48,-3],[68,12]],[[9000,4203],[-5,-76]],[[8995,4127],[-25,-59],[-19,-80],[-14,-29],[4,-9]],[[8941,3950],[-67,-1],[-30,-8],[-38,-57],[-39,-9],[-8,5],[-28,66]],[[8871,4215],[11,-22],[14,-4],[65,28],[19,4],[20,-18]],[[8995,4127],[17,-28],[53,13],[37,-70],[20,16]],[[9122,4058],[43,31]],[[9165,4089],[69,-142]],[[9234,3947],[-72,-15],[-67,-48],[-30,-14],[-16,10],[-22,50],[-24,34],[-22,2],[-40,-16]],[[9433,3999],[-22,26],[-20,5],[-27,-35],[-23,-42],[-27,-13],[-51,8],[-29,-1]],[[9165,4089],[91,16],[38,25],[6,18],[45,30]],[[9345,4178],[88,-179]],[[7632,5715],[10,12],[-30,87],[-41,52],[-27,15]],[[7544,5881],[148,84]],[[7692,5965],[232,132]],[[7924,6097],[66,-179]],[[7990,5918],[-143,-82]],[[7847,5836],[-215,-121]],[[7792,7476],[-25,9],[-192,60]],[[7575,7545],[26,125],[25,103]],[[9512,6486],[-144,-76],[-106,-66]],[[9262,6344],[-58,112]],[[9204,6456],[-12,27]],[[9192,6483],[101,58],[15,12],[25,62]],[[9333,6615],[20,29],[22,-56],[125,67]],[[9500,6655],[5,-41],[2,-75],[5,-53]],[[9379,6144],[-32,40],[-4,14],[-18,-5]],[[9325,6193],[-26,54],[-36,63]],[[9263,6310],[8,4],[-9,30]],[[9512,6486],[14,-80],[18,-148]],[[9544,6258],[-123,-63],[-9,1],[6,-39],[-39,-13]],[[9560,6007],[-51,-25],[-70,-28],[-21,-17]],[[9418,5937],[-32,69],[-25,-15],[-51,104],[70,46],[-1,3]],[[9544,6258],[11,-121],[-15,-11],[15,-54],[5,-65]],[[9182,6510],[10,-27]],[[9204,6456],[-12,-20],[-45,-29],[-37,32],[-17,3],[-40,-55],[-66,-62]],[[8987,6325],[-51,93]],[[8908,6505],[38,21],[27,41],[1,36],[10,9],[26,-55],[64,-33],[46,6],[56,-26],[6,6]],[[9263,6310],[-16,26],[-95,-68],[-11,-15],[-120,-113],[-4,-11],[-20,19],[-14,-26]],[[8983,6122],[-25,21],[-19,6]],[[8939,6149],[21,52],[-18,13],[34,77],[11,34]],[[9418,5937],[-24,-58],[-72,29],[-21,-67]],[[9301,5841],[-27,24],[-8,51],[-18,-33],[-23,22],[-63,49],[-15,-14],[-16,3],[-24,22],[16,29]],[[9123,5994],[43,40],[-20,24],[72,70],[38,51],[17,-22],[52,36]],[[9576,5883],[-61,-32],[-17,-42],[-26,-97]],[[9472,5712],[-40,32]],[[9432,5744],[-131,97]],[[9560,6007],[3,-34],[13,-90]],[[7077,6594],[50,31],[269,162]],[[7396,6787],[28,-70],[17,-3],[149,-395]],[[7590,6319],[-138,-80],[-130,-70]],[[7590,6319],[210,122],[62,-170]],[[7862,6271],[-234,-136]],[[7628,6135],[-176,-101],[-48,-25]],[[7544,5881],[-69,52],[-50,50]],[[7628,6135],[64,-170]],[[7862,6271],[58,-160],[4,-14]],[[8096,5314],[-29,20],[-108,22],[-39,4],[-20,10],[-39,4],[-51,13],[-28,2],[-49,-6],[-22,6],[-24,32],[-59,-1],[-14,15],[-31,6],[-69,-8]],[[7514,5433],[-23,9],[24,49],[16,4],[13,31],[-25,88],[-14,15],[6,22]],[[7511,5651],[3,-4],[118,68]],[[7847,5836],[106,-287],[33,-85],[12,6],[46,-9],[2,-42],[54,-68],[-4,-37]],[[7511,5651],[-20,43],[-164,173],[2,6]],[[8210,6469],[50,-89],[20,-51],[43,-152],[33,-22],[15,-27],[3,-25],[-15,-50],[67,-256],[28,-99],[1,-12]],[[8455,5686],[-10,-48],[-25,-64]],[[8420,5574],[-107,78],[-6,16],[-65,-25],[-102,-33],[-26,-20],[-124,328]],[[7396,6787],[77,46],[427,274]],[[7900,7107],[31,-37],[30,-48],[74,-182],[17,-46],[16,6],[32,-104],[36,-86],[74,-141]],[[9432,5744],[-72,-110],[-38,-79]],[[9322,5555],[-21,1],[-2,24],[-13,14],[-23,-21],[-57,-67]],[[9206,5506],[-21,46],[-49,-24],[-48,48],[-36,20],[-41,45]],[[9011,5641],[-71,87],[-38,28]],[[8902,5756],[34,47],[5,21],[-3,52],[49,16],[16,23],[-11,28],[20,19],[26,-16],[14,13],[-16,21],[-21,68],[-11,15],[-7,47]],[[8997,6110],[126,-116]],[[8454,6608],[-244,-139]],[[8922,6387],[-8,-23],[-48,-30],[-42,30],[-1,-37],[40,-37],[-9,-30],[-46,-70]],[[8808,6190],[-26,42],[-43,46],[-54,8],[-18,-34]],[[8667,6252],[-41,32],[-3,18],[31,30],[-17,16],[-43,-9],[-43,35],[4,20]],[[9011,5641],[-98,-110],[23,-32],[0,-35],[-34,-20],[-13,19],[-42,-43],[3,-49],[-5,-30],[9,-37],[-4,-22],[25,-25]],[[8875,5257],[-52,-16],[-33,26],[-47,44],[-29,57],[-17,22],[-52,38],[-6,-11],[-58,45],[-69,47],[-17,6],[-75,59]],[[8455,5686],[8,6],[129,-21],[47,-12],[41,13],[28,-1],[20,9],[76,158],[27,66]],[[8831,5904],[8,-45],[-4,-52],[27,-4],[40,-47]],[[8667,6252],[-15,-69],[36,-58],[-6,-32],[13,-11],[24,-97],[4,-43],[108,-38]],[[9206,5506],[16,-30],[-37,-27],[-49,17],[-28,-64]],[[9108,5402],[-1,-12],[-23,-22],[-32,-3],[-39,11],[-27,-63],[-10,-3],[-53,-101]],[[8923,5209],[-48,48]],[[8939,6149],[-21,-47],[-26,18],[-7,-14],[-27,0],[-50,84]],[[9708,5549],[-38,-6],[-35,-29],[-58,-14],[-77,11],[-23,17]],[[9477,5528],[-17,22],[-50,18],[-52,3],[-36,-16]],[[9472,5712],[23,-36],[34,-22],[23,-2],[59,9]],[[9611,5661],[53,15],[45,40],[47,32],[39,-52]],[[9795,5696],[-15,-28],[-59,-83],[-13,-36]],[[9929,5497],[-44,-6],[-7,66],[-87,-7],[-83,-1]],[[9795,5696],[126,-119],[8,-80]],[[7689,7250],[-71,38],[-57,26],[-42,41]],[[7519,7355],[2,12]],[[7521,7367],[19,-1],[11,62],[24,117]],[[9929,5497],[0,-26],[69,-7],[1,-15],[-32,-264]],[[9967,5185],[-60,15],[-61,10],[-50,-1],[-82,7],[-102,4]],[[9612,5220],[16,116],[-100,-1],[-41,-17]],[[9487,5318],[-29,19],[10,85],[9,106]],[[9487,5318],[-132,-42]],[[9355,5276],[-64,30],[-68,13],[-21,9],[-59,46],[-18,24],[-17,4]],[[9650,4889],[-9,15],[-64,61],[12,16],[-44,91],[-30,55],[-51,58],[-109,91]],[[9612,5220],[32,-74],[47,-84],[-41,-173]],[[7521,7367],[24,133],[-26,12],[-74,17],[-18,39],[-5,46],[7,109],[18,76]],[[7447,7799],[144,-46],[9,29]],[[7519,7355],[-57,27],[-216,114],[-17,11]],[[7229,7507],[-18,27],[-6,37],[17,122],[22,92],[15,90],[13,98],[26,173],[-6,38],[-20,44],[28,22]],[[7300,8250],[24,-52],[65,-56],[14,-33],[22,-107],[32,-118],[2,-41],[-12,-44]],[[8923,5209],[-58,-107],[-25,-19],[-10,-57],[9,-17],[14,-175]],[[8853,4834],[-3,-2]],[[8406,4109],[-18,-26],[11,62],[33,89],[13,48],[43,104],[43,93],[36,44],[21,52],[14,67],[-13,70],[38,106],[-8,62],[-50,-11],[-16,16]],[[8553,4885],[56,31],[2,42],[31,19],[-11,26],[1,21],[32,13],[-5,131],[-31,104],[-21,57],[-35,51],[-75,72],[-69,82],[-8,40]],[[9650,4889],[-16,-10]],[[9634,4879],[-72,-28],[-32,-6],[-74,-4],[-26,-12],[-16,-30],[-56,-68],[-16,-12]],[[9342,4719],[-56,-7]],[[9149,4714],[-58,49],[-55,18],[-84,88],[-37,5],[-62,-40]],[[7661,7972],[5,19]],[[7666,7991],[0,12],[28,167],[17,112]],[[7711,8282],[170,-43]],[[7881,8239],[20,-143],[-20,-109]],[[7666,7991],[-44,75],[-35,55],[-10,-10],[-28,7],[4,26]],[[7553,8144],[27,172]],[[7580,8316],[131,-34]],[[7553,8144],[-179,47],[15,77],[-2,8],[14,88]],[[7401,8364],[179,-48]],[[6995,6729],[33,-23],[46,107],[18,55],[36,184],[16,20],[8,83],[28,180]],[[7180,7335],[215,-110],[87,-47]],[[7482,7178],[154,-81],[72,-40],[162,95]],[[7180,7335],[30,169]],[[7210,7504],[19,3]],[[7519,7355],[-37,-177]],[[6930,7534],[57,33],[46,-30],[25,-3],[49,23],[103,-53]],[[5542,5621],[-18,-4],[-91,-92],[-38,-24],[-90,-105]],[[5305,5396],[-3,10],[-191,-99],[-127,-68]],[[4984,5239],[10,30],[-4,121],[69,34],[5,109],[22,23],[77,42],[30,30],[11,-1],[22,109],[9,10],[-27,134],[-3,41],[4,99],[22,89],[-14,9],[5,92]],[[5222,6210],[13,1],[59,39],[-12,-184],[-55,5],[-11,-152],[-4,-38],[40,-4],[17,14],[85,4],[43,-2]],[[4902,4884],[50,-11],[-2,37],[44,4],[2,61],[78,40],[-36,115],[-24,35],[-30,74]],[[5305,5396],[-48,-87],[-27,-78],[-113,-434],[9,-54],[-51,12],[-86,14],[-100,29],[13,86]],[[5428,6287],[-130,-9],[-162,-18]],[[5136,6260],[-22,181],[-26,-1],[-25,13],[-67,77],[-23,20],[-86,7],[29,195],[-14,119],[8,51],[-12,112],[41,8],[-9,128],[24,-7]],[[4954,7163],[50,-12],[85,-2],[32,10],[25,26],[199,40],[18,0]],[[5222,6210],[-50,-27],[-76,-23],[-59,-39],[-208,-153],[-10,36],[-65,-36],[-77,-29],[-54,-10],[-109,-8]],[[4514,5921],[-10,6],[-81,262]],[[4423,6189],[26,2],[310,34]],[[4759,6225],[201,21],[176,14]],[[4765,4636],[5,46],[1,64],[-19,133],[-70,-3],[-3,30]],[[4810,4960],[15,14],[64,-15],[-11,-69],[24,-6]],[[4637,5530],[-21,32],[-81,279],[-21,80]],[[4071,6176],[79,19],[33,1],[112,-9],[84,-1],[44,3]],[[3625,3433],[62,92],[48,78],[59,85]],[[3794,3688],[4,3],[86,127]],[[3884,3818],[104,-111]],[[3988,3707],[-20,-27],[-102,-155],[-17,-21],[-114,-169],[-74,-1],[-19,24],[-17,75]],[[3794,3688],[-163,173],[-21,14]],[[3610,3875],[1,4],[135,12],[2,-8],[90,7],[55,-59],[-9,-13]],[[5700,3628],[-49,95],[32,42],[44,2],[59,-8],[6,-33],[39,-44],[17,-26],[13,-61],[13,-26],[18,-14],[-33,-31],[-64,-68],[-50,-44],[-12,102],[35,33],[-9,23],[-37,23],[-11,30],[-11,5]],[[460,2349],[29,-40],[21,-80],[15,-23],[22,-59],[11,-9],[0,31],[-19,39],[14,15],[15,-19],[20,-6],[38,20],[20,-15],[12,-38],[2,-64],[25,-87],[15,-67],[40,-36],[35,-8],[50,14],[32,-16],[22,-33],[15,-10],[48,-10],[11,-13],[-13,-45],[-15,-20],[-27,-71],[-23,-12],[-82,47],[-12,-18],[12,-44],[11,-13],[-65,-44],[-43,3],[6,41],[32,17],[-29,34],[-56,20],[-23,2],[-28,17],[-31,-40],[-43,-27],[-25,-40],[-25,-25],[-38,-101],[-19,-35],[-5,-48],[-15,-31],[-27,-29],[-3,-18],[24,-36],[1,-48],[-24,-47],[-8,-33],[-106,92],[-29,15],[-9,-10],[-35,-109],[-47,-2],[-16,57],[-47,-37],[-42,46],[-12,21],[0,53],[32,34],[-26,37],[-23,20],[6,22],[22,10],[25,-2],[-7,75],[57,10],[49,-59],[57,43],[30,2],[33,40],[2,28],[12,5],[26,56],[24,40],[40,44],[13,36],[18,27],[7,49],[43,5],[26,18],[-12,121],[-13,46],[-62,-21],[-21,35],[-46,-11],[-9,70],[-15,54],[-10,120],[24,5],[61,55],[74,21],[6,-3]],[[8997,6110],[-14,12]],[[6331,3827],[-28,-21],[-45,-26],[-7,-24],[1,-28],[24,-12],[22,-88]],[[6298,3628],[10,-26],[-18,-14],[21,-40]],[[6311,3548],[-23,0],[-66,-28],[2,-12],[-41,-13],[66,-63],[-3,-30],[18,2],[2,-15]],[[6171,3327],[-18,33],[-19,17],[-13,32],[-3,35],[-12,26],[33,27],[-22,53],[28,19],[2,32],[-7,30],[-33,80],[-8,31],[22,13],[-17,36]],[[6104,3791],[58,49],[103,50]],[[6265,3890],[5,-40],[45,19],[16,-42]],[[5807,4158],[37,-59],[-5,-47]],[[5839,4052],[-7,-27],[11,-72],[-16,-19],[-22,-9],[-8,-49],[-52,-69],[-63,-25],[-10,23],[-16,60],[-21,9],[-48,2],[-38,92]],[[4954,7163],[-7,21],[-49,23],[-41,53],[-27,-10]],[[4830,7250],[-46,163],[51,15],[104,43],[11,-1],[91,32],[-54,201],[-30,84],[137,72],[5,-11],[31,-6],[62,0],[45,-14],[15,-11],[10,-26],[50,34],[6,115],[-3,54],[56,-22],[41,-9],[102,-10]],[[5514,7953],[205,-22]],[[6673,5474],[5,-20],[-123,-81]],[[6309,4324],[-37,-21],[-8,-29],[9,-34],[14,-115],[26,-95],[5,-58],[27,-42],[12,-42],[2,-37],[-28,-24]],[[6265,3890],[-19,51],[-7,2],[-52,71],[-12,-10],[-16,26],[20,40],[-7,13]],[[6172,4083],[-4,34],[-49,-36],[-34,47],[-16,8],[-19,40],[18,19],[-75,50],[-15,-8],[-65,-64],[-39,61],[-2,15],[17,42],[-16,44]],[[6172,4083],[-185,-159]],[[5987,3924],[3,30],[-47,74],[-20,-18],[-11,14],[-21,-17],[-15,25],[-18,-18],[-19,38]],[[6688,3979],[-30,-75],[1,-7],[-57,-82],[38,-136]],[[6640,3679],[-34,26],[-15,-61],[-15,-22],[-42,-42],[-33,-57],[-45,83],[-75,-40]],[[6381,3566],[-19,33],[-53,19],[-11,10]],[[6544,3061],[8,110],[-31,19],[-15,33],[-14,58],[-5,59],[-5,9],[-14,94],[-10,26],[-47,55],[-30,42]],[[6640,3679],[15,-18],[6,-27],[34,-18],[30,1],[15,-60],[16,-99],[15,-71],[13,-39],[-79,-18],[-18,-81],[-62,-150],[10,-5],[-25,-27],[-63,-18],[-3,12]],[[6544,3061],[-89,2],[-34,9],[35,40],[20,40],[-29,29],[-26,15],[-29,-17],[-7,31],[36,22],[-18,72],[-20,-3],[-17,14],[-16,54],[10,3],[-21,106],[22,8],[-11,35],[-39,27]],[[8479,7472],[-2,31],[19,148],[24,151],[26,184],[10,62]],[[8556,8048],[182,-52]],[[8738,7996],[-56,-313],[25,-72]],[[8707,7611],[-228,-139]],[[4591,4727],[2,-92],[-3,-62],[-9,-9],[-2,-59],[8,-68],[10,-51],[-7,0],[-1,-72],[20,-59],[21,-83]],[[4319,3898],[-112,37],[-54,23]],[[4153,3958],[-29,6],[-109,38],[-37,3],[-149,127]],[[3829,4132],[46,139],[-26,0],[35,155],[34,135],[-362,-2],[1,112],[-74,17]],[[3483,4688],[-8,12],[3,28],[18,39],[-58,39],[2,64],[-11,21],[-1,67],[-29,35],[35,42]],[[3839,5155],[19,14],[38,-84],[108,-244],[39,-85]],[[3483,4688],[-8,-15],[-231,71],[-37,8]],[[3207,4752],[-26,26],[-67,22],[-75,-3],[-135,-24],[-116,-29],[-36,7],[-27,14],[-22,31],[-9,39],[0,52],[11,69],[49,182],[19,61],[44,63],[48,48],[114,90],[45,39],[24,37],[10,75],[-1,29]],[[3829,4132],[-200,103],[-88,3],[-6,-47],[2,-61],[10,-66],[21,-35],[6,-29],[17,-28],[1,-56],[-4,-39]],[[3588,3877],[-74,-7]],[[3514,3870],[-129,-12]],[[3385,3858],[-111,40],[-75,39],[-129,138],[-130,144],[-19,47],[-17,84],[14,54],[19,19],[27,10],[195,3],[38,19],[19,49],[16,105],[-1,78],[-10,42],[-14,23]],[[7086,5588],[-50,-45],[3,-30],[-24,-52]],[[7015,5461],[-31,-39],[-10,-39]],[[6974,5383],[11,-98],[7,-30],[-5,-105],[-28,-65],[1,-86],[-15,-38],[-25,-40]],[[7305,5841],[-95,-132],[15,-17],[-27,-12],[1,-35],[-22,-3],[-1,19]],[[7514,5433],[-45,-85],[-20,-59],[-17,-9],[-44,64],[-53,2],[-25,-9],[-14,-28],[-26,-10],[-55,20],[-11,-6],[-29,-54],[-11,-46],[-20,-33],[-20,-10],[-14,-22],[-3,-52],[-14,-29],[-26,-30],[3,-40],[17,-17],[-4,-29],[-19,-22],[-49,-2],[-13,-43],[-16,-15],[-39,20],[-21,-14]],[[6974,5383],[45,-8],[131,2],[-2,67],[-68,8],[-35,-5],[-30,14]],[[9181,7866],[-23,-13],[-219,-104],[-87,-45],[-145,-93]],[[8738,7996],[145,-42],[218,-56],[4,4],[55,-9],[21,-27]],[[9295,7331],[-38,-31],[-75,-43]],[[9182,7257],[-36,-28],[-176,-109]],[[8970,7120],[-95,-58],[-133,-76],[-36,-24],[-17,-24],[-30,-21],[-22,-28]],[[8427,7440],[52,32]],[[9181,7866],[26,13],[15,-51],[1,-28],[21,-89],[28,-168],[20,-143],[12,-62],[-9,-7]],[[9192,7025],[-10,-20],[-44,-26]],[[9138,6979],[-87,-52],[-6,-2],[-75,195]],[[9182,7257],[29,-71],[-13,-11],[-2,-24],[39,-94],[-1,-13],[-42,-19]],[[9182,6510],[-22,89],[2,28],[-12,12],[-79,1],[6,39],[-16,64],[24,11],[6,-20],[39,41],[-8,125],[15,9],[1,70]],[[9192,7025],[-1,-63],[10,-28],[4,-44],[-17,-4],[7,-46],[18,-22],[42,23],[21,-61],[24,-30],[-12,-7],[18,-17],[10,-34],[-2,-27],[19,-50]],[[7994,7997],[12,34],[63,158]],[[8069,8189],[267,-78]],[[8336,8111],[-10,-91]],[[8336,8111],[220,-63]],[[9179,4641],[-16,-22],[-56,-131],[-17,-54],[-13,-15],[-1,-21],[-22,-24],[-8,-53],[3,-35],[12,-22],[-17,-52],[-13,-29],[-31,20]],[[9110,4081],[12,-23]],[[9342,4719],[6,-64],[-28,-75],[-5,-74],[-9,-21],[-6,-60],[-17,-28],[-48,-146],[-30,-49],[-59,-61],[-36,-60]],[[9456,4299],[9,-25]],[[9465,4274],[-43,-46],[-77,-50]],[[9110,4081],[49,65],[51,46],[35,42],[24,69],[15,22],[13,38],[24,54],[18,99],[5,42],[38,-76],[28,-63],[29,-50],[19,-44],[-2,-26]],[[9465,4274],[1,-51],[9,-27],[-7,-8],[5,-82],[-5,-26],[29,-78],[3,-89],[-34,-7],[-16,31],[-17,62]],[[9479,4601],[-8,38],[11,43],[9,6],[7,45],[8,5],[61,1],[-1,38],[65,-1],[6,5]],[[9637,4781],[-1,-21],[26,-21],[6,-64],[10,-13],[1,-41],[9,-65],[-46,42],[-6,-9],[-46,6],[8,-18],[57,-47],[12,-32],[-2,-19],[-25,-32],[-15,-39],[-65,-48],[-47,-29],[-9,24],[34,24],[-18,41],[2,38],[-17,48],[16,52],[-26,52],[-16,-9]],[[7881,8239],[188,-50]],[[9479,4601],[7,-49],[11,-38],[-10,-39],[10,-15],[7,-34],[-17,-34],[-19,-90],[-12,-3]],[[9634,4879],[11,-28]],[[9645,4851],[-36,-24],[-33,0],[15,-19],[17,-3],[29,-24]],[[9295,7331],[14,-12],[17,-56],[35,-47],[13,-40],[1,-30],[19,-28],[24,-87],[8,1],[8,-61],[-2,-41],[26,-15],[19,-87],[12,-76],[11,-97]],[[9576,5883],[25,-140],[10,-82]],[[8553,4885],[-24,-35],[-72,-47],[-1,29],[13,24],[-15,19],[-7,32],[-48,33],[-55,-9],[-2,13],[35,167],[-1,70],[-8,35],[-29,56],[-33,41],[-24,17],[-37,-5],[-45,-19],[-52,-15],[-40,-4],[-12,27]],[[9967,5185],[-7,-91],[1,-58],[-25,6],[-23,-17],[-36,4],[-3,-27],[-63,-53],[-34,-39],[-16,-1],[-25,-27],[-39,-6],[-32,-20],[-20,-5]],[[7300,8250],[23,141],[60,-15],[18,-12]],[[6161,7896],[257,209],[109,92],[-12,9],[-126,142],[-53,9],[-29,39],[-97,-61],[-65,-46],[-38,-21],[-169,341],[-20,25],[-76,57],[-12,14],[-44,123],[-18,34],[-16,52],[-61,231],[-62,169],[-6,23],[-9,95],[-7,30],[-17,27],[44,25],[40,35],[-24,37],[1,67],[-13,78],[-33,67],[-21,103]],[[5584,9901],[112,29],[293,69],[191,-68],[36,-17],[186,-277],[121,-189],[113,-182],[122,-191],[109,-161],[147,-235],[28,-29],[37,-64],[57,-86],[104,-162],[60,-88]],[[5514,7953],[-15,333],[-3,174],[-4,28],[-90,26],[34,160],[-21,11],[-3,47],[18,41],[2,23],[-15,30],[-10,64],[-25,8],[-20,24],[-20,133],[15,31],[-15,26],[-34,37],[-17,5],[-21,-13],[-37,40],[-5,-6],[-46,52],[-39,139],[5,5],[123,42],[7,10],[-3,105],[-8,74],[-21,59],[-28,38],[32,111],[184,51],[150,40]],[[4759,6225],[-12,49],[-42,124],[-61,191],[-32,86],[-12,72],[-41,204],[-9,71],[4,104],[0,152],[70,-1],[5,-27],[-13,-143],[-1,-33],[97,58],[113,40],[27,7],[-22,71]],[[3588,3877],[22,-2]],[[3625,3433],[-35,90],[-38,139],[-9,67],[-4,94],[10,13],[-35,34]],[[4229,2946],[-228,254],[-136,134],[-8,7],[-73,-107],[-164,-19],[-11,38],[-126,237],[-23,56],[-5,26],[-5,188],[-12,55],[-20,26],[-33,17]],[[3988,3707],[37,50],[69,104],[3,12],[56,85]],[[4767,3738],[-85,-123],[-73,-109],[-267,-393],[-113,-167]],[[5433,3900],[7,-29],[-11,-76],[-31,-139],[7,-33],[15,-39],[21,-33],[47,-32],[14,-59],[-35,-27],[-36,-18],[-13,3],[-20,58],[-22,-10],[-15,-47],[0,-24],[22,-42],[37,-44],[13,-46],[15,-31],[-2,-19],[57,-76],[-5,-27],[7,-17],[27,-25],[21,-10],[17,-21],[24,-9],[51,-2],[17,-19],[-15,-29],[-36,-22],[-45,-12],[14,-49],[-12,-23],[-17,-10],[-15,27],[-37,5],[-22,21],[-7,-7],[-2,-51],[-17,-63],[-52,-14],[-5,-16],[3,-58],[-3,-24],[14,-22],[17,-46],[-9,-15],[-84,73],[-10,0],[-6,-64],[19,-52],[-28,-28],[-37,24],[-21,-6],[-18,-33],[-22,6],[-24,51],[-41,51],[-51,84],[-58,69],[-34,6],[-100,-153],[-19,0],[-65,72],[-14,-15],[-37,-9],[-86,-8],[-24,-22],[-14,-31],[-24,-28],[-15,-4],[-8,15],[26,51],[6,63],[21,90],[-5,29],[-28,23],[-14,3],[-18,-15],[-4,-39],[-16,-63],[-25,-25],[-2,-97],[-25,-22],[-14,12],[7,160],[15,74],[0,29],[-40,23],[-9,-5],[-21,-49],[-5,-44],[-19,-31],[-24,-15],[-49,38],[-42,-38],[-28,-3],[-14,-19],[-52,-29],[-3,-28],[23,-56],[33,-34],[38,-21],[-1,-33],[-26,-5],[-26,7],[-24,-3],[-27,-21],[-2,-45],[28,-26],[33,-4],[19,-28],[-44,-13],[-48,-29],[-49,30],[-26,24],[-17,27],[-15,-36],[-20,-30],[28,-51],[40,-53],[26,-18],[23,-1],[100,47],[82,45],[39,9],[50,28],[39,43],[6,-7],[-15,-41],[-12,-54],[-4,-86],[10,-41],[-27,-63],[-40,0],[-14,-34],[-7,-59],[6,-59],[15,-20],[11,-35],[24,-17],[25,-4],[26,7],[62,33],[57,5],[79,44],[70,28],[3,-20],[-12,-23],[10,-36],[-36,17],[-16,-3],[-34,-67],[-46,-44],[-11,45],[-55,6],[-27,-6],[-41,-28],[-67,-28],[-25,4],[-117,-17],[51,-55],[61,-100],[28,-38],[19,-11],[10,-21],[9,-71],[24,-27],[23,-16],[33,-8],[17,-14],[45,-66],[27,-31],[41,-61],[36,-38],[42,-52],[33,-11],[23,1],[-6,-16],[21,-11],[18,-44],[-21,14],[-46,13],[-20,-9],[-16,-39],[-35,19],[-60,52],[-240,229],[-188,191],[-47,50],[-5,15],[-51,50],[-178,166],[-168,162],[-81,75],[-11,13],[43,65],[108,157],[141,208],[98,145],[164,240]],[[6104,3791],[-30,13],[-67,97],[-9,-6],[-11,29]],[[5524,521],[16,-40],[26,2],[9,-10],[-31,-39],[-30,-25],[-19,-27],[37,-116],[31,52],[61,30],[69,50],[14,14],[24,43],[31,29],[11,-12],[-19,-53],[-11,-49],[6,-26],[35,-70],[-52,-50],[-23,-47],[-36,-36],[-28,-16],[-55,-58],[-54,71],[-40,-35],[-24,-37],[-25,-66],[-48,29],[18,25],[2,26],[-10,53],[21,8],[6,34],[25,54],[-31,-17],[-15,21],[-25,5],[-15,29],[8,46],[14,48],[27,123],[4,31],[46,-1],[50,7]]]}
