{"type":"Topology","bbox":[-76.67380934693654,5.4315909426819955,-76.54021361499798,5.648832011598012],"transform":{"scale":[0.000013360909284784046,0.000021726279519553603],"translate":[-76.67380934693654,5.4315909426819955]},"objects":{"municipios":{"type":"GeometryCollection","geometries":[{"type":"Polygon","arcs":[[0]],"properties":{"codigo":"27050200211002000101","sector":"270502002110020001","pcode":"CO27050","area_m2":85751}},{"type":"Polygon","arcs":[[1]],"properties":{"codigo":"27050200103005000101","sector":"270502001030050001","pcode":"CO27050","area_m2":8966}},{"type":"Polygon","arcs":[[2]],"properties":{"codigo":"27050200301008000101","sector":"270502003010080001","pcode":"CO27050","area_m2":11250}},{"type":"Polygon","arcs":[[3,4]],"properties":{"codigo":"27050100000000000101","sector":"270501000000000001","pcode":"CO27050","area_m2":307683}},{"type":"Polygon","arcs":[[5,-4]],"properties":{"codigo":"27050100000000000102","sector":"270501000000000001","pcode":"CO27050","area_m2":130798}},{"type":"Polygon","arcs":[[6]],"properties":{"codigo":"27050200210001000101","sector":"270502002100010001","pcode":"CO27050","area_m2":54171}},{"type":"Polygon","arcs":[[7]],"properties":{"codigo":"27050200201003000101","sector":"270502002010030001","pcode":"CO27050","area_m2":64913}},{"type":"Polygon","arcs":[[8]],"properties":{"codigo":"27050200102006000101","sector":"270502001020060001","pcode":"CO27050","area_m2":33474}},{"type":"MultiPolygon","arcs":[[[9]],[[10]]],"properties":{"codigo":"27050200108009000101","sector":"270502001080090001","pcode":"CO27050","area_m2":31291}},{"type":"Polygon","arcs":[[11]],"properties":{"codigo":"27050200101007000101","sector":"270502001010070001","pcode":"CO27050","area_m2":23676}},{"type":"Polygon","arcs":[[12]],"properties":{"codigo":"27050200407010000101","sector":"270502004070100001","pcode":"CO27050","area_m2":9452}},{"type":"Polygon","arcs":[[13]],"properties":{"codigo":"27050200408013000101","sector":"270502004080130001","pcode":"CO27050","area_m2":32211}},{"type":"Polygon","arcs":[[14]],"properties":{"codigo":"27050200103017000101","sector":"270502001030170001","pcode":"CO27050","area_m2":14270}},{"type":"Polygon","arcs":[[15]],"properties":{"codigo":"27050200103018000101","sector":"270502001030180001","pcode":"CO27050","area_m2":21663}}]}},"arcs":[[[1938,5555],[4,-23],[43,0],[196,27],[6,-20],[16,2],[9,-44],[-78,-5],[-163,-2],[-70,-12],[-78,-10],[-14,83],[72,3],[-2,11],[57,3],[2,-13]],[[7007,7148],[-48,-8],[-21,5],[14,17],[35,15],[47,7],[10,-23],[-31,-5],[-6,-8]],[[60,8106],[-20,0],[-20,28],[-20,53],[34,4],[30,-55],[-4,-30]],[[2801,4515],[-4,12],[-27,-4],[-11,26],[-24,39],[-32,30],[-33,15]],[[2670,4633],[-14,8],[-11,21],[7,12],[-37,31],[-27,50],[-4,16],[72,29],[7,-18],[-2,-25],[22,5],[44,-36],[26,1],[19,-21],[38,11],[12,-23],[-6,-31],[112,3],[41,6],[1,-11],[18,-4],[21,-16],[55,-18],[21,-17],[12,-2],[27,16],[84,-3],[5,-8],[92,-4],[3,16],[20,5],[-9,13],[8,13],[34,15],[-4,4],[39,15],[25,5],[46,-6],[17,-16],[47,-5],[47,-14],[33,-14],[58,20],[19,-25],[-7,-8],[13,-19],[-66,-3],[-9,-28],[-17,0],[4,27],[-25,6],[26,5],[-7,11],[-25,17],[-43,15],[-41,2],[-80,-38],[-34,-20],[-38,-11],[-83,-2],[-63,3],[-37,-18],[-79,-5],[-32,-5],[-13,-12],[-30,-13],[-84,-3],[-80,-9],[-37,-8]],[[2801,4515],[-56,-13],[-38,-5],[-37,-14],[-46,-6],[-98,-27],[-72,-28],[-32,35],[-9,-3],[-70,85],[89,30],[22,-25],[55,10],[13,21],[12,-17],[36,-8],[22,1],[26,-11],[32,-5],[28,2],[19,14],[10,29],[-31,27],[-16,24],[10,2]],[[4403,4560],[14,5],[33,-2],[3,-106],[-40,-6],[-9,43],[-159,-17],[-3,29],[53,7],[-7,29],[1,20],[43,6],[49,1],[22,-9]],[[1680,7209],[-2,-20],[-19,-12],[-10,-36],[28,-15],[13,3],[36,-6],[-1,-8],[-30,4],[-1,-9],[-44,7],[8,-31],[17,-25],[-18,-4],[5,-8],[-34,-13],[-31,8],[11,23],[21,10],[-36,0],[8,39],[-29,2],[-10,18],[-41,-4],[2,49],[-6,26],[81,11],[22,-9],[31,5],[20,13],[18,2],[-9,-20]],[[9088,9621],[16,0],[0,-19],[21,-2],[-2,-8],[-51,-3],[3,-12],[-58,-7],[-11,-24],[-13,1],[9,21],[-24,0],[-15,24],[-18,51],[19,8],[20,-1],[104,-29]],[[2219,8473],[21,-24],[17,2],[25,-14],[3,-14],[46,-18],[-6,-7],[37,-10],[-62,9],[-1,-20],[-11,-1],[3,20],[10,6],[-34,8],[-16,-9],[-16,14],[-7,-17],[-13,10],[29,16],[-16,-3],[-24,6],[-12,14],[12,8],[-22,24],[33,9],[4,-9]],[[2324,8608],[-35,-12],[-2,-17],[-13,-9],[35,-5],[-16,-4],[-4,-15],[-35,-4],[22,-12],[-18,-10],[-5,-16],[-15,4],[11,19],[-9,27],[7,35],[23,17],[17,-5],[14,16],[23,-9]],[[6637,9985],[13,6],[24,-21],[29,-10],[0,-10],[-16,-17],[7,-3],[-19,-20],[-28,-10],[-41,7],[-14,19],[27,27],[-6,12],[13,7],[-26,18],[19,9],[18,-14]],[[3468,556],[14,0],[9,-54],[-39,-1],[-4,28],[-27,0],[0,12],[47,15]],[[3814,102],[12,-13],[14,-1],[13,-40],[-17,0],[-4,-11],[-46,0],[-37,-14],[-12,9],[-11,-14],[-1,-18],[-23,1],[-3,20],[46,27],[-13,15],[-28,-9],[7,41],[22,-4],[15,16],[40,-7],[13,8],[13,-6]],[[5502,8221],[38,-6],[-25,-22],[-32,1],[-18,10],[-34,-15],[-22,7],[-8,12],[12,23],[59,5],[15,-17],[15,2]],[[9920,8232],[-7,-1],[-13,56],[18,17],[76,4],[4,-38],[-15,-25],[-17,-7],[-46,-6]]]}
