{"type":"Topology","bbox":[-77.38460875405394,4.16160969006762,-76.90223614158862,4.434534433023395],"transform":{"scale":[0.00004824208545507814,0.00002729520381595908],"translate":[-77.38460875405394,4.16160969006762]},"objects":{"municipios":{"type":"GeometryCollection","geometries":[{"type":"Polygon","arcs":[[0]]},{"type":"Polygon","arcs":[[1]]},{"type":"Polygon","arcs":[[2]]},{"type":"Polygon","arcs":[[3]]},{"type":"Polygon","arcs":[[4]]},{"type":"Polygon","arcs":[[5]]},{"type":"Polygon","arcs":[[6]]},{"type":"MultiPolygon","arcs":[[[7]],[[8]]]},{"type":"Polygon","arcs":[[9]]},{"type":"MultiPolygon","arcs":[[[10]],[[11]]]},{"type":"Polygon","arcs":[[12]]},{"type":"Polygon","arcs":[[13]]},{"type":"Polygon","arcs":[[14]]},{"type":"Polygon","arcs":[[15]]},{"type":"Polygon","arcs":[[16]]},{"type":"Polygon","arcs":[[17]]},{"type":"Polygon","arcs":[[18]]},{"type":"Polygon","arcs":[[19]]},{"type":"Polygon","arcs":[[20]]},{"type":"Polygon","arcs":[[21]]},{"type":"Polygon","arcs":[[22]]},{"type":"MultiPolygon","arcs":[[[23]],[[24]]]},{"type":"Polygon","arcs":[[25]]},{"type":"Polygon","arcs":[[26]]},{"type":"Polygon","arcs":[[27]]},{"type":"Polygon","arcs":[[28]]}]}},"arcs":[[[0,7829],[31,42],[-3,10],[42,46],[6,-17],[-65,-82],[-3,-5],[-8,6]],[[7822,6741],[7,-6],[-57,-208],[-10,11],[17,66],[16,55],[11,35],[6,27],[10,20]],[[9988,7317],[3,-12],[8,-2],[0,-15],[-14,-10],[-8,9],[-9,-1],[2,32],[18,-1]],[[7596,2892],[66,-114],[-19,-43],[-8,-26],[-10,12],[2,8],[-14,17],[-9,-20],[-19,1],[-11,17],[13,23],[-7,30],[2,14],[-28,60],[7,8],[10,-20],[4,3],[21,30]],[[5805,1736],[-7,-1],[0,82],[-11,1],[1,139],[25,-6],[-1,-24],[2,-34],[-2,-101],[-1,-56],[-6,0]],[[2387,2590],[8,-17],[-54,-65],[-9,30],[-1,10],[12,13],[-10,25],[4,8],[13,-37],[26,33],[5,13],[6,-13]],[[5156,611],[-21,-25],[-7,-1],[-12,-29],[-4,-2],[7,-30],[-8,-14],[-16,35],[4,21],[11,22],[11,13],[26,23],[9,-13]],[[1053,1218],[-1,-10],[12,-18],[16,-18],[13,11],[-7,-25],[6,8],[12,-27],[-7,-14],[-32,45],[-21,18],[-24,29],[6,12],[21,-12],[8,20],[-2,-19]],[[1116,1126],[4,-2],[3,-17],[-7,-13],[-10,17],[10,15]],[[459,3541],[5,-2],[35,28],[15,8],[21,5],[26,15],[19,-76],[5,-31],[-24,-34],[-43,-52],[-7,1],[-38,-56],[1,-4],[-12,-10],[-5,-19],[-9,9],[-22,-17],[-41,204],[-29,143],[-31,93],[-30,78],[27,40],[25,13],[11,17],[71,-121],[14,-29],[8,-20],[9,-36],[4,-23],[-1,-55],[-8,-54],[4,-15]],[[7392,1757],[2,-11],[4,-74],[-1,-15],[4,-27],[-9,8],[0,21],[-7,0],[0,41],[1,25],[3,0],[-3,31],[6,1]],[[7397,1606],[6,-1],[3,-40],[-10,-6],[2,10],[-1,37]],[[274,3759],[21,-36],[4,5],[9,-29],[4,-5],[9,-33],[16,-50],[6,-32],[-6,-6],[-8,43],[-12,6],[0,10],[-12,-15],[-6,9],[18,20],[-11,25],[-21,-18],[14,21],[-1,28],[-7,6],[3,8],[-4,13],[-7,0],[-9,30]],[[1646,238],[-3,8],[-9,-8],[-9,31],[13,13],[-5,18],[18,16],[-4,14],[12,10],[14,-35],[23,27],[9,-11],[8,6],[-29,-41],[-38,-48]],[[7396,4773],[23,-27],[45,-23],[2,-8],[-23,11],[-3,-15],[-20,18],[-9,4],[-4,14],[-18,20],[-21,34],[2,4],[-15,25],[4,9],[11,-18],[6,-20],[20,-28]],[[6803,1921],[13,-10],[-1,-12],[-5,8],[-22,4],[-26,9],[-64,-9],[-1,11],[22,3],[21,7],[14,7],[12,-12],[17,1],[0,-8],[20,1]],[[7734,6665],[-15,-33],[-8,-30],[-13,-36],[-5,6],[0,16],[7,34],[-4,4],[4,33],[-8,8],[5,26],[19,-17],[3,-13],[8,5],[3,25],[7,19],[8,-4],[-11,-43]],[[7715,1629],[3,15],[56,-23],[11,6],[3,-13],[-10,-4],[-4,-22],[-9,2],[-13,13],[-7,13],[-30,13]],[[5965,2178],[-7,-22],[-7,-7],[-13,3],[10,31],[11,47],[9,-39],[-3,-13]],[[5928,2050],[-8,-2],[-6,-25],[6,-9],[-2,-18],[3,-5],[-4,-30],[-4,2],[-1,-24],[-6,-29],[-7,5],[-7,-47],[0,-19],[-17,8],[4,30],[11,70],[8,32],[7,42],[8,25],[20,75],[7,-13],[-17,-62],[5,-6]],[[7629,6474],[5,-7],[14,3],[-33,-49],[-2,26],[9,13],[-2,6],[9,8]],[[7768,1757],[5,-19],[11,4],[14,-1],[3,-13],[-36,-4],[-41,5],[0,14],[8,-12],[9,4],[4,-7],[2,15],[12,-1],[-1,14],[10,1]],[[7552,856],[-1,-69],[-8,-50],[-5,-14],[-3,3],[2,47],[-7,14],[-4,22],[0,38],[17,1],[5,8],[-2,15],[5,0],[1,-15]],[[7578,3164],[11,-57],[-7,-12],[4,-19],[-3,-3],[5,-21],[-9,-10],[-14,61],[-9,43],[0,13],[7,4],[3,-10],[12,11]],[[7557,3170],[-4,-3],[-9,34],[-1,19],[4,2],[10,-52]],[[7806,8843],[27,-2],[-1,-87],[-20,-3],[-6,-5],[-6,12],[-21,-19],[0,-8],[-8,-6],[-1,59],[-13,0],[-4,-8],[3,29],[14,-1],[9,22],[24,-15],[4,10],[-1,22]],[[848,9995],[3,-11],[7,3],[3,-17],[6,5],[-4,-23],[6,-5],[0,-22],[-6,0],[-2,-11],[-9,-4],[-8,5],[-9,-3],[-2,19],[5,1],[2,17],[-9,1],[-4,29],[15,20],[6,-4]],[[5183,142],[1,-50],[-4,-51],[-7,-31],[-9,-10],[-32,26],[8,9],[16,-12],[4,31],[13,34],[4,5],[1,48],[5,1]],[[5587,470],[19,-9],[46,-9],[0,-14],[-25,5],[-11,-23],[-14,24],[-14,18],[-1,8]]]}