{"type":"Topology","bbox":[-76.81846539340228,4.510685936186681,-76.62814977722115,4.751645569436894],"transform":{"scale":[0.000019033464964608854,0.000024098373162337563],"translate":[-76.81846539340228,4.510685936186681]},"objects":{"municipios":{"type":"GeometryCollection","geometries":[{"type":"Polygon","arcs":[[0]],"properties":{"codigo":"27745200101010000101","sector":"277452001010100001","pcode":"CO27745","area_m2":16243}},{"type":"Polygon","arcs":[[1]],"properties":{"codigo":"27745200104012000101","sector":"277452001040120001","pcode":"CO27745","area_m2":25754}},{"type":"Polygon","arcs":[[2]],"properties":{"codigo":"27745200107013000101","sector":"277452001070130001","pcode":"CO27745","area_m2":25073}},{"type":"Polygon","arcs":[[3]],"properties":{"codigo":"27745200203014000101","sector":"277452002030140001","pcode":"CO27745","area_m2":5870}},{"type":"Polygon","arcs":[[4]],"properties":{"codigo":"27745200103015000101","sector":"277452001030150001","pcode":"CO27745","area_m2":46727}},{"type":"Polygon","arcs":[[5]],"properties":{"codigo":"27745100000000000101","sector":"277451000000000001","pcode":"CO27745","area_m2":413356}},{"type":"Polygon","arcs":[[6]],"properties":{"codigo":"27745200101001000101","sector":"277452001010010001","pcode":"CO27745","area_m2":53668}},{"type":"Polygon","arcs":[[7]],"properties":{"codigo":"27745200101003000101","sector":"277452001010030001","pcode":"CO27745","area_m2":20474}},{"type":"Polygon","arcs":[[8]],"properties":{"codigo":"27745200406021000101","sector":"277452004060210001","pcode":"CO27745","area_m2":8806}},{"type":"Polygon","arcs":[[9]],"properties":{"codigo":"27745200302009000101","sector":"277452003020090001","pcode":"CO27745","area_m2":19376}}]}},"arcs":[[[223,9838],[15,-15],[-54,-19],[-28,-2],[-46,20],[30,11],[83,5]],[[4040,7688],[28,-11],[24,-41],[31,18],[21,-27],[-11,-5],[11,-15],[-38,-24],[-64,83],[-25,18],[23,4]],[[5656,5862],[35,-37],[-5,-15],[21,-21],[-15,-18],[-55,21],[-27,23],[22,14],[24,33]],[[6738,4738],[-28,-28],[1,-23],[-38,13],[25,9],[18,23],[22,6]],[[1966,7579],[31,-11],[-53,-42],[36,-13],[-52,-39],[-13,26],[-94,33],[25,19],[33,-10],[59,46],[28,-9]],[[9235,6055],[8,-21],[29,-27],[22,-10],[15,-229],[20,-24],[-34,-45],[-46,-26],[-38,4],[-38,34],[-24,52],[-34,95],[-33,62],[-37,57],[-36,39],[39,25],[69,18],[24,-15],[37,28],[45,13],[12,-30]],[[1232,9117],[-6,-16],[23,-3],[8,28],[27,-7],[5,11],[41,-13],[-3,-10],[28,-16],[-16,-31],[-24,-4],[-33,6],[-8,-21],[-35,19],[-38,12],[-25,3],[-2,28],[25,-6],[9,39],[28,-5],[-4,-14]],[[62,9980],[-27,-11],[34,-28],[31,-1],[-12,-30],[-20,5],[-43,25],[-25,26],[2,11],[57,22],[3,-19]],[[9970,0],[-33,7],[18,35],[23,-1],[0,-11],[21,3],[-29,-33]],[[7809,5629],[10,2],[16,-37],[-82,-19],[-9,21],[3,30],[10,-6],[52,9]]]}
