{"type":"Topology","bbox":[-76.91595218274091,5.89151795487515,-76.60978960224907,6.126171642469485],"transform":{"scale":[0.00003061931998118247,0.0000234677155309866],"translate":[-76.91595218274091,5.89151795487515]},"objects":{"municipios":{"type":"GeometryCollection","geometries":[{"type":"Polygon","arcs":[[0]]},{"type":"Polygon","arcs":[[1]]},{"type":"Polygon","arcs":[[2]]},{"type":"Polygon","arcs":[[3]]},{"type":"Polygon","arcs":[[4]]},{"type":"Polygon","arcs":[[5]]},{"type":"MultiPolygon","arcs":[[[6]],[[7]]]},{"type":"MultiPolygon","arcs":[[[8]],[[9]]]},{"type":"Polygon","arcs":[[10]]},{"type":"Polygon","arcs":[[11]]},{"type":"Polygon","arcs":[[12]]},{"type":"Polygon","arcs":[[13]]},{"type":"Polygon","arcs":[[14]]},{"type":"Polygon","arcs":[[15]]},{"type":"Polygon","arcs":[[16]]},{"type":"Polygon","arcs":[[17]]}]}},"arcs":[[[5647,778],[-10,-11],[-9,13],[-30,52],[10,11],[39,-65]],[[4906,7003],[8,12],[41,-44],[8,12],[40,-43],[-15,-26],[55,-59],[-15,-24],[-67,69],[-6,12],[-78,81],[15,25],[14,-15]],[[7243,9816],[-36,-12],[-26,178],[58,17],[16,-67],[6,-41],[6,-67],[-24,-8]],[[3527,33],[8,-8],[-7,-3],[-4,8],[-8,1],[0,-21],[-9,-3],[-6,6],[-1,33],[11,4],[19,16],[-3,-33]],[[4320,4471],[-4,-5],[11,-13],[10,2],[-3,9],[6,5],[19,-32],[6,8],[-2,25],[9,2],[1,-16],[7,4],[3,-9],[-5,-13],[-8,-3],[11,-12],[12,4],[13,-25],[17,5],[1,-10],[8,7],[6,-10],[-21,-18],[0,-5],[-19,-45],[-15,27],[-7,1],[-5,-24],[-13,20],[-38,24],[-22,-23],[-7,13],[-5,28],[-14,22],[4,4],[-27,20],[3,12],[-9,13],[2,9],[19,-10],[9,11],[12,-31],[15,18],[-5,5],[6,10],[8,-5],[4,7],[7,-6]],[[9872,9012],[20,-26],[28,-45],[18,-5],[3,-8],[-6,-19],[12,3],[20,-2],[0,-3],[27,-6],[-4,-10],[9,4],[-5,-18],[-11,5],[4,13],[-4,8],[-15,-3],[-5,7],[-3,-8],[-8,8],[-36,-12],[-12,0],[-2,8],[-30,27],[-11,3],[-15,-16],[-4,2],[2,34],[10,8],[6,20],[-3,23],[15,8]],[[7868,4936],[-8,-8],[0,-8],[15,-15],[-2,-6],[29,-24],[15,11],[4,-14],[-23,-11],[-7,12],[-20,-17],[-7,9],[-6,15],[-11,15],[-9,1],[1,15],[10,-5],[6,27],[6,-3],[4,21],[3,-15]],[[7833,4950],[0,-7],[10,-4],[-2,-6],[-21,14],[13,3]],[[34,9238],[5,-12],[-23,-32],[-5,8],[7,9],[0,21],[-7,6],[23,0]],[[8,9268],[9,-2],[10,-14],[-12,9],[-1,-8],[-14,19],[8,-4]],[[877,4051],[9,-18],[6,6],[9,-10],[-20,-24],[3,-4],[-10,-17],[-16,-20],[-11,5],[-9,59],[14,0],[7,13],[9,-11],[0,10],[9,11]],[[6604,6016],[9,-12],[-14,-16],[-8,12],[5,6],[-9,7],[-10,-12],[-15,29],[4,6],[10,44],[24,-11],[7,-7],[-11,-19],[12,-13],[-4,-14]],[[3100,9002],[6,-5],[16,6],[11,-40],[-30,-38],[-25,5],[-8,8],[-3,39],[23,9],[10,16]],[[6296,227],[12,-2],[1,7],[14,-5],[-7,-66],[-79,-2],[-37,-5],[-22,-5],[-30,-10],[-22,-3],[-5,82],[22,3],[6,11],[71,24],[38,-3],[13,-11],[25,-15]],[[6839,9334],[56,-5],[0,-19],[-98,6],[1,23],[41,-5]],[[2727,2885],[-15,-3],[-4,39],[19,7],[-6,17],[27,17],[8,-6],[14,-34],[-20,-21],[-23,-16]],[[6117,8426],[26,-1],[0,-27],[-13,0],[0,-22],[19,2],[-7,-4],[2,-25],[-10,-1],[4,-39],[-15,0],[2,68],[-8,12],[7,3],[0,16],[-6,-1],[-1,19]],[[6152,3215],[5,0],[1,-33],[-5,-45],[-10,-44],[-5,-8],[-11,-27],[-13,6],[8,20],[-15,7],[10,32],[14,-6],[4,20],[-6,2],[2,10],[13,9],[2,57],[6,0]]]}