{"type":"Topology","bbox":[-77.4593380792611,6.098032098586416,-77.354873161353,6.3981024553652786],"transform":{"scale":[0.000010447536544464789,0.000030010036681554386],"translate":[-77.4593380792611,6.098032098586416]},"objects":{"municipios":{"type":"GeometryCollection","geometries":[{"type":"Polygon","arcs":[[0,1]]},{"type":"Polygon","arcs":[[2,3,4]]},{"type":"Polygon","arcs":[[5,-5,6]]},{"type":"Polygon","arcs":[[7,-2,8,9,-3,-6,10]]},{"type":"Polygon","arcs":[[-9,-1,-8,11]]},{"type":"Polygon","arcs":[[12]]},{"type":"Polygon","arcs":[[13]]},{"type":"Polygon","arcs":[[14]]},{"type":"Polygon","arcs":[[15]]},{"type":"Polygon","arcs":[[16]]},{"type":"MultiPolygon","arcs":[[[17]],[[18]]]},{"type":"Polygon","arcs":[[19]]}]}},"arcs":[[[5623,4055],[-66,-9]],[[5557,4046],[-19,15],[-140,78],[40,4],[76,-33],[60,-33],[20,2],[29,-24]],[[5261,4231],[-284,-29]],[[4977,4202],[-66,4],[63,22],[-11,9],[-132,53],[-28,24],[124,18],[250,9]],[[5177,4341],[84,-110]],[[5673,4250],[-53,8],[-106,-20],[-66,10],[-187,-17]],[[5177,4341],[147,7],[272,10],[97,-11],[105,23],[11,22],[-17,12],[132,61],[16,32],[79,11],[24,-17],[-11,-22],[83,15],[81,-5],[44,-13],[3,-43],[-47,-9],[-136,-7],[-23,-8],[8,-23],[-13,-25],[-89,-59],[-136,-15],[-35,-15],[-99,-12]],[[5782,4107],[-79,-15],[8,-24],[-88,-13]],[[5557,4046],[-85,-17],[3,-26],[-37,21],[-103,-17],[39,-28],[-38,-5]],[[5336,3974],[-50,6],[-98,99],[-48,60],[-46,46],[-117,17]],[[5673,4250],[-8,-7],[18,-47],[-34,-31],[45,-41],[88,-17]],[[5782,4107],[44,7],[36,-29],[-34,-18],[26,-25],[109,-10],[-29,-43],[54,-23],[23,-61],[-20,-12],[-97,-18],[-71,-28],[-61,-31],[-238,43],[-45,14],[-40,51],[-47,-4],[-56,54]],[[3394,306],[37,-2],[-6,-34],[-38,-14],[17,-10],[-45,-43],[17,-11],[-66,-16],[41,-11],[36,10],[-28,-56],[-50,-31],[-56,-1],[-90,51],[-13,-2],[-101,52],[-36,11],[-41,-29],[-41,13],[22,12],[-53,21],[-56,-26],[-39,4],[-36,-26],[79,-12],[105,12],[-8,-21],[-80,-10],[-51,-13],[9,24],[-92,16],[-76,21],[-25,24],[-66,17],[-42,38],[-44,3],[1,13],[39,1],[34,22],[136,-5],[57,-24],[79,-11],[13,6],[71,-9],[47,-22],[61,30],[68,-23],[28,11],[92,-20],[46,17],[18,17],[64,24],[62,12]],[[3574,91],[14,-24],[91,-10],[147,-27],[84,15],[34,-13],[-60,-17],[-129,23],[-10,-5],[-174,26],[-41,-12],[-17,-23],[62,-2],[-6,-21],[-78,5],[15,42],[68,43]],[[586,5749],[66,-14],[2,-23],[-76,9],[-52,-4],[-17,-25],[-58,-1],[-88,12],[7,17],[-229,34],[-79,22],[-62,39],[54,16],[50,-20],[107,-24],[276,-27],[99,-11]],[[9615,9784],[-45,-7],[6,-15],[-92,-12],[-23,-20],[-101,-36],[-120,-3],[-32,-8],[-55,-28],[-56,-11],[-125,-11],[-53,-10],[-48,19],[-28,22],[158,28],[92,21],[140,41],[169,11],[56,17],[105,8],[5,43],[51,19],[11,19],[140,72],[95,56],[134,-20],[-101,-77],[-69,-37],[-60,-19],[-10,-21],[-66,-12],[-78,-29]],[[7861,7115],[-39,-5],[-10,-22],[59,-1],[-1,-51],[50,1],[23,-33],[-28,-14],[-111,1],[8,-14],[-105,6],[-29,-61],[-52,3],[68,108],[41,102],[94,0],[32,-20]],[[6813,5529],[0,0]],[[6901,5574],[58,-9],[38,-23],[60,-9],[20,-16],[-26,-12],[-58,23],[-175,29],[15,12],[68,5]],[[8620,8549],[34,-13],[-48,-2],[29,-70],[123,-11],[-91,-101],[-1,-17],[-110,-1],[-1,22],[28,120],[-13,81],[50,-8]]]}