{"type":"Topology","bbox":[-77.12639252972468,4.953920050599103,-76.82231935319703,5.2587103105588],"transform":{"scale":[0.00003041035868863405,0.00003048207420339004],"translate":[-77.12639252972468,4.953920050599103]},"objects":{"municipios":{"type":"GeometryCollection","geometries":[{"type":"Polygon","arcs":[[0]]},{"type":"Polygon","arcs":[[1]]},{"type":"Polygon","arcs":[[2]]},{"type":"Polygon","arcs":[[3]]},{"type":"Polygon","arcs":[[4]]},{"type":"Polygon","arcs":[[5]]},{"type":"Polygon","arcs":[[6]]},{"type":"Polygon","arcs":[[7]]},{"type":"Polygon","arcs":[[8]]},{"type":"Polygon","arcs":[[9]]},{"type":"Polygon","arcs":[[10]]},{"type":"Polygon","arcs":[[11]]},{"type":"Polygon","arcs":[[12]]},{"type":"Polygon","arcs":[[13]]},{"type":"Polygon","arcs":[[14]]},{"type":"MultiPolygon","arcs":[[[15]],[[16]]]},{"type":"Polygon","arcs":[[17]]}]}},"arcs":[[[8485,8307],[8,-39],[-20,3],[-4,16],[16,20]],[[108,2030],[22,-28],[43,-16],[53,-17],[-5,-22],[-48,8],[-118,37],[-55,28],[26,-1],[33,5],[10,11],[5,28],[14,-4],[20,-29]],[[6373,8787],[16,0],[18,-19],[-16,-29],[-17,6],[10,18],[-21,23],[-17,-19],[-6,6],[19,19],[-6,17],[20,-22]],[[9978,5461],[21,6],[-57,-71],[-9,-32],[-16,-1],[-4,7],[-23,-13],[-64,8],[-19,28],[8,8],[-7,32],[10,4],[12,-34],[9,6],[13,25],[15,2],[12,-17],[4,-22],[9,-8],[20,45],[24,12],[24,28],[18,-13]],[[3129,6175],[8,42],[14,22],[19,-14],[13,-17],[4,-19],[-11,18],[-22,-30],[-25,-2]],[[2510,3179],[39,-11],[12,-25],[-7,-27],[-25,-35],[-18,7],[4,14],[-90,26],[14,28],[-7,2],[-6,-20],[-15,10],[5,13],[-20,6],[-4,-13],[-35,21],[-18,35],[5,13],[141,-35],[25,-9]],[[4422,5885],[-6,6],[51,45],[5,-6],[-50,-45]],[[4539,5996],[21,31],[-6,-16],[15,-10],[-20,-28],[-13,4],[10,15],[-7,4]],[[6613,9939],[-5,-4],[-18,39],[9,25],[5,-2],[-7,-23],[16,-35]],[[5724,7895],[-1,-7],[24,3],[19,-10],[12,-14],[15,12],[16,0],[6,-11],[22,-5],[26,-14],[4,8],[40,-16],[5,7],[33,7],[0,-33],[-9,-15],[-19,-13],[-26,1],[-38,11],[-21,17],[-23,10],[-8,-7],[-4,-33],[-11,-16],[-48,-10],[-6,-5],[-12,9],[-16,-12],[-40,-39],[-18,8],[-6,11],[23,16],[35,37],[4,24],[-16,16],[-58,31],[9,26],[27,-8],[19,-15],[36,34],[5,-5]],[[4135,6724],[2,-39],[-9,-49],[-9,1],[-7,18],[6,2],[11,24],[-12,-1],[-3,10],[19,18],[2,16]],[[60,18],[-28,-10],[17,13],[11,-3]],[[8240,6465],[0,-62],[-14,-4],[-4,62],[18,4]],[[1244,6633],[23,12],[27,-15],[-7,-29],[-14,-20],[-6,4],[-23,48]],[[1470,6833],[-17,7],[5,7],[-9,25],[-25,-12],[-17,28],[22,12],[-11,24],[38,11],[36,-9],[-29,-4],[6,-11],[16,-9],[4,-16],[15,-5],[-8,-16],[7,-27],[-12,-4],[-13,6],[-8,-7]],[[1548,6469],[0,0]],[[1570,6488],[12,-16],[32,-8],[13,-8],[-19,-37],[-23,-20],[-9,-17],[-13,-7],[-14,12],[-3,16],[10,45],[6,12],[-9,42],[11,4],[6,-18]],[[7536,7280],[-7,-16],[46,-14],[13,-8],[30,-8],[22,13],[14,-13],[0,-14],[35,-5],[12,-24],[-7,-4],[-53,25],[-14,3],[-18,13],[-94,29],[-18,-2],[-5,13],[-13,7],[-22,-5],[4,6],[22,5],[35,-11],[18,10]]]}