{"type":"Topology","bbox":[-77.42315782564225,4.5378669777960665,-77.00399668367032,5.446420701637582],"transform":{"scale":[0.000041920306227815436,0.00009086445883003452],"translate":[-77.42315782564225,4.5378669777960665]},"objects":{"municipios":{"type":"GeometryCollection","geometries":[{"type":"Polygon","arcs":[[0]]},{"type":"Polygon","arcs":[[1]]},{"type":"Polygon","arcs":[[2]]},{"type":"Polygon","arcs":[[3]]},{"type":"Polygon","arcs":[[4]]},{"type":"Polygon","arcs":[[5]]},{"type":"Polygon","arcs":[[6]]},{"type":"Polygon","arcs":[[7]]},{"type":"MultiPolygon","arcs":[[[8]],[[9]]]},{"type":"Polygon","arcs":[[10]]},{"type":"Polygon","arcs":[[11]]},{"type":"Polygon","arcs":[[12]]},{"type":"Polygon","arcs":[[13,14,15]]},{"type":"Polygon","arcs":[[16,-14,17]]},{"type":"Polygon","arcs":[[-18,-16,18]]},{"type":"Polygon","arcs":[[19]]},{"type":"Polygon","arcs":[[20]]},{"type":"Polygon","arcs":[[21]]},{"type":"Polygon","arcs":[[22]]},{"type":"Polygon","arcs":[[23]]},{"type":"Polygon","arcs":[[24]]},{"type":"Polygon","arcs":[[25]]},{"type":"Polygon","arcs":[[26]]},{"type":"Polygon","arcs":[[27]]},{"type":"Polygon","arcs":[[28]]},{"type":"Polygon","arcs":[[29]]}]}},"arcs":[[[2502,407],[6,0],[4,-32],[-16,-2],[-51,-3],[0,10],[20,3],[0,6],[14,11],[1,7],[14,2],[5,6],[3,-8]],[[2127,3562],[-13,-2],[14,7],[26,6],[3,3],[12,-3],[-2,-4],[-38,-9],[-2,2]],[[1926,2972],[18,-3],[2,-4],[19,-9],[15,-4],[-32,-10],[-38,-10],[-7,-4],[-24,4],[-20,8],[-4,8],[16,11],[7,-1],[7,-7],[12,8],[-8,5],[15,7],[22,1]],[[391,9525],[7,1],[9,-4],[-6,-3],[19,-7],[10,-7],[17,4],[-4,-8],[19,-11],[7,3],[12,19],[9,-2],[-10,-17],[5,-5],[8,1],[25,12],[16,-4],[-7,-10],[-10,-2],[-9,3],[-16,-7],[2,-2],[-36,-13],[-13,6],[7,0],[18,7],[-8,4],[-18,-5],[-8,4],[12,5],[-7,3],[-18,-7],[-10,5],[22,9],[3,3],[-11,7],[-4,-2],[-16,9],[-19,7],[3,4]],[[2685,1894],[5,-1],[-17,-7],[-2,-9],[11,1],[3,-6],[-13,-6],[11,-1],[-7,-9],[10,-7],[-6,-2],[11,-11],[26,2],[-25,-8],[-19,16],[-3,8],[4,10],[-12,-4],[-9,7],[-25,5],[-18,-4],[-12,18],[11,3],[5,-10],[8,-5],[9,-1],[5,6],[9,1],[-5,-8],[9,4],[17,13],[19,5]],[[6708,9423],[10,0],[8,-6],[-4,-3],[-18,0],[-8,-4],[-8,3],[6,9],[14,1]],[[7641,4787],[19,-2],[-7,-6],[-30,-2],[7,9],[11,1]],[[9954,8324],[-9,0],[-8,-6],[-1,12],[24,2],[-6,-8]],[[2695,1618],[-32,1],[2,8],[31,-6],[-1,-3]],[[2626,1635],[-10,-2],[-7,21],[8,1],[9,-20]],[[2551,1149],[11,-5],[-9,0],[-12,-7],[7,-3],[-8,-8],[-10,1],[-8,-5],[-7,1],[8,8],[-22,7],[15,-2],[35,13]],[[8272,8471],[18,-5],[-18,-6],[-9,6],[0,8],[9,-3]],[[1287,6805],[7,-4],[7,3],[28,-17],[-11,-3],[8,-4],[-9,-8],[-11,17],[-5,3],[-10,-4],[-10,8],[10,3],[-4,6]],[[1414,4596],[-11,-5],[-14,1],[-5,-18],[8,-1],[2,-7]],[[1394,4566],[5,-4],[20,2],[-2,-4],[-21,-15],[-7,-4],[7,-2],[-16,-7],[-23,-5],[-13,2],[9,8],[-16,4],[-40,11],[-9,4],[5,3],[-19,5],[-23,12]],[[1251,4576],[26,11],[13,-7],[51,17],[15,-7],[25,7],[27,3],[6,-4]],[[1457,4581],[-4,-7],[-12,1],[-11,-6],[-18,0],[-18,-3]],[[1414,4596],[17,-1],[10,-8],[14,0],[2,-6]],[[1251,4576],[-5,7],[12,9],[28,8],[8,-7],[8,-1],[27,9],[-10,6],[9,3],[9,-6],[8,6],[-12,7],[34,10],[-6,3],[10,3],[-24,17],[11,4],[19,-14],[5,1],[12,-6],[14,2],[26,-9],[11,-10],[22,-12],[28,-6],[-13,-10],[-25,-9]],[[5098,1673],[10,-7],[-27,-14],[-44,-33],[-26,8],[-21,4],[14,6],[-20,4],[5,7],[13,0],[9,-9],[10,6],[-5,10],[13,6],[20,0],[18,8],[-6,5],[7,6],[11,-2],[-6,-5],[8,-2],[15,9],[2,-7]],[[1623,6590],[10,-2],[-20,-22],[9,-5],[-10,-5],[-15,3],[-5,-2],[-11,5],[9,3],[3,16],[-5,9],[35,0]],[[2464,9333],[15,6],[9,-6],[-7,-8],[7,-9],[-17,1],[-11,-2],[5,6],[-1,12]],[[3703,1],[-21,10],[-13,1],[4,14],[20,0],[3,-6],[9,0],[39,-14],[-6,-5],[-20,6],[-5,-7],[-10,1]],[[3939,3267],[1,-5],[17,-9],[-5,-4],[-13,-1],[-21,6],[12,18],[9,-5]],[[9964,2581],[8,8],[-21,4],[8,6],[-1,5],[24,-2],[17,-15],[-2,-6],[-16,-9],[-16,0],[-1,9]],[[2854,9573],[1,-13],[-4,-8],[2,-7],[-19,-2],[-17,9],[18,2],[19,19]],[[27,9982],[6,-7],[-29,4],[7,8],[-5,12],[15,-17],[6,0]],[[1636,8761],[8,-4],[-22,2],[5,13],[18,2],[-9,-13]],[[1193,5951],[3,-9],[13,-1],[-27,-17],[-16,4],[-17,-12],[-3,9],[-21,0],[-2,5],[-17,-2],[0,6],[27,5],[16,9],[-10,8],[9,1],[5,-8],[17,4],[10,-3],[10,6],[3,-5]],[[2062,4014],[-15,5],[-11,-5],[-18,6],[-18,1],[-8,-2],[-11,11],[-18,4],[-3,6],[24,-7],[14,2],[-1,-6],[26,-6],[3,2],[26,2],[7,-6],[4,3],[15,-6],[-9,-7],[-7,3]]]}
