{"type":"Topology","bbox":[-76.80634302771603,5.241084189116813,-76.66644595938078,5.423405022860904],"transform":{"scale":[0.000013991105944118863,0.000018233906765085645],"translate":[-76.80634302771603,5.241084189116813]},"objects":{"municipios":{"type":"GeometryCollection","geometries":[{"type":"Polygon","arcs":[[0]]},{"type":"Polygon","arcs":[[1,2,3]]},{"type":"Polygon","arcs":[[-3,4,5]]},{"type":"Polygon","arcs":[[6,-5,-2]]},{"type":"MultiPolygon","arcs":[[[7]],[[8]],[[9]]]},{"type":"Polygon","arcs":[[10]]},{"type":"Polygon","arcs":[[11]]},{"type":"Polygon","arcs":[[12]]}]}},"arcs":[[[6365,8507],[148,-110],[76,-61],[-16,-14],[26,-17],[-39,-33],[-15,19],[-37,14],[-97,8],[-87,56],[-36,38],[-65,40],[-33,31],[-66,-62],[-18,20],[17,25],[-62,61],[-5,20],[-58,64],[62,33],[-2,17],[92,13],[87,-51],[-10,-10],[138,-101]],[[5807,5170],[-167,7],[-47,6]],[[5593,5183],[16,86],[51,64]],[[5660,5333],[20,24],[7,-21],[69,-31],[24,-43],[25,-19],[15,-39],[-26,2],[-2,-36],[15,0]],[[5593,5183],[-23,-134]],[[5570,5049],[-61,9],[18,57],[-13,5],[23,80],[-37,0],[-14,35],[31,37],[65,39],[28,0],[50,22]],[[5807,5170],[21,-1],[35,-56],[4,-36],[64,6],[7,-29],[-117,-19],[-71,21],[0,-49],[-38,-23],[-19,1],[6,32],[-25,38],[-33,1],[4,41],[-35,6],[-13,-42],[-27,-12]],[[6621,1372],[25,-17],[23,9],[62,1],[6,17],[46,-64],[-44,31],[-58,4],[-9,-14],[37,-28],[-71,27],[-3,14],[-48,34],[34,-14]],[[6881,1317],[0,0]],[[6839,1348],[68,-19],[-3,-9],[-57,12],[-8,16]],[[188,9929],[67,8],[2,-27],[-78,-8],[9,-29],[-41,-33],[0,-19],[-72,19],[14,-23],[-36,1],[6,24],[-50,3],[-9,20],[21,72],[0,58],[24,4],[43,-19],[28,-32],[72,-19]],[[9951,5784],[48,-32],[-44,-44],[34,-25],[-23,-19],[-45,34],[24,18],[-47,36],[53,32]],[[8880,65],[40,-32],[31,28],[-10,-39],[-27,-22],[-39,33],[-92,44],[31,22],[66,-34]]]}