{"type":"Topology","bbox":[-77.59646842055474,7.023804363528129,-76.68777530678659,7.7258648636418386],"transform":{"scale":[0.00009087839921673685,0.00007021307131850283],"translate":[-77.59646842055474,7.023804363528129]},"objects":{"municipios":{"type":"GeometryCollection","geometries":[{"type":"Polygon","arcs":[[0]]},{"type":"Polygon","arcs":[[1]]},{"type":"Polygon","arcs":[[2]]},{"type":"Polygon","arcs":[[3]]},{"type":"Polygon","arcs":[[4]]},{"type":"Polygon","arcs":[[5,6]]},{"type":"Polygon","arcs":[[7]]},{"type":"Polygon","arcs":[[8]]},{"type":"Polygon","arcs":[[9]]},{"type":"Polygon","arcs":[[10,11,12]]},{"type":"Polygon","arcs":[[13,14,15,16,-12]]},{"type":"Polygon","arcs":[[17,-15,18,19]]},{"type":"Polygon","arcs":[[20,21,-20,22]]},{"type":"Polygon","arcs":[[23,24,25,-21,26]]},{"type":"Polygon","arcs":[[27,-25,28,29]]},{"type":"Polygon","arcs":[[30,31,-30,32]]},{"type":"Polygon","arcs":[[-18,-22,-26,-28,-32,33,-16]]},{"type":"Polygon","arcs":[[34,-27,-23,-19,-14,-11,35]]},{"type":"Polygon","arcs":[[-33,-29,-24,-35,36]]},{"type":"Polygon","arcs":[[37]]},{"type":"Polygon","arcs":[[38]]},{"type":"Polygon","arcs":[[39,40,41,42,43]]},{"type":"Polygon","arcs":[[44,45,46,47,48,-40]]},{"type":"Polygon","arcs":[[49,50,-46]]},{"type":"MultiPolygon","arcs":[[[-49,51,-41]],[[52,53]]]},{"type":"Polygon","arcs":[[-51,54,-53,55,-47]]},{"type":"Polygon","arcs":[[56]]},{"type":"MultiPolygon","arcs":[[[-43,57]],[[58]]]},{"type":"Polygon","arcs":[[59]]},{"type":"Polygon","arcs":[[-6,60]]},{"type":"Polygon","arcs":[[61]]},{"type":"Polygon","arcs":[[62]]},{"type":"Polygon","arcs":[[63]]},{"type":"Polygon","arcs":[[64]]},{"type":"Polygon","arcs":[[65]]},{"type":"MultiPolygon","arcs":[[[66]],[[67]]]},{"type":"MultiPolygon","arcs":[[[68]],[[69]]]},{"type":"Polygon","arcs":[[70,71]]},{"type":"Polygon","arcs":[[72,-72]]}]}},"arcs":[[[8576,4330],[-8,-11],[-8,-2],[2,5],[-3,7],[5,-4],[2,1],[-3,7],[3,1],[3,-7],[7,3]],[[7646,4794],[-4,-26],[-21,-9],[-3,23],[28,12]],[[9633,5011],[18,9],[10,-31],[-19,-9],[-9,31]],[[4997,9966],[-1,0],[2,33],[28,-3],[-2,-30],[-1,-5],[-26,5]],[[8474,6935],[6,-4],[-2,-35],[-5,-1],[-3,-5],[-5,-2],[-2,4],[3,33],[3,6],[5,4]],[[9997,6202],[-19,-3],[1,-7],[-16,-3]],[[9963,6189],[-3,21],[17,3],[0,-2],[18,2],[2,-11]],[[7832,4912],[4,-4],[2,-13],[-5,-2],[-2,-14],[-5,7],[-4,-4],[-4,7],[4,5],[-3,6],[1,8],[3,4],[9,0]],[[7784,4609],[5,-3],[7,-24],[-2,-9],[-15,-4],[-2,14],[-4,7],[1,15],[10,4]],[[9150,4158],[-1,-12],[4,-1],[-2,-6],[-13,2],[-2,-11],[-16,10],[-8,13],[8,11],[1,-5],[7,-4],[12,9],[11,-3],[-1,-3]],[[5288,5961],[-6,0]],[[5282,5961],[-6,-1],[0,3],[-9,1],[1,6],[-6,1],[-1,5]],[[5261,5976],[-1,12],[3,6],[4,2],[2,6],[18,12],[16,4],[3,-5],[-3,-6],[-4,4],[-4,-10],[4,-1],[-5,-11],[-2,1],[-3,-16],[-1,-13]],[[5282,5961],[0,-13]],[[5282,5948],[-2,-2],[10,-27],[-9,-6],[-3,8],[-14,-9]],[[5264,5912],[-6,10],[-7,17],[-3,26],[2,13]],[[5250,5978],[11,-2]],[[5289,5885],[-14,13],[-11,14]],[[5282,5948],[4,-12],[6,-15]],[[5292,5921],[8,-12],[-2,-2],[9,-11],[-3,-5],[-4,5],[-11,-11]],[[5325,5893],[-17,-24]],[[5308,5869],[-19,16]],[[5292,5921],[20,-20],[4,5],[9,-13]],[[5337,5880],[6,-8]],[[5343,5872],[-19,-23]],[[5324,5849],[-16,20]],[[5325,5893],[11,-15],[1,2]],[[5364,5811],[-11,4],[-10,7],[-19,27]],[[5343,5872],[19,-11]],[[5362,5861],[-6,-18],[7,-2],[1,-30]],[[5456,5840],[0,-10],[-11,-11],[-13,-7],[-6,3],[-2,8],[-1,14],[-3,2],[-8,-2],[-12,-7],[-13,-3],[-4,1],[7,-21],[-3,-7],[-11,1]],[[5376,5801],[-10,1],[-2,9]],[[5362,5861],[20,-10],[0,-5],[42,1],[14,-4],[18,-3]],[[5376,5801],[-25,-38],[-5,-10],[-9,9],[-5,19],[-13,23],[-16,25],[-33,31],[-20,25],[-15,30],[-7,25],[-1,7],[-3,9],[5,3],[-4,14],[1,10],[24,-5]],[[5344,5889],[-7,-9]],[[5288,5961],[5,-1],[-2,-5],[9,-12],[2,2],[12,-10],[-2,-9],[10,-4],[2,-3],[4,2],[7,-14],[2,3],[7,-5],[-2,-10],[2,-6]],[[5344,5889],[13,-11],[2,4],[4,-4],[1,6],[5,-5],[4,0],[4,-6],[-1,-5],[4,-5],[6,-3],[8,5],[0,-5],[6,0],[0,-7],[16,-1],[-1,5],[3,4],[10,-2],[0,-3],[12,1],[1,-7],[13,-2],[2,-8]],[[5195,7877],[-29,-10],[-8,-6],[-1,2],[6,5],[11,4],[3,4],[8,-1],[11,4],[-1,-2]],[[2416,9900],[4,2],[-7,-13],[-2,8],[5,3]],[[9729,4952],[-1,-2],[-30,6]],[[9698,4956],[7,36]],[[9705,4992],[3,4],[1,12],[-7,3],[0,2]],[[9702,5013],[9,0],[0,5]],[[9711,5018],[6,0],[-4,-16],[1,-8],[3,-5],[4,2],[-1,9],[6,4],[0,10],[6,5],[4,-12],[4,2],[2,-5],[2,-17],[-4,-1],[-3,-5],[2,-13],[3,-2],[-6,-10],[-4,1],[-3,-5]],[[9729,4952],[5,0],[-2,-11],[-3,-5],[-3,2],[-2,-9],[-4,-11],[10,-10],[5,2],[15,-6],[1,-8]],[[9751,4896],[-11,3],[-5,8],[-8,0],[-11,5],[-14,11],[-32,20],[-1,-2],[-16,-8]],[[9653,4933],[-1,12]],[[9652,4945],[2,1]],[[9654,4946],[22,11],[10,1],[12,-2]],[[9751,4896],[-4,-6],[-7,-1],[-2,6],[-18,7],[-1,4],[-14,9],[-5,1],[-6,-7],[-4,2],[1,8],[-4,2],[-10,-3],[-2,-8],[-3,-1],[-6,5],[4,8],[-6,4],[0,4],[-10,-5]],[[9654,4925],[-1,8]],[[9654,4946],[-2,7],[3,1],[-1,6],[16,7],[0,10],[10,1],[0,5],[14,7],[11,2]],[[9630,4942],[-26,0]],[[9604,4942],[0,14],[8,-1],[4,5],[6,-3],[0,-5],[6,2],[2,-12]],[[9654,4925],[-4,-1],[-1,-6],[-4,6],[-4,-3],[-6,5],[-7,0],[-7,-10],[-5,-1],[-2,5],[-9,0],[-5,22],[4,0]],[[9630,4942],[14,0],[8,3]],[[9603,4915],[6,-1],[0,-12],[2,-6],[1,4],[9,-4],[-5,-14],[0,-17],[-13,-4],[-2,5],[-3,-4],[-12,3],[-3,-2],[4,-4],[-3,-3],[-12,0],[0,13],[12,1],[1,6],[-5,-1],[-2,11],[-4,0],[-1,11],[14,-2],[3,-7],[4,0],[3,7],[-4,1],[0,8],[5,1],[-2,5],[7,5]],[[9702,5013],[-3,1],[0,-12],[-9,0],[-2,-4],[-6,-1],[-3,4],[-5,33],[13,0],[0,4],[-13,1],[-4,25],[16,0],[0,1],[15,0],[-1,-18],[12,0],[-1,-29]],[[9722,5053],[-5,-1],[1,9],[4,0],[0,-8]],[[8635,7495],[9,-10],[7,4],[2,-8],[6,-11],[5,-4],[1,-4],[5,-5],[5,11],[6,-11],[2,0],[3,-10],[-5,-1],[1,-4],[0,-10],[-6,-3],[-1,-4],[-6,-5],[4,-4],[-4,-4],[-10,17],[-2,0],[-9,-12],[-2,2],[11,15],[-1,5],[4,6],[1,7],[-2,5],[-3,-3],[0,11],[-3,-5],[-7,9],[8,3],[-4,5],[-12,-7],[-13,2],[-1,3],[10,21],[1,-1]],[[9997,6202],[2,-14],[-11,-1],[1,-6],[-24,-4],[-2,12]],[[4868,2112],[-2,-10],[-8,3],[1,5],[-5,6],[5,5],[14,0],[-5,-9]],[[9,3854],[-1,-8],[2,-3],[4,2],[4,-9],[-2,-2],[4,-9],[-6,8],[-3,-3],[-3,5],[-2,11],[1,5],[-5,-5],[-2,4],[8,6],[1,-2]],[[1127,29],[0,3],[13,-3],[0,-10],[-3,1],[2,-14],[-16,-6],[1,6],[7,5],[3,-3],[-1,7],[-7,4],[0,-3],[-7,-4],[-1,4],[6,5],[8,0],[2,6],[-7,2]],[[2190,971],[5,0],[1,-8],[5,-6],[-1,-10],[-23,6],[-16,0],[1,10],[9,1],[1,6],[18,1]],[[1676,5317],[0,4],[18,1],[25,-16],[3,-11],[-1,-9],[-4,2],[-7,8],[-1,-3],[-9,2],[-1,-5],[-7,2],[1,6],[-8,3],[-2,-10],[-2,0],[2,10],[-3,-3],[-10,5],[3,9],[3,-1],[0,6]],[[3143,2235],[9,-2],[1,-7],[-6,0],[-7,-6],[-4,10],[7,5]],[[3129,2257],[4,-6],[4,-1],[-3,-9],[-6,6],[-3,-2],[-4,11],[-6,-1],[-3,-5],[-3,5],[6,10],[10,2],[4,-10]],[[1711,4654],[6,-3],[-4,-6],[-12,-9],[-3,7],[3,6],[10,5]],[[1722,4666],[-11,-8],[0,6],[8,8],[3,-6]],[[5956,3388],[-2,-2],[-5,10],[-2,19],[2,1],[5,-13],[8,-12],[-1,-11]],[[5961,3380],[-5,13],[0,-5]],[[5961,3380],[0,-4],[-5,12]]]}