{"type":"Topology","bbox":[-77.17844224784818,6.85895054508931,-76.6292307397286,7.181194395021935],"transform":{"scale":[0.000054926643476305974,0.00003222760775403791],"translate":[-77.17844224784818,6.85895054508931]},"objects":{"municipios":{"type":"GeometryCollection","geometries":[{"type":"Polygon","arcs":[[0]]},{"type":"Polygon","arcs":[[1]]},{"type":"Polygon","arcs":[[2]]},{"type":"Polygon","arcs":[[3,4]]},{"type":"Polygon","arcs":[[5,-4]]},{"type":"Polygon","arcs":[[6]]},{"type":"Polygon","arcs":[[7]]},{"type":"Polygon","arcs":[[8]]},{"type":"Polygon","arcs":[[9,10]]},{"type":"Polygon","arcs":[[-10,11]]},{"type":"Polygon","arcs":[[12]]}]}},"arcs":[[[4647,6712],[5,-6],[-4,-10],[27,-29],[16,-21],[-3,-13],[-20,13],[-34,35],[13,31]],[[16,2149],[12,-51],[-7,-6],[-2,8],[-10,-5],[0,-9],[-8,4],[6,12],[-5,12],[4,32],[10,3]],[[5493,5299],[9,-1],[4,-13],[5,4],[5,-15],[-4,-6],[8,-11],[15,-42],[-8,-5],[10,-22],[-19,-23],[-38,103],[14,15],[-9,25],[8,-9]],[[3688,9238],[8,2],[8,-19],[24,17],[-5,23],[18,10],[-2,13],[13,7],[68,24],[-5,32]],[[3815,9347],[7,7],[8,-4],[16,25],[3,-13],[8,-3],[17,9],[10,9],[5,-14],[13,-12],[-9,-24],[-53,-35],[-4,-10],[-12,-10],[-25,-13],[-17,-4],[-26,-12],[-32,-19],[-26,-23],[-37,-45],[-2,27],[3,2],[26,53]],[[3688,9238],[14,33],[38,48],[19,3],[16,15],[31,6],[9,4]],[[9974,9069],[16,-4],[7,-9],[2,-19],[-13,-12],[-9,-14],[-17,5],[-22,18],[-1,21],[12,-12],[-3,13],[9,-1],[24,-23],[15,17],[-7,13],[-9,-9],[-7,8],[3,8]],[[4050,3235],[12,-4],[26,-59],[-8,11],[-7,-13],[-5,16],[-21,45],[3,4]],[[2476,3258],[0,0]],[[2686,9882],[-20,21],[-25,23],[-27,35],[3,5]],[[2617,9966],[7,6],[8,-12],[16,-14],[8,13],[30,-15],[-1,-14],[-11,-6],[13,-4],[-1,-38]],[[2686,9882],[-14,-8],[-15,-2],[-41,9],[-14,13],[-16,18],[-12,25],[18,26],[-11,24],[9,12],[5,-10],[-6,-9],[6,-15],[4,11],[6,-10],[8,1],[9,17],[-5,-18]],[[1439,6],[3,24],[10,-5],[10,2],[-14,-24],[-9,3]]]}