{"type":"Topology","bbox":[-75.26393498302753,3.1391343679919332,-75.1100849247286,3.3905238183113235],"transform":{"scale":[0.000015386544484341296,0.000025141459177856815],"translate":[-75.26393498302753,3.1391343679919332]},"objects":{"municipios":{"type":"GeometryCollection","geometries":[{"type":"Polygon","arcs":[[0,1]]},{"type":"Polygon","arcs":[[2]]},{"type":"Polygon","arcs":[[3,4,5,6,7]]},{"type":"Polygon","arcs":[[8,9,10,-7]]},{"type":"Polygon","arcs":[[11,-9,-6,12]]},{"type":"Polygon","arcs":[[13,14,15,16]]},{"type":"Polygon","arcs":[[17,-13,-5,18,19]]},{"type":"Polygon","arcs":[[20,21]]},{"type":"Polygon","arcs":[[-19,-4,22]]},{"type":"Polygon","arcs":[[-15,23,24]]},{"type":"Polygon","arcs":[[25,-16,-25,26,27]]},{"type":"Polygon","arcs":[[28,-28,29]]},{"type":"Polygon","arcs":[[30,-17,-26,-29]]},{"type":"Polygon","arcs":[[31]]},{"type":"Polygon","arcs":[[32,-1]]},{"type":"Polygon","arcs":[[-22,33]]},{"type":"Polygon","arcs":[[34,-10,-12,-18]]}]}},"arcs":[[[9998,9187],[-27,4],[-1,30],[-119,7],[-110,2]],[[9741,9230],[-20,19],[-8,-1],[-14,23],[48,-9],[-1,11],[31,10],[46,8],[5,17],[31,-4],[4,27],[-4,23],[61,-28],[47,-34],[22,-17],[-2,-22],[11,-51],[0,-15]],[[1,247],[18,-9],[59,2],[38,-7],[75,-28],[20,2],[66,-25],[5,-9],[17,4],[17,-24],[-24,-7],[25,-2],[-12,-25],[-33,-12],[6,-9],[-18,-5],[19,-16],[6,-12],[-9,-23],[-18,-19],[-38,-23],[-76,34],[-7,15],[-59,16],[-19,58],[-22,43],[-19,48],[-17,33]],[[5791,8537],[14,-17],[34,1],[33,-7],[61,-2],[20,-22],[19,-2],[11,-11]],[[5983,8477],[-2,-13]],[[5981,8464],[0,-7],[-97,-2]],[[5884,8455],[-34,-4],[-10,12],[-22,1],[-7,9],[-30,4],[-5,-9],[-35,9]],[[5741,8477],[42,61],[8,-1]],[[5884,8455],[-1,-37],[-15,3],[-5,-11],[13,-9],[-33,-7],[-5,-8]],[[5838,8386],[-10,-20]],[[5828,8366],[-29,1],[0,-9],[-27,-1],[-3,-9],[-42,18],[-35,22],[-11,-1],[14,23],[43,57],[3,10]],[[5983,8387],[-30,-36],[-47,11],[-11,6],[-21,1],[0,14],[-36,3]],[[5981,8464],[54,-3],[13,-15],[-49,-42],[-16,-17]],[[2756,3129],[1,53],[-11,19],[-13,34],[-19,28],[-61,20],[-29,20],[-7,20],[52,-3]],[[2669,3320],[14,-1],[52,-17],[4,-13],[31,-14],[140,-50]],[[2910,3225],[-59,-60]],[[2851,3165],[-71,-30],[-24,-6]],[[6148,8371],[-102,5],[-13,7],[-10,-8],[-40,12]],[[5983,8477],[19,25],[24,2],[24,21],[33,-5],[-4,33],[4,12]],[[6083,8565],[17,5],[2,-30],[15,1],[-4,-16],[56,-15],[21,-8],[-5,-13],[-22,3],[-8,-17],[45,-3],[-10,-54],[-45,9],[-15,-20],[44,-13],[-26,-23]],[[3166,1828],[-20,-40],[9,-9],[-18,-18],[-20,8],[-18,19],[-29,-8],[25,-9],[-14,-17],[-16,-2],[-15,14],[-49,-6],[-20,5],[-34,-4],[-51,4],[-7,-4],[-56,-7],[26,38],[31,33],[11,8],[-21,11],[26,20],[44,48],[21,-1]],[[2971,1911],[-55,-66],[-11,-10],[73,-13],[109,0],[22,1],[40,13],[17,-8]],[[5791,8537],[19,23],[27,47],[13,-4],[60,-45],[48,-17],[125,24]],[[2669,3320],[7,9],[20,6],[59,-13],[26,-2],[14,19],[21,-7],[22,-17],[1,-8],[33,-13],[11,2],[61,59],[-2,10],[33,-18]],[[2975,3347],[0,-8],[19,-22],[-50,-58],[-34,-34]],[[3008,3191],[-52,-63],[-105,37]],[[2975,3347],[10,7],[45,2]],[[3030,3356],[25,-29],[43,-42],[-19,-3],[-71,-91]],[[3406,2952],[-24,34],[-58,71],[-23,21],[-42,23],[-119,47],[-132,43]],[[3030,3356],[18,2],[42,-5],[20,-22],[19,-32],[132,-106],[53,-47],[60,-49],[6,-18],[31,-15],[-29,-23],[44,-22],[28,-54],[-48,-13]],[[3406,2952],[-111,-34],[-60,109],[-17,16],[-33,17],[-35,13],[-41,33],[-10,-3],[-38,22],[1,3],[-40,16],[-57,-39],[-13,2],[-6,-16],[-11,-10],[-110,-44],[-31,-1],[-43,7],[5,49],[0,37]],[[6056,9999],[1,-30],[12,3],[106,-61],[18,-50],[30,-11],[44,4],[2,-20],[-30,2],[-1,-25],[-15,-5],[-19,5],[-18,-5],[-1,20],[-44,-33],[-19,-2],[-23,12],[-27,-7],[11,-19],[-10,-13],[-28,9],[-21,13],[-32,9],[1,26],[-15,48],[-40,72],[-14,45],[40,5],[92,8]],[[9998,9187],[-15,-45],[-53,-27],[-41,-38],[-53,-28],[-7,-8],[66,-5],[-20,-36],[-7,-32],[-62,2],[-9,-9],[-71,-46],[-29,-5],[-23,2],[14,13],[-21,4],[9,16],[27,9],[20,12],[28,36],[14,7],[7,20],[24,1],[-2,15],[22,49],[22,3],[4,28],[-32,-6],[-32,22],[11,9],[8,19],[-23,4],[-6,13],[8,9],[-14,2],[-21,33]],[[2971,1911],[27,22],[-22,14],[25,21],[31,52],[33,-9],[-2,-8],[25,1],[16,-10],[-48,-42],[51,-9],[18,15],[27,-13],[-17,-9],[22,-24],[-8,-6],[-29,10],[-42,-2],[7,-8],[-18,-16],[5,-8],[31,0],[63,-8],[40,-25],[39,11],[1,-30],[-18,-28],[-16,10],[-46,16]],[[6148,8371],[4,-10],[52,11],[9,-21],[-50,-14],[-5,4],[-66,12],[-3,-8],[-81,16],[-20,-19],[-14,2],[-20,-33],[-38,-8],[-50,12],[-31,12],[-24,0],[17,39]]]}
