{"type":"Topology","bbox":[-75.56865650565345,3.103674013138506,-75.19249092339993,3.374948426532991],"transform":{"scale":[0.000037620320257377776,0.000027130154354883976],"translate":[-75.56865650565345,3.103674013138506]},"objects":{"municipios":{"type":"GeometryCollection","geometries":[{"type":"Polygon","arcs":[[0,1,2,3]]},{"type":"MultiPolygon","arcs":[[[4]],[[5]]]},{"type":"Polygon","arcs":[[6,7,8,9]]},{"type":"Polygon","arcs":[[10,11,-8]]},{"type":"Polygon","arcs":[[-9,-12,-3,12]]},{"type":"Polygon","arcs":[[13,-4,-11,-7,14]]},{"type":"Polygon","arcs":[[15,16,-14]]},{"type":"Polygon","arcs":[[-1,-17,17]]},{"type":"Polygon","arcs":[[18]]},{"type":"Polygon","arcs":[[19]]},{"type":"Polygon","arcs":[[20]]},{"type":"Polygon","arcs":[[21]]}]}},"arcs":[[[8846,4359],[-2,-60],[-6,1],[12,-124],[4,-17]],[[8854,4159],[-12,2],[0,-14],[-14,-3],[-23,14],[-20,28],[-2,17],[-12,7],[-9,-3]],[[8762,4207],[-7,28],[0,14],[42,5],[7,110]],[[8804,4364],[42,-5]],[[114,5192],[3,-8],[-23,-25],[-11,-25],[4,-4],[-26,-10],[4,-16],[-10,-9],[-30,-7],[-15,-9],[-10,6],[6,9],[30,13],[-8,10],[17,-4],[6,21],[15,8],[12,-9],[18,43],[11,15],[7,1]],[[160,5265],[7,-9],[-11,-2],[-9,-39],[-6,-12],[-12,-3],[-1,24],[14,31],[18,10]],[[8748,4603],[4,-27],[21,-24],[20,-15],[8,-10],[10,-24],[-4,-79]],[[8807,4424],[-45,5],[-2,-30],[-20,3],[0,13],[-8,4],[-9,32],[-12,53],[-34,23],[-8,17],[-10,7],[-26,44],[-21,23]],[[8612,4618],[1,11]],[[8613,4629],[15,-7],[12,1],[15,8],[12,-12],[21,-1],[12,3],[10,12],[15,-2],[19,-29],[4,1]],[[8807,4424],[-3,-60]],[[8804,4364],[-102,11],[-97,10],[1,15],[6,218]],[[8762,4207],[-6,-3],[-26,-1],[-12,5],[-20,25],[-24,9],[0,-13],[-8,-10],[-18,9],[-22,-17],[-6,4],[-8,-16],[-15,8],[-29,-7],[-3,15],[-10,8],[-8,27],[-23,35],[49,72],[7,36],[2,68],[-3,124],[0,45],[34,-1]],[[8921,4527],[-48,-1],[-17,4],[-2,-53],[-6,-89],[-2,-29]],[[8748,4603],[-5,141],[38,-2],[3,42],[39,-5],[3,19],[43,-4],[6,5],[8,-22],[-1,-16],[4,-18],[-6,-9],[22,-9],[1,-55],[3,-67],[-4,-49],[19,-27]],[[8921,4527],[-2,-42],[2,-37],[8,-34],[0,-44],[2,-17],[-6,0]],[[8925,4353],[-79,6]],[[8925,4353],[8,-40],[1,-33],[-7,-56],[3,-28],[-2,-12],[-16,-18],[-6,-50],[0,-18],[-26,-5],[-9,14],[-10,46],[-7,6]],[[1982,6171],[23,-12],[1,5],[24,-1],[0,13],[13,-5],[1,-9],[16,-6],[19,6],[3,-23],[-3,-15],[6,0],[-10,-44],[-6,0],[-7,-27],[-5,-1],[2,-23],[16,-11],[7,-13],[-8,-4],[-28,-2],[-9,-22],[-15,-9],[-8,4],[8,9],[8,23],[-9,21],[-7,38],[-21,10],[-15,10],[4,9],[-11,13],[-2,21],[-9,21],[7,7],[-7,24],[16,2],[6,-9]],[[9971,9975],[5,-13],[12,7],[11,-4],[0,-37],[-10,1],[-1,-18],[-27,14],[-11,-48],[-10,19],[-21,-10],[-4,12],[-27,-26],[-23,19],[2,53],[34,-11],[3,17],[-1,23],[28,0],[20,8],[6,10],[17,4],[-3,-20]],[[7484,112],[-3,-25],[-6,2],[-2,-17],[-9,2],[-14,-74],[-32,13],[6,23],[7,45],[20,-21],[7,24],[-12,4],[4,19],[19,-6],[3,15],[12,-4]],[[1259,7737],[-10,-30],[3,-19],[11,4],[10,-10],[-37,3],[-8,-8],[-9,-34],[9,-30],[7,-16],[-8,-17],[-4,19],[-19,51],[6,30],[13,19],[19,38],[17,0]]]}
