{"type":"Topology","bbox":[-75.61407524403575,2.2637559534932716,-75.46513933088823,2.4782092792647714],"transform":{"scale":[0.000014895080822833403,0.000021447477324882466],"translate":[-75.61407524403575,2.2637559534932716]},"objects":{"municipios":{"type":"GeometryCollection","geometries":[{"type":"Polygon","arcs":[[0,1]],"properties":{"codigo":"41306100000000000106","sector":"413061000000000001","pcode":"CO41306","area_m2":19348}},{"type":"Polygon","arcs":[[2,3,4]],"properties":{"codigo":"41306100000000000204","sector":"413061000000000002","pcode":"CO41306","area_m2":79509}},{"type":"MultiPolygon","arcs":[[[5]],[[6]]],"properties":{"codigo":"41306200104007000101","sector":"413062001040070001","pcode":"CO41306","area_m2":30086}},{"type":"Polygon","arcs":[[7]],"properties":{"codigo":"41306200404011100101","sector":"413062004040111001","pcode":"CO41306","area_m2":49151}},{"type":"Polygon","arcs":[[8]],"properties":{"codigo":"41306200406016000101","sector":"413062004060160001","pcode":"CO41306","area_m2":113650}},{"type":"MultiPolygon","arcs":[[[9]],[[10]]],"properties":{"codigo":"41306200406001000101","sector":"413062004060010001","pcode":"CO41306","area_m2":10678}},{"type":"Polygon","arcs":[[11]],"properties":{"codigo":"41306200203006000101","sector":"413062002030060001","pcode":"CO41306","area_m2":68883}},{"type":"Polygon","arcs":[[12,-1,13,14,15,16]],"properties":{"codigo":"41306100000000000101","sector":"413061000000000001","pcode":"CO41306","area_m2":383536}},{"type":"Polygon","arcs":[[17,18,-3]],"properties":{"codigo":"41306100000000000205","sector":"413061000000000002","pcode":"CO41306","area_m2":236247}},{"type":"Polygon","arcs":[[19,-14,-2,-13,20]],"properties":{"codigo":"41306100000000000102","sector":"413061000000000001","pcode":"CO41306","area_m2":307531}},{"type":"Polygon","arcs":[[21,22,23,-16]],"properties":{"codigo":"41306100000000000103","sector":"413061000000000001","pcode":"CO41306","area_m2":108379}},{"type":"Polygon","arcs":[[24,25,26,-23]],"properties":{"codigo":"41306100000000000104","sector":"413061000000000001","pcode":"CO41306","area_m2":296976}},{"type":"Polygon","arcs":[[27,-25,-22,-15,-20,28]],"properties":{"codigo":"41306100000000000105","sector":"413061000000000001","pcode":"CO41306","area_m2":124901}},{"type":"Polygon","arcs":[[29,30,31,-18,-5,32,-26]],"properties":{"codigo":"41306100000000000201","sector":"413061000000000002","pcode":"CO41306","area_m2":407662}},{"type":"Polygon","arcs":[[33,34,-30,-28]],"properties":{"codigo":"41306100000000000202","sector":"413061000000000002","pcode":"CO41306","area_m2":94147}},{"type":"Polygon","arcs":[[-31,-35,35]],"properties":{"codigo":"41306100000000000203","sector":"413061000000000002","pcode":"CO41306","area_m2":103382}},{"type":"MultiPolygon","arcs":[[[36]],[[37]],[[38]]],"properties":{"codigo":"41306200502002000101","sector":"413062005020020001","pcode":"CO41306","area_m2":37163}},{"type":"Polygon","arcs":[[39]],"properties":{"codigo":"41306200101003000101","sector":"413062001010030001","pcode":"CO41306","area_m2":196200}},{"type":"Polygon","arcs":[[40]],"properties":{"codigo":"41306200304004000101","sector":"413062003040040001","pcode":"CO41306","area_m2":77763}},{"type":"Polygon","arcs":[[41]],"properties":{"codigo":"41306200102009000101","sector":"413062001020090001","pcode":"CO41306","area_m2":6947}},{"type":"Polygon","arcs":[[42]],"properties":{"codigo":"41306200406010000101","sector":"413062004060100001","pcode":"CO41306","area_m2":58579}},{"type":"Polygon","arcs":[[43]],"properties":{"codigo":"41306200404012000101","sector":"413062004040120001","pcode":"CO41306","area_m2":36035}},{"type":"Polygon","arcs":[[44]],"properties":{"codigo":"41306200502013000101","sector":"413062005020130001","pcode":"CO41306","area_m2":10973}},{"type":"Polygon","arcs":[[45]],"properties":{"codigo":"41306200104014000101","sector":"413062001040140001","pcode":"CO41306","area_m2":191284}},{"type":"Polygon","arcs":[[46]],"properties":{"codigo":"41306200502015000101","sector":"413062005020150001","pcode":"CO41306","area_m2":39430}}]}},"arcs":[[[4772,5755],[8,58],[108,1],[2,-30],[-69,-9],[2,-13]],[[4823,5762],[-51,-7]],[[4192,5317],[-70,-24],[-71,-28],[-14,35],[-61,-14],[-17,58]],[[3959,5344],[9,4]],[[3968,5348],[199,70],[25,-101]],[[5709,6444],[6,-5],[80,12],[23,-9],[-26,-34],[-12,-3],[-68,11],[-84,0],[-90,-8],[4,28],[39,-8],[117,0],[8,3],[-37,35],[3,8],[37,-30]],[[5732,6519],[-16,-18],[-36,13],[9,25],[43,-20]],[[7582,2374],[3,-16],[28,-29],[-69,-34],[-5,-20],[-32,15],[-24,-12],[-56,21],[-15,24],[-28,-4],[-6,25],[18,10],[35,1],[3,13],[29,-12],[100,-7],[19,25]],[[7462,299],[-27,-13],[-37,-54],[-5,-22],[19,-17],[50,-23],[-12,-15],[-76,29],[-51,-40],[40,-11],[-10,-29],[25,-5],[5,-28],[-31,-5],[-8,8],[-42,-13],[-14,17],[-34,-10],[-5,-25],[-31,5],[-20,-32],[-22,-16],[-5,19],[-27,22],[40,19],[22,0],[9,16],[-22,14],[26,16],[-35,29],[33,10],[50,-7],[13,8],[1,24],[55,53],[36,82],[61,6],[30,15],[-1,-27]],[[7135,777],[60,-62],[-23,-7],[-48,54],[-18,0],[-21,-22],[-25,-4],[34,32],[41,9]],[[6992,702],[-15,13],[23,2],[-8,-15]],[[9381,9968],[-162,-50],[-139,-18],[-78,23],[21,5],[-2,15],[146,22],[7,8],[215,26],[11,-26],[-19,-5]],[[5185,5789],[-64,-14],[-40,-3],[-96,2],[-47,-1],[-115,-11]],[[4772,5755],[-58,-4],[-108,12]],[[4606,5763],[-64,8]],[[4542,5771],[38,118],[-44,9],[15,5],[89,3],[22,16]],[[4662,5922],[40,2],[129,45],[57,-8],[69,-34],[110,-18],[14,0],[86,41],[7,-28],[11,-133]],[[4192,5317],[9,-33]],[[4201,5284],[49,-194],[-140,33],[9,-71],[-95,-12],[73,86],[-194,64],[-16,6],[3,28],[-21,-4],[-10,87],[100,37]],[[4574,5638],[-7,2],[39,123]],[[5185,5789],[9,-33],[-12,-4],[41,-52],[13,-43],[-37,-10],[-79,-11],[-68,18],[-116,1],[-37,-5],[-70,-22],[-25,-3],[-34,8],[-44,1],[-38,-12],[-49,20],[-46,8],[-19,-12]],[[4542,5771],[-61,6]],[[4481,5777],[-120,14],[16,48],[-20,-7],[-30,25],[83,27],[-11,29]],[[4399,5913],[105,-4],[83,24],[39,2],[36,-13]],[[4481,5777],[-38,-107],[-28,-65],[-29,-31]],[[4386,5574],[-41,14],[-60,-7],[-12,12],[9,23],[-26,33],[-12,5],[-54,-22],[-26,-4],[-30,13],[-5,17],[-30,4],[-65,-12]],[[4034,5650],[60,58],[13,63],[19,24],[45,1],[32,15],[64,53],[52,26],[80,23]],[[4568,5550],[-50,4],[-58,-10],[-35,6],[-39,24]],[[4574,5638],[-7,-25],[1,-63]],[[4386,5574],[-15,-14],[-55,-21],[-9,-20]],[[4307,5519],[-7,-26],[-4,-71],[9,-34],[28,-30]],[[4333,5358],[-36,-22],[31,-17],[-26,-14],[-101,-21]],[[3968,5348],[-11,54],[-21,44],[-20,21],[1,24],[-25,45],[80,27],[57,14],[-28,24],[33,49]],[[4568,5550],[11,-2],[0,-37],[-19,-41],[-6,1],[-26,-54]],[[4528,5417],[-112,43],[-42,21],[-47,32],[-20,6]],[[4528,5417],[-30,-49],[-27,-57],[-91,40],[-5,-9],[-42,16]],[[8576,5388],[16,4],[48,-14],[16,-15],[-8,-13],[25,0],[5,-20],[16,-14],[-46,-2],[-14,-6],[-23,25],[11,12],[-24,20],[-12,-6],[-29,14],[-28,-15],[-27,9],[22,35],[52,-14]],[[8807,5243],[-2,-10],[-62,15],[2,14],[40,-2],[22,-17]],[[8491,5305],[-23,27],[41,21],[24,-23],[-42,-25]],[[8358,9556],[3,-19],[30,-1],[3,18],[22,-18],[84,-36],[21,3],[36,-24],[33,9],[20,-37],[22,-12],[54,-14],[29,0],[8,-16],[20,5],[29,-23],[12,15],[51,-10],[6,-22],[25,2],[63,-14],[-17,-22],[18,-8],[33,-35],[28,-38],[-10,-4],[-36,31],[8,7],[-39,36],[-22,-13],[-29,14],[-32,1],[-58,33],[8,13],[-42,9],[-59,-6],[0,-5],[-45,4],[-38,17],[-7,-8],[-36,16],[-88,-14],[-9,-18],[-72,6],[-8,26],[-12,-6],[-40,67],[8,39],[-40,4],[5,20],[44,-5],[16,33]],[[345,2802],[-11,-17],[20,-64],[-6,-24],[-43,-5],[-83,-45],[-21,11],[22,31],[-29,6],[13,43],[45,39],[0,11],[-46,0],[-84,-9],[-50,-2],[-72,-11],[7,24],[99,12],[24,-5],[192,1],[23,4]],[[9969,7740],[24,-22],[-4,-21],[-22,16],[-24,3],[-7,26],[17,11],[16,-13]],[[7186,1668],[20,-3],[0,-18],[51,0],[0,-12],[65,-4],[7,-7],[-91,4],[-71,-33],[-91,-28],[-3,25],[-68,-1],[-6,18],[-42,-5],[1,18],[63,14],[34,-1],[14,-10],[88,19],[-13,59],[44,2],[-2,-37]],[[7279,2313],[37,1],[3,-24],[-89,-8],[-7,-33],[-64,2],[12,53],[-53,26],[10,20],[151,-37]],[[8570,5221],[19,-10],[59,-46],[-25,-17],[-71,55],[18,18]],[[6369,6864],[25,8],[49,-1],[-6,-15],[18,-1],[-9,-74],[153,0],[27,-65],[-35,0],[-3,25],[-29,0],[-50,-13],[-73,-2],[9,36],[-11,14],[-34,-2],[-55,15],[-22,-1],[-11,-23],[-29,-4],[-5,13],[-57,-9],[-15,21],[-70,9],[2,11],[-85,-10],[-35,-24],[-40,-1],[-4,-15],[-28,7],[-26,-28],[-29,-3],[-41,10],[62,11],[29,14],[101,72],[83,53],[25,-6],[137,-21],[82,-1]],[[8895,4714],[8,-26],[26,-23],[16,2],[3,-24],[-20,-5],[6,-28],[4,-85],[-12,-4],[-5,-31],[-35,-44],[-22,1],[-1,19],[46,47],[9,24],[-10,39],[0,39],[-25,31],[-23,-8],[-5,18],[-26,26],[65,38],[1,-6]]]}
