{"type":"Topology","bbox":[-75.94643560807185,2.0448863661286296,-75.81666871901274,2.117567712313276],"transform":{"scale":[0.000012977986704581718,0.000007268861504615111],"translate":[-75.94643560807185,2.0448863661286296]},"objects":{"municipios":{"type":"GeometryCollection","geometries":[{"type":"Polygon","arcs":[[0,1,2]],"properties":{"codigo":"41791100000000000105","sector":"417911000000000001","pcode":"CO41791","area_m2":63899}},{"type":"Polygon","arcs":[[3]],"properties":{"codigo":"41791200308001000101","sector":"417912003080010001","pcode":"CO41791","area_m2":146810}},{"type":"Polygon","arcs":[[4,5,6]],"properties":{"codigo":"41791100000000000101","sector":"417911000000000001","pcode":"CO41791","area_m2":85604}},{"type":"Polygon","arcs":[[7,8,-7,9]],"properties":{"codigo":"41791100000000000102","sector":"417911000000000001","pcode":"CO41791","area_m2":82189}},{"type":"Polygon","arcs":[[-2,10,-8,11]],"properties":{"codigo":"41791100000000000103","sector":"417911000000000001","pcode":"CO41791","area_m2":121252}},{"type":"Polygon","arcs":[[-1,12,-5,-9,-11]],"properties":{"codigo":"41791100000000000104","sector":"417911000000000001","pcode":"CO41791","area_m2":402441}},{"type":"Polygon","arcs":[[13,14]],"properties":{"codigo":"41791200310002000101","sector":"417912003100020001","pcode":"CO41791","area_m2":123077}},{"type":"Polygon","arcs":[[-15,15]],"properties":{"codigo":"41791200310002000102","sector":"417912003100020001","pcode":"CO41791","area_m2":237061}},{"type":"Polygon","arcs":[[16]],"properties":{"codigo":"41791200104003000101","sector":"417912001040030001","pcode":"CO41791","area_m2":117807}}]}},"arcs":[[[9786,8801],[-9,10],[25,125]],[[9802,8936],[23,132]],[[9825,9068],[72,-43],[29,1],[65,-58],[8,-124],[-13,-80],[-39,31],[-30,-118],[-131,124]],[[3002,4010],[137,-150],[6,31],[60,-35],[29,140],[61,-59],[-16,-115],[52,-33],[32,101],[101,-107],[-70,-231],[-75,-119],[-12,21],[-23,-14],[-124,212],[-79,53],[13,54],[-138,219],[24,14],[8,33],[14,-15]],[[9316,9290],[-43,-88],[-12,16]],[[9261,9218],[-22,65],[-39,42],[-34,13],[-28,52],[-57,29],[-9,27],[24,59],[46,73],[11,4],[20,52],[-15,62],[29,113],[35,18],[12,-61],[29,-27],[10,19],[7,86],[-27,33],[8,21],[42,-7],[19,98],[28,-20],[7,-34]],[[9357,9935],[-3,-108],[-31,-9],[-24,-118],[-37,-97],[3,-16],[-34,-75],[-31,-108],[116,-114]],[[9458,9730],[-19,-43],[-26,-98],[-65,-199]],[[9348,9390],[-32,-100]],[[9357,9935],[16,10],[8,-96],[18,-57],[44,-17],[15,-45]],[[9802,8936],[-98,104],[-167,163],[-189,187]],[[9458,9730],[42,-113],[52,-51],[-17,-38],[39,-52],[6,-41],[-21,-74],[213,-259],[53,-34]],[[9786,8801],[-7,-65],[-22,22],[-21,-31],[-10,32],[-35,14],[-154,-37],[-2,-36],[-130,-39],[-27,-29],[-67,-42],[-33,95],[-130,-44],[-32,-3],[-20,17],[-60,107],[-29,63],[128,187],[-10,42],[73,84],[-3,38],[19,31],[47,11]],[[3007,97],[8,-53],[-23,-10],[-16,34],[-24,-31],[-24,67],[-42,-26],[-42,-38],[-19,46],[-20,-26],[-51,-10],[-10,-38],[-58,-11],[-2,76],[-13,-8],[2,59],[26,-5],[15,26],[-36,12],[-7,38],[22,20],[0,34],[-42,-46],[-25,32],[-19,0],[-18,-76],[-35,35],[-6,56],[18,6],[69,106],[-10,80],[27,83],[21,-23],[34,40]],[[2707,546],[1,-31],[25,-114],[19,-15],[66,-18],[27,-68],[14,-5],[58,-116],[34,32],[47,-82],[9,-32]],[[2707,546],[0,90],[-44,11],[13,10],[66,10],[52,20],[32,0],[5,58],[90,-77],[-19,-83],[24,-67],[18,1],[56,-29],[139,82],[85,-10],[0,-81],[89,-4],[0,-77],[-32,-57],[-42,-116],[-20,-35],[-23,51],[-61,-6],[-27,-43],[4,-38],[20,-15],[12,-42],[-35,-30],[-71,39],[-31,-11]],[[188,4388],[17,-192],[25,19],[33,-11],[18,-25],[-25,-51],[-26,-12],[12,-127],[-5,-40],[10,-29],[0,-59],[20,-21],[-14,-44],[11,-43],[-9,-40],[-24,-29],[7,-35],[-50,-40],[-17,-102],[-8,-15],[-16,98],[3,125],[-2,220],[-26,72],[-31,-34],[-29,80],[37,45],[-28,50],[-40,-18],[-31,19],[1,76],[29,0],[-4,24],[53,30],[13,-73],[27,17],[-12,75],[10,21],[-18,40],[11,19],[13,-28],[42,65],[0,37],[23,-64]]]}
