{"type":"Topology","bbox":[-76.09982527942083,2.195877398106876,-75.82576295758281,2.474303337516471],"transform":{"scale":[0.000027408973081109758,0.000027845378478807372],"translate":[-76.09982527942083,2.195877398106876]},"objects":{"municipios":{"type":"GeometryCollection","geometries":[{"type":"MultiPolygon","arcs":[[[0]],[[1]],[[2]]],"properties":{"codigo":"41396201102002000101","sector":"413962011020020001","pcode":"CO41396","area_m2":64636}},{"type":"Polygon","arcs":[[3]],"properties":{"codigo":"41396201006004000101","sector":"413962010060040001","pcode":"CO41396","area_m2":100479}},{"type":"Polygon","arcs":[[4]],"properties":{"codigo":"41396201105006000101","sector":"413962011050060001","pcode":"CO41396","area_m2":88701}},{"type":"Polygon","arcs":[[5,6,7,8,9]],"properties":{"codigo":"41396100000000000105","sector":"413961000000000001","pcode":"CO41396","area_m2":122235}},{"type":"Polygon","arcs":[[10,11,-7,12,13,14]],"properties":{"codigo":"41396100000000000103","sector":"413961000000000001","pcode":"CO41396","area_m2":147481}},{"type":"Polygon","arcs":[[15,-13,-6,16,17,18]],"properties":{"codigo":"41396100000000000106","sector":"413961000000000001","pcode":"CO41396","area_m2":141589}},{"type":"Polygon","arcs":[[19,-18,20,21,22,23]],"properties":{"codigo":"41396100000000000205","sector":"413961000000000002","pcode":"CO41396","area_m2":250325}},{"type":"Polygon","arcs":[[24,25]],"properties":{"codigo":"41396200707001000101","sector":"413962007070010001","pcode":"CO41396","area_m2":76400}},{"type":"Polygon","arcs":[[-25,26]],"properties":{"codigo":"41396200707001000102","sector":"413962007070010001","pcode":"CO41396","area_m2":107309}},{"type":"Polygon","arcs":[[27]],"properties":{"codigo":"41396200808005000101","sector":"413962008080050001","pcode":"CO41396","area_m2":118869}},{"type":"Polygon","arcs":[[28,29]],"properties":{"codigo":"41396100000000000206","sector":"413961000000000002","pcode":"CO41396","area_m2":50413}},{"type":"Polygon","arcs":[[30,31,32,33,34,35]],"properties":{"codigo":"41396100000000000304","sector":"413961000000000003","pcode":"CO41396","area_m2":174362}},{"type":"Polygon","arcs":[[36,-33,37,-24,38]],"properties":{"codigo":"41396100000000000305","sector":"413961000000000003","pcode":"CO41396","area_m2":344297}},{"type":"Polygon","arcs":[[-9,39,40,41,42,43,44]],"properties":{"codigo":"41396100000000000101","sector":"413961000000000001","pcode":"CO41396","area_m2":177085}},{"type":"Polygon","arcs":[[45,46,-44,47,48]],"properties":{"codigo":"41396100000000000201","sector":"413961000000000002","pcode":"CO41396","area_m2":96493}},{"type":"Polygon","arcs":[[-36,49]],"properties":{"codigo":"41396100000000000306","sector":"413961000000000003","pcode":"CO41396","area_m2":59742}},{"type":"Polygon","arcs":[[-34,-37,50]],"properties":{"codigo":"41396100000000000307","sector":"413961000000000003","pcode":"CO41396","area_m2":67237}},{"type":"Polygon","arcs":[[51,52,53,54]],"properties":{"codigo":"41396100000000000107","sector":"413961000000000001","pcode":"CO41396","area_m2":73769}},{"type":"Polygon","arcs":[[55,56,57,-19,-20,-38,-32]],"properties":{"codigo":"41396100000000000303","sector":"413961000000000003","pcode":"CO41396","area_m2":139590}},{"type":"Polygon","arcs":[[-22,58,59,60,-29,61]],"properties":{"codigo":"41396100000000000204","sector":"413961000000000002","pcode":"CO41396","area_m2":134806}},{"type":"Polygon","arcs":[[62,-46,63,-60]],"properties":{"codigo":"41396100000000000203","sector":"413961000000000002","pcode":"CO41396","area_m2":53221}},{"type":"Polygon","arcs":[[64,65,66]],"properties":{"codigo":"41396100000000000309","sector":"413961000000000003","pcode":"CO41396","area_m2":146022}},{"type":"Polygon","arcs":[[-63,-59,-21,-17,-10,-45,-47]],"properties":{"codigo":"41396100000000000202","sector":"413961000000000002","pcode":"CO41396","area_m2":123896}},{"type":"Polygon","arcs":[[67,68,-41]],"properties":{"codigo":"41396100000000000110","sector":"413961000000000001","pcode":"CO41396","area_m2":72818}},{"type":"Polygon","arcs":[[69,-48,-43]],"properties":{"codigo":"41396100000000000401","sector":"413961000000000004","pcode":"CO41396","area_m2":66313}},{"type":"Polygon","arcs":[[70,71,-57,72]],"properties":{"codigo":"41396100000000000308","sector":"413961000000000003","pcode":"CO41396","area_m2":107910}},{"type":"Polygon","arcs":[[73,-67,74,-14,-16,-58,-72]],"properties":{"codigo":"41396100000000000301","sector":"413961000000000003","pcode":"CO41396","area_m2":194672}},{"type":"Polygon","arcs":[[75,-11,76,77,-54]],"properties":{"codigo":"41396100000000000104","sector":"413961000000000001","pcode":"CO41396","area_m2":71559}},{"type":"Polygon","arcs":[[-78,78,79,80,-55]],"properties":{"codigo":"41396100000000000109","sector":"413961000000000001","pcode":"CO41396","area_m2":316052}},{"type":"Polygon","arcs":[[-81,81,82,-52]],"properties":{"codigo":"41396100000000000108","sector":"413961000000000001","pcode":"CO41396","area_m2":95976}},{"type":"Polygon","arcs":[[-12,-76,-53,-83,83,84,-68,-40,-8]],"properties":{"codigo":"41396100000000000102","sector":"413961000000000001","pcode":"CO41396","area_m2":250550}},{"type":"Polygon","arcs":[[85,86]],"properties":{"codigo":"41396100000000000310","sector":"413961000000000003","pcode":"CO41396","area_m2":31941}},{"type":"Polygon","arcs":[[-86,87,-65,-74,-71,88]],"properties":{"codigo":"41396100000000000302","sector":"413961000000000003","pcode":"CO41396","area_m2":127633}},{"type":"Polygon","arcs":[[-84,-82,-80,89]],"properties":{"codigo":"41396100000000000501","sector":"413961000000000005","pcode":"CO41396","area_m2":178395}},{"type":"Polygon","arcs":[[90]],"properties":{"codigo":"41396200707013000101","sector":"413962007070130001","pcode":"CO41396","area_m2":91668}},{"type":"Polygon","arcs":[[91]],"properties":{"codigo":"41396201011014000101","sector":"413962010110140001","pcode":"CO41396","area_m2":52858}},{"type":"Polygon","arcs":[[92]],"properties":{"codigo":"41396201007015000101","sector":"413962010070150001","pcode":"CO41396","area_m2":42741}},{"type":"Polygon","arcs":[[93]],"properties":{"codigo":"41396200808009000101","sector":"413962008080090001","pcode":"CO41396","area_m2":155326}}]}},"arcs":[[[4065,9963],[5,-11],[-23,-14],[2,-10],[-38,-25],[3,-14],[-28,-20],[-27,-7],[-31,-22],[-10,-22],[7,-13],[-15,1],[-27,-23],[8,-8],[-22,-9],[-39,-53],[-2,22],[14,13],[24,32],[3,-4],[26,25],[-3,3],[25,26],[21,48],[25,12],[-10,18],[30,-6],[3,7],[38,21],[32,32],[9,1]],[[3792,9683],[-40,-16],[-11,-13],[0,18],[24,11],[32,6],[-5,-6]],[[4103,9978],[-13,-10],[-12,12],[12,19],[13,-21]],[[9986,7125],[8,-5],[5,-27],[-11,-27],[-8,-51],[-22,-4],[0,31],[-17,-5],[-17,9],[-10,-14],[-20,14],[13,25],[-9,10],[33,15],[4,36],[-3,4],[9,32],[3,71],[-4,42],[17,1],[1,-38],[-4,-51],[2,-23],[14,-8],[10,-15],[6,-22]],[[3176,4374],[15,-11],[40,10],[33,-15],[4,-15],[27,0],[16,13],[20,-18],[-11,-9],[30,-30],[-20,2],[-11,18],[-34,-5],[-9,-12],[-24,-10],[-26,1],[-7,-8],[-21,23],[-9,17],[-23,8],[-10,-6],[-16,3],[44,19],[-48,7],[-12,15],[25,4],[27,-1]],[[7621,7041],[-34,-87]],[[7587,6954],[-13,-32]],[[7574,6922],[-88,34]],[[7486,6956],[37,93],[13,29]],[[7536,7078],[9,4],[17,-9],[4,11],[31,-12],[-2,-19],[26,-12]],[[7584,6769],[-11,12],[-52,32]],[[7521,6813],[53,109]],[[7587,6954],[52,-24],[27,-14],[31,-12]],[[7697,6904],[-41,-50],[-20,-16]],[[7636,6838],[-21,-31],[-31,-38]],[[7734,6929],[-10,-13],[-27,-12]],[[7621,7041],[0,0]],[[7621,7041],[30,-14],[27,-6],[51,-23],[5,66],[30,-12]],[[7764,7052],[-19,-42],[-2,-50],[-9,-31]],[[7773,7073],[-9,-21]],[[7621,7041],[22,37],[20,24]],[[7663,7102],[15,7],[13,45],[73,58],[26,23],[10,18]],[[7800,7253],[37,102],[6,-4],[30,-69],[-19,-37],[19,-16]],[[7873,7229],[-16,-30],[-17,-17],[-38,-1],[-33,8],[-7,-8],[-1,-20],[11,-35],[4,-39],[-3,-14]],[[1991,211],[-42,5],[-44,-9],[-25,-24],[-40,47],[-8,0],[-38,31]],[[1794,261],[5,7],[15,-9],[19,10],[-1,-11],[17,-5],[14,7],[12,-10],[24,3],[40,14],[31,3],[28,18],[-28,-24],[3,-36],[-11,10],[-22,-11],[1,-10],[15,7],[74,-15],[23,3],[3,-5],[-42,-2],[-23,6]],[[1991,211],[-9,-35],[-28,6],[-54,-17],[8,-10],[-32,-23],[-9,2],[-16,-16],[-34,17],[0,8],[-31,11],[-1,18],[18,5],[13,38],[-7,1],[-7,28],[-8,17]],[[4804,3161],[4,-25],[9,-22],[20,1],[1,-15],[-11,-7],[38,-18],[14,-14],[-32,-44],[16,-13],[-6,-24],[-21,13],[-6,-10],[-18,13],[-20,4],[-20,13],[12,24],[-1,12],[15,7],[-13,11],[-29,-19],[-14,-1],[2,54],[14,-1],[14,9],[1,37],[18,3],[9,20],[18,1],[-14,-9]],[[7613,7260],[9,-28],[-15,6],[-20,-8],[-5,7],[-38,-20]],[[7544,7217],[-20,14],[4,9],[-41,12],[-35,18],[2,4],[60,-16],[4,13],[22,-7],[55,30],[12,-23],[21,6],[-15,-17]],[[7915,6984],[-36,5]],[[7879,6989],[0,24],[-11,11],[7,49],[-5,3]],[[7870,7076],[40,36],[34,24],[89,64]],[[8033,7200],[4,-9]],[[8037,7191],[-7,-28],[-17,-40],[0,-25],[-6,-24],[-11,-8],[-19,-30],[9,-6],[-23,-15]],[[7963,7015],[10,-12],[-44,-24],[-14,5]],[[8049,7218],[-16,-18]],[[7870,7076],[-33,-38],[-32,21],[-32,14]],[[7873,7229],[13,19],[40,22],[34,6],[22,-1],[40,6],[16,8],[9,20],[17,-8],[12,-14],[8,-18],[-23,-22],[-12,-29]],[[7486,6956],[-21,-49],[-68,28]],[[7397,6935],[9,17],[-30,22]],[[7376,6974],[13,24],[30,-3],[6,8]],[[7425,7003],[30,42],[-92,61]],[[7363,7106],[38,10]],[[7401,7116],[17,7],[44,-21],[25,-6],[9,12],[21,5],[9,-11],[-1,-13],[11,-11]],[[7548,7196],[-13,-36]],[[7535,7160],[-6,-14],[-29,13],[-9,-30],[-37,12],[5,14],[-33,8],[-30,-43],[5,-4]],[[7363,7106],[-16,4]],[[7347,7110],[4,19],[28,42],[-31,14],[12,27],[73,-28],[11,15],[25,-14],[17,10],[22,3],[40,-2]],[[7963,7015],[16,8],[15,-25],[-12,-11],[13,-23],[36,-27],[-1,-32],[-12,1],[-3,29],[-56,-35],[-40,72],[-4,12]],[[8049,7218],[12,7],[16,-6],[4,-16],[53,-31],[14,-15],[21,-15],[-12,-24],[-27,2],[-18,16],[-28,1],[-13,11],[-24,1],[-14,11],[4,31]],[[7400,6789],[-15,20],[-32,11]],[[7353,6820],[11,6],[52,13],[14,-14],[10,12],[39,-36]],[[7479,6801],[-9,-13],[40,-26],[-30,-44]],[[7480,6718],[-39,27],[-20,23],[-5,12],[-16,9]],[[7879,6989],[14,-12],[-14,-7],[-28,-1],[8,-10],[-15,-14],[28,-24],[33,-12],[-2,-14],[-16,6]],[[7887,6901],[-24,10],[-42,38],[-28,10],[-32,-14],[-12,-19]],[[7749,6926],[-15,3]],[[7663,7102],[-55,29]],[[7608,7131],[16,43],[9,-3],[23,9],[-5,10],[-28,14],[-21,6],[-9,11],[-43,-25]],[[7550,7196],[-6,21]],[[7613,7260],[63,10],[11,-3],[3,-18],[-19,-24],[-1,-15],[19,-3],[8,-8],[16,13],[12,-12],[15,8],[-6,9],[13,8],[12,19],[41,9]],[[7608,7131],[-73,29]],[[7548,7196],[2,0]],[[7660,6659],[52,-62],[-6,-17],[1,-19],[9,-15],[13,-1],[2,-12]],[[7731,6533],[-16,1],[2,-9],[-26,-5],[2,-12],[-88,-21],[13,47],[8,46],[-15,3],[-32,18],[-5,48]],[[7574,6649],[71,5],[15,5]],[[7397,6935],[-10,-13],[-29,-21],[-18,8],[-14,-27],[-25,-18]],[[7301,6864],[-20,6],[27,53],[-30,13],[9,21],[35,-9],[21,44],[33,-18]],[[7425,7003],[-88,56],[-31,18],[27,29],[14,4]],[[7810,6814],[-72,-9]],[[7738,6805],[6,41],[6,27],[-1,53]],[[7887,6901],[-8,-20],[-34,-41],[-45,31],[-4,17],[-22,10],[-22,-10],[2,-20],[15,-16],[25,-18],[16,-20]],[[7738,6805],[23,-17],[-45,-80],[-12,-16],[-44,-33]],[[7574,6649],[-11,1],[2,26],[39,0],[79,26],[6,3],[-26,51],[-22,73],[-5,9]],[[7479,6801],[15,32],[27,-20]],[[7584,6769],[-23,-30],[-54,-48]],[[7507,6691],[-8,13],[-19,14]],[[7507,6691],[-20,-20],[-55,-34],[-33,-23],[-26,-8],[-35,41],[-24,9],[-14,14],[-41,4],[-45,7],[-52,20],[-25,14],[-5,-16],[36,-24],[-9,-32],[-68,46],[19,19],[12,19],[22,8]],[[7144,6735],[29,37],[33,-19]],[[7206,6753],[9,-7],[111,-15],[26,0],[48,58]],[[7206,6753],[20,20],[34,22],[22,0]],[[7282,6795],[30,-3],[10,19],[31,9]],[[7282,6795],[-21,23],[-22,15]],[[7239,6833],[5,6],[22,-13],[8,23],[27,15]],[[7759,6523],[2,0]],[[7761,6523],[22,4],[3,-5],[-21,-7],[25,-76],[9,-38],[-37,-10],[-7,9],[12,23],[-18,22],[13,25],[-16,39],[17,6],[-4,8]],[[7759,6523],[-13,12],[-15,-2]],[[7810,6814],[45,-16],[-19,-25],[-20,4],[-8,12],[-20,-5],[-8,11],[-19,-36],[-11,-5],[-11,-24],[14,-34],[0,-56],[6,-15],[-16,-4],[11,-12],[8,-73],[26,1],[-29,-9],[2,-5]],[[7144,6735],[-52,37],[-3,18],[-10,15],[62,66],[24,22],[-14,-4],[-43,29],[28,29],[25,-17],[-1,-20],[7,-17],[50,-23],[2,-15],[23,-14],[-3,-8]],[[63,14],[-32,0],[-31,26],[32,43],[25,26],[17,3],[16,9],[22,22],[10,-20],[20,-17],[-14,-19],[-12,2],[-3,-39],[-21,-31],[-17,-19],[-12,14]],[[9133,5223],[14,18],[17,-21],[33,-21],[8,-9],[20,9],[9,-7],[18,19],[9,-13],[-11,-6],[24,-5],[-32,-38],[-11,6],[-35,-14],[-52,63],[-11,19]],[[9544,5656],[-2,28],[9,2],[7,-31],[-11,-6],[12,-19],[11,6],[27,-11],[23,-1],[9,-19],[26,8],[11,-18],[-19,-5],[6,-8],[-19,-6],[-17,14],[-47,10],[-6,7],[-28,7],[0,16],[-10,12],[18,14]],[[4772,2524],[2,-12],[63,0],[9,-14],[-28,-16],[-31,-3],[3,-20],[-11,-3],[3,-19],[14,7],[15,-21],[-16,-5],[-2,-26],[-17,2],[-16,-16],[10,-10],[-21,-7],[-26,-27],[-5,-14],[-16,-2],[-11,-14],[7,-5],[-5,-17],[9,-23],[-7,-1],[-7,17],[-16,-16],[-10,12],[9,11],[4,25],[-13,2],[-25,20],[16,26],[55,47],[12,20],[-2,35],[46,17],[-6,48],[14,2]]]}
