{"type":"Topology","bbox":[-75.73761633698882,2.479658554925444,-75.69480798632486,2.6141774152457815],"transform":{"scale":[0.000004281263192715365,0.000013453231355169272],"translate":[-75.73761633698882,2.479658554925444]},"objects":{"municipios":{"type":"GeometryCollection","geometries":[{"type":"Polygon","arcs":[[0,1]],"properties":{"codigo":"41797100000000000107","sector":"417971000000000001","pcode":"CO41797","area_m2":66737}},{"type":"Polygon","arcs":[[2,3,4,5,-1,6,7,8]],"properties":{"codigo":"41797100000000000102","sector":"417971000000000001","pcode":"CO41797","area_m2":229924}},{"type":"Polygon","arcs":[[9,-4,10]],"properties":{"codigo":"41797100000000000103","sector":"417971000000000001","pcode":"CO41797","area_m2":77526}},{"type":"Polygon","arcs":[[11,12,13]],"properties":{"codigo":"41797100000000000105","sector":"417971000000000001","pcode":"CO41797","area_m2":181296}},{"type":"Polygon","arcs":[[-13,14,-11,-3,15]],"properties":{"codigo":"41797100000000000106","sector":"417971000000000001","pcode":"CO41797","area_m2":141715}},{"type":"Polygon","arcs":[[-8,16]],"properties":{"codigo":"41797100000000000101","sector":"417971000000000001","pcode":"CO41797","area_m2":254164}},{"type":"Polygon","arcs":[[17,-5,-10,-15,-12]],"properties":{"codigo":"41797100000000000104","sector":"417971000000000001","pcode":"CO41797","area_m2":136752}},{"type":"Polygon","arcs":[[18,19]],"properties":{"codigo":"41797200103001000101","sector":"417972001030010001","pcode":"CO41797","area_m2":69641}},{"type":"Polygon","arcs":[[20,-19]],"properties":{"codigo":"41797200103001000102","sector":"417972001030010001","pcode":"CO41797","area_m2":135564}}]}},"arcs":[[[741,438],[513,-82],[-226,-117]],[[1028,239],[-130,15],[-176,50],[-81,44],[-151,39],[30,13],[-142,25],[64,39],[79,10],[220,-36]],[[2057,727],[37,-49],[-111,-58]],[[1983,620],[-531,-286],[102,-51]],[[1554,283],[14,-8]],[[1568,275],[-176,-61],[50,-39],[-129,-11],[-81,35],[-203,28],[-1,12]],[[741,438],[244,26]],[[985,464],[193,-26],[418,233],[68,28],[-43,46],[-144,13]],[[1477,758],[56,50],[-60,0],[-265,49],[350,61],[101,-51],[156,-21],[171,-39],[71,-80]],[[2295,557],[-390,-209],[-168,30],[-183,-95]],[[1983,620],[312,-63]],[[2096,62],[-149,77],[83,39],[-139,34],[93,49],[166,-30],[495,258]],[[2645,489],[506,-100]],[[3151,389],[-290,-130],[-45,-9],[-202,-98],[-234,-95],[-81,-57],[-113,15],[-90,47]],[[2645,489],[-350,68]],[[2057,727],[115,29],[20,35],[-74,27],[100,54],[107,-12],[71,72],[166,-56],[25,12],[150,-44],[-497,-151],[46,-40],[173,-73],[112,-29],[212,10],[102,-23],[174,3],[160,-50],[193,25],[155,8],[11,-16],[-253,-53],[-174,-66]],[[985,464],[-37,11],[71,46],[-115,25],[-454,27],[-71,43],[-21,50],[-172,68],[-186,55],[168,112],[87,5],[108,-34],[100,2],[281,-35],[141,-65],[96,19],[89,-34],[-47,-34],[156,-27],[78,27],[220,33]],[[2096,62],[-51,-18],[-217,116],[-177,-21],[-28,83],[88,26],[-143,27]],[[9728,9414],[-123,8],[-670,317]],[[8935,9739],[65,17],[114,112],[-63,22],[-170,103],[92,-16],[199,-112],[67,-49],[-25,-39],[59,-2],[19,-39],[148,-76],[-108,-45],[139,-23],[-18,-32],[92,-23],[56,-40],[-12,-43],[139,-40]],[[9728,9414],[154,-31],[117,-6],[-43,-58],[-176,70],[-114,-58],[-139,18],[35,39],[-91,17],[-297,-34],[53,25],[-280,105],[-103,-32],[-259,-44],[-140,46],[331,76],[-179,37],[108,27],[93,-24],[51,63],[-67,44],[153,45]]]}
