{"type":"Topology","bbox":[-75.63546735139062,2.9072177324685087,-75.58016055864027,2.9451821180189905],"transform":{"scale":[0.000005531232398274172,0.000003796818236871874],"translate":[-75.63546735139062,2.9072177324685087]},"objects":{"municipios":{"type":"GeometryCollection","geometries":[{"type":"Polygon","arcs":[[0,1,2,3]],"properties":{"codigo":"41676100000000000103","sector":"416761000000000001","pcode":"CO41676","area_m2":30017}},{"type":"Polygon","arcs":[[4,-2,5,6,7,8]],"properties":{"codigo":"41676100000000000101","sector":"416761000000000001","pcode":"CO41676","area_m2":187501}},{"type":"Polygon","arcs":[[-6,-1,9,10]],"properties":{"codigo":"41676100000000000102","sector":"416761000000000001","pcode":"CO41676","area_m2":53524}},{"type":"Polygon","arcs":[[11,-3,-5,12]],"properties":{"codigo":"41676100000000000104","sector":"416761000000000001","pcode":"CO41676","area_m2":37006}},{"type":"Polygon","arcs":[[-4,-12,13,-10]],"properties":{"codigo":"41676100000000000105","sector":"416761000000000001","pcode":"CO41676","area_m2":89279}},{"type":"Polygon","arcs":[[14,-8]],"properties":{"codigo":"41676100000000000106","sector":"416761000000000001","pcode":"CO41676","area_m2":72492}},{"type":"Polygon","arcs":[[15]],"properties":{"codigo":"41676200303001000101","sector":"416762003030010001","pcode":"CO41676","area_m2":36755}}]}},"arcs":[[[8567,7880],[53,203],[226,221]],[[8846,8304],[123,-263]],[[8969,8041],[-288,-266],[18,-132],[-23,-40]],[[8676,7603],[-49,215],[-60,62]],[[9169,8093],[-111,-4],[-51,-67],[-38,19]],[[8846,8304],[68,62],[104,10],[-31,117],[4,86],[-87,123]],[[8904,8702],[53,90],[69,183],[57,187]],[[9083,9162],[64,64],[149,83],[-36,43],[-25,117],[-145,-74],[-44,158],[4,55]],[[9050,9608],[131,70],[20,49],[129,-29],[118,147],[57,-112],[-120,-148],[-66,-107],[-25,-128],[40,1],[91,206],[83,46],[166,143],[126,138],[60,115],[139,-84],[-26,-137],[-51,-109],[-113,-134],[-103,-85],[-81,-154],[99,-158],[-78,-133],[-240,-67],[-112,-83],[-95,-213],[-89,-250],[49,-88],[43,-160],[-33,-51]],[[8567,7880],[-35,55],[7,141]],[[8539,8076],[-2,79],[-33,55],[16,226],[64,145],[75,135],[6,47],[138,-204],[25,76],[76,67]],[[8645,7401],[24,41],[18,116],[-11,45]],[[9169,8093],[3,-51],[-67,-45],[13,-87],[-132,10],[14,41],[-80,-54],[-71,-150],[80,-207],[27,-162],[-41,28],[-99,-62],[-46,70],[-41,-85],[-39,-3],[-45,65]],[[8645,7401],[-4,92],[-50,27],[-50,-168],[-20,9],[-55,-84],[-8,-95],[-100,-60],[-8,32],[-118,-71],[-25,-75],[-37,3],[-210,-75],[-64,-34],[-76,-108],[-21,28],[-39,-96],[30,-141],[-20,-97],[-32,-19],[-21,55],[-39,-8],[-196,-226],[-3,50],[199,232],[-21,51],[-13,199],[38,129],[52,64],[43,-1],[76,85],[61,-1],[180,50],[79,74],[-14,79],[85,103],[72,34],[75,-146],[50,141],[58,76],[-4,64],[-68,103],[-47,160],[11,61],[60,23],[15,105],[73,51]],[[9083,9162],[-132,-53],[-147,31],[-46,-33],[-57,-118],[-63,-46],[-49,22],[-30,189],[-92,29],[12,84],[104,-36],[48,246],[85,26],[102,71],[139,39],[32,63],[61,-68]],[[111,734],[53,11],[68,-116],[67,-33],[83,-7],[5,-154],[17,-21],[-28,-177],[-48,-37],[-10,-84],[-61,-85],[-63,-28],[35,114],[-23,191],[-36,2],[-29,77],[-141,69],[74,83],[4,292],[33,-97]]]}
