{"type":"Topology","bbox":[-75.97290430036549,1.8791533262949291,-75.84236178281412,2.0193387980790694],"transform":{"scale":[0.00001305555731086728,0.000014019949173331354],"translate":[-75.97290430036549,1.8791533262949291]},"objects":{"municipios":{"type":"GeometryCollection","geometries":[{"type":"Polygon","arcs":[[0,1,2]],"properties":{"codigo":"41807100000000000101","sector":"418071000000000001","pcode":"CO41807","area_m2":165001}},{"type":"Polygon","arcs":[[3,4,5]],"properties":{"codigo":"41807100000000000203","sector":"418071000000000002","pcode":"CO41807","area_m2":112922}},{"type":"Polygon","arcs":[[6,-5,7,8,9]],"properties":{"codigo":"41807100000000000204","sector":"418071000000000002","pcode":"CO41807","area_m2":106300}},{"type":"Polygon","arcs":[[10,-6,-7,11]],"properties":{"codigo":"41807100000000000202","sector":"418071000000000002","pcode":"CO41807","area_m2":67889}},{"type":"Polygon","arcs":[[-2,12,13,14]],"properties":{"codigo":"41807100000000000102","sector":"418071000000000001","pcode":"CO41807","area_m2":237805}},{"type":"Polygon","arcs":[[-9,15,-14]],"properties":{"codigo":"41807100000000000103","sector":"418071000000000001","pcode":"CO41807","area_m2":129566}},{"type":"Polygon","arcs":[[-12,-10,-13,-1,16]],"properties":{"codigo":"41807100000000000201","sector":"418071000000000002","pcode":"CO41807","area_m2":175162}},{"type":"Polygon","arcs":[[17]],"properties":{"codigo":"41807200101001000101","sector":"418072001010010001","pcode":"CO41807","area_m2":379263}},{"type":"MultiPolygon","arcs":[[[18]],[[19]]],"properties":{"codigo":"41807200104005000101","sector":"418072001040050001","pcode":"CO41807","area_m2":95271}},{"type":"Polygon","arcs":[[20]],"properties":{"codigo":"41807200103007000101","sector":"418072001030070001","pcode":"CO41807","area_m2":168599}},{"type":"Polygon","arcs":[[21]],"properties":{"codigo":"41807200102011000101","sector":"418072001020110001","pcode":"CO41807","area_m2":133688}},{"type":"Polygon","arcs":[[22]],"properties":{"codigo":"41807200108013000101","sector":"418072001080130001","pcode":"CO41807","area_m2":83677}},{"type":"Polygon","arcs":[[23]],"properties":{"codigo":"41807200108014000101","sector":"418072001080140001","pcode":"CO41807","area_m2":111729}},{"type":"Polygon","arcs":[[24]],"properties":{"codigo":"41807200104004000101","sector":"418072001040040001","pcode":"CO41807","area_m2":93967}},{"type":"Polygon","arcs":[[25]],"properties":{"codigo":"41807200103006000101","sector":"418072001030060001","pcode":"CO41807","area_m2":199796}},{"type":"Polygon","arcs":[[26]],"properties":{"codigo":"41807200104009000101","sector":"418072001040090001","pcode":"CO41807","area_m2":139677}},{"type":"Polygon","arcs":[[27]],"properties":{"codigo":"41807200104010000101","sector":"418072001040100001","pcode":"CO41807","area_m2":51616}}]}},"arcs":[[[3493,6986],[-140,-32],[4,-68],[-33,-43],[-174,-61]],[[3150,6782],[-40,95],[-6,81],[-24,112],[107,15]],[[3187,7085],[56,10],[16,-9],[39,17],[13,-10],[36,16],[22,-40],[-32,-11],[30,-63],[103,27],[23,-36]],[[3244,6312],[-37,-55],[-132,-17],[-18,-74],[-11,-4],[19,96],[-14,0],[2,41],[-50,105],[4,67]],[[3007,6471],[33,-8],[162,46]],[[3202,6509],[56,-138],[-14,-59]],[[3151,6642],[51,-133]],[[3007,6471],[-6,32],[-55,51],[-22,96],[-27,45]],[[2897,6695],[143,51]],[[3040,6746],[53,-135],[58,31]],[[3378,6557],[52,-8],[-13,-21],[-59,25],[-36,-23],[-22,-34],[-9,-79],[15,3],[-18,-41],[12,-30],[-26,-9],[-15,-37],[-15,9]],[[3151,6642],[41,25],[5,-22],[51,-10],[14,-43],[33,10],[51,-34],[32,-11]],[[3150,6782],[-110,-36]],[[3040,6746],[-97,253],[-17,53],[-52,-20],[-65,26]],[[2809,7058],[-26,104],[39,0],[33,-26],[44,6],[-22,106],[89,-24],[67,-10],[-8,16],[-2,82],[23,-9],[30,13],[16,-11],[-22,-27],[40,-7],[-7,-34],[99,41],[23,-53],[-52,-27],[-3,-100],[17,-13]],[[2897,6695],[-16,43],[-33,42],[-3,25],[-56,108],[6,54],[-26,12],[-9,67],[49,12]],[[3493,6986],[27,-41],[1,-63],[-119,-29],[1,-10],[-104,-56],[-17,-25],[32,5],[19,-49],[33,6],[46,-13],[39,-28],[-66,-57],[-7,-69]],[[9513,9982],[11,-57],[48,-72],[-23,-50],[-40,-16],[33,-15],[73,-99],[-24,-28],[2,-24],[-106,-58],[-38,-11],[-41,-31],[1,40],[-46,-15],[-17,33],[-24,-13],[-53,-6],[-73,14],[-76,35],[-10,-10],[-42,46],[24,22],[-15,35],[-43,29],[45,28],[28,42],[38,37],[45,-4],[43,80],[2,53],[46,29],[4,-22],[39,-3],[57,-40],[40,-16],[50,71],[27,13],[15,-17]],[[5526,5538],[65,-13],[-22,-21],[50,-13],[-21,-21],[42,-36],[-1,-18],[36,-23],[2,19],[40,-53],[35,-21],[-1,-17],[-44,30],[-37,-18],[-31,-65],[18,-13],[-51,-2],[-25,25],[39,-5],[-37,85],[-24,-36],[-57,39],[-26,2],[-35,-28],[-51,24],[59,39],[19,-16],[66,102],[-44,8],[29,16],[-50,27],[10,16],[47,-13]],[[5790,5275],[53,-3],[-5,-47],[-23,17],[-19,-27],[11,-12],[-19,-34],[-24,33],[31,54],[-50,45],[11,12],[34,-38]],[[6449,7133],[-29,-1],[0,-55],[-32,-23],[-28,-36],[-115,0],[-50,9],[-1,34],[27,77],[-13,13],[65,48],[64,65],[63,35],[108,89],[53,-82],[40,-87],[-11,-16],[-141,-70]],[[9953,9028],[46,-50],[-53,-27],[-2,-27],[-38,-53],[-26,-57],[13,-50],[33,-7],[37,-31],[-65,-76],[-85,-3],[25,45],[-10,8],[-115,-31],[-18,27],[-117,-42],[-19,25],[-33,4],[15,22],[17,-11],[74,40],[-23,55],[74,-18],[18,12],[68,17],[-19,36],[49,27],[10,-15],[73,45],[-4,36],[21,-3],[-25,81],[2,19],[77,2]],[[631,1886],[45,-8],[14,-19],[-7,-32],[-16,0],[13,-32],[-52,17],[-51,-7],[1,-17],[-86,-9],[9,17],[-56,-17],[-17,46],[-48,1],[-71,-21],[-83,-12],[-70,-1],[-31,-12],[0,-37],[-55,-17],[13,30],[-2,36],[-22,-16],[-25,39],[13,12],[-47,38],[48,26],[20,-35],[44,-25],[-34,-31],[18,-33],[24,12],[12,37],[92,5],[2,-26],[29,2],[-3,26],[52,6],[86,32],[93,8],[8,-35],[36,7],[-13,46],[23,12],[73,6],[21,-19]],[[236,523],[103,-6],[-8,-23],[-74,-10],[5,-74],[-35,-2],[11,-19],[0,-150],[61,9],[-2,-79],[25,-43],[105,-61],[63,-21],[-9,-28],[-35,12],[-32,-28],[-40,17],[-22,-10],[-17,22],[-97,81],[-1,27],[-25,32],[-7,72],[-18,9],[-4,191],[-21,39],[-21,77],[63,7],[32,-41]],[[6725,5743],[-23,-10],[14,-37],[-12,-11],[-32,33],[-17,1],[-30,44],[28,26],[-14,44],[-23,7],[-44,-23],[12,-10],[-43,-51],[38,-25],[-17,-31],[-68,19],[16,19],[-22,11],[13,49],[-15,41],[114,67],[-5,21],[21,24],[37,-4],[5,57],[25,3],[21,-37],[-31,-44],[20,-38],[30,34],[19,-15],[32,14],[-37,-41],[37,-37],[-45,-42],[12,-9],[-16,-49]],[[4924,6066],[19,-37],[83,-42],[15,-30],[-22,-4],[-19,-90],[-26,-42],[-27,-18],[-31,1],[-8,-73],[-35,2],[1,-20],[-78,-42],[27,-90],[51,-20],[-2,-22],[-27,0],[11,-35],[-28,25],[-52,-20],[-30,46],[9,20],[-27,11],[27,61],[-25,26],[5,38],[-35,27],[10,36],[43,45],[1,82],[39,50],[-20,71],[0,37],[24,0],[5,-33],[27,-51],[11,68],[84,23]],[[6259,5607],[31,-41],[-25,-18],[3,-18],[-30,1],[-15,-77],[-35,-24],[10,49],[22,20],[0,46],[-12,16],[-42,-48],[-54,82],[-17,39],[-33,29],[-37,6],[17,12],[-35,37],[14,25],[-49,54],[0,35],[-14,-13],[-48,55],[14,29],[14,-15],[75,42],[43,12],[-10,-37],[19,-21],[-15,-24],[78,-54],[33,-8],[15,-29],[-17,-41],[74,-45],[-11,-10],[52,-56],[-15,-10]],[[5149,4950],[75,15],[4,-55],[-8,-64],[37,-15],[36,-86],[55,11],[-1,-21],[-47,-38],[1,-49],[-22,-20],[2,-38],[-16,-83],[-44,34],[2,45],[29,37],[-6,42],[13,21],[-3,75],[-18,33],[-23,-4],[5,34],[-66,102],[-5,24]]]}
