{"type":"Topology","bbox":[-76.42523274768558,1.820445890954804,-76.22661672220721,1.959606501862366],"transform":{"scale":[0.000019863588906727938,0.000013917452836039809],"translate":[-76.42523274768558,1.820445890954804]},"objects":{"municipios":{"type":"GeometryCollection","geometries":[{"type":"Polygon","arcs":[[0,1,2,3]],"properties":{"codigo":"41668100000000000107","sector":"416681000000000001","pcode":"CO41668","area_m2":155840}},{"type":"MultiPolygon","arcs":[[[4]],[[5]],[[6]]],"properties":{"codigo":"41668200902008000101","sector":"416682009020080001","pcode":"CO41668","area_m2":97627}},{"type":"Polygon","arcs":[[7]],"properties":{"codigo":"41668200404006000101","sector":"416682004040060001","pcode":"CO41668","area_m2":65793}},{"type":"Polygon","arcs":[[8,9,10,11]],"properties":{"codigo":"41668100000000000101","sector":"416681000000000001","pcode":"CO41668","area_m2":434125}},{"type":"Polygon","arcs":[[12,13,14,-2,15]],"properties":{"codigo":"41668100000000000108","sector":"416681000000000001","pcode":"CO41668","area_m2":262622}},{"type":"Polygon","arcs":[[16,17,-9,18,19]],"properties":{"codigo":"41668100000000000102","sector":"416681000000000001","pcode":"CO41668","area_m2":228269}},{"type":"Polygon","arcs":[[20,-3,-15,21,22,-17]],"properties":{"codigo":"41668100000000000103","sector":"416681000000000001","pcode":"CO41668","area_m2":120255}},{"type":"Polygon","arcs":[[23,24,-22,-14]],"properties":{"codigo":"41668100000000000104","sector":"416681000000000001","pcode":"CO41668","area_m2":201117}},{"type":"Polygon","arcs":[[-16,-1,25,26,27]],"properties":{"codigo":"41668100000000000105","sector":"416681000000000001","pcode":"CO41668","area_m2":218100}},{"type":"Polygon","arcs":[[28,-10,-18,-23,-25]],"properties":{"codigo":"41668100000000000106","sector":"416681000000000001","pcode":"CO41668","area_m2":99196}},{"type":"Polygon","arcs":[[-12,29,-19]],"properties":{"codigo":"41668100000000000109","sector":"416681000000000001","pcode":"CO41668","area_m2":374064}},{"type":"Polygon","arcs":[[-27,30]],"properties":{"codigo":"41668100000000000110","sector":"416681000000000001","pcode":"CO41668","area_m2":48605}},{"type":"Polygon","arcs":[[31]],"properties":{"codigo":"41668200901001000101","sector":"416682009010010001","pcode":"CO41668","area_m2":77857}},{"type":"Polygon","arcs":[[32]],"properties":{"codigo":"41668200404002000101","sector":"416682004040020001","pcode":"CO41668","area_m2":46916}},{"type":"Polygon","arcs":[[33]],"properties":{"codigo":"41668200703007000101","sector":"416682007030070001","pcode":"CO41668","area_m2":76122}},{"type":"Polygon","arcs":[[34]],"properties":{"codigo":"41668200804009000101","sector":"416682008040090001","pcode":"CO41668","area_m2":28191}},{"type":"Polygon","arcs":[[35]],"properties":{"codigo":"41668200702003000101","sector":"416682007020030001","pcode":"CO41668","area_m2":68687}},{"type":"Polygon","arcs":[[36]],"properties":{"codigo":"41668200603004000101","sector":"416682006030040001","pcode":"CO41668","area_m2":27227}}]}},"arcs":[[[8210,4012],[-94,74],[-127,106]],[[7989,4192],[41,114]],[[8030,4306],[8,23],[8,88]],[[8046,4417],[145,-139],[6,10],[44,-60],[-10,-17],[-49,-29],[-14,-44],[7,-5],[0,-41],[25,-54],[15,-11],[-5,-15]],[[9970,1099],[-11,-6],[-18,-77],[16,-8],[-2,-14],[-21,5],[-4,-20],[11,-5],[-6,-63],[-11,-2],[2,-24],[18,-18],[-18,-3],[9,-11],[-9,-36],[-5,-47],[8,-1],[1,-64],[-13,-15],[50,-76],[-20,-32],[-9,-39],[3,-64],[-12,-3],[-5,43],[-17,2],[0,28],[-14,-1],[-3,25],[-23,41],[-2,30],[14,51],[16,0],[2,25],[-21,3],[10,12],[15,60],[-34,-5],[-12,37],[18,2],[-2,29],[20,5],[-3,25],[23,-2],[-10,64],[17,50],[7,-1],[9,40],[8,63],[7,12],[21,-15]],[[9990,528],[7,-20],[-23,-19],[-16,-41],[-20,0],[29,54],[23,26]],[[9961,1242],[-1,-28],[-14,-3],[-8,30],[-2,36],[-24,0],[37,33],[12,-68]],[[6677,9999],[15,-3],[-13,-20],[16,-15],[-14,-63],[51,-94],[-28,-20],[-44,70],[-24,-40],[-2,-56],[-8,-4],[7,-51],[11,-9],[-14,-24],[-8,38],[-20,50],[-1,43],[-18,7],[-12,43],[33,36],[-8,20],[18,7],[-8,26],[7,13],[44,37],[15,-20],[5,29]],[[7686,4564],[-13,-64]],[[7673,4500],[-23,-132],[47,3],[17,-7],[10,-19],[-17,-76],[-20,-3],[-8,-32]],[[7679,4234],[-8,-1],[-19,-28],[-27,8],[-40,-3],[-21,12],[-19,-5],[-19,7],[-42,-16],[-33,-20],[3,13],[-14,31],[10,22],[-29,30],[13,40],[-25,25],[-6,23],[1,35],[9,25],[25,13],[5,37],[-18,6],[-21,47],[-5,81],[-9,23],[-16,10],[18,65],[9,10],[-16,17],[-58,32],[-9,26]],[[7318,4799],[51,-11],[36,-14],[28,-18],[68,-54],[77,-49],[108,-89]],[[8169,3636],[6,-19],[-6,-38],[-17,-36],[-29,18],[-43,-10],[-21,12],[-60,71],[-7,36],[-22,14],[-7,22],[6,69],[-3,18],[-16,27],[-3,42],[14,34],[1,40],[-7,13],[-18,-35],[-29,49],[31,16],[1,22],[-18,15],[10,25],[-8,18],[-18,-33],[-9,1]],[[7897,4027],[29,100],[29,89]],[[7955,4216],[35,116],[40,-26]],[[7989,4192],[-21,-55],[119,-98],[-35,-109],[-42,-134],[60,-41],[-3,-30],[86,-21],[9,-14],[-1,-39],[8,-15]],[[7990,4465],[-14,-40],[-4,-52],[-20,5],[-43,-7],[-28,25],[-45,50],[-43,24],[-6,13],[-10,-41]],[[7777,4442],[-71,42],[-33,16]],[[7686,4564],[26,125],[-14,88],[3,75],[18,60],[18,35],[4,69],[-31,107],[-31,90],[0,78],[-5,26],[-16,44],[-21,34],[-69,58],[-24,11]],[[7544,5464],[12,41],[88,-71],[29,-13],[2,-37],[15,-45],[17,-3],[-17,-33],[-3,-36],[21,-17],[-7,-44],[15,-58],[10,-9],[37,11],[-8,-39],[-22,-32],[27,-57],[-7,-3],[-1,-80],[5,-11],[-22,-11],[-9,-34],[-7,-75],[4,-25],[29,-49],[1,-23],[19,-32],[50,-18],[-13,-41],[9,-25],[37,-10],[-3,-12],[19,-75],[40,-22],[6,11],[20,-9],[5,-20],[28,29],[20,-22]],[[7990,4465],[26,-34],[30,-14]],[[7955,4216],[-88,52],[-106,121]],[[7761,4389],[16,53]],[[7897,4027],[-8,13],[-13,-5],[-12,19],[-28,17],[-5,-13],[8,-21],[-17,-29],[-10,-55],[-13,-9],[-7,16],[-40,7],[24,-55],[-25,-35],[-11,28],[-52,-18],[-11,21],[-22,-19],[-19,5],[-20,-21],[-16,17],[-52,-21],[-6,-46],[-20,46],[69,32]],[[7591,3901],[92,28],[34,27],[23,35],[2,28],[-18,52],[28,77],[50,120],[-55,60],[14,61]],[[8210,4012],[13,-10]],[[8223,4002],[-30,-93],[-26,-89],[92,-59]],[[8259,3761],[-38,-44],[-52,-81]],[[7591,3901],[-2,14],[51,5],[74,51],[-20,25],[38,-4],[-10,60],[-19,13],[13,13],[11,26],[14,55],[-7,27],[-29,19],[-5,16],[-26,1],[5,12]],[[7318,4799],[-13,25],[2,42],[-9,63],[29,29],[9,-27],[33,0],[7,-72],[40,-13],[15,-27],[4,14],[25,-13],[62,-22],[7,28],[-25,31],[-1,22],[-20,-8],[-1,24],[-21,16],[-2,30],[22,61],[56,2],[19,-15],[14,0],[-2,-17],[34,-15],[-3,-15],[38,-38],[46,-21],[20,43],[-5,20],[10,45],[10,12],[-5,54],[-10,-3],[-7,21],[-11,-74],[-26,-4],[8,48],[-35,18],[-21,3],[3,22],[23,-6],[29,9],[5,30],[25,12],[-22,76],[-32,48],[-10,9],[0,41],[12,15],[8,29],[-18,34],[-13,11],[-6,-12],[-38,29],[1,16],[-17,13],[-10,-60],[-63,20],[-4,25],[13,43],[47,-6]],[[8223,4002],[25,-11],[-2,-16],[18,-9],[-9,-42],[9,-7],[-5,-156]],[[8856,2164],[-7,-98],[-13,-3],[17,-82],[16,12],[7,-30],[-9,-11],[0,-34],[-11,-15],[-37,-19],[-15,-15],[-9,-34],[-12,6],[-23,-22],[-9,20],[28,30],[-1,15],[-20,11],[-41,-50],[-32,33],[28,46],[17,3],[18,-17],[18,12],[52,7],[20,37],[-3,29],[-10,29],[-1,36],[-15,1],[-5,33],[-10,7],[-2,70],[-18,13],[4,14],[22,-7],[28,-28],[5,68],[-15,18],[1,20],[12,4],[-4,16],[32,13],[6,-23],[-22,-23],[5,-50],[17,-6],[-9,-36]],[[6408,8657],[12,0],[12,-24],[1,-34],[-9,0],[4,-60],[10,0],[-9,-32],[-41,-1],[-2,-31],[-8,6],[-1,56],[-13,0],[0,31],[-10,27],[-16,-14],[1,27],[15,18],[-8,30],[13,-1],[-18,36],[41,22],[23,2],[3,-58]],[[3545,6829],[10,-11],[-6,-38],[-39,-106],[12,-48],[1,-27],[-38,-2],[-110,165],[13,24],[64,-1],[51,39],[42,5]],[[6164,90],[-21,-5],[-45,-32],[-36,-41],[-26,-10],[-5,39],[13,13],[27,-2],[6,12],[-14,15],[39,38],[-3,11],[26,18],[24,25],[12,-27],[3,-54]],[[1537,5653],[14,14],[-9,24],[52,43],[-9,22],[13,10],[38,4],[13,25],[-12,29],[19,5],[7,-20],[20,1],[52,45],[7,-33],[-21,-11],[5,-18],[-35,-22],[-19,-20],[9,-17],[-47,-47],[7,-16],[-40,-40],[-7,18],[-9,-10],[-5,-39],[-13,-16],[-27,-4],[10,15],[-50,-6],[2,49],[35,15]],[[100,7207],[1,-22],[25,4],[1,-14],[-47,-14],[-10,-19],[5,-62],[-1,-44],[-10,0],[-7,44],[-12,22],[3,41],[-10,15],[-21,83],[-17,9],[27,8],[27,-44],[32,2],[14,-9]]]}
