{"type":"Topology","bbox":[-75.68556712012571,2.05681345767901,-75.52028316372633,2.2543073571093535],"transform":{"scale":[0.00001653004864480228,0.000019751365079542323],"translate":[-75.68556712012571,2.05681345767901]},"objects":{"municipios":{"type":"GeometryCollection","geometries":[{"type":"Polygon","arcs":[[0,1,2,3,4,5]],"properties":{"codigo":"41298100000000000104","sector":"412981000000000001","pcode":"CO41298","area_m2":74825}},{"type":"MultiPolygon","arcs":[[[6]],[[7]]],"properties":{"codigo":"41298200203007000101","sector":"412982002030070001","pcode":"CO41298","area_m2":10916}},{"type":"Polygon","arcs":[[8,9,10,-1,11,12]],"properties":{"codigo":"41298100000000000108","sector":"412981000000000001","pcode":"CO41298","area_m2":80099}},{"type":"Polygon","arcs":[[13,14,15,-10,16]],"properties":{"codigo":"41298100000000000109","sector":"412981000000000001","pcode":"CO41298","area_m2":114943}},{"type":"Polygon","arcs":[[17,-5,18,19,20,21]],"properties":{"codigo":"41298100000000000103","sector":"412981000000000001","pcode":"CO41298","area_m2":64686}},{"type":"Polygon","arcs":[[22,23,24,25,26,-3]],"properties":{"codigo":"41298100000000000208","sector":"412981000000000002","pcode":"CO41298","area_m2":106987}},{"type":"Polygon","arcs":[[27,28,29,-16]],"properties":{"codigo":"41298100000000000206","sector":"412981000000000002","pcode":"CO41298","area_m2":83999}},{"type":"Polygon","arcs":[[-11,-30,30,-23,-2]],"properties":{"codigo":"41298100000000000207","sector":"412981000000000002","pcode":"CO41298","area_m2":117611}},{"type":"Polygon","arcs":[[31]],"properties":{"codigo":"41298200304003000101","sector":"412982003040030001","pcode":"CO41298","area_m2":180477}},{"type":"Polygon","arcs":[[32,33,34,35,-28,-15]],"properties":{"codigo":"41298100000000000401","sector":"412981000000000004","pcode":"CO41298","area_m2":144202}},{"type":"Polygon","arcs":[[36,37,-34,38]],"properties":{"codigo":"41298100000000000403","sector":"412981000000000004","pcode":"CO41298","area_m2":116882}},{"type":"MultiPolygon","arcs":[[[39,40]],[[41]]],"properties":{"codigo":"41298200302002000101","sector":"412982003020020001","pcode":"CO41298","area_m2":133664}},{"type":"Polygon","arcs":[[42]],"properties":{"codigo":"41298200203008000101","sector":"412982002030080001","pcode":"CO41298","area_m2":56511}},{"type":"Polygon","arcs":[[43]],"properties":{"codigo":"41298200402014000101","sector":"412982004020140001","pcode":"CO41298","area_m2":39704}},{"type":"Polygon","arcs":[[44,45,-19,-4,-27]],"properties":{"codigo":"41298100000000000209","sector":"412981000000000002","pcode":"CO41298","area_m2":70561}},{"type":"Polygon","arcs":[[-12,-6,-18,46,47]],"properties":{"codigo":"41298100000000000105","sector":"412981000000000001","pcode":"CO41298","area_m2":90301}},{"type":"Polygon","arcs":[[48,49,50,-13,-48,51,52]],"properties":{"codigo":"41298100000000000106","sector":"412981000000000001","pcode":"CO41298","area_m2":144740}},{"type":"Polygon","arcs":[[-49,53]],"properties":{"codigo":"41298100000000000107","sector":"412981000000000001","pcode":"CO41298","area_m2":136920}},{"type":"Polygon","arcs":[[54,55,56,57,58,59]],"properties":{"codigo":"41298100000000000202","sector":"412981000000000002","pcode":"CO41298","area_m2":216969}},{"type":"Polygon","arcs":[[-25,60,-60,61]],"properties":{"codigo":"41298100000000000203","sector":"412981000000000002","pcode":"CO41298","area_m2":104743}},{"type":"Polygon","arcs":[[-29,-36,62,63,64,-55,-61,-24,-31]],"properties":{"codigo":"41298100000000000205","sector":"412981000000000002","pcode":"CO41298","area_m2":104039}},{"type":"Polygon","arcs":[[65,66,-63,-35,-38]],"properties":{"codigo":"41298100000000000402","sector":"412981000000000004","pcode":"CO41298","area_m2":107909}},{"type":"Polygon","arcs":[[-45,-26,-62,-59,67,68,69,70]],"properties":{"codigo":"41298100000000000502","sector":"412981000000000005","pcode":"CO41298","area_m2":210298}},{"type":"Polygon","arcs":[[-40,71]],"properties":{"codigo":"41298200302002000102","sector":"412982003020020001","pcode":"CO41298","area_m2":182851}},{"type":"MultiPolygon","arcs":[[[72]],[[73]]],"properties":{"codigo":"41298200105004000101","sector":"412982001050040001","pcode":"CO41298","area_m2":247305}},{"type":"Polygon","arcs":[[74]],"properties":{"codigo":"41298200401005000101","sector":"412982004010050001","pcode":"CO41298","area_m2":159000}},{"type":"Polygon","arcs":[[75]],"properties":{"codigo":"41298200102012000101","sector":"412982001020120001","pcode":"CO41298","area_m2":107892}},{"type":"Polygon","arcs":[[76]],"properties":{"codigo":"41298200401013000101","sector":"412982004010130001","pcode":"CO41298","area_m2":45593}},{"type":"MultiPolygon","arcs":[[[77]],[[78]]],"properties":{"codigo":"41298200102015000101","sector":"412982001020150001","pcode":"CO41298","area_m2":39828}},{"type":"Polygon","arcs":[[79]],"properties":{"codigo":"41298200105016000101","sector":"412982001050160001","pcode":"CO41298","area_m2":106747}},{"type":"Polygon","arcs":[[80]],"properties":{"codigo":"41298200501017000101","sector":"412982005010170001","pcode":"CO41298","area_m2":82431}},{"type":"Polygon","arcs":[[81]],"properties":{"codigo":"41298200102019000101","sector":"412982001020190001","pcode":"CO41298","area_m2":88091}},{"type":"MultiPolygon","arcs":[[[82]],[[83]]],"properties":{"codigo":"41298200203020000101","sector":"412982002030200001","pcode":"CO41298","area_m2":62662}},{"type":"Polygon","arcs":[[84]],"properties":{"codigo":"41298200402021000101","sector":"412982004020210001","pcode":"CO41298","area_m2":133321}},{"type":"Polygon","arcs":[[85]],"properties":{"codigo":"41298100000000000601","sector":"412981000000000006","pcode":"CO41298","area_m2":326487}},{"type":"Polygon","arcs":[[86,87]],"properties":{"codigo":"41298100000000000405","sector":"412981000000000004","pcode":"CO41298","area_m2":60993}},{"type":"Polygon","arcs":[[88,89,-17,-9,-51,90,91,92]],"properties":{"codigo":"41298100000000000301","sector":"412981000000000003","pcode":"CO41298","area_m2":293370}},{"type":"Polygon","arcs":[[93,94]],"properties":{"codigo":"41298100000000000308","sector":"412981000000000003","pcode":"CO41298","area_m2":39197}},{"type":"Polygon","arcs":[[95,-57,96,97,98]],"properties":{"codigo":"41298100000000000201","sector":"412981000000000002","pcode":"CO41298","area_m2":260551}},{"type":"Polygon","arcs":[[99]],"properties":{"codigo":"41298100000000000210","sector":"412981000000000002","pcode":"CO41298","area_m2":24414}},{"type":"MultiPolygon","arcs":[[[100]],[[101,-97,-56,-65]]],"properties":{"codigo":"41298100000000000204","sector":"412981000000000002","pcode":"CO41298","area_m2":174332}},{"type":"Polygon","arcs":[[-52,-47,-22,102,103]],"properties":{"codigo":"41298100000000000102","sector":"412981000000000001","pcode":"CO41298","area_m2":162830}},{"type":"Polygon","arcs":[[104,-92,105]],"properties":{"codigo":"41298100000000000304","sector":"412981000000000003","pcode":"CO41298","area_m2":158441}},{"type":"Polygon","arcs":[[106,-69,107,-99,108]],"properties":{"codigo":"41298100000000000505","sector":"412981000000000005","pcode":"CO41298","area_m2":290944}},{"type":"Polygon","arcs":[[109,-20,-46,-71,110,111,112,113]],"properties":{"codigo":"41298100000000000501","sector":"412981000000000005","pcode":"CO41298","area_m2":176551}},{"type":"Polygon","arcs":[[-103,-21,-110,114]],"properties":{"codigo":"41298100000000000101","sector":"412981000000000001","pcode":"CO41298","area_m2":77139}},{"type":"Polygon","arcs":[[-68,-58,-96,-108]],"properties":{"codigo":"41298100000000000504","sector":"412981000000000005","pcode":"CO41298","area_m2":112171}},{"type":"Polygon","arcs":[[115,-89,116,117]],"properties":{"codigo":"41298100000000000303","sector":"412981000000000003","pcode":"CO41298","area_m2":371854}},{"type":"Polygon","arcs":[[118,119,120]],"properties":{"codigo":"41298100000000000307","sector":"412981000000000003","pcode":"CO41298","area_m2":51450}},{"type":"Polygon","arcs":[[121,-94,122,123,-120]],"properties":{"codigo":"41298100000000000306","sector":"412981000000000003","pcode":"CO41298","area_m2":59348}},{"type":"Polygon","arcs":[[124,-39,-33,-14,-90,-116,125,-121,-124,126]],"properties":{"codigo":"41298100000000000302","sector":"412981000000000003","pcode":"CO41298","area_m2":341517}},{"type":"Polygon","arcs":[[-111,-70,-107,127,128,129]],"properties":{"codigo":"41298100000000000503","sector":"412981000000000005","pcode":"CO41298","area_m2":135008}},{"type":"Polygon","arcs":[[-87,130,-66,-37,-125,131]],"properties":{"codigo":"41298100000000000404","sector":"412981000000000004","pcode":"CO41298","area_m2":234447}},{"type":"Polygon","arcs":[[-113,132]],"properties":{"codigo":"41298100000000000507","sector":"412981000000000005","pcode":"CO41298","area_m2":34881}},{"type":"MultiPolygon","arcs":[[[133,-117,-93,-105]],[[134]]],"properties":{"codigo":"41298100000000000305","sector":"412981000000000003","pcode":"CO41298","area_m2":208632}},{"type":"Polygon","arcs":[[135,-129]],"properties":{"codigo":"41298100000000000506","sector":"412981000000000005","pcode":"CO41298","area_m2":40733}},{"type":"Polygon","arcs":[[136]],"properties":{"codigo":"41298200404001000101","sector":"412982004040010001","pcode":"CO41298","area_m2":28112}}]}},"arcs":[[[3518,7167],[-53,-72]],[[3465,7095],[-62,34]],[[3403,7129],[-98,54]],[[3305,7183],[-18,10]],[[3287,7193],[8,15],[50,62]],[[3345,7270],[39,-25],[134,-78]],[[6551,5226],[-10,-12],[7,-20],[-53,1],[-1,16],[22,1],[0,12],[35,2]],[[6388,5233],[24,-5],[-1,-19],[22,-9],[-23,-3],[-17,14],[-41,-5],[0,13],[25,0],[11,14]],[[3641,7175],[-37,-50]],[[3604,7125],[-56,-76]],[[3548,7049],[-83,46]],[[3518,7167],[14,19]],[[3532,7186],[68,90],[33,-40],[35,-24],[-27,-37]],[[3887,6968],[-18,-60]],[[3869,6908],[-57,2],[-115,60]],[[3697,6970],[-149,79]],[[3604,7125],[149,-77],[-8,-15],[99,-52],[43,-13]],[[3372,7342],[11,-30],[-38,-42]],[[3287,7193],[-57,36],[-77,18],[-14,13]],[[3139,7260],[-1,4]],[[3138,7264],[47,18],[64,19],[69,28]],[[3318,7329],[54,13]],[[3403,7129],[-15,-16],[-93,-122]],[[3295,6991],[-24,-29]],[[3271,6962],[-114,68]],[[3157,7030],[48,63]],[[3205,7093],[24,30],[46,31],[30,29]],[[3697,6970],[-75,-100]],[[3622,6870],[-145,75]],[[3477,6945],[71,104]],[[3477,6945],[-20,-33],[-53,23],[-109,56]],[[113,892],[11,-60],[29,0],[7,32],[20,3],[111,-17],[3,-47],[15,0],[-34,-76],[-3,-26],[-30,0],[-1,-21],[-105,7],[0,-7],[-75,1],[-16,18],[26,49],[-43,5],[18,31],[-46,23],[24,35],[-17,0],[-2,24],[51,1],[16,21],[41,4]],[[3869,6908],[38,-4]],[[3907,6904],[-8,-62],[-2,-59],[-141,4]],[[3756,6787],[-112,10]],[[3644,6797],[19,50],[-41,23]],[[3949,6690],[1,-59],[-62,2],[1,20],[-39,1],[9,14],[-54,-25],[-11,11],[-47,3]],[[3747,6657],[9,130]],[[3907,6904],[24,-59],[6,-70],[-9,-39],[2,-19],[19,-27]],[[638,5687],[-61,-2],[-103,-40],[-124,-40],[-87,-42],[-18,24]],[[245,5587],[-46,62],[100,3],[49,22],[-16,31],[121,41],[9,-18],[32,5],[7,-9],[34,16],[8,-12],[30,-3],[62,2],[3,-40]],[[550,5761],[23,13],[15,-31],[-16,-1],[-22,18],[-52,-18],[-7,13],[45,31],[14,-25]],[[7116,5809],[21,-16],[8,-22],[77,-53],[4,-52],[13,7],[29,-32],[-41,-30],[-14,13],[-10,-9],[-29,37],[-10,25],[-24,2],[-9,34],[18,-23],[22,23],[-3,13],[-35,21],[-33,11],[-22,15],[-42,16],[34,18],[-2,26],[27,5],[21,-29]],[[4037,286],[33,1],[17,9],[18,-29],[40,7],[13,-16],[12,18],[71,-23],[48,5],[-7,-10],[-67,-19],[-47,10],[-45,1],[-30,21],[-76,1],[-37,-31],[-43,1],[-30,25],[8,18],[17,-15],[48,-14],[19,31],[-11,30],[9,2],[40,-23]],[[3205,7093],[-81,47],[14,28],[-37,23]],[[3101,7191],[26,27],[1,34],[11,8]],[[3372,7342],[58,10],[20,-4],[38,21]],[[3488,7369],[34,-33],[1,-104],[9,-46]],[[3580,7323],[23,-12],[81,12],[31,35],[30,-25],[48,-19]],[[3793,7314],[18,-14],[-39,-55]],[[3772,7245],[-12,-31],[-1,-29],[10,-30],[28,-5],[23,-18],[-17,-19],[-60,35],[-26,19],[-17,-22],[-59,30]],[[3488,7369],[18,4]],[[3506,7373],[37,-14],[37,-36]],[[3580,7323],[39,41],[4,-4],[50,30],[16,37],[10,44],[13,17],[46,30],[43,46],[16,28],[-6,24],[11,40],[72,6],[6,-9],[-17,-29],[23,-9],[-41,-25],[-28,-67],[-21,-61],[-27,-3],[-4,-15],[15,-6],[1,-23],[-31,-16],[45,-25],[-20,-8],[-13,-22],[11,-30]],[[3239,6922],[-15,-19]],[[3224,6903],[-29,-17],[-34,-9],[-59,-2]],[[3102,6875],[-116,-1],[-36,1],[-101,13],[-45,10]],[[2804,6898],[40,49],[-27,16],[-15,-17],[-4,19],[120,142],[-24,19]],[[2894,7126],[37,10]],[[2931,7136],[28,-28],[14,0],[-4,-30],[17,-25],[25,-55],[36,-2],[43,-12],[47,-21],[27,-43],[37,-5],[38,7]],[[3271,6962],[-32,-40]],[[2931,7136],[32,8],[194,-114]],[[3644,6797],[-53,26],[-64,39],[6,11],[-38,20],[-22,-30]],[[3473,6863],[-23,11],[-7,24],[-28,12],[-12,-4],[-18,-26]],[[3385,6880],[-20,-4],[-55,9],[-10,-16],[-14,2],[-62,32]],[[3747,6657],[-4,-35]],[[3743,6622],[-22,12],[-16,41],[-79,39],[-15,1],[-36,17],[-27,18],[-1,49],[-23,17],[-38,6],[-17,17],[4,24]],[[2894,7126],[-116,-32],[-47,-16]],[[2731,7078],[-1,13],[25,33]],[[2755,7124],[106,139]],[[2861,7263],[25,-13],[22,1],[14,44],[21,24],[31,-7],[26,-31],[28,-19],[12,-20],[-5,-55],[33,-8],[33,12]],[[638,5687],[46,1],[-28,-30],[-143,-163],[-38,23],[-68,-8],[2,-9],[-97,-11],[-22,7],[-32,37],[-45,15],[-53,-4],[85,42]],[[9604,9998],[-17,-53],[35,-17],[17,2],[-10,-34],[31,-6],[23,3],[8,25],[46,7],[27,-13],[6,-13],[15,4],[25,-30],[-7,-35],[30,4],[1,12],[54,3],[0,-9],[-47,-5],[3,-17],[-28,-5],[22,-45],[-22,-4],[-13,29],[-51,-13],[-59,10],[-16,11],[-53,17],[-7,-20],[26,-8],[-8,-32],[-23,14],[-26,-12],[-12,4],[-15,-20],[8,-6],[-21,-20],[-16,20],[-24,12],[-34,-4],[27,25],[8,15],[-25,4],[-40,-6],[-34,3],[19,40],[-10,3],[16,33],[-13,4],[34,74],[12,-3],[17,32],[89,-29],[16,43],[16,6]],[[9986,9843],[13,-20],[-52,-13],[-24,43],[55,12],[8,-22]],[[4706,3460],[18,-15],[5,-23],[-11,-37],[12,-39],[46,-28],[49,-9],[3,9],[57,-13],[36,-23],[-17,-21],[6,-15],[34,-24],[-4,-8],[-87,52],[-19,-3],[-11,-42],[13,-8],[-3,-22],[12,-20],[40,-33],[-23,-17],[30,-21],[-17,-36],[-26,-6],[-18,-31],[8,-25],[28,-25],[-19,-5],[-33,16],[-5,33],[-15,39],[-14,14],[7,17],[-8,45],[-15,9],[-19,36],[-11,-1],[-20,55],[24,19],[-65,93],[3,16],[18,1],[-7,15],[8,40],[-3,41],[13,0]],[[4353,9654],[13,-5],[-34,-75],[23,-17],[-31,-2],[-17,-40],[29,-12],[-23,-27],[-5,-29],[-20,-4],[-86,39],[25,28],[-69,31],[73,76],[-13,37],[19,-4],[7,20],[80,-5],[29,-11]],[[3492,2533],[-7,-12],[41,-7],[70,-24],[29,-21],[-8,-18],[-20,1],[-27,21],[-21,-4],[-25,31],[-51,1],[38,-15],[4,-42],[-41,-1],[-38,-17],[-5,-27],[-12,1],[-7,24],[-28,33],[14,-4],[26,14],[16,34],[-1,16],[30,8],[10,35],[13,-27]],[[4280,9355],[15,-23],[-24,-54],[-39,17],[-23,-31],[6,-9],[-22,-10],[-28,50],[21,8],[-27,41],[25,13],[12,-20],[43,18],[20,33],[0,-26],[21,-7]],[[4304,9428],[-12,-26],[-23,-14],[16,45],[19,-5]],[[9003,8733],[24,-4],[14,-13],[26,-7],[-6,-39],[-37,-28],[54,-17],[20,7],[20,-18],[-2,-18],[35,-29],[24,16],[8,32],[18,1],[15,-13],[-6,-21],[-29,-8],[-4,-25],[22,-22],[31,5],[2,-15],[53,-4],[9,41],[23,12],[46,-4],[3,-12],[-33,-3],[0,-34],[7,-1],[-13,-58],[13,-2],[9,-21],[-24,1],[-60,13],[-23,1],[-9,17],[16,8],[-29,11],[-17,-11],[4,20],[-32,23],[-32,2],[2,8],[-27,13],[-18,25],[0,13],[-55,33],[-39,9],[-2,-16],[-16,1],[1,17],[-26,0],[40,20],[-7,30],[13,50],[-6,14]],[[8750,7154],[40,-14],[-63,-127],[42,-2],[-4,-24],[24,-17],[-54,-36],[-6,5],[-81,25],[-25,20],[38,33],[-40,10],[-17,12],[9,12],[21,-12],[39,20],[1,19],[32,43],[17,35],[27,-2]],[[3742,9971],[45,-29],[11,-15],[34,12],[-5,19],[43,4],[21,7],[3,-13],[-13,-32],[11,-2],[-7,-23],[10,-1],[-4,-24],[50,-37],[-21,-23],[26,-39],[-41,-10],[-23,62],[-79,34],[-59,34],[-78,27],[33,43],[35,15],[8,-9]],[[6526,6162],[8,-2],[-2,-37],[-72,-54],[0,-33],[-57,9],[12,25],[-8,15],[18,35],[40,39],[-29,21],[14,16],[-20,8],[27,25],[51,-39],[-8,-6],[26,-22]],[[6395,5933],[-9,-2],[-24,-39],[-21,-8],[-9,-16],[-11,8],[6,18],[-8,21],[-27,14],[10,20],[28,-33],[32,4],[20,33],[19,-10],[-6,-10]],[[2738,113],[29,-28],[25,-36],[10,-25],[-16,-20],[-28,-4],[-24,37],[-25,21],[-38,11],[-43,43],[-25,65],[-35,109],[-4,64],[-12,30],[22,25],[41,1],[19,-6],[27,-32],[-1,-14],[-21,-51],[20,-80],[17,-40],[32,-47],[30,-23]],[[3783,8144],[36,14],[33,-7],[36,4],[16,15],[47,-24],[26,-3],[59,-28],[26,-17],[16,12],[41,-23],[0,-18],[-15,-1],[-42,-32],[-19,-32],[-52,-2],[2,-6],[-39,-17],[-11,-17],[17,-27],[-28,-38],[-21,7],[-34,-42],[19,-13],[-2,-47],[43,-45],[-18,-36],[18,-15],[-29,1],[2,14],[-16,4],[-19,32],[-61,45],[-49,15],[21,11],[0,45],[15,15],[-2,48],[11,18],[-10,14],[-57,47],[-12,18],[8,24],[3,50],[-15,22],[-20,15],[22,14],[6,18],[48,-32]],[[3743,6617],[42,-17],[33,-1]],[[3818,6599],[33,-22],[-7,-10],[7,-23],[-54,-56],[-11,19],[-37,-30],[-10,24],[17,17],[-19,24],[-13,4],[-32,-33],[-20,48],[-12,0],[1,18],[82,38]],[[4218,7016],[-8,-73],[-9,-14]],[[4201,6929],[-84,23],[-49,-6],[-74,8],[-107,14]],[[3772,7245],[16,10],[23,-3]],[[3811,7252],[0,-35],[-17,-25],[72,-37],[-6,-13],[57,-31],[-7,-19],[61,-19]],[[3971,7073],[42,-13],[22,3],[128,-3],[-2,-22],[56,-1],[1,-21]],[[4247,6600],[41,-22],[9,13],[19,-9],[20,27]],[[4336,6609],[69,-33],[-50,-54],[-38,-27],[-66,54],[13,22],[-10,11],[-24,-4],[17,22]],[[2733,6920],[71,-22]],[[3102,6875],[-32,-68]],[[3070,6807],[-29,-2],[-23,20],[-56,-5],[-17,-13],[-9,15],[-63,24],[-24,-7],[-25,16],[-22,5],[-19,-49],[-34,-6],[-81,-1],[-20,-26],[-16,-6],[-66,-11],[-4,26],[7,12],[-24,16],[-11,-4],[-77,9],[32,39],[-48,-21],[-19,7],[-66,-27],[-30,5],[-36,-6],[-28,-21],[-16,-44],[-14,9],[11,27],[35,41],[23,6],[31,22],[-25,7],[69,53],[14,1],[2,24]],[[2392,6942],[23,-7],[54,-1],[8,-11],[-6,-21],[7,-17],[24,-2],[35,19],[28,3],[65,-3],[103,18]],[[2386,6708],[16,-9],[26,39],[5,18],[21,-3],[9,-25],[-24,-51],[-17,16],[-24,6],[-8,-23],[-51,20],[-12,-9],[-14,18],[25,5],[13,31],[4,28],[11,18],[16,-9],[-9,-17],[-2,-42],[15,-11]],[[3309,6707],[18,-34],[30,1],[5,-17],[32,-1],[4,-16],[-37,-7],[-79,-25],[-13,-25],[-49,41],[-3,14],[-43,26],[27,17],[45,10],[38,16],[25,0]],[[3385,6880],[22,-29],[-18,-11],[-28,1],[-24,-47],[-41,-32],[16,-24],[-19,5],[-22,18],[-26,-1],[-2,21],[-51,16],[-68,-23],[-23,-21],[-24,1],[-7,53]],[[3318,7329],[-16,13],[35,22],[9,16],[76,69]],[[3422,7449],[-17,41],[-36,18],[52,50],[4,56],[-15,18],[21,32],[38,8],[2,-29],[14,-17],[23,1],[7,-35],[13,-17],[36,-6],[-9,-14],[-6,-54],[-14,-22],[30,-8],[-11,-26],[-63,-57],[15,-15]],[[4092,7178],[-74,2],[-40,22],[-19,-39],[43,-13],[-31,-77]],[[3811,7252],[27,0],[59,-12],[21,12],[-41,8],[12,26],[48,9],[42,28],[19,-1],[85,-33],[-13,-30],[9,-4],[-9,-32],[30,-12],[-8,-33]],[[2534,7243],[60,-46],[34,-6],[127,-67]],[[2731,7078],[-13,-8],[-18,-31],[-16,-74],[25,-36],[24,-9]],[[2392,6942],[37,27],[31,36],[83,110],[-43,24],[43,59],[-26,15],[-12,-6],[-39,-53],[-30,18],[-12,-5],[-14,27],[-6,-10],[-39,66],[-7,29],[11,11],[26,-3],[1,-36],[38,-46],[20,-1],[63,11],[17,28]],[[3065,7351],[-2,-10],[37,-12],[15,-13],[23,-52]],[[2861,7263],[19,24],[32,30],[-23,7]],[[2889,7324],[59,39],[-1,32],[-43,25],[-4,13],[-32,-7],[-44,3]],[[2824,7429],[19,49]],[[2843,7478],[3,69],[28,-1],[0,-51],[-5,-23],[29,0],[7,26],[28,0],[0,-30],[31,-27],[44,-10],[7,-13],[30,10],[61,-34],[39,-1],[-7,-38],[-69,10],[-4,-14]],[[3065,7351],[14,-7],[73,-3],[36,7],[69,-10],[7,18],[0,40],[39,32],[10,-9],[13,14],[32,14],[3,-10],[25,9],[-2,25],[25,-6],[13,-16]],[[4516,6759],[-44,-6],[-51,6],[5,12],[31,28],[-24,22],[-19,29],[-70,35],[-23,0],[-56,11],[-47,17],[-17,16]],[[4218,7016],[6,0],[111,-30],[14,1],[15,21],[14,2],[17,19]],[[4395,7029],[22,-18],[40,16],[27,-25],[39,-3],[75,13],[18,17],[28,11],[22,-2],[30,13],[24,-5],[3,-11],[-20,-30],[65,-17],[-25,-38],[27,-34],[-29,-32],[-60,30],[-28,1],[-13,-23],[41,-14],[-12,-23],[-40,12],[-26,-32],[2,-40],[-11,-42],[-28,6],[-22,-10],[-28,10]],[[4317,6736],[-74,-76]],[[4243,6660],[-87,46]],[[4156,6706],[75,92],[25,-8],[45,-25],[34,0],[-24,-23],[6,-6]],[[4243,6660],[93,-51]],[[4247,6600],[-32,6],[-24,15],[3,11],[-43,23],[-5,-8],[-94,50],[14,20],[26,23]],[[4092,6740],[64,-34]],[[3960,6695],[-11,-5]],[[4516,6759],[-1,-29],[-112,-3],[-24,-10],[-17,27],[-45,-8]],[[4092,6740],[-50,26],[-37,38],[28,29],[37,18],[-82,-14],[-26,-8],[-21,-28],[8,-44],[-8,-15],[2,-28],[17,-19]],[[2534,7243],[26,41]],[[2560,7284],[19,-12],[16,-34],[-2,-13],[44,-17],[22,3],[28,29],[21,53],[-26,0],[-97,33]],[[2585,7326],[19,25],[49,-26],[30,-9],[34,5],[7,14],[49,-39],[0,-8],[31,-1],[32,27],[6,19],[47,-9]],[[3743,6617],[0,5]],[[3960,6695],[51,-73],[7,-33],[17,-12],[-1,-15],[31,-23],[22,-43],[21,-10],[29,-27],[17,-29],[48,-35],[-14,-27],[39,-57],[-18,-8],[-17,29],[-46,-4],[-15,-14],[-18,11],[3,-22],[-26,-5],[-2,15],[-48,84],[-16,14],[-41,19],[-14,14],[-1,30],[-98,72],[-7,38],[-45,15]],[[2824,7429],[-16,-8],[-49,-1],[-33,-18],[7,-12],[-31,-18],[-15,-30],[-32,13],[10,20],[-9,14],[46,26],[21,26],[68,35],[52,2]],[[4092,7178],[53,-16],[42,-38],[53,-10],[64,-21],[13,-16],[24,-7],[32,-35],[22,-6]],[[4429,7182],[-19,-25],[-171,11],[33,52],[47,46],[116,-79],[-6,-5]],[[2560,7284],[17,16],[8,26]],[[6601,2209],[-47,4],[-8,20],[8,13],[-18,25],[-47,52],[0,11],[-21,8],[10,12],[-34,-3],[-29,7],[17,27],[15,-12],[29,-2],[26,-12],[11,-28],[21,-4],[16,-18],[7,-46],[47,-20],[18,-18],[-21,-16]]]}
