{"type":"Topology","bbox":[-75.75851543414984,2.637998728964113,-75.61380808934894,2.693077843522463],"transform":{"scale":[0.000014472181698260466,0.0000055084623020652085],"translate":[-75.75851543414984,2.637998728964113]},"objects":{"municipios":{"type":"GeometryCollection","geometries":[{"type":"Polygon","arcs":[[0,1,2]]},{"type":"Polygon","arcs":[[3]]},{"type":"Polygon","arcs":[[4]]},{"type":"Polygon","arcs":[[5,6,-2]]},{"type":"Polygon","arcs":[[7,-1,8]]},{"type":"Polygon","arcs":[[-6,-8,9]]},{"type":"Polygon","arcs":[[10]]},{"type":"MultiPolygon","arcs":[[[11]],[[12]],[[13]]]},{"type":"MultiPolygon","arcs":[[[14]],[[15]]]}]}},"arcs":[[[8643,2401],[-90,-127],[-69,-37],[-39,-188]],[[8445,2049],[-177,167],[6,61],[-12,21],[-16,102]],[[8246,2400],[63,173],[15,-65],[43,49],[56,-20],[29,-77],[16,-99],[59,24],[26,49],[21,100],[26,-76],[23,34],[20,-91]],[[9925,9996],[-24,-93],[-21,-111],[19,-44],[41,-25],[28,18],[31,-17],[-33,-248],[17,-127],[-43,-9],[-7,-42],[-12,61],[12,12],[-28,92],[-27,58],[-38,39],[-45,2],[-15,72],[-3,133],[15,126],[-8,-187],[22,-72],[34,27],[29,189],[25,105],[31,41]],[[194,7421],[29,-6],[25,-58],[32,-18],[8,91],[18,-8],[-1,-49],[61,-63],[41,1],[3,29],[83,-114],[47,-73],[-3,-84],[-11,55],[-38,-14],[-15,50],[-84,108],[-13,-19],[19,-52],[-10,-24],[-24,92],[-26,8],[-42,-55],[0,46],[-42,27],[-6,-38],[-29,108],[-45,23],[-36,-4],[-99,-113],[-36,5],[3,57],[49,-18],[38,66],[33,8],[43,50],[28,-14]],[[8445,2049],[-22,-121],[-13,-104],[-20,18]],[[8390,1842],[2,54],[-22,69],[-33,26],[-24,-21],[-22,42],[-5,61],[-17,13],[7,46],[-26,62],[-1,46],[-33,105],[12,76],[18,-21]],[[8669,1834],[-54,25],[-170,190]],[[8643,2401],[84,136],[80,139],[44,-213],[23,-131],[36,-18],[-24,-270],[8,-291],[4,-42],[-177,106],[-52,17]],[[8669,1834],[-16,-91],[-81,48],[-6,-111],[-21,-94],[11,-23],[-31,-94],[14,-19],[14,-123],[-30,-97],[-39,15],[-7,139],[-15,47],[32,2],[-31,61],[-22,14],[-1,-39],[-45,-1],[-7,53],[-23,-105],[-59,-54],[-12,99],[53,124],[27,102],[-3,75],[19,80]],[[4125,124],[20,-43],[-16,-28],[4,-40],[-20,-13],[-17,75],[-20,16],[-14,-29],[-18,41],[-5,90],[10,1],[17,-76],[44,47],[0,82],[9,24],[6,-147]],[[550,9665],[35,-11],[10,-61],[-19,-52],[2,-155],[38,-66],[23,-83],[58,-110],[67,-71],[-2,-62],[-22,6],[-3,-43],[-41,68],[-36,-6],[-18,-54],[-10,34],[9,125],[-23,28],[-51,-15],[-28,-38],[-27,-78],[-14,4],[-47,239],[-16,12],[-1,70],[-54,116],[-22,78],[-4,123],[29,19],[21,-134],[31,-85],[26,98],[43,89],[39,31],[7,-16]],[[400,9813],[0,-37],[-37,6],[-9,-19],[-2,90],[11,-28],[37,-12]],[[632,9750],[-7,-30],[-24,33],[-4,55],[13,81],[29,-42],[-7,-97]],[[571,8823],[2,-30],[-43,-51],[-46,-72],[-65,-182],[3,55],[-36,108],[14,32],[26,-55],[38,107],[-11,50],[11,28],[9,-49],[38,85],[8,-29],[26,25],[50,18],[-24,-40]],[[660,8823],[-26,-11],[-5,66],[58,59],[6,-61],[-33,-53]]]}
