{"type":"Topology","bbox":[-76.18980915296595,1.9873991870731458,-76.03450557985315,2.069648232868601],"transform":{"scale":[0.000015531910502330572,0.000008225727152260725],"translate":[-76.18980915296595,1.9873991870731458]},"objects":{"municipios":{"type":"GeometryCollection","geometries":[{"type":"Polygon","arcs":[[0,1]],"properties":{"codigo":"41660100000000000101","sector":"416601000000000001","pcode":"CO41660","area_m2":364151}},{"type":"Polygon","arcs":[[-1,2]],"properties":{"codigo":"41660100000000000102","sector":"416601000000000001","pcode":"CO41660","area_m2":384425}},{"type":"Polygon","arcs":[[3]],"properties":{"codigo":"41660200404001000101","sector":"416602004040010001","pcode":"CO41660","area_m2":54578}},{"type":"Polygon","arcs":[[4]],"properties":{"codigo":"41660200304007000101","sector":"416602003040070001","pcode":"CO41660","area_m2":132223}}]}},"arcs":[[[9795,1143],[-66,-103],[-36,-36],[11,-68],[-76,-44],[-57,-75],[-55,-52],[-63,-31],[-108,-82],[-61,-75],[-141,-97],[-63,-33],[-112,31]],[[8968,478],[8,38],[31,13],[10,60],[27,28],[-7,54],[54,-31],[26,4],[-6,56],[46,64],[7,156],[37,93],[-29,-10],[-28,112],[26,22],[-17,67],[-77,53],[-45,-3],[5,69],[89,-23],[-12,103],[12,26],[95,66],[22,47],[28,-22],[-118,-127],[-13,-36],[33,-24],[-25,-34],[18,-15],[25,-152],[26,32],[31,-26],[9,48],[19,-12],[66,53],[29,81],[13,-15],[-28,-79],[-34,-41],[10,-43],[-74,-16],[1,-51],[35,-65],[-4,-119],[35,-74],[75,-41],[38,135],[56,132],[70,52],[141,87],[42,42],[44,-36],[5,-33]],[[9795,1143],[29,28],[48,89],[40,-65],[28,1],[42,80],[17,-80],[-146,-178],[27,-77],[-77,-53],[-34,12],[-64,-30],[-42,-64],[-74,-56],[28,-88],[-49,-36],[19,-48],[-95,-80],[-8,32],[-46,-27],[-17,47],[-41,-31],[-25,-66],[-45,-23],[7,-37],[-61,-89],[-14,-50],[-26,124],[-45,-45],[-26,25],[-62,-56],[5,-37],[-58,9],[-27,-43],[41,-95],[-18,-42],[55,-77],[-78,-16],[-114,162],[-30,63],[11,78],[-8,48],[-99,-55],[21,30],[5,65],[24,-38],[88,56],[41,66],[-2,61],[28,-59]],[[3751,1433],[14,24],[58,-1],[4,-46],[27,-4],[-17,-88],[-59,-1],[-19,-49],[-39,20],[-23,-22],[-59,108],[29,43],[-24,85],[-6,68],[30,78],[8,-126],[16,-58],[60,-31]],[[410,9680],[-17,-81],[-44,-92],[-26,-2],[-26,-63],[18,-77],[20,-27],[27,-116],[-21,-25],[-21,70],[-53,2],[-40,82],[-27,-32],[-15,69],[30,8],[65,68],[14,75],[-34,-9],[-18,30],[-33,-33],[-71,67],[-68,116],[19,33],[-47,94],[-41,30],[-1,91],[14,41],[41,-45],[-6,-47],[28,-71],[97,-108],[60,61],[57,-157],[-40,-63],[45,9],[42,49],[71,174],[12,-7],[-11,-114]]]}
