{"type":"Topology","bbox":[-76.01405635126008,1.983833327999483,-75.90310434676593,2.0206166067749023],"transform":{"scale":[0.00001109631008042323,0.000003678695747116632],"translate":[-76.01405635126008,1.983833327999483]},"objects":{"municipios":{"type":"GeometryCollection","geometries":[{"type":"Polygon","arcs":[[0,1,2]],"properties":{"codigo":"41244100000000000101","sector":"412441000000000001","pcode":"CO41244","area_m2":165109}},{"type":"Polygon","arcs":[[3,4,-2]],"properties":{"codigo":"41244100000000000102","sector":"412441000000000001","pcode":"CO41244","area_m2":248020}},{"type":"Polygon","arcs":[[-4,-1,5]],"properties":{"codigo":"41244100000000000103","sector":"412441000000000001","pcode":"CO41244","area_m2":216568}},{"type":"Polygon","arcs":[[6]],"properties":{"codigo":"41244200101001000101","sector":"412442001010010001","pcode":"CO41244","area_m2":233940}},{"type":"Polygon","arcs":[[7]],"properties":{"codigo":"41244200104002000101","sector":"412442001040020001","pcode":"CO41244","area_m2":63994}}]}},"arcs":[[[6881,8254],[-41,-16],[-47,72],[-27,-330]],[[6766,7980],[-266,132],[-63,-80],[-150,-21],[-173,6]],[[6114,8017],[4,264],[83,-14],[5,-71],[37,2],[2,-53],[70,24],[-19,238],[140,-48],[9,147],[58,-19],[-29,132],[33,11],[30,-94],[-1,89],[57,-43],[7,69],[52,27],[1,111],[27,-33],[60,0],[27,84],[74,-243],[11,-156],[29,-187]],[[6766,7980],[87,-58],[241,-183],[-2,-86],[34,-159],[92,-167]],[[7218,7327],[-20,-118],[-97,52],[-15,68],[-50,27],[-50,-33],[-95,112],[-87,-133],[-25,-84],[-23,24],[-13,125],[-54,45],[-25,136],[-50,65],[-15,103],[19,29],[-87,17],[-36,-366],[-156,141],[-139,148],[1,80],[-41,0],[3,58],[-37,-3],[-1,76],[-37,49],[26,72]],[[6881,8254],[17,-181],[22,-85],[44,28],[7,72],[56,94],[12,-14],[107,69],[60,3],[25,48],[62,17],[23,-57],[59,-447],[83,-31],[84,-102],[-19,-109],[58,-29],[-7,-244],[-67,-25],[-158,-4],[-86,-14],[-45,84]],[[9912,9794],[69,6],[-2,-236],[20,-24],[-55,-208],[-39,50],[-54,-159],[13,-59],[-48,-110],[-61,36],[-34,-163],[-1,-144],[-19,-209],[35,-107],[-18,-68],[15,-153],[-21,24],[-49,-121],[-32,110],[-26,14],[-27,144],[-26,-35],[-46,88],[0,54],[-41,13],[-70,196],[63,247],[-44,161],[80,223],[-12,146],[27,47],[30,-61],[13,-117],[32,73],[-26,77],[15,80],[86,-165],[19,0],[28,153],[11,-124],[65,138],[100,388],[8,-129],[22,-76]],[[223,887],[7,-152],[-23,-37],[-148,-17],[33,-85],[6,-184],[-21,-108],[37,-55],[32,-113],[6,-102],[-24,15],[-76,194],[-11,82],[33,173],[-59,14],[4,145],[-19,50],[27,144],[102,129],[-16,141],[116,283],[31,-100],[-12,-38],[28,-195],[-44,-109],[-9,-75]]]}
