{"type":"Topology","bbox":[-76.04003159498166,2.009123942638736,-75.97608534422113,2.062206734940247],"transform":{"scale":[0.000006395264602512558,0.000005308810111162208],"translate":[-76.04003159498166,2.009123942638736]},"objects":{"municipios":{"type":"GeometryCollection","geometries":[{"type":"Polygon","arcs":[[0,1,2]],"properties":{"codigo":"41503100000000000101","sector":"415031000000000001","pcode":"CO41503","area_m2":137831}},{"type":"Polygon","arcs":[[3,4,5,-1]],"properties":{"codigo":"41503100000000000102","sector":"415031000000000001","pcode":"CO41503","area_m2":120680}},{"type":"Polygon","arcs":[[6,-2,-6,7]],"properties":{"codigo":"41503100000000000103","sector":"415031000000000001","pcode":"CO41503","area_m2":208199}},{"type":"Polygon","arcs":[[-8,-5,8]],"properties":{"codigo":"41503100000000000104","sector":"415031000000000001","pcode":"CO41503","area_m2":170165}},{"type":"Polygon","arcs":[[9]],"properties":{"codigo":"41503200202001000101","sector":"415032002020010001","pcode":"CO41503","area_m2":77099}},{"type":"Polygon","arcs":[[10]],"properties":{"codigo":"41503200203002000101","sector":"415032002030020001","pcode":"CO41503","area_m2":162667}},{"type":"Polygon","arcs":[[11]],"properties":{"codigo":"41503200203003000101","sector":"415032002030030001","pcode":"CO41503","area_m2":119460}},{"type":"Polygon","arcs":[[12]],"properties":{"codigo":"41503200202004000101","sector":"415032002020040001","pcode":"CO41503","area_m2":57415}}]}},"arcs":[[[7824,3479],[-57,21],[-240,-29],[-41,20],[-51,-61],[-163,-55],[-29,7],[-105,-79],[-11,67],[-24,-17],[-81,20]],[[7022,3373],[-38,110],[-80,33],[-97,-49]],[[6807,3467],[40,48],[73,138],[49,63],[-15,100],[65,50],[19,116],[-68,30],[147,142],[65,-19],[33,-104],[67,-24],[46,-49],[-1,-167],[117,-111],[45,-67],[58,-43],[71,-12],[78,-47],[89,65],[86,39],[-5,-139],[-42,3]],[[7824,3479],[-87,-80],[-84,-21],[9,-38],[-99,-18],[31,-127],[-99,-49],[37,-113],[-58,-41],[-121,-36]],[[7353,2956],[-11,134],[-36,95],[-51,-62],[-16,-172],[-99,-37],[-69,-1],[-121,-45]],[[6950,2868],[-29,244],[18,103],[0,139],[83,19]],[[6577,2378],[-79,-12],[-48,-87],[-44,-36],[-43,16],[-102,-105],[-55,-15],[-6,29],[78,29],[62,90],[20,93],[-54,55],[-28,103],[-33,-5],[-20,99],[152,21],[-20,113],[46,35],[-34,128],[-15,116],[110,23],[154,128],[-13,67],[227,54],[22,106],[-47,44]],[[6950,2868],[29,-245],[-167,-22],[-81,-51],[-102,-157],[-52,-15]],[[7353,2956],[101,-91],[-66,-54],[-41,-119],[-69,-53],[178,-179],[-120,-53],[113,-100],[-59,-38],[-170,-8],[-15,-63],[-56,-25],[12,-105],[-70,-5],[-141,19],[-7,64],[-83,19],[25,121],[-28,6],[-81,209],[-63,-37],[-84,-107],[-52,21]],[[5107,9963],[41,-10],[33,35],[72,-90],[57,72],[60,-65],[-72,-90],[-8,-45],[47,-64],[44,27],[92,-142],[46,24],[13,-32],[139,71],[17,56],[35,12],[3,-108],[-46,-64],[-105,-83],[88,-112],[-31,-35],[31,-46],[-169,-66],[-18,80],[-73,126],[23,26],[-182,211],[-21,-22],[-76,102],[-14,-15],[-97,145],[-48,42],[96,96],[23,-36]],[[146,2343],[78,-101],[1,-116],[70,-40],[-40,-89],[85,-7],[150,-110],[35,95],[-24,58],[67,-30],[-12,-122],[139,37],[60,133],[-24,-12],[-62,137],[-45,-36],[-31,40],[38,50],[-18,27],[24,67],[61,-19],[142,-75],[13,-68],[26,30],[129,-79],[56,70],[25,93],[40,-20],[38,-113],[-41,-1],[-39,-45],[15,-82],[-76,-28],[6,-52],[-31,-49],[22,-148],[-53,11],[-42,71],[-41,19],[3,-63],[-91,0],[-176,-25],[2,-28],[-77,1],[-131,33],[-13,-52],[-70,27],[-25,-71],[-104,26],[12,45],[-44,-23],[-45,-70],[-106,-41],[19,145],[-28,48],[7,88],[33,-3],[1,64],[80,-20],[28,96],[-60,8],[12,141],[-49,24],[-58,-18],[47,94],[-44,8],[4,60],[31,-1],[25,68],[76,-57]],[[5717,1153],[89,-50],[43,-51],[108,-8],[-106,-133],[-62,-59],[-28,26],[-48,-86],[39,-48],[-77,-73],[-70,-115],[-35,37],[-25,-76],[7,-74],[59,24],[26,-33],[-98,-69],[-78,-27],[-69,9],[-67,-64],[21,-106],[-62,20],[-84,-18],[-56,60],[8,-52],[-86,-98],[17,-49],[-56,-37],[-130,67],[-17,97],[31,23],[48,98],[32,28],[147,60],[-3,42],[120,61],[21,-25],[77,23],[-23,101],[68,71],[114,16],[8,65],[97,182],[59,75],[-21,58],[62,108]],[[9813,8026],[-7,-53],[64,-71],[16,-100],[31,-50],[49,1],[15,-106],[-35,-57],[-40,10],[-124,-11],[-59,-26],[-52,21],[-3,40],[-63,44],[-43,-89],[27,-29],[-33,-60],[-122,-19],[-47,-49],[-85,-138],[-28,0],[78,129],[29,79],[86,33],[-31,110],[71,42],[44,108],[66,18],[23,61],[134,-57],[18,222],[21,-3]]]}
