{"type":"Topology","bbox":[-75.57093994677194,2.7331727696216386,-75.56384034611636,2.7510679807231386],"transform":{"scale":[7.100310686647462e-7,0.000001789700080158021],"translate":[-75.57093994677194,2.7331727696216386]},"objects":{"municipios":{"type":"GeometryCollection","geometries":[{"type":"Polygon","arcs":[[0,1,2]],"properties":{"codigo":"41801100000000000102","sector":"418011000000000001","pcode":"CO41801","area_m2":96058}},{"type":"Polygon","arcs":[[3,4]],"properties":{"codigo":"41801100000000000104","sector":"418011000000000001","pcode":"CO41801","area_m2":97873}},{"type":"Polygon","arcs":[[5,-2,6]],"properties":{"codigo":"41801100000000000101","sector":"418011000000000001","pcode":"CO41801","area_m2":248004}},{"type":"Polygon","arcs":[[-4,7,-3,-6,8]],"properties":{"codigo":"41801100000000000103","sector":"418011000000000001","pcode":"CO41801","area_m2":338945}}]}},"arcs":[[[1052,3853],[919,115],[321,155],[-269,312],[48,174],[222,79],[718,42],[286,103],[53,220],[-422,357],[273,316]],[[3201,5726],[1780,-294],[645,-75],[151,-111],[-251,-291],[467,-80]],[[5993,4875],[-218,-342],[-704,-692],[-708,-399],[-579,76],[-1558,301],[-171,-8],[-462,-377],[-131,-22],[-679,132],[269,309]],[[7329,2015],[891,-47],[134,334],[-938,53],[319,895],[244,495],[625,-112],[107,195]],[[8711,3828],[1282,-22],[-201,-146],[-21,-184],[228,-75],[-126,-337],[-210,-216],[54,-199],[-137,-159],[98,-189],[238,-161],[-60,-106],[-348,-239],[-78,-214],[67,-175],[-185,-233],[-271,9],[-359,-100],[-176,-287],[-731,-194],[-865,49],[419,1365]],[[7233,5466],[-291,60],[-624,-142],[-362,-309],[37,-200]],[[3201,5726],[513,124],[44,129],[296,170],[-39,166],[-204,101],[-265,12],[-568,-118],[-404,-33],[-332,112],[-44,246],[-317,131],[-701,-20],[-505,163],[592,55],[807,3],[841,-57],[1508,227],[475,300],[747,400],[323,213],[1036,-86],[266,467],[-81,270],[-450,96],[1331,1202],[664,-80],[205,-75],[-4,-287],[248,-339],[352,-385],[51,-130],[-612,-369],[-182,-232],[112,-466],[263,-286],[-10,-249],[-113,-317],[-153,-180],[-284,-162],[-519,-202],[-728,-689],[-127,-85]],[[7329,2015],[-1245,143],[-152,-20],[-583,-340],[-222,-3],[-94,117],[-462,-25],[-383,-69],[-235,-100],[-136,-304],[-479,-249],[-276,-212],[-29,-136],[312,-429],[-59,-132],[-858,-132],[-498,-124],[-314,88],[93,215],[-125,208],[-479,181],[-78,150],[387,308],[-102,163],[-429,39],[-456,112],[-108,124],[149,425],[562,147],[123,116],[-204,128],[-906,130],[-22,99],[281,288],[-106,478],[197,193],[-129,207],[158,90],[630,-36]],[[7233,5466],[620,-221],[965,-498],[-132,-197],[-278,-55],[252,-295],[51,-372]]]}
