{"type":"Topology","bbox":[-75.06306430656014,3.144649262866506,-75.04744255628583,3.1571669747289643],"transform":{"scale":[0.0000015623312605566679,0.0000012518963758834087],"translate":[-75.06306430656014,3.144649262866506]},"objects":{"municipios":{"type":"GeometryCollection","geometries":[{"type":"Polygon","arcs":[[0,1,2,3]]},{"type":"Polygon","arcs":[[4,5,-1,6]]},{"type":"Polygon","arcs":[[7,-5,8]]},{"type":"Polygon","arcs":[[-8,9,10,-2,-6]]},{"type":"Polygon","arcs":[[-11,11,12,13,-3]]},{"type":"Polygon","arcs":[[-13,14]]}]}},"arcs":[[[6575,8887],[-183,-2424]],[[6392,6463],[-1867,423]],[[4525,6886],[-636,131],[-832,41]],[[3057,7058],[-244,146],[186,78],[418,440],[296,163],[595,564],[-494,845],[-115,424],[100,98],[776,-399],[283,31],[-80,-213],[322,-126],[111,-261],[553,-552],[343,841],[468,-250]],[[7821,8348],[-46,-470],[-170,-526],[96,-275],[-287,64],[-104,-915]],[[7310,6226],[-918,237]],[[6575,8887],[400,-33],[112,305],[184,-326],[121,264],[-52,-453],[338,-41],[143,-255]],[[9758,6125],[-1171,-377],[-1306,100],[29,378]],[[7821,8348],[-83,496],[-50,964],[387,-54],[-19,216],[434,-29],[-11,-467],[98,-1305],[-41,-326],[250,-492],[284,-334],[59,-225],[620,-80],[250,-529],[-241,-58]],[[9758,6125],[-4,-136],[-683,-462],[-267,-69],[-794,63],[-419,166],[1,-443],[-944,-302],[-495,-83],[-379,-225],[-8,411],[-137,0],[-123,-453],[-675,-419],[-56,-381],[-310,-348],[67,-96],[-582,-148],[-250,68]],[[3700,3268],[302,667],[110,798],[413,2153]],[[3700,3268],[-137,-366],[-244,-336]],[[3319,2566],[-213,307],[-95,383]],[[3011,3256],[-371,159],[-201,469],[-63,607],[-194,195],[-620,231],[-17,603],[915,269],[-120,-580],[591,-243],[262,1287],[33,339],[-186,21],[17,445]],[[3319,2566],[-1944,-1596],[-327,-574],[-391,-115],[-552,-281],[11,349],[-116,470],[754,416],[432,-228],[244,430],[493,447],[-285,456],[494,1025],[425,-342],[454,233]]]}