{"type":"Topology","bbox":[-75.81287895018437,2.5404561236622922,-75.75273654576228,2.6767758560340686],"transform":{"scale":[0.000006014841926402124,0.000013633336570834725],"translate":[-75.81287895018437,2.5404561236622922]},"objects":{"municipios":{"type":"GeometryCollection","geometries":[{"type":"Polygon","arcs":[[0,1,2,3]],"properties":{"codigo":"41483100000000000101","sector":"414831000000000001","pcode":"CO41483","area_m2":74617}},{"type":"Polygon","arcs":[[4,5,-1,6,7]],"properties":{"codigo":"41483100000000000103","sector":"414831000000000001","pcode":"CO41483","area_m2":83201}},{"type":"Polygon","arcs":[[-4,8,-7]],"properties":{"codigo":"41483100000000000102","sector":"414831000000000001","pcode":"CO41483","area_m2":158429}},{"type":"Polygon","arcs":[[9,-5,10]],"properties":{"codigo":"41483100000000000104","sector":"414831000000000001","pcode":"CO41483","area_m2":115576}},{"type":"Polygon","arcs":[[11,-2,-6,-10]],"properties":{"codigo":"41483100000000000105","sector":"414831000000000001","pcode":"CO41483","area_m2":123930}},{"type":"MultiPolygon","arcs":[[[12]],[[13]]],"properties":{"codigo":"41483200102001000101","sector":"414832001020010001","pcode":"CO41483","area_m2":61838}},{"type":"Polygon","arcs":[[14]],"properties":{"codigo":"41483200101002000101","sector":"414832001010020001","pcode":"CO41483","area_m2":46347}},{"type":"MultiPolygon","arcs":[[[15]],[[16]],[[17]]],"properties":{"codigo":"41483200107003000101","sector":"414832001070030001","pcode":"CO41483","area_m2":24197}}]}},"arcs":[[[525,356],[55,-49]],[[580,307],[-193,-39],[-62,-23],[-89,-13],[-13,-40],[-49,-2]],[[174,190],[-22,32],[-121,102],[-31,35],[88,19],[52,24]],[[140,402],[75,13],[118,1],[35,-11],[92,-2],[65,-47]],[[1167,464],[-47,-15],[29,-36],[-513,-155]],[[636,258],[-56,49]],[[525,356],[66,22],[80,4],[24,56],[164,19],[-12,47],[102,26],[114,8]],[[1063,538],[72,-62],[32,-12]],[[140,402],[42,64],[106,12],[54,16],[91,45],[35,6],[55,110],[88,46],[111,27],[108,-11],[182,-126],[51,-53]],[[1019,82],[-5,12],[-94,14],[-107,34],[-22,21],[-155,95]],[[1167,464],[57,-52],[32,5],[-41,-62],[-82,-63],[-96,3],[-76,-19],[-16,-21],[161,-9],[0,-14],[153,-35],[48,-43],[-142,-31],[-55,34],[39,-50],[-12,-32],[-118,7]],[[1019,82],[-72,-24],[-28,-29],[-224,-29],[-81,25],[-36,32],[8,47],[-217,-17],[-76,22],[-110,65],[-9,16]],[[8967,6633],[31,-23],[147,48],[38,20],[209,-38],[-115,-62],[-87,-14],[-89,15],[-76,-17],[-61,36],[-5,-19],[-64,-27],[-32,32],[-57,0],[17,24],[-121,10],[-90,-5],[101,44],[-64,14],[34,32],[163,23],[121,-93]],[[8787,6418],[-41,8],[64,34],[34,-14],[-57,-28]],[[9955,9959],[-31,-31],[-2,-71],[-38,0],[-35,-34],[-31,7],[-117,-61],[71,-38],[-22,-9],[69,-35],[53,-14],[-51,-14],[-151,57],[-107,0],[-46,40],[8,24],[-110,71],[36,7],[102,-38],[2,-12],[74,-8],[66,43],[128,14],[-21,11],[34,30],[-28,2],[65,62],[39,-6],[66,43],[21,-4],[-44,-36]],[[9102,8243],[-106,-34],[-22,-19],[-113,20],[-70,-29],[-76,-1],[-14,23],[-82,15],[57,14],[239,-9],[39,-7],[122,30],[26,-3]],[[9752,8082],[7,-21],[-76,-7],[-53,40],[122,-12]],[[9541,8129],[32,-15],[-169,13],[-5,-10],[-183,34],[-98,-5],[-15,14],[119,-3],[176,-29],[9,33],[115,-6],[19,-26]]]}
