{"type":"Topology","bbox":[-75.7660900562214,1.9233985810101868,-75.67170168183605,2.0587495325766914],"transform":{"scale":[0.000009439781416676287,0.00001353644880153061],"translate":[-75.7660900562214,1.9233985810101868]},"objects":{"municipios":{"type":"GeometryCollection","geometries":[{"type":"Polygon","arcs":[[0,1]],"properties":{"codigo":"41319100000000000105","sector":"413191000000000001","pcode":"CO41319","area_m2":59716}},{"type":"Polygon","arcs":[[2,3,4]],"properties":{"codigo":"41319100000000000101","sector":"413191000000000001","pcode":"CO41319","area_m2":173601}},{"type":"Polygon","arcs":[[5,6,-3,7]],"properties":{"codigo":"41319100000000000102","sector":"413191000000000001","pcode":"CO41319","area_m2":188979}},{"type":"Polygon","arcs":[[8,9,-6]],"properties":{"codigo":"41319100000000000103","sector":"413191000000000001","pcode":"CO41319","area_m2":117659}},{"type":"Polygon","arcs":[[10,-1,11,-4,-7,-10]],"properties":{"codigo":"41319100000000000104","sector":"413191000000000001","pcode":"CO41319","area_m2":187812}},{"type":"Polygon","arcs":[[12]],"properties":{"codigo":"41319200301001000101","sector":"413192003010010001","pcode":"CO41319","area_m2":9510}},{"type":"Polygon","arcs":[[13]],"properties":{"codigo":"41319200103002000101","sector":"413192001030020001","pcode":"CO41319","area_m2":81124}},{"type":"Polygon","arcs":[[14]],"properties":{"codigo":"41319200201003000101","sector":"413192002010030001","pcode":"CO41319","area_m2":265873}},{"type":"Polygon","arcs":[[15]],"properties":{"codigo":"41319200102004000101","sector":"413192001020040001","pcode":"CO41319","area_m2":198747}},{"type":"Polygon","arcs":[[16]],"properties":{"codigo":"41319200202005000101","sector":"413192002020050001","pcode":"CO41319","area_m2":201519}},{"type":"Polygon","arcs":[[17]],"properties":{"codigo":"41319200103006000101","sector":"413192001030060001","pcode":"CO41319","area_m2":106154}},{"type":"MultiPolygon","arcs":[[[18]],[[19]]],"properties":{"codigo":"41319200203007000101","sector":"413192002030070001","pcode":"CO41319","area_m2":267211}}]}},"arcs":[[[742,7127],[1,-3],[127,9],[-16,102],[92,5]],[[946,7240],[-47,-43],[-17,-65],[43,-90],[-80,11],[-68,-21],[-45,5],[-27,-17],[-46,-49],[-24,-52],[-69,56],[-13,102],[101,0],[88,50]],[[1192,7736],[33,-38],[-259,-144],[-89,-44],[-78,-31],[26,-60]],[[825,7419],[-364,-46],[-402,-53]],[[59,7320],[-47,-17],[-12,46],[43,18],[95,16],[131,13],[64,13],[46,-2],[154,22],[77,24],[12,16],[138,109],[43,7],[62,25],[-11,9],[133,73],[-9,31],[76,42],[7,17],[71,31],[60,-77]],[[1432,7581],[-27,-19],[-49,-17],[-36,42],[-269,-138]],[[1051,7449],[-51,47],[-122,-60],[-53,-17]],[[1192,7736],[103,72],[10,26],[41,34],[31,-3],[30,12],[62,-54],[-48,-17],[75,-60],[31,-72],[13,-58],[-65,-10],[-43,-25]],[[1432,7581],[37,-35],[-23,-19],[-18,-54],[24,-33],[8,-37],[-58,-71],[-33,-17],[12,24],[-22,20],[25,26],[11,80],[-75,-60],[-39,-15],[-45,-83],[-23,-2],[-26,-33],[-48,-22],[-1,-24],[-44,12],[38,37],[4,62],[-10,46],[-47,-9]],[[1079,7374],[-7,31],[-80,-39],[-31,37],[90,46]],[[1079,7374],[-80,-35],[-53,-99]],[[742,7127],[-7,49],[0,98],[-65,-10],[-84,-4],[-4,21],[-34,-3],[-8,21],[-63,-8],[-2,9],[-140,-15],[-34,10],[-103,2],[-45,-8],[-91,14],[-3,17]],[[7879,60],[72,-21],[-5,-5],[-74,17],[0,-13],[-74,6],[-55,-4],[-57,5],[-112,-42],[38,23],[70,23],[-50,-1],[-5,15],[73,-3],[39,-9],[53,19],[87,-10]],[[9703,9440],[25,-43],[82,4],[36,-15],[66,-10],[31,-40],[-43,-38],[61,-26],[2,-21],[36,-48],[-27,-16],[8,-54],[-36,-11],[-60,39],[-123,58],[33,25],[-16,49],[-33,13],[-32,31],[-80,2],[13,35],[-9,40],[66,26]],[[3759,8268],[87,0],[16,-13],[-37,-23],[-51,-17],[-22,-46],[67,-74],[-76,3],[-14,19],[-87,0],[3,-14],[-53,-18],[-53,-33],[-52,0],[-51,-30],[-1,-30],[-22,-15],[-1,-66],[-78,-80],[19,-7],[-25,-25],[-124,51],[-66,35],[-31,-20],[-12,-36],[-54,-25],[37,-37],[108,-47],[-6,-14],[-49,-31],[-67,-25],[-57,22],[32,50],[10,35],[-43,21],[-51,10],[-8,-18],[19,-37],[-20,-15],[3,-40],[-29,-3],[-21,15],[18,23],[-24,17],[-66,24],[-11,32],[-18,13],[-41,0],[12,26],[-18,27],[24,19],[64,0],[46,9],[26,32],[33,-5],[11,12],[133,58],[10,14],[118,33],[27,28],[27,-5],[100,27],[96,44],[150,90],[48,49],[78,14],[17,-3]],[[6273,9281],[52,1],[34,-25],[20,6],[41,-11],[77,-35],[27,0],[39,-52],[53,18],[30,-44],[-3,-32],[-25,23],[-19,-22],[23,-35],[36,-29],[30,-59],[-30,-3],[2,-36],[-28,-10],[-62,23],[-158,-21],[13,17],[-13,49],[-82,52],[-93,36],[-16,-3],[18,-39],[-49,-44],[-57,32],[-6,20],[-56,64],[14,10],[59,-21],[30,27],[-32,16],[-20,32],[22,26],[-5,21],[-51,6],[4,9],[51,-8],[69,27],[16,34],[-29,48],[22,22],[15,-11],[37,-79]],[[1657,4854],[46,-6],[45,-109],[116,-18],[-4,-9],[-60,-5],[-12,-33],[22,-48],[40,-37],[32,5],[29,-39],[0,-22],[67,-5],[30,-13],[25,-36],[-20,-4],[-19,-32],[11,-43],[-48,25],[-74,4],[-34,-37],[-37,-5],[-37,10],[-45,24],[-33,38],[16,9],[-25,22],[-30,-10],[-24,19],[-51,-3],[-48,32],[40,13],[38,23],[64,-13],[49,15],[54,-15],[-58,74],[-60,-10],[-43,68],[50,28],[-114,40],[-22,-45],[-19,1],[-41,34],[-4,-30],[-36,-21],[7,-36],[-45,-2],[-18,14],[29,70],[-52,16],[-2,-17],[-69,-15],[-37,15],[-7,31],[29,-4],[60,31],[37,-7],[-1,15],[47,10],[9,14],[36,-10],[99,47],[19,-28],[21,-5],[-25,37],[9,20],[32,18],[37,-25],[9,-25]],[[9274,9964],[8,-52],[-14,-33],[35,-39],[30,-46],[28,-4],[30,-48],[17,-55],[-51,-11],[-51,-21],[36,-53],[-32,-28],[-61,16],[-3,-22],[-106,46],[15,24],[45,19],[2,34],[-21,20],[2,44],[-9,61],[-30,13],[-28,36],[-12,42],[9,40],[27,13],[50,-3],[31,42],[57,-19],[-4,-16]],[[2757,5987],[53,23],[121,18],[46,-8],[43,-28],[8,-65],[24,-30],[78,-19],[54,-30],[31,-8],[0,-37],[-33,-21],[-44,19],[-37,33],[-43,24],[-21,-33],[-43,-38],[-31,17],[-60,17],[-8,13],[-44,15],[-46,4],[-23,-40],[-48,8],[1,-42],[-26,-1],[-4,-48],[-68,27],[-11,-40],[25,-18],[-11,-17],[-43,7],[2,-16],[-48,-5],[-3,24],[23,80],[-66,9],[-71,-11],[7,30],[-22,33],[38,-1],[27,38],[13,45],[-14,36],[69,123],[6,53],[27,48],[16,-11],[-7,-27],[25,-25],[106,-59],[22,-18],[10,-48]],[[2414,5656],[59,1],[51,-18],[9,-21],[31,-20],[-12,-24],[-55,-39],[-23,-8],[-39,13],[-24,117],[-45,7],[4,12],[43,-2],[1,-18]]]}
