{"type":"Topology","bbox":[-75.6027718137579,2.857950124151538,-74.97037462976442,3.1894732226304745],"transform":{"scale":[0.00006324604300364794,0.00003315562541043468],"translate":[-75.6027718137579,2.857950124151538]},"objects":{"municipios":{"type":"GeometryCollection","geometries":[{"type":"Polygon","arcs":[[0,1,2,3]],"properties":{"codigo":"41001100000000020401","sector":"410011000000000204","pcode":"CO41001","area_m2":35067}},{"type":"Polygon","arcs":[[4,-4,5,6,7]],"properties":{"codigo":"41001100000000020402","sector":"410011000000000204","pcode":"CO41001","area_m2":32153}},{"type":"Polygon","arcs":[[8,9,10,11]],"properties":{"codigo":"41001100000000020405","sector":"410011000000000204","pcode":"CO41001","area_m2":31714}},{"type":"Polygon","arcs":[[12,-11,13,-8,14,15,16]],"properties":{"codigo":"41001100000000020403","sector":"410011000000000204","pcode":"CO41001","area_m2":31920}},{"type":"Polygon","arcs":[[17,18,-14,-10]],"properties":{"codigo":"41001100000000020404","sector":"410011000000000204","pcode":"CO41001","area_m2":40465}},{"type":"Polygon","arcs":[[19,20,21,22,23]],"properties":{"codigo":"41001100000000010603","sector":"410011000000000106","pcode":"CO41001","area_m2":38602}},{"type":"Polygon","arcs":[[24,25,26,27,28]],"properties":{"codigo":"41001100000000060202","sector":"410011000000000602","pcode":"CO41001","area_m2":78204}},{"type":"Polygon","arcs":[[29,30,-21,31,32]],"properties":{"codigo":"41001100000000010602","sector":"410011000000000106","pcode":"CO41001","area_m2":33830}},{"type":"Polygon","arcs":[[33,-22,-31]],"properties":{"codigo":"41001100000000010604","sector":"410011000000000106","pcode":"CO41001","area_m2":44913}},{"type":"Polygon","arcs":[[34,35,36,37]],"properties":{"codigo":"41001100000000060402","sector":"410011000000000604","pcode":"CO41001","area_m2":41552}},{"type":"Polygon","arcs":[[-26,38,39,40,-35,41]],"properties":{"codigo":"41001100000000060403","sector":"410011000000000604","pcode":"CO41001","area_m2":38756}},{"type":"Polygon","arcs":[[42,43,44,45,-1,-5,-19]],"properties":{"codigo":"41001100000000020407","sector":"410011000000000204","pcode":"CO41001","area_m2":156309}},{"type":"Polygon","arcs":[[46,-12,-13,47,48]],"properties":{"codigo":"41001100000000020406","sector":"410011000000000204","pcode":"CO41001","area_m2":41059}},{"type":"Polygon","arcs":[[49,50,51,52,53,54,55,-40]],"properties":{"codigo":"41001100000000060404","sector":"410011000000000604","pcode":"CO41001","area_m2":76806}},{"type":"Polygon","arcs":[[56,-54,57,58]],"properties":{"codigo":"41001100000000060405","sector":"410011000000000604","pcode":"CO41001","area_m2":55882}},{"type":"Polygon","arcs":[[-55,-57,59,60]],"properties":{"codigo":"41001100000000060406","sector":"410011000000000604","pcode":"CO41001","area_m2":62978}},{"type":"Polygon","arcs":[[61,62,63,64]],"properties":{"codigo":"41001100000000040701","sector":"410011000000000407","pcode":"CO41001","area_m2":95454}},{"type":"Polygon","arcs":[[65,66,67,68]],"properties":{"codigo":"41001100000000060807","sector":"410011000000000608","pcode":"CO41001","area_m2":88329}},{"type":"Polygon","arcs":[[69,70,71,72,73]],"properties":{"codigo":"41001100000000020307","sector":"410011000000000203","pcode":"CO41001","area_m2":70080}},{"type":"Polygon","arcs":[[-36,-41,-56,-61,74,75]],"properties":{"codigo":"41001100000000060407","sector":"410011000000000604","pcode":"CO41001","area_m2":67706}},{"type":"Polygon","arcs":[[76,-50,-39,-25,77]],"properties":{"codigo":"41001100000000060501","sector":"410011000000000605","pcode":"CO41001","area_m2":51241}},{"type":"Polygon","arcs":[[78,79,80,81,-51,-77]],"properties":{"codigo":"41001100000000060502","sector":"410011000000000605","pcode":"CO41001","area_m2":100890}},{"type":"Polygon","arcs":[[82,-79,83,84,85]],"properties":{"codigo":"41001100000000060601","sector":"410011000000000606","pcode":"CO41001","area_m2":57305}},{"type":"Polygon","arcs":[[86,87,88,-80,-83,89]],"properties":{"codigo":"41001100000000060602","sector":"410011000000000606","pcode":"CO41001","area_m2":77425}},{"type":"Polygon","arcs":[[90,-90,-86,91,92,93]],"properties":{"codigo":"41001100000000060603","sector":"410011000000000606","pcode":"CO41001","area_m2":72940}},{"type":"Polygon","arcs":[[94,95,96,97,98,99]],"properties":{"codigo":"41001100000000031001","sector":"410011000000000310","pcode":"CO41001","area_m2":113363}},{"type":"Polygon","arcs":[[100,101,102,103,104,105,106]],"properties":{"codigo":"41001100000000040703","sector":"410011000000000407","pcode":"CO41001","area_m2":140172}},{"type":"Polygon","arcs":[[107,108,109,-62,110,-105]],"properties":{"codigo":"41001100000000040702","sector":"410011000000000407","pcode":"CO41001","area_m2":173935}},{"type":"Polygon","arcs":[[111,-106,-111,-65,112,113]],"properties":{"codigo":"41001100000000040704","sector":"410011000000000407","pcode":"CO41001","area_m2":115263}},{"type":"Polygon","arcs":[[114,115]],"properties":{"codigo":"41001100000000050603","sector":"410011000000000506","pcode":"CO41001","area_m2":39399}},{"type":"Polygon","arcs":[[116,117,118]],"properties":{"codigo":"41001100000000010702","sector":"410011000000000107","pcode":"CO41001","area_m2":145047}},{"type":"Polygon","arcs":[[119,120,121,122,123]],"properties":{"codigo":"41001100000000020302","sector":"410011000000000203","pcode":"CO41001","area_m2":102658}},{"type":"Polygon","arcs":[[124,-73,125,-120,126]],"properties":{"codigo":"41001100000000020303","sector":"410011000000000203","pcode":"CO41001","area_m2":98960}},{"type":"Polygon","arcs":[[127,128,129,130,131,132,133,134,135]],"properties":{"codigo":"41001100000000010103","sector":"410011000000000101","pcode":"CO41001","area_m2":64149}},{"type":"Polygon","arcs":[[136,-117,137,138,139]],"properties":{"codigo":"41001100000000010703","sector":"410011000000000107","pcode":"CO41001","area_m2":468705}},{"type":"Polygon","arcs":[[140,-134,141,142,143]],"properties":{"codigo":"41001100000000010106","sector":"410011000000000101","pcode":"CO41001","area_m2":54482}},{"type":"Polygon","arcs":[[-133,144,145,-142]],"properties":{"codigo":"41001100000000010107","sector":"410011000000000101","pcode":"CO41001","area_m2":52548}},{"type":"Polygon","arcs":[[-132,146,147,148,149,-145]],"properties":{"codigo":"41001100000000010108","sector":"410011000000000101","pcode":"CO41001","area_m2":64399}},{"type":"Polygon","arcs":[[150,151,152,153,154,155]],"properties":{"codigo":"41001100000000010201","sector":"410011000000000102","pcode":"CO41001","area_m2":70964}},{"type":"Polygon","arcs":[[-156,156,157,158]],"properties":{"codigo":"41001100000000010202","sector":"410011000000000102","pcode":"CO41001","area_m2":54516}},{"type":"Polygon","arcs":[[-157,-155,159,160]],"properties":{"codigo":"41001100000000010203","sector":"410011000000000102","pcode":"CO41001","area_m2":50637}},{"type":"Polygon","arcs":[[161,162]],"properties":{"codigo":"41001100000000010205","sector":"410011000000000102","pcode":"CO41001","area_m2":34717}},{"type":"Polygon","arcs":[[-162,163,164,165]],"properties":{"codigo":"41001100000000010206","sector":"410011000000000102","pcode":"CO41001","area_m2":24663}},{"type":"Polygon","arcs":[[-74,-125,166,167]],"properties":{"codigo":"41001100000000020304","sector":"410011000000000203","pcode":"CO41001","area_m2":87193}},{"type":"Polygon","arcs":[[-159,168,169,170,171]],"properties":{"codigo":"41001100000000010208","sector":"410011000000000102","pcode":"CO41001","area_m2":120082}},{"type":"Polygon","arcs":[[172,173,174,-152]],"properties":{"codigo":"41001100000000010301","sector":"410011000000000103","pcode":"CO41001","area_m2":41554}},{"type":"Polygon","arcs":[[-175,175,176,-153]],"properties":{"codigo":"41001100000000010302","sector":"410011000000000103","pcode":"CO41001","area_m2":77075}},{"type":"Polygon","arcs":[[-174,177,178,179,180,181,-176]],"properties":{"codigo":"41001100000000010401","sector":"410011000000000104","pcode":"CO41001","area_m2":110626}},{"type":"Polygon","arcs":[[182,183,184,185,-179]],"properties":{"codigo":"41001100000000010402","sector":"410011000000000104","pcode":"CO41001","area_m2":134957}},{"type":"Polygon","arcs":[[186,187,188,189,-184]],"properties":{"codigo":"41001100000000010403","sector":"410011000000000104","pcode":"CO41001","area_m2":138310}},{"type":"Polygon","arcs":[[190,191,192,193,-95,194,195]],"properties":{"codigo":"41001100000000030702","sector":"410011000000000307","pcode":"CO41001","area_m2":194467}},{"type":"Polygon","arcs":[[196,-24,197,198,199]],"properties":{"codigo":"41001100000000010503","sector":"410011000000000105","pcode":"CO41001","area_m2":38766}},{"type":"Polygon","arcs":[[-199,200,201]],"properties":{"codigo":"41001100000000010504","sector":"410011000000000105","pcode":"CO41001","area_m2":37173}},{"type":"Polygon","arcs":[[202,-33,203,204]],"properties":{"codigo":"41001100000000010601","sector":"410011000000000106","pcode":"CO41001","area_m2":26871}},{"type":"Polygon","arcs":[[-180,-186,205,206]],"properties":{"codigo":"41001100000000010804","sector":"410011000000000108","pcode":"CO41001","area_m2":94396}},{"type":"Polygon","arcs":[[-2,-46,-167,-127,-124,207,208,209]],"properties":{"codigo":"41001100000000020301","sector":"410011000000000203","pcode":"CO41001","area_m2":309093}},{"type":"Polygon","arcs":[[210,211,212,213,214]],"properties":{"codigo":"41001100000000020101","sector":"410011000000000201","pcode":"CO41001","area_m2":130754}},{"type":"Polygon","arcs":[[215,-130,216,217]],"properties":{"codigo":"41001100000000020105","sector":"410011000000000201","pcode":"CO41001","area_m2":57791}},{"type":"Polygon","arcs":[[218,219,-147,-131,-216]],"properties":{"codigo":"41001100000000020106","sector":"410011000000000201","pcode":"CO41001","area_m2":72780}},{"type":"Polygon","arcs":[[220,221,222,-148,-220]],"properties":{"codigo":"41001100000000020108","sector":"410011000000000201","pcode":"CO41001","area_m2":46869}},{"type":"Polygon","arcs":[[223,224,225,-222]],"properties":{"codigo":"41001100000000020109","sector":"410011000000000201","pcode":"CO41001","area_m2":66818}},{"type":"Polygon","arcs":[[-49,226,227,228,229,230]],"properties":{"codigo":"41001100000000020408","sector":"410011000000000204","pcode":"CO41001","area_m2":101398}},{"type":"Polygon","arcs":[[231,-227,-48,-17,232,233,-6,-3,-210,234,235,236]],"properties":{"codigo":"41001100000000020501","sector":"410011000000000205","pcode":"CO41001","area_m2":588825}},{"type":"Polygon","arcs":[[-16,237,-233]],"properties":{"codigo":"41001100000000020502","sector":"410011000000000205","pcode":"CO41001","area_m2":41214}},{"type":"Polygon","arcs":[[-235,-209,238,239]],"properties":{"codigo":"41001100000000020504","sector":"410011000000000205","pcode":"CO41001","area_m2":107782}},{"type":"Polygon","arcs":[[-240,240,-171,241,242,-225,243,-236]],"properties":{"codigo":"41001100000000020505","sector":"410011000000000205","pcode":"CO41001","area_m2":382514}},{"type":"Polygon","arcs":[[-238,-15,-7,-234]],"properties":{"codigo":"41001100000000020506","sector":"410011000000000205","pcode":"CO41001","area_m2":37804}},{"type":"Polygon","arcs":[[244,-70,-168,-45,245]],"properties":{"codigo":"41001100000000020601","sector":"410011000000000206","pcode":"CO41001","area_m2":83930}},{"type":"Polygon","arcs":[[-246,-44,246]],"properties":{"codigo":"41001100000000020602","sector":"410011000000000206","pcode":"CO41001","area_m2":82163}},{"type":"Polygon","arcs":[[247,248,249,250,251]],"properties":{"codigo":"41001100000000030101","sector":"410011000000000301","pcode":"CO41001","area_m2":198478}},{"type":"Polygon","arcs":[[-195,-100,252,253,254]],"properties":{"codigo":"41001100000000030701","sector":"410011000000000307","pcode":"CO41001","area_m2":94864}},{"type":"Polygon","arcs":[[255,256,257,258]],"properties":{"codigo":"41001100000000040101","sector":"410011000000000401","pcode":"CO41001","area_m2":156943}},{"type":"Polygon","arcs":[[259,260,261,262,-256,263,264]],"properties":{"codigo":"41001100000000040303","sector":"410011000000000403","pcode":"CO41001","area_m2":221607}},{"type":"Polygon","arcs":[[265,266,-262]],"properties":{"codigo":"41001100000000040402","sector":"410011000000000404","pcode":"CO41001","area_m2":131120}},{"type":"Polygon","arcs":[[267,268,269,270]],"properties":{"codigo":"41001100000000050102","sector":"410011000000000501","pcode":"CO41001","area_m2":32251}},{"type":"Polygon","arcs":[[271,272,273,-268,274]],"properties":{"codigo":"41001100000000050103","sector":"410011000000000501","pcode":"CO41001","area_m2":50124}},{"type":"Polygon","arcs":[[-270,275,276,277,278,279]],"properties":{"codigo":"41001100000000050201","sector":"410011000000000502","pcode":"CO41001","area_m2":209211}},{"type":"Polygon","arcs":[[-274,280,281,282,283,-276,-269]],"properties":{"codigo":"41001100000000050202","sector":"410011000000000502","pcode":"CO41001","area_m2":186032}},{"type":"Polygon","arcs":[[284,285,286,287,-281,-273,288,289,290]],"properties":{"codigo":"41001100000000050203","sector":"410011000000000502","pcode":"CO41001","area_m2":97028}},{"type":"Polygon","arcs":[[-287,291]],"properties":{"codigo":"41001100000000050204","sector":"410011000000000502","pcode":"CO41001","area_m2":89918}},{"type":"Polygon","arcs":[[-284,292,293,294,-277]],"properties":{"codigo":"41001100000000050301","sector":"410011000000000503","pcode":"CO41001","area_m2":30363}},{"type":"Polygon","arcs":[[-279,295,296,297,-191,298]],"properties":{"codigo":"41001100000000050401","sector":"410011000000000504","pcode":"CO41001","area_m2":113046}},{"type":"Polygon","arcs":[[-295,299,300,-296,-278]],"properties":{"codigo":"41001100000000050402","sector":"410011000000000504","pcode":"CO41001","area_m2":60238}},{"type":"Polygon","arcs":[[301,302,303,304,-297,-301]],"properties":{"codigo":"41001100000000050403","sector":"410011000000000504","pcode":"CO41001","area_m2":91239}},{"type":"Polygon","arcs":[[305,-114,306,-303,307]],"properties":{"codigo":"41001100000000050501","sector":"410011000000000505","pcode":"CO41001","area_m2":107934}},{"type":"Polygon","arcs":[[308,309,310,-308,-302,-300,-294,311]],"properties":{"codigo":"41001100000000050502","sector":"410011000000000505","pcode":"CO41001","area_m2":88147}},{"type":"Polygon","arcs":[[312,313,314,315,316,-309,317,318]],"properties":{"codigo":"41001100000000050503","sector":"410011000000000505","pcode":"CO41001","area_m2":127012}},{"type":"Polygon","arcs":[[319,320,321,-313,322]],"properties":{"codigo":"41001100000000050601","sector":"410011000000000506","pcode":"CO41001","area_m2":189168}},{"type":"Polygon","arcs":[[323,324,325,326,-116,327,-320,328]],"properties":{"codigo":"41001100000000050602","sector":"410011000000000506","pcode":"CO41001","area_m2":231230}},{"type":"Polygon","arcs":[[329,-323,-319,330,-282,-288,-292,-286,331]],"properties":{"codigo":"41001100000000050701","sector":"410011000000000507","pcode":"CO41001","area_m2":314892}},{"type":"Polygon","arcs":[[-331,-318,-312,-293,-283]],"properties":{"codigo":"41001100000000050702","sector":"410011000000000507","pcode":"CO41001","area_m2":153154}},{"type":"Polygon","arcs":[[332,333,-326,334,335,336,337,338]],"properties":{"codigo":"41001100000000050803","sector":"410011000000000508","pcode":"CO41001","area_m2":876571}},{"type":"Polygon","arcs":[[-337,339,340,341,342,343]],"properties":{"codigo":"41001100000000050804","sector":"410011000000000508","pcode":"CO41001","area_m2":87794}},{"type":"Polygon","arcs":[[344,345,-335,-325,346,347,348,-329,-330,349,350]],"properties":{"codigo":"41001100000000050805","sector":"410011000000000508","pcode":"CO41001","area_m2":370006}},{"type":"Polygon","arcs":[[351,-348]],"properties":{"codigo":"41001100000000050806","sector":"410011000000000508","pcode":"CO41001","area_m2":59586}},{"type":"Polygon","arcs":[[-347,-324,-349,-352]],"properties":{"codigo":"41001100000000050807","sector":"410011000000000508","pcode":"CO41001","area_m2":87938}},{"type":"Polygon","arcs":[[-336,-346,352,353,354,-340]],"properties":{"codigo":"41001100000000050808","sector":"410011000000000508","pcode":"CO41001","area_m2":95745}},{"type":"Polygon","arcs":[[355,356,357,358,-338,-344]],"properties":{"codigo":"41001100000000050809","sector":"410011000000000508","pcode":"CO41001","area_m2":94161}},{"type":"Polygon","arcs":[[359,360,361,362,363,364,365]],"properties":{"codigo":"41001100000000051108","sector":"410011000000000511","pcode":"CO41001","area_m2":83007}},{"type":"Polygon","arcs":[[-363,366,367,368,369,370,371,372]],"properties":{"codigo":"41001100000000051109","sector":"410011000000000511","pcode":"CO41001","area_m2":57666}},{"type":"Polygon","arcs":[[-372,373]],"properties":{"codigo":"41001100000000051301","sector":"410011000000000513","pcode":"CO41001","area_m2":24289}},{"type":"Polygon","arcs":[[374,-351,375,376,377]],"properties":{"codigo":"41001100000000051302","sector":"410011000000000513","pcode":"CO41001","area_m2":108981}},{"type":"Polygon","arcs":[[-37,-76,378,379]],"properties":{"codigo":"41001100000000060401","sector":"410011000000000604","pcode":"CO41001","area_m2":33027}},{"type":"Polygon","arcs":[[380,-353,-345,-375,381,-370]],"properties":{"codigo":"41001100000000051101","sector":"410011000000000511","pcode":"CO41001","area_m2":49652}},{"type":"Polygon","arcs":[[382,-354,-381,-369]],"properties":{"codigo":"41001100000000051102","sector":"410011000000000511","pcode":"CO41001","area_m2":39417}},{"type":"Polygon","arcs":[[-355,-383,-368,383]],"properties":{"codigo":"41001100000000051103","sector":"410011000000000511","pcode":"CO41001","area_m2":52995}},{"type":"Polygon","arcs":[[384,-341,-384,-367,-362]],"properties":{"codigo":"41001100000000051104","sector":"410011000000000511","pcode":"CO41001","area_m2":46442}},{"type":"Polygon","arcs":[[385,-342,-385,-361]],"properties":{"codigo":"41001100000000051105","sector":"410011000000000511","pcode":"CO41001","area_m2":42993}},{"type":"Polygon","arcs":[[-343,-386,-360,386,387]],"properties":{"codigo":"41001100000000051106","sector":"410011000000000511","pcode":"CO41001","area_m2":75100}},{"type":"Polygon","arcs":[[-387,-366,388,389,390]],"properties":{"codigo":"41001100000000051107","sector":"410011000000000511","pcode":"CO41001","area_m2":88007}},{"type":"Polygon","arcs":[[391,-389,-365,392,393]],"properties":{"codigo":"41001100000000051304","sector":"410011000000000513","pcode":"CO41001","area_m2":52041}},{"type":"Polygon","arcs":[[-390,-392,394,395,396]],"properties":{"codigo":"41001100000000051305","sector":"410011000000000513","pcode":"CO41001","area_m2":71102}},{"type":"Polygon","arcs":[[-395,-394,397,398]],"properties":{"codigo":"41001100000000051306","sector":"410011000000000513","pcode":"CO41001","area_m2":62207}},{"type":"Polygon","arcs":[[-377,399,-291,400]],"properties":{"codigo":"41001100000000051307","sector":"410011000000000513","pcode":"CO41001","area_m2":80781}},{"type":"Polygon","arcs":[[-376,-350,-332,-285,-400]],"properties":{"codigo":"41001100000000051308","sector":"410011000000000513","pcode":"CO41001","area_m2":83697}},{"type":"Polygon","arcs":[[401,402,-356,-388,-391]],"properties":{"codigo":"41001100000000051401","sector":"410011000000000514","pcode":"CO41001","area_m2":164741}},{"type":"Polygon","arcs":[[403,404,405,-357,-403,406]],"properties":{"codigo":"41001100000000051402","sector":"410011000000000514","pcode":"CO41001","area_m2":215787}},{"type":"Polygon","arcs":[[407,408,-405,409]],"properties":{"codigo":"41001100000000051403","sector":"410011000000000514","pcode":"CO41001","area_m2":137348}},{"type":"Polygon","arcs":[[-410,-404,410,411]],"properties":{"codigo":"41001100000000051405","sector":"410011000000000514","pcode":"CO41001","area_m2":265825}},{"type":"Polygon","arcs":[[412,-93,413,414]],"properties":{"codigo":"41001100000000060101","sector":"410011000000000601","pcode":"CO41001","area_m2":51102}},{"type":"Polygon","arcs":[[415,-84,-78,-29,416,417]],"properties":{"codigo":"41001100000000060103","sector":"410011000000000601","pcode":"CO41001","area_m2":62339}},{"type":"Polygon","arcs":[[-92,-85,-416,418,419,-414]],"properties":{"codigo":"41001100000000060104","sector":"410011000000000601","pcode":"CO41001","area_m2":77428}},{"type":"Polygon","arcs":[[420,421,422,423,424]],"properties":{"codigo":"41001100000000060702","sector":"410011000000000607","pcode":"CO41001","area_m2":41102}},{"type":"Polygon","arcs":[[-421,425]],"properties":{"codigo":"41001100000000060703","sector":"410011000000000607","pcode":"CO41001","area_m2":90679}},{"type":"Polygon","arcs":[[-87,-91,426,427,428]],"properties":{"codigo":"41001100000000060704","sector":"410011000000000607","pcode":"CO41001","area_m2":118806}},{"type":"Polygon","arcs":[[429,-423,430,431,432,433,-428,434]],"properties":{"codigo":"41001100000000060705","sector":"410011000000000607","pcode":"CO41001","area_m2":343225}},{"type":"Polygon","arcs":[[-432,435]],"properties":{"codigo":"41001100000000060707","sector":"410011000000000607","pcode":"CO41001","area_m2":90596}},{"type":"Polygon","arcs":[[436,437,-58,-53,438,439]],"properties":{"codigo":"41001100000000060801","sector":"410011000000000608","pcode":"CO41001","area_m2":977778}},{"type":"Polygon","arcs":[[-82,440,441,-439,-52]],"properties":{"codigo":"41001100000000060803","sector":"410011000000000608","pcode":"CO41001","area_m2":208379}},{"type":"Polygon","arcs":[[-89,442,443,-441,-81]],"properties":{"codigo":"41001100000000060804","sector":"410011000000000608","pcode":"CO41001","area_m2":89237}},{"type":"Polygon","arcs":[[-429,-434,444,-68,445,-443,-88]],"properties":{"codigo":"41001100000000060805","sector":"410011000000000608","pcode":"CO41001","area_m2":493778}},{"type":"Polygon","arcs":[[446,-444]],"properties":{"codigo":"41001100000000060806","sector":"410011000000000608","pcode":"CO41001","area_m2":141718}},{"type":"Polygon","arcs":[[-446,-67,447,448,-440,-442,-447]],"properties":{"codigo":"41001100000000060808","sector":"410011000000000608","pcode":"CO41001","area_m2":989981}},{"type":"Polygon","arcs":[[449,-107,-112,-306,-311,450]],"properties":{"codigo":"41001100000000070101","sector":"410011000000000701","pcode":"CO41001","area_m2":90623}},{"type":"Polygon","arcs":[[451,-101,-450,452]],"properties":{"codigo":"41001100000000070102","sector":"410011000000000701","pcode":"CO41001","area_m2":131092}},{"type":"Polygon","arcs":[[453,454,455,456,-102,-452,457]],"properties":{"codigo":"41001100000000070103","sector":"410011000000000701","pcode":"CO41001","area_m2":99289}},{"type":"Polygon","arcs":[[458,-458,-453,-451,-310,-317,459]],"properties":{"codigo":"41001100000000070201","sector":"410011000000000702","pcode":"CO41001","area_m2":53580}},{"type":"Polygon","arcs":[[460,461,-460,-316]],"properties":{"codigo":"41001100000000070202","sector":"410011000000000702","pcode":"CO41001","area_m2":51392}},{"type":"Polygon","arcs":[[462,-461,-315]],"properties":{"codigo":"41001100000000070203","sector":"410011000000000702","pcode":"CO41001","area_m2":94878}},{"type":"Polygon","arcs":[[-457,463,464,465,466,-103]],"properties":{"codigo":"41001100000000070301","sector":"410011000000000703","pcode":"CO41001","area_m2":108843}},{"type":"Polygon","arcs":[[467,468,-464,-456,469]],"properties":{"codigo":"41001100000000070302","sector":"410011000000000703","pcode":"CO41001","area_m2":113008}},{"type":"Polygon","arcs":[[470,471,472,-470,-455,473]],"properties":{"codigo":"41001100000000080101","sector":"410011000000000801","pcode":"CO41001","area_m2":38344}},{"type":"Polygon","arcs":[[474,475,476,477,478,-471,479]],"properties":{"codigo":"41001100000000080102","sector":"410011000000000801","pcode":"CO41001","area_m2":120362}},{"type":"Polygon","arcs":[[-322,480,-480,-474,-454,-459,-462,-463,-314]],"properties":{"codigo":"41001100000000080103","sector":"410011000000000801","pcode":"CO41001","area_m2":236478}},{"type":"Polygon","arcs":[[481,482,-476]],"properties":{"codigo":"41001100000000080202","sector":"410011000000000802","pcode":"CO41001","area_m2":27183}},{"type":"Polygon","arcs":[[483,-478,484]],"properties":{"codigo":"41001100000000080301","sector":"410011000000000803","pcode":"CO41001","area_m2":43975}},{"type":"Polygon","arcs":[[485,486,-472,-479,-484]],"properties":{"codigo":"41001100000000080401","sector":"410011000000000804","pcode":"CO41001","area_m2":77201}},{"type":"Polygon","arcs":[[487,488,489,490,491]],"properties":{"codigo":"41001100000000080601","sector":"410011000000000806","pcode":"CO41001","area_m2":88209}},{"type":"Polygon","arcs":[[492,493,494,495,496,497]],"properties":{"codigo":"41001100000000080604","sector":"410011000000000806","pcode":"CO41001","area_m2":71966}},{"type":"Polygon","arcs":[[498,-489,499,500]],"properties":{"codigo":"41001100000000080606","sector":"410011000000000806","pcode":"CO41001","area_m2":36277}},{"type":"Polygon","arcs":[[501,502,503,-490,-499]],"properties":{"codigo":"41001100000000080607","sector":"410011000000000806","pcode":"CO41001","area_m2":78606}},{"type":"Polygon","arcs":[[504,-493,505,506]],"properties":{"codigo":"41001100000000080701","sector":"410011000000000807","pcode":"CO41001","area_m2":44166}},{"type":"Polygon","arcs":[[-506,-498,507,508]],"properties":{"codigo":"41001100000000080801","sector":"410011000000000808","pcode":"CO41001","area_m2":56474}},{"type":"Polygon","arcs":[[509,510,-507,-509,511,-482,-475,-481,-321,-328,-115,-327,-334]],"properties":{"codigo":"41001100000000080802","sector":"410011000000000808","pcode":"CO41001","area_m2":571719}},{"type":"Polygon","arcs":[[512,513,-510,-333,514]],"properties":{"codigo":"41001100000000080803","sector":"410011000000000808","pcode":"CO41001","area_m2":781945}},{"type":"Polygon","arcs":[[515]],"properties":{"codigo":"41001200702008000101","sector":"410012007020080001","pcode":"CO41001","area_m2":87859}},{"type":"MultiPolygon","arcs":[[[516]],[[517]]],"properties":{"codigo":"41001200604030000101","sector":"410012006040300001","pcode":"CO41001","area_m2":146853}},{"type":"Polygon","arcs":[[518]],"properties":{"codigo":"41001200702014000101","sector":"410012007020140001","pcode":"CO41001","area_m2":370399}},{"type":"MultiPolygon","arcs":[[[519]],[[520]],[[521]]],"properties":{"codigo":"41001200307032000101","sector":"410012003070320001","pcode":"CO41001","area_m2":27511}},{"type":"Polygon","arcs":[[522,523,524,-473,-487]],"properties":{"codigo":"41001100000000080402","sector":"410011000000000804","pcode":"CO41001","area_m2":55328}},{"type":"Polygon","arcs":[[525,526,-118,-137]],"properties":{"codigo":"41001100000000010701","sector":"410011000000000107","pcode":"CO41001","area_m2":100988}},{"type":"Polygon","arcs":[[527,528,-468,-525]],"properties":{"codigo":"41001100000000080403","sector":"410011000000000804","pcode":"CO41001","area_m2":40414}},{"type":"Polygon","arcs":[[529,-139,530,531,-251]],"properties":{"codigo":"41001100000000010704","sector":"410011000000000107","pcode":"CO41001","area_m2":76407}},{"type":"Polygon","arcs":[[-27,-42,-38,-380,532,533,534]],"properties":{"codigo":"41001100000000060203","sector":"410011000000000602","pcode":"CO41001","area_m2":115121}},{"type":"Polygon","arcs":[[535,-200,-202,536,537]],"properties":{"codigo":"41001100000000010502","sector":"410011000000000105","pcode":"CO41001","area_m2":72677}},{"type":"Polygon","arcs":[[538,539,540,541]],"properties":{"codigo":"41001100000000030401","sector":"410011000000000304","pcode":"CO41001","area_m2":178827}},{"type":"Polygon","arcs":[[542,543,544,545,546]],"properties":{"codigo":"41001100000000080502","sector":"410011000000000805","pcode":"CO41001","area_m2":84211}},{"type":"Polygon","arcs":[[547,-253,548,549]],"properties":{"codigo":"41001100000000030501","sector":"410011000000000305","pcode":"CO41001","area_m2":57712}},{"type":"Polygon","arcs":[[-98,-541,550,551]],"properties":{"codigo":"41001100000000030502","sector":"410011000000000305","pcode":"CO41001","area_m2":54859}},{"type":"Polygon","arcs":[[-99,-552,552,553,-549]],"properties":{"codigo":"41001100000000030503","sector":"410011000000000305","pcode":"CO41001","area_m2":69947}},{"type":"Polygon","arcs":[[-194,554,555,556,-96]],"properties":{"codigo":"41001100000000030901","sector":"410011000000000309","pcode":"CO41001","area_m2":119583}},{"type":"Polygon","arcs":[[-548,557,558,559,-254]],"properties":{"codigo":"41001100000000030601","sector":"410011000000000306","pcode":"CO41001","area_m2":125135}},{"type":"Polygon","arcs":[[560,-192,-298,-305,561]],"properties":{"codigo":"41001100000000030801","sector":"410011000000000308","pcode":"CO41001","area_m2":54447}},{"type":"Polygon","arcs":[[562,-555,-193,-561,563]],"properties":{"codigo":"41001100000000030802","sector":"410011000000000308","pcode":"CO41001","area_m2":101492}},{"type":"Polygon","arcs":[[564,565,566,-542,-97,-557]],"properties":{"codigo":"41001100000000031101","sector":"410011000000000311","pcode":"CO41001","area_m2":140377}},{"type":"Polygon","arcs":[[567,568,569,570,-567]],"properties":{"codigo":"41001100000000031201","sector":"410011000000000312","pcode":"CO41001","area_m2":116281}},{"type":"Polygon","arcs":[[-248,571,-569,572]],"properties":{"codigo":"41001100000000031301","sector":"410011000000000313","pcode":"CO41001","area_m2":100002}},{"type":"Polygon","arcs":[[573,-258,574,-573,-568]],"properties":{"codigo":"41001100000000040201","sector":"410011000000000402","pcode":"CO41001","area_m2":149457}},{"type":"Polygon","arcs":[[575,-265,576,-565,-556,-563,577,-63,-110,578]],"properties":{"codigo":"41001100000000040301","sector":"410011000000000403","pcode":"CO41001","area_m2":220782}},{"type":"Polygon","arcs":[[-259,-574,-566,-577,-264]],"properties":{"codigo":"41001100000000040302","sector":"410011000000000403","pcode":"CO41001","area_m2":265773}},{"type":"Polygon","arcs":[[579,-266,-261,580,581]],"properties":{"codigo":"41001100000000040401","sector":"410011000000000404","pcode":"CO41001","area_m2":151084}},{"type":"Polygon","arcs":[[582,583,584,-579,-109]],"properties":{"codigo":"41001100000000040501","sector":"410011000000000405","pcode":"CO41001","area_m2":150080}},{"type":"Polygon","arcs":[[-581,-260,-576,-585,585]],"properties":{"codigo":"41001100000000040502","sector":"410011000000000405","pcode":"CO41001","area_m2":113268}},{"type":"Polygon","arcs":[[586,-583,-108,-104,-467,587]],"properties":{"codigo":"41001100000000040601","sector":"410011000000000406","pcode":"CO41001","area_m2":127410}},{"type":"Polygon","arcs":[[-578,-564,-562,-304,-307,-113,-64]],"properties":{"codigo":"41001100000000040801","sector":"410011000000000408","pcode":"CO41001","area_m2":152477}},{"type":"Polygon","arcs":[[588,-417,-28,-535,589,590]],"properties":{"codigo":"41001100000000060201","sector":"410011000000000602","pcode":"CO41001","area_m2":107795}},{"type":"Polygon","arcs":[[-491,591,-546,592,593,-528,-524,594]],"properties":{"codigo":"41001100000000080501","sector":"410011000000000805","pcode":"CO41001","area_m2":178718}},{"type":"Polygon","arcs":[[595,596,597,-547,-592,-504]],"properties":{"codigo":"41001100000000080503","sector":"410011000000000805","pcode":"CO41001","area_m2":147690}},{"type":"Polygon","arcs":[[598,-591,599,-593,-545]],"properties":{"codigo":"41001100000000080504","sector":"410011000000000805","pcode":"CO41001","area_m2":68470}},{"type":"Polygon","arcs":[[-492,-595,600,601,-496,602]],"properties":{"codigo":"41001100000000080602","sector":"410011000000000806","pcode":"CO41001","area_m2":86298}},{"type":"Polygon","arcs":[[603,-502,-501,604]],"properties":{"codigo":"41001100000000080605","sector":"410011000000000806","pcode":"CO41001","area_m2":72165}},{"type":"Polygon","arcs":[[-144,605,606]],"properties":{"codigo":"41001100000000010105","sector":"410011000000000101","pcode":"CO41001","area_m2":39877}},{"type":"Polygon","arcs":[[-189,-204,-32,-20,-197,-536,607]],"properties":{"codigo":"41001100000000010501","sector":"410011000000000105","pcode":"CO41001","area_m2":59264}},{"type":"Polygon","arcs":[[608,-128,609,610,611]],"properties":{"codigo":"41001100000000010101","sector":"410011000000000101","pcode":"CO41001","area_m2":211196}},{"type":"Polygon","arcs":[[-141,-607,612,613,-135]],"properties":{"codigo":"41001100000000010102","sector":"410011000000000101","pcode":"CO41001","area_m2":48396}},{"type":"Polygon","arcs":[[-136,-614,614,615,-610]],"properties":{"codigo":"41001100000000010104","sector":"410011000000000101","pcode":"CO41001","area_m2":176505}},{"type":"Polygon","arcs":[[-149,-223,-226,-243,616,617]],"properties":{"codigo":"41001100000000010109","sector":"410011000000000101","pcode":"CO41001","area_m2":151454}},{"type":"Polygon","arcs":[[618,-169,-158,-161,619,620,621]],"properties":{"codigo":"41001100000000010204","sector":"410011000000000102","pcode":"CO41001","area_m2":237160}},{"type":"Polygon","arcs":[[622,-165,-622,623,624]],"properties":{"codigo":"41001100000000010207","sector":"410011000000000102","pcode":"CO41001","area_m2":302645}},{"type":"Polygon","arcs":[[-531,-138,625,626,627,628]],"properties":{"codigo":"41001100000000010705","sector":"410011000000000107","pcode":"CO41001","area_m2":207442}},{"type":"Polygon","arcs":[[-553,-551,-540,629,-628,630,-122,631]],"properties":{"codigo":"41001100000000020308","sector":"410011000000000203","pcode":"CO41001","area_m2":154736}},{"type":"Polygon","arcs":[[-242,-170,-619,-164,-163,-166,-623,632,-617]],"properties":{"codigo":"41001100000000010209","sector":"410011000000000102","pcode":"CO41001","area_m2":155522}},{"type":"Polygon","arcs":[[-627,633,-205,-188,634]],"properties":{"codigo":"41001100000000010404","sector":"410011000000000104","pcode":"CO41001","area_m2":82419}},{"type":"Polygon","arcs":[[-201,-198,-23,-34,-30,-203,-634,-626,-119,-527,635,636,637,-537]],"properties":{"codigo":"41001100000000010706","sector":"410011000000000107","pcode":"CO41001","area_m2":752639}},{"type":"Polygon","arcs":[[-608,-538,-638,638,-206,-185,-190]],"properties":{"codigo":"41001100000000010801","sector":"410011000000000108","pcode":"CO41001","area_m2":191368}},{"type":"Polygon","arcs":[[-207,-639,-637,639,640,-181]],"properties":{"codigo":"41001100000000010802","sector":"410011000000000108","pcode":"CO41001","area_m2":267233}},{"type":"Polygon","arcs":[[-160,-154,-177,-182,-641,641,-620]],"properties":{"codigo":"41001100000000010803","sector":"410011000000000108","pcode":"CO41001","area_m2":272497}},{"type":"Polygon","arcs":[[642,643,-213,644]],"properties":{"codigo":"41001100000000020102","sector":"410011000000000201","pcode":"CO41001","area_m2":54900}},{"type":"Polygon","arcs":[[-214,-644,645,-612,646]],"properties":{"codigo":"41001100000000020103","sector":"410011000000000201","pcode":"CO41001","area_m2":275058}},{"type":"Polygon","arcs":[[647,-217,-129,-609,-646,-643]],"properties":{"codigo":"41001100000000020104","sector":"410011000000000201","pcode":"CO41001","area_m2":38992}},{"type":"Polygon","arcs":[[648,649,650,-237,-244,-224,-221,-219,-218,-648,-645,-212,651]],"properties":{"codigo":"41001100000000020107","sector":"410011000000000201","pcode":"CO41001","area_m2":1245979}},{"type":"Polygon","arcs":[[-123,-631,-635,-187,-183,-178,-173,-151,-172,-241,-239,-208]],"properties":{"codigo":"41001100000000020201","sector":"410011000000000202","pcode":"CO41001","area_m2":1025465}},{"type":"Polygon","arcs":[[652,-559,653,-71]],"properties":{"codigo":"41001100000000020305","sector":"410011000000000203","pcode":"CO41001","area_m2":81491}},{"type":"Polygon","arcs":[[-654,-558,-550,-554,-632,-121,-126,-72]],"properties":{"codigo":"41001100000000020306","sector":"410011000000000203","pcode":"CO41001","area_m2":101886}},{"type":"Polygon","arcs":[[654,-228,-232,-651,655]],"properties":{"codigo":"41001100000000020503","sector":"410011000000000205","pcode":"CO41001","area_m2":176816}},{"type":"Polygon","arcs":[[656,-653,-245,-247,-43,-18,-9,-47,-231,657]],"properties":{"codigo":"41001100000000020603","sector":"410011000000000206","pcode":"CO41001","area_m2":840324}},{"type":"Polygon","arcs":[[-572,-252,-532,658]],"properties":{"codigo":"41001100000000030102","sector":"410011000000000301","pcode":"CO41001","area_m2":132070}},{"type":"Polygon","arcs":[[-570,-659,-629,659]],"properties":{"codigo":"41001100000000030201","sector":"410011000000000302","pcode":"CO41001","area_m2":168458}},{"type":"Polygon","arcs":[[-660,-630,-539,-571]],"properties":{"codigo":"41001100000000030301","sector":"410011000000000303","pcode":"CO41001","area_m2":155821}},{"type":"Polygon","arcs":[[-575,-257,-263,-267,-580,660,661,-249]],"properties":{"codigo":"41001100000000040901","sector":"410011000000000409","pcode":"CO41001","area_m2":2054735}},{"type":"Polygon","arcs":[[662,663]],"properties":{"codigo":"41001100000000040902","sector":"410011000000000409","pcode":"CO41001","area_m2":444864}},{"type":"Polygon","arcs":[[664,-275,-271,-280,-299,-196,-255,-560,-657,665,666]],"properties":{"codigo":"41001100000000050101","sector":"410011000000000501","pcode":"CO41001","area_m2":1788717}},{"type":"Polygon","arcs":[[667,-289,-272,-665,668]],"properties":{"codigo":"41001100000000050104","sector":"410011000000000501","pcode":"CO41001","area_m2":100361}},{"type":"Polygon","arcs":[[669,-358,-406,-409,670,671]],"properties":{"codigo":"41001100000000050801","sector":"410011000000000508","pcode":"CO41001","area_m2":304953}},{"type":"Polygon","arcs":[[672,-515,-339,-359,-670]],"properties":{"codigo":"41001100000000050802","sector":"410011000000000508","pcode":"CO41001","area_m2":339160}},{"type":"Polygon","arcs":[[-396,-399,673,674,675,676,677]],"properties":{"codigo":"41001100000000050901","sector":"410011000000000509","pcode":"CO41001","area_m2":676240}},{"type":"Polygon","arcs":[[-59,-438,678,-586,-584,-587,-533,-379,-75,-60]],"properties":{"codigo":"41001100000000060301","sector":"410011000000000603","pcode":"CO41001","area_m2":311347}},{"type":"Polygon","arcs":[[679,-411,-407,-402,-397,-678,680,681]],"properties":{"codigo":"41001100000000051408","sector":"410011000000000514","pcode":"CO41001","area_m2":334799}},{"type":"Polygon","arcs":[[682,-605,-500,-488,-603,-495,683]],"properties":{"codigo":"41001100000000080603","sector":"410011000000000806","pcode":"CO41001","area_m2":63690}},{"type":"Polygon","arcs":[[-681,-677,684,-669,-667,685]],"properties":{"codigo":"41001100000000050902","sector":"410011000000000509","pcode":"CO41001","area_m2":1302430}},{"type":"Polygon","arcs":[[-674,-398,-393,-364,-373,-374,-371,-382,-378,-401,-290,-668,-685,-676,686]],"properties":{"codigo":"41001100000000051303","sector":"410011000000000513","pcode":"CO41001","area_m2":694090}},{"type":"Polygon","arcs":[[-687,-675]],"properties":{"codigo":"41001100000000051309","sector":"410011000000000513","pcode":"CO41001","area_m2":136474}},{"type":"Polygon","arcs":[[687,688,689]],"properties":{"codigo":"41001100000000060709","sector":"410011000000000607","pcode":"CO41001","area_m2":197334}},{"type":"Polygon","arcs":[[-671,-408,-412,-680,690]],"properties":{"codigo":"41001100000000051409","sector":"410011000000000514","pcode":"CO41001","area_m2":186170}},{"type":"Polygon","arcs":[[691,-415,-420,692,-543,-598]],"properties":{"codigo":"41001100000000060102","sector":"410011000000000601","pcode":"CO41001","area_m2":56374}},{"type":"Polygon","arcs":[[-419,-418,-589,-599,-544,-693]],"properties":{"codigo":"41001100000000060105","sector":"410011000000000601","pcode":"CO41001","area_m2":43803}},{"type":"Polygon","arcs":[[693,-435,-427,-94,-413,-692,-597,694]],"properties":{"codigo":"41001100000000060604","sector":"410011000000000606","pcode":"CO41001","area_m2":69538}},{"type":"Polygon","arcs":[[-424,-430,-694,695,696]],"properties":{"codigo":"41001100000000060701","sector":"410011000000000607","pcode":"CO41001","area_m2":114281}},{"type":"Polygon","arcs":[[-690,697,698,-69,-445,-433,-436,-431,-422,-426,-425,-697,699]],"properties":{"codigo":"41001100000000060706","sector":"410011000000000607","pcode":"CO41001","area_m2":413909}},{"type":"Polygon","arcs":[[700,-698,-689,701]],"properties":{"codigo":"41001100000000060708","sector":"410011000000000607","pcode":"CO41001","area_m2":1137858}},{"type":"Polygon","arcs":[[-437,-449,702,703,-663,704,-661,-582,-679]],"properties":{"codigo":"41001100000000060802","sector":"410011000000000608","pcode":"CO41001","area_m2":2601158}},{"type":"Polygon","arcs":[[-701,705,-703,-448,-66,-699]],"properties":{"codigo":"41001100000000060809","sector":"410011000000000608","pcode":"CO41001","area_m2":951814}},{"type":"Polygon","arcs":[[706,-534,-588,-466]],"properties":{"codigo":"41001100000000070401","sector":"410011000000000704","pcode":"CO41001","area_m2":106689}},{"type":"Polygon","arcs":[[-529,-594,-600,-590,-707,-465,-469]],"properties":{"codigo":"41001100000000070402","sector":"410011000000000704","pcode":"CO41001","area_m2":39868}},{"type":"Polygon","arcs":[[-508,-497,-602,707,-483,-512]],"properties":{"codigo":"41001100000000080201","sector":"410011000000000802","pcode":"CO41001","area_m2":47633}},{"type":"Polygon","arcs":[[-523,-486,-485,-477,-708,-601]],"properties":{"codigo":"41001100000000080302","sector":"410011000000000803","pcode":"CO41001","area_m2":75838}},{"type":"Polygon","arcs":[[-514,708,-684,-494,-505,-511]],"properties":{"codigo":"41001100000000080702","sector":"410011000000000807","pcode":"CO41001","area_m2":117453}},{"type":"Polygon","arcs":[[-613,-606,-143,-146,-150,-618,-633,-625,709,-615]],"properties":{"codigo":"41001100000000081001","sector":"410011000000000810","pcode":"CO41001","area_m2":829111}},{"type":"Polygon","arcs":[[710,711,712,713]],"properties":{"codigo":"41001100000000081101","sector":"410011000000000811","pcode":"CO41001","area_m2":85738}},{"type":"Polygon","arcs":[[714,-714,715,716]],"properties":{"codigo":"41001100000000081102","sector":"410011000000000811","pcode":"CO41001","area_m2":171381}},{"type":"Polygon","arcs":[[717]],"properties":{"codigo":"41001201202031000101","sector":"410012012020310001","pcode":"CO41001","area_m2":52576}},{"type":"Polygon","arcs":[[-711,-715,718,719,720]],"properties":{"codigo":"41001100000000081103","sector":"410011000000000811","pcode":"CO41001","area_m2":196827}},{"type":"Polygon","arcs":[[-720,721,-229,-655,722]],"properties":{"codigo":"41001100000000081104","sector":"410011000000000811","pcode":"CO41001","area_m2":201327}},{"type":"Polygon","arcs":[[723,724,725,-652,-211,726]],"properties":{"codigo":"41001100000000081201","sector":"410011000000000812","pcode":"CO41001","area_m2":294206}},{"type":"Polygon","arcs":[[727]],"properties":{"codigo":"41001200312007000101","sector":"410012003120070001","pcode":"CO41001","area_m2":206810}},{"type":"Polygon","arcs":[[728,-649,-726]],"properties":{"codigo":"41001100000000081202","sector":"410011000000000812","pcode":"CO41001","area_m2":162028}},{"type":"MultiPolygon","arcs":[[[729,730]],[[731,732]]],"properties":{"codigo":"41001200602003000101","sector":"410012006020030001","pcode":"CO41001","area_m2":213903}},{"type":"Polygon","arcs":[[733]],"properties":{"codigo":"41001200318016000101","sector":"410012003180160001","pcode":"CO41001","area_m2":47874}},{"type":"Polygon","arcs":[[-716,-713,734,-724,735]],"properties":{"codigo":"41001100000000081203","sector":"410011000000000812","pcode":"CO41001","area_m2":342635}},{"type":"Polygon","arcs":[[736,737]],"properties":{"codigo":"41001200201001000101","sector":"410012002010010001","pcode":"CO41001","area_m2":325634}},{"type":"Polygon","arcs":[[-737,738,739,740]],"properties":{"codigo":"41001200201001000102","sector":"410012002010010001","pcode":"CO41001","area_m2":156756}},{"type":"Polygon","arcs":[[741,-740]],"properties":{"codigo":"41001200201001000103","sector":"410012002010010001","pcode":"CO41001","area_m2":194886}},{"type":"Polygon","arcs":[[742]],"properties":{"codigo":"41001201001002000101","sector":"410012010010020001","pcode":"CO41001","area_m2":49686}},{"type":"MultiPolygon","arcs":[[[743,-730,744,-732]],[[745]]],"properties":{"codigo":"41001200602003000102","sector":"410012006020030001","pcode":"CO41001","area_m2":246441}},{"type":"Polygon","arcs":[[746]],"properties":{"codigo":"41001200601004000101","sector":"410012006010040001","pcode":"CO41001","area_m2":200784}},{"type":"Polygon","arcs":[[747]],"properties":{"codigo":"41001201102011000101","sector":"410012011020110001","pcode":"CO41001","area_m2":79946}},{"type":"Polygon","arcs":[[748]],"properties":{"codigo":"41001200307029000101","sector":"410012003070290001","pcode":"CO41001","area_m2":17531}},{"type":"Polygon","arcs":[[749]],"properties":{"codigo":"41001200313012000101","sector":"410012003130120001","pcode":"CO41001","area_m2":105087}},{"type":"Polygon","arcs":[[750,751]],"properties":{"codigo":"41001200301017000102","sector":"410012003010170001","pcode":"CO41001","area_m2":86126}},{"type":"Polygon","arcs":[[752]],"properties":{"codigo":"41001200205013000101","sector":"410012002050130001","pcode":"CO41001","area_m2":2812295}},{"type":"Polygon","arcs":[[-752,753]],"properties":{"codigo":"41001200301017000101","sector":"410012003010170001","pcode":"CO41001","area_m2":132135}},{"type":"MultiPolygon","arcs":[[[754]],[[755]]],"properties":{"codigo":"41001201201018000101","sector":"410012012010180001","pcode":"CO41001","area_m2":22806}},{"type":"Polygon","arcs":[[756]],"properties":{"codigo":"41001200501022000101","sector":"410012005010220001","pcode":"CO41001","area_m2":260243}},{"type":"Polygon","arcs":[[757]],"properties":{"codigo":"41001200307024000101","sector":"410012003070240001","pcode":"CO41001","area_m2":46667}},{"type":"Polygon","arcs":[[758]],"properties":{"codigo":"41001201004033000101","sector":"410012010040330001","pcode":"CO41001","area_m2":31228}},{"type":"Polygon","arcs":[[759]],"properties":{"codigo":"41001200603034000101","sector":"410012006030340001","pcode":"CO41001","area_m2":213365}},{"type":"Polygon","arcs":[[760]],"properties":{"codigo":"41001200202036000101","sector":"410012002020360001","pcode":"CO41001","area_m2":153105}}]}},"arcs":[[[5010,2927],[-33,-39]],[[4977,2888],[-8,35]],[[4969,2923],[31,35]],[[5000,2958],[10,-31]],[[5038,2959],[-28,-32]],[[5000,2958],[18,21]],[[5018,2979],[13,13]],[[5031,2992],[7,-33]],[[5087,2936],[-17,-30]],[[5070,2906],[-14,67]],[[5056,2973],[16,12]],[[5072,2985],[15,-49]],[[5086,2996],[-14,-11]],[[5056,2973],[-18,-14]],[[5031,2992],[11,5]],[[5042,2997],[22,4]],[[5064,3001],[12,0],[8,4],[2,-9]],[[5070,2906],[-17,-23]],[[5053,2883],[-15,76]],[[4802,2719],[0,-20]],[[4802,2699],[-8,0],[0,-7],[-6,0],[0,-12]],[[4788,2680],[-30,-1]],[[4758,2679],[-1,37]],[[4757,2716],[33,3],[12,0]],[[5214,1657],[-23,-8],[-34,-4]],[[5157,1645],[-3,48]],[[5154,1693],[16,4]],[[5170,1697],[17,11],[15,7]],[[5202,1715],[2,-17],[6,2],[4,-43]],[[4805,2620],[-16,-2]],[[4789,2618],[-1,62]],[[4802,2699],[3,0]],[[4805,2699],[0,-79]],[[4789,2618],[-26,-1],[-1,25],[-4,7],[0,30]],[[5151,1758],[-4,-8],[1,-23],[-21,-1]],[[5127,1726],[-11,24]],[[5116,1750],[7,13],[-5,10],[12,26]],[[5130,1799],[21,-41]],[[5157,1645],[-1,-1]],[[5156,1644],[-11,-1],[-1,30]],[[5144,1673],[-1,30],[-15,-2],[-1,25]],[[5151,1758],[2,-4],[1,-61]],[[5053,2883],[-31,-42]],[[5022,2841],[-14,-18]],[[5008,2823],[-14,-21]],[[4994,2802],[-17,86]],[[5106,2975],[4,-21],[-23,-18]],[[5086,2996],[18,15]],[[5104,3011],[0,-30],[2,-6]],[[5156,1644],[0,-18]],[[5156,1626],[-10,-51]],[[5146,1575],[-5,4]],[[5141,1579],[-21,15]],[[5120,1594],[-15,49]],[[5105,1643],[13,16]],[[5118,1659],[11,-19],[0,31],[15,2]],[[5080,1725],[25,-82]],[[5120,1594],[-18,13],[-6,10],[-36,114]],[[5060,1731],[20,-6]],[[5080,1725],[2,20],[9,31]],[[5091,1776],[6,-19],[8,-6],[8,-27],[-7,-7],[3,-8],[-5,-5],[14,-45]],[[5069,2096],[-25,-21],[-23,-14]],[[5021,2061],[-6,30],[16,13],[-6,32],[-5,16]],[[5020,2152],[20,12],[18,13]],[[5058,2177],[11,-81]],[[5366,1213],[-9,-15],[-5,10],[-23,-41]],[[5329,1167],[-29,64]],[[5300,1231],[30,50]],[[5330,1281],[14,-37],[22,-31]],[[5019,2681],[11,-57]],[[5030,2624],[-7,-1],[-6,25],[-26,-18]],[[4991,2630],[-12,-8],[-15,4]],[[4964,2626],[4,22],[4,36]],[[4972,2684],[42,-5],[5,2]],[[5091,1776],[8,22]],[[5099,1798],[12,-26],[-4,-7],[9,-15]],[[5217,1623],[-22,-8],[-18,-3],[-2,-8],[-7,5],[1,7],[-13,10]],[[5214,1657],[3,-34]],[[5217,1623],[-9,-42]],[[5208,1581],[-4,-19],[7,-6],[-5,-26]],[[5206,1530],[0,1]],[[5206,1531],[-60,44]],[[5249,1599],[-31,-12],[-3,-11],[-7,5]],[[5217,1623],[13,5],[-3,34],[2,0]],[[5229,1662],[29,11]],[[5258,1673],[1,-21],[-12,-4],[2,-49]],[[5256,1594],[-17,-88]],[[5239,1506],[-13,10]],[[5226,1516],[-20,14]],[[5249,1599],[7,-5]],[[5278,1579],[-22,15]],[[5258,1673],[4,3]],[[5262,1676],[9,10]],[[5271,1686],[7,-15],[9,-3],[-4,-35],[-5,-54]],[[5012,2360],[-10,-3],[2,-19]],[[5004,2338],[-40,-10]],[[4964,2328],[-7,78]],[[4957,2406],[28,22]],[[4985,2428],[19,16]],[[5004,2444],[8,-84]],[[5128,2125],[5,-21],[-1,-8],[6,-28]],[[5138,2068],[3,-8],[-1,-14],[11,-48]],[[5151,1998],[-4,-3],[-32,4],[-1,-20]],[[5114,1979],[-12,2]],[[5102,1981],[0,20],[2,50],[-2,4],[3,59]],[[5105,2114],[3,46],[11,7]],[[5119,2167],[9,-42]],[[5102,1981],[-17,9],[-21,-7]],[[5064,1983],[-12,-1],[-4,69],[-23,-13]],[[5025,2038],[-4,23]],[[5069,2096],[36,18]],[[5119,2168],[0,-1]],[[5058,2177],[28,18],[20,33]],[[5106,2228],[13,-60]],[[5456,2217],[-46,-24]],[[5410,2193],[-6,29],[35,18],[16,3],[1,-26]],[[4737,2557],[-11,-3],[-21,10],[-23,-5]],[[4682,2559],[-2,41],[-8,0],[0,36],[5,45],[-10,5],[1,10],[-5,11]],[[4663,2707],[16,-6],[10,-9],[19,-43],[27,-71],[2,-21]],[[4938,2727],[-4,-121],[11,-2],[8,-12]],[[4953,2592],[-2,-5]],[[4951,2587],[-11,-19],[-12,-15],[-12,-9]],[[4916,2544],[-3,18],[5,167]],[[4918,2729],[20,-2]],[[4971,2703],[1,-19]],[[4964,2626],[-11,-34]],[[4938,2727],[15,-2],[7,3],[3,-27],[8,2]],[[4980,3578],[12,-1]],[[4992,3577],[0,-6]],[[4992,3571],[-4,0],[-2,-30],[6,0],[0,-16]],[[4992,3525],[-4,-35],[-5,-22]],[[4983,3468],[-22,3]],[[4961,3471],[1,22],[6,25],[2,18]],[[4970,3536],[-1,10]],[[4969,3546],[-2,34]],[[4967,3580],[13,-2]],[[4650,2550],[32,9]],[[4737,2557],[2,-25],[6,-25],[22,-80]],[[4767,2427],[-20,-18],[-26,-20],[4,-19],[-25,-18]],[[4700,2352],[-3,7],[-29,30],[-15,22],[-6,16],[-3,17],[0,36],[3,40],[3,30]],[[4951,3571],[0,-24],[18,-1]],[[4970,3536],[-12,2],[-2,-8],[5,-23],[-3,-15],[-7,12],[-21,-9],[-4,33]],[[4926,3528],[3,13],[2,32]],[[4931,3573],[20,-2]],[[4961,3471],[-47,4]],[[4914,3475],[-2,3],[-5,28],[9,6],[-2,9],[12,7]],[[4983,3468],[-6,-21]],[[4977,3447],[-5,-18]],[[4972,3429],[-50,2]],[[4922,3431],[-8,44]],[[4883,3159],[-8,-54],[24,-13],[-1,-12]],[[4898,3080],[-14,7]],[[4884,3087],[-43,21]],[[4841,3108],[6,66]],[[4847,3174],[0,4]],[[4847,3178],[36,-19]],[[4847,3178],[2,18]],[[4849,3196],[3,42]],[[4852,3238],[15,-8],[-1,-9],[16,-8],[8,-1],[-7,-53]],[[4847,3174],[-54,14],[-2,0]],[[4791,3188],[0,22],[5,20],[34,-9],[-2,-20],[21,-5]],[[4878,3312],[7,54]],[[4885,3366],[23,-13],[-7,-52],[-23,11]],[[4878,3312],[-17,10]],[[4861,3322],[7,52]],[[4868,3374],[17,-8]],[[4971,2703],[-2,21],[2,3],[23,75]],[[4994,2802],[25,-121]],[[4852,3238],[5,43]],[[4857,3281],[65,-31]],[[4922,3250],[-4,-22],[-12,-81]],[[4906,3147],[-23,12]],[[4898,3080],[-9,-77]],[[4889,3003],[-26,12]],[[4863,3015],[4,35],[7,-4],[5,5],[5,36]],[[4863,3015],[-29,9]],[[4834,3024],[7,84]],[[4889,3003],[-11,-80]],[[4878,2923],[-29,13],[-14,5],[1,13],[-7,3]],[[4829,2957],[3,41]],[[4832,2998],[2,24]],[[4834,3022],[0,2]],[[4878,2923],[-13,-101]],[[4865,2822],[-46,19]],[[4819,2841],[7,77]],[[4826,2918],[3,39]],[[4865,2822],[-17,-128]],[[4848,2694],[-16,7],[-14,-1]],[[4818,2700],[-2,102]],[[4816,2802],[3,39]],[[5078,2379],[5,-39]],[[5083,2340],[-37,-20],[5,-39]],[[5051,2281],[-26,-7]],[[5025,2274],[0,36],[-20,3],[-1,25]],[[5012,2360],[12,2],[-1,60],[11,-4],[39,20]],[[5073,2438],[5,-59]],[[4791,2757],[0,-18],[10,0],[1,-20]],[[4757,2716],[1,20]],[[4758,2736],[1,22]],[[4759,2758],[32,-1]],[[4758,2736],[-36,6],[1,24],[3,10],[21,1],[0,11],[10,1]],[[4757,2789],[2,-31]],[[4819,2621],[-14,-1]],[[4805,2699],[13,1]],[[4818,2700],[1,-79]],[[4826,2918],[-56,18]],[[4770,2936],[3,38],[14,-4],[2,21],[14,-4],[1,19],[28,-8]],[[4918,2729],[4,103],[9,53],[8,-3],[15,92]],[[4954,2974],[2,12]],[[4956,2986],[13,-63]],[[5112,3682],[-16,-10]],[[5096,3672],[-2,9],[-24,-15],[-4,-12]],[[5066,3654],[-9,5],[-1,-12],[-12,6]],[[5044,3653],[7,57],[14,47],[6,9],[22,25]],[[5093,3791],[-1,-25],[3,-23],[16,-48],[1,-13]],[[5025,3501],[-28,23],[-5,1]],[[4992,3571],[0,-7],[42,9]],[[5034,3573],[-9,-72]],[[5025,3501],[-10,-73]],[[5015,3428],[-38,19]],[[5015,3428],[-6,-41]],[[5009,3387],[-43,21]],[[4966,3408],[6,21]],[[5009,3387],[-6,-51]],[[5003,3336],[-51,25]],[[4952,3361],[14,47]],[[5104,3011],[2,31],[1,4]],[[5107,3046],[10,3],[26,11]],[[5143,3060],[24,11]],[[5167,3071],[6,-49],[-22,-15],[-11,-4]],[[5140,3003],[-20,-21],[-14,-7]],[[5118,3196],[-11,-144],[0,-6]],[[5064,3001],[9,66],[-19,11],[-1,-4]],[[5053,3074],[-10,5],[-6,-43],[-11,3],[-8,-60]],[[4956,2986],[20,126]],[[4976,3112],[6,46]],[[4982,3158],[39,-24],[18,8],[8,9],[6,1],[3,14],[30,27],[9,4],[23,-1]],[[5042,2997],[11,77]],[[4954,2974],[-33,161],[1,4]],[[4922,3139],[54,-27]],[[4922,3139],[-16,8]],[[4922,3250],[27,101]],[[4949,3351],[3,10]],[[5003,3336],[-14,-92],[-2,-18],[-5,-68]],[[5046,2636],[-16,-12]],[[5008,2823],[21,-98],[-1,-8],[14,-71],[4,-10]],[[5022,2841],[36,-187],[-3,-11],[-9,-7]],[[4793,2260],[-14,-14],[12,-24],[21,12],[8,-30],[11,-12]],[[4831,2192],[-8,-21],[-10,14],[-27,19],[-17,19],[-11,21],[-12,30],[-23,35]],[[4723,2309],[-20,37]],[[4703,2346],[26,-3],[16,8],[13,10],[11,14]],[[4769,2375],[7,-28],[6,-40],[11,-47]],[[5004,2444],[18,15]],[[5022,2459],[47,28]],[[5069,2487],[4,-49]],[[4915,2085],[-31,-21]],[[4884,2064],[-1,3],[-47,118]],[[4836,2185],[33,19],[19,9]],[[4888,2213],[10,-52],[17,-76]],[[4996,2020],[-18,-14]],[[4978,2006],[-28,-19]],[[4950,1987],[-9,46],[-44,-33]],[[4897,2000],[-13,64]],[[4915,2085],[60,38]],[[4975,2123],[4,-27],[7,-36],[10,-40]],[[4950,1987],[10,-54],[-37,-20],[12,-21]],[[4935,1892],[-9,6],[-18,34],[-4,14],[-8,52],[1,2]],[[5283,2528],[0,-32]],[[5283,2496],[-34,1]],[[5249,2497],[-9,1]],[[5240,2498],[1,13],[8,-1],[0,11],[-8,1],[1,7],[20,-2],[21,1]],[[5311,2531],[1,-12],[16,2],[1,-20]],[[5329,2501],[-6,-3],[-26,-1]],[[5297,2497],[-14,-1]],[[5283,2528],[-1,25],[27,1],[2,-23]],[[5249,2497],[-2,-61],[-11,1],[-12,-34],[-7,-3],[-9,-33]],[[5208,2367],[-26,-2],[-3,6],[-8,-18],[-4,5]],[[5167,2358],[1,9],[-5,47],[-32,-8]],[[5131,2406],[1,7]],[[5132,2413],[27,16],[48,65],[11,6],[22,-2]],[[5297,2497],[2,-121]],[[5299,2376],[-24,0]],[[5275,2376],[-3,11],[-7,7],[-15,-8],[-35,-16],[-6,-5]],[[5209,2365],[-1,2]],[[5388,2486],[-15,0]],[[5373,2486],[-10,-1]],[[5363,2485],[-10,-1],[-32,-10],[2,-65],[-16,-2],[1,-22]],[[5308,2385],[0,-9],[-9,0]],[[5329,2501],[35,3]],[[5364,2504],[11,0]],[[5375,2504],[13,-18]],[[5363,2485],[-2,-17],[0,-25],[-7,-28],[-7,-9],[-3,-19],[-36,-2]],[[5209,2365],[-1,-5],[-26,-35],[-7,-6]],[[5175,2319],[-3,-2]],[[5172,2317],[-6,33],[1,8]],[[5131,2406],[4,-56]],[[5135,2350],[-16,-3],[0,-19],[-32,-9]],[[5087,2319],[-4,21]],[[5078,2379],[21,10],[2,3],[-4,31],[30,15],[2,-2],[3,-23]],[[5172,2317],[-13,-6]],[[5159,2311],[-1,40],[-23,-1]],[[5159,2311],[-23,-18]],[[5136,2293],[-37,-29]],[[5099,2264],[-8,39]],[[5091,2303],[-4,16]],[[5152,2218],[4,-21],[-37,-29]],[[5106,2228],[-7,36]],[[5136,2293],[16,-75]],[[5188,2300],[0,-42],[-11,1],[5,-20]],[[5182,2239],[-7,-5]],[[5175,2234],[-23,-16]],[[5175,2319],[4,-19],[9,0]],[[5285,2260],[1,-48],[-7,6],[-14,3],[-2,-13]],[[5263,2208],[-9,4]],[[5254,2212],[-42,32]],[[5212,2244],[-23,0]],[[5189,2244],[-7,-5]],[[5188,2300],[22,1],[27,-29],[9,-8]],[[5246,2264],[15,-8],[24,4]],[[5359,2303],[4,-54],[-2,-36],[6,-4],[-1,-10],[-7,-6],[-2,-11]],[[5357,2182],[-4,2]],[[5353,2184],[-90,24]],[[5285,2260],[16,5],[19,10],[12,21],[16,10],[11,-3]],[[5368,2293],[0,-8],[15,-10],[25,5]],[[5408,2280],[3,-10],[15,0]],[[5426,2270],[13,1],[14,20],[10,1],[-1,-26],[12,3],[7,-4],[9,4],[22,1],[-1,-40]],[[5511,2230],[-16,-4],[-22,0],[-17,-9]],[[5410,2193],[-27,-15],[-26,4]],[[5359,2303],[9,-10]],[[5366,2434],[-5,-15],[-1,-12],[2,-34],[-3,-70]],[[5246,2264],[4,38],[1,44],[8,15],[11,-6],[5,21]],[[5373,2486],[-3,-41],[-4,-11]],[[5645,2293],[-40,-21],[-39,-22],[-40,-15]],[[5526,2235],[-15,-5]],[[5426,2270],[10,24],[3,22],[7,22],[11,16],[0,37],[56,-3],[0,21]],[[5513,2409],[39,-5],[0,21],[17,-2],[1,21],[9,-1]],[[5579,2443],[11,-40],[26,30],[7,4]],[[5623,2437],[14,7],[-2,25],[27,15]],[[5662,2484],[3,-35],[9,-137],[-29,-19]],[[5579,2443],[-11,38]],[[5568,2481],[14,7]],[[5582,2488],[13,11]],[[5595,2499],[15,18]],[[5610,2517],[11,-68],[2,-12]],[[5500,2478],[15,-2]],[[5515,2476],[-2,-67]],[[5408,2280],[4,3],[6,27],[14,-5],[2,24],[-8,3]],[[5426,2332],[5,47],[-53,23],[-2,-29]],[[5376,2373],[2,-13],[-4,-73],[-6,6]],[[5366,2434],[12,14],[10,6],[5,-7],[14,12],[9,-2],[5,-11],[20,-17],[12,1],[0,54]],[[5453,2484],[24,-6],[23,0]],[[5426,2332],[-34,14],[2,19],[-18,8]],[[5515,2476],[3,0]],[[5518,2476],[14,0]],[[5532,2476],[36,5]],[[5610,2517],[28,35]],[[5638,2552],[15,3]],[[5653,2555],[5,-32]],[[5658,2523],[4,-39]],[[5563,2612],[6,-18]],[[5569,2594],[-17,-1]],[[5552,2593],[-9,0],[-6,-7]],[[5537,2586],[-14,45],[1,47]],[[5524,2678],[1,10],[-7,18]],[[5518,2706],[16,12]],[[5534,2718],[15,-52],[0,-4],[14,-50]],[[5537,2586],[1,-2]],[[5538,2584],[-2,-1]],[[5536,2583],[-15,2]],[[5521,2585],[-7,0],[-12,-14]],[[5502,2571],[1,8]],[[5503,2579],[0,18]],[[5503,2597],[3,83],[18,-2]],[[5503,2579],[-6,0],[-1,-18],[-22,3],[1,37],[28,-4]],[[5501,2520],[-1,-42]],[[5453,2484],[-32,1]],[[5421,2485],[1,70]],[[5422,2555],[21,0],[1,-11],[13,0],[6,-10],[5,-17],[12,5],[21,-2]],[[5099,1798],[10,28],[1,19]],[[5110,1845],[3,-11],[17,-35]],[[5521,2585],[-3,-109]],[[5501,2520],[1,51]],[[5536,2583],[-4,-107]],[[5538,2584],[30,-103]],[[5552,2593],[30,-105]],[[5569,2594],[13,-45],[13,-50]],[[5563,2612],[10,10],[17,11]],[[5590,2633],[20,-116]],[[5534,2718],[6,4],[3,-17],[5,3]],[[5548,2708],[27,17]],[[5575,2725],[15,-92]],[[5551,2777],[3,-22],[-13,-8],[7,-39]],[[5518,2706],[-8,41],[0,13]],[[5510,2760],[18,5],[0,15],[13,-7],[10,4]],[[5551,2777],[5,4],[-11,18],[-5,24],[1,11]],[[5541,2834],[24,-9],[3,-4]],[[5568,2821],[-1,-10],[5,-12],[1,-20],[-2,-22],[4,-32]],[[5510,2760],[1,13],[-11,-1]],[[5500,2772],[-1,36],[18,2],[2,15],[11,-5],[0,21],[11,-7]],[[5421,2485],[-33,1]],[[5375,2504],[5,48],[2,9],[9,14],[13,-32],[1,13],[17,-1]],[[5575,2725],[35,-3]],[[5610,2722],[28,-170]],[[5629,2694],[8,-15],[10,-34],[7,-4],[45,27],[5,-28]],[[5704,2640],[11,-72]],[[5715,2568],[-11,5],[-15,-6],[-36,-12]],[[5610,2722],[9,-9],[10,-19]],[[5786,2638],[0,-29],[7,-23]],[[5793,2586],[-13,-11],[-7,2],[-9,-5],[-15,0],[-24,4],[-10,-8]],[[5704,2640],[9,5],[3,-6],[15,5],[10,9],[9,-2],[4,-16],[17,1],[1,-6],[14,8]],[[5629,2694],[12,24],[-3,8],[4,8]],[[5642,2734],[15,3],[14,-18],[11,12],[5,-6],[7,10],[10,1],[21,-21],[7,-4],[5,-11],[6,11],[18,-3],[18,-44],[7,-26]],[[5292,1729],[3,-17],[1,-32],[-14,15],[-11,-9]],[[5262,1676],[-7,73]],[[5255,1749],[10,0],[1,-16],[10,-6],[-1,29],[17,-27]],[[5215,1746],[2,-44],[7,2],[5,-42]],[[5202,1715],[1,2],[-3,82],[13,1]],[[5213,1800],[2,-54]],[[5215,1746],[29,3]],[[5244,1749],[11,0]],[[5396,1578],[-11,-19],[-18,-12]],[[5367,1547],[-14,-10]],[[5353,1537],[-5,30]],[[5348,1567],[14,10],[1,-4],[13,9],[-5,23]],[[5371,1605],[7,11],[18,-38]],[[5396,1578],[11,-25],[5,-22],[10,-56],[-6,-18],[-14,-10],[-11,61],[-15,-10],[-9,49]],[[5278,1579],[14,-9]],[[5292,1570],[-9,-48],[22,-24],[-23,-37]],[[5282,1461],[-25,32],[-18,13]],[[5304,1592],[19,-20],[21,15],[4,-20]],[[5353,1537],[21,-107],[-13,-9],[-9,-12]],[[5352,1409],[-27,-39]],[[5325,1370],[-12,-18]],[[5313,1352],[-21,89],[-10,20]],[[5292,1570],[3,20],[9,2]],[[5352,1409],[20,-66],[0,-4],[-19,-21],[17,-58],[-13,-11],[-7,26],[-25,95]],[[5102,1230],[-2,11],[-36,93],[-21,50],[-9,33],[-6,63],[-15,139],[-1,28],[3,138]],[[5015,1785],[17,-12],[23,-25],[5,-17]],[[5141,1579],[-16,-133],[-1,-2]],[[5124,1444],[0,-2],[-13,-108],[-2,-33],[-7,-71]],[[5206,1531],[-20,-100],[-20,14],[-5,-24]],[[5161,1421],[-27,20],[-10,3]],[[5226,1516],[-25,-124]],[[5201,1392],[-40,29]],[[5313,1352],[14,-63],[3,-8]],[[5300,1231],[-26,57],[-5,-10],[-3,-21],[-14,9],[-11,1],[-8,-8],[-4,3],[15,91],[-7,13],[-36,26]],[[5201,1392],[-24,-119],[-20,14],[-3,-12],[-14,39],[21,107]],[[5329,1167],[9,-21],[-19,-32],[-38,11],[-18,9],[-99,13],[-41,4]],[[5123,1151],[-16,68],[-5,11]],[[5186,2167],[-58,-42]],[[5175,2234],[11,-67]],[[5205,2090],[-18,-15],[-21,-7],[-28,0]],[[5186,2167],[4,-23],[11,-27],[4,-27]],[[5208,2074],[5,-22]],[[5213,2052],[-14,-16]],[[5199,2036],[-22,-18],[-4,-10],[-20,-18]],[[5153,1990],[-2,8]],[[5205,2090],[3,-16]],[[5208,2117],[7,-39],[-7,-4]],[[5189,2244],[5,-36],[8,0],[1,-17],[-6,-4],[11,-70]],[[5212,2244],[0,-21],[6,-5],[-5,-25],[1,-2],[1,-41],[3,-29]],[[5218,2121],[-10,-4]],[[5254,2212],[-4,-20],[-5,4],[5,-25],[5,-38],[-37,-12]],[[5153,1990],[5,-28],[9,-36]],[[5167,1926],[4,-19]],[[5171,1907],[-5,-1],[-54,6]],[[5112,1912],[2,67]],[[5210,1958],[-8,-30]],[[5202,1928],[-5,3],[-11,-8],[-19,3]],[[5199,2036],[4,-9],[3,-15],[2,-48],[2,-6]],[[5231,2065],[4,-33]],[[5235,2032],[-1,-7],[-7,6],[-3,-12],[-1,15],[-5,-4],[1,-18],[-3,-21]],[[5216,1991],[-6,-33]],[[5213,2052],[5,12],[13,1]],[[5352,2174],[-13,-16],[-3,-17],[-9,-15]],[[5327,2126],[-5,9],[-10,-18],[-9,-8],[-2,-13],[4,-38]],[[5305,2058],[-7,-2]],[[5298,2056],[-37,-16]],[[5261,2040],[-26,-8]],[[5231,2065],[9,5],[20,23],[8,-5],[22,19],[6,17],[6,4],[10,15],[10,23],[7,-1],[9,6],[14,3]],[[5353,2184],[-1,-10]],[[5327,2126],[-14,-20],[6,0],[4,-41]],[[5323,2065],[-18,-7]],[[5273,1987],[-1,10],[-7,-8],[-4,51]],[[5298,2056],[3,-23],[-14,-4],[5,-22],[-6,-16],[-13,-4]],[[5273,1987],[-2,-3],[-10,-31]],[[5261,1953],[-24,23],[-2,-1],[-19,16]],[[5352,1944],[3,-4]],[[5355,1940],[-8,-32],[4,-8]],[[5351,1900],[-31,-58]],[[5320,1842],[-7,17],[-8,8],[-4,14],[-7,6],[-6,22]],[[5288,1909],[13,2],[5,5],[18,6],[5,18],[10,5],[13,-1]],[[5390,2032],[12,-28]],[[5402,2004],[-14,-21]],[[5388,1983],[-14,12]],[[5374,1995],[-16,-13],[-38,-10]],[[5320,1972],[4,26],[5,15]],[[5329,2013],[8,5],[3,-12],[18,19],[10,1],[5,8],[7,-12],[10,10]],[[5361,1868],[-10,19],[4,7],[-4,6]],[[5355,1940],[7,-6],[12,10]],[[5374,1944],[3,-44],[-16,-32]],[[5361,1868],[9,-17],[6,12],[10,-19]],[[5386,1844],[-9,-9],[-5,-18],[2,-16],[-7,-11]],[[5367,1790],[-5,6],[-6,18],[-6,8],[-26,14],[-4,6]],[[5424,2060],[12,-29],[-28,-42],[-6,15]],[[5390,2032],[18,15],[13,20]],[[5421,2067],[3,-7]],[[5329,2013],[-4,3],[5,8],[2,25]],[[5332,2049],[9,4],[4,-14],[17,18],[3,-8],[10,11],[2,-10],[10,7],[16,2],[2,-6],[13,21],[3,-7]],[[5526,2235],[3,-33],[-20,-7],[-1,-35],[-14,-12],[-5,-14],[-10,-11],[-21,-6],[-7,-7],[-6,-14],[0,-28],[5,-16]],[[5450,2052],[-10,-15],[-12,29],[-4,-6]],[[5332,2049],[-1,7],[-7,-4],[-1,13]],[[5633,2165],[-11,-16],[-7,-5],[-14,1],[-7,-16],[-6,-5],[-6,-19],[2,-20],[-12,-10],[-9,-16],[-8,-3],[-9,-21],[-25,-38],[-9,-2],[-19,-15],[-14,4],[-13,-10]],[[5466,1974],[2,6],[-1,52],[-14,25],[-3,-5]],[[5645,2293],[8,-46],[-1,-14],[-12,-6],[-5,-33],[-3,-11],[1,-18]],[[3957,6500],[5,34],[-1,25],[6,9],[5,-8],[8,-3],[10,3],[8,-2],[1,7],[14,-15],[-1,-4],[11,-13],[-2,-20],[-4,-15],[-23,15],[-4,-3],[-3,-19],[-6,14],[-10,-8],[-6,-16],[-8,19]],[[5529,5026],[22,-14],[-9,-41],[17,-7],[0,-11],[-3,-38],[-7,-3],[-18,7],[-4,5],[-19,9],[-2,-11],[-13,8],[3,18],[15,-5],[18,84],[0,-1]],[[5482,4870],[2,-3],[8,34],[10,0],[12,-15],[-12,-52],[-4,6],[-9,-37],[-7,7],[-3,-10],[-6,8],[6,22],[4,-4],[6,29],[-25,41],[-1,7],[19,-33]],[[3347,6569],[4,-10],[5,-23],[14,-22],[8,-11],[-2,-17],[3,-6],[12,-7],[6,-13],[5,-27],[8,-28],[10,-19],[1,-21],[-7,-9],[-15,-8],[-7,-8],[-10,1],[5,-20],[-7,-43],[11,-1],[-3,-8],[-8,2],[3,-38],[-5,3],[-5,43],[-5,5],[0,44],[-2,16],[-8,-5],[-9,9],[-13,-4],[-2,30],[4,-1],[2,9],[5,-3],[-3,14],[4,13],[-11,21],[-14,54],[3,26],[9,49],[12,15],[2,-2]],[[9542,2251],[-11,-3],[-1,31],[4,8],[16,3],[1,-14],[-9,-25]],[[9504,2306],[-13,13],[4,16],[1,18],[8,-8],[0,-39]],[[9523,2274],[-5,2],[2,9],[3,-11]],[[5261,1953],[15,-14],[-7,-14],[2,-2]],[[5271,1923],[-4,-7]],[[5267,1916],[-24,20],[-2,-9],[-31,31]],[[4650,2550],[-2,45],[0,65],[6,51]],[[4654,2711],[9,-4]],[[5267,1916],[-13,-15],[-8,3],[-5,13],[-8,4],[-3,-6],[-10,-4],[-20,10]],[[5200,1921],[2,7]],[[4703,2346],[-3,6]],[[4767,2427],[9,-42]],[[4776,2385],[-7,-10]],[[5110,1845],[0,22]],[[5110,1867],[16,-13],[20,-12],[27,-13]],[[5173,1829],[-2,-12],[-5,3],[4,-123]],[[4788,2822],[3,-26],[0,-39]],[[4757,2789],[-2,41],[-10,0],[2,20],[7,0],[0,14]],[[4754,2864],[13,-22],[2,-15],[13,3],[6,-8]],[[4907,2365],[-9,44],[-15,82]],[[4883,2491],[27,2],[16,3],[23,14]],[[4949,2510],[8,-104]],[[4957,2406],[-50,-41]],[[5275,1776],[-25,25],[-17,9]],[[5233,1810],[-4,2]],[[5229,1812],[4,58]],[[5233,1870],[28,-10],[3,-30],[29,-15],[8,-12]],[[5301,1803],[-9,-9],[-7,-15],[-7,7],[-3,-10]],[[5019,2539],[2,-23],[1,-57]],[[5004,2444],[-10,59],[-4,40]],[[4990,2543],[24,-6],[5,2]],[[4949,2510],[14,15]],[[4963,2525],[4,-23],[7,-57],[6,5],[5,-22]],[[4963,2525],[4,4]],[[4967,2529],[11,10],[12,4]],[[5025,2274],[-27,-11],[1,-25],[-1,-39]],[[4998,2199],[-22,36]],[[4976,2235],[-8,45],[-4,48]],[[5019,2539],[7,9],[18,42]],[[5044,2590],[5,12]],[[5049,2602],[13,-16],[3,-15],[4,-84]],[[5054,2258],[-3,23]],[[5091,2303],[-37,-45]],[[5019,2181],[-9,4],[-12,14]],[[5054,2258],[-9,-17],[-6,-36],[-4,-12],[-9,-11],[-7,-1]],[[4976,2235],[-20,33]],[[4956,2268],[-9,13],[-13,10],[-12,1]],[[4922,2292],[-15,73]],[[4922,2292],[-27,1],[-15,-10],[-27,-34]],[[4853,2249],[-17,53]],[[4836,2302],[34,30]],[[4870,2332],[37,33]],[[4793,2260],[43,42]],[[4853,2249],[-12,-26],[-10,-31]],[[4922,2292],[10,-56],[-44,-23]],[[4836,2185],[-5,7]],[[5008,2028],[-12,-8]],[[4975,2123],[-11,77],[-9,65],[1,3]],[[5019,2181],[-2,-13],[3,-16]],[[5025,2038],[-17,-10]],[[4962,1858],[-5,23],[-22,11]],[[4978,2006],[18,-92],[7,-36]],[[5003,1878],[-30,-20],[-11,0]],[[5064,1983],[3,-76],[-2,-15]],[[5065,1892],[-32,3]],[[5033,1895],[-25,133]],[[5033,1895],[-30,-17]],[[5110,1867],[-20,12],[-25,13]],[[5112,1912],[-2,-45]],[[5217,1817],[-4,-17]],[[5173,1829],[11,-4]],[[5184,1825],[33,-8]],[[5320,1842],[-7,-19],[-12,-20]],[[5233,1870],[-32,10],[-11,7]],[[5190,1887],[10,34]],[[5271,1923],[17,-14]],[[5367,1790],[-12,-7],[-14,-26],[-10,-23],[-14,-21],[-17,-3]],[[5300,1710],[1,14],[-4,21]],[[5297,1745],[-5,10],[-17,21]],[[5229,1812],[-12,5]],[[5184,1825],[6,62]],[[5271,1923],[11,13],[10,5],[11,15],[9,4]],[[5312,1960],[7,5],[1,7]],[[5374,1995],[0,-26],[-17,-12],[-5,-13]],[[5409,1913],[1,-22],[-5,-27],[-13,-9],[-6,-11]],[[5374,1944],[8,12],[4,-22],[12,-18],[11,-3]],[[4931,3573],[1,18],[-7,1],[4,9],[-3,23],[-4,-6],[-1,11],[7,2],[2,8],[27,2]],[[4957,3641],[-10,-34],[0,-19],[4,-17]],[[4788,2822],[8,-21],[20,1]],[[4992,3593],[0,-16]],[[4980,3578],[1,33],[15,48],[-7,10],[1,15],[-15,31],[15,48]],[[4990,3763],[13,27],[21,68]],[[5024,3858],[15,-37],[6,-23],[11,-12],[-14,-46],[-5,-11],[-5,3],[-12,-3],[2,-13],[-3,-16],[-8,-4],[-2,-26],[-18,-66],[1,-11]],[[4957,3641],[-2,15],[11,14]],[[4966,3670],[12,-22],[-5,-21],[-10,-12],[-5,-15],[9,-20]],[[4966,3670],[-9,11],[-17,-3],[-13,7],[-6,7],[-2,25]],[[4919,3717],[3,17],[6,9],[15,11],[9,13],[14,5],[24,-9]],[[4949,3351],[-14,3],[-2,-12],[-5,2],[-5,-9],[3,19],[-8,0],[-21,26],[-11,-4],[-6,31],[3,23]],[[4883,3430],[5,0],[0,13],[21,0],[4,-11],[9,-1]],[[4861,3322],[-4,-41]],[[4791,3188],[-13,2]],[[4778,3190],[0,32],[-2,80],[0,14]],[[4776,3316],[27,-5],[7,34],[48,-21],[3,-2]],[[4874,3434],[-7,-56],[1,-4]],[[4776,3316],[2,39],[-1,46],[5,72]],[[4782,3473],[29,-9],[35,-18],[2,10],[14,-7],[-1,-9],[13,-6]],[[4737,2557],[6,-2],[11,-14],[21,-12],[46,-23]],[[4821,2506],[8,-4]],[[4829,2502],[5,-10],[6,-30]],[[4840,2462],[-22,-16],[-17,-18],[-25,-43]],[[4883,2491],[-24,-15],[-19,-14]],[[4829,2502],[12,5],[34,5],[7,19],[9,5],[12,2],[13,6]],[[4951,2587],[7,-4],[5,-29],[-2,-1],[6,-24]],[[4874,3434],[9,-4]],[[4821,2506],[-2,115]],[[4848,2694],[-23,-175],[4,-17]],[[4654,2711],[9,83],[11,64]],[[4674,2858],[18,19],[28,36],[25,24],[6,14],[4,-10]],[[4755,2941],[-4,-50],[3,-27]],[[4755,2941],[15,-5]],[[4674,2858],[4,27],[10,36],[14,45],[13,28],[13,20],[16,18],[9,14]],[[4753,3046],[28,-26],[15,11],[7,17],[23,-12],[8,-14]],[[4753,3046],[8,16],[7,21],[11,58],[-1,49]],[[5034,3575],[3,24]],[[5037,3599],[7,54]],[[5066,3654],[-2,-6],[11,-17],[-10,-39],[-7,7],[-8,-32],[-6,6],[-10,2]],[[5037,3599],[-26,13],[-6,-1],[0,-8],[-13,-10]],[[5024,3858],[5,23],[10,13],[7,0],[10,-7],[13,-16],[2,-10],[8,-13],[8,-35],[6,-22]],[[5034,3575],[0,-2]],[[5096,3572],[-5,-8],[0,-25],[-4,-11],[-8,-10],[-4,-10],[2,-8],[42,-50]],[[5119,3450],[16,-10],[4,-7],[-9,-23],[5,-8],[3,-65],[-1,-9],[-9,-14]],[[5128,3314],[-3,-7],[2,-21],[-9,-90]],[[5096,3672],[-14,-11],[-2,-12],[8,-5],[12,5],[12,-17],[-11,-51],[-5,-9]],[[5030,2624],[19,-22]],[[5044,2590],[-5,6],[-4,-13],[-13,-26],[-14,-3],[-7,5],[-8,46],[-2,25]],[[5169,3186],[-24,4],[-3,-31],[-12,0],[-1,-32],[-7,1],[-2,-34],[22,-19],[1,-15]],[[5128,3314],[10,-1],[4,-30],[9,-7],[-2,-36],[23,-11],[-3,-43]],[[5241,2965],[-8,-8],[-11,-18],[-4,-15],[-2,-21],[-4,-16],[-6,-12],[-16,-16],[-9,-4],[-13,-13],[-3,-8],[-6,-44],[-13,-19],[-15,-7],[-26,4],[-11,-9],[-5,-15],[-2,-40],[-6,-33],[-26,-54],[-6,-15]],[[5140,3003],[3,-20],[20,-28],[7,-14],[-7,-6],[2,-6],[-7,-12],[8,-13],[4,2],[19,36],[13,19],[25,21],[14,-17]],[[4776,2385],[3,-12],[30,25],[2,-11],[25,-85]],[[4840,2462],[30,-130]],[[4962,1858],[-7,2],[-17,11],[2,-35],[5,-28],[-3,-28],[1,-64],[2,-34],[-7,-20],[-20,-40],[-4,-34],[-1,-17],[3,-31],[5,-19],[-13,-9]],[[4908,1512],[-4,13],[-11,20],[-11,10],[-7,-3],[-11,-15],[-9,2],[-1,10],[-18,63],[-3,44],[7,48],[1,42],[-7,25],[7,52],[2,33],[-4,16],[1,19],[-5,27],[-9,11],[-39,31],[-9,25],[-7,7],[-12,3],[-19,-5],[-6,1],[-10,14],[-5,10],[-4,22],[-1,38],[9,38],[0,25],[-14,25],[-11,30],[-1,13],[3,20],[13,30],[5,20],[5,33]],[[4911,1467],[11,-25],[4,-22],[23,-28],[9,-23],[5,-37]],[[4963,1332],[-4,-34],[-9,-36],[-11,-35],[-10,-6],[-10,-18],[-7,6],[-13,24],[-18,41],[-13,7],[-18,4],[-9,7],[0,11],[5,24],[8,22],[6,8],[-2,14],[5,12],[18,17],[16,7],[11,23],[3,37]],[[5302,2577],[11,-11],[-2,-35]],[[5241,2965],[11,7]],[[5252,2972],[-5,-161],[-18,-15],[0,-9],[8,-3],[-2,-10],[11,0],[-2,-87],[-2,-87],[20,4],[8,-15],[11,4],[8,-4],[2,-14],[11,2]],[[5365,2579],[5,-26],[-1,-28],[-5,-21]],[[5302,2577],[34,8],[7,-8],[5,-16],[11,8],[6,10]],[[5707,2381],[-10,46],[4,4],[-11,36],[-6,3],[-5,16],[-1,41],[-20,-4]],[[5793,2586],[5,21]],[[5798,2607],[5,-24],[-4,-22],[-17,-19],[-6,-13],[-8,0],[-4,-12],[-15,4],[-24,-39],[4,-29],[-15,-12],[5,-24],[15,14],[5,-24],[-32,-26]],[[5707,2381],[20,-94],[-37,-28],[5,-29],[-8,2],[-11,-12],[-16,-36],[-17,-5],[-10,-14]],[[5500,2772],[-41,-1]],[[5459,2771],[-1,11],[-36,8]],[[5422,2790],[-53,10],[-2,-3],[0,-51],[11,-17],[0,-72],[-5,-9],[0,-17]],[[5373,2631],[-21,0],[1,27],[-27,-1],[-1,19],[34,1],[-1,42],[-8,0],[0,-9],[-51,-2],[-1,13],[-2,67],[19,0],[0,-8],[44,0],[0,42],[-11,-3],[-11,-7],[1,47],[9,0],[17,11],[4,-3],[0,33],[11,-11],[10,-17],[4,7],[16,-2],[14,-9],[23,-9],[12,7],[9,-11],[6,-25],[7,-16],[3,3],[0,29],[11,6],[5,-5],[8,2],[5,15],[-4,14],[2,15]],[[5510,2893],[3,4],[1,20],[16,9],[3,8],[12,11],[8,1],[9,-9],[3,-24],[5,-6],[-4,-32],[4,-33],[-2,-21]],[[5015,1785],[0,13],[-3,30],[-9,50]],[[5644,2809],[-10,-1],[4,-31],[3,-10],[1,-33]],[[5510,2893],[-10,-6],[-5,3],[-9,23]],[[5486,2913],[18,3],[31,52],[12,10],[15,5],[6,-5],[7,-19],[2,-41],[-4,-34],[7,-21],[8,-14],[10,-4],[14,11],[4,15],[8,3],[6,-10],[10,-27],[4,-28]],[[5427,1953],[-11,-7],[-8,-17],[1,-16]],[[5388,1983],[-1,-16],[14,-5],[6,11],[8,6],[12,-26]],[[5373,2631],[0,-14],[-9,-29],[1,-9]],[[5252,2972],[32,11],[12,-4],[15,2],[18,-13],[10,4],[17,17],[9,-4],[24,-29],[13,-1],[14,5],[8,-4],[13,-19],[10,-2],[12,-10],[18,-9],[9,-3]],[[5422,2790],[0,-150],[19,0],[0,-13],[15,-2],[0,146],[3,0]],[[5438,1426],[5,-38],[6,-18],[9,-40],[2,-11]],[[5460,1319],[-8,19],[-33,-40],[-13,-16],[-9,5]],[[5397,1287],[-11,12],[-8,35],[-1,14],[4,34],[5,6],[-3,8],[16,19],[7,-20],[7,32],[2,-7],[8,10],[15,-4]],[[5644,2809],[4,-21],[12,-11],[18,-6],[12,-11],[9,-5],[9,3],[10,12],[10,20],[7,0],[10,-14],[11,-31],[6,-23],[9,-17],[7,0],[3,-13],[12,-22],[1,-8],[-4,-34],[8,-21]],[[5297,1745],[-5,-16]],[[5244,1749],[-2,45],[-10,3],[1,13]],[[5308,1639],[-4,-6],[0,-41]],[[5300,1710],[1,-40],[7,-31]],[[5308,1639],[4,-4],[7,4],[19,18],[6,12]],[[5344,1669],[10,-23],[6,-9],[11,-32]],[[5397,1287],[-4,-52],[-5,-35],[-7,-14]],[[5381,1186],[-15,27]],[[5344,1669],[15,4],[8,0],[7,-22],[33,-68],[14,-34],[15,-51],[-1,-24],[3,-48]],[[5390,1166],[-9,20]],[[5460,1319],[15,-24],[2,-10],[-23,-32],[2,-14],[14,-14],[-3,-20],[-11,-12],[-12,-5],[0,-19],[5,-31],[4,-49],[-4,-17],[-8,-14],[76,5],[7,-6],[14,8],[10,-5],[13,3],[1,-43],[20,0],[10,2],[6,6],[5,-9],[0,-11],[6,-18],[5,-2],[-4,-25],[-7,0],[-9,-8],[-5,-18],[-6,-1],[0,-23],[6,-27],[-17,-17],[-38,-33],[-3,47],[-6,11],[-7,-9],[-16,-14],[-4,10],[-11,-12],[-27,65],[-25,56],[-4,14],[-21,-2],[-7,28],[-16,0],[-7,-14],[-23,-4],[-9,21],[5,0],[0,17],[67,6],[-15,66],[-15,44]],[[5123,1151],[19,-79],[28,-115],[4,-34],[-2,-48]],[[5172,875],[-18,4],[-8,-30],[-6,-2],[-5,10],[-5,32],[-9,-1],[0,-17],[-8,-12],[-1,20],[-14,3],[-7,8],[-15,8],[-7,-5],[-6,8],[-6,-7],[-1,-15],[-12,12],[-8,-9],[0,-19],[-7,-11],[-7,7],[-2,26],[-3,13],[-9,19],[-2,17],[21,46],[10,14],[-4,48],[5,68],[6,47],[-36,31],[-11,14],[-9,24],[-4,33],[1,73],[-5,4],[-17,-4]],[[4911,1467],[-5,23],[2,22]],[[5390,1166],[-2,-7],[-18,-24],[-7,-22],[-5,-7],[-5,7],[-24,-32],[-16,-17],[4,-41],[-2,-11],[-15,-6],[-17,5],[-101,-161],[-1,20],[-9,5]],[[5171,1907],[8,-41],[-6,-37]],[[5312,1960],[-7,35],[4,27],[-4,36]],[[5466,1974],[-7,0],[-5,-10],[-12,-10],[-15,-1]],[[4782,3473],[7,52],[10,32],[12,29],[12,35],[1,8],[12,32],[12,35],[15,26],[17,19],[12,6],[10,-2],[9,-18],[8,-10]],[[5254,3262],[-1,7],[-21,-14],[-2,8],[-15,-7],[-2,21]],[[5213,3277],[-2,19],[-7,15],[25,9],[1,6]],[[5230,3326],[9,-6],[7,7]],[[5246,3327],[22,-19],[12,-17],[-26,-29]],[[5254,3186],[13,10],[-2,15],[-4,-2],[0,17],[-7,36]],[[5246,3327],[47,40],[8,2],[10,18]],[[5311,3387],[2,-20],[3,-51],[-5,-43],[-8,9],[-14,-5],[-5,-14],[5,-28],[-2,-46],[-33,-3]],[[37,7043],[6,8],[2,-8],[-5,-13],[-3,-16],[6,3],[-1,-12],[-36,-18],[-4,14],[-2,20],[5,5],[-5,20],[12,8],[2,-13],[15,4],[5,9],[3,-11]],[[5254,3186],[-18,-1],[-1,-35]],[[5235,3150],[-27,-13],[-24,-8]],[[5184,3129],[4,58],[1,43],[2,21],[12,5],[10,21]],[[5235,3150],[0,-55],[-35,-10],[-33,-14]],[[5169,3186],[-5,-63],[20,6]],[[5216,3551],[-3,-9],[-11,-15],[-5,17],[-2,-1]],[[5195,3543],[-11,0],[-11,-8],[-10,-15],[-5,-15],[-8,-7],[-4,14],[-7,5],[-7,-7]],[[5132,3510],[2,9],[14,35],[9,1],[4,19],[8,27],[-18,19],[-7,-32],[-3,-26],[-8,3],[-4,-17],[-14,-3],[-5,5],[0,15],[-7,8],[-7,-1]],[[5112,3682],[4,-10],[7,-1],[8,-10],[11,-2],[4,14],[13,-17],[6,-4],[1,-18],[9,-8],[16,-29],[2,17],[6,20],[-2,16],[-11,8],[1,32],[11,-25],[-2,-10],[7,-25],[4,-6],[0,-17],[6,-26],[0,-15],[3,-15]],[[8523,2536],[14,-27],[14,-51],[3,-19],[9,-17],[1,-20],[7,-23],[9,-1],[1,-10],[-10,-1],[-7,8],[-6,20],[-9,-10],[-9,-3],[-12,14],[-4,-11],[-9,40],[-4,-1],[-7,10],[-8,-9],[-13,25],[1,22],[-1,13],[8,22],[-3,7],[9,23],[6,-3],[15,7],[5,-5]],[[5132,3510],[-5,-20],[9,5],[-4,-22],[14,19],[4,-23],[-7,-3],[-6,-13],[-5,2],[-5,14],[-2,-19],[-6,0]],[[5597,5428],[-24,-17],[-19,-7],[4,-24],[-2,-19],[-13,7],[-5,-15],[-20,-20],[-6,-1],[-5,-21]],[[5507,5311],[-11,9],[2,68],[6,5],[0,13],[9,1],[-5,19],[-3,0],[-11,27],[5,1],[5,-11],[2,4],[10,-11],[0,-8],[10,-27],[11,10],[-13,39],[0,9],[18,-3],[0,25],[11,-7],[16,0],[4,8],[11,-15],[7,-24],[-1,-10],[7,-5]],[[5637,5424],[-4,-2],[-21,12],[-4,-1]],[[5608,5433],[0,10],[12,5],[11,-12],[3,7],[3,-19]],[[9471,1353],[3,-19],[1,-35],[-11,-45],[-7,-16],[-4,-46],[-8,0],[7,76],[9,38],[-1,42],[11,5]],[[5230,3326],[1,22],[12,9],[0,28],[8,-4],[4,12],[5,0],[-2,12],[11,28],[11,34],[-7,19],[-11,2],[-9,-8],[-7,-22],[-11,-10],[-6,-26],[-6,-7],[-6,19],[0,17],[-3,1],[3,16],[9,4],[2,-4],[9,10],[5,25],[-10,11],[-11,1],[0,7],[-8,-1],[-18,-13],[4,9],[-4,26]],[[5216,3551],[9,3],[1,11],[6,-3],[4,-11],[16,-2],[25,-22],[14,-8],[10,-27],[5,-4],[11,3],[0,-7],[-7,0],[-9,-13],[-11,-11],[-7,-19],[7,1],[9,-18],[15,12],[6,36],[12,-5],[12,11],[7,-7],[2,-15],[-3,-9],[-14,-9],[-2,19],[-8,-16],[4,-15],[-3,-11],[4,-16],[-20,-12]],[[5816,86],[1,15],[19,-2],[1,28],[1,71],[0,38],[-11,-2]],[[5827,234],[0,3],[23,9],[18,-22],[7,-6],[14,-3],[24,13],[22,4],[18,9],[9,8],[0,4],[11,11],[15,-7],[13,0],[14,12],[28,-10],[-4,-29],[4,-1],[-3,-27],[-5,-8],[-11,5],[1,8],[-13,4],[-4,-3],[-23,9],[-5,-31],[-23,39],[-10,-10],[-9,-2],[-1,13],[-11,-2],[-12,-12],[3,-14],[-27,-42],[-3,-9],[-5,13],[1,-20],[-3,-8],[-23,-7],[-6,-8],[-6,-18],[0,-15],[-3,-15],[-7,7],[-19,10]],[[5816,86],[-14,-1],[-9,-11],[-4,39],[-16,-8],[-1,19]],[[5772,124],[25,9],[3,22],[7,-1],[-5,48],[-1,26],[-24,19],[-8,9]],[[5769,256],[-2,5],[4,8],[9,-14],[19,-19],[17,-8],[11,6]],[[5772,124],[-5,-13],[-42,61],[0,16],[12,31],[4,-2],[12,24],[3,-6],[13,21]],[[1409,9994],[2,-7],[9,5],[-2,-21],[12,-56],[-2,-15],[6,-6],[-13,-5],[-9,2],[-6,7],[7,18],[-7,32],[0,8],[-5,29],[-16,2],[1,9],[6,-5],[13,8],[4,-5]],[[5637,5424],[-2,-13],[-6,-7],[-7,8],[-6,-17],[4,-3],[-7,-20],[-5,-8],[-4,4],[-1,-16],[13,-2],[-3,-29],[-21,8],[-5,-15],[4,-3],[-3,-14],[-4,1],[-4,15],[-6,-5],[-1,-12],[-8,9],[-13,-20],[-3,6],[-14,-5],[-2,-11],[-9,9],[2,7],[-19,20]],[[5597,5428],[11,5]],[[5575,5252],[-3,-19],[-8,5],[6,17],[5,-3]],[[5162,7417],[11,-4],[6,2],[8,-16],[7,-2],[-3,-8],[11,-28],[3,-12],[-1,-13],[9,-10],[-8,-12],[-7,0],[-5,-9],[-4,8],[-15,-22],[-2,-11],[-6,15],[-7,-3],[-6,8],[1,12],[-4,6],[-6,-5],[-2,10],[-15,8],[-8,-5],[5,10],[-5,0],[3,18],[-1,21],[7,25],[18,1],[10,11],[6,13],[0,-8]],[[1831,6865],[12,-10],[18,-37],[-2,-20],[4,1],[12,-18],[10,-30],[-3,-24],[-5,-8],[-14,-10],[-11,41],[-5,27],[2,24],[-6,33],[2,2],[-6,14],[-20,8],[12,7]],[[9867,2210],[1,-16],[-26,-39],[-4,12],[3,9],[16,15],[0,19],[-5,10],[11,-2],[4,-8]],[[8837,2807],[24,-28],[10,-30],[1,-18],[6,-15],[9,0],[8,-11],[16,-42],[4,-8],[4,-34],[5,-22],[7,-19],[-3,-17],[-4,0],[-3,15],[-8,16],[-10,43],[-3,3],[-8,30],[-11,20],[-7,17],[-8,33],[-8,5],[-19,37],[-18,10],[0,5],[-10,-2],[-7,-27],[-7,3],[6,8],[1,20],[5,9],[17,-3],[6,6],[5,-4]],[[7961,2082],[2,-8],[-13,-7],[8,-22],[-10,-4],[9,-10],[-4,-15],[-7,2],[-7,-13],[5,-5],[-5,-14],[-11,3],[-9,13],[-7,21],[-10,9],[-4,17],[-16,7],[4,15],[4,-13],[13,-12],[3,-13],[4,4],[12,-2],[3,21],[5,14],[-4,8],[-6,22],[4,8],[-3,16]],[[7921,2124],[7,-2],[-1,-9],[2,-32],[4,-10],[5,16],[2,14],[9,-23],[8,9],[4,-5]],[[6410,434],[9,-15],[8,11],[7,-17],[5,-24],[1,-17],[9,-40],[5,-13],[5,-21],[-4,-24],[16,2],[4,-16],[-5,-21],[0,-9],[11,-23],[1,-14],[-3,-11],[4,-21],[0,-20],[8,-15],[0,-14],[-11,-17],[-5,-26],[-8,-4],[-6,-26],[20,-17],[-5,-15],[-22,19],[-8,-26],[-7,6],[-11,0],[-7,-4],[-12,5],[-13,-5],[-5,8],[1,25],[-10,-3],[0,10],[-23,9],[9,40],[-2,10],[3,19],[-9,5],[-12,14],[-13,-28],[-11,-30],[-11,24],[-15,12],[-23,29],[-7,23],[-5,1],[-2,-12],[-5,-13],[-6,-6],[-15,2],[-2,-20],[-9,6],[-5,-7],[-26,27],[-4,-6],[-17,-4],[-1,10],[-11,1],[-17,32],[-13,-7],[-13,9],[-14,18],[-24,6],[-9,-6],[-19,-38],[-6,-3],[-7,17],[7,52],[7,-1],[6,53],[24,5],[6,-4],[16,21],[-3,18],[1,41],[13,48],[6,15],[7,7],[13,-3],[10,-10],[18,-11],[9,0],[18,13],[21,-27],[17,-11],[1,-6],[14,8],[12,12],[13,-1],[12,-5],[5,2],[9,-22],[11,-15],[0,-9],[10,-1],[10,-11],[11,20],[17,-14],[5,2],[14,-5],[6,-14],[8,-6],[10,1],[-5,9],[-5,31],[-14,25],[1,5],[12,15],[15,32],[4,-1]],[[7921,2124],[4,8],[-2,15],[-4,-4],[-1,14],[6,5],[-1,10],[7,25],[9,-12],[7,1],[0,15],[6,4],[3,9],[5,-1],[-1,-18],[7,10],[4,-28],[-5,-9],[-1,-16],[4,-10],[-3,-8],[10,-25],[9,-7],[-6,-1],[-2,-9],[-7,1],[-8,-11]],[[727,8070],[-10,-11],[-7,-15],[-4,-24],[-6,20],[-5,-3],[1,11],[-8,15],[-7,3],[7,6],[7,-5],[20,-1],[9,11],[3,-7]],[[710,7990],[-1,19],[2,1],[-1,-20]],[[5265,3923],[14,-3],[-1,-13],[-8,0],[-15,10],[-1,-29],[-9,2],[0,18],[-6,2],[-11,-11],[-9,-24],[-22,-39],[-6,-7],[0,-46],[-11,-4],[-3,4],[-7,29],[1,13],[-4,16],[-38,-21],[-25,-28],[-6,-13],[-5,31],[15,9],[2,-10],[11,13],[22,17],[-4,5],[-5,44],[7,17],[11,22],[30,8],[9,-2],[2,-25],[4,-12],[46,55],[22,-28]],[[9997,2286],[2,-12],[-12,-26],[-1,-12],[5,-18],[-4,-3],[-5,18],[4,28],[-22,6],[-15,-3],[-9,-24],[-4,7],[1,26],[16,18],[9,0],[15,-7],[6,10],[11,-2],[3,-6]],[[1190,7494],[2,-6],[21,-20],[31,22],[5,-12],[0,-15],[-7,-2],[-8,5],[-7,-2],[-3,-16],[-32,31],[-11,14],[-9,-1],[2,7],[10,20],[6,-25]],[[5399,6094],[4,-15],[-9,-4],[-3,-8],[-18,-17],[12,-45],[7,-14],[-4,-11],[-15,8],[-26,11],[-15,0],[-6,-6],[-8,-24],[-4,4],[3,18],[-8,6],[-2,-14],[-11,12],[4,8],[-10,11],[-9,-2],[-9,19],[-6,5],[-8,31],[-12,19],[5,11],[5,-13],[13,-12],[18,-10],[1,-24],[12,19],[4,14],[7,-13],[12,-11],[18,5],[4,-3],[2,33],[14,-8],[10,11],[3,-12],[15,14],[6,19],[4,-12]],[[5973,1141],[-2,11],[-13,29],[-9,48],[5,18],[-7,6],[-4,27],[-4,11],[0,27],[16,-10],[23,-27],[12,-21],[10,-32],[14,-33],[-27,-11],[-5,-8],[-5,-26],[-4,-9]]]}
