{"type":"Topology","bbox":[-76.18328368762553,1.7697317737904483,-76.02023655064255,1.986512550977829],"transform":{"scale":[0.000016306344332731473,0.000021680245743312397],"translate":[-76.18328368762553,1.7697317737904483]},"objects":{"municipios":{"type":"GeometryCollection","geometries":[{"type":"Polygon","arcs":[[0,1,2,3,4]]},{"type":"Polygon","arcs":[[5,6,7,8,9,10]]},{"type":"Polygon","arcs":[[11,12,-7,13]]},{"type":"Polygon","arcs":[[14,15,16,17,18]]},{"type":"Polygon","arcs":[[19,20,-15,21,22]]},{"type":"Polygon","arcs":[[23,24,25,26,27,-1]]},{"type":"Polygon","arcs":[[-3,28,29,30]]},{"type":"Polygon","arcs":[[31,32,33,34,35]]},{"type":"Polygon","arcs":[[36,-35,37,38]]},{"type":"Polygon","arcs":[[39,40,41,42,43,44,45,46]]},{"type":"Polygon","arcs":[[47,-43,48,-9]]},{"type":"Polygon","arcs":[[49]]},{"type":"MultiPolygon","arcs":[[[50]],[[51]],[[52]]]},{"type":"Polygon","arcs":[[53,-45,54,-12]]},{"type":"Polygon","arcs":[[55,56,57,58,59]]},{"type":"Polygon","arcs":[[60,61,62]]},{"type":"Polygon","arcs":[[63,64,65]]},{"type":"Polygon","arcs":[[66,67]]},{"type":"Polygon","arcs":[[68,69,70,71,72,73]]},{"type":"Polygon","arcs":[[74]]},{"type":"Polygon","arcs":[[75,76,77,78,79]]},{"type":"Polygon","arcs":[[80,81,82]]},{"type":"Polygon","arcs":[[-81,83,84,-11,85]]},{"type":"Polygon","arcs":[[86,87,88]]},{"type":"Polygon","arcs":[[89,90]]},{"type":"Polygon","arcs":[[91,92,-80,93,94,95,96]]},{"type":"Polygon","arcs":[[-25,97,98,99,-88,100]]},{"type":"Polygon","arcs":[[101]]},{"type":"Polygon","arcs":[[-85,102,-46,-54,-14,-6]]},{"type":"Polygon","arcs":[[103,104,-95,105,106,-36,-37,107]]},{"type":"Polygon","arcs":[[108,-30,109,110,111]]},{"type":"Polygon","arcs":[[112,-89,-100,113,-67,114]]},{"type":"Polygon","arcs":[[-27,115,116]]},{"type":"Polygon","arcs":[[117,118,119]]},{"type":"Polygon","arcs":[[120,-60,121,-106,-94,-79]]},{"type":"Polygon","arcs":[[122]]},{"type":"Polygon","arcs":[[123,-96,-105,124,-118,125]]},{"type":"Polygon","arcs":[[126,-63,127,-56,-121,-78]]},{"type":"Polygon","arcs":[[128]]},{"type":"Polygon","arcs":[[-2,-28,-117,129,-110,-29]]},{"type":"Polygon","arcs":[[130,131,-64,132,133]]},{"type":"Polygon","arcs":[[-128,-62,134,135,-82,-86,-10,-49,-42,136,-57]]},{"type":"Polygon","arcs":[[137,-71,138,-4,-31,-109,139]]},{"type":"MultiPolygon","arcs":[[[140]],[[141]],[[142]]]},{"type":"Polygon","arcs":[[143]]},{"type":"Polygon","arcs":[[144,145,-73,146,147,148]]},{"type":"Polygon","arcs":[[-19,-69,149,-33,150]]},{"type":"Polygon","arcs":[[151,152,-148]]},{"type":"Polygon","arcs":[[-76,-93,153]]},{"type":"Polygon","arcs":[[-34,-150,-74,-146,154,-38]]},{"type":"Polygon","arcs":[[-112,155,156,-140]]},{"type":"Polygon","arcs":[[-21,157,-133,-66,158,-16]]},{"type":"Polygon","arcs":[[-90,159,-135,-61,-127,-77,-154,-92,160,161]]},{"type":"Polygon","arcs":[[162,-161,-97,-124]]},{"type":"Polygon","arcs":[[-18,163,-24,-5,-139,-70]]},{"type":"Polygon","arcs":[[164,-108,-39,-155,-145,165]]},{"type":"Polygon","arcs":[[-40,166,-23,167,-58,168]]},{"type":"Polygon","arcs":[[-147,-72,-138,-157,169,-152]]},{"type":"Polygon","arcs":[[-17,-159,-65,-132,170,-98,-164]]},{"type":"Polygon","arcs":[[-44,-48,-8,-13,-55]]},{"type":"Polygon","arcs":[[-119,-125,-104,-165,171]]},{"type":"Polygon","arcs":[[-168,-22,-151,-32,-107,-122,-59]]},{"type":"Polygon","arcs":[[-169,-137,-41]]},{"type":"Polygon","arcs":[[172]]},{"type":"Polygon","arcs":[[173,174,175]]},{"type":"Polygon","arcs":[[-175,176,177]]},{"type":"MultiPolygon","arcs":[[[-177,-174,178]],[[179]]]},{"type":"MultiPolygon","arcs":[[[180]],[[181]]]},{"type":"Polygon","arcs":[[182]]},{"type":"Polygon","arcs":[[183]]},{"type":"Polygon","arcs":[[184]]},{"type":"MultiPolygon","arcs":[[[185]],[[186]]]},{"type":"Polygon","arcs":[[-171,-131,187,188,189,-115,-68,-114,-99]]},{"type":"Polygon","arcs":[[-189,190]]}]}},"arcs":[[[7760,3990],[-94,15],[4,7],[-36,28],[51,40],[-40,29],[116,90]],[[7761,4199],[18,-13]],[[7779,4186],[61,-45]],[[7840,4141],[66,-48]],[[7906,4093],[-146,-103]],[[8872,3273],[-63,38],[-38,-35]],[[8771,3276],[-81,50],[-84,54]],[[8606,3380],[-38,25]],[[8568,3405],[24,20],[-14,11],[119,89],[35,30]],[[8732,3555],[84,-57]],[[8816,3498],[-82,-60],[37,-27],[-47,-35],[19,-16],[-16,-14],[49,-32],[58,56],[22,-13],[13,12],[46,-27],[-14,-13],[18,-10],[-47,-46]],[[8590,3255],[8,8],[-74,55]],[[8524,3318],[82,62]],[[8771,3276],[-84,-79],[-97,58]],[[8297,3753],[-176,-140],[-23,-17],[-19,-3],[-8,10],[-4,31],[-25,9]],[[8042,3643],[18,20],[33,18],[2,17],[-10,27],[-18,26]],[[8067,3751],[-32,41],[-25,42]],[[8010,3834],[29,16],[39,-14],[31,-1],[35,-21],[14,-1],[13,14],[-12,25],[9,10],[43,-2],[7,11],[-21,15],[17,15]],[[8214,3901],[29,-55],[17,-12],[-30,-32],[67,-49]],[[8033,3535],[-3,0]],[[8030,3535],[4,82],[8,26]],[[8297,3753],[75,-53]],[[8372,3700],[-172,-137],[-26,-17],[-26,-8],[-115,-3]],[[7760,3990],[-9,-15],[25,-9],[36,14],[18,-1],[-165,-78]],[[7665,3901],[-29,40],[-27,10],[-46,25],[-32,-5],[-11,-57],[-12,-21],[-21,4],[-54,43],[-64,18],[-19,22],[-4,56],[9,21],[29,4],[20,-15],[12,-28],[-8,-34],[15,-9],[13,7],[-6,18],[10,5],[40,-5],[30,8],[10,19],[-19,29],[-23,10],[-19,21],[-3,12],[16,28],[-21,-1],[-14,-19],[-14,-3],[-33,13],[-23,3]],[[7367,4120],[32,66]],[[7399,4186],[17,-9],[26,27],[90,-48],[73,76]],[[7605,4232],[82,-17],[57,-9],[17,-7]],[[7779,4186],[66,131]],[[7845,4317],[113,-92]],[[7958,4225],[-118,-84]],[[8582,3918],[-34,26],[-75,-57]],[[8473,3887],[-138,98]],[[8335,3985],[77,58],[34,-25],[79,57]],[[8525,4075],[72,-44]],[[8597,4031],[64,-40],[-79,-73]],[[8706,4187],[15,-28],[8,4],[28,-27],[-57,-31],[-103,-74]],[[8525,4075],[27,20],[-39,33],[48,32],[1,13]],[[8562,4173],[22,21],[17,2],[14,-18],[75,-10],[16,19]],[[8338,3134],[-23,29],[-54,214]],[[8261,3377],[73,9],[16,49],[-11,8],[187,149]],[[8526,3592],[37,-26]],[[8563,3566],[-106,-86],[74,-49]],[[8531,3431],[-152,-114],[53,-39]],[[8432,3278],[-45,-34],[41,-36],[50,-38]],[[8478,3170],[5,-5]],[[8483,3165],[-118,-52],[-10,-1],[-17,22]],[[8568,3405],[-37,26]],[[8563,3566],[70,57],[99,-68]],[[9921,6399],[24,-1],[23,21],[31,-9],[-33,-40],[-40,-17],[-19,-21],[2,-11],[-22,-1],[-20,-17],[-15,2],[-14,-94],[-36,-23],[-13,8],[-38,-6],[-24,4],[-35,-10],[-41,-3],[-89,-35],[7,67],[29,-7],[3,10],[37,0],[78,14],[44,1],[9,27],[16,-1],[15,13],[-40,1],[5,24],[19,19],[3,21],[16,5],[32,24],[24,-22],[22,8],[1,18],[-15,26],[31,30],[15,-6],[8,-19]],[[2482,5605],[-2,14],[26,-2],[32,-23],[-23,-7],[2,-9],[-24,5],[-25,-5],[-16,-16],[-21,10],[-27,2],[22,59],[42,-13],[14,-15]],[[2362,5676],[14,0],[-4,-22],[38,-16],[-46,3],[-6,-6],[-34,13],[38,28]],[[2398,5559],[12,-17],[-26,13],[-20,0],[-1,11],[36,2],[-1,-9]],[[8590,3255],[-112,-85]],[[8432,3278],[19,-15],[73,55]],[[8743,3764],[-2,-20]],[[8741,3744],[-27,-7],[-19,-13],[-47,11],[-95,10],[-35,-47],[-67,-53]],[[8451,3645],[-78,56]],[[8373,3701],[75,61],[131,100]],[[8579,3862],[128,-97],[36,-1]],[[8966,3818],[38,-29],[18,13],[36,-28],[-17,-14],[-19,14],[-22,-16],[18,-14],[-59,-44],[-37,28],[-41,-30],[48,-35],[18,-8]],[[8947,3655],[-80,18],[-41,11],[-77,53]],[[8749,3737],[112,82],[51,42],[54,-43]],[[7860,3532],[-262,-5],[-79,1]],[[7519,3528],[49,22],[56,44],[101,63],[41,44],[51,12]],[[7817,3713],[21,-6],[4,-29],[-17,-39],[8,-58],[26,-36],[1,-13]],[[7149,3427],[-35,71]],[[7114,3498],[86,2],[108,-5],[-11,-137],[-72,4],[-39,-10],[-37,75]],[[8229,4065],[-6,-30],[35,-19],[19,-21],[7,-40],[-29,-22],[-5,-19],[-36,-13]],[[8214,3901],[-23,22],[-59,20],[-181,118]],[[7951,4061],[204,145],[38,3]],[[8193,4209],[87,-86]],[[8280,4123],[11,-11]],[[8291,4112],[-13,-13],[-9,-33],[-40,-1]],[[8403,4488],[-82,-47],[-27,36],[96,68],[0,10],[48,-41],[-35,-26]],[[9087,4020],[-36,-26],[19,-15],[-38,-28],[33,-25]],[[9065,3926],[-57,-43],[50,-38],[-21,-14],[-26,20]],[[9011,3851],[-159,123]],[[8852,3974],[16,11],[42,4],[20,12],[9,41],[18,6]],[[8957,4048],[18,3],[42,-31],[31,24],[39,-24]],[[9037,3345],[-37,29],[-97,66]],[[8903,3440],[21,22],[68,57],[112,112]],[[9104,3631],[35,-19],[40,-26],[-106,-121],[102,-73],[-67,-57],[-53,25],[-18,-15]],[[9037,3345],[-62,-59],[55,-33],[-11,-23],[53,-34],[25,-20],[-61,-48],[-154,126],[-19,11]],[[8863,3265],[9,8]],[[8816,3498],[87,-58]],[[6941,3407],[-16,9],[-10,-8],[-36,23],[-38,-25],[-10,-1],[2,55],[-13,39],[24,31],[4,35]],[[6848,3565],[70,-5],[143,-7]],[[7061,3553],[0,-8],[23,-47],[-143,-91]],[[9082,3714],[53,60],[27,21],[56,58]],[[9218,3853],[219,-145],[-3,-30],[-20,0],[-18,-18],[24,-17],[-28,-34],[-120,54],[-103,42],[-11,-14],[-76,23]],[[9277,4013],[-43,-37]],[[9234,3976],[-111,74],[-36,-30]],[[8957,4048],[-37,26]],[[8920,4074],[35,36],[32,44],[23,19]],[[9010,4173],[57,-6],[23,-14]],[[9090,4153],[44,-19],[38,-29],[-5,-19],[110,-73]],[[7665,3901],[-37,-21],[-7,-16],[-2,-53],[-16,-34],[-27,-12],[-252,-64],[-27,-93],[69,-11],[70,-4],[31,-5],[-8,-9],[-16,-47]],[[7443,3532],[-327,19]],[[7116,3551],[-55,2]],[[6848,3565],[-42,3],[9,14],[22,13],[18,-3],[-3,17],[-47,99],[13,11],[-6,14],[7,26],[12,10],[18,-19],[18,-4],[19,51],[47,-7],[28,1],[-23,12],[63,57],[24,35],[38,-22],[45,-18],[-7,-14],[25,-66],[10,2],[26,-68],[6,8],[125,80],[-23,61],[-22,41],[1,20],[-15,18],[-68,29],[6,17],[33,17],[10,16],[-17,55],[37,10],[13,15],[-29,13],[20,20],[44,4],[46,-9],[38,-4]],[[7619,2895],[4,-14],[-9,-17],[10,-10],[-16,-8],[-8,10],[-28,-11],[-24,3],[-10,16],[31,14],[-14,20],[34,-7],[28,17],[2,-13]],[[8863,3265],[-32,-25],[-49,29],[-84,-79],[-15,-7],[17,-18],[-110,-81],[-107,81]],[[9039,4239],[12,-8],[2,-24]],[[9053,4207],[-43,-34]],[[8920,4074],[-75,-57],[-187,-149],[-39,24]],[[8619,3892],[-37,26]],[[8706,4187],[24,-6],[27,12],[42,-6],[22,11],[30,2],[51,13],[29,-5],[4,24],[29,-7],[3,14],[14,0],[26,-18],[20,5],[12,13]],[[8074,4307],[-116,-82]],[[7845,4317],[1,2]],[[7846,4319],[1,0],[72,142],[53,-8],[-10,-39],[-9,-11],[39,-30]],[[7992,4373],[43,-38],[39,-28]],[[7031,3350],[-84,-56],[-91,49],[19,12],[77,-38],[-5,14],[19,4],[12,16],[9,-6],[29,20],[-19,9],[-17,-13],[-24,13],[28,19],[-26,-2],[-17,16]],[[7116,3551],[-9,-28],[7,-25]],[[7149,3427],[-118,-77]],[[7399,4186],[43,97],[58,15]],[[7500,4298],[70,-52],[35,-14]],[[9311,4403],[-11,-4]],[[9300,4399],[-40,6],[-69,33]],[[9191,4438],[-36,92],[-4,16],[-26,67],[59,8],[47,-49],[43,-50],[25,-24],[64,-54],[26,12],[11,-21],[-89,-32]],[[8852,3974],[-42,-35],[31,-24],[-82,-61],[18,-15],[-40,-31],[33,-25],[-27,-19]],[[8579,3862],[40,30]],[[7923,3350],[3,-9],[-9,-34],[-14,-34],[0,-29],[-87,-85],[4,-11],[48,-25],[-29,-33],[-37,13],[-12,-18],[33,-10],[-15,-24],[-21,-16],[-29,12],[-17,20],[13,10],[12,-8],[17,42],[-55,23],[5,7],[32,-13],[22,17],[-37,22],[27,8],[13,-8],[23,21],[-16,19],[-2,15],[24,15],[28,-5],[26,21],[-10,29],[26,29],[-20,19],[27,21],[27,-1]],[[9481,4227],[-34,-9],[-56,22],[-21,-21],[-49,-18],[-11,-21],[-55,12],[-25,-8],[-35,21],[-21,7],[-37,2],[-22,-7],[-8,-45],[-17,-9]],[[9053,4207],[178,128],[35,42],[34,22]],[[9311,4403],[170,-176]],[[9011,3851],[-45,-33]],[[8749,3737],[-8,7]],[[7361,4502],[-23,25],[-105,53],[70,108],[103,154],[106,-40],[2,-14],[36,-69],[-40,-20],[-36,-48],[-45,-26],[-51,-75],[-17,-48]],[[7500,4298],[42,19],[33,29],[70,-47],[4,-20],[43,87],[154,-47]],[[7462,3407],[22,58],[30,63]],[[7514,3528],[5,0]],[[7860,3532],[151,2]],[[8011,3534],[2,-10],[-35,-15],[-44,-8],[-19,-57],[7,-43],[10,-23],[-22,-2],[-7,33],[-23,-3],[-16,6],[-29,-7],[-43,-32],[-13,-24],[-32,-11],[-39,-1],[22,72],[16,12],[-3,13],[-152,-22],[-104,-13],[-25,8]],[[8947,3655],[72,-8]],[[9019,3647],[50,-7],[35,-9]],[[8526,3592],[-75,53]],[[8200,4236],[-7,-27]],[[7951,4061],[-45,32]],[[8074,4307],[81,-65],[45,-6]],[[1685,4275],[7,-71],[-34,-22],[31,-15],[-19,-18],[26,-22],[48,31],[47,5],[19,-46],[40,14],[0,34],[-12,26],[-32,-9],[-1,26],[38,11],[18,-1],[31,12],[-10,-52],[20,0],[-8,-63],[12,-4],[27,8],[-27,-54],[-55,-14],[18,47],[-53,-18],[-31,17],[-22,-25],[9,-27],[-13,-12],[24,-33],[23,-7],[3,-29],[46,2],[-1,26],[49,2],[39,6],[-1,15],[49,4],[1,-14],[60,3],[1,-51],[-82,-38],[-19,6],[-11,22],[-30,-6],[-3,28],[-45,-3],[0,-20],[-24,2],[-20,-8],[4,-19],[-17,0],[-8,43],[-134,-6],[40,-89],[-24,-6],[-46,94],[-50,-3],[44,-66],[-34,-12],[19,-26],[34,16],[32,-32],[-40,-13],[12,-29],[-52,-15],[-5,14],[-54,2],[-19,-4],[19,-42],[-17,-20],[-17,-4],[-4,12],[-22,7],[18,39],[23,9],[-13,28],[-23,11],[-41,-28],[-8,3],[45,40],[14,24],[23,18],[-2,35],[-14,0],[-11,29],[18,1],[-23,18],[38,16],[99,56],[20,-47],[49,5],[6,-20],[27,2],[3,27],[30,26],[-25,25],[-22,-17],[9,-21],[-36,-6],[-2,19],[19,6],[1,15],[-35,14],[-35,-11],[-27,12],[-18,31],[12,22],[11,38],[-16,-11],[-48,30],[4,28],[33,21],[9,18],[-36,15],[-9,-17],[-34,10],[30,19],[41,-5],[20,6],[13,59],[21,4],[6,-18],[12,-3],[30,-42]],[[1233,4000],[20,-6],[15,-21],[28,-3],[0,-19],[41,2],[11,13],[43,-3],[-4,13],[27,4],[2,-34],[-15,0],[3,-30],[-26,-3],[-2,12],[-18,-13],[-70,-4],[-4,-62],[28,0],[1,-17],[-31,0],[2,15],[-116,-21],[-10,43],[39,12],[-5,25],[26,9],[-9,17],[-55,-9],[-21,-8],[-22,60],[28,-1],[5,25],[34,-1],[41,10],[14,-5]],[[2129,4142],[4,-23],[20,1],[6,-20],[-16,-3],[7,-20],[5,-78],[19,1],[3,-18],[243,11],[-2,-24],[-39,11],[-35,-33],[-21,2],[-44,-17],[-37,-2],[-19,-13],[-44,1],[-16,7],[-46,3],[-12,19],[23,18],[-41,12],[-16,47],[-6,31],[-19,14],[22,52],[31,4],[20,20],[10,-3]],[[6720,3906],[18,2],[15,-10],[-45,-6],[20,-16],[-34,-13],[-16,-31],[32,-8],[2,-39],[-13,-25],[-56,17],[-9,-11],[-62,17],[-27,19],[15,19],[72,-21],[3,7],[24,-14],[47,100],[-14,10],[27,28],[18,-9],[-17,-16]],[[8693,4451],[-6,-25],[-42,-11],[6,-24],[-28,-11],[-12,-31],[-14,-4],[-8,-25],[1,-23],[-24,-7],[21,-9],[5,-27],[-36,-5],[-3,-24],[-18,-11],[19,-34]],[[8554,4180],[-64,-14],[-35,-19],[-52,0],[-20,-4],[-21,-35],[-37,6],[-25,13],[-9,-15]],[[8280,4123],[17,10],[44,16],[146,86],[-43,40]],[[8444,4275],[110,80],[-90,73]],[[8464,4428],[29,18],[53,8],[-3,72],[25,-4],[56,-1],[18,-11],[0,-17],[-14,0],[0,-16],[-34,-1],[-1,-23],[100,-2]],[[8229,4065],[21,-18],[85,-62]],[[8473,3887],[-71,-52],[-105,-82]],[[8444,4275],[-19,10],[-75,59]],[[8350,4344],[-42,34],[53,40],[10,-10],[14,10],[32,-25],[47,35]],[[9234,3976],[18,-11],[-80,-61],[-5,1],[-64,49],[-38,-28]],[[8554,4180],[8,-7]],[[7992,4373],[95,65],[152,-122],[33,-28]],[[8272,4288],[-72,-52]],[[8030,3535],[-19,-1]],[[7817,3713],[50,13],[54,10],[95,-3],[51,18]],[[9082,3714],[-63,-67]],[[9277,4013],[59,-40]],[[9336,3973],[-42,-36],[0,-6],[-34,-32],[-42,-46]],[[9481,4227],[51,8],[46,-46],[-20,-13],[-96,-94],[-22,-1],[-14,-32],[16,-13],[-24,-15],[113,-71],[-13,-19],[2,-24],[-26,-8],[-141,85],[-17,-11]],[[8010,3834],[-68,13],[-32,-3],[-17,-9],[21,-18],[39,-2],[0,-12],[-19,-6],[-63,5],[-71,29],[-31,4],[-15,10],[0,37],[-13,9],[-57,-1],[-19,11]],[[8791,4448],[-60,2],[-16,-57],[47,-8],[-6,-17],[70,-12],[5,18],[45,-9],[-4,-16],[81,-15],[-34,-26],[34,-27],[-17,-13],[19,-14],[35,27],[34,-27],[18,13],[17,-13],[-20,-15]],[[8693,4451],[15,36],[33,8],[13,24],[23,-3],[14,10],[7,-47],[-7,-31]],[[8338,3134],[-54,-25],[-28,39],[-8,-1],[-23,27],[-23,17],[-3,41],[-33,6],[-78,-17],[-37,1],[-4,-13],[-48,-13],[-10,25],[18,10],[-1,35],[26,13],[48,2],[39,16],[42,0],[-8,22],[-48,3],[-32,23],[-6,34],[-17,23],[2,11],[33,6],[-2,11],[-22,23],[-38,-2],[-32,25],[41,41],[1,18]],[[8372,3700],[1,1]],[[8451,3645],[-160,-127],[-57,-43],[27,-98]],[[8272,4288],[78,56]],[[7514,3528],[-71,4]],[[8791,4448],[115,-2],[9,102],[23,-25],[127,-76],[0,-5],[126,-4]],[[2930,9994],[1,-9],[74,-7],[-1,9],[54,0],[26,11],[14,-10],[-34,-29],[11,-23],[-49,-7],[-29,-1],[-17,-8],[-7,-27],[-41,-20],[-23,29],[2,21],[-56,10],[10,46],[-6,8],[25,12],[46,-5]],[[744,309],[-30,51],[-163,-54],[-22,6]],[[529,312],[-36,62],[-92,-33],[-30,30]],[[371,371],[36,2],[26,8],[-14,23],[109,31],[5,-8],[99,31],[27,-56],[57,19],[-4,7],[26,8],[-12,37],[19,4],[-3,24],[30,-16],[23,-33],[8,28],[13,-21],[81,28],[11,16],[45,3],[32,-5],[38,1],[21,-27],[-41,-18],[-16,23],[-23,-9],[6,-9],[-25,-2],[-43,-15],[18,-23],[-9,-3],[-21,30],[-28,-12],[6,-8],[-42,-29],[4,-8],[-60,-21],[16,-27],[-17,-6],[8,-15],[-33,-14]],[[529,312],[61,-103]],[[590,209],[-13,-5],[-10,16],[-18,-6],[-13,22],[-74,-22],[-17,3],[7,15],[16,6],[-11,19],[-127,-42],[22,-40],[-47,-2],[-18,30],[-95,-21],[-20,-1],[-5,-12],[-25,-11],[6,-13],[-25,-18],[-7,9],[40,30],[-12,26],[43,3],[26,8],[-10,13],[-30,-9],[-12,13],[31,13],[-5,20],[-52,-1],[-44,14],[-20,-17],[-38,-10],[-18,29],[-15,11],[0,23],[30,-6],[7,31],[13,-3],[36,15],[9,-14],[-14,-7],[-6,-30],[66,-11],[1,10],[125,-4],[0,-13],[28,0],[-8,35],[-36,71],[25,3],[35,19],[12,-15],[26,-3],[22,-9]],[[744,309],[-34,-16],[-21,5],[-2,-23],[19,-30],[-25,-12],[11,-30],[18,13],[15,-8],[34,1],[22,-15],[-26,-30],[7,-14],[-20,-10],[22,-26],[-14,-7],[26,-29],[21,21],[11,-10],[-64,-55],[-3,-32],[-14,-2],[0,39],[20,33],[-21,22],[-11,0],[-9,-17],[-13,4],[10,17],[-5,17],[23,14],[-31,16],[-26,-2],[-8,-26],[26,-12],[-20,-10],[-4,-26],[-20,13],[-13,-10],[15,-22],[-19,1],[-10,23],[24,17],[8,27],[-43,-1],[1,10],[22,4],[-36,23],[37,3],[-5,26],[-15,4],[-14,22]],[[558,41],[-13,-13],[-8,13],[31,17],[13,-1],[-23,-16]],[[9421,8498],[12,-22],[40,-1],[60,-58],[23,-16],[10,8],[39,-30],[39,-23],[42,1],[23,15],[32,-6],[30,-13],[23,-26],[64,-21],[4,7],[53,-19],[-21,-21],[23,-13],[26,2],[-6,-31],[-12,-22],[-33,15],[-13,-21],[-33,-1],[1,12],[-43,18],[-100,53],[-12,-8],[-34,6],[-29,-22],[-3,-11],[31,-19],[2,-24],[-12,-20],[81,-74],[-52,0],[-24,-6],[-24,6],[-91,49],[9,17],[-58,54],[-36,0],[-28,-15],[-6,31],[-35,48],[-26,17],[-16,-14],[-15,8],[15,17],[-10,6],[18,15],[29,12],[-30,16],[34,18],[24,1],[-1,17],[23,30],[-12,18],[-51,17],[-22,12],[78,11]],[[9503,8157],[-15,-8],[-21,19],[20,3],[16,-14]],[[6219,8880],[-5,-31],[18,-18],[5,-26],[12,3],[19,-34],[42,-63],[39,8],[2,-20],[-40,-17],[-31,-2],[-44,-14],[-55,-38],[-33,29],[-3,37],[-16,2],[4,24],[-23,2],[4,33],[10,16],[-78,10],[-19,-2],[-42,27],[-31,-5],[-54,-23],[-3,-14],[-16,-7],[-10,15],[24,10],[25,28],[-30,9],[23,23],[-12,9],[-27,-11],[-44,28],[13,28],[79,11],[28,1],[-5,-34],[42,-8],[16,-8],[16,16],[-15,11],[4,48],[86,23],[64,2],[32,-15],[-10,-58],[39,-5]],[[8402,603],[81,-17],[11,11],[17,-1],[-35,-21],[11,-19],[-22,4],[-6,-15],[-21,20],[-34,-11],[10,-22],[-18,6],[-63,-30],[-2,19],[30,29],[-61,13],[16,9],[-3,17],[40,-5],[23,7],[15,18],[11,-12]],[[7074,1075],[-31,-24],[-18,12],[-66,-33],[26,-23],[-22,12],[-29,-18],[24,-27],[16,2],[-43,-22],[-16,12],[5,18],[-35,-19],[9,-8],[-29,-17],[8,-7],[-20,-12],[-64,-10],[-25,-31],[-13,19],[-26,-4],[-23,-25],[-16,23],[-35,-15],[-32,23],[54,10],[31,19],[-29,6],[-6,-14],[-49,4],[10,17],[23,3],[97,-1],[14,11],[39,-2],[-32,17],[17,4],[39,23],[16,-15],[22,11],[16,-3],[12,12],[-7,15],[39,2],[27,17],[-21,18],[13,0],[97,48],[33,-28]],[[7212,3066],[-7,-66],[32,-7],[-5,-10],[23,5],[5,39],[32,8],[23,-26],[-27,-25],[3,-17],[-39,4],[-8,13],[-56,2],[9,77],[-53,-8],[13,-47],[-18,-7],[3,-13],[-38,-3],[-18,40],[-22,6],[-20,-9],[-40,-7],[-13,31],[-20,-2],[24,-82],[-12,18],[-18,5],[-26,87],[78,-2],[109,-7],[21,14],[31,31],[58,-6],[-24,-36]],[[7395,3049],[23,-2],[33,-50],[-14,-17],[47,-9],[1,-6],[-49,-18],[-55,5],[-60,12],[0,68],[44,23],[30,-6]],[[7462,3407],[-35,-100]],[[7427,3307],[-17,-47],[-17,-23]],[[7393,3237],[-30,-52],[-68,-53],[-73,147],[-85,-11],[-18,45],[-50,-11],[-17,38],[-21,10]],[[7427,3307],[45,-10],[-28,-41],[110,-42],[35,8],[7,-15],[85,10],[-11,-15],[20,-29],[-51,-10],[42,-53],[-6,-20],[-29,-5],[-26,-26],[-13,-22],[-85,70],[-61,-6],[-16,47],[38,9],[-14,25],[-27,18],[-7,25],[-42,12]]]}