{"type":"Topology","bbox":[-75.8807933241269,1.8725469577173806,-75.79054952913538,1.9808841916059037],"transform":{"scale":[0.000009025282027354982,0.000010834806869539266],"translate":[-75.8807933241269,1.8725469577173806]},"objects":{"municipios":{"type":"GeometryCollection","geometries":[{"type":"Polygon","arcs":[[0]],"properties":{"codigo":"41770200301001000101","sector":"417702003010010001","pcode":"CO41770","area_m2":236660}},{"type":"Polygon","arcs":[[1,2]],"properties":{"codigo":"41770100000000000104","sector":"417701000000000001","pcode":"CO41770","area_m2":75790}},{"type":"Polygon","arcs":[[3]],"properties":{"codigo":"41770200201012000101","sector":"417702002010120001","pcode":"CO41770","area_m2":149050}},{"type":"Polygon","arcs":[[4,5,6]],"properties":{"codigo":"41770100000000000103","sector":"417701000000000001","pcode":"CO41770","area_m2":167156}},{"type":"Polygon","arcs":[[7,-3,8,-6,9]],"properties":{"codigo":"41770100000000000101","sector":"417701000000000001","pcode":"CO41770","area_m2":335382}},{"type":"Polygon","arcs":[[10,-10,-5]],"properties":{"codigo":"41770100000000000102","sector":"417701000000000001","pcode":"CO41770","area_m2":147269}},{"type":"Polygon","arcs":[[11]],"properties":{"codigo":"41770200203002000101","sector":"417702002030020001","pcode":"CO41770","area_m2":801783}},{"type":"Polygon","arcs":[[12]],"properties":{"codigo":"41770200304011000101","sector":"417702003040110001","pcode":"CO41770","area_m2":61524}}]}},"arcs":[[[103,573],[37,-61],[37,-7],[10,22],[81,-3],[46,-85],[64,-44],[102,27],[51,-22],[92,-10],[31,45],[2,89],[64,14],[20,-29],[-23,-68],[8,-40],[18,2],[13,-93],[-32,-29],[-42,-8],[-53,-31],[-29,-42],[15,-9],[-82,-23],[34,-34],[-74,-13],[-70,-78],[-44,34],[-70,-34],[-58,-43],[-12,39],[17,44],[-8,78],[16,27],[-7,37],[-31,35],[-115,29],[-42,79],[37,13],[12,24],[-47,16],[-7,17],[-64,50],[69,77],[34,8]],[[9434,9291],[-45,-95],[29,-17],[18,-87],[-66,-5],[-36,-14],[-61,-43],[6,47],[-12,46],[-67,193],[-38,123]],[[9162,9439],[53,16],[27,-10],[53,-61],[73,-9],[66,-84]],[[8912,4912],[10,-7],[47,49],[98,-42],[-126,-132],[-79,-118],[-112,-88],[-12,-71],[-60,37],[-89,2],[-9,23],[-139,89],[70,67],[42,-19],[262,261],[97,-51]],[[9887,9687],[0,-6],[-296,24],[-179,3],[-259,14]],[[9153,9722],[10,30],[-107,42]],[[9056,9794],[36,53],[25,1],[13,53],[54,-12],[19,28],[52,-11],[48,12],[-3,32],[30,23],[89,1],[29,25],[13,-21],[-92,-76],[22,-13],[-33,-51],[93,-27],[52,-7],[55,37],[54,5],[39,38],[91,68],[8,20],[66,-10],[-16,-69],[15,-2],[3,-74],[31,-15],[24,-41],[14,-74]],[[9973,9528],[4,-105],[-34,-105],[-19,5],[-76,-87],[-45,-17],[-105,-9],[-43,8],[-83,-5],[-85,69],[-53,9]],[[9162,9439],[-32,-4],[-69,23],[-75,1],[-65,31],[-73,100],[47,-31],[21,42],[52,7],[53,-7],[2,32],[-51,47],[20,47],[-19,2],[-9,52],[21,32],[71,-19]],[[9153,9722],[-17,-53],[67,-19],[-19,-46],[-63,13],[4,-34],[263,-20],[201,-7],[177,-16],[207,-12]],[[9887,9687],[112,-12],[-24,-104],[-2,-43]],[[8556,3624],[52,-29],[-12,-68],[57,-104],[69,-19],[117,-5],[112,-24],[108,-35],[-41,-97],[54,-37],[-31,-39],[-33,-10],[-74,5],[-40,-99],[-75,24],[-130,-269],[80,-56],[-51,-41],[-1,-27],[-41,6],[13,-58],[-134,21],[-72,5],[-35,12],[-93,10],[-33,-11],[-58,18],[-91,-118],[-42,102],[-26,97],[27,134],[-10,41],[39,69],[-20,13],[31,74],[-49,17],[19,70],[-49,15],[37,74],[-213,79],[-6,59],[65,59],[149,66],[35,-6],[52,42],[108,-12],[67,30],[84,7],[68,25],[17,-10]],[[6189,337],[13,13],[49,-21],[-24,-33],[-72,-135],[-41,-146],[-122,74],[-53,22],[133,144],[-43,15],[27,46],[-26,76],[159,-55]]]}
