{"type":"Topology","bbox":[-75.5504506452005,2.748071840843182,-75.3066476576476,2.965662320547063],"transform":{"scale":[0.000024382737028992587,0.000021761224092797382],"translate":[-75.5504506452005,2.748071840843182]},"objects":{"municipios":{"type":"GeometryCollection","geometries":[{"type":"Polygon","arcs":[[0,1,2,3,4]]},{"type":"Polygon","arcs":[[5,-3,6,7]]},{"type":"Polygon","arcs":[[8,9,10,11]]},{"type":"Polygon","arcs":[[12,13,14,15]]},{"type":"Polygon","arcs":[[16,17,18]]},{"type":"Polygon","arcs":[[19,20,21,-8,22,23]]},{"type":"Polygon","arcs":[[24,25,26]]},{"type":"Polygon","arcs":[[27,-5,28,-15,29,30]]},{"type":"Polygon","arcs":[[31]]},{"type":"Polygon","arcs":[[32,-26,33,-23,-7,-2,-9]]},{"type":"Polygon","arcs":[[-10,-1,-28,34]]},{"type":"Polygon","arcs":[[-29,-4,-6,-22,35,-16]]},{"type":"Polygon","arcs":[[36]]},{"type":"Polygon","arcs":[[-20,37,-27,-33,-12,38]]},{"type":"Polygon","arcs":[[-38,-24,-34,-25]]},{"type":"Polygon","arcs":[[-30,-14,39,40,41]]},{"type":"Polygon","arcs":[[-41,42]]},{"type":"MultiPolygon","arcs":[[[43]],[[44]]]},{"type":"Polygon","arcs":[[45,46]]},{"type":"Polygon","arcs":[[-46,47]]},{"type":"MultiPolygon","arcs":[[[48,-18]],[[49]],[[-17,50]]]}]}},"arcs":[[[4713,6638],[91,-96]],[[4804,6542],[-73,-76]],[[4731,6466],[-24,19]],[[4707,6485],[-54,56]],[[4653,6541],[53,73],[-2,29],[9,-5]],[[4593,6337],[43,47],[71,101]],[[4731,6466],[26,-38]],[[4757,6428],[-64,-69],[-52,-27],[-27,-18],[-21,23]],[[4904,6501],[-49,-23],[-19,-4],[-6,14],[13,16],[-39,38]],[[4804,6542],[60,65],[29,38]],[[4893,6645],[7,3]],[[4900,6648],[-4,-44],[14,-40],[-10,-38],[4,-25]],[[4607,6565],[-27,7],[-36,-5],[-29,-18],[-44,34],[-25,1],[1,32],[12,7],[21,-10],[11,-31],[20,18],[2,23],[-20,23],[-7,34],[16,25],[26,-4]],[[4528,6701],[18,-19],[17,-37],[8,-44],[21,-6],[42,1]],[[4634,6596],[14,-33],[1,-25]],[[4649,6538],[-16,-4],[2,42],[-27,1],[-1,-12]],[[9962,9651],[1,-18]],[[9963,9633],[-168,-6],[14,255]],[[9809,9882],[12,87],[31,-8],[9,38],[35,-7],[-3,-24],[37,-7],[-7,-50],[15,-3],[-13,-93],[32,-7],[5,-157]],[[4707,6277],[-40,-29],[-43,12],[-18,-19]],[[4606,6241],[-16,59],[-36,-28],[2,41]],[[4556,6313],[37,24]],[[4757,6428],[20,-26]],[[4777,6402],[-12,-22],[-52,-73],[-16,-12],[10,-18]],[[4897,6301],[-38,-9],[0,22],[-19,-1],[-19,33]],[[4821,6346],[1,55],[23,21],[81,29]],[[4926,6451],[35,-51],[-27,-2],[-37,-19],[8,-12],[-38,-20],[5,-13],[22,-2],[3,-31]],[[4721,6647],[-8,-9]],[[4653,6541],[-4,-3]],[[4634,6596],[10,11],[16,43]],[[4660,6650],[17,37],[22,2],[17,-22],[-9,-14],[14,-6]],[[125,6026],[0,-14],[16,-9],[10,26],[27,7],[6,-26],[9,14],[15,-5],[-11,-17],[0,-33],[-20,-6],[-6,-26],[-53,-6],[-22,-15],[-48,13],[-11,-3],[-23,14],[9,13],[2,46],[23,9],[0,16],[30,14],[4,-13],[16,7],[27,-6]],[[4904,6501],[30,-47],[-8,-3]],[[4821,6346],[-26,43],[-18,13]],[[4721,6647],[24,6],[18,15],[71,-25],[22,-3],[37,5]],[[4556,6313],[-10,27],[18,7],[-41,29],[-29,33],[127,123],[-14,33]],[[1173,3529],[-20,-13],[-57,1],[-11,4],[5,45],[40,-3],[32,-21],[11,-13]],[[4707,6277],[25,-63],[29,21],[-8,16],[18,12],[-23,41],[40,32],[21,-19],[-1,-40],[29,-20],[24,12],[36,32]],[[4900,6648],[11,5],[12,-53],[51,12],[18,-26],[7,-38],[5,-82],[55,-8],[27,8],[11,-51],[-45,-12],[-24,-12],[-14,17],[-11,-21],[-29,-3],[-29,-29],[-31,-51],[-16,-35],[-77,-30],[-35,-5],[-49,-38],[-37,-9],[-10,-12],[-21,3],[-63,63]],[[4528,6701],[6,27],[-31,10],[20,12],[4,13]],[[4527,6763],[34,3]],[[4561,6766],[9,1],[2,40],[14,1],[9,-41],[32,3],[17,-5],[3,-19],[25,-2],[18,-35],[-28,-4],[3,-28],[-5,-27]],[[4527,6763],[-60,-1],[-9,30],[-15,0],[-13,28],[-2,40],[14,24],[2,45],[9,-4],[3,-84],[41,2],[-3,104],[20,2],[-16,27],[-9,-7],[-13,20],[0,20],[19,14],[49,-73],[13,-68],[4,-116]],[[6237,140],[17,-30],[25,23],[40,-33],[-3,-12],[-29,21],[-27,-24],[32,-42],[11,8],[18,-16],[-27,-21],[-34,-14],[-7,22],[-28,39],[-37,-31],[-21,-6],[-74,11],[-3,5],[46,27],[8,38],[-8,29],[50,4],[12,-5],[21,12],[18,-5]],[[6416,172],[1,-7],[-32,2],[-22,-7],[-8,10],[40,35],[21,-33]],[[9280,3601],[-47,-15],[1,15],[-75,-17],[-3,-13],[-37,12],[15,31]],[[9134,3614],[24,56],[-63,59],[-24,16],[-23,168],[6,6],[35,-29],[15,26],[23,-15],[4,23],[-43,4],[2,66],[35,13],[-2,-56],[45,-23],[26,-21],[-13,-107],[39,-45],[44,45],[24,-44],[13,-6],[-21,-149]],[[9280,3601],[-23,-148],[-19,-26],[-20,-8],[-3,-43],[3,-44],[-6,-7],[-87,21],[-7,60],[-31,204],[47,4]],[[9963,9633],[2,-123],[-6,-18],[-75,37],[-6,48],[12,-1],[8,35],[-69,-3],[1,-23],[-36,-2],[-12,-210],[-55,0],[2,43],[44,0],[4,65],[-32,3],[8,121],[-10,0],[4,51],[-18,-2],[-24,-45],[-21,-53],[-36,23],[-8,23],[29,51],[56,1],[2,61],[30,-4],[1,29],[15,91],[-22,24],[30,44],[28,-17]],[[9921,9366],[-8,-33],[-10,-70],[-6,-75],[-66,24],[-12,62],[25,-8],[21,9],[9,-12],[-2,-54],[17,0],[-7,70],[-4,81],[-9,0],[-1,29],[22,6],[12,62],[21,42],[42,-22],[-19,-39],[-25,-72]],[[9962,9651],[36,1],[1,-18],[-36,-1]]]}
