{"type":"Topology","bbox":[-73.15871941127125,11.051230350408828,-72.72702113764115,11.559988350716331],"transform":{"scale":[0.00004317414477748818,0.000050880888119562315],"translate":[-73.15871941127125,11.051230350408828]},"objects":{"municipios":{"type":"GeometryCollection","geometries":[{"type":"Polygon","arcs":[[0,1,2,3,4]],"properties":{"codigo":"44001100000000020501","sector":"440011000000000205","pcode":"CO44001","area_m2":41032}},{"type":"Polygon","arcs":[[5,6,7,8,9]],"properties":{"codigo":"44001100000000030501","sector":"440011000000000305","pcode":"CO44001","area_m2":100270}},{"type":"Polygon","arcs":[[10,11,12,13,14,15,16]],"properties":{"codigo":"44001100000000040901","sector":"440011000000000409","pcode":"CO44001","area_m2":211967}},{"type":"Polygon","arcs":[[17,-16,18,19,20,21]],"properties":{"codigo":"44001100000000041001","sector":"440011000000000410","pcode":"CO44001","area_m2":103712}},{"type":"Polygon","arcs":[[-20,22,23,24]],"properties":{"codigo":"44001100000000041101","sector":"440011000000000411","pcode":"CO44001","area_m2":40341}},{"type":"Polygon","arcs":[[-21,-25,25,26]],"properties":{"codigo":"44001100000000041201","sector":"440011000000000412","pcode":"CO44001","area_m2":21614}},{"type":"Polygon","arcs":[[27,28,-1,29,30]],"properties":{"codigo":"44001100000000020701","sector":"440011000000000207","pcode":"CO44001","area_m2":183432}},{"type":"Polygon","arcs":[[-3,31,32,33]],"properties":{"codigo":"44001100000000020201","sector":"440011000000000202","pcode":"CO44001","area_m2":25474}},{"type":"Polygon","arcs":[[-30,34,-4,-34,35,36]],"properties":{"codigo":"44001100000000020301","sector":"440011000000000203","pcode":"CO44001","area_m2":100140}},{"type":"Polygon","arcs":[[-5,-35]],"properties":{"codigo":"44001100000000020401","sector":"440011000000000204","pcode":"CO44001","area_m2":14409}},{"type":"Polygon","arcs":[[37,38,39,40,41]],"properties":{"codigo":"44001100000000010501","sector":"440011000000000105","pcode":"CO44001","area_m2":221029}},{"type":"Polygon","arcs":[[-29,42,43,44,45,46,47,48,-2]],"properties":{"codigo":"44001100000000020601","sector":"440011000000000206","pcode":"CO44001","area_m2":228429}},{"type":"Polygon","arcs":[[49,-27,50,51,52]],"properties":{"codigo":"44001100000000030101","sector":"440011000000000301","pcode":"CO44001","area_m2":155003}},{"type":"Polygon","arcs":[[53,54,-22,-50,55,-9]],"properties":{"codigo":"44001100000000030201","sector":"440011000000000302","pcode":"CO44001","area_m2":124349}},{"type":"Polygon","arcs":[[-10,-56,-53,56,57,58]],"properties":{"codigo":"44001100000000030401","sector":"440011000000000304","pcode":"CO44001","area_m2":176497}},{"type":"Polygon","arcs":[[59,60,61,62,63]],"properties":{"codigo":"44001100000000031001","sector":"440011000000000310","pcode":"CO44001","area_m2":82600}},{"type":"Polygon","arcs":[[64,65,66,-6,-59,67,-38]],"properties":{"codigo":"44001100000000031201","sector":"440011000000000312","pcode":"CO44001","area_m2":394469}},{"type":"Polygon","arcs":[[68,69,70,71,72,73,74]],"properties":{"codigo":"44001100000000040201","sector":"440011000000000402","pcode":"CO44001","area_m2":89239}},{"type":"Polygon","arcs":[[75,76,77,78,79,-44,80]],"properties":{"codigo":"44001100000000040501","sector":"440011000000000405","pcode":"CO44001","area_m2":160496}},{"type":"Polygon","arcs":[[-19,-15,81,-81,-43,-28,-23]],"properties":{"codigo":"44001100000000040601","sector":"440011000000000406","pcode":"CO44001","area_m2":124013}},{"type":"Polygon","arcs":[[-14,82,-76,-82]],"properties":{"codigo":"44001100000000040701","sector":"440011000000000407","pcode":"CO44001","area_m2":32643}},{"type":"MultiPolygon","arcs":[[[83]],[[84]]],"properties":{"codigo":"44001202002004000101","sector":"440012020020040001","pcode":"CO44001","area_m2":91344}},{"type":"MultiPolygon","arcs":[[[85]],[[86]]],"properties":{"codigo":"44001202101041000101","sector":"440012021010410001","pcode":"CO44001","area_m2":21983}},{"type":"Polygon","arcs":[[87,88,89,90]],"properties":{"codigo":"44001201801011000102","sector":"440012018010110001","pcode":"CO44001","area_m2":89947}},{"type":"Polygon","arcs":[[91,92,93]],"properties":{"codigo":"44001201304012000101","sector":"440012013040120001","pcode":"CO44001","area_m2":63589}},{"type":"Polygon","arcs":[[94,95]],"properties":{"codigo":"44001202301027000101","sector":"440012023010270001","pcode":"CO44001","area_m2":146503}},{"type":"MultiPolygon","arcs":[[[96]],[[97]],[[98]]],"properties":{"codigo":"44001202003043000101","sector":"440012020030430001","pcode":"CO44001","area_m2":13738}},{"type":"Polygon","arcs":[[99]],"properties":{"codigo":"44001201807042000101","sector":"440012018070420001","pcode":"CO44001","area_m2":21809}},{"type":"Polygon","arcs":[[100]],"properties":{"codigo":"44001200703032000101","sector":"440012007030320001","pcode":"CO44001","area_m2":111755}},{"type":"Polygon","arcs":[[101]],"properties":{"codigo":"44001207806036000101","sector":"440012078060360001","pcode":"CO44001","area_m2":22783}},{"type":"MultiPolygon","arcs":[[[102]],[[103]]],"properties":{"codigo":"44001207801017000101","sector":"440012078010170001","pcode":"CO44001","area_m2":195344}},{"type":"Polygon","arcs":[[104]],"properties":{"codigo":"44001201203022000101","sector":"440012012030220001","pcode":"CO44001","area_m2":122130}},{"type":"Polygon","arcs":[[105]],"properties":{"codigo":"44001200101026000101","sector":"440012001010260001","pcode":"CO44001","area_m2":121939}},{"type":"Polygon","arcs":[[106,107,108,109]],"properties":{"codigo":"44001200403003000104","sector":"440012004030030001","pcode":"CO44001","area_m2":124606}},{"type":"Polygon","arcs":[[110,111]],"properties":{"codigo":"44001202302025000101","sector":"440012023020250001","pcode":"CO44001","area_m2":192725}},{"type":"MultiPolygon","arcs":[[[112,113]],[[114]]],"properties":{"codigo":"44001207704005000101","sector":"440012077040050001","pcode":"CO44001","area_m2":157330}},{"type":"Polygon","arcs":[[115,-108,116]],"properties":{"codigo":"44001200403003000103","sector":"440012004030030001","pcode":"CO44001","area_m2":139445}},{"type":"Polygon","arcs":[[117,118]],"properties":{"codigo":"44001207708045000101","sector":"440012077080450001","pcode":"CO44001","area_m2":88814}},{"type":"Polygon","arcs":[[119]],"properties":{"codigo":"44001200205020000101","sector":"440012002050200001","pcode":"CO44001","area_m2":73999}},{"type":"Polygon","arcs":[[120]],"properties":{"codigo":"44001202311021000101","sector":"440012023110210001","pcode":"CO44001","area_m2":62355}},{"type":"Polygon","arcs":[[121,-118]],"properties":{"codigo":"44001207708045000102","sector":"440012077080450001","pcode":"CO44001","area_m2":45055}},{"type":"Polygon","arcs":[[-117,-107,122,123]],"properties":{"codigo":"44001200403003000102","sector":"440012004030030001","pcode":"CO44001","area_m2":190286}},{"type":"Polygon","arcs":[[124]],"properties":{"codigo":"44001202311044000101","sector":"440012023110440001","pcode":"CO44001","area_m2":13703}},{"type":"Polygon","arcs":[[-123,-110,125]],"properties":{"codigo":"44001200403003000101","sector":"440012004030030001","pcode":"CO44001","area_m2":129077}},{"type":"Polygon","arcs":[[-114,126]],"properties":{"codigo":"44001207704005000102","sector":"440012077040050001","pcode":"CO44001","area_m2":104429}},{"type":"Polygon","arcs":[[127]],"properties":{"codigo":"44001202301033000101","sector":"440012023010330001","pcode":"CO44001","area_m2":136094}},{"type":"Polygon","arcs":[[128]],"properties":{"codigo":"44001202110018000101","sector":"440012021100180001","pcode":"CO44001","area_m2":26440}},{"type":"Polygon","arcs":[[-111,129]],"properties":{"codigo":"44001200106040000101","sector":"440012001060400001","pcode":"CO44001","area_m2":67661}},{"type":"Polygon","arcs":[[130,131,132,133]],"properties":{"codigo":"44001100000000042401","sector":"440011000000000424","pcode":"CO44001","area_m2":199913}},{"type":"Polygon","arcs":[[134,135,136,137,138,-62]],"properties":{"codigo":"44001100000000030701","sector":"440011000000000307","pcode":"CO44001","area_m2":231618}},{"type":"Polygon","arcs":[[139,-74,140,141,142]],"properties":{"codigo":"44001100000000040101","sector":"440011000000000401","pcode":"CO44001","area_m2":140930}},{"type":"Polygon","arcs":[[143,-92,144]],"properties":{"codigo":"44001201304012000103","sector":"440012013040120001","pcode":"CO44001","area_m2":97167}},{"type":"Polygon","arcs":[[145]],"properties":{"codigo":"44001201204001000101","sector":"440012012040010001","pcode":"CO44001","area_m2":106871}},{"type":"Polygon","arcs":[[146]],"properties":{"codigo":"44001201803002000101","sector":"440012018030020001","pcode":"CO44001","area_m2":210902}},{"type":"MultiPolygon","arcs":[[[147]],[[148]]],"properties":{"codigo":"44001207703008000101","sector":"440012077030080001","pcode":"CO44001","area_m2":152842}},{"type":"MultiPolygon","arcs":[[[149,-90]],[[150]]],"properties":{"codigo":"44001201801011000101","sector":"440012018010110001","pcode":"CO44001","area_m2":67884}},{"type":"Polygon","arcs":[[-88,151]],"properties":{"codigo":"44001201801011000103","sector":"440012018010110001","pcode":"CO44001","area_m2":190977}},{"type":"Polygon","arcs":[[-93,-144,152]],"properties":{"codigo":"44001201304012000102","sector":"440012013040120001","pcode":"CO44001","area_m2":105899}},{"type":"Polygon","arcs":[[153,154]],"properties":{"codigo":"44001201901016000101","sector":"440012019010160001","pcode":"CO44001","area_m2":177510}},{"type":"Polygon","arcs":[[155,-154]],"properties":{"codigo":"44001201901016000102","sector":"440012019010160001","pcode":"CO44001","area_m2":142393}},{"type":"MultiPolygon","arcs":[[[156]],[[157]]],"properties":{"codigo":"44001202107023000101","sector":"440012021070230001","pcode":"CO44001","area_m2":43589}},{"type":"Polygon","arcs":[[158]],"properties":{"codigo":"44001201902024000101","sector":"440012019020240001","pcode":"CO44001","area_m2":111362}},{"type":"Polygon","arcs":[[159,-95]],"properties":{"codigo":"44001202301027000102","sector":"440012023010270001","pcode":"CO44001","area_m2":62570}},{"type":"Polygon","arcs":[[160]],"properties":{"codigo":"44001201807028000101","sector":"440012018070280001","pcode":"CO44001","area_m2":24130}},{"type":"Polygon","arcs":[[161]],"properties":{"codigo":"44001207701031000101","sector":"440012077010310001","pcode":"CO44001","area_m2":80077}},{"type":"Polygon","arcs":[[162]],"properties":{"codigo":"44001202001035000101","sector":"440012020010350001","pcode":"CO44001","area_m2":98886}},{"type":"Polygon","arcs":[[163,164,165,166,167,168,169]],"properties":{"codigo":"44001100000000010202","sector":"440011000000000102","pcode":"CO44001","area_m2":144621}},{"type":"Polygon","arcs":[[170,171,172,-135,-61,173]],"properties":{"codigo":"44001100000000030901","sector":"440011000000000309","pcode":"CO44001","area_m2":89750}},{"type":"Polygon","arcs":[[174,175,176,177,178,-166]],"properties":{"codigo":"44001100000000010102","sector":"440011000000000101","pcode":"CO44001","area_m2":79988}},{"type":"Polygon","arcs":[[179,-175,-165,180]],"properties":{"codigo":"44001100000000010201","sector":"440011000000000102","pcode":"CO44001","area_m2":46094}},{"type":"Polygon","arcs":[[-177,181,-40,182]],"properties":{"codigo":"44001100000000010301","sector":"440011000000000103","pcode":"CO44001","area_m2":58701}},{"type":"Polygon","arcs":[[183,-182,-176,-180]],"properties":{"codigo":"44001100000000010203","sector":"440011000000000102","pcode":"CO44001","area_m2":57401}},{"type":"Polygon","arcs":[[184,185,-183,-39,-68,-58]],"properties":{"codigo":"44001100000000010302","sector":"440011000000000103","pcode":"CO44001","area_m2":166448}},{"type":"Polygon","arcs":[[-31,186,187,-51,-26,-24]],"properties":{"codigo":"44001100000000020803","sector":"440011000000000208","pcode":"CO44001","area_m2":151058}},{"type":"Polygon","arcs":[[188,-64,189,190]],"properties":{"codigo":"44001100000000031104","sector":"440011000000000311","pcode":"CO44001","area_m2":151564}},{"type":"Polygon","arcs":[[191,192,193,194,195,196]],"properties":{"codigo":"44001100000000041503","sector":"440011000000000415","pcode":"CO44001","area_m2":99573}},{"type":"Polygon","arcs":[[197,198,199,-171,200]],"properties":{"codigo":"44001100000000031106","sector":"440011000000000311","pcode":"CO44001","area_m2":127080}},{"type":"Polygon","arcs":[[-48,201,-75,-140,202]],"properties":{"codigo":"44001100000000040301","sector":"440011000000000403","pcode":"CO44001","area_m2":161335}},{"type":"Polygon","arcs":[[203,204,205,206,207,-78]],"properties":{"codigo":"44001100000000040402","sector":"440011000000000404","pcode":"CO44001","area_m2":170311}},{"type":"Polygon","arcs":[[208,209,210,211,212]],"properties":{"codigo":"44001100000000042107","sector":"440011000000000421","pcode":"CO44001","area_m2":122407}},{"type":"Polygon","arcs":[[213,214,215,216,217]],"properties":{"codigo":"44001100000000041403","sector":"440011000000000414","pcode":"CO44001","area_m2":133785}},{"type":"Polygon","arcs":[[218,-209,219]],"properties":{"codigo":"44001100000000042002","sector":"440011000000000420","pcode":"CO44001","area_m2":162414}},{"type":"Polygon","arcs":[[220,221,222,223,224]],"properties":{"codigo":"44001100000000042101","sector":"440011000000000421","pcode":"CO44001","area_m2":241614}},{"type":"Polygon","arcs":[[225,226,227,228,229]],"properties":{"codigo":"44001100000000042405","sector":"440011000000000424","pcode":"CO44001","area_m2":99904}},{"type":"Polygon","arcs":[[-32,-49,-203,-143,230,231]],"properties":{"codigo":"44001100000000020102","sector":"440011000000000201","pcode":"CO44001","area_m2":197336}},{"type":"Polygon","arcs":[[232,233,234,235,236]],"properties":{"codigo":"44001100000000041902","sector":"440011000000000419","pcode":"CO44001","area_m2":109473}},{"type":"Polygon","arcs":[[237,-228,238,239,240]],"properties":{"codigo":"44001100000000042404","sector":"440011000000000424","pcode":"CO44001","area_m2":211902}},{"type":"Polygon","arcs":[[241,242,-195,243,244,245]],"properties":{"codigo":"44001100000000030802","sector":"440011000000000308","pcode":"CO44001","area_m2":159422}},{"type":"Polygon","arcs":[[246,247,248,249,250,251]],"properties":{"codigo":"44001100000000040802","sector":"440011000000000408","pcode":"CO44001","area_m2":153357}},{"type":"Polygon","arcs":[[252,253,254]],"properties":{"codigo":"44001100000000042205","sector":"440011000000000422","pcode":"CO44001","area_m2":87049}},{"type":"Polygon","arcs":[[-80,255,256,-45]],"properties":{"codigo":"44001100000000040304","sector":"440011000000000403","pcode":"CO44001","area_m2":105022}},{"type":"Polygon","arcs":[[257,258,-134,259,260]],"properties":{"codigo":"44001100000000042302","sector":"440011000000000423","pcode":"CO44001","area_m2":100327}},{"type":"Polygon","arcs":[[261,-246,262,-172,-200]],"properties":{"codigo":"44001100000000030902","sector":"440011000000000309","pcode":"CO44001","area_m2":275338}},{"type":"Polygon","arcs":[[263,264,265,266,-237,267]],"properties":{"codigo":"44001100000000041903","sector":"440011000000000419","pcode":"CO44001","area_m2":318114}},{"type":"Polygon","arcs":[[268,269,-242,270]],"properties":{"codigo":"44001100000000041602","sector":"440011000000000416","pcode":"CO44001","area_m2":70997}},{"type":"Polygon","arcs":[[-217,271,272,-206,273]],"properties":{"codigo":"44001100000000040401","sector":"440011000000000404","pcode":"CO44001","area_m2":107692}},{"type":"Polygon","arcs":[[274,-164,275,276]],"properties":{"codigo":"44001100000000010404","sector":"440011000000000104","pcode":"CO44001","area_m2":86497}},{"type":"Polygon","arcs":[[277,278,279,-253]],"properties":{"codigo":"44001100000000042204","sector":"440011000000000422","pcode":"CO44001","area_m2":464313}},{"type":"Polygon","arcs":[[-224,280,281,282,283,284,285,286,287,288,289,290]],"properties":{"codigo":"44001100000000042105","sector":"440011000000000421","pcode":"CO44001","area_m2":2200669}},{"type":"Polygon","arcs":[[291,292,-225,-291,293,-192,294]],"properties":{"codigo":"44001100000000041502","sector":"440011000000000415","pcode":"CO44001","area_m2":167755}},{"type":"Polygon","arcs":[[295,296,297,298,299,300]],"properties":{"codigo":"44001100000000041304","sector":"440011000000000413","pcode":"CO44001","area_m2":116662}},{"type":"Polygon","arcs":[[-279,301,-220,-213,302,303,304,-264,305]],"properties":{"codigo":"44001100000000042001","sector":"440011000000000420","pcode":"CO44001","area_m2":740888}},{"type":"Polygon","arcs":[[306,307,-235,308,309]],"properties":{"codigo":"44001100000000041801","sector":"440011000000000418","pcode":"CO44001","area_m2":252672}},{"type":"Polygon","arcs":[[310,311,-199,312,313,314,315]],"properties":{"codigo":"44001100000000042203","sector":"440011000000000422","pcode":"CO44001","area_m2":1376829}},{"type":"Polygon","arcs":[[-37,316,-178,-186,317,-187]],"properties":{"codigo":"44001100000000020801","sector":"440011000000000208","pcode":"CO44001","area_m2":166280}},{"type":"Polygon","arcs":[[-287,318,319]],"properties":{"codigo":"44001100000000040406","sector":"440011000000000404","pcode":"CO44001","area_m2":163277}},{"type":"Polygon","arcs":[[-211,320,-281,-223,321,322,323]],"properties":{"codigo":"44001100000000042104","sector":"440011000000000421","pcode":"CO44001","area_m2":67438}},{"type":"Polygon","arcs":[[324,-276,-170,325,326]],"properties":{"codigo":"44001100000000010403","sector":"440011000000000104","pcode":"CO44001","area_m2":132009}},{"type":"Polygon","arcs":[[-260,-133,327,-230,328]],"properties":{"codigo":"44001100000000042303","sector":"440011000000000423","pcode":"CO44001","area_m2":126580}},{"type":"Polygon","arcs":[[329,-254,-280,330,-307,331,332,-311]],"properties":{"codigo":"44001100000000042202","sector":"440011000000000422","pcode":"CO44001","area_m2":722036}},{"type":"Polygon","arcs":[[-63,-139,333,334,335,336,-190]],"properties":{"codigo":"44001100000000030602","sector":"440011000000000306","pcode":"CO44001","area_m2":196115}},{"type":"Polygon","arcs":[[-310,337,338,339,-332]],"properties":{"codigo":"44001100000000041702","sector":"440011000000000417","pcode":"CO44001","area_m2":207452}},{"type":"Polygon","arcs":[[340,341]],"properties":{"codigo":"44001100000000041307","sector":"440011000000000413","pcode":"CO44001","area_m2":43954}},{"type":"Polygon","arcs":[[-69,-202,-47,342]],"properties":{"codigo":"44001100000000040302","sector":"440011000000000403","pcode":"CO44001","area_m2":97071}},{"type":"Polygon","arcs":[[-17,-18,-55,343,-335,344]],"properties":{"codigo":"44001100000000030301","sector":"440011000000000303","pcode":"CO44001","area_m2":175364}},{"type":"Polygon","arcs":[[-333,-340,345,-271,-262,-312]],"properties":{"codigo":"44001100000000041701","sector":"440011000000000417","pcode":"CO44001","area_m2":228373}},{"type":"Polygon","arcs":[[-138,346,-11,-345,-334]],"properties":{"codigo":"44001100000000030302","sector":"440011000000000303","pcode":"CO44001","area_m2":180257}},{"type":"Polygon","arcs":[[347,-323,348,-304]],"properties":{"codigo":"44001100000000042103","sector":"440011000000000421","pcode":"CO44001","area_m2":128145}},{"type":"Polygon","arcs":[[-173,-263,-245,349,-136]],"properties":{"codigo":"44001100000000030801","sector":"440011000000000308","pcode":"CO44001","area_m2":130582}},{"type":"Polygon","arcs":[[350,-336,-344,-54,-8]],"properties":{"codigo":"44001100000000030601","sector":"440011000000000306","pcode":"CO44001","area_m2":134537}},{"type":"Polygon","arcs":[[-73,351,-299,352,-341,353,354,355,356,357,358,359,-141]],"properties":{"codigo":"44001100000000041301","sector":"440011000000000413","pcode":"CO44001","area_m2":656291}},{"type":"Polygon","arcs":[[360,-191,-337,-351,-7,-67,361,362,363]],"properties":{"codigo":"44001100000000031102","sector":"440011000000000311","pcode":"CO44001","area_m2":217927}},{"type":"Polygon","arcs":[[-218,-274,-205,364,365]],"properties":{"codigo":"44001100000000040404","sector":"440011000000000404","pcode":"CO44001","area_m2":154829}},{"type":"Polygon","arcs":[[-258,366]],"properties":{"codigo":"44001100000000042301","sector":"440011000000000423","pcode":"CO44001","area_m2":77367}},{"type":"Polygon","arcs":[[-301,367,368,369]],"properties":{"codigo":"44001100000000041303","sector":"440011000000000413","pcode":"CO44001","area_m2":86952}},{"type":"Polygon","arcs":[[-207,-273,370,-369,371,-71,372,373]],"properties":{"codigo":"44001100000000041402","sector":"440011000000000414","pcode":"CO44001","area_m2":88512}},{"type":"Polygon","arcs":[[-266,-221,-293,374]],"properties":{"codigo":"44001100000000041507","sector":"440011000000000415","pcode":"CO44001","area_m2":114732}},{"type":"Polygon","arcs":[[375,-315,376,377,-363,378,-65,-42,379,380,-277,-325,381]],"properties":{"codigo":"44001100000000010602","sector":"440011000000000106","pcode":"CO44001","area_m2":1386821}},{"type":"Polygon","arcs":[[-272,-216,382,-296,-370,-371]],"properties":{"codigo":"44001100000000041401","sector":"440011000000000414","pcode":"CO44001","area_m2":257360}},{"type":"Polygon","arcs":[[-382,-327,383]],"properties":{"codigo":"44001100000000010601","sector":"440011000000000106","pcode":"CO44001","area_m2":902499}},{"type":"Polygon","arcs":[[-188,-318,-185,-57,-52]],"properties":{"codigo":"44001100000000020802","sector":"440011000000000208","pcode":"CO44001","area_m2":95753}},{"type":"Polygon","arcs":[[384,-248,385,-193,-294,-290]],"properties":{"codigo":"44001100000000041501","sector":"440011000000000415","pcode":"CO44001","area_m2":110528}},{"type":"Polygon","arcs":[[386,-250,387,-288,-320,388,-241,389,-356,390,-214,-366,391]],"properties":{"codigo":"44001100000000040405","sector":"440011000000000404","pcode":"CO44001","area_m2":1364513}},{"type":"Polygon","arcs":[[-314,392,-201,-174,-60,-189,-361,393,-377]],"properties":{"codigo":"44001100000000031105","sector":"440011000000000311","pcode":"CO44001","area_m2":526310}},{"type":"Polygon","arcs":[[-226,-328,-132,394,-357,-390,-240,395]],"properties":{"codigo":"44001100000000042402","sector":"440011000000000424","pcode":"CO44001","area_m2":519394}},{"type":"Polygon","arcs":[[396,-196,-243,-270,397,398]],"properties":{"codigo":"44001100000000041601","sector":"440011000000000416","pcode":"CO44001","area_m2":79169}},{"type":"Polygon","arcs":[[-355,399,-297,-383,-215,-391]],"properties":{"codigo":"44001100000000041305","sector":"440011000000000413","pcode":"CO44001","area_m2":117812}},{"type":"Polygon","arcs":[[-79,-208,-374,400,-256]],"properties":{"codigo":"44001100000000041404","sector":"440011000000000414","pcode":"CO44001","area_m2":66806}},{"type":"Polygon","arcs":[[401,-359]],"properties":{"codigo":"44001100000000041308","sector":"440011000000000413","pcode":"CO44001","area_m2":89360}},{"type":"Polygon","arcs":[[-184,402,-380,-41]],"properties":{"codigo":"44001100000000010402","sector":"440011000000000104","pcode":"CO44001","area_m2":109508}},{"type":"Polygon","arcs":[[-364,-378,-394]],"properties":{"codigo":"44001100000000031103","sector":"440011000000000311","pcode":"CO44001","area_m2":71514}},{"type":"Polygon","arcs":[[-349,-322,-222,-265,-305]],"properties":{"codigo":"44001100000000042102","sector":"440011000000000421","pcode":"CO44001","area_m2":85109}},{"type":"Polygon","arcs":[[-372,-368,-300,-352,-72]],"properties":{"codigo":"44001100000000041302","sector":"440011000000000413","pcode":"CO44001","area_m2":75811}},{"type":"Polygon","arcs":[[-381,-403,-181,-275]],"properties":{"codigo":"44001100000000010401","sector":"440011000000000104","pcode":"CO44001","area_m2":86235}},{"type":"Polygon","arcs":[[-168,403,-36,-33,-232,404]],"properties":{"codigo":"44001100000000020101","sector":"440011000000000201","pcode":"CO44001","area_m2":298542}},{"type":"Polygon","arcs":[[-227,-396,-239]],"properties":{"codigo":"44001100000000042403","sector":"440011000000000424","pcode":"CO44001","area_m2":108658}},{"type":"Polygon","arcs":[[-348,-303,-212,-324]],"properties":{"codigo":"44001100000000042106","sector":"440011000000000421","pcode":"CO44001","area_m2":46366}},{"type":"Polygon","arcs":[[-252,405,-347,-137,406]],"properties":{"codigo":"44001100000000030303","sector":"440011000000000303","pcode":"CO44001","area_m2":154531}},{"type":"Polygon","arcs":[[-404,-167,-179,-317]],"properties":{"codigo":"44001100000000010101","sector":"440011000000000101","pcode":"CO44001","area_m2":169108}},{"type":"Polygon","arcs":[[-331,-306,-268,-236,-308]],"properties":{"codigo":"44001100000000041802","sector":"440011000000000418","pcode":"CO44001","area_m2":330044}},{"type":"Polygon","arcs":[[-234,407,-399,408,-338,-309]],"properties":{"codigo":"44001100000000041901","sector":"440011000000000419","pcode":"CO44001","area_m2":129741}},{"type":"Polygon","arcs":[[-401,-373,-70,-343,-46,-257]],"properties":{"codigo":"44001100000000040303","sector":"440011000000000403","pcode":"CO44001","area_m2":138866}},{"type":"Polygon","arcs":[[-406,-251,-387,409,-12]],"properties":{"codigo":"44001100000000040801","sector":"440011000000000408","pcode":"CO44001","area_m2":228829}},{"type":"Polygon","arcs":[[-313,-198,-393]],"properties":{"codigo":"44001100000000042201","sector":"440011000000000422","pcode":"CO44001","area_m2":244958}},{"type":"Polygon","arcs":[[-392,-365,-204,-77,-83,-13,-410]],"properties":{"codigo":"44001100000000040403","sector":"440011000000000404","pcode":"CO44001","area_m2":177809}},{"type":"Polygon","arcs":[[-289,-388,-249,-385]],"properties":{"codigo":"44001100000000041506","sector":"440011000000000415","pcode":"CO44001","area_m2":141089}},{"type":"Polygon","arcs":[[-362,-66,-379]],"properties":{"codigo":"44001100000000031101","sector":"440011000000000311","pcode":"CO44001","area_m2":228559}},{"type":"Polygon","arcs":[[-233,-267,-375,-292,410]],"properties":{"codigo":"44001100000000041505","sector":"440011000000000415","pcode":"CO44001","area_m2":159219}},{"type":"Polygon","arcs":[[-386,-247,-407,-350,-244,-194]],"properties":{"codigo":"44001100000000030304","sector":"440011000000000303","pcode":"CO44001","area_m2":147319}},{"type":"Polygon","arcs":[[-400,-354,-342,-353,-298]],"properties":{"codigo":"44001100000000041306","sector":"440011000000000413","pcode":"CO44001","area_m2":45180}},{"type":"Polygon","arcs":[[-411,-295,-197,-397,-408]],"properties":{"codigo":"44001100000000041504","sector":"440011000000000415","pcode":"CO44001","area_m2":122640}},{"type":"Polygon","arcs":[[-409,-398,-269,-346,-339]],"properties":{"codigo":"44001100000000041603","sector":"440011000000000416","pcode":"CO44001","area_m2":81626}},{"type":"Polygon","arcs":[[411,412,413,414]],"properties":{"codigo":"44001200602046000101","sector":"440012006020460001","pcode":"CO44001","area_m2":76590}},{"type":"Polygon","arcs":[[415,416]],"properties":{"codigo":"44001200601047000101","sector":"440012006010470001","pcode":"CO44001","area_m2":254834}},{"type":"Polygon","arcs":[[417,-416]],"properties":{"codigo":"44001200601047000102","sector":"440012006010470001","pcode":"CO44001","area_m2":175072}}]}},"arcs":[[[5588,9663],[-4,-23],[-54,-1]],[[5530,9639],[-2,33]],[[5528,9672],[25,3]],[[5553,9675],[4,0]],[[5557,9675],[-1,-17],[32,5]],[[5890,9607],[20,-32]],[[5910,9575],[9,-15]],[[5919,9560],[-30,-5],[-2,26],[-63,-15]],[[5824,9566],[-5,30]],[[5819,9596],[-4,22],[28,13],[16,-27],[23,4],[8,-1]],[[5680,9468],[4,-36]],[[5684,9432],[-36,-1],[-43,-2],[-34,3]],[[5571,9432],[4,14]],[[5575,9446],[6,27]],[[5581,9473],[6,27]],[[5587,9500],[34,4],[45,9],[23,3]],[[5689,9516],[6,-24],[-20,-3],[5,-21]],[[5686,9532],[3,-16]],[[5587,9500],[9,40]],[[5596,9540],[56,15]],[[5652,9555],[20,5]],[[5672,9560],[10,-15],[4,-13]],[[5596,9540],[9,35]],[[5605,9575],[25,12]],[[5630,9587],[14,-17],[8,-15]],[[5630,9587],[19,9]],[[5649,9596],[3,-3],[20,-33]],[[5605,9575],[-64,-29]],[[5541,9546],[-6,46],[-4,26],[-1,21]],[[5588,9663],[37,2]],[[5625,9665],[-20,-90]],[[5528,9672],[-2,37]],[[5526,9709],[25,3]],[[5551,9712],[2,-37]],[[5588,9663],[2,17],[-33,-5]],[[5551,9712],[87,11]],[[5638,9723],[-13,-58]],[[5968,9695],[-28,20],[-14,5],[-20,2],[-24,-5],[-31,-12]],[[5851,9705],[-14,29],[-4,14]],[[5833,9748],[-8,26]],[[5825,9774],[59,6],[65,4],[6,2]],[[5955,9786],[13,-91]],[[5541,9546],[-4,-1]],[[5537,9545],[-76,-36]],[[5461,9509],[-15,20],[-5,10],[17,3],[-9,22]],[[5449,9564],[10,2],[31,17],[-2,22]],[[5488,9605],[-2,25]],[[5486,9630],[-3,40]],[[5483,9670],[45,2]],[[5778,9588],[-52,-12],[-54,-16]],[[5649,9596],[53,24]],[[5702,9620],[57,27]],[[5759,9647],[9,-20],[1,-15],[9,-24]],[[5824,9566],[-38,-10]],[[5786,9556],[-100,-24]],[[5778,9588],[41,8]],[[5759,9647],[1,1]],[[5760,9648],[55,25],[6,7],[6,13],[6,2]],[[5833,9695],[57,-88]],[[5985,9456],[6,-10]],[[5991,9446],[-19,-5],[-2,4],[-56,-13]],[[5914,9432],[-14,41]],[[5900,9473],[66,14]],[[5966,9487],[19,-31]],[[5968,9695],[49,-36]],[[6017,9659],[-18,-14],[-9,-19],[-13,1],[-13,-3],[9,-23],[-50,-11],[4,-10]],[[5927,9580],[-17,-5]],[[5833,9695],[18,10]],[[5343,9607],[2,-23]],[[5345,9584],[8,-54]],[[5353,9530],[-31,-7],[-1,7]],[[5321,9530],[-5,42],[-4,15]],[[5312,9587],[-11,35]],[[5301,9622],[38,10]],[[5339,9632],[4,-25]],[[5534,9474],[-3,-12]],[[5531,9462],[-8,2],[-72,2],[1,-3]],[[5452,9463],[-23,-2],[-10,29]],[[5419,9490],[9,4]],[[5428,9494],[33,15]],[[5537,9545],[1,-20],[-4,-51]],[[5581,9473],[-47,1]],[[5575,9446],[-47,2],[3,14]],[[3125,817],[6,-7],[-17,-13],[-3,-7],[-12,-1],[-12,-7],[8,-11],[-18,-11],[-15,-11],[-8,-10],[-5,10],[-14,-16],[-7,-3],[-19,15],[8,6],[-7,6],[12,7],[-3,4],[11,7],[17,-1],[19,16],[19,7],[37,26],[3,-6]],[[3143,832],[0,0]],[[3283,1030],[8,-6],[-10,-4],[8,-8],[-4,-3],[-21,2],[-4,12],[6,7],[13,7],[4,-7]],[[3310,1001],[16,-2],[-5,-21],[-10,6],[4,4],[-18,18],[3,3],[10,-8]],[[3472,4255],[-9,1],[-4,-11],[-9,-8],[9,-14],[-5,-40],[1,-13],[12,-15]],[[3467,4155],[-19,-2],[-10,4],[0,6],[-23,3],[-10,0]],[[3405,4166],[1,6],[16,27],[8,18],[7,24],[1,16]],[[3438,4257],[3,11],[19,-4],[14,-7],[-2,-2]],[[7883,3482],[-61,21]],[[7822,3503],[-22,11],[-26,17]],[[7774,3531],[-6,4],[8,8],[7,-5],[8,2],[2,6],[23,-5],[6,1],[2,10],[6,-1],[5,-39],[6,-10],[32,-3],[-1,-4],[19,-3],[-8,-10]],[[1439,4602],[-19,10],[-19,4],[-72,24],[-4,0]],[[1325,4640],[14,5],[-6,7],[17,10],[29,9],[7,0],[1,12],[10,9],[16,-5],[-12,-18],[-1,-5],[19,-1],[25,-5],[-4,-12],[20,-12],[6,-15],[-16,-6],[-20,-2],[9,-9]],[[2487,194],[-10,-1],[-2,17],[10,3],[7,-9],[-5,-10]],[[2467,201],[3,-7],[-10,-1],[-8,-6],[-7,8],[13,5],[3,4],[6,-3]],[[2477,220],[-9,0],[8,5],[1,-5]],[[2932,3912],[15,-5],[-2,-5],[12,-7],[16,-5],[-5,-14],[6,-6],[-30,11],[9,6],[-21,8],[-4,5],[4,12]],[[8102,8275],[-6,-9],[13,-8],[2,-8],[-9,-13],[12,-3],[-7,-9],[-7,-2],[-14,4],[-16,0],[23,-9],[-1,-7],[-6,-3],[-15,3],[-3,-9],[7,-7],[-13,-3],[-14,16],[-1,-16],[-3,-3],[-14,4],[6,18],[-16,3],[-6,6],[8,22],[29,-9],[10,9],[1,9],[10,18],[2,9],[11,-6],[7,9],[10,-6]],[[9980,2651],[-18,5],[-24,-2],[4,11],[-21,2],[0,5],[13,1],[12,-8],[21,-2],[1,4],[28,0],[-2,-18],[-14,2]],[[8522,3293],[18,-1],[13,-26],[7,-5],[2,-8],[17,-13],[3,5],[12,-7],[12,-15],[17,-13],[-6,-3],[-89,29],[-6,-15],[-17,8],[5,13],[-18,5],[-32,3],[-30,0],[-3,14],[13,2],[3,5],[12,5],[3,9],[7,-1],[4,8],[9,-5],[9,10],[16,-5],[19,9],[0,-8]],[[8456,3304],[8,-1],[-7,-9],[-8,9],[-11,4],[3,18],[12,-4],[-1,-10],[4,-7]],[[5978,5145],[9,0],[5,-11],[-8,-2],[7,-14],[9,3],[5,-21],[18,-5],[-6,-35],[-10,0],[-2,-6],[-11,1],[-2,-8],[-8,2],[-5,7],[-11,-3],[-7,5],[-27,1],[-2,-11],[-16,1],[1,14],[22,1],[9,17],[8,8],[13,0],[0,27],[-5,-1],[3,34],[11,-4]],[[1655,6317],[3,-2],[-3,28],[12,2],[1,-12],[6,-2],[16,9],[-1,-26],[6,-11],[-1,-9],[16,0],[4,-8],[13,0],[-22,-35],[-2,12],[-9,-3],[3,-9],[-17,0],[3,6],[-4,12],[-20,-7],[-12,-9],[-4,18],[-7,13],[-7,7],[22,-3],[19,4],[4,8],[-10,9],[-7,-3],[-5,6],[-26,-5],[-3,9],[8,5],[0,9],[-9,-5],[-5,5],[4,6],[9,4],[19,-20],[6,-3]],[[2180,7312],[1,0]],[[2181,7312],[4,-31],[17,2]],[[2202,7283],[0,-14],[-13,1],[-10,8],[-8,-4],[-5,7],[-9,0],[0,-7],[-14,-5],[-5,-8],[-21,6],[-15,7],[-12,10],[0,13],[-6,0],[-5,12],[12,8],[-7,2],[4,14]],[[2088,7333],[10,-1],[16,-8],[9,-7],[57,-5]],[[187,4174],[-6,24],[-3,5]],[[178,4203],[58,16],[11,1],[23,7],[8,9],[8,-1],[44,11],[7,-4],[7,-34],[-50,-9],[-1,-8],[16,4],[2,-3],[-39,-12],[-7,-5],[-4,6],[-6,-3],[-9,-23],[-5,-6],[-8,1],[6,11],[-11,0],[-4,-9],[-19,1],[1,12],[6,1],[-3,18],[-14,-2],[1,-4],[-9,-4]],[[7321,2424],[-10,-16],[0,-23],[4,-22],[-12,0],[-3,28],[-7,9],[-16,2],[2,3],[-24,-1],[-4,2],[1,15],[4,4],[-4,19],[-15,37],[1,13],[7,3],[11,-4],[20,-1],[-2,14],[12,2]],[[7286,2508],[7,1],[4,-46],[5,-34],[9,-4],[10,-1]],[[7268,2521],[-8,-1],[-6,16],[11,1],[3,-16]],[[2277,7329],[2,-8],[9,0],[0,-5],[17,-1],[-1,-5],[24,4],[6,-3],[-8,-10],[15,-4],[-9,-26],[-12,0],[-13,8],[-6,-7],[-8,5],[-15,3],[-10,-9],[-2,10],[-16,-3],[-2,7],[-46,-2]],[[2181,7312],[77,-5],[0,12],[19,10]],[[5951,3779],[-1,-22],[11,-4],[4,-10],[-3,-6],[9,-5],[-3,-5],[10,-17]],[[5978,3710],[-19,-4],[-33,7],[8,12],[-8,5],[-12,-11],[-8,9],[1,27],[8,1],[-4,10],[13,4],[4,5],[-4,13],[6,-4],[21,-5]],[[2455,3877],[-2,-8],[20,-10],[-3,-6],[22,-13],[-2,-4],[-19,11],[-1,-16],[-12,4],[-20,-4],[-6,8],[-9,-10],[-6,2],[2,15],[-5,-3],[-14,6],[-13,2],[12,6],[8,-2],[6,9],[5,20],[17,-12],[6,18],[16,-3],[-2,-10]],[[2138,4141],[13,4],[-1,-15],[10,-13],[5,1],[3,9],[18,-17],[6,0],[9,-6],[-7,-2],[7,-5],[-11,-6],[-15,-3],[-27,-1],[-16,3],[-3,5],[19,8],[-16,14],[-2,7],[-8,8],[16,9]],[[5951,3779],[13,-4],[-3,-7],[12,-10],[9,5],[10,-9],[7,1],[1,-7],[8,0],[0,-7],[-18,-5],[6,-7],[-6,-7],[9,-7],[-5,-5],[-7,6],[-9,-6]],[[2180,7312],[-2,15],[27,2],[4,37]],[[2209,7366],[6,0],[-1,-7],[9,-2],[1,18],[22,2],[1,-7],[17,4],[3,-9],[13,3],[-6,2],[-3,9],[-7,-2],[-3,7],[11,3],[8,9],[18,5],[17,2],[9,-12],[-10,1],[-24,-5],[1,-4],[18,3],[9,-9],[13,5],[12,-12],[-66,-40],[0,-1]],[[2128,4145],[-10,-2],[-10,20],[15,11],[17,-18],[-12,-11]],[[2088,7333],[-10,16],[3,6],[59,2],[0,10],[24,-5],[17,0],[0,4],[28,2],[0,-2]],[[7286,2508],[-8,12],[14,0],[-1,6],[-10,2],[6,3],[0,14],[18,-3],[-1,-15],[2,-10],[12,-1],[6,-12],[7,-3],[15,7],[-1,7],[12,0],[4,-7],[-27,-22],[4,-1],[-12,-57],[-5,-4]],[[1071,4675],[-4,-11],[21,-3],[-3,-10],[-18,3],[-28,-13],[-12,6],[4,11],[-4,1],[1,9],[-14,13],[-17,-40],[-23,-9],[-24,9],[23,51],[-11,3],[-6,7],[4,8],[7,-3],[14,3],[21,-15],[44,-21],[7,11],[2,26],[4,0],[0,-11],[4,-6],[13,-4],[-5,-15]],[[2410,424],[-6,3],[-15,-6],[-5,8],[13,8],[13,11],[6,-3],[2,7],[22,13],[3,-3],[-7,-7],[8,-11],[-14,-5],[-20,-15]],[[187,4174],[-9,-11],[-9,-3],[-7,16],[-18,-2],[1,14],[-37,-11],[3,-6],[-12,-1],[4,-8],[-3,-5],[-3,9],[-14,-1],[-21,-6],[-3,4],[-6,-7],[-12,-2],[-26,-9],[-4,-3],[-11,11],[25,5],[73,22],[28,7],[18,9],[11,0],[23,7]],[[4928,9140],[-1,42],[-12,23],[-18,43],[55,25]],[[4952,9273],[50,-125]],[[5002,9148],[-15,-1]],[[4987,9147],[-28,-2],[-31,-5]],[[5914,9432],[0,-17]],[[5914,9415],[-15,0],[-36,-3],[0,-14],[-15,1],[3,-20],[-25,-5],[-4,25],[-9,0],[-3,-11],[-20,-1]],[[5790,9387],[0,49]],[[5790,9436],[30,2],[6,20]],[[5826,9458],[4,19],[9,6],[54,12],[7,-22]],[[5425,9683],[-11,-3],[-56,-28],[4,-14],[-23,-6]],[[5301,9622],[-10,-2],[-2,6],[1,31]],[[5290,9657],[8,9],[7,0],[23,8],[15,8],[3,11],[-5,9],[8,3],[10,-6],[19,1]],[[5378,9700],[9,-14],[19,10],[-1,10],[15,3],[5,-26]],[[7800,3463],[11,16],[11,24]],[[7883,3482],[-1,-7],[-19,-5],[-1,-14],[-10,-31],[-32,2],[-9,26],[0,7],[-11,3]],[[5779,4348],[11,7],[29,-3],[7,1],[-1,-6],[-22,-18],[-3,-11],[-10,1],[-7,-9],[-8,-21],[-18,-3],[-6,-5],[-8,3],[-7,-5],[-3,7],[-11,8],[9,10],[1,7],[9,7],[-10,3],[6,10],[10,-3],[8,21],[12,-2],[6,13],[8,-3],[-2,-9]],[[5937,3641],[24,-46],[2,-7],[-4,-14],[-5,-9],[-35,5],[-24,0],[-30,5],[-14,0],[-4,67],[61,1],[7,0],[-13,22],[14,-2],[12,-6],[9,-16]],[[5755,2744],[30,14],[-14,-42],[-11,-13],[-29,-21],[-13,12],[2,5],[-5,12],[-20,-15],[-3,2],[-15,-13],[-8,2],[-2,-6],[-9,3],[8,12],[-3,2],[18,14],[10,5],[-6,8],[16,5],[-3,20],[14,1],[1,-10],[7,4],[-18,19],[15,14],[9,-5],[29,-29]],[[5654,2712],[7,2],[0,-7],[-15,2],[-10,-5],[0,6],[15,7],[3,-5]],[[3405,4166],[-25,19],[4,8],[-7,3],[11,12],[4,11],[9,-4],[19,28],[4,16],[14,-2]],[[3405,4227],[-13,4],[6,14],[12,-4],[-5,-14]],[[3472,4255],[12,-4],[2,3],[15,-6],[7,10],[26,-5],[-1,-24],[11,-1],[-1,-17],[-6,-16],[-20,6],[-2,-6],[5,-24],[-17,-1],[-1,-22],[-20,1],[-6,-6],[-6,3],[-3,9]],[[7800,3463],[-17,-34],[-7,1],[11,40],[-49,13],[-19,5],[48,37],[7,6]],[[5394,1537],[8,16],[31,53],[8,17],[-64,-6],[-20,-2],[-34,-5]],[[5323,1610],[-1,11],[20,2],[-4,18],[29,5],[-6,7],[4,11],[-7,5],[-4,12],[21,2],[1,-15],[-5,-1],[2,-12],[10,1],[2,14],[8,5],[22,0],[-3,-20],[11,-1],[17,2],[10,-3],[9,5],[3,-14],[-9,-5],[3,-5],[-3,-12],[-9,-10],[1,-10],[-18,-20],[17,-12],[10,-4],[-4,-10],[5,-1],[-5,-8],[-35,10],[-12,-22],[-9,2]],[[5394,1537],[-16,-9],[-24,-6],[-4,20],[3,13],[32,5],[-1,7],[-19,0],[-2,12],[-17,-2],[0,5],[12,1],[-5,25],[-31,-3],[1,5]],[[2392,47],[7,-2],[-2,-9],[13,2],[4,-12],[-11,-3],[-3,-5],[5,-8],[-8,-5],[0,-5],[-18,3],[-8,6],[-2,18],[8,1],[-2,6],[7,1],[10,12]],[[2362,79],[11,-8],[10,1],[11,-13],[-10,-7],[-14,8],[3,4],[-11,6],[0,9]],[[3843,1542],[10,-1],[7,-6],[-4,-6],[16,5],[8,-15],[-8,-9],[3,-6],[-1,-16],[4,-13],[6,-4],[21,10],[11,-15],[-29,-21],[-11,9],[-18,8],[-11,-2],[-42,-10],[23,20],[-10,8],[9,9],[3,-1],[14,18],[-5,29],[-4,7],[8,2]],[[1439,4602],[-8,-12],[-20,-1],[-12,16],[-10,2],[-6,-12],[-2,9],[-13,1],[0,8],[-16,4],[-2,-10],[-31,7],[6,26]],[[2658,3791],[14,2],[4,-4],[-6,-10],[5,-6],[-2,-10],[-33,4],[-12,8],[2,4],[12,6],[9,0],[-1,8],[8,-2]],[[7250,3436],[8,0],[-1,-16],[10,-4],[-1,-12],[2,-16],[23,-7],[5,-9],[8,0],[8,-6],[-5,-6],[-16,5],[0,7],[-94,-2],[31,18],[-2,8],[2,23],[3,8],[11,1],[3,9],[5,-1]],[[3639,1327],[8,-3],[0,-9],[-6,-2],[-14,-23],[-14,-15],[-15,-2],[-10,-10],[-18,-13],[-14,7],[6,9],[-5,3],[2,10],[8,6],[-8,2],[22,18],[-8,7],[15,2],[7,6],[16,7],[12,0],[1,5],[15,-5]],[[5807,9843],[3,-15]],[[5810,9828],[-68,-10]],[[5742,9818],[-8,23],[-12,-4]],[[5722,9837],[-16,-8],[-39,-11],[-9,-7]],[[5658,9811],[0,19]],[[5658,9830],[9,3],[18,9],[-2,10],[22,2],[17,4],[19,8],[-1,11],[21,1],[19,4],[7,5],[0,7],[6,2]],[[5793,9896],[7,-21],[-12,-19],[14,3],[5,-16]],[[6003,9428],[9,-15]],[[6012,9413],[-49,-10],[-55,-7]],[[5908,9396],[6,19]],[[5991,9446],[12,-18]],[[5742,9818],[4,-23]],[[5746,9795],[3,-29]],[[5749,9766],[3,-28]],[[5752,9738],[-35,-5]],[[5717,9733],[0,25],[-2,38],[2,27],[5,14]],[[5818,9802],[-35,-3],[-37,-4]],[[5810,9828],[8,-26]],[[5749,9766],[76,8]],[[5833,9748],[-42,-6],[-39,-4]],[[5818,9802],[7,-28]],[[5760,9648],[-2,23],[-1,23]],[[5757,9694],[-1,22],[-4,22]],[[5625,9665],[59,12]],[[5684,9677],[18,-57]],[[6054,9525],[5,-52],[-28,-5],[-46,-12]],[[5966,9487],[-21,33]],[[5945,9520],[12,2],[40,4],[22,-1],[35,0]],[[5738,9241],[-5,41]],[[5733,9282],[-6,19]],[[5727,9301],[71,13]],[[5798,9314],[5,-19]],[[5803,9295],[-17,-3],[5,-15],[5,-25]],[[5796,9252],[-58,-11]],[[6111,9416],[-47,-1],[1,-14],[7,-52],[-2,-6]],[[6070,9343],[-22,-5]],[[6048,9338],[-2,12],[-7,20],[-27,43]],[[6003,9428],[58,13],[0,4],[27,-1],[-2,-14],[24,-1],[1,-13]],[[5486,9630],[-54,-4],[-45,-8],[-44,-11]],[[5425,9683],[2,-18],[56,5]],[[5452,9463],[6,-47],[2,-19]],[[5460,9397],[-67,-2]],[[5393,9395],[-37,65]],[[5356,9460],[21,10]],[[5377,9470],[42,20]],[[5794,8856],[-1,-4]],[[5793,8852],[-13,-5],[-11,-1],[5,20],[-67,3],[-6,2],[2,19],[-8,1],[3,20],[8,-1]],[[5706,8910],[26,0]],[[5732,8910],[74,-3]],[[5806,8907],[-12,-51]],[[5282,9359],[-7,-14],[-44,-2],[3,14],[-3,2],[-17,35]],[[5214,9394],[12,6]],[[5226,9400],[83,39]],[[5309,9439],[4,-15],[-5,-2],[-12,-31]],[[5296,9391],[-14,-32]],[[5950,8854],[-6,-28],[-57,-10],[-55,-7],[-24,-2],[-23,-1],[-2,2],[9,24],[1,20]],[[5794,8856],[31,-7],[2,7],[24,-2],[99,0]],[[5697,9144],[-20,1],[0,-10],[6,0],[-1,-20],[13,0],[-1,-20],[-19,0],[-6,-50],[-22,0],[0,-7],[68,-2]],[[5715,9036],[-3,-47]],[[5712,8989],[-24,1],[-1,-21]],[[5687,8969],[-20,2],[0,20],[-34,1],[6,53],[4,2],[-11,22],[3,12],[-2,14],[16,2],[4,13],[3,40],[21,0],[9,47],[-1,26]],[[5685,9223],[16,3],[-4,-82]],[[5071,9166],[-16,36],[59,16]],[[5114,9218],[36,9]],[[5150,9227],[-1,-48]],[[5149,9179],[-76,-13]],[[5073,9166],[-2,0]],[[5378,9700],[21,6],[6,6],[10,2],[19,13],[21,9],[6,5]],[[5461,9741],[0,-3],[63,7],[2,-36]],[[5779,9104],[1,17],[22,2],[-1,8],[5,33],[0,10]],[[5806,9174],[68,-3]],[[5874,9171],[-9,-21],[-3,-25]],[[5862,9125],[-1,-9]],[[5861,9116],[-35,-4],[-47,-8]],[[5224,9192],[-75,-13]],[[5150,9227],[1,39],[-7,33]],[[5144,9299],[1,0]],[[5145,9299],[30,-17],[26,-3],[41,0],[2,-5],[-25,-51],[21,3],[-16,-34]],[[5912,9314],[-22,-3],[-32,-13],[-19,3]],[[5839,9301],[-36,-6]],[[5798,9314],[-6,26]],[[5792,9340],[20,3],[2,-8],[29,6],[-1,21],[60,11],[2,-1]],[[5904,9372],[8,-58]],[[5721,9354],[2,-30]],[[5723,9324],[-38,-6],[-57,-12]],[[5628,9306],[-68,-14],[0,12],[-48,-9]],[[5512,9295],[1,8],[-29,0],[1,18],[47,1],[86,1],[4,1]],[[5622,9324],[40,18],[18,4],[27,-1],[0,9]],[[5707,9354],[14,0]],[[6100,8946],[-3,3],[-23,2],[2,16],[7,0],[2,16],[-15,2],[-1,32],[-14,1],[-1,-11],[-8,1],[2,28]],[[6048,9036],[62,-1]],[[6110,9035],[-4,-48],[0,-9],[-6,-32]],[[5428,9494],[-9,18],[-1,8],[-20,-1],[-3,10],[-27,-13],[-5,15],[-3,0]],[[5360,9531],[-3,25],[12,1],[1,-9],[21,3],[0,3],[19,4],[39,6]],[[4910,9090],[5,48]],[[4915,9138],[13,2]],[[4987,9147],[-2,-47],[2,-7]],[[4987,9093],[-77,-3]],[[6048,9338],[-40,-7],[-51,-12],[-45,-5]],[[5904,9372],[0,13],[4,11]],[[5839,9032],[-8,-24]],[[5831,9008],[-94,3],[1,24],[-23,1]],[[5715,9036],[2,59]],[[5717,9095],[23,-1],[24,9],[15,1]],[[5861,9116],[-4,-32],[-18,-52]],[[5918,9276],[-71,-14]],[[5847,9262],[-8,39]],[[5912,9314],[6,-38]],[[5309,9439],[24,11]],[[5333,9450],[23,10]],[[5393,9395],[-28,-2],[-54,-1],[-15,-1]],[[5948,9831],[-8,3],[-26,-4],[-2,12],[-51,-8],[-2,1],[-49,-7]],[[5807,9843],[103,30]],[[5910,9873],[30,-27],[8,-15]],[[6100,8946],[-8,-6],[-5,-31],[-9,-2],[-24,0],[-1,-25],[4,-1],[-6,-29],[-51,2],[0,2],[-21,0],[5,29],[-27,5]],[[5957,8890],[31,151]],[[5988,9041],[13,-2],[47,-3]],[[5687,8969],[0,-7],[23,-1],[0,-20]],[[5710,8941],[-122,3],[-78,2],[-5,-8],[-18,-1],[-13,-4],[-8,-6],[-23,4],[-23,2],[-31,-1],[-58,-5]],[[5331,8927],[8,20]],[[5339,8947],[9,20]],[[5348,8967],[6,18]],[[5354,8985],[29,75],[28,70],[11,32],[28,69]],[[5450,9231],[2,1]],[[5452,9232],[61,11]],[[5513,9243],[123,22]],[[5636,9265],[21,3]],[[5657,9268],[16,-46],[12,1]],[[5740,9178],[-19,0],[-1,-35]],[[5720,9143],[-23,1]],[[5657,9268],[76,14]],[[5738,9241],[2,-24],[0,-39]],[[5229,9507],[2,-11],[-14,-5],[3,-32],[-18,-4]],[[5202,9455],[-16,50],[-25,-6]],[[5161,9499],[-3,9],[-8,-2],[-8,22]],[[5142,9528],[37,5],[-1,8],[14,2],[-5,13],[29,4]],[[5216,9560],[3,-11]],[[5219,9549],[10,-42]],[[5957,8890],[-7,-36]],[[5806,8907],[3,6]],[[5809,8913],[17,72]],[[5826,8985],[5,23]],[[5839,9032],[10,-1],[42,7],[35,3],[32,-5],[30,5]],[[6020,9193],[-15,-70]],[[6005,9123],[-34,-1],[-24,3],[-32,0],[-19,1],[-34,-1]],[[5874,9171],[13,25]],[[5887,9196],[1,-2],[32,-4],[38,-1],[32,3],[30,1]],[[6137,9212],[-86,1],[-1,12],[5,11],[2,16],[33,2],[-2,12],[14,1],[-1,15],[-15,2],[2,11],[-20,2],[2,14],[-25,2]],[[6045,9313],[3,25]],[[6070,9343],[60,11],[39,8],[66,12],[20,9],[6,7],[-12,4],[-22,13]],[[6227,9407],[-8,21],[15,16],[-4,9],[-20,11],[0,12],[7,17],[7,7]],[[6224,9500],[82,-63]],[[6306,9437],[57,-44],[13,-11],[16,-23],[25,-53],[21,-19],[-3,-7],[-12,-3],[-20,0],[-30,-3],[-19,2],[-21,-6],[-10,-14],[-16,-10],[-11,-2],[-4,3],[-52,-5],[-41,3],[-53,-5],[19,-22],[-15,-6],[-13,0]],[[5638,9723],[79,10]],[[5757,9694],[-73,-17]],[[5450,9231],[-55,-9],[-35,-15]],[[5360,9207],[-8,41],[-5,36],[42,-3],[56,-3],[8,-2],[1,-6],[13,2],[-4,-14],[-11,-26]],[[5706,8910],[4,31]],[[5712,8989],[23,0]],[[5735,8989],[-2,-45]],[[5733,8944],[-1,-34]],[[5914,9889],[-9,-11],[5,-5]],[[5793,9896],[5,0],[53,9],[18,2]],[[5869,9907],[14,-2],[31,-16]],[[5002,9148],[18,2],[51,16]],[[5073,9166],[7,-58],[-51,5],[3,-19],[-17,1],[-28,-2]],[[6137,9212],[2,-33],[39,0],[-2,-22],[6,-1],[1,-32],[-44,4],[-20,1],[-9,-94]],[[5988,9041],[17,82]],[[6020,9193],[14,68]],[[6034,9261],[11,52]],[[5826,9458],[-9,0],[-7,28],[-5,9]],[[5805,9495],[-8,24]],[[5797,9519],[55,10],[34,2],[15,3],[29,9]],[[5930,9543],[15,-23]],[[5887,9196],[15,25]],[[5902,9221],[18,29]],[[5920,9250],[24,-5],[5,9],[85,7]],[[5138,9461],[-23,-5],[-4,9],[-9,-1],[-9,28],[8,2],[-2,7],[14,8],[-5,14],[9,1]],[[5117,9524],[21,-63]],[[5488,9605],[-45,-3],[-37,-6],[-41,-9],[-20,-3]],[[5786,9556],[11,-37]],[[5805,9495],[-77,-12],[-31,-4],[1,-12],[-18,1]],[[5920,9250],[-2,26]],[[5790,9436],[-46,-1],[-60,-3]],[[5809,8913],[-33,2],[1,27],[-44,2]],[[5735,8989],[91,-4]],[[5792,9340],[-2,47]],[[5919,9560],[11,-17]],[[5312,9587],[-41,-9],[-56,-9],[1,-9]],[[5142,9528],[-25,-4]],[[5138,9461],[3,-8],[19,2]],[[5160,9455],[34,-70]],[[5194,9385],[-59,-27]],[[5135,9358],[-41,-19]],[[5094,9339],[-8,18],[-22,77],[0,10],[7,33],[-13,28],[23,10],[2,32],[3,9],[14,8]],[[5100,9564],[4,-1],[2,-26],[41,5],[-15,43],[62,13],[-7,28]],[[5187,9626],[28,8],[11,8],[27,4],[37,11]],[[6095,9522],[-19,3],[-22,0]],[[5927,9580],[3,-8],[16,5],[9,-26],[47,18],[33,7],[26,-3],[16,14],[17,13]],[[6094,9600],[12,-9]],[[6106,9591],[-14,-24],[4,-30],[-1,-15]],[[5460,9397],[61,3]],[[5521,9400],[0,-13],[-8,-1],[0,-11],[-52,-2],[0,-1],[-71,1],[-32,-5],[-8,-3],[-53,-6],[-15,0]],[[4910,9090],[-65,-4],[1,40],[69,12]],[[5219,9549],[43,6],[31,6],[12,-34]],[[5305,9527],[3,-7]],[[5308,9520],[-20,-5],[-31,-2],[-28,-6]],[[5333,9450],[-25,70]],[[5305,9527],[16,3]],[[5353,9530],[1,0]],[[5354,9530],[16,-47],[7,-13]],[[5720,9143],[-3,-48]],[[6079,9768],[0,-10],[-5,-12],[0,-14],[-4,-18],[-7,-12],[-7,-22],[4,-10],[-7,-2],[-8,6],[-13,-4],[0,-10],[6,-10],[11,-3],[21,0],[23,-3],[10,7],[14,0],[15,-18],[13,-8],[20,-2],[7,-9],[12,-1],[33,13],[23,-8],[9,1],[9,14],[18,-3],[14,3],[8,7],[9,2],[28,-8],[5,9],[17,2],[7,-12],[-5,-6],[-12,-3],[-8,2],[-12,-9],[-4,-7],[2,-7],[12,-12],[9,-1],[9,4],[19,15],[1,9],[8,4],[23,0],[4,-11],[-5,-10],[4,-12],[-53,-59],[-21,-29],[-11,-22],[-18,-42]],[[6224,9500],[-75,58]],[[6149,9558],[-43,33]],[[6094,9600],[-77,59]],[[5955,9786],[-5,37]],[[5950,9823],[-2,8]],[[5914,9889],[15,-4],[22,-11],[9,-8],[11,-27],[10,-9],[11,-3],[28,-1],[13,-5],[14,-12],[6,-25],[15,-6],[11,-10]],[[5226,9400],[-24,55]],[[5869,9907],[34,9],[17,4],[159,53],[72,26],[6,-10],[-14,-8],[0,-13],[-9,-37],[1,-13],[-5,-3],[7,-17],[7,-8],[2,-19],[-3,-9],[0,-50],[-19,-10],[18,-19],[35,-27],[-3,-9],[16,-11],[8,-9],[1,-13],[-42,16],[-1,31],[-50,4],[0,-12],[-27,15]],[[5636,9265],[-8,41]],[[5723,9324],[4,-23]],[[5565,9405],[43,-6],[1,-11],[8,-1],[-4,-26],[4,-29],[5,-8]],[[5512,9295],[1,-13],[9,2],[0,-11],[-9,-2],[0,-28]],[[5360,9207],[-5,-1],[-49,1],[-82,-15]],[[5145,9299],[-4,14],[-2,29],[-4,16]],[[5194,9385],[20,9]],[[5521,9400],[44,5]],[[6227,9407],[-3,-2],[-33,-7],[-2,13],[-21,-1],[-3,4],[-23,-2],[-1,4],[-30,0]],[[6095,9522],[53,6],[-6,13],[7,17]],[[4952,9273],[142,66]],[[5144,9299],[-64,-2],[9,-20],[8,-22],[17,-37]],[[5801,9236],[-5,16]],[[5847,9262],[2,-17]],[[5849,9245],[-48,-9]],[[5160,9455],[-14,40],[15,4]],[[5354,9530],[6,1]],[[5100,9564],[4,6],[0,9],[27,29],[40,9],[5,6],[11,3]],[[5818,9802],[82,10],[36,6],[14,5]],[[5658,9811],[-20,-88]],[[5461,9741],[10,8],[30,6],[10,4],[7,10],[14,5],[-1,10],[21,0],[12,4],[13,7],[1,11],[24,0],[25,5],[10,9],[-2,9],[23,1]],[[5707,9354],[-1,13],[-17,-1],[-1,14],[-4,52]],[[5790,9387],[-40,-1],[-30,-3],[1,-29]],[[5806,9174],[2,44],[-4,0],[-3,18]],[[5849,9245],[0,-21],[53,-3]],[[5565,9405],[6,27]],[[5740,9178],[66,-4]],[[5354,8985],[-6,-18]],[[5348,8967],[-9,-20]],[[5339,8947],[-8,-20]],[[5331,8927],[-1,-3],[-18,3],[0,5],[-18,1],[-7,8],[7,3],[10,12],[1,21],[5,21],[19,0],[0,-4],[26,-4],[-1,-5]],[[5022,9399],[-23,-7],[3,-12],[-24,-4],[-17,2],[-1,-5],[-9,6],[-6,26],[-30,-14]],[[4915,9391],[-5,17],[-23,-11],[-10,1],[-6,5],[-17,-1],[-4,15],[20,-2],[19,5],[18,-2],[-3,18],[5,4],[29,18],[6,7],[30,-5],[8,7],[27,3],[6,5],[2,-17],[-8,-4],[21,-16],[15,-5],[8,-10],[-26,-2],[2,-7],[-6,-4],[-1,-11]],[[5022,9399],[24,-2],[-5,-7],[15,3],[9,7],[7,-14],[-13,3],[-3,-6],[-13,0],[-10,-7],[-7,-18],[3,-7],[-11,-5],[10,-22],[-10,-3],[2,-5],[-11,-6],[-3,7],[-12,-3],[-4,-10],[-2,11],[-9,1],[-3,-6],[-8,2],[-6,-4],[4,16],[16,5],[8,9],[13,0],[-1,9],[-14,6],[-77,-11],[-3,14],[8,14],[-3,7],[2,14]]]}
