{"type":"Topology","bbox":[-72.9363353080766,10.64473757778687,-72.91707589812722,10.661955614931427],"transform":{"scale":[0.0000019261336082978664,0.0000017219759120469433],"translate":[-72.9363353080766,10.64473757778687]},"objects":{"municipios":{"type":"GeometryCollection","geometries":[{"type":"Polygon","arcs":[[0,1,2,3,4]],"properties":{"codigo":"44110100000000000102","sector":"441101000000000001","pcode":"CO44110","area_m2":168496}},{"type":"Polygon","arcs":[[5,6,-4]],"properties":{"codigo":"44110100000000000101","sector":"441101000000000001","pcode":"CO44110","area_m2":355681}},{"type":"Polygon","arcs":[[7,-1,8]],"properties":{"codigo":"44110100000000000103","sector":"441101000000000001","pcode":"CO44110","area_m2":180552}},{"type":"Polygon","arcs":[[9,10,-6,-3,11]],"properties":{"codigo":"44110100000000000201","sector":"441101000000000002","pcode":"CO44110","area_m2":181579}},{"type":"Polygon","arcs":[[12,13,-12,-2,-8]],"properties":{"codigo":"44110100000000000202","sector":"441101000000000002","pcode":"CO44110","area_m2":242668}},{"type":"Polygon","arcs":[[14,-10,-14]],"properties":{"codigo":"44110100000000000203","sector":"441101000000000002","pcode":"CO44110","area_m2":317059}}]}},"arcs":[[[6780,6106],[-312,-392],[-260,-950]],[[6208,4764],[-1104,347]],[[5104,5111],[-591,367],[-901,643]],[[3612,6121],[724,1559]],[[4336,7680],[337,-51],[-97,-178],[393,-471],[167,172],[231,-326],[-167,-168],[644,-686],[284,-65],[328,596],[324,-397]],[[3612,6121],[-1212,841],[-731,-1687]],[[1669,5275],[-292,23],[288,660],[-39,149],[-361,188],[235,498],[-298,-66],[284,711],[-671,270],[-815,270],[237,498],[926,1523],[1900,-1386],[634,-400],[639,-533]],[[9737,3898],[-1594,500],[-1935,366]],[[6780,6106],[550,985],[106,-59],[-119,-608],[210,-97],[-88,-350],[95,-81],[-38,-504],[160,-33],[73,229],[233,-48],[310,183],[82,-204],[745,-413],[900,-337],[-262,-871]],[[4925,4347],[-151,-527],[-245,-569],[-82,49]],[[4447,3300],[-305,258],[526,386],[-393,326],[-413,161],[21,165],[-231,280],[-584,193],[-1399,206]],[[5104,5111],[-179,-764]],[[9737,3898],[-138,-430],[-124,21],[-482,-588],[-554,67],[-71,-364],[330,46],[234,-160],[-235,-873],[-918,368],[22,521]],[[7801,2506],[18,343],[-1335,946],[-73,172],[-1486,380]],[[7801,2506],[-1092,373],[-121,-295],[127,-41],[-133,-405],[-315,152],[-58,205],[-628,-1082],[-321,-176],[-85,-848],[-267,-389],[24,277],[-260,341],[-362,-450],[-448,77],[-315,196],[766,846],[-629,660],[763,1353]]]}
