{"type":"Topology","bbox":[-73.15299012789319,10.638260888310485,-72.84146632564801,10.96034496196317],"transform":{"scale":[0.00003115549577409504,0.00003221162852812123],"translate":[-73.15299012789319,10.638260888310485]},"objects":{"municipios":{"type":"GeometryCollection","geometries":[{"type":"Polygon","arcs":[[0,1,2,3,4]],"properties":{"codigo":"44650100000000000205","sector":"446501000000000002","pcode":"CO44650","area_m2":92070}},{"type":"Polygon","arcs":[[5,-3,6,7,8]],"properties":{"codigo":"44650100000000000206","sector":"446501000000000002","pcode":"CO44650","area_m2":67982}},{"type":"Polygon","arcs":[[9,10,-4,-6,11,12]],"properties":{"codigo":"44650100000000000207","sector":"446501000000000002","pcode":"CO44650","area_m2":141963}},{"type":"Polygon","arcs":[[13,14,15]],"properties":{"codigo":"44650200404009000101","sector":"446502004040090001","pcode":"CO44650","area_m2":136143}},{"type":"Polygon","arcs":[[16,17,18]],"properties":{"codigo":"44650100000000000106","sector":"446501000000000001","pcode":"CO44650","area_m2":232230}},{"type":"Polygon","arcs":[[19,20,21,22,23,24]],"properties":{"codigo":"44650100000000000307","sector":"446501000000000003","pcode":"CO44650","area_m2":253324}},{"type":"Polygon","arcs":[[-25,25,26,27]],"properties":{"codigo":"44650100000000000308","sector":"446501000000000003","pcode":"CO44650","area_m2":103983}},{"type":"Polygon","arcs":[[28,29,30,31]],"properties":{"codigo":"44650100000000000303","sector":"446501000000000003","pcode":"CO44650","area_m2":101436}},{"type":"Polygon","arcs":[[-10,32,33,34]],"properties":{"codigo":"44650100000000000403","sector":"446501000000000004","pcode":"CO44650","area_m2":153821}},{"type":"Polygon","arcs":[[35,-14,36]],"properties":{"codigo":"44650200404009000102","sector":"446502004040090001","pcode":"CO44650","area_m2":193902}},{"type":"Polygon","arcs":[[37,-20,38]],"properties":{"codigo":"44650100000000000408","sector":"446501000000000004","pcode":"CO44650","area_m2":233259}},{"type":"Polygon","arcs":[[39,40,41,42]],"properties":{"codigo":"44650200803001000102","sector":"446502008030010001","pcode":"CO44650","area_m2":114943}},{"type":"Polygon","arcs":[[-40,43]],"properties":{"codigo":"44650200803001000103","sector":"446502008030010001","pcode":"CO44650","area_m2":81296}},{"type":"MultiPolygon","arcs":[[[44,45,46,47]],[[48]]],"properties":{"codigo":"44650200405003000104","sector":"446502004050030001","pcode":"CO44650","area_m2":39784}},{"type":"Polygon","arcs":[[49,50]],"properties":{"codigo":"44650201002005000102","sector":"446502010020050001","pcode":"CO44650","area_m2":74065}},{"type":"MultiPolygon","arcs":[[[51]],[[52]]],"properties":{"codigo":"44650200803026000101","sector":"446502008030260001","pcode":"CO44650","area_m2":67165}},{"type":"Polygon","arcs":[[53]],"properties":{"codigo":"44650200405006000101","sector":"446502004050060001","pcode":"CO44650","area_m2":175925}},{"type":"MultiPolygon","arcs":[[[54,55]],[[56]],[[57]]],"properties":{"codigo":"44650200109007000101","sector":"446502001090070001","pcode":"CO44650","area_m2":82424}},{"type":"Polygon","arcs":[[58,59]],"properties":{"codigo":"44650200109007000103","sector":"446502001090070001","pcode":"CO44650","area_m2":62950}},{"type":"Polygon","arcs":[[60,61]],"properties":{"codigo":"44650200403008000101","sector":"446502004030080001","pcode":"CO44650","area_m2":251864}},{"type":"Polygon","arcs":[[62,63,64,-61]],"properties":{"codigo":"44650200403008000102","sector":"446502004030080001","pcode":"CO44650","area_m2":193375}},{"type":"Polygon","arcs":[[65,66,67,-64]],"properties":{"codigo":"44650200403008000103","sector":"446502004030080001","pcode":"CO44650","area_m2":254858}},{"type":"Polygon","arcs":[[68,69,70,71]],"properties":{"codigo":"44650200504011000102","sector":"446502005040110001","pcode":"CO44650","area_m2":156490}},{"type":"Polygon","arcs":[[72,-69]],"properties":{"codigo":"44650200504011000103","sector":"446502005040110001","pcode":"CO44650","area_m2":127030}},{"type":"Polygon","arcs":[[73,74]],"properties":{"codigo":"44650200902012000101","sector":"446502009020120001","pcode":"CO44650","area_m2":109823}},{"type":"Polygon","arcs":[[75,76]],"properties":{"codigo":"44650200902012000103","sector":"446502009020120001","pcode":"CO44650","area_m2":72363}},{"type":"MultiPolygon","arcs":[[[77]],[[78]]],"properties":{"codigo":"44650200803016000101","sector":"446502008030160001","pcode":"CO44650","area_m2":92378}},{"type":"Polygon","arcs":[[79,80]],"properties":{"codigo":"44650200501017000101","sector":"446502005010170001","pcode":"CO44650","area_m2":76775}},{"type":"Polygon","arcs":[[-80,81]],"properties":{"codigo":"44650200501017000102","sector":"446502005010170001","pcode":"CO44650","area_m2":143430}},{"type":"Polygon","arcs":[[82]],"properties":{"codigo":"44650200503018000101","sector":"446502005030180001","pcode":"CO44650","area_m2":76202}},{"type":"Polygon","arcs":[[83]],"properties":{"codigo":"44650200803022000101","sector":"446502008030220001","pcode":"CO44650","area_m2":104506}},{"type":"Polygon","arcs":[[84,85,86,-23]],"properties":{"codigo":"44650100000000000306","sector":"446501000000000003","pcode":"CO44650","area_m2":150830}},{"type":"Polygon","arcs":[[-76,87,-74,88]],"properties":{"codigo":"44650200902012000102","sector":"446502009020120001","pcode":"CO44650","area_m2":96730}},{"type":"Polygon","arcs":[[89]],"properties":{"codigo":"44650200401023000101","sector":"446502004010230001","pcode":"CO44650","area_m2":15817}},{"type":"Polygon","arcs":[[90]],"properties":{"codigo":"44650200301024000101","sector":"446502003010240001","pcode":"CO44650","area_m2":16015}},{"type":"Polygon","arcs":[[91,92,93,94,95,96,97]],"properties":{"codigo":"44650100000000000105","sector":"446501000000000001","pcode":"CO44650","area_m2":130590}},{"type":"Polygon","arcs":[[98]],"properties":{"codigo":"44650200510027000101","sector":"446502005100270001","pcode":"CO44650","area_m2":74266}},{"type":"Polygon","arcs":[[-24,-87,99,-1,-26]],"properties":{"codigo":"44650100000000000305","sector":"446501000000000003","pcode":"CO44650","area_m2":257949}},{"type":"Polygon","arcs":[[100,101,102]],"properties":{"codigo":"44650100000000000407","sector":"446501000000000004","pcode":"CO44650","area_m2":290538}},{"type":"Polygon","arcs":[[103,104,105,-18,106,107,-94]],"properties":{"codigo":"44650100000000000101","sector":"446501000000000001","pcode":"CO44650","area_m2":248845}},{"type":"Polygon","arcs":[[108,-95,-108,109,110]],"properties":{"codigo":"44650100000000000102","sector":"446501000000000001","pcode":"CO44650","area_m2":193421}},{"type":"Polygon","arcs":[[111,-97,112,-111,113,114]],"properties":{"codigo":"44650100000000000103","sector":"446501000000000001","pcode":"CO44650","area_m2":482329}},{"type":"Polygon","arcs":[[-96,-109,-113]],"properties":{"codigo":"44650100000000000104","sector":"446501000000000001","pcode":"CO44650","area_m2":111433}},{"type":"Polygon","arcs":[[-114,-110,-107,-17,115]],"properties":{"codigo":"44650100000000000107","sector":"446501000000000001","pcode":"CO44650","area_m2":326905}},{"type":"Polygon","arcs":[[116,-105,117,118]],"properties":{"codigo":"44650100000000000201","sector":"446501000000000002","pcode":"CO44650","area_m2":236244}},{"type":"Polygon","arcs":[[119,-118,-104,-93,120]],"properties":{"codigo":"44650100000000000202","sector":"446501000000000002","pcode":"CO44650","area_m2":122030}},{"type":"Polygon","arcs":[[-121,-92,121,122,123]],"properties":{"codigo":"44650100000000000203","sector":"446501000000000002","pcode":"CO44650","area_m2":118105}},{"type":"Polygon","arcs":[[124,-31,125,-123,126,-7,-2]],"properties":{"codigo":"44650100000000000204","sector":"446501000000000002","pcode":"CO44650","area_m2":142732}},{"type":"Polygon","arcs":[[127,128,-12,-9,129,-112,130]],"properties":{"codigo":"44650100000000000208","sector":"446501000000000002","pcode":"CO44650","area_m2":252150}},{"type":"Polygon","arcs":[[-122,-98,-130,-8,-127]],"properties":{"codigo":"44650100000000000209","sector":"446501000000000002","pcode":"CO44650","area_m2":49523}},{"type":"Polygon","arcs":[[131,-119,132,-29,133]],"properties":{"codigo":"44650100000000000301","sector":"446501000000000003","pcode":"CO44650","area_m2":266254}},{"type":"Polygon","arcs":[[-133,-120,-124,-126,-30]],"properties":{"codigo":"44650100000000000302","sector":"446501000000000003","pcode":"CO44650","area_m2":97787}},{"type":"Polygon","arcs":[[-134,-32,-125,-100,-86,134]],"properties":{"codigo":"44650100000000000304","sector":"446501000000000003","pcode":"CO44650","area_m2":260540}},{"type":"Polygon","arcs":[[-22,135,-135,-85]],"properties":{"codigo":"44650100000000000309","sector":"446501000000000003","pcode":"CO44650","area_m2":572652}},{"type":"Polygon","arcs":[[136,137,-128]],"properties":{"codigo":"44650100000000000401","sector":"446501000000000004","pcode":"CO44650","area_m2":333302}},{"type":"Polygon","arcs":[[-13,-129,-138,138,139,-33]],"properties":{"codigo":"44650100000000000402","sector":"446501000000000004","pcode":"CO44650","area_m2":157332}},{"type":"Polygon","arcs":[[-102,140,141,-34,-140,142]],"properties":{"codigo":"44650100000000000404","sector":"446501000000000004","pcode":"CO44650","area_m2":267585}},{"type":"Polygon","arcs":[[-27,-5,-11,-35,-142,143]],"properties":{"codigo":"44650100000000000405","sector":"446501000000000004","pcode":"CO44650","area_m2":137994}},{"type":"Polygon","arcs":[[-39,-28,-144,-141,-101]],"properties":{"codigo":"44650100000000000406","sector":"446501000000000004","pcode":"CO44650","area_m2":280655}},{"type":"MultiPolygon","arcs":[[[144,-42]],[[145]]],"properties":{"codigo":"44650200803001000101","sector":"446502008030010001","pcode":"CO44650","area_m2":90914}},{"type":"Polygon","arcs":[[146,147]],"properties":{"codigo":"44650200102002000101","sector":"446502001020020001","pcode":"CO44650","area_m2":247453}},{"type":"Polygon","arcs":[[148,149,-147,150]],"properties":{"codigo":"44650200102002000102","sector":"446502001020020001","pcode":"CO44650","area_m2":98108}},{"type":"Polygon","arcs":[[151]],"properties":{"codigo":"44650200502025000101","sector":"446502005020250001","pcode":"CO44650","area_m2":89429}},{"type":"Polygon","arcs":[[-149,152]],"properties":{"codigo":"44650200102002000103","sector":"446502001020020001","pcode":"CO44650","area_m2":126923}},{"type":"Polygon","arcs":[[153,154,-47]],"properties":{"codigo":"44650200405003000101","sector":"446502004050030001","pcode":"CO44650","area_m2":20557}},{"type":"Polygon","arcs":[[155,-48,-155,156]],"properties":{"codigo":"44650200405003000102","sector":"446502004050030001","pcode":"CO44650","area_m2":21266}},{"type":"MultiPolygon","arcs":[[[-45,-156,157]],[[158]],[[159]]],"properties":{"codigo":"44650200405003000103","sector":"446502004050030001","pcode":"CO44650","area_m2":25207}},{"type":"MultiPolygon","arcs":[[[160]],[[161]],[[162]]],"properties":{"codigo":"44650200301004000101","sector":"446502003010040001","pcode":"CO44650","area_m2":35505}},{"type":"Polygon","arcs":[[-50,163]],"properties":{"codigo":"44650201002005000101","sector":"446502010020050001","pcode":"CO44650","area_m2":73928}},{"type":"Polygon","arcs":[[-59,164,-55,165]],"properties":{"codigo":"44650200109007000102","sector":"446502001090070001","pcode":"CO44650","area_m2":60594}},{"type":"Polygon","arcs":[[-15,-36,166]],"properties":{"codigo":"44650200404009000103","sector":"446502004040090001","pcode":"CO44650","area_m2":180143}},{"type":"MultiPolygon","arcs":[[[167]],[[168]]],"properties":{"codigo":"44650200302010000101","sector":"446502003020100001","pcode":"CO44650","area_m2":19359}},{"type":"Polygon","arcs":[[-71,169]],"properties":{"codigo":"44650200504011000101","sector":"446502005040110001","pcode":"CO44650","area_m2":113779}},{"type":"Polygon","arcs":[[170,171]],"properties":{"codigo":"44650200501013000101","sector":"446502005010130001","pcode":"CO44650","area_m2":102265}},{"type":"Polygon","arcs":[[-171,172]],"properties":{"codigo":"44650200501013000102","sector":"446502005010130001","pcode":"CO44650","area_m2":164083}},{"type":"Polygon","arcs":[[173,174]],"properties":{"codigo":"44650201001014000101","sector":"446502010010140001","pcode":"CO44650","area_m2":90027}},{"type":"Polygon","arcs":[[-175,175]],"properties":{"codigo":"44650201001014000102","sector":"446502010010140001","pcode":"CO44650","area_m2":89574}},{"type":"Polygon","arcs":[[176]],"properties":{"codigo":"44650201002019000101","sector":"446502010020190001","pcode":"CO44650","area_m2":141459}},{"type":"Polygon","arcs":[[-67,177,178,179]],"properties":{"codigo":"44650200313021000101","sector":"446502003130210001","pcode":"CO44650","area_m2":83842}},{"type":"Polygon","arcs":[[-179,180]],"properties":{"codigo":"44650200313021000102","sector":"446502003130210001","pcode":"CO44650","area_m2":80077}}]}},"arcs":[[[4945,3965],[-31,53]],[[4914,4018],[43,18],[-49,116],[27,9]],[[4935,4161],[19,-46],[15,-28]],[[4969,4087],[33,-76]],[[5002,4011],[-30,-13],[9,-16],[-36,-17]],[[5032,4114],[-63,-27]],[[4935,4161],[25,10],[-17,42]],[[4943,4213],[16,6]],[[4959,4219],[14,5],[18,-43],[-15,-5],[20,-50],[26,12],[10,-24]],[[5066,4103],[25,-55],[20,8],[8,-19],[20,8]],[[5139,4045],[8,-19],[-79,-32],[-8,19],[-49,-20],[-9,18]],[[5032,4114],[4,2]],[[5036,4116],[10,-21],[20,8]],[[955,4309],[-21,-11],[-89,-31],[-30,-8]],[[815,4259],[-28,-3]],[[787,4256],[-1,73],[8,5],[58,5],[29,-1],[29,7],[25,-2],[2,-14],[16,25],[26,1],[12,-4],[-36,-42]],[[4593,4415],[17,-43],[-34,-14],[26,-62]],[[4602,4296],[27,-61],[-92,-34],[-14,-8],[-18,37]],[[4505,4230],[-5,15],[7,22],[-13,18],[25,15],[17,14],[-29,41],[-11,6],[-15,22],[-3,17],[27,-4],[44,15],[5,-2],[34,10],[5,-4]],[[5033,3812],[11,-19]],[[5044,3793],[-8,-4],[-125,-69],[-1,-11],[34,-43]],[[4944,3666],[-13,0],[-32,46]],[[4899,3712],[-18,26],[-14,-8],[-57,86]],[[4810,3816],[80,26],[-10,58],[35,-18]],[[4915,3882],[16,-40],[5,-5],[36,16],[32,-17],[29,-24]],[[4915,3882],[-26,57],[56,26]],[[4945,3965],[21,-35]],[[4966,3930],[67,-118]],[[4713,3982],[-18,38]],[[4695,4020],[93,40],[82,36]],[[4870,4096],[22,-40]],[[4892,4056],[-179,-74]],[[5066,4103],[149,61]],[[5215,4164],[34,-74]],[[5249,4090],[-110,-45]],[[1079,4263],[-52,6],[1,-15],[-37,-6],[-2,-19],[-37,14],[-47,-3],[-21,-3],[-7,9],[-19,7],[-23,0],[-20,6]],[[955,4309],[123,56],[0,-8],[18,-7],[-12,-28],[-4,-33],[-1,-26]],[[5126,3852],[19,-6],[36,-27],[60,-10],[21,-9],[5,-16],[16,-32],[6,-3],[17,-29],[-24,-29],[-15,-12],[-30,19],[-38,30],[-22,12],[-59,38],[-50,31],[-24,-16]],[[5033,3812],[21,6],[1,10],[64,23],[7,1]],[[9925,3717],[4,-58],[-2,-53],[3,-19],[18,2],[11,-28]],[[9959,3561],[6,-16],[-68,9],[-39,2],[-14,5],[7,6]],[[9851,3567],[13,14],[23,2],[-1,57],[-3,43],[7,39],[-12,3]],[[9878,3725],[-2,8],[17,-4],[32,2],[0,-14]],[[9925,3717],[10,-2],[-1,-17],[24,-12],[16,-18],[15,6],[1,-30],[-23,-7],[0,-8],[26,1],[1,-23],[-10,-12],[15,-16],[-40,-18]],[[3162,5684],[18,-14],[49,-45],[20,-13]],[[3249,5612],[-6,-8],[-42,33],[-13,14],[-32,-31],[-22,46]],[[3134,5666],[0,9],[-13,14]],[[3121,5689],[24,0],[17,-5]],[[3271,5584],[-16,9],[3,10],[22,-12],[-9,-7]],[[8387,2556],[16,6],[-8,17],[13,8],[20,1],[46,14]],[[8474,2602],[3,-33],[-2,-25],[-7,6],[-20,-5],[1,-14],[-13,-11],[-34,-15],[-2,-4],[-24,3],[-1,29],[12,23]],[[8406,4378],[-7,-12],[14,-22],[-12,-4],[-3,12],[-32,-14],[-10,10],[-31,-16],[-11,21],[-17,7],[10,36],[14,-3],[-6,-18],[51,14],[-8,15],[55,13],[-16,-22],[12,-10],[-3,-7]],[[8352,4411],[-14,-5],[-4,7],[15,5],[3,-7]],[[1943,5874],[-11,-15],[17,-7],[18,6],[33,-35],[62,-31],[27,-34],[12,14],[33,-6],[32,1],[-1,-6],[48,-5],[22,-6],[3,-9],[14,-9],[-2,-9],[-77,5],[-11,-9],[-16,8],[-6,-7],[-8,9],[-16,-8],[-24,-4],[-16,6],[-1,12],[-39,24],[-14,25],[-24,0],[-33,16],[3,8],[-19,25],[-18,-2],[-5,11],[11,7],[-16,25],[-10,-4],[-8,11],[10,4],[-39,56],[4,7],[13,0],[52,-63],[0,-11]],[[2196,6002],[0,-16],[-18,-8],[13,-16],[0,-13],[-11,-9],[-5,-14],[-10,-6],[-6,-16]],[[2159,5904],[-32,-2],[-9,24],[-11,10],[-17,-5],[1,15],[37,28],[25,-11],[6,2],[-1,19],[-22,15],[7,9],[19,-1],[10,-10],[16,-1],[8,6]],[[2031,5896],[-11,-12],[-16,-8],[-20,15],[14,2],[53,20],[-20,-17]],[[2062,5938],[8,-11],[-17,-12],[-12,16],[21,7]],[[2224,5944],[6,8],[-2,26],[16,26],[0,8]],[[2244,6012],[9,7],[9,-11],[-14,-19],[12,3],[14,-22],[18,-10],[10,3],[8,-10],[11,0],[3,-13],[23,-5],[21,3],[15,-16],[-29,-17],[-21,15],[-3,7],[-21,0],[0,4],[-30,4],[-15,-2],[-6,7],[-19,-2],[-15,6]],[[369,4156],[-47,-6],[-52,4],[-4,10],[-44,36],[-16,-15],[-30,29],[-15,10],[-14,2],[-8,18],[-23,28],[-8,-10],[18,-31],[-7,-8]],[[119,4223],[-19,0],[-10,18],[-3,38],[-12,20],[30,17],[-10,27],[6,14],[-4,10],[23,9],[-12,-18],[24,-24],[10,-14],[7,10],[15,-6],[-6,-18],[24,-15],[34,-11],[12,-19],[0,-18],[38,-7],[34,5],[15,-28],[-1,-15],[11,-32],[9,1],[24,17],[11,-28]],[[369,4156],[19,3],[-22,-24],[14,-24],[11,-8],[-11,-29],[-9,-10]],[[371,4064],[-14,8],[-28,25],[-21,-12],[-7,1],[-22,21],[-20,23],[-19,-25],[-24,15],[-19,22],[-6,-4],[-28,49],[-8,-4],[-9,9],[-24,-10]],[[122,4182],[-2,23],[8,12],[-9,6]],[[371,4064],[-13,-25],[-14,-4],[-47,-46],[-15,-9],[-20,-2],[-17,5],[-10,9],[-1,14],[-21,34],[-24,10],[-7,9],[-19,10]],[[163,4069],[-3,16]],[[160,4085],[-1,42],[-6,21],[-28,3],[-3,31]],[[2605,3318],[-15,-11],[-28,32],[-51,-61],[8,-3],[13,-21]],[[2532,3254],[-43,1],[-34,-9],[-4,-4],[3,-27],[-24,6],[10,22],[11,-1],[2,26]],[[2453,3268],[0,11],[26,20],[-22,20],[14,14],[-11,8],[16,19],[16,12],[-5,7],[54,27]],[[2541,3406],[12,7],[18,-21],[-15,-18],[11,-12],[14,8],[3,-21],[14,-4],[7,-27]],[[2605,3318],[19,-21],[3,7],[16,-20],[3,-11],[16,-19],[-14,-16],[-3,-16],[-29,4],[-34,-24],[-15,17],[18,14],[-9,6],[-31,7],[-13,8]],[[4763,2835],[-26,-3],[3,-26],[-39,-2],[-13,-4],[-8,25],[-36,-1],[9,-51],[-16,0]],[[4637,2773],[-4,62],[5,2],[1,17],[32,1],[0,32],[21,2],[16,16],[10,16],[5,18],[9,-22],[9,-8],[6,-60],[19,4],[7,-16],[-10,-2]],[[4637,2746],[92,2],[52,3]],[[4781,2751],[5,-12],[12,4],[3,-8],[-11,-3],[1,-23],[-14,-4],[-13,16],[-19,-7],[-1,-23],[-44,21],[-47,5],[-16,4],[0,25]],[[8795,4056],[28,-20],[-2,-14],[10,-52],[-8,-8],[-2,12],[-18,10],[5,-10],[0,-22],[-19,-13],[-3,13],[-43,2],[2,8],[15,-1],[2,27],[-12,19],[-6,20],[-7,3],[7,25],[20,-1],[15,29],[7,-20],[9,-7]],[[8784,4092],[0,0]],[[3198,5400],[-1,-9],[10,-3],[-5,-13],[18,-11],[-1,-12],[8,-21],[-8,-24]],[[3219,5307],[-7,-8],[-13,33],[6,13],[-10,14],[-16,12],[-11,-18],[-10,13],[-22,17],[4,3],[-13,12],[-15,6],[-10,-9],[-14,9],[10,15],[21,-8],[11,29],[24,-14],[9,8],[22,-2],[2,-17],[11,-15]],[[3198,5400],[34,0],[9,-7],[24,9],[-2,-19],[18,-6],[-2,-9],[13,-11],[17,8],[13,-7],[8,14],[33,-18],[-24,-9],[-11,-21],[41,-30],[4,-8],[30,-1],[18,-7],[-25,-29],[-13,16],[-42,26],[-11,-18],[-26,11],[8,15],[-54,7],[-19,10],[-7,-13],[-13,4]],[[1574,3573],[7,-4],[32,7],[13,-4],[13,-15],[-10,-13],[5,-8],[-24,-4],[-15,-11],[-5,-10],[-32,-15],[-13,2],[-21,46],[-10,29],[17,2],[14,-4],[24,7],[5,-5]],[[7490,3575],[5,-4],[39,0],[10,8],[18,1],[6,-24],[7,2],[8,-24],[-2,-11],[-10,-3],[23,-23],[-26,-3],[-47,6],[1,4],[-32,-1],[5,-12],[-29,4],[6,14],[-12,-1],[3,26],[14,10],[-27,2],[0,9],[29,7],[-6,25],[17,-12]],[[4899,3712],[-59,-35],[-34,51],[-15,26],[13,7],[-88,133]],[[4716,3894],[-12,16],[57,24]],[[4761,3934],[21,-44],[-23,-9],[19,-18],[32,-47]],[[4637,2746],[-9,30],[9,-3]],[[4763,2835],[-16,-14],[6,-5],[6,-50],[18,-2],[4,-13]],[[1532,6498],[-3,-23],[-25,-10],[2,7],[-31,14],[24,14],[19,-4],[14,2]],[[1469,6797],[15,-9],[-4,-17],[-16,9],[9,3],[-9,8],[-9,-6],[-7,7],[-4,-13],[-13,-10],[-4,10],[13,6],[-10,23],[18,10],[17,-10],[4,-11]],[[4895,4236],[-10,0],[-147,-54]],[[4738,4182],[-35,-12],[-5,5]],[[4698,4175],[-13,29]],[[4685,4204],[70,32],[52,22]],[[4807,4258],[77,30],[8,-16],[40,18]],[[4932,4290],[4,-14]],[[4936,4276],[-24,-19],[-17,-21]],[[2227,89],[-7,-7],[25,-41],[-27,3],[-13,6],[6,-12],[-8,-22],[-13,4],[-12,-20],[-2,12],[-9,4],[7,10],[-15,12],[-36,-23],[-20,-4],[-6,13],[42,22],[-17,17],[8,5],[9,-5],[20,3],[20,12],[-3,8],[23,10],[9,-11],[29,34],[7,-5],[-16,-18],[-1,-7]],[[4761,3934],[-8,20],[161,64]],[[5126,3852],[-27,68],[23,12],[52,19],[61,25],[-6,15]],[[5229,3991],[140,53]],[[5369,4044],[36,-81],[-116,-42],[-52,-21],[-30,-10],[-7,-8],[-73,-28],[-1,-2]],[[4698,4175],[-63,-24],[1,-2]],[[4636,4149],[-116,-40]],[[4520,4109],[0,24],[-13,19],[-21,15],[-23,44],[42,19]],[[4602,4296],[38,12],[41,16]],[[4681,4324],[10,-23],[-43,-17],[37,-80]],[[4790,4298],[17,-40]],[[4681,4324],[31,13],[-16,33],[54,23]],[[4750,4393],[40,-95]],[[5047,4387],[-73,-72],[-38,-39]],[[4932,4290],[-16,37],[26,10],[-16,33],[-31,-12],[-85,-31],[7,-18],[-27,-11]],[[4750,4393],[29,10],[47,21],[29,41]],[[4855,4465],[22,38],[37,-5],[34,27],[86,-49],[20,-37],[2,-15],[-9,-37]],[[4593,4415],[1,5],[37,16],[10,22],[17,8],[-6,13],[26,11],[-9,19],[29,11],[11,-26],[8,4],[10,-16],[18,4],[2,-6],[39,-3],[16,-30],[53,18]],[[4508,3920],[-3,36],[3,14],[2,54],[9,49],[1,36]],[[4636,4149],[42,-91]],[[4678,4058],[-45,-22],[-75,-39],[6,-24],[-36,-30],[-20,-23]],[[4771,4100],[-36,-15],[-57,-27]],[[4738,4182],[33,-82]],[[4895,4236],[-27,-27],[-17,-29]],[[4851,4180],[-4,-24],[5,-24]],[[4852,4132],[-81,-32]],[[4914,4018],[-22,38]],[[4870,4096],[-18,36]],[[4851,4180],[92,33]],[[5143,4329],[-56,-20],[-7,16],[-16,10],[-33,-31],[-21,-13],[-13,-35],[-14,32],[-19,-8],[23,-51],[19,7],[20,-43],[19,8],[20,-45]],[[5065,4156],[-19,-9],[11,-22],[-21,-9]],[[4959,4219],[-23,57]],[[5047,4387],[45,45],[42,-41],[12,-28],[-39,-16],[3,-6],[25,8],[8,-20]],[[4589,3824],[-26,-7],[-21,7],[-7,7],[-13,32],[0,14],[-23,4],[9,39]],[[4678,4058],[17,-38]],[[4713,3982],[-100,-40],[4,-15],[-2,-30],[-26,-73]],[[4716,3894],[-35,-15],[6,-12],[-32,-14],[10,-25],[-41,-5],[-35,1]],[[4944,3666],[7,-7],[-10,-8],[5,-10],[-87,-52],[-20,29],[-24,5],[-14,28],[-9,31],[-39,-2],[-4,-15],[-27,-3],[-32,2],[-34,-6],[-39,-2],[-7,33],[-19,50],[-6,31],[4,54]],[[5143,4329],[31,-77],[59,25],[9,-14],[19,8],[13,-18],[16,-13],[-9,-3]],[[5281,4237],[-48,-14],[-168,-67]],[[5281,4237],[25,-19],[7,-16]],[[5313,4202],[-98,-38]],[[5229,3991],[-18,39]],[[5211,4030],[13,5],[-8,19],[41,17],[-8,19]],[[5313,4202],[26,-54],[22,11],[21,-32],[-2,-7],[-23,-9],[16,-40],[-13,-6],[9,-21]],[[5211,4030],[-74,-30],[-40,-18],[-99,-37],[-32,-15]],[[9851,3567],[-13,7],[4,18],[11,0],[0,49],[-10,0],[2,47],[-36,25],[3,19],[15,7],[51,-14]],[[9805,3582],[-14,0],[-3,14],[16,10],[1,-24]],[[3244,9837],[-19,12],[38,-43],[-14,-12]],[[3249,9794],[-16,-10],[-18,-1],[-3,17],[-10,-8],[-20,-3],[-12,89],[-31,0],[-17,-8],[-8,-16],[-16,-18],[-35,-23],[-2,7],[-23,19],[9,11],[-8,4],[-1,16],[-11,-2],[-4,24],[-12,1],[-25,-14],[-2,30],[17,5],[15,18],[-2,11],[28,-6],[0,7],[20,3],[20,18],[2,34],[8,0],[-2,-16],[7,-10],[-4,-20],[4,-23],[15,-1],[3,-23],[21,0],[5,10],[20,-4],[5,-7],[16,18],[18,14],[0,-16],[-9,-12],[20,-29],[8,-20],[8,6],[20,-25],[-3,-4]],[[3513,9842],[-41,-11],[-39,-8],[-2,-7],[11,-14],[-5,-48],[3,-31],[7,-19]],[[3447,9704],[-9,-9],[-10,32],[4,17],[-10,4],[-32,-2],[-33,9],[6,7],[-32,17],[-53,15],[-2,-11],[-15,15],[-12,-4]],[[3244,9837],[35,-31],[5,-7],[15,2],[-5,14],[16,2],[0,-24],[23,-8],[12,2],[14,-15],[19,20],[14,8],[-2,14],[26,12],[7,-7],[9,6],[10,29],[13,-4],[-8,-16],[26,11],[20,0],[3,7],[16,-1],[1,-9]],[[4012,3424],[13,-27],[-15,-9],[19,-8],[-5,-36],[-38,12],[-50,6],[-43,20],[28,15],[23,37],[15,-17],[28,17],[25,-10]],[[3513,9842],[14,5],[-1,-12],[20,-10],[-6,-7],[-14,0],[10,-17],[-18,-4],[-4,-18],[19,-9],[-2,-5],[16,-12],[-13,-16],[-20,14],[-1,-7],[-22,0],[0,-26],[-14,-14],[-19,2],[-6,-13],[-5,11]],[[3134,5666],[-24,9],[-15,-15],[0,-6],[-21,24],[12,11],[-20,18],[12,7]],[[3078,5714],[43,-25]],[[3153,5707],[19,-10],[-10,-13]],[[3078,5714],[17,13],[11,-3],[29,-22],[6,13],[12,-8]],[[3153,5707],[3,6],[29,-14],[-5,8],[10,15],[15,-8],[-9,-13],[5,-7],[-20,-16],[48,-44],[12,-1],[21,-12],[-13,-9]],[[3271,5599],[0,0]],[[3223,5708],[0,0]],[[1234,6848],[-9,-2],[-3,-12],[-7,7],[-19,-10],[4,-14],[-17,-13],[-12,13],[-17,-13],[0,15],[54,36],[16,8],[10,-15]],[[1271,6882],[8,-11],[-5,-14],[-26,0],[5,9],[-9,12],[22,16],[5,-12]],[[1299,6895],[-9,2],[18,14],[16,19],[3,-5],[-28,-30]],[[8387,2556],[-8,39],[3,13],[-20,12],[20,9],[-1,12],[34,3],[9,15],[4,-8],[33,-3],[2,-8],[15,6],[2,-42],[-6,-2]],[[2224,5944],[6,-14],[-25,-22],[-7,4],[-7,-16],[-9,-4],[-23,12]],[[2196,6002],[18,12],[30,-2]],[[1079,4263],[56,-20],[-3,-8],[-18,-6],[12,-10],[-1,-15],[-21,6],[-10,-2],[23,-30],[-50,-1],[1,14],[-51,-7],[-27,9],[-26,-5],[3,23],[-37,-5],[3,23],[-16,1],[-45,-9],[-3,9],[-31,-12],[0,19],[-28,-2],[-1,7],[-25,-30],[3,44]],[[50,6644],[7,-4],[-10,-29],[-17,-1],[-28,16],[-2,15],[28,0],[1,12],[8,-10],[13,1]],[[43,6668],[-6,12],[7,1],[-1,-13]],[[2453,3268],[-26,-19],[-13,18],[18,19],[-4,11],[-26,29],[24,30],[29,24],[-24,23],[33,32],[6,-15],[34,23],[11,-23],[8,3],[18,-17]],[[4383,5206],[-41,-31],[-12,-14],[-26,-17],[-20,24],[-34,-3]],[[4250,5165],[-1,7],[18,19],[2,15],[-21,9],[13,11],[27,3],[1,22],[20,3],[31,-10],[8,8],[14,-26],[21,-20]],[[4383,5206],[16,-21],[1,-9],[12,-9],[7,7],[17,-17],[-7,-6],[10,-17],[18,1],[6,-8],[-30,-41],[-13,-5],[-24,-21],[-13,22],[-30,13],[-29,19],[-6,-6],[-44,24],[-26,22],[2,11]],[[9690,2965],[-51,6],[-17,-1],[-37,10],[-30,-13],[0,23],[43,8],[2,9],[-21,5],[-12,-4],[-2,25],[-14,-3],[8,18],[32,15],[-13,19],[28,20],[19,7],[-21,-29]],[[9604,3080],[1,-28],[38,-12],[-13,-48],[59,-11],[1,-16]],[[9604,3080],[25,-16],[49,-18],[10,0],[34,-19],[-6,-14],[13,-4],[-3,-12],[12,1],[18,-14],[-14,-20],[-26,3],[-26,-2]],[[8800,2828],[9,5],[1,-15],[12,-2],[1,-16],[20,-6],[-6,-35],[10,-3],[6,-39],[-3,-11],[3,-20],[-18,1],[-32,9],[0,15],[-25,4],[-1,-13],[-15,4],[2,11],[13,-2],[3,17],[10,-3],[-4,13],[-42,8],[-26,13],[28,36],[20,49],[34,-20]],[[163,4069],[-21,-13],[-7,-11],[-20,18],[-32,0],[-19,5],[-9,37],[-11,3],[-10,-8],[-12,6],[5,16]],[[27,4122],[16,18],[28,-11],[13,24],[-4,12],[9,3]],[[89,4168],[15,-45],[-8,-2],[30,-12],[7,-19],[27,-5]],[[27,4122],[-22,20],[-4,14],[10,6],[-5,6],[17,-2],[14,23],[10,9],[-9,21],[-16,12],[13,5],[11,16],[-9,10],[22,6],[1,-11],[11,-4],[3,-45],[8,-8],[7,8],[7,-6],[-15,-17],[8,-17]]]}
