{"type":"Topology","bbox":[-72.78153242665769,11.05236574098433,-72.70734617659167,11.143021057227678],"transform":{"scale":[0.0000074193669432963714,0.000009066438268161604],"translate":[-72.78153242665769,11.05236574098433]},"objects":{"municipios":{"type":"GeometryCollection","geometries":[{"type":"Polygon","arcs":[[0,1,2,3,4]],"properties":{"codigo":"44378100000000000101","sector":"443781000000000001","pcode":"CO44378","area_m2":367277}},{"type":"Polygon","arcs":[[5,6,7,8,9]],"properties":{"codigo":"44378100000000000106","sector":"443781000000000001","pcode":"CO44378","area_m2":60411}},{"type":"Polygon","arcs":[[10,11,12]],"properties":{"codigo":"44378100000000000108","sector":"443781000000000001","pcode":"CO44378","area_m2":80663}},{"type":"Polygon","arcs":[[-3,13,14,-10,15]],"properties":{"codigo":"44378100000000000103","sector":"443781000000000001","pcode":"CO44378","area_m2":114773}},{"type":"Polygon","arcs":[[-6,-15,16,17,18,-11,19,20]],"properties":{"codigo":"44378100000000000104","sector":"443781000000000001","pcode":"CO44378","area_m2":220381}},{"type":"Polygon","arcs":[[21,22,23,-12,-19]],"properties":{"codigo":"44378100000000000105","sector":"443781000000000001","pcode":"CO44378","area_m2":170509}},{"type":"Polygon","arcs":[[24,25,-7,-21]],"properties":{"codigo":"44378100000000000109","sector":"443781000000000001","pcode":"CO44378","area_m2":125530}},{"type":"Polygon","arcs":[[26,-23,27]],"properties":{"codigo":"44378100000000000201","sector":"443781000000000002","pcode":"CO44378","area_m2":133409}},{"type":"Polygon","arcs":[[28,29,-28,-22,-18,30]],"properties":{"codigo":"44378100000000000202","sector":"443781000000000002","pcode":"CO44378","area_m2":236929}},{"type":"Polygon","arcs":[[-2,31,-31,-17,-14]],"properties":{"codigo":"44378100000000000203","sector":"443781000000000002","pcode":"CO44378","area_m2":135653}},{"type":"Polygon","arcs":[[32,-29,-32,-1]],"properties":{"codigo":"44378100000000000204","sector":"443781000000000002","pcode":"CO44378","area_m2":195171}},{"type":"Polygon","arcs":[[33]],"properties":{"codigo":"44378200110004000101","sector":"443782001100040001","pcode":"CO44378","area_m2":162104}},{"type":"MultiPolygon","arcs":[[[34]],[[35]]],"properties":{"codigo":"44378200108005000101","sector":"443782001080050001","pcode":"CO44378","area_m2":121210}},{"type":"Polygon","arcs":[[-8,-26,36,37]],"properties":{"codigo":"44378100000000000110","sector":"443781000000000001","pcode":"CO44378","area_m2":310280}},{"type":"Polygon","arcs":[[38,39,40,-4,-16,-9,-38]],"properties":{"codigo":"44378100000000000102","sector":"443781000000000001","pcode":"CO44378","area_m2":677677}},{"type":"Polygon","arcs":[[41,42]],"properties":{"codigo":"44378200106002000101","sector":"443782001060020001","pcode":"CO44378","area_m2":175921}},{"type":"Polygon","arcs":[[-42,43,44,45]],"properties":{"codigo":"44378200106006000101","sector":"443782001060060001","pcode":"CO44378","area_m2":749491}},{"type":"Polygon","arcs":[[46]],"properties":{"codigo":"44378200101008000101","sector":"443782001010080001","pcode":"CO44378","area_m2":190153}},{"type":"MultiPolygon","arcs":[[[47]],[[48]],[[49]]],"properties":{"codigo":"44378200209013000101","sector":"443782002090130001","pcode":"CO44378","area_m2":334625}}]}},"arcs":[[[4047,1102],[-264,110],[-251,123],[-260,139]],[[3272,1474],[36,42],[3,92]],[[3311,1608],[143,6]],[[3454,1614],[679,190]],[[4133,1804],[124,-288],[162,-392],[-133,-28],[-29,42],[7,53],[-40,9],[-62,-40],[-70,19],[-45,-77]],[[2699,1806],[-179,156]],[[2520,1962],[57,48],[166,88]],[[2743,2098],[27,16]],[[2770,2114],[57,-52],[178,-89]],[[3005,1973],[-306,-167]],[[2063,2140],[108,-165],[-53,-15]],[[2118,1960],[-243,-63]],[[1875,1897],[-107,-1],[-36,31],[14,36],[-77,150],[91,49],[236,11],[42,9],[25,-42]],[[3311,1608],[-135,5],[-48,-66],[-121,66],[-92,7]],[[2915,1620],[-13,90],[-85,3],[-36,-34],[3,49],[-85,78]],[[3005,1973],[68,-63],[37,-73],[81,-79],[94,-10],[71,-26],[98,-108]],[[2915,1620],[-123,-5]],[[2792,1615],[-495,-33]],[[2297,1582],[-50,64],[16,45],[-39,-9],[-106,278]],[[2063,2140],[106,39],[241,117]],[[2410,2296],[-2,-100],[-84,-35],[172,-220],[24,21]],[[2297,1582],[-154,-17]],[[2143,1565],[-122,-53],[-96,-26],[-158,5]],[[1767,1491],[-225,19],[-31,18],[132,49],[-41,64],[16,25],[-29,80],[191,27],[32,-13],[56,64],[-32,46],[39,27]],[[2410,2296],[-11,79],[-42,66],[254,77]],[[2611,2518],[176,-354],[-44,-66]],[[2355,1176],[-100,3],[-77,-15],[-227,19],[-50,-27],[-32,18],[-211,51],[22,41],[115,-28],[-31,50],[17,120],[-14,83]],[[2143,1565],[27,-104],[30,5],[34,-80],[60,-188],[61,-22]],[[2884,1198],[26,-112]],[[2910,1086],[-28,-24],[-168,2],[-106,61],[-149,39],[-104,12]],[[2792,1615],[2,-53],[90,-364]],[[3272,1474],[38,-173],[-426,-103]],[[4047,1102],[-29,-30],[-77,26],[-123,-27],[-105,-7],[-56,-56],[-55,42],[-50,4],[-54,-71],[-55,-1],[-84,46],[-121,4],[-110,54],[-80,11],[-138,-11]],[[942,1611],[68,-89],[20,-48],[54,-48],[-172,-76],[24,-80],[-59,-34],[-55,40],[-47,-12],[10,-41],[-57,-48],[-65,40],[-83,-13],[-12,-46],[-60,-31],[-167,-32],[-82,-50],[-87,-9],[-72,-24],[-100,138],[230,66],[146,35],[198,79],[-38,41],[171,43],[-24,52],[122,42],[28,-54],[21,28],[61,-2],[-21,70],[-126,31],[-26,30],[144,7],[16,53],[44,16],[27,-38],[-31,-36]],[[3268,3050],[48,-25],[-75,-21],[19,-78],[-137,-50],[-51,85],[-217,-29],[-137,-49],[8,-56],[-87,-36],[10,-20],[-82,-30],[-3,-38],[-46,-12],[-42,92],[-100,-7],[-28,150],[-38,-24],[-36,52],[79,24],[47,-73],[-5,43],[69,2],[46,-52],[2,40],[106,13],[98,74],[106,47],[100,-2],[106,-44],[219,60],[21,-36]],[[2354,3070],[-3,-36],[-89,6],[33,71],[59,-41]],[[2611,2518],[-69,133],[45,-27],[42,17],[65,-48],[43,59],[-3,44],[37,-29],[58,96],[57,-77],[242,179],[72,-61],[34,24],[80,-71],[226,101],[155,-130]],[[3695,2728],[-483,-315],[-198,-118],[-99,-89],[-145,-92]],[[3695,2728],[82,53]],[[3777,2781],[57,37]],[[3834,2818],[27,17],[-53,-108],[-8,-80],[30,-113],[303,-730]],[[5241,3781],[-67,93]],[[5174,3874],[68,12],[-27,56],[119,31],[68,55],[45,13],[30,58],[-99,109],[8,21],[-30,109],[44,89],[71,3],[51,-79],[162,-43],[52,-94],[88,42],[53,-41],[39,23],[46,-54],[-47,-30],[51,-54],[-83,-38],[-42,51],[-123,-59],[82,-87],[-104,-58],[-189,-86],[-62,105],[-142,-93],[-62,-54]],[[5241,3781],[-271,-231],[-78,-55],[-464,-295],[-594,-382]],[[3834,2818],[-57,-37]],[[3777,2781],[-22,55],[-50,217],[9,92],[-114,62],[-27,45],[-93,74],[114,95],[8,74],[104,-42],[10,59],[150,80],[-5,33],[108,37],[11,-11],[107,47],[44,-2],[15,70],[-52,129],[129,-59],[46,-64],[14,-116],[127,76],[105,39],[-141,137],[106,45],[28,40],[70,-33],[90,27],[123,-31],[64,-57],[79,61],[68,-61],[99,-27],[73,2]],[[9873,9999],[17,-78],[99,25],[10,-37],[-73,-18],[8,-146],[-47,-24],[-40,-115],[-117,31],[-17,-43],[-86,11],[-71,-29],[128,-82],[63,-68],[96,-67],[-75,-18],[73,-128],[-42,-24],[64,-60],[14,-118],[-49,1],[-107,86],[-33,-29],[-106,-9],[-80,85],[1,146],[-38,57],[-56,21],[-68,96],[96,32],[80,59],[-19,42],[34,20],[3,69],[151,57],[54,-55],[87,96],[-127,20],[-2,30],[93,3],[60,25],[-24,65],[-70,-22],[-11,27],[68,48],[59,18]],[[3834,616],[164,-34],[104,-60],[23,-41],[-169,-26],[-108,-3],[-67,-18],[3,-49],[-53,-3],[-28,-47],[-4,-66],[30,-29],[-22,-42],[-42,3],[-34,-58],[21,-26],[-62,-26],[-83,-10],[-73,-76],[-36,39],[87,98],[-124,16],[-26,-27],[-46,33],[45,36],[-43,20],[6,77],[-207,-66],[-139,-23],[-56,-68],[47,-85],[-143,-51],[-79,71],[-113,-61],[-99,58],[-21,-72],[-57,13],[-31,65],[-141,-10],[1,33],[120,67],[21,28],[95,-42],[177,112],[36,-30],[25,58],[96,75],[48,17],[150,13],[82,39],[85,-10],[133,-33],[126,51],[22,-42],[120,12],[30,29],[-17,90],[19,43],[-29,21],[35,34],[27,85],[63,-60],[111,-42]],[[3311,702],[-54,24],[114,29],[7,-25],[-67,-28]],[[3513,754],[-63,23],[99,33],[74,-25],[-110,-31]]]}
