{"type":"Topology","bbox":[-72.81978671135903,10.871736858476387,-72.72742712526912,11.024555864700186],"transform":{"scale":[0.00000923688229722099,0.000015283428965276456],"translate":[-72.81978671135903,10.871736858476387]},"objects":{"municipios":{"type":"GeometryCollection","geometries":[{"type":"Polygon","arcs":[[0,1,2,3,4]],"properties":{"codigo":"44078200408014000101","sector":"440782004080140001","pcode":"CO44078","area_m2":116948}},{"type":"Polygon","arcs":[[5,6]],"properties":{"codigo":"44078200307009000101","sector":"440782003070090001","pcode":"CO44078","area_m2":89715}},{"type":"Polygon","arcs":[[7,-6]],"properties":{"codigo":"44078200307009000102","sector":"440782003070090001","pcode":"CO44078","area_m2":150489}},{"type":"MultiPolygon","arcs":[[[-2,8,9]],[[-4,10]]],"properties":{"codigo":"44078200408015000101","sector":"440782004080150001","pcode":"CO44078","area_m2":55218}},{"type":"Polygon","arcs":[[11,12,13,14,15]],"properties":{"codigo":"44078100000000000102","sector":"440781000000000001","pcode":"CO44078","area_m2":118010}},{"type":"Polygon","arcs":[[16]],"properties":{"codigo":"44078200502001000101","sector":"440782005020010001","pcode":"CO44078","area_m2":142502}},{"type":"Polygon","arcs":[[17,18,19]],"properties":{"codigo":"44078200307006000101","sector":"440782003070060001","pcode":"CO44078","area_m2":190652}},{"type":"Polygon","arcs":[[20,21,-18,22]],"properties":{"codigo":"44078200307006000102","sector":"440782003070060001","pcode":"CO44078","area_m2":144091}},{"type":"Polygon","arcs":[[-22,23,24,-19]],"properties":{"codigo":"44078200307006000103","sector":"440782003070060001","pcode":"CO44078","area_m2":203200}},{"type":"Polygon","arcs":[[25,-24,-21]],"properties":{"codigo":"44078200307006000104","sector":"440782003070060001","pcode":"CO44078","area_m2":235031}},{"type":"Polygon","arcs":[[26]],"properties":{"codigo":"44078200502007000101","sector":"440782005020070001","pcode":"CO44078","area_m2":70043}},{"type":"Polygon","arcs":[[27]],"properties":{"codigo":"44078200506008000101","sector":"440782005060080001","pcode":"CO44078","area_m2":447554}},{"type":"Polygon","arcs":[[28]],"properties":{"codigo":"44078200306011000101","sector":"440782003060110001","pcode":"CO44078","area_m2":240314}},{"type":"Polygon","arcs":[[29]],"properties":{"codigo":"44078200307013000101","sector":"440782003070130001","pcode":"CO44078","area_m2":120683}},{"type":"Polygon","arcs":[[-9,-1,30]],"properties":{"codigo":"44078200502016000101","sector":"440782005020160001","pcode":"CO44078","area_m2":129128}},{"type":"Polygon","arcs":[[31,32,33]],"properties":{"codigo":"44078100000000000207","sector":"440781000000000002","pcode":"CO44078","area_m2":97802}},{"type":"Polygon","arcs":[[34,35,36]],"properties":{"codigo":"44078100000000000501","sector":"440781000000000005","pcode":"CO44078","area_m2":293965}},{"type":"Polygon","arcs":[[37,38,39,40]],"properties":{"codigo":"44078100000000000206","sector":"440781000000000002","pcode":"CO44078","area_m2":138021}},{"type":"Polygon","arcs":[[41,42,43,-38]],"properties":{"codigo":"44078100000000000203","sector":"440781000000000002","pcode":"CO44078","area_m2":227803}},{"type":"Polygon","arcs":[[-33,44,45,-35,46]],"properties":{"codigo":"44078100000000000205","sector":"440781000000000002","pcode":"CO44078","area_m2":305625}},{"type":"Polygon","arcs":[[47,48,49,-12]],"properties":{"codigo":"44078100000000000101","sector":"440781000000000001","pcode":"CO44078","area_m2":135388}},{"type":"Polygon","arcs":[[50,51,52]],"properties":{"codigo":"44078100000000000309","sector":"440781000000000003","pcode":"CO44078","area_m2":393901}},{"type":"Polygon","arcs":[[53,54,55,56,-43]],"properties":{"codigo":"44078100000000000202","sector":"440781000000000002","pcode":"CO44078","area_m2":253322}},{"type":"MultiPolygon","arcs":[[[57,58,59,60,61,-36,-46]],[[62,63]]],"properties":{"codigo":"44078100000000000301","sector":"440781000000000003","pcode":"CO44078","area_m2":557148}},{"type":"Polygon","arcs":[[64,65,-55,66]],"properties":{"codigo":"44078100000000000104","sector":"440781000000000001","pcode":"CO44078","area_m2":320444}},{"type":"Polygon","arcs":[[67,-40,68,69,-58,-45,-32]],"properties":{"codigo":"44078100000000000204","sector":"440781000000000002","pcode":"CO44078","area_m2":226225}},{"type":"Polygon","arcs":[[70,-52,71,72,73,-65]],"properties":{"codigo":"44078100000000000105","sector":"440781000000000001","pcode":"CO44078","area_m2":575695}},{"type":"Polygon","arcs":[[74,75,-15,76,77,78]],"properties":{"codigo":"44078100000000000305","sector":"440781000000000003","pcode":"CO44078","area_m2":451663}},{"type":"Polygon","arcs":[[-48,-16,-76,79,80,81]],"properties":{"codigo":"44078100000000000304","sector":"440781000000000003","pcode":"CO44078","area_m2":254616}},{"type":"Polygon","arcs":[[-81,82,-60,83]],"properties":{"codigo":"44078100000000000302","sector":"440781000000000003","pcode":"CO44078","area_m2":485737}},{"type":"Polygon","arcs":[[84,85,86,87,-73]],"properties":{"codigo":"44078100000000000307","sector":"440781000000000003","pcode":"CO44078","area_m2":247688}},{"type":"Polygon","arcs":[[-49,-82,-84,-59,-70,88]],"properties":{"codigo":"44078100000000000303","sector":"440781000000000003","pcode":"CO44078","area_m2":188737}},{"type":"Polygon","arcs":[[-39,-44,-57,-13,-50,-89,-69]],"properties":{"codigo":"44078100000000000201","sector":"440781000000000002","pcode":"CO44078","area_m2":350792}},{"type":"Polygon","arcs":[[-51,89,-85,-72]],"properties":{"codigo":"44078100000000000308","sector":"440781000000000003","pcode":"CO44078","area_m2":232899}},{"type":"Polygon","arcs":[[90]],"properties":{"codigo":"44078100000000000310","sector":"440781000000000003","pcode":"CO44078","area_m2":62345}},{"type":"Polygon","arcs":[[91,-87,92,-78]],"properties":{"codigo":"44078100000000000306","sector":"440781000000000003","pcode":"CO44078","area_m2":333889}},{"type":"Polygon","arcs":[[-80,-75,93,-63,94,-61,-83]],"properties":{"codigo":"44078100000000000401","sector":"440781000000000004","pcode":"CO44078","area_m2":553862}},{"type":"Polygon","arcs":[[-88,-92,-77,-14,-56,-66,-74]],"properties":{"codigo":"44078100000000000103","sector":"440781000000000001","pcode":"CO44078","area_m2":201018}},{"type":"MultiPolygon","arcs":[[[95]],[[96]],[[97]]],"properties":{"codigo":"44078200502017000101","sector":"440782005020170001","pcode":"CO44078","area_m2":156890}},{"type":"Polygon","arcs":[[98]],"properties":{"codigo":"44078200308018000101","sector":"440782003080180001","pcode":"CO44078","area_m2":13246}},{"type":"Polygon","arcs":[[99]],"properties":{"codigo":"44078200308019000101","sector":"440782003080190001","pcode":"CO44078","area_m2":83419}}]}},"arcs":[[[1397,4116],[-62,-89]],[[1335,4027],[-65,6],[-242,3]],[[1028,4036],[-100,54]],[[928,4090],[-26,19]],[[902,4109],[19,32],[37,-17],[95,-1],[177,109],[70,13],[54,-13],[84,-56],[-41,-60]],[[861,6777],[-228,89],[-70,20],[-204,5],[12,-28],[-69,-13]],[[302,6850],[-107,-1],[-27,79],[82,65],[144,33],[9,-37],[42,16],[59,-79],[69,10],[28,-34],[97,-41],[25,10],[99,-41],[39,-53]],[[861,6777],[17,-23],[-111,-16],[4,-13],[-83,-10],[14,-37],[-151,-43],[-30,69],[-141,-9],[5,-26],[-44,-7],[-39,188]],[[1335,4027],[-30,-53],[1,-69]],[[1306,3905],[-121,-15],[-1,42],[-108,3],[-1,31],[-50,1],[3,69]],[[928,4090],[-26,19]],[[2879,5538],[463,73]],[[3342,5611],[-44,-62],[15,-53]],[[3313,5496],[-715,-141]],[[2598,5355],[109,68]],[[2707,5423],[172,115]],[[2464,2635],[14,-71],[33,1],[6,-48],[39,1],[12,-34],[61,21],[7,-67],[-24,-35],[-67,11],[0,-19],[-68,-1],[-13,-23],[-134,-6],[-16,40],[-86,1],[-2,24],[-78,7],[48,114],[75,-28],[13,38],[-23,80],[203,-6]],[[4785,8343],[37,-43],[-100,-37],[-186,-14]],[[4536,8249],[-42,0],[-478,-43]],[[4016,8206],[-12,32],[54,19],[32,35],[50,6],[22,93],[87,13],[18,-30],[53,-12],[87,3],[76,22],[-17,51],[166,21],[34,-35],[64,-13],[55,-68]],[[5156,8210],[-90,11],[-82,-10],[-309,-58],[-130,-18]],[[4545,8135],[-9,114]],[[4785,8343],[170,25],[50,-24],[147,32],[45,-158],[-41,-8]],[[4545,8135],[0,-72],[-263,-36],[5,-68],[-37,-67]],[[4250,7892],[-140,-5],[-18,50],[36,23],[-5,40],[-123,-24],[-20,42],[-41,31],[114,16],[5,60],[49,-10],[33,-33],[40,5],[-1,38],[71,7],[9,27],[-156,-7],[-54,14],[-33,40]],[[5156,8210],[-31,-5],[23,-35],[-65,-13],[25,-46],[-96,-19],[63,-19],[142,-68],[-116,-17],[24,-40],[-86,-15],[-11,24],[-70,-11],[-114,28],[-28,91],[-91,-18],[-14,23],[-130,-29],[-6,-34],[-120,1],[37,-91],[-89,-44],[-153,19]],[[1380,3815],[145,-114],[-228,-47],[-149,-23],[-9,139],[75,16],[14,-17],[160,19],[-8,27]],[[9681,239],[-7,-15],[76,-8],[-9,-30],[216,-14],[42,-20],[-57,-14],[35,-86],[-150,-30],[-70,3],[-222,90],[-39,-6],[0,-49],[-361,9],[-8,-20],[-310,-25],[-110,-20],[-108,-4],[-6,44],[-45,3],[-7,54],[124,1],[19,14],[-9,64],[179,31],[175,20],[154,6],[252,51],[146,84],[32,1],[102,-70],[-34,-64]],[[473,8535],[-8,-107],[118,32],[2,-26],[72,15],[26,-55],[-119,-27],[17,-12],[-227,-36],[23,-76],[-39,-119],[-135,-8],[-74,-20],[-129,-10],[2,35],[82,2],[118,56],[-96,2],[-20,69],[113,90],[-48,31],[-58,7],[-12,61],[35,10],[-36,56],[12,30],[81,7],[18,-42],[94,9],[-6,20],[71,10],[22,-18],[67,21],[34,-7]],[[4299,7765],[72,-178],[-28,-27],[3,-37],[-45,-5],[98,-33],[-50,-52],[-96,40],[-45,-11],[31,32],[-76,14],[-173,79],[36,5],[181,178],[58,23],[34,-28]],[[1397,4116],[19,-45],[171,-1],[98,-19],[25,-24],[-14,-53],[29,-35],[-56,4],[89,-41],[-29,-25],[-57,24],[-45,-21],[-144,-10],[-118,1],[-31,-12],[-28,46]],[[4043,6029],[-33,69],[-92,-13],[-28,58],[60,34],[-11,15]],[[3939,6192],[107,63]],[[4046,6255],[194,-69],[99,-67],[-132,-61],[-164,-29]],[[3840,6592],[-309,1]],[[3531,6593],[2,33]],[[3533,6626],[46,418],[206,-1],[0,-18],[93,12],[3,-72],[25,-103],[47,-90],[22,-1],[59,-121],[-106,-57],[-88,-1]],[[4113,5593],[-60,46]],[[4053,5639],[-90,152],[-41,-10],[-46,74]],[[3876,5855],[168,39]],[[4044,5894],[36,9],[162,-42],[101,-39],[-104,-65],[67,-23],[-39,-22],[10,-59],[-28,-26],[-53,3],[-83,-37]],[[4113,5593],[-6,-33],[37,-35],[9,-53],[-114,-96],[-50,-64]],[[3989,5312],[-111,36],[-44,-16],[-22,34],[-131,-41],[-39,52],[-88,90],[-47,68]],[[3507,5535],[104,16],[226,48],[8,-10],[208,50]],[[3939,6192],[-165,-6],[-288,2]],[[3486,6188],[45,405]],[[3840,6592],[-1,-91],[65,8],[104,-55],[-65,-48],[85,-29],[-86,-84],[104,-38]],[[2879,5538],[188,125]],[[3067,5663],[307,206],[89,85]],[[3463,5954],[-13,-173],[-22,-79],[-86,-91]],[[1310,5239],[636,-333]],[[1946,4906],[-42,-55]],[[1904,4851],[-150,-218],[-437,177],[-90,176],[83,253]],[[3989,5312],[31,-27],[-105,-46],[32,-58],[-69,-1],[-13,-30],[-226,-62],[-59,34],[-109,27],[-132,16]],[[3339,5165],[-7,14],[176,32],[-48,75],[-97,130]],[[3363,5416],[-50,80]],[[3313,5496],[194,39]],[[3486,6188],[-7,-86]],[[3479,6102],[-99,23]],[[3380,6125],[-495,123],[-442,114]],[[2443,6362],[-18,4]],[[2425,6366],[76,59],[110,-41],[171,12],[85,105],[-55,77],[271,23],[450,25]],[[2276,6404],[-73,18]],[[2203,6422],[20,31],[42,-3],[6,53],[43,43],[-1,-109],[-37,-33]],[[3231,5116],[-86,-7],[-26,40],[-404,-72],[-28,36],[-142,-30],[-25,31],[-148,-44],[-46,77]],[[2326,5147],[234,29],[290,118],[318,54],[81,34],[114,34]],[[3339,5165],[17,-59],[-125,10]],[[4043,6029],[-73,-14],[24,-56],[50,-65]],[[3876,5855],[-70,-15],[-15,28],[-81,-14],[-82,184],[-159,-20]],[[3469,6018],[10,84]],[[3231,5116],[-87,-24],[-33,-57],[-49,-11],[6,-58],[-94,-19],[-63,-40],[-33,0],[-94,-73],[-76,-162],[-83,-37],[-179,-42],[-151,221],[-193,92],[-135,-66],[-63,11]],[[1946,4906],[40,41],[81,56]],[[2067,5003],[194,128]],[[2261,5131],[65,16]],[[2091,5931],[166,-1],[11,-28],[-130,-33],[186,-209],[119,-79]],[[2443,5581],[264,-158]],[[2598,5355],[-223,-149]],[[2375,5206],[-106,56],[70,47],[-351,191],[-137,81],[142,43],[-100,125],[-148,-11],[-17,26]],[[1728,5764],[233,39],[-35,41],[136,46],[-43,48],[72,-7]],[[2443,5581],[274,88],[-100,175],[-14,13]],[[2603,5857],[216,63]],[[2819,5920],[44,-80],[82,22],[62,-92],[60,-107]],[[2603,5857],[-58,101],[-29,72],[-85,143],[-55,78],[67,111]],[[3380,6125],[-5,-95],[17,-42],[-110,-32],[-31,38],[-298,-84],[-43,37],[-91,-27]],[[2067,5003],[-116,63],[56,36],[-242,127],[-62,71],[-303,14]],[[1400,5314],[-35,105],[283,57]],[[1648,5476],[195,-98],[27,-21],[407,-217]],[[2277,5140],[-16,-9]],[[3469,6018],[-6,-64]],[[1310,5239],[-36,82],[126,-7]],[[1263,5665],[20,-41],[29,2],[24,-39],[-62,5],[-122,-10],[-43,234],[185,14],[14,-40],[-55,-12],[24,-71],[-14,-42]],[[2375,5206],[-98,-66]],[[1648,5476],[-90,44],[63,7],[-22,50],[63,23],[-92,35],[-68,-7],[-11,19],[53,16],[-45,52],[221,61],[8,-12]],[[2091,5931],[-72,74],[35,12],[-33,31],[98,37],[-26,40],[9,37],[-22,51],[24,87],[-189,50],[84,123],[204,-51]],[[2276,6404],[149,-38]],[[5311,3230],[37,-5],[44,-86],[-122,-23],[-70,77],[52,30],[59,7]],[[4858,3272],[127,-46],[-120,-35],[49,-35],[98,-50],[-27,-22],[-57,27],[15,13],[-84,46],[-53,12],[-48,-17],[-79,-78],[-62,-29],[18,-42],[-62,51],[3,34],[73,44],[10,-18],[54,41],[-22,15],[101,76],[66,13]],[[5375,3351],[107,4],[-65,-33],[-109,-37],[35,-23],[-59,-18],[-119,-1],[-32,-32],[-43,15],[-52,-16],[34,33],[-87,38],[35,55],[40,-39],[52,22],[29,41],[66,2],[-66,55],[49,20],[55,46],[-10,-75],[96,-49],[44,-8]],[[7840,9692],[3,-17],[-95,-7],[-26,57],[-52,-13],[-57,33],[-83,-4],[95,22],[59,-26],[70,-1],[14,-32],[72,-12]],[[8630,9832],[-52,12],[116,56],[40,-27],[114,87],[79,32],[113,7],[18,-41],[29,10],[52,-29],[58,11],[89,-40],[-40,-24],[-76,-13],[-37,24],[-30,-68],[-2,61],[-77,11],[8,22],[-89,-2],[-5,-40],[-174,-54],[-68,-34],[-11,20],[55,35],[-20,16],[-68,-41],[-22,9]]]}
