{"type":"Topology","bbox":[-72.64832647133665,11.097319146287365,-72.44987494458587,11.315930108476142],"transform":{"scale":[0.000019847137388816196,0.000021863282547132376],"translate":[-72.64832647133665,11.097319146287365]},"objects":{"municipios":{"type":"GeometryCollection","geometries":[{"type":"Polygon","arcs":[[0,1,2]],"properties":{"codigo":"44035100000000000103","sector":"440351000000000001","pcode":"CO44035","area_m2":136521}},{"type":"Polygon","arcs":[[3,4,5,6,7]],"properties":{"codigo":"44035100000000000202","sector":"440351000000000002","pcode":"CO44035","area_m2":203036}},{"type":"Polygon","arcs":[[8]],"properties":{"codigo":"44035200602006000101","sector":"440352006020060001","pcode":"CO44035","area_m2":308559}},{"type":"Polygon","arcs":[[-5,9,10]],"properties":{"codigo":"44035100000000000205","sector":"440351000000000002","pcode":"CO44035","area_m2":89216}},{"type":"Polygon","arcs":[[11,12,13,14]],"properties":{"codigo":"44035100000000000302","sector":"440351000000000003","pcode":"CO44035","area_m2":202723}},{"type":"Polygon","arcs":[[15]],"properties":{"codigo":"44035200203002000101","sector":"440352002030020001","pcode":"CO44035","area_m2":28190}},{"type":"Polygon","arcs":[[16]],"properties":{"codigo":"44035200603004000101","sector":"440352006030040001","pcode":"CO44035","area_m2":86897}},{"type":"Polygon","arcs":[[-14,17]],"properties":{"codigo":"44035100000000000301","sector":"440351000000000003","pcode":"CO44035","area_m2":107121}},{"type":"Polygon","arcs":[[-2,18,19,20,21]],"properties":{"codigo":"44035100000000000101","sector":"440351000000000001","pcode":"CO44035","area_m2":476078}},{"type":"Polygon","arcs":[[22,-3,-22,23,24]],"properties":{"codigo":"44035100000000000102","sector":"440351000000000001","pcode":"CO44035","area_m2":339140}},{"type":"Polygon","arcs":[[-25,25,26]],"properties":{"codigo":"44035100000000000104","sector":"440351000000000001","pcode":"CO44035","area_m2":113899}},{"type":"Polygon","arcs":[[27,-7,28,29]],"properties":{"codigo":"44035100000000000201","sector":"440351000000000002","pcode":"CO44035","area_m2":142287}},{"type":"Polygon","arcs":[[-8,-28,30]],"properties":{"codigo":"44035100000000000203","sector":"440351000000000002","pcode":"CO44035","area_m2":210557}},{"type":"Polygon","arcs":[[-6,-11,31,-29]],"properties":{"codigo":"44035100000000000204","sector":"440351000000000002","pcode":"CO44035","area_m2":429683}},{"type":"Polygon","arcs":[[32,33,-12,34,-26]],"properties":{"codigo":"44035100000000000401","sector":"440351000000000004","pcode":"CO44035","area_m2":604796}},{"type":"Polygon","arcs":[[-33,-24,-21,35,36]],"properties":{"codigo":"44035100000000000501","sector":"440351000000000005","pcode":"CO44035","area_m2":1772283}},{"type":"Polygon","arcs":[[37,-36,-20]],"properties":{"codigo":"44035100000000000502","sector":"440351000000000005","pcode":"CO44035","area_m2":3402047}},{"type":"Polygon","arcs":[[38]],"properties":{"codigo":"44035200504003000101","sector":"440352005040030001","pcode":"CO44035","area_m2":197072}},{"type":"Polygon","arcs":[[39]],"properties":{"codigo":"44035200603005000101","sector":"440352006030050001","pcode":"CO44035","area_m2":446631}}]}},"arcs":[[[3022,2785],[-7,-54],[-121,19],[-68,-39],[-37,3]],[[2789,2714],[11,61],[-30,73],[-2,22],[39,9]],[[2807,2879],[44,10],[52,-42],[75,-49],[44,-13]],[[2015,3972],[2,-53],[109,4],[17,-23],[20,-5],[0,-39],[-157,3],[-112,-1]],[[1894,3858],[-46,0]],[[1848,3858],[-15,109],[-5,2]],[[1828,3969],[-21,105],[-34,-5],[-11,52]],[[1762,4121],[91,-3],[6,-37],[10,1],[9,-104],[-12,-7],[149,1]],[[9948,5156],[22,-11],[1,-31],[21,-15],[7,-37],[-182,-19],[-90,91],[-84,115],[285,83],[19,-38],[4,-28],[-46,-11],[14,-66],[29,-33]],[[1894,3858],[-17,-21],[-93,-17],[-54,5],[-76,-2],[-56,4],[-13,13],[-40,-2],[-19,-16],[1,-22],[-18,-5],[-26,-28],[-20,4]],[[1463,3771],[-12,27],[-2,60],[173,1],[226,-1]],[[2875,3575],[22,-22]],[[2897,3553],[-86,-103],[-238,213]],[[2573,3663],[92,77]],[[2665,3740],[124,-104],[86,-61]],[[5413,9999],[-17,-42],[17,-4],[31,20],[18,-10],[-51,-14],[-15,-16],[-37,-18],[2,23],[-28,-15],[8,-17],[-47,-7],[-7,31],[58,24],[68,45]],[[8786,5089],[10,-22],[61,-48],[15,-32],[-36,-22],[-20,2],[3,-43],[43,6],[26,-12],[5,-16],[-30,-4],[26,-16],[-14,-8],[-23,25],[-30,-6],[-12,29],[-30,-6],[-26,27],[-23,40],[18,5],[-30,81],[44,0],[23,20]],[[2573,3663],[-45,-35],[-49,46],[24,21],[-20,21],[12,16],[-24,24],[38,22],[65,52],[91,-90]],[[2789,2714],[-20,-10],[3,-21],[-38,-36],[-32,-8],[-75,-48],[-6,4]],[[2621,2595],[-72,75],[-27,10],[-73,-13],[-58,17]],[[2391,2684],[61,77],[44,48],[60,56],[67,53],[70,48],[57,34]],[[2750,3000],[24,1],[34,-83],[-1,-39]],[[3085,2954],[149,-7],[11,-14],[-49,-8],[9,-26],[-6,-63],[-73,6],[-91,-4],[-13,-53]],[[2750,3000],[57,31],[102,43]],[[2909,3074],[9,-21],[22,4],[9,-38],[34,9],[17,-79],[85,5]],[[2909,3074],[175,54]],[[3084,3128],[18,-73],[-24,-5],[18,-44],[36,-15],[5,-28],[-52,-9]],[[1727,4158],[1,-40],[34,3]],[[1828,3969],[-112,-16],[-40,6],[-6,10],[-1,77],[-67,-1]],[[1602,4045],[-1,13],[65,75],[6,21],[55,4]],[[1727,4158],[26,16],[79,23],[187,-30],[-4,-195]],[[1463,3771],[-8,-11],[-88,-14],[-22,22],[8,16],[-50,7],[-42,-22],[-18,26],[-35,2],[-43,19],[-22,-3],[-94,23],[-14,13],[29,-1],[161,15],[28,39],[74,9],[24,10],[123,21],[66,-31],[18,28],[35,-2],[-6,97],[15,11]],[[2909,3074],[-21,49]],[[2888,3123],[7,14],[81,67],[67,50],[24,41],[-14,57],[17,55],[-10,31],[-36,26],[-47,25],[-63,41],[-17,23]],[[2875,3575],[36,14],[38,1],[200,-17],[37,-52],[54,-21],[6,-36],[-11,-52],[79,-178],[32,-13],[-155,-61],[-107,-32]],[[2391,2684],[-23,-28],[-27,16],[-148,-185],[-99,-126],[-125,-164],[-87,-102]],[[1882,2095],[-37,33],[-139,139],[-6,26],[41,86],[8,34],[27,25],[44,56],[-12,44],[5,38],[43,122],[34,39],[44,3],[332,8],[36,-17],[43,56],[-28,16],[10,22],[-104,90],[78,60],[-16,20],[-39,15],[-29,-12],[-16,16],[17,22],[-1,22],[31,14],[80,57],[21,-25],[62,-43],[38,34],[50,27],[29,8],[21,-71],[31,-43],[-84,-54],[34,-20],[64,1],[73,50],[117,75],[73,57],[31,-2]],[[2621,2595],[-84,-66],[-43,38],[-11,29],[-57,-43],[-83,-78],[-158,-209],[-89,-120],[-60,39],[-107,-107],[-109,-82],[-111,-74],[-20,-34],[-4,-38],[-36,-35],[-32,-10],[-65,4],[-112,-63],[-28,-28],[-198,-136],[20,-34],[-14,-60],[11,-31],[-99,-54],[-44,-7],[12,-35],[7,-118],[-139,-94],[-30,6],[-10,-11],[19,-45],[36,-103],[-1,-67],[-26,-3],[-120,-54],[-9,1],[-53,70],[-110,115],[-129,97],[-183,129],[-21,-11],[-91,-82],[-51,-27],[-92,-27],[-27,66],[-70,77],[26,62],[29,3],[67,-22],[53,-26],[24,14],[47,12],[29,35],[-56,61],[35,-4],[78,17],[35,21],[19,83],[97,-10],[-12,-94],[29,17],[126,97],[97,78],[283,89],[-15,19],[9,53],[34,34],[26,-28],[56,41],[122,-74],[35,-45],[113,44],[37,23],[-7,31],[35,-8],[109,67],[92,53],[103,67],[98,78],[29,27]],[[5355,233],[22,-31],[2,-30],[25,-45],[32,-32],[28,-14],[62,-3],[53,-12],[119,16],[91,7],[-2,-42],[-166,-15],[-4,28],[-70,-15],[-69,-6],[-20,-39],[-36,16],[-106,25],[5,62],[24,4],[-23,37],[-30,65],[25,11],[-6,12],[-25,-9],[-10,22],[25,8],[-41,79],[11,33],[31,-17],[18,-25],[-1,-41],[36,-49]],[[8234,4885],[53,-14],[4,-17],[143,29],[-3,-41],[56,-85],[21,-12],[-30,-93],[-43,-44],[-31,22],[-26,-2],[-33,16],[-38,30],[-45,-21],[-35,3],[19,-29],[-16,-20],[-31,7],[-51,89],[-65,3],[-18,52],[-19,24],[45,42],[78,36],[15,19],[50,6]]]}
