{"type":"Topology","bbox":[-72.99172709140203,10.594094962982767,-72.95994506927599,10.619981722577513],"transform":{"scale":[0.0000031785200646102255,0.0000025889348529599027],"translate":[-72.99172709140203,10.594094962982767]},"objects":{"municipios":{"type":"GeometryCollection","geometries":[{"type":"Polygon","arcs":[[0,1,2,3]],"properties":{"codigo":"44874100000000000106","sector":"448741000000000001","pcode":"CO44874","area_m2":122427}},{"type":"Polygon","arcs":[[4,5,6,7,8,9]],"properties":{"codigo":"44874100000000000208","sector":"448741000000000002","pcode":"CO44874","area_m2":86338}},{"type":"Polygon","arcs":[[10,11,12,-7,13,14,15]],"properties":{"codigo":"44874100000000000209","sector":"448741000000000002","pcode":"CO44874","area_m2":180515}},{"type":"Polygon","arcs":[[-13,16,17,-8]],"properties":{"codigo":"44874100000000000307","sector":"448741000000000003","pcode":"CO44874","area_m2":83092}},{"type":"Polygon","arcs":[[-15,18,19,20]],"properties":{"codigo":"44874100000000000211","sector":"448741000000000002","pcode":"CO44874","area_m2":107133}},{"type":"Polygon","arcs":[[21,22]],"properties":{"codigo":"44874100000000000212","sector":"448741000000000002","pcode":"CO44874","area_m2":40769}},{"type":"Polygon","arcs":[[23,24,25,26,27,28]],"properties":{"codigo":"44874100000000000301","sector":"448741000000000003","pcode":"CO44874","area_m2":93798}},{"type":"Polygon","arcs":[[29,30,-29,31,-9,-18]],"properties":{"codigo":"44874100000000000302","sector":"448741000000000003","pcode":"CO44874","area_m2":92230}},{"type":"Polygon","arcs":[[32,33,34,-24,-31,35,36]],"properties":{"codigo":"44874100000000000303","sector":"448741000000000003","pcode":"CO44874","area_m2":91938}},{"type":"Polygon","arcs":[[37,38,39,40,41,42]],"properties":{"codigo":"44874100000000000109","sector":"448741000000000001","pcode":"CO44874","area_m2":274045}},{"type":"Polygon","arcs":[[43,-36,-30,-17,-12]],"properties":{"codigo":"44874100000000000306","sector":"448741000000000003","pcode":"CO44874","area_m2":117337}},{"type":"Polygon","arcs":[[44,45,-1,46]],"properties":{"codigo":"44874100000000000107","sector":"448741000000000001","pcode":"CO44874","area_m2":145550}},{"type":"Polygon","arcs":[[47,48,-45]],"properties":{"codigo":"44874100000000000108","sector":"448741000000000001","pcode":"CO44874","area_m2":212575}},{"type":"Polygon","arcs":[[49,50,51]],"properties":{"codigo":"44874100000000000101","sector":"448741000000000001","pcode":"CO44874","area_m2":82283}},{"type":"Polygon","arcs":[[52,-27,53,-38,54,-51]],"properties":{"codigo":"44874100000000000102","sector":"448741000000000001","pcode":"CO44874","area_m2":123689}},{"type":"Polygon","arcs":[[55,-39,-54,-26]],"properties":{"codigo":"44874100000000000103","sector":"448741000000000001","pcode":"CO44874","area_m2":55474}},{"type":"Polygon","arcs":[[-25,-35,56,-40,-56]],"properties":{"codigo":"44874100000000000104","sector":"448741000000000001","pcode":"CO44874","area_m2":115990}},{"type":"Polygon","arcs":[[-57,-34,57,-3,58,-41]],"properties":{"codigo":"44874100000000000105","sector":"448741000000000001","pcode":"CO44874","area_m2":237582}},{"type":"Polygon","arcs":[[59,60,61,62,63]],"properties":{"codigo":"44874100000000000201","sector":"448741000000000002","pcode":"CO44874","area_m2":827421}},{"type":"Polygon","arcs":[[64,65,-52,-55,-43,66,-63]],"properties":{"codigo":"44874100000000000202","sector":"448741000000000002","pcode":"CO44874","area_m2":555227}},{"type":"Polygon","arcs":[[-32,-28,-53,-50,-66,67,-10]],"properties":{"codigo":"44874100000000000203","sector":"448741000000000002","pcode":"CO44874","area_m2":124273}},{"type":"Polygon","arcs":[[68,69,-5,-68,-65,-62,70]],"properties":{"codigo":"44874100000000000204","sector":"448741000000000002","pcode":"CO44874","area_m2":282242}},{"type":"Polygon","arcs":[[71,-71,-61,72]],"properties":{"codigo":"44874100000000000205","sector":"448741000000000002","pcode":"CO44874","area_m2":234265}},{"type":"Polygon","arcs":[[73,-22,74,-20,75,-69,-72,76]],"properties":{"codigo":"44874100000000000206","sector":"448741000000000002","pcode":"CO44874","area_m2":217876}},{"type":"Polygon","arcs":[[-19,-14,-6,-70,-76]],"properties":{"codigo":"44874100000000000207","sector":"448741000000000002","pcode":"CO44874","area_m2":151940}},{"type":"Polygon","arcs":[[-77,-73,-60,77]],"properties":{"codigo":"44874100000000000210","sector":"448741000000000002","pcode":"CO44874","area_m2":570668}},{"type":"Polygon","arcs":[[78,-48,-47,-4,-58,-33,79]],"properties":{"codigo":"44874100000000000304","sector":"448741000000000003","pcode":"CO44874","area_m2":121545}},{"type":"Polygon","arcs":[[-11,80,-80,-37,-44]],"properties":{"codigo":"44874100000000000305","sector":"448741000000000003","pcode":"CO44874","area_m2":119103}}]}},"arcs":[[[1976,2402],[-877,747],[-430,338],[127,245],[-230,160],[-253,283]],[[313,4175],[24,334]],[[337,4509],[513,-404],[529,-445],[847,-615]],[[2226,3045],[-250,-643]],[[4692,5016],[233,-478]],[[4925,4538],[449,-870]],[[5374,3668],[-219,-414]],[[5155,3254],[-595,659]],[[4560,3913],[-347,362]],[[4213,4275],[479,741]],[[4360,1410],[70,107],[-110,133]],[[4320,1650],[408,802]],[[4728,2452],[427,802]],[[5374,3668],[150,-276]],[[5524,3392],[-34,-97],[181,-188],[177,-279]],[[5848,2828],[82,-87],[-414,-632],[-179,-407],[-42,23],[-142,-262],[138,-135],[-73,-97],[-347,108],[-200,-13],[-311,84]],[[4728,2452],[-692,614]],[[4036,3066],[524,847]],[[5524,3392],[691,910],[194,226]],[[6409,4528],[184,215],[348,-475]],[[6941,4268],[-339,-428],[-197,-383],[-254,-185],[-303,-444]],[[7258,4406],[223,260]],[[7481,4666],[180,-194],[-51,-63],[282,-322],[-65,-73],[112,-160],[-140,-148],[-40,57],[-186,-210],[-326,409],[176,233],[-165,211]],[[3360,3597],[-675,307]],[[2685,3904],[301,496]],[[2986,4400],[201,373]],[[3187,4773],[241,402]],[[3428,5175],[499,-582]],[[3927,4593],[-480,-788],[-87,-208]],[[4036,3066],[-374,336]],[[3662,3402],[-302,195]],[[3927,4593],[286,-318]],[[3144,2557],[-222,198],[-555,566]],[[2367,3321],[244,451]],[[2611,3772],[74,132]],[[3662,3402],[-428,-692]],[[3234,2710],[-90,-153]],[[2717,6354],[-153,56],[-119,-172],[134,-136],[-251,-450]],[[2328,5652],[-117,130],[-216,-370]],[[1995,5412],[-287,-424],[-128,124]],[[1580,5112],[-125,128],[-174,-291],[-785,604]],[[496,5553],[107,263],[297,468],[874,1134]],[[1774,7418],[112,-360],[422,-305],[409,-399]],[[4320,1650],[-322,276],[36,137],[-214,152],[-586,495]],[[1764,2031],[-189,149],[-160,34],[-366,-98],[-228,38],[-50,102],[-121,548],[-122,112],[-315,80]],[[213,2996],[100,1179]],[[1976,2402],[-212,-371]],[[1764,2031],[-167,-255]],[[1597,1776],[-606,-928],[-121,-78],[-221,-443],[-229,-327],[-33,142],[-387,457],[11,182],[135,34],[434,572],[-269,703],[-112,372],[14,534]],[[4046,6264],[-365,-647]],[[3681,5617],[-763,862]],[[2918,6479],[157,231],[68,-60],[299,415],[263,-239],[341,-562]],[[3681,5617],[-253,-442]],[[3187,4773],[-859,879]],[[2717,6354],[123,206],[78,-81]],[[2986,4400],[-344,385],[-647,627]],[[2611,3772],[-640,555],[-567,517],[176,268]],[[2367,3321],[-141,-276]],[[337,4509],[52,583],[107,461]],[[8570,9202],[-124,-166],[-271,-83],[-1500,-1085]],[[6675,7868],[-1145,-830]],[[5530,7038],[-272,-201]],[[5258,6837],[-869,1771],[-219,-163],[-24,-397],[-53,-118],[-489,618],[-523,563]],[[3081,9111],[301,391],[224,207],[302,186],[244,78],[373,17],[466,-82],[1955,-438],[1306,-276],[318,8]],[[5258,6837],[-1085,-792]],[[4173,6045],[-127,219]],[[1774,7418],[1307,1693]],[[4173,6045],[519,-1029]],[[6645,5716],[-228,-209],[-213,284],[-545,-492]],[[5659,5299],[-128,148],[-606,-909]],[[5530,7038],[539,-570],[576,-752]],[[7314,6398],[-280,-195],[-37,72],[-269,-185],[97,-216],[-180,-158]],[[6675,7868],[127,-20],[493,-671],[107,74],[87,-152],[136,109],[198,-421],[-509,-389]],[[7550,5928],[-195,-247],[275,-295],[-189,-415],[192,-133],[-152,-172]],[[7258,4406],[-96,105],[-221,-243]],[[6409,4528],[-337,439],[-148,113],[-60,-50],[-205,269]],[[7314,6398],[236,-470]],[[8570,9202],[767,232],[662,-1430],[-310,-201],[-159,-320],[-384,-524],[-255,-66],[-1262,-860],[-79,-105]],[[2139,1615],[-187,-167],[-272,194],[-83,134]],[[3144,2557],[-196,-346],[-95,52],[-67,-133],[-125,128],[-330,-371],[-192,-272]],[[4360,1410],[-243,49],[-492,298],[-275,-134],[-162,97],[-342,-47],[-376,24],[-258,-106],[-73,24]]]}
