{"type":"Topology","bbox":[-72.94717988303324,10.808300615847006,-72.8807960643831,10.929922485408499],"transform":{"scale":[0.000006639045769590757,0.000012163403296478883],"translate":[-72.94717988303324,10.808300615847006]},"objects":{"municipios":{"type":"GeometryCollection","geometries":[{"type":"Polygon","arcs":[[0,1,2,3,4]],"properties":{"codigo":"44098100000000000101","sector":"440981000000000001","pcode":"CO44098","area_m2":174063}},{"type":"Polygon","arcs":[[5,6,7,-2,8]],"properties":{"codigo":"44098100000000000103","sector":"440981000000000001","pcode":"CO44098","area_m2":129648}},{"type":"Polygon","arcs":[[9,10,-7]],"properties":{"codigo":"44098100000000000104","sector":"440981000000000001","pcode":"CO44098","area_m2":202331}},{"type":"Polygon","arcs":[[-11,11,-3,-8]],"properties":{"codigo":"44098100000000000105","sector":"440981000000000001","pcode":"CO44098","area_m2":145594}},{"type":"Polygon","arcs":[[12,13]],"properties":{"codigo":"44098200201001000102","sector":"440982002010010001","pcode":"CO44098","area_m2":131814}},{"type":"Polygon","arcs":[[14]],"properties":{"codigo":"44098200105002000101","sector":"440982001050020001","pcode":"CO44098","area_m2":165139}},{"type":"Polygon","arcs":[[15]],"properties":{"codigo":"44098200208003000101","sector":"440982002080030001","pcode":"CO44098","area_m2":234950}},{"type":"Polygon","arcs":[[16]],"properties":{"codigo":"44098200107008000101","sector":"440982001070080001","pcode":"CO44098","area_m2":64875}},{"type":"Polygon","arcs":[[17]],"properties":{"codigo":"44098200107012000101","sector":"440982001070120001","pcode":"CO44098","area_m2":23789}},{"type":"Polygon","arcs":[[-9,-1,18,19]],"properties":{"codigo":"44098100000000000102","sector":"440981000000000001","pcode":"CO44098","area_m2":128060}},{"type":"Polygon","arcs":[[-19,-5,20]],"properties":{"codigo":"44098100000000000106","sector":"440981000000000001","pcode":"CO44098","area_m2":205310}},{"type":"Polygon","arcs":[[-14,21]],"properties":{"codigo":"44098200201001000101","sector":"440982002010010001","pcode":"CO44098","area_m2":370554}},{"type":"Polygon","arcs":[[22]],"properties":{"codigo":"44098200208005000101","sector":"440982002080050001","pcode":"CO44098","area_m2":133840}},{"type":"Polygon","arcs":[[23]],"properties":{"codigo":"44098200208007000101","sector":"440982002080070001","pcode":"CO44098","area_m2":566881}},{"type":"Polygon","arcs":[[24]],"properties":{"codigo":"44098200107011000101","sector":"440982001070110001","pcode":"CO44098","area_m2":48739}}]}},"arcs":[[[8931,7694],[-152,-234]],[[8779,7460],[-51,-63]],[[8728,7397],[-96,-106],[-130,22],[-15,-17]],[[8487,7296],[-162,29],[30,54],[-44,14],[38,31],[-67,0],[-133,64],[215,18],[36,60]],[[8400,7566],[117,176],[321,-70],[37,37],[56,-15]],[[9670,7321],[133,-27],[159,15],[-59,-128]],[[9903,7181],[-408,65],[-288,37]],[[9207,7283],[-155,22],[-324,92]],[[8779,7460],[107,-28],[37,38],[747,-149]],[[9903,7181],[96,-16],[-70,-111],[-224,18],[-36,-67],[-76,-7],[-174,13],[-26,-55],[-54,6],[-9,-34],[-196,-13],[-29,-73],[-122,18],[23,68]],[[9006,6928],[-14,70],[113,-11],[102,296]],[[9006,6928],[-170,25],[2,54],[-35,-15],[-62,64],[135,78],[66,-21],[13,38],[-254,82],[-222,52],[8,11]],[[8665,5884],[-120,-125],[-114,-75],[84,-69],[-28,-21],[-194,59],[-108,51],[39,108],[-29,69],[-133,82],[-154,24],[159,64]],[[8067,6051],[238,-69],[360,-98]],[[625,9964],[40,-6],[-86,-90],[123,-17],[39,18],[87,-24],[14,-33],[112,-18],[249,-65],[-59,-43],[-58,22],[-144,21],[-24,-58],[-248,21],[-18,41],[-222,22],[-244,-9],[-51,70],[-107,-2],[-5,45],[49,1],[8,84],[32,21],[177,0],[0,-33],[195,-1],[0,21],[141,12]],[[7298,1983],[50,-151],[85,-4],[88,-83],[-99,-19],[16,-30],[-62,-52],[10,-47],[127,-24],[-15,-177],[-131,-9],[91,-81],[-154,-14],[5,51],[-88,1],[-17,59],[-171,3],[-40,38],[13,162],[-61,1],[18,64],[-82,11],[0,43],[77,-2],[16,52],[90,-4],[-6,22],[88,22],[52,36],[-11,68],[76,64],[35,0]],[[4803,8957],[61,-87],[-86,27],[-86,-39],[54,-28],[-141,-104],[-124,74],[-120,108],[-78,6],[12,25],[508,18]],[[8707,8935],[-18,-23],[-259,48],[41,85],[280,-55],[-44,-55]],[[8931,7694],[104,-34],[231,-52]],[[9266,7608],[-47,-12],[172,-40],[-28,-36],[47,-10],[-33,-41],[160,-37],[4,-44],[153,-34],[-24,-33]],[[8400,7566],[-112,10],[17,66],[-47,6],[75,167],[-135,29],[21,63],[121,96],[313,-146],[82,-78],[171,133],[317,-87],[-23,-63],[-72,-71],[197,-48],[-59,-35]],[[8067,6051],[140,57],[-15,29],[-171,6],[-3,48],[-52,18],[-39,56],[-17,92],[-47,53],[179,-47],[81,79],[13,48],[117,-40],[16,-25],[212,-73],[29,35],[234,-70],[148,-77],[-86,-104],[172,-105],[-109,-34],[112,-28],[-45,-73],[-63,14],[-42,-56],[-166,30]],[[7166,239],[77,-65],[175,20],[55,-6],[93,-52],[-22,-57],[-60,9],[-106,-18],[-49,-70],[-186,18],[-105,30],[-174,-30],[-39,48],[126,19],[-177,210],[91,50],[146,-34],[-29,-38],[180,-14],[4,-20]],[[9527,2812],[204,-44],[-55,-78],[-113,12],[-48,-53],[6,-43],[-53,-42],[-18,-91],[-68,-79],[-113,-186],[36,-101],[-59,-68],[-114,-59],[-193,-61],[-7,43],[-202,-44],[-30,65],[-449,-124],[18,132],[162,194],[27,82],[173,20],[8,114],[52,25],[88,-19],[60,33],[-21,38],[93,48],[112,7],[65,40],[-1,53],[128,3],[141,176],[79,-11],[16,27],[76,-9]],[[7182,9571],[-14,-29],[76,12],[-26,-51],[-41,10],[-63,-67],[-2,-38],[-65,19],[-43,-44],[167,-140],[-49,-21],[-241,46],[122,117],[-139,104],[44,15],[79,-64],[41,26],[-90,40],[104,-5],[140,70]]]}
