{"type":"Topology","bbox":[-74.82800102369322,10.250652744608962,-74.54859005203434,10.453752327220867],"transform":{"scale":[0.000027943891555043144,0.000020311989460136545],"translate":[-74.82800102369322,10.250652744608962]},"objects":{"municipios":{"type":"GeometryCollection","geometries":[{"type":"Polygon","arcs":[[0,1,2]],"properties":{"codigo":"47258200303005000106","sector":"472582003030050001","pcode":"CO47258","area_m2":42713}},{"type":"Polygon","arcs":[[3,4]],"properties":{"codigo":"47258200201001000102","sector":"472582002010010001","pcode":"CO47258","area_m2":61776}},{"type":"Polygon","arcs":[[5,6,7]],"properties":{"codigo":"47258200303005000104","sector":"472582003030050001","pcode":"CO47258","area_m2":86302}},{"type":"MultiPolygon","arcs":[[[8,-4]],[[9]]],"properties":{"codigo":"47258200201001000101","sector":"472582002010010001","pcode":"CO47258","area_m2":60641}},{"type":"Polygon","arcs":[[10,11,12,13]],"properties":{"codigo":"47258200304002000103","sector":"472582003040020001","pcode":"CO47258","area_m2":70232}},{"type":"Polygon","arcs":[[14,15,-6,16]],"properties":{"codigo":"47258200303005000105","sector":"472582003030050001","pcode":"CO47258","area_m2":76985}},{"type":"Polygon","arcs":[[-2,17,18]],"properties":{"codigo":"47258200303005000101","sector":"472582003030050001","pcode":"CO47258","area_m2":61072}},{"type":"Polygon","arcs":[[-15,19,-3,-19,20,21]],"properties":{"codigo":"47258200303005000102","sector":"472582003030050001","pcode":"CO47258","area_m2":161546}},{"type":"Polygon","arcs":[[-7,-16,-22,22]],"properties":{"codigo":"47258200303005000103","sector":"472582003030050001","pcode":"CO47258","area_m2":106943}},{"type":"Polygon","arcs":[[23,24]],"properties":{"codigo":"47258200203006000101","sector":"472582002030060001","pcode":"CO47258","area_m2":45318}},{"type":"Polygon","arcs":[[-24,25,26,27,28]],"properties":{"codigo":"47258200203006000102","sector":"472582002030060001","pcode":"CO47258","area_m2":44816}},{"type":"Polygon","arcs":[[29,30,31]],"properties":{"codigo":"47258200305007000101","sector":"472582003050070001","pcode":"CO47258","area_m2":74241}},{"type":"Polygon","arcs":[[32,-32,33]],"properties":{"codigo":"47258200305007000102","sector":"472582003050070001","pcode":"CO47258","area_m2":56519}},{"type":"Polygon","arcs":[[34,35,-30]],"properties":{"codigo":"47258200305007000103","sector":"472582003050070001","pcode":"CO47258","area_m2":86243}},{"type":"Polygon","arcs":[[36,37]],"properties":{"codigo":"47258200304011000101","sector":"472582003040110001","pcode":"CO47258","area_m2":87233}},{"type":"Polygon","arcs":[[38,-37]],"properties":{"codigo":"47258200304011000102","sector":"472582003040110001","pcode":"CO47258","area_m2":43037}},{"type":"Polygon","arcs":[[39,40,41,42,43,44]],"properties":{"codigo":"47258100000000000102","sector":"472581000000000001","pcode":"CO47258","area_m2":81427}},{"type":"Polygon","arcs":[[45,46,47]],"properties":{"codigo":"47258100000000000204","sector":"472581000000000002","pcode":"CO47258","area_m2":213175}},{"type":"Polygon","arcs":[[48,-41,49,50]],"properties":{"codigo":"47258100000000000201","sector":"472581000000000002","pcode":"CO47258","area_m2":205266}},{"type":"Polygon","arcs":[[51,52,53,-42,-49]],"properties":{"codigo":"47258100000000000202","sector":"472581000000000002","pcode":"CO47258","area_m2":95933}},{"type":"Polygon","arcs":[[54,-43,-54,55]],"properties":{"codigo":"47258100000000000103","sector":"472581000000000001","pcode":"CO47258","area_m2":65742}},{"type":"Polygon","arcs":[[56,-44,-55,57,-47]],"properties":{"codigo":"47258100000000000104","sector":"472581000000000001","pcode":"CO47258","area_m2":78844}},{"type":"Polygon","arcs":[[-40,58,-50]],"properties":{"codigo":"47258100000000000101","sector":"472581000000000001","pcode":"CO47258","area_m2":40310}},{"type":"Polygon","arcs":[[-48,-58,-56,-53,59]],"properties":{"codigo":"47258100000000000203","sector":"472581000000000002","pcode":"CO47258","area_m2":152942}},{"type":"MultiPolygon","arcs":[[[-14,60,61,62]],[[63,64]]],"properties":{"codigo":"47258200304002000102","sector":"472582003040020001","pcode":"CO47258","area_m2":80769}},{"type":"Polygon","arcs":[[-61,-13,65]],"properties":{"codigo":"47258200304002000101","sector":"472582003040020001","pcode":"CO47258","area_m2":82582}},{"type":"Polygon","arcs":[[-64,66,-11,-63,67]],"properties":{"codigo":"47258200304002000104","sector":"472582003040020001","pcode":"CO47258","area_m2":68589}},{"type":"Polygon","arcs":[[68,69,70]],"properties":{"codigo":"47258200506003000101","sector":"472582005060030001","pcode":"CO47258","area_m2":105930}},{"type":"Polygon","arcs":[[71,-71,72]],"properties":{"codigo":"47258200506003000102","sector":"472582005060030001","pcode":"CO47258","area_m2":109815}},{"type":"Polygon","arcs":[[73,74,-72]],"properties":{"codigo":"47258200506003000103","sector":"472582005060030001","pcode":"CO47258","area_m2":70984}},{"type":"Polygon","arcs":[[75,-69,-75]],"properties":{"codigo":"47258200506003000104","sector":"472582005060030001","pcode":"CO47258","area_m2":94203}},{"type":"Polygon","arcs":[[76,77]],"properties":{"codigo":"47258200404004000101","sector":"472582004040040001","pcode":"CO47258","area_m2":109389}},{"type":"Polygon","arcs":[[-77,78]],"properties":{"codigo":"47258200404004000102","sector":"472582004040040001","pcode":"CO47258","area_m2":45779}},{"type":"Polygon","arcs":[[-28,79,80]],"properties":{"codigo":"47258200203006000103","sector":"472582002030060001","pcode":"CO47258","area_m2":49677}},{"type":"Polygon","arcs":[[81,-80,-27]],"properties":{"codigo":"47258200203006000104","sector":"472582002030060001","pcode":"CO47258","area_m2":42732}},{"type":"Polygon","arcs":[[-35,-33,82]],"properties":{"codigo":"47258200305007000104","sector":"472582003050070001","pcode":"CO47258","area_m2":60665}},{"type":"Polygon","arcs":[[83]],"properties":{"codigo":"47258200503009000101","sector":"472582005030090001","pcode":"CO47258","area_m2":79471}},{"type":"Polygon","arcs":[[84]],"properties":{"codigo":"47258200102010000101","sector":"472582001020100001","pcode":"CO47258","area_m2":34413}},{"type":"Polygon","arcs":[[85]],"properties":{"codigo":"47258200502012000101","sector":"472582005020120001","pcode":"CO47258","area_m2":18311}},{"type":"Polygon","arcs":[[86]],"properties":{"codigo":"47258200405013000101","sector":"472582004050130001","pcode":"CO47258","area_m2":98362}}]}},"arcs":[[[4416,6159],[-4,-98],[-57,28],[-23,14],[-17,41]],[[4315,6144],[15,15]],[[4330,6159],[39,-16],[47,16]],[[4452,9839],[17,38],[-39,32],[-12,16]],[[4418,9925],[9,-8],[33,44],[6,-5],[24,43],[18,-29],[-4,-8],[39,-30],[7,-15],[-15,-13],[-4,10],[-26,-58],[-19,16],[-23,-42],[-11,9]],[[4507,6423],[-103,-70]],[[4404,6353],[-50,143],[-8,29],[6,4]],[[4352,6529],[8,-20],[15,5],[5,14],[14,-33],[40,-6],[-11,-14],[17,-13],[21,9],[6,-21],[25,17],[15,-44]],[[4452,9839],[-22,-48],[-22,8],[-34,-35],[-14,-8],[9,31],[-2,29],[16,27],[-5,6],[40,76]],[[4485,9759],[-14,12],[10,21],[4,-33]],[[1030,4827],[-1,-49],[14,-2],[-1,-15]],[[1042,4761],[-52,-13],[16,-30],[5,-24],[-12,-7],[-3,15],[-20,49],[-29,0],[-1,13],[-30,2]],[[916,4766],[11,41],[2,43]],[[929,4850],[29,1],[72,-24]],[[4410,6250],[-27,4],[-25,59]],[[4358,6313],[14,17],[32,23]],[[4507,6423],[-4,-23],[8,-18],[-25,-36],[-41,-17],[16,-39],[-51,-40]],[[4315,6144],[-21,-23],[-22,48],[-26,42],[-17,-13],[-9,21],[30,11],[-9,21],[20,-2],[21,11],[-10,19],[22,18]],[[4294,6297],[23,-45],[1,-37],[12,-56]],[[4410,6250],[8,-25],[-2,-66]],[[4294,6297],[-44,103],[22,18],[24,35],[15,34]],[[4311,6487],[35,-137],[12,-37]],[[4311,6487],[17,26],[-8,40],[-18,-10],[-20,61],[35,63],[21,-62],[11,8],[3,-31],[8,1],[0,-48],[-8,-6]],[[5883,6985],[-4,11],[-79,114]],[[5800,7110],[10,-2],[17,29],[47,-26],[10,-16],[13,-42],[-10,-39],[8,-24],[-12,-5]],[[5883,6985],[-14,1]],[[5869,6986],[-13,6],[-19,-11],[-33,41]],[[5804,7022],[-49,58]],[[5755,7080],[14,6],[25,29],[6,-5]],[[3398,4458],[-13,1],[-89,30],[-19,10],[1,9],[-23,-10]],[[3255,4498],[-32,3],[0,29],[37,-4],[18,10],[13,-9],[28,21],[3,-5],[60,50]],[[3382,4593],[8,-60],[8,-75]],[[3449,4476],[-15,-14],[-36,-4]],[[3382,4593],[43,52],[16,-1],[-7,-46],[9,-104],[6,-18]],[[3398,4458],[1,-31],[-5,-71]],[[3394,4356],[-30,3],[-2,16],[-32,19],[-37,0],[0,15],[-30,7],[-10,12],[19,53],[-17,17]],[[2638,3623],[-10,24],[-56,32],[-13,12],[-16,30],[-46,111],[-15,49]],[[2482,3881],[0,18],[10,12],[11,-19],[18,-7],[11,6],[21,-45],[7,-33],[8,-10],[-4,-33],[16,-42],[20,-30],[33,-40],[30,-11],[-3,-38],[-22,14]],[[2638,3623],[-25,15],[-14,-13],[-5,34],[-24,14],[-17,-20],[-18,31],[-38,26],[8,35],[-5,46],[-14,31],[-1,17],[-11,10],[8,32]],[[143,7681],[45,-27]],[[188,7654],[-15,-43]],[[173,7611],[-28,-76]],[[145,7535],[-59,33],[-21,-64]],[[65,7504],[-21,18]],[[44,7522],[20,52],[43,88],[18,28],[18,-9]],[[265,7368],[32,-28],[-21,-61],[15,-9],[-15,-48],[-39,23],[-12,-31],[-27,12],[-46,-8],[-8,-25],[-30,19],[-24,-55],[-67,41],[15,43]],[[38,7241],[15,20],[34,105]],[[87,7366],[80,-50],[-10,-22],[61,-37],[22,59],[-20,11],[6,17],[-37,39],[10,40],[22,-13],[3,13],[41,-55]],[[250,7568],[-14,1],[-63,42]],[[188,7654],[21,64],[52,142]],[[261,7860],[4,6],[52,-13],[32,-11],[37,-51],[-13,-19],[-47,-32],[-25,-61],[-34,-68],[-17,-43]],[[250,7568],[-5,-20],[36,-41],[-3,-16],[-24,-58]],[[254,7433],[-119,74]],[[135,7507],[10,28]],[[96,7394],[-53,30],[22,80]],[[135,7507],[-39,-113]],[[38,7241],[-12,7],[5,30],[-25,12],[10,26],[-16,9],[23,76],[21,121]],[[96,7394],[-9,-28]],[[143,7681],[32,58],[21,32],[27,27],[38,62]],[[254,7433],[28,-25],[-17,-40]],[[929,4850],[4,34],[-13,2],[7,60],[-4,7],[16,38]],[[939,4991],[0,-4],[43,-47],[65,-65],[-2,-9]],[[1045,4866],[-13,-3],[-2,-36]],[[1101,4800],[-14,2],[-12,43]],[[1075,4845],[24,4],[2,-49]],[[916,4766],[-52,27],[7,69],[1,38],[18,64],[13,14],[-13,32],[12,21],[24,-30],[9,13],[11,-12],[-7,-11]],[[1101,4800],[23,-2],[8,-87],[9,-24],[-1,-27],[-26,-24],[-23,127],[-49,-2]],[[1045,4866],[-2,-9],[32,-12]],[[8760,224],[-25,-61],[-36,-95],[-25,-63]],[[8674,5],[-12,9],[12,21],[8,34],[-21,50],[-16,20],[1,16],[-17,1],[8,30],[-3,24],[10,-5],[2,22],[11,1],[17,39]],[[8674,267],[49,-21],[37,-22]],[[8813,381],[-11,-43],[-42,-114]],[[8674,267],[10,31],[-8,5],[18,32],[18,20],[0,19],[15,11],[34,-1],[12,-6],[1,17],[12,-2],[6,46],[15,-3],[2,14],[17,-6],[-13,-63]],[[8813,381],[22,-10],[-6,-54],[17,-11],[-13,-39],[17,-9],[-4,-25],[24,-24],[-16,-29]],[[8854,180],[-68,27],[-26,17]],[[8854,180],[-2,-12],[-28,-7],[-8,-24],[-7,3],[-21,-44],[-13,10],[-7,-24],[-21,2],[-16,-67],[-28,16],[-20,-33],[-9,5]],[[7659,4851],[-20,6],[-76,0]],[[7563,4857],[3,31],[-11,3],[11,67],[11,15],[50,13],[-10,32],[19,3],[65,-3],[-6,-49],[-34,-25],[2,-66],[-4,-27]],[[7659,4851],[-19,-32],[-3,-48],[-36,-2],[-8,40],[-40,5],[-21,16],[-3,15],[34,12]],[[5804,7022],[-21,-39],[-36,-57],[-1,-8]],[[5746,6918],[-22,-14],[-3,11],[8,40],[-3,31],[14,27],[-11,30],[26,37]],[[5869,6986],[-27,-39],[-18,0],[-26,-50],[-6,16],[-17,14],[-29,-9]],[[3449,4476],[26,-39],[-8,-13],[20,-26],[-10,-36],[-43,-13],[-40,7]],[[9369,1640],[8,-15],[20,13],[13,-20],[-10,-36],[32,-33],[6,-27],[-20,-40],[-14,-10],[-11,20],[-45,44],[-39,64],[11,15],[19,-4],[19,49],[11,-20]],[[3381,9705],[-10,-13],[-29,-6],[-32,11],[17,23],[6,31],[-21,45],[33,-10],[32,-24],[-5,-27],[21,-10],[-12,-20]],[[9958,2380],[33,-51],[5,-21],[-55,7],[-33,-4],[30,39],[18,0],[2,30]],[[5205,2319],[36,-26],[33,-17],[18,11],[8,-21],[-12,-10],[3,-13],[-22,-15],[-6,13],[-33,4],[-23,-6],[-36,0],[1,-10],[-36,-6],[-7,-31],[5,-14],[-22,-18],[-14,3],[0,14],[-18,6],[4,29],[-10,29],[29,0],[56,14],[1,44],[-15,1],[-12,22],[11,15],[61,-18]]]}
