{"type":"Topology","bbox":[-74.67313607043536,10.229465263758067,-74.28916493781276,10.540137669936621],"transform":{"scale":[0.000038400953357596275,0.00003107034765262068],"translate":[-74.67313607043536,10.229465263758067]},"objects":{"municipios":{"type":"GeometryCollection","geometries":[{"type":"Polygon","arcs":[[0,1,2,3,4,5]],"properties":{"codigo":"47551100000000000109","sector":"475511000000000001","pcode":"CO47551","area_m2":37263}},{"type":"Polygon","arcs":[[6,7,8,9,10,11]],"properties":{"codigo":"47551100000000000207","sector":"475511000000000002","pcode":"CO47551","area_m2":116365}},{"type":"Polygon","arcs":[[12,13,-5,14,15]],"properties":{"codigo":"47551100000000000103","sector":"475511000000000001","pcode":"CO47551","area_m2":38989}},{"type":"Polygon","arcs":[[16,-11,17,18,19,20]],"properties":{"codigo":"47551100000000000203","sector":"475511000000000002","pcode":"CO47551","area_m2":97645}},{"type":"Polygon","arcs":[[21,22,23,24,25]],"properties":{"codigo":"47551100000000000305","sector":"475511000000000003","pcode":"CO47551","area_m2":41932}},{"type":"Polygon","arcs":[[26,27,28,29,30,-23]],"properties":{"codigo":"47551100000000000306","sector":"475511000000000003","pcode":"CO47551","area_m2":72208}},{"type":"Polygon","arcs":[[31,32,33,-29]],"properties":{"codigo":"47551100000000000307","sector":"475511000000000003","pcode":"CO47551","area_m2":41657}},{"type":"Polygon","arcs":[[34,35,36,37,38,39]],"properties":{"codigo":"47551100000000000403","sector":"475511000000000004","pcode":"CO47551","area_m2":209399}},{"type":"Polygon","arcs":[[40,-39,41,-8,42]],"properties":{"codigo":"47551100000000000404","sector":"475511000000000004","pcode":"CO47551","area_m2":99020}},{"type":"Polygon","arcs":[[43,44]],"properties":{"codigo":"47551100000000000407","sector":"475511000000000004","pcode":"CO47551","area_m2":45155}},{"type":"Polygon","arcs":[[45,46]],"properties":{"codigo":"47551201302003000102","sector":"475512013020030001","pcode":"CO47551","area_m2":65277}},{"type":"Polygon","arcs":[[47,48]],"properties":{"codigo":"47551200603001000101","sector":"475512006030010001","pcode":"CO47551","area_m2":70494}},{"type":"Polygon","arcs":[[49,-48]],"properties":{"codigo":"47551200603001000102","sector":"475512006030010001","pcode":"CO47551","area_m2":69410}},{"type":"Polygon","arcs":[[50,51]],"properties":{"codigo":"47551201204002000101","sector":"475512012040020001","pcode":"CO47551","area_m2":47924}},{"type":"Polygon","arcs":[[-51,52]],"properties":{"codigo":"47551201204002000102","sector":"475512012040020001","pcode":"CO47551","area_m2":53106}},{"type":"Polygon","arcs":[[-46,53]],"properties":{"codigo":"47551201302003000101","sector":"475512013020030001","pcode":"CO47551","area_m2":86369}},{"type":"Polygon","arcs":[[54,55,56,57]],"properties":{"codigo":"47551201503006000101","sector":"475512015030060001","pcode":"CO47551","area_m2":122137}},{"type":"Polygon","arcs":[[58,-55]],"properties":{"codigo":"47551201503006000102","sector":"475512015030060001","pcode":"CO47551","area_m2":115938}},{"type":"Polygon","arcs":[[59]],"properties":{"codigo":"47551201401007000101","sector":"475512014010070001","pcode":"CO47551","area_m2":91205}},{"type":"Polygon","arcs":[[60,61,62,63]],"properties":{"codigo":"47551200502008000106","sector":"475512005020080001","pcode":"CO47551","area_m2":89666}},{"type":"Polygon","arcs":[[64,65]],"properties":{"codigo":"47551200502008000109","sector":"475512005020080001","pcode":"CO47551","area_m2":73130}},{"type":"Polygon","arcs":[[66,67,68]],"properties":{"codigo":"47551201303011000101","sector":"475512013030110001","pcode":"CO47551","area_m2":48542}},{"type":"Polygon","arcs":[[69,70,-68]],"properties":{"codigo":"47551201303011000102","sector":"475512013030110001","pcode":"CO47551","area_m2":63083}},{"type":"Polygon","arcs":[[71,72,-70,-67,73]],"properties":{"codigo":"47551201303011000103","sector":"475512013030110001","pcode":"CO47551","area_m2":70199}},{"type":"Polygon","arcs":[[-72,74]],"properties":{"codigo":"47551201303011000104","sector":"475512013030110001","pcode":"CO47551","area_m2":31894}},{"type":"Polygon","arcs":[[75]],"properties":{"codigo":"47551200405012000105","sector":"475512004050120001","pcode":"CO47551","area_m2":10211}},{"type":"Polygon","arcs":[[76]],"properties":{"codigo":"47551200103017000101","sector":"475512001030170001","pcode":"CO47551","area_m2":27856}},{"type":"Polygon","arcs":[[-40,-41,77,78,79]],"properties":{"codigo":"47551100000000000405","sector":"475511000000000004","pcode":"CO47551","area_m2":32721}},{"type":"Polygon","arcs":[[80,81]],"properties":{"codigo":"47551100000000000704","sector":"475511000000000007","pcode":"CO47551","area_m2":74533}},{"type":"Polygon","arcs":[[82,83,84,85,86,-33]],"properties":{"codigo":"47551100000000000308","sector":"475511000000000003","pcode":"CO47551","area_m2":130711}},{"type":"Polygon","arcs":[[87,88,89,90]],"properties":{"codigo":"47551200405012000102","sector":"475512004050120001","pcode":"CO47551","area_m2":56084}},{"type":"Polygon","arcs":[[91,92,93,94,95,96]],"properties":{"codigo":"47551100000000000107","sector":"475511000000000001","pcode":"CO47551","area_m2":40679}},{"type":"Polygon","arcs":[[-92,97,-3,98,99]],"properties":{"codigo":"47551100000000000108","sector":"475511000000000001","pcode":"CO47551","area_m2":44119}},{"type":"Polygon","arcs":[[-82,100,101,102,103]],"properties":{"codigo":"47551100000000000703","sector":"475511000000000007","pcode":"CO47551","area_m2":143298}},{"type":"Polygon","arcs":[[104,105,-6,-14,106]],"properties":{"codigo":"47551100000000000201","sector":"475511000000000002","pcode":"CO47551","area_m2":73269}},{"type":"Polygon","arcs":[[107,108,109,110]],"properties":{"codigo":"47551100000000000101","sector":"475511000000000001","pcode":"CO47551","area_m2":106278}},{"type":"Polygon","arcs":[[-16,111,-108,112]],"properties":{"codigo":"47551100000000000102","sector":"475511000000000001","pcode":"CO47551","area_m2":55686}},{"type":"Polygon","arcs":[[-4,-98,-97,113,-109,-112,-15]],"properties":{"codigo":"47551100000000000104","sector":"475511000000000001","pcode":"CO47551","area_m2":69115}},{"type":"Polygon","arcs":[[-96,114,115,-110,-114]],"properties":{"codigo":"47551100000000000105","sector":"475511000000000001","pcode":"CO47551","area_m2":97618}},{"type":"Polygon","arcs":[[116,117,-115,-95]],"properties":{"codigo":"47551100000000000106","sector":"475511000000000001","pcode":"CO47551","area_m2":36906}},{"type":"Polygon","arcs":[[-19,118,-105,119]],"properties":{"codigo":"47551100000000000202","sector":"475511000000000002","pcode":"CO47551","area_m2":96419}},{"type":"Polygon","arcs":[[120,-119,-18,-10,121]],"properties":{"codigo":"47551100000000000204","sector":"475511000000000002","pcode":"CO47551","area_m2":67088}},{"type":"Polygon","arcs":[[122,123,-1,-106,-121]],"properties":{"codigo":"47551100000000000205","sector":"475511000000000002","pcode":"CO47551","area_m2":91429}},{"type":"Polygon","arcs":[[-9,-42,-38,124,-26,125,-123,-122]],"properties":{"codigo":"47551100000000000206","sector":"475511000000000002","pcode":"CO47551","area_m2":117760}},{"type":"Polygon","arcs":[[126,-21,127]],"properties":{"codigo":"47551100000000000208","sector":"475511000000000002","pcode":"CO47551","area_m2":197904}},{"type":"Polygon","arcs":[[-94,128,-86,129,-117]],"properties":{"codigo":"47551100000000000301","sector":"475511000000000003","pcode":"CO47551","area_m2":83546}},{"type":"Polygon","arcs":[[-34,-87,-129,-93,130,-30]],"properties":{"codigo":"47551100000000000302","sector":"475511000000000003","pcode":"CO47551","area_m2":44130}},{"type":"Polygon","arcs":[[-24,-31,-131,-100,131]],"properties":{"codigo":"47551100000000000303","sector":"475511000000000003","pcode":"CO47551","area_m2":73570}},{"type":"Polygon","arcs":[[-126,-25,-132,-99,-2,-124]],"properties":{"codigo":"47551100000000000304","sector":"475511000000000003","pcode":"CO47551","area_m2":56829}},{"type":"Polygon","arcs":[[-28,132,133,134,-45,135,136,-83,-32]],"properties":{"codigo":"47551100000000000401","sector":"475511000000000004","pcode":"CO47551","area_m2":167178}},{"type":"Polygon","arcs":[[-37,137,-133,-27,-22,-125]],"properties":{"codigo":"47551100000000000402","sector":"475511000000000004","pcode":"CO47551","area_m2":241059}},{"type":"Polygon","arcs":[[138,139,-103,140,-78,-43,-7,141]],"properties":{"codigo":"47551100000000000406","sector":"475511000000000004","pcode":"CO47551","area_m2":156353}},{"type":"Polygon","arcs":[[142,-142,-12,-17,-127,143]],"properties":{"codigo":"47551100000000000501","sector":"475511000000000005","pcode":"CO47551","area_m2":303751}},{"type":"Polygon","arcs":[[144,-139,-143]],"properties":{"codigo":"47551100000000000502","sector":"475511000000000005","pcode":"CO47551","area_m2":78638}},{"type":"Polygon","arcs":[[-137,145,146,-84]],"properties":{"codigo":"47551100000000000601","sector":"475511000000000006","pcode":"CO47551","area_m2":65438}},{"type":"Polygon","arcs":[[-44,-135,147,-146,-136]],"properties":{"codigo":"47551100000000000602","sector":"475511000000000006","pcode":"CO47551","area_m2":131839}},{"type":"Polygon","arcs":[[148,149,-79,-141,-102]],"properties":{"codigo":"47551100000000000701","sector":"475511000000000007","pcode":"CO47551","area_m2":91182}},{"type":"Polygon","arcs":[[150,-35,-80,-150]],"properties":{"codigo":"47551100000000000702","sector":"475511000000000007","pcode":"CO47551","area_m2":93675}},{"type":"Polygon","arcs":[[151]],"properties":{"codigo":"47551201801005000101","sector":"475512018010050001","pcode":"CO47551","area_m2":75368}},{"type":"Polygon","arcs":[[152,-57]],"properties":{"codigo":"47551201503006000103","sector":"475512015030060001","pcode":"CO47551","area_m2":35687}},{"type":"Polygon","arcs":[[153,154]],"properties":{"codigo":"47551200502008000101","sector":"475512005020080001","pcode":"CO47551","area_m2":125547}},{"type":"Polygon","arcs":[[155,156,157,-154,158,159]],"properties":{"codigo":"47551200502008000102","sector":"475512005020080001","pcode":"CO47551","area_m2":119939}},{"type":"Polygon","arcs":[[160,-160,161,162,-63]],"properties":{"codigo":"47551200502008000103","sector":"475512005020080001","pcode":"CO47551","area_m2":89064}},{"type":"Polygon","arcs":[[163,-64,-163,164]],"properties":{"codigo":"47551200502008000104","sector":"475512005020080001","pcode":"CO47551","area_m2":94289}},{"type":"Polygon","arcs":[[165,-61,-164,166]],"properties":{"codigo":"47551200502008000105","sector":"475512005020080001","pcode":"CO47551","area_m2":92937}},{"type":"Polygon","arcs":[[-161,-62,167,-156]],"properties":{"codigo":"47551200502008000107","sector":"475512005020080001","pcode":"CO47551","area_m2":107639}},{"type":"Polygon","arcs":[[168,-66,169,-157,-168,-166]],"properties":{"codigo":"47551200502008000108","sector":"475512005020080001","pcode":"CO47551","area_m2":92971}},{"type":"Polygon","arcs":[[170,171]],"properties":{"codigo":"47551200103010000101","sector":"475512001030100001","pcode":"CO47551","area_m2":65504}},{"type":"Polygon","arcs":[[172,173,-171,174]],"properties":{"codigo":"47551200103010000102","sector":"475512001030100001","pcode":"CO47551","area_m2":67061}},{"type":"Polygon","arcs":[[-173,175]],"properties":{"codigo":"47551200103010000103","sector":"475512001030100001","pcode":"CO47551","area_m2":121440}},{"type":"Polygon","arcs":[[-89,176]],"properties":{"codigo":"47551200405012000101","sector":"475512004050120001","pcode":"CO47551","area_m2":57015}},{"type":"Polygon","arcs":[[177,-91,178,179]],"properties":{"codigo":"47551200405012000103","sector":"475512004050120001","pcode":"CO47551","area_m2":45979}},{"type":"Polygon","arcs":[[-180,180]],"properties":{"codigo":"47551200405012000104","sector":"475512004050120001","pcode":"CO47551","area_m2":28110}},{"type":"Polygon","arcs":[[181]],"properties":{"codigo":"47551201205013300101","sector":"475512012050133001","pcode":"CO47551","area_m2":97076}}]}},"arcs":[[[1502,7585],[4,-55]],[[1506,7530],[-19,-5],[0,-6],[-10,-1]],[[1477,7518],[-4,45]],[[1473,7563],[-5,42]],[[1468,7605],[32,5]],[[1500,7610],[2,-25]],[[1703,7482],[-34,-3]],[[1669,7479],[-45,-6]],[[1624,7473],[-1,24]],[[1623,7497],[-5,71]],[[1618,7568],[65,10],[22,1]],[[1705,7579],[-2,-97]],[[1466,7671],[31,-5]],[[1497,7666],[3,-56]],[[1468,7605],[-12,3]],[[1456,7608],[-3,62],[13,1]],[[1763,7595],[-58,-4],[0,-12]],[[1618,7568],[-3,34]],[[1615,7602],[25,3],[-5,35],[46,9],[9,7]],[[1690,7656],[14,1]],[[1704,7657],[0,-46],[45,5],[14,-1],[0,-20]],[[1518,7388],[-45,-2]],[[1473,7386],[-4,44]],[[1469,7430],[-1,19]],[[1468,7449],[49,0]],[[1517,7449],[1,-61]],[[1473,7386],[0,-14],[-31,-2],[2,-37]],[[1444,7333],[-34,-2],[-1,18]],[[1409,7349],[-1,78]],[[1408,7427],[-1,1]],[[1407,7428],[62,2]],[[1409,7349],[-37,-2]],[[1372,7347],[0,79]],[[1372,7426],[36,1]],[[1613,7315],[-41,-10],[14,-38],[14,-27],[11,-16]],[[1611,7224],[-58,10],[-24,2]],[[1529,7236],[-30,5],[1,15],[-8,79],[27,7],[1,-12],[42,5],[-5,62]],[[1557,7397],[-3,36],[48,1]],[[1602,7434],[8,-80]],[[1610,7354],[3,-39]],[[1669,7356],[-6,10],[-53,-12]],[[1602,7434],[23,0],[-1,39]],[[1669,7479],[0,-28],[4,-66],[1,-27],[-5,-2]],[[1419,7198],[-28,-3],[0,-26],[-12,-1],[-1,25],[-18,-2],[0,37]],[[1360,7228],[15,5],[24,18],[13,16],[7,-69]],[[6311,5546],[-8,48],[-2,27]],[[6301,5621],[16,4],[2,-3],[26,4],[4,6],[11,2],[5,-10],[9,-33],[-8,-3],[-13,5],[2,-15],[-10,-5],[11,-38],[-19,-4],[0,19],[-26,-4]],[[8161,9944],[-22,3],[-56,13],[-9,-20]],[[8074,9940],[-7,15],[-18,6],[0,7],[18,10],[7,16],[16,-9],[12,-3],[41,17],[0,-6],[32,-2],[28,3],[-14,-14],[-11,-6],[-2,-16],[-6,-8],[-9,-6]],[[8161,9944],[-2,-1],[-3,-29],[24,-4],[-24,-46],[-6,-3],[1,15],[6,19],[-23,5],[0,9],[-35,6],[-1,-5],[-14,10],[-6,-46],[-2,10],[-10,1],[7,18],[-11,19],[12,18]],[[9968,3762],[-9,-8],[-15,-4],[0,4],[-20,5],[-1,-10],[-19,8],[-4,-9],[-15,15]],[[9885,3763],[22,36],[7,-5],[10,21],[45,-29],[-10,-20],[9,-4]],[[9968,3762],[31,6],[0,-13],[-13,0],[-25,-8],[1,-17],[24,-10],[-2,-5],[-22,7],[-4,-22],[-18,5],[-1,7],[-23,7],[-24,13],[-11,4],[-7,13],[11,14]],[[6311,5546],[-44,-4],[1,-11],[-7,-1],[-4,10],[-5,-17],[-6,14],[-14,12],[-7,13],[-1,13],[-8,3],[-12,24],[48,2],[30,13],[19,4]],[[4696,157],[-19,-12],[0,-6],[-21,11],[-9,9]],[[4647,159],[-27,13],[-13,22]],[[4607,194],[6,5],[-3,11],[-61,94]],[[4549,304],[-5,10],[13,24],[21,-32],[3,4],[48,-54],[40,-68],[12,-5],[-3,-8],[17,0],[5,-8],[-4,-10]],[[4696,157],[0,-10],[9,-10],[-4,-14],[-16,-8],[-11,-80],[-2,-23],[-9,12],[1,8],[-11,15],[-8,-11],[-13,-36],[-38,49],[3,10],[10,-4],[4,11],[3,-1],[8,18],[18,50],[7,26]],[[3506,4482],[-2,-10],[11,-6],[-1,-18],[-20,-2],[-12,-6],[0,-24],[-7,-12],[-11,2],[-2,7],[-12,2],[-7,16],[-9,-2],[1,-15],[-10,-1],[-1,15],[-18,6],[-2,37],[11,-2],[-1,8],[-11,7],[104,6],[-1,-8]],[[4432,9217],[1,-79]],[[4433,9138],[-80,1]],[[4353,9139],[0,78]],[[4353,9217],[79,0]],[[4551,9056],[2,-8],[-10,-3],[-17,3],[-4,-22],[3,-16],[-11,-9],[-8,-2],[3,-18],[-7,-8],[-9,-3],[-6,46],[0,48],[-9,1],[-4,-24],[-13,4],[3,18],[-6,2]],[[4458,9065],[15,17],[14,10],[20,1],[29,-26],[15,-11]],[[7491,5886],[-3,-1],[2,-29],[-12,-17],[-4,-10]],[[7474,5829],[-19,8],[-23,-14],[-11,15]],[[7421,5838],[9,17],[5,15],[10,-2],[17,5],[-8,35],[19,6],[3,-8],[12,-9],[3,-11]],[[7474,5829],[-9,-37],[-5,-37]],[[7460,5755],[-36,14],[-17,5],[-19,-1],[-4,4],[15,21],[22,40]],[[7514,5811],[-18,-27],[-10,-43]],[[7486,5741],[-26,14]],[[7491,5886],[24,-7],[2,-26],[14,-6],[-10,-25],[-7,-11]],[[7514,5811],[13,-9],[3,6],[7,-3],[-4,-9],[5,-9],[-6,-11],[-4,-25],[-19,-6],[-12,6],[-5,-12],[-6,2]],[[6996,6994],[-4,-10],[16,-10],[-4,-10],[-19,3],[-1,-7],[-9,-1],[0,12],[8,0],[-6,19],[15,12],[4,-8]],[[50,8355],[-3,-8],[-9,4],[-14,-30],[-18,14],[-6,-1],[12,28],[3,4],[-5,8],[20,27],[17,-15],[-12,-24],[15,-7]],[[1669,7356],[12,-20]],[[1681,7336],[-41,-12]],[[1640,7324],[-27,-9]],[[1837,7280],[-17,-84],[-5,-18],[-12,9],[-10,13],[-18,9],[-12,0]],[[1763,7209],[26,84],[12,4],[36,-17]],[[1372,7347],[0,-16],[-32,0]],[[1340,7331],[-12,-1],[-1,69],[-39,-3]],[[1288,7396],[0,16],[-20,-1],[0,8],[-7,-2],[12,12]],[[1273,7429],[20,18],[13,1],[-2,21],[67,1]],[[1371,7470],[1,-44]],[[6895,6979],[-9,-16],[-13,3],[-7,-17],[-9,1],[-6,-12],[-21,17]],[[6830,6955],[14,30],[21,44],[24,-22],[6,12]],[[6895,7019],[1,-1],[16,27],[10,-7]],[[6922,7038],[-18,-42],[-9,-17]],[[1404,7554],[1,-41]],[[1405,7513],[-37,-2]],[[1368,7511],[-36,-3]],[[1332,7508],[1,38]],[[1333,7546],[55,7]],[[1388,7553],[16,1]],[[1404,7554],[69,9]],[[1477,7518],[-15,-1]],[[1462,7517],[-57,-4]],[[1763,7209],[-27,0],[-12,24]],[[1724,7233],[-9,31],[-2,17],[-6,17],[-10,17]],[[1697,7315],[20,13],[13,14],[16,-7]],[[1746,7335],[10,-4],[21,-4],[27,2],[24,-5],[19,-7],[-10,-37]],[[1562,7645],[6,-50]],[[1568,7595],[-66,-10]],[[1497,7666],[17,-6],[7,2],[1,12],[36,-2],[4,-27]],[[1415,7697],[-6,-77]],[[1409,7620],[-22,5]],[[1387,7625],[-55,13],[0,-34],[-54,-1]],[[1278,7603],[-4,18],[5,22],[10,-2],[8,16],[21,2],[10,-9],[4,10],[12,14],[29,11],[-2,11],[19,4],[0,-3],[25,0]],[[1456,7608],[-47,12]],[[1415,7697],[1,3],[32,8],[1,-18],[11,-8],[6,0],[0,-11]],[[1388,7553],[-1,72]],[[1333,7546],[-1,19],[-50,-7]],[[1282,7558],[-4,45]],[[1332,7508],[-49,-4],[-1,12],[15,2],[-2,23],[-32,-3]],[[1263,7538],[0,6],[19,3],[0,11]],[[1615,7602],[-47,-7]],[[1562,7645],[9,1],[36,24],[26,14],[12,25],[11,2],[-2,-31],[2,-4],[35,-15],[-1,-5]],[[1580,7495],[-4,33],[-8,67]],[[1623,7497],[-43,-2]],[[1580,7495],[-60,-2]],[[1520,7493],[-4,34],[-10,3]],[[1557,7397],[-22,-7],[-17,-2]],[[1517,7449],[-1,44],[4,0]],[[1914,7576],[-38,4],[-93,14],[-20,1]],[[1704,7657],[1,2],[22,8],[28,8],[33,-8],[60,-9],[22,-7],[40,-21],[4,-54]],[[1368,7511],[1,-22],[3,-1],[-1,-18]],[[1273,7429],[-10,109]],[[1405,7513],[0,-23],[2,-2],[0,-60]],[[1462,7517],[6,-68]],[[1444,7333],[2,-43],[-10,0],[3,-25],[5,-16],[5,-37],[0,-25],[-4,-27]],[[1445,7160],[-10,2],[1,14],[-14,-2]],[[1422,7174],[-3,24]],[[1360,7228],[-1,14],[-27,1],[4,5],[-4,7],[21,18],[0,12],[-13,25]],[[1340,7310],[0,21]],[[1529,7236],[2,-40],[-50,-4],[-11,-62],[-29,-1],[4,31]],[[1768,7453],[1,-19]],[[1769,7434],[-17,-3],[-2,-57],[-4,-39]],[[1697,7315],[-16,21]],[[1703,7482],[1,-32],[16,1],[36,4],[12,-2]],[[1847,7500],[-27,1],[-22,-1],[-23,5],[-11,-2],[4,-50]],[[1914,7576],[0,-15],[7,-55],[-1,-14],[-31,19],[-14,4],[-28,-15]],[[1847,7500],[1,-14],[-4,-11],[-4,-47],[-13,-2],[-16,1],[-31,11],[-11,-4]],[[1340,7310],[-15,-11],[-34,-30]],[[1291,7269],[-11,21],[17,1],[0,17],[-5,-1],[-4,89]],[[1422,7174],[1,-27],[-45,-9],[-5,27],[-32,-7],[-24,-19],[-1,17],[2,10],[-9,28],[2,26],[6,9],[-8,8],[-18,32]],[[1724,7233],[-39,-10]],[[1685,7223],[-1,6],[-21,-7],[-6,32],[-5,-1],[-12,71]],[[1685,7223],[-71,-18],[-3,19]],[[6504,2995],[2,-3],[23,-1],[9,-10],[9,7],[0,-11],[5,-9],[-20,-14],[-3,-45],[-15,-21],[-6,6],[-11,-26],[-2,-12],[-6,2],[4,17],[10,14],[-5,6],[6,7],[0,24],[-25,-7],[-4,11],[3,23],[7,0],[0,10],[-8,4],[10,28],[6,-1],[-2,44],[3,1],[3,-24],[7,-20]],[[4607,194],[-12,-6],[-9,1],[-11,22],[-7,22],[-19,46],[-3,21],[3,4]],[[4301,9070],[23,-34],[50,-69],[-6,-6],[17,-31]],[[4385,8930],[-35,-39],[-12,15],[-4,-5],[-10,8],[14,16],[-41,61],[-9,16],[-12,15],[-17,25],[42,28]],[[4353,9046],[80,0]],[[4433,9046],[9,0]],[[4442,9046],[-40,-47],[0,-10],[-5,-13],[-7,-30],[-1,-16],[-4,0]],[[4301,9070],[6,17],[4,2],[6,29],[-2,23],[-26,41],[8,4],[7,10]],[[4304,9196],[11,0],[0,-56],[13,-21],[-3,-38],[22,-35],[6,0]],[[4353,9139],[0,-93]],[[4304,9196],[1,18],[25,21],[24,12]],[[4354,9247],[-1,-30]],[[4496,9214],[-64,3]],[[4354,9247],[18,9],[37,17],[43,-4],[46,-26],[-2,-29]],[[4523,9137],[-7,1],[-83,0]],[[4496,9214],[11,0],[2,-21],[5,1],[4,-17],[-7,-4],[5,-12],[10,-11],[3,-10],[-6,-3]],[[4433,9138],[0,-92]],[[4523,9137],[16,-46],[13,-32],[-1,-3]],[[4458,9065],[-16,-19]],[[448,9478],[-54,19]],[[394,9497],[6,24],[6,14],[4,56],[20,0],[4,-48],[14,-14],[9,6],[9,-30],[9,5],[3,-10],[-15,-2],[-3,-10],[-12,-10]],[[419,9393],[-21,11],[-25,8]],[[373,9412],[4,28],[17,57]],[[448,9478],[-7,-13],[-12,-43],[-4,0],[-6,-29]],[[419,9393],[15,-11],[16,-41],[-6,-18],[8,-32],[-17,2],[-1,-17],[-26,5],[-24,3],[-1,13],[-12,2],[3,35],[-9,4],[3,20],[2,36],[3,18]],[[6830,6955],[-2,-2],[-23,14],[1,20],[5,-3],[6,21],[18,48],[-17,15],[-14,-21],[-12,10],[11,24],[31,-23],[8,1],[-4,-8],[18,-15],[4,8],[13,-6],[22,-19]],[[6931,6945],[-24,5],[4,17],[-16,12]],[[6922,7038],[9,15],[6,15],[9,2]],[[6946,7070],[-2,-41],[-3,-22],[-5,-20],[-5,-42]],[[6946,7070],[2,13],[10,-1],[-1,-27],[5,-1],[-4,-14],[3,0],[-4,-33],[-6,-1],[-2,-17],[3,-24],[-8,0],[-3,-24],[-10,4]],[[8373,2302],[2,5],[17,0],[-1,-18],[5,4],[9,-34],[12,4],[16,11],[17,-26],[-19,-14],[-5,2],[-29,-1],[-12,-5],[-2,-25],[-16,0],[1,19],[-7,3],[-6,10],[-3,-8],[-8,14],[-1,16],[-19,10],[-15,14],[-2,-13],[-12,2],[3,16],[16,-6],[8,4],[23,1],[2,33],[15,-2],[-1,-15],[12,-1]]]}
