{"type":"Topology","bbox":[-74.80779446438777,9.563689419546968,-74.48080882109946,9.874685588693357],"transform":{"scale":[0.00003270183451228225,0.000031102727187357606],"translate":[-74.80779446438777,9.563689419546968]},"objects":{"municipios":{"type":"GeometryCollection","geometries":[{"type":"Polygon","arcs":[[0]],"properties":{"codigo":"47555200102007000101","sector":"475552001020070001","pcode":"CO47555","area_m2":130731}},{"type":"Polygon","arcs":[[1,2]],"properties":{"codigo":"47555200206005000102","sector":"475552002060050001","pcode":"CO47555","area_m2":38594}},{"type":"Polygon","arcs":[[3,4,5,6,7]],"properties":{"codigo":"47555100000000000205","sector":"475551000000000002","pcode":"CO47555","area_m2":113830}},{"type":"Polygon","arcs":[[8,-7,9,10]],"properties":{"codigo":"47555100000000000306","sector":"475551000000000003","pcode":"CO47555","area_m2":90406}},{"type":"Polygon","arcs":[[11,12,13,14,15,16]],"properties":{"codigo":"47555100000000000303","sector":"475551000000000003","pcode":"CO47555","area_m2":141545}},{"type":"Polygon","arcs":[[17,18,19,20]],"properties":{"codigo":"47555100000000000208","sector":"475551000000000002","pcode":"CO47555","area_m2":85364}},{"type":"Polygon","arcs":[[21,22,23,24,25]],"properties":{"codigo":"47555100000000000203","sector":"475551000000000002","pcode":"CO47555","area_m2":144021}},{"type":"Polygon","arcs":[[26,-17,27,28]],"properties":{"codigo":"47555100000000000302","sector":"475551000000000003","pcode":"CO47555","area_m2":146224}},{"type":"Polygon","arcs":[[-13,29,30]],"properties":{"codigo":"47555100000000000304","sector":"475551000000000003","pcode":"CO47555","area_m2":101003}},{"type":"Polygon","arcs":[[-20,31,32,33,34,35,36,37,38,-5,39,40]],"properties":{"codigo":"47555100000000000104","sector":"475551000000000001","pcode":"CO47555","area_m2":148592}},{"type":"Polygon","arcs":[[41,42,43,-34]],"properties":{"codigo":"47555100000000000109","sector":"475551000000000001","pcode":"CO47555","area_m2":78811}},{"type":"Polygon","arcs":[[44,-29,45,46,47]],"properties":{"codigo":"47555100000000000403","sector":"475551000000000004","pcode":"CO47555","area_m2":151152}},{"type":"Polygon","arcs":[[48,49,50,51]],"properties":{"codigo":"47555100000000000503","sector":"475551000000000005","pcode":"CO47555","area_m2":400656}},{"type":"Polygon","arcs":[[-24,52,53,54,55]],"properties":{"codigo":"47555100000000000701","sector":"475551000000000007","pcode":"CO47555","area_m2":114170}},{"type":"Polygon","arcs":[[56,57,-48,58,59]],"properties":{"codigo":"47555100000000000402","sector":"475551000000000004","pcode":"CO47555","area_m2":447713}},{"type":"Polygon","arcs":[[60,61,62,-43]],"properties":{"codigo":"47555100000000000108","sector":"475551000000000001","pcode":"CO47555","area_m2":82805}},{"type":"Polygon","arcs":[[63,64,-8,-9,65]],"properties":{"codigo":"47555100000000000307","sector":"475551000000000003","pcode":"CO47555","area_m2":75990}},{"type":"Polygon","arcs":[[-10,66,-14,-31,67,68]],"properties":{"codigo":"47555100000000000305","sector":"475551000000000003","pcode":"CO47555","area_m2":104542}},{"type":"Polygon","arcs":[[69,70,-66,-11,-69]],"properties":{"codigo":"47555100000000000309","sector":"475551000000000003","pcode":"CO47555","area_m2":105463}},{"type":"Polygon","arcs":[[71,72,73,74,75]],"properties":{"codigo":"47555100000000000501","sector":"475551000000000005","pcode":"CO47555","area_m2":187326}},{"type":"Polygon","arcs":[[76,77,-18,78,-64]],"properties":{"codigo":"47555100000000000308","sector":"475551000000000003","pcode":"CO47555","area_m2":123501}},{"type":"Polygon","arcs":[[79,80,-72,81,82,-36]],"properties":{"codigo":"47555100000000000105","sector":"475551000000000001","pcode":"CO47555","area_m2":129593}},{"type":"Polygon","arcs":[[-53,-23,83,84]],"properties":{"codigo":"47555100000000000202","sector":"475551000000000002","pcode":"CO47555","area_m2":138360}},{"type":"Polygon","arcs":[[-37,-83,85,86,-50,87]],"properties":{"codigo":"47555100000000000103","sector":"475551000000000001","pcode":"CO47555","area_m2":139565}},{"type":"Polygon","arcs":[[88,-62,89,90,-73,-81]],"properties":{"codigo":"47555100000000000106","sector":"475551000000000001","pcode":"CO47555","area_m2":112533}},{"type":"Polygon","arcs":[[91,-40,-4,-65]],"properties":{"codigo":"47555100000000000206","sector":"475551000000000002","pcode":"CO47555","area_m2":115449}},{"type":"Polygon","arcs":[[92,93,-70,-68,-30,-12,-27,-45,-58]],"properties":{"codigo":"47555100000000000401","sector":"475551000000000004","pcode":"CO47555","area_m2":197689}},{"type":"Polygon","arcs":[[-87,94,-75,95,96,-51]],"properties":{"codigo":"47555100000000000502","sector":"475551000000000005","pcode":"CO47555","area_m2":714193}},{"type":"Polygon","arcs":[[-54,-85,97,98,99]],"properties":{"codigo":"47555100000000000601","sector":"475551000000000006","pcode":"CO47555","area_m2":574570}},{"type":"Polygon","arcs":[[100,-32,-19,-78]],"properties":{"codigo":"47555100000000000209","sector":"475551000000000002","pcode":"CO47555","area_m2":125254}},{"type":"Polygon","arcs":[[-93,-57,101]],"properties":{"codigo":"47555100000000000404","sector":"475551000000000004","pcode":"CO47555","area_m2":253148}},{"type":"Polygon","arcs":[[-67,-6,-39,102,-26,103,-15]],"properties":{"codigo":"47555100000000000204","sector":"475551000000000002","pcode":"CO47555","area_m2":107226}},{"type":"Polygon","arcs":[[-46,-28,-16,-104,-25,-56,104]],"properties":{"codigo":"47555100000000000301","sector":"475551000000000003","pcode":"CO47555","area_m2":151889}},{"type":"Polygon","arcs":[[-84,-22,-103,-38,-88,-49,105,-98]],"properties":{"codigo":"47555100000000000201","sector":"475551000000000002","pcode":"CO47555","area_m2":606659}},{"type":"Polygon","arcs":[[-82,-76,-95,-86]],"properties":{"codigo":"47555100000000000102","sector":"475551000000000001","pcode":"CO47555","area_m2":121784}},{"type":"Polygon","arcs":[[-74,-91,106,-96]],"properties":{"codigo":"47555100000000000101","sector":"475551000000000001","pcode":"CO47555","area_m2":688676}},{"type":"Polygon","arcs":[[-21,-41,-92,-79]],"properties":{"codigo":"47555100000000000207","sector":"475551000000000002","pcode":"CO47555","area_m2":104477}},{"type":"Polygon","arcs":[[-44,-63,-89,-80,-35]],"properties":{"codigo":"47555100000000000107","sector":"475551000000000001","pcode":"CO47555","area_m2":120642}},{"type":"Polygon","arcs":[[-47,-105,-55,-100,107,-59]],"properties":{"codigo":"47555100000000000405","sector":"475551000000000004","pcode":"CO47555","area_m2":642543}},{"type":"Polygon","arcs":[[-2,108]],"properties":{"codigo":"47555200206005000101","sector":"475552002060050001","pcode":"CO47555","area_m2":94676}},{"type":"Polygon","arcs":[[109]],"properties":{"codigo":"47555200206018000101","sector":"475552002060180001","pcode":"CO47555","area_m2":46565}},{"type":"Polygon","arcs":[[110,111]],"properties":{"codigo":"47555200104001000101","sector":"475552001040010001","pcode":"CO47555","area_m2":127869}},{"type":"Polygon","arcs":[[-112,112]],"properties":{"codigo":"47555200104001000102","sector":"475552001040010001","pcode":"CO47555","area_m2":74889}},{"type":"Polygon","arcs":[[113,114]],"properties":{"codigo":"47555200504002000101","sector":"475552005040020001","pcode":"CO47555","area_m2":129151}},{"type":"Polygon","arcs":[[-114,115]],"properties":{"codigo":"47555200504002000102","sector":"475552005040020001","pcode":"CO47555","area_m2":85654}},{"type":"Polygon","arcs":[[116]],"properties":{"codigo":"47555200204006000101","sector":"475552002040060001","pcode":"CO47555","area_m2":70548}},{"type":"MultiPolygon","arcs":[[[117]],[[118]]],"properties":{"codigo":"47555200302008000101","sector":"475552003020080001","pcode":"CO47555","area_m2":29971}},{"type":"MultiPolygon","arcs":[[[119]],[[120]]],"properties":{"codigo":"47555200402011000101","sector":"475552004020110001","pcode":"CO47555","area_m2":73360}},{"type":"MultiPolygon","arcs":[[[121]],[[122]]],"properties":{"codigo":"47555201102015000101","sector":"475552011020150001","pcode":"CO47555","area_m2":56438}},{"type":"Polygon","arcs":[[123,124]],"properties":{"codigo":"47555200404017000102","sector":"475552004040170001","pcode":"CO47555","area_m2":50602}},{"type":"Polygon","arcs":[[125]],"properties":{"codigo":"47555200504020000101","sector":"475552005040200001","pcode":"CO47555","area_m2":36119}},{"type":"Polygon","arcs":[[126]],"properties":{"codigo":"47555200504020000102","sector":"475552005040200001","pcode":"CO47555","area_m2":44600}},{"type":"MultiPolygon","arcs":[[[127]],[[128]]],"properties":{"codigo":"47555202004021000101","sector":"475552020040210001","pcode":"CO47555","area_m2":108175}},{"type":"Polygon","arcs":[[129,130,131,-124]],"properties":{"codigo":"47555200404017000101","sector":"475552004040170001","pcode":"CO47555","area_m2":71712}},{"type":"Polygon","arcs":[[-131,132]],"properties":{"codigo":"47555200404017000103","sector":"475552004040170001","pcode":"CO47555","area_m2":10409}}]}},"arcs":[[[3675,8841],[0,-5],[11,7],[8,-6],[12,-18],[5,-13],[-3,-19],[-1,-33],[-5,-12],[-13,-9],[-35,-18],[1,-4],[-46,-25],[-2,3],[-26,-14],[-27,65],[3,11],[-10,15],[12,5],[9,-21],[13,-1],[9,-17],[-3,-1],[8,-31],[14,7],[4,-6],[15,17],[10,24],[2,19],[14,14],[0,19],[-19,-3],[-7,13],[0,18],[34,15],[4,21],[6,-1],[3,-16]],[[3825,5264],[27,47],[12,5],[49,15]],[[3913,5331],[3,-13],[-18,-17],[6,-6],[5,6],[9,-6],[-5,-7],[13,-3],[-7,-10],[-11,8],[-5,-2],[-13,9],[-8,-13],[-8,4],[-9,-8],[-7,6],[-14,-10],[-8,-10],[-11,5]],[[777,7246],[-40,15],[-16,30],[-8,5],[4,8],[-28,27],[-11,8]],[[678,7339],[20,49]],[[698,7388],[68,-39],[36,-19]],[[802,7330],[-12,-25],[7,-4],[-11,-34]],[[786,7267],[-9,-21]],[[902,7217],[-97,43],[-19,7]],[[802,7330],[31,-19],[24,-12],[60,-34]],[[917,7265],[-7,-16],[-2,-34],[-6,2]],[[1041,7364],[6,-3],[-4,-11],[-25,-37]],[[1018,7313],[-88,47],[-63,25],[-16,-40]],[[851,7345],[-18,11],[-16,7]],[[817,7363],[14,50],[30,22],[-1,10]],[[860,7445],[20,2]],[[880,7447],[1,-10],[25,-4],[-8,-24],[27,-7],[48,-16],[26,-7],[42,-15]],[[741,7137],[-16,-41]],[[725,7096],[-60,32],[-11,-41],[-25,13],[-6,12],[-6,-4]],[[617,7108],[-23,32],[20,39]],[[614,7179],[28,-10],[31,-9],[68,-23]],[[764,7432],[32,49]],[[796,7481],[11,18],[21,44],[19,32],[13,30],[7,29]],[[867,7634],[36,-16]],[[903,7618],[-1,-12],[-10,-40],[-1,-34],[-19,-44],[-12,-20],[0,-21]],[[860,7447],[-55,-12],[-41,-3]],[[1027,7469],[-3,-14],[5,-41],[5,-14],[7,-36]],[[880,7447],[38,7],[34,22],[43,31]],[[995,7507],[20,-21],[12,-17]],[[1018,7313],[-28,-42]],[[990,7271],[-25,11],[-68,35],[-46,28]],[[617,7108],[5,-14],[-10,-5]],[[612,7089],[-10,25],[-14,11],[-1,11],[-12,14],[-25,21]],[[550,7171],[-13,10],[7,13],[42,-24],[10,42],[11,34]],[[607,7246],[5,25]],[[612,7271],[18,66],[11,44],[3,24]],[[644,7405],[8,1]],[[652,7406],[53,3]],[[705,7409],[-7,-21]],[[678,7339],[-20,-48],[-22,-62]],[[636,7229],[-22,-50]],[[550,7171],[-20,-22],[-12,3],[14,31],[-17,7],[-21,17],[-19,19]],[[475,7226],[10,11],[-6,9],[7,1],[15,-17],[18,-9],[22,8],[13,20],[10,4]],[[564,7253],[15,2],[28,-9]],[[1056,7510],[-29,-41]],[[995,7507],[14,12],[-9,10],[-45,-33],[-8,-2],[5,27],[13,-3],[5,50],[-30,-6],[5,44],[-2,20]],[[943,7626],[32,-2],[0,-20],[14,-1],[-2,-17],[27,-5],[2,3],[15,-14],[4,5],[14,-14],[22,25],[7,-7],[15,9],[11,10],[23,14],[2,-3],[13,10],[6,11]],[[1148,7630],[3,-40],[-3,-15],[3,-6],[-25,-18],[-20,-9],[-5,6],[11,11],[-17,20],[-13,-10],[-32,-19],[-18,-15],[24,-25]],[[572,7796],[2,-6],[-71,-35],[4,-21],[32,-65]],[[539,7669],[-8,1],[-14,-19],[9,-15],[9,-21]],[[535,7615],[-21,-5],[-38,-26],[-3,12],[-12,-4],[-15,12],[-4,-6],[0,-50],[-17,13],[-9,11],[-5,-7],[-14,-4],[-7,5],[4,40]],[[394,7606],[-3,100],[13,-1],[33,19],[-14,95],[11,35],[78,-7],[42,7],[18,-58]],[[867,7634],[-36,16],[-10,3]],[[821,7653],[18,47],[-1,4],[13,33],[21,27],[19,17]],[[891,7781],[16,-42],[14,-20],[-10,-45],[-9,-23],[1,-22]],[[903,7629],[0,-11]],[[1178,7479],[-42,-20],[-26,-6]],[[1110,7453],[-54,57]],[[1148,7630],[11,21],[2,20],[18,19],[18,10],[2,16]],[[1199,7716],[3,-2],[71,-33],[2,-21],[6,-23],[5,0],[20,-18],[11,-26],[7,-26],[-31,-18],[-38,-28],[-77,-42]],[[475,7226],[-9,4],[-18,16],[-5,9],[-20,18]],[[423,7273],[9,12],[-12,18],[10,21]],[[430,7324],[14,-19],[64,-22],[56,-30]],[[896,7179],[-17,0],[-64,24],[-47,16]],[[768,7219],[9,27]],[[902,7217],[-2,-24],[-4,-14]],[[802,7330],[15,33]],[[990,7271],[31,-12]],[[1021,7259],[-4,-20],[-6,2],[-5,-16],[-89,40]],[[1021,7259],[9,-3]],[[1030,7256],[15,-47],[-6,4],[-12,-19],[-28,8],[-1,-24],[-23,-15],[-16,13],[-8,1],[3,7],[-30,-4],[-28,-1]],[[590,7400],[-40,-5],[-22,4],[-1,-8]],[[527,7391],[-15,1]],[[512,7392],[-2,10],[-18,7],[-22,11],[-28,29],[-11,8],[-12,2]],[[419,7459],[3,6],[11,3],[1,41],[40,0],[18,2],[2,11],[30,1]],[[524,7523],[32,7],[20,-82],[6,-18],[8,-30]],[[896,7179],[3,-8],[-34,-14],[-19,0],[-7,-6],[-1,-13],[-8,1],[-34,11],[-3,-2],[19,-7],[-5,-9],[-10,3],[-11,-28],[-17,9],[-18,-23],[2,-3],[-32,-44],[-2,-12],[-7,2]],[[712,7036],[12,30],[12,24],[-11,6]],[[741,7137],[27,82]],[[612,7271],[-20,7],[4,10],[-14,10],[-34,27],[-36,26]],[[512,7351],[15,40]],[[590,7400],[33,4]],[[623,7404],[21,1]],[[796,7481],[-12,3],[-4,19],[-23,60],[1,13],[22,44],[-16,8]],[[764,7628],[13,28],[38,-15],[6,12]],[[623,7404],[0,19],[-18,72],[-15,55],[-18,71],[-36,-11]],[[536,7610],[-1,5]],[[539,7669],[16,-2],[14,-13],[1,7],[15,-8],[14,-1],[19,-13],[-9,-12],[-9,-5],[3,-17],[18,-7],[11,6],[8,-15],[-4,-15],[-14,-10],[-2,-9],[11,-42],[4,-8],[1,-16],[6,-22],[15,-5],[5,-15],[-11,-21],[1,-20]],[[512,7351],[-28,22],[-54,-49]],[[423,7273],[-9,10],[-31,16],[-27,8],[-23,11],[-15,0],[-40,-6],[-36,-12],[-4,7],[-9,-3],[-5,9]],[[224,7313],[18,11],[49,0],[34,6],[34,0],[20,12],[17,15],[23,15],[23,11],[13,-2],[57,11]],[[768,7219],[-41,15],[-10,-33],[-40,13],[-41,15]],[[1110,7453],[-29,-6],[6,-33],[2,-4],[4,-33],[-2,-20],[1,-23],[4,-10],[-9,-3],[5,-10],[22,-21],[-3,-29]],[[1111,7261],[-31,2],[-50,-7]],[[536,7610],[-10,-8],[11,-48],[-18,-4],[5,-27]],[[419,7459],[-25,-2],[-30,9],[-11,-4],[-31,-21],[-31,-11],[-67,53],[-67,56],[-46,33]],[[111,7572],[73,128],[22,-14],[188,-80]],[[764,7628],[-9,-18],[-10,11],[-24,-2],[-28,-9],[-9,24],[-11,10],[-16,67],[-20,81],[-4,22]],[[633,7814],[18,4],[158,50],[30,11],[44,12],[8,-30]],[[891,7861],[4,-35],[-5,-34],[1,-11]],[[712,7036],[-10,0],[2,-7],[-9,-34],[-64,18],[-25,5],[15,32],[-1,17],[-8,22]],[[1178,7479],[8,-11],[-18,-11],[7,-4],[14,-29],[6,-7],[-9,-15],[5,-36],[-18,-13],[16,-15],[7,5],[23,-21],[11,14],[15,14],[8,-6],[-18,-18],[-12,-18],[-17,-36],[-62,-11],[-21,-2],[-12,2]],[[705,7409],[17,0],[42,-8],[-5,30],[5,1]],[[860,7447],[0,-2]],[[903,7629],[23,-3],[17,0]],[[572,7796],[9,3],[52,15]],[[224,7313],[-36,-17],[-4,15],[-48,30],[-10,9],[10,20],[-7,7],[14,41],[-67,32],[-12,3],[-17,-1],[-16,-6],[-19,27],[-12,21],[41,-5],[15,21],[21,9],[34,53]],[[891,7861],[20,-4],[66,-27],[78,-46],[144,-68]],[[3825,5264],[-15,10],[7,10],[-24,13],[-6,13],[-26,17],[6,6],[12,-7],[0,39],[-30,4],[0,11],[28,-4],[-1,-7],[34,3],[-1,15],[8,1],[2,-19],[6,-6],[6,5],[13,-10],[5,16],[10,3],[3,-8],[-7,-16],[7,-15],[19,10],[17,-19],[8,8],[7,-6]],[[3829,4423],[5,5],[7,-4],[2,-11],[14,-4],[-2,-7],[-8,2],[-4,-19],[-19,-3],[-1,-15],[-13,-2],[3,-13],[-2,-38],[-18,3],[8,7],[-3,16],[-7,22],[-9,-7],[2,-10],[-12,-4],[-7,10],[7,3],[0,12],[18,0],[4,21],[-8,6],[4,13],[10,4],[2,9],[13,-3],[-3,20],[7,-1],[0,-10],[10,-2]],[[6951,9908],[1,-9],[-21,-12],[-9,15],[-80,-55],[-6,17],[-27,-4],[-23,10],[6,11],[18,-10],[4,3],[1,14],[-5,2],[8,7],[1,10],[7,1],[-4,31],[-12,-2],[-2,10],[13,4],[-6,13],[27,13],[1,-5],[24,11],[2,-10]],[[6869,9973],[-1,0],[16,-42],[33,20],[26,-43],[8,0]],[[6869,9973],[4,2],[13,-35],[30,17],[-2,15],[-6,5],[3,9],[18,-5],[10,-9],[18,-1],[-2,24],[31,4],[-1,-16],[30,11],[1,-13],[6,-23],[-25,-8],[-31,-17],[6,-19],[14,-4],[-1,-7],[-15,4],[-19,1]],[[1637,1211],[-5,-35],[-3,-47],[0,-42]],[[1629,1087],[-2,-23],[-11,1],[-4,-9],[-1,25],[-31,0],[0,128],[30,1],[11,15],[4,44],[-2,45],[-3,0],[-1,38],[5,55],[4,1],[4,23],[11,0],[-3,-19],[5,0],[-1,-18],[-5,-7],[-2,-25],[3,-81],[-9,0],[-1,-12],[7,0],[0,-58]],[[1637,1211],[14,-1],[-1,-30],[41,-12],[10,4],[13,-6],[-3,-18],[-10,-6],[10,-1],[-5,-33],[6,-2],[-1,-9],[-30,5],[-1,-14],[-12,3],[2,-13],[-7,0],[0,15],[-21,-1],[-13,-5]],[[4463,6883],[0,-33],[5,1],[-1,-28],[17,-9],[-6,-6],[0,-12],[-23,4],[-19,8],[-20,18],[-17,3],[1,-9],[-12,-6],[0,-8],[-7,15],[-25,1],[1,10],[17,-1],[10,6],[13,32],[21,-5],[5,8],[9,-3],[20,14],[2,13],[-12,23],[-18,20],[5,4],[26,-33],[8,-27]],[[2797,6608],[20,-25],[-8,-4],[-12,25],[-13,-1],[-4,-12],[-7,0],[-1,-19],[5,-11],[15,1],[-9,-17],[-7,-3],[-1,-9],[-8,-7],[-21,2],[-8,4],[0,9],[8,21],[3,-2],[10,13],[2,15],[10,18],[5,-3],[20,17],[1,-12]],[[2788,6635],[-9,0],[0,10],[9,0],[0,-10]],[[218,5098],[-3,0],[-1,-33],[8,-21],[-3,-17],[3,-11],[11,0],[3,-17],[-14,4],[-3,-18],[13,-24],[15,-2],[8,-20],[17,3],[-4,-9],[22,-3],[7,-21],[-31,-14],[-12,16],[-4,-3],[-16,17],[-6,14],[-8,8],[-3,12],[-10,16],[-2,10],[-19,46],[8,7],[16,1],[-7,18],[-17,-2],[5,12],[13,1],[0,12],[-17,0],[0,6],[17,13],[4,29],[10,-1],[0,-29]],[[226,5149],[-3,9],[13,-5],[-10,-4]],[[9066,2974],[9,-3],[10,-16],[4,6],[19,-4],[21,-2],[-4,-12],[-4,-38],[-8,-2],[3,-12],[-16,-4],[-3,12],[-10,-3],[-19,28],[-11,-2],[-8,27],[-7,12],[7,9],[-7,7],[8,10],[16,-13]],[[9122,2854],[-5,12],[6,5],[5,-15],[-6,-2]],[[1158,2351],[-18,1],[-13,-4],[-11,22],[-26,-15]],[[1090,2355],[-5,24],[0,11],[6,16],[7,2],[-13,31],[8,-6],[8,1],[3,-11],[30,10],[5,-24],[16,-40],[3,-18]],[[1578,451],[0,-28],[12,2],[3,-19],[17,3],[-2,-19],[4,-1],[-3,-16],[2,-15],[-9,2],[-2,-11],[-37,9],[-3,7],[13,45],[-3,33],[3,2],[3,28],[5,-1],[-3,-21]],[[1569,159],[12,-81],[7,0],[2,-11],[-12,-1],[0,-7],[-17,-3],[-23,-29],[-6,4],[-19,-25],[-10,-1],[16,19],[22,32],[-7,7],[6,7],[11,41],[8,-1],[2,24],[-4,0],[0,25],[3,-1],[0,20],[9,8],[0,-27]],[[9853,8887],[24,-17],[8,11],[38,-28],[3,-8],[12,-9],[-5,-6],[29,-26],[6,7],[8,-7],[13,1],[10,-5],[-20,-14],[10,-12],[6,-14],[-11,-2],[-7,7],[-8,-3],[-10,12],[7,14],[-20,21],[-1,-1],[-24,21],[-3,-4],[-18,13],[0,2],[-25,17],[-22,-3],[-30,-55],[1,-10],[-8,2],[3,22],[-37,-14],[-2,5],[12,6],[-4,8],[6,4],[0,16],[21,25],[-21,36],[22,21],[37,-33]],[[9808,8766],[-13,1],[8,21],[10,-4],[-5,-18]],[[1158,2351],[4,-26],[6,3],[6,-9],[-16,-10],[14,-23],[6,4],[8,-11],[-6,-7]],[[1180,2272],[-20,-17]],[[1160,2255],[-16,17],[-7,-7],[-33,32],[0,16],[-10,21],[2,5],[-6,16]],[[1180,2272],[4,-7],[-7,-6],[7,-12],[21,7],[2,-17],[-9,-1],[0,-11],[-19,12],[-19,18]]]}
