{"type":"Topology","bbox":[-74.76152413681052,10.089267044869596,-74.59192315488804,10.248079799599942],"transform":{"scale":[0.00001696179437168572,0.000015882863759410623],"translate":[-74.76152413681052,10.089267044869596]},"objects":{"municipios":{"type":"GeometryCollection","geometries":[{"type":"Polygon","arcs":[[0,1,2,3,4,5]],"properties":{"codigo":"47960100000000000105","sector":"479601000000000001","pcode":"CO47960","area_m2":40243}},{"type":"Polygon","arcs":[[6,7,8]],"properties":{"codigo":"47960200302003000103","sector":"479602003020030001","pcode":"CO47960","area_m2":77991}},{"type":"Polygon","arcs":[[9]],"properties":{"codigo":"47960200403004000101","sector":"479602004030040001","pcode":"CO47960","area_m2":76333}},{"type":"Polygon","arcs":[[10]],"properties":{"codigo":"47960200203006000101","sector":"479602002030060001","pcode":"CO47960","area_m2":35185}},{"type":"Polygon","arcs":[[11,-2,12,13]],"properties":{"codigo":"47960100000000000106","sector":"479601000000000001","pcode":"CO47960","area_m2":97242}},{"type":"Polygon","arcs":[[14,15,16]],"properties":{"codigo":"47960100000000000101","sector":"479601000000000001","pcode":"CO47960","area_m2":16800}},{"type":"Polygon","arcs":[[17,-17,18]],"properties":{"codigo":"47960100000000000102","sector":"479601000000000001","pcode":"CO47960","area_m2":21376}},{"type":"Polygon","arcs":[[-13,-1,19,-15,-18,20]],"properties":{"codigo":"47960100000000000103","sector":"479601000000000001","pcode":"CO47960","area_m2":69300}},{"type":"Polygon","arcs":[[21,-5]],"properties":{"codigo":"47960100000000000104","sector":"479601000000000001","pcode":"CO47960","area_m2":39165}},{"type":"Polygon","arcs":[[22,-3,-12]],"properties":{"codigo":"47960100000000000107","sector":"479601000000000001","pcode":"CO47960","area_m2":162736}},{"type":"MultiPolygon","arcs":[[[23,24]],[[25]],[[26]]],"properties":{"codigo":"47960200204001000101","sector":"479602002040010001","pcode":"CO47960","area_m2":56320}},{"type":"Polygon","arcs":[[-24,27]],"properties":{"codigo":"47960200204001000102","sector":"479602002040010001","pcode":"CO47960","area_m2":45043}},{"type":"Polygon","arcs":[[28,29]],"properties":{"codigo":"47960200201002000101","sector":"479602002010020001","pcode":"CO47960","area_m2":4269}},{"type":"MultiPolygon","arcs":[[[-30,30]],[[31]]],"properties":{"codigo":"47960200201002000102","sector":"479602002010020001","pcode":"CO47960","area_m2":39463}},{"type":"Polygon","arcs":[[-8,32,33]],"properties":{"codigo":"47960200302003000101","sector":"479602003020030001","pcode":"CO47960","area_m2":28844}},{"type":"Polygon","arcs":[[-9,-34,34]],"properties":{"codigo":"47960200302003000102","sector":"479602003020030001","pcode":"CO47960","area_m2":37058}},{"type":"Polygon","arcs":[[35]],"properties":{"codigo":"47960200101005000101","sector":"479602001010050001","pcode":"CO47960","area_m2":26840}}]}},"arcs":[[[2541,5123],[58,-100]],[[2599,5023],[27,-48]],[[2626,4975],[-71,-48]],[[2555,4927],[-21,19],[-14,-7],[-11,20],[9,8]],[[2518,4967],[3,63],[8,93]],[[2529,5123],[12,0]],[[1954,681],[9,-17],[1,-48],[-9,3],[1,-29],[45,-29],[21,-8],[10,41],[29,-6],[-5,-24],[16,-4],[-4,-18],[30,-2],[15,15],[-4,20],[49,-7],[-11,-20],[17,5],[29,-18],[-8,-15],[43,-54],[10,16],[24,-16],[-14,-21],[-49,51],[-50,19],[-75,7],[-65,9],[-76,32],[-32,11],[1,8],[-75,29],[4,22],[13,16]],[[1844,649],[14,26],[-19,7],[13,31]],[[1852,713],[45,-13],[23,-14],[34,-5]],[[60,206],[39,-35],[-8,19],[13,15],[31,-17],[5,9],[21,-14],[6,12],[25,-14],[-14,-25],[28,-18],[10,-18],[-10,-14],[2,-36],[13,-15],[-11,-14],[12,-12],[-24,-29],[-47,45],[-7,18],[-14,0],[-7,-17],[-23,-16],[-81,70],[-8,-17],[-11,8],[19,25],[50,-49],[31,41],[-37,37],[-20,-19],[-17,26],[14,16],[-2,24],[22,14]],[[7739,5847],[85,-43],[-9,-27],[-24,11],[-4,-27],[-13,0],[-2,21],[-39,6],[-12,-38],[-27,-1],[-16,16],[11,38],[-37,25],[19,51],[68,-32]],[[2791,4871],[-55,31],[-62,106],[-48,-33]],[[2599,5023],[97,62],[31,25],[-12,7],[23,42]],[[2738,5159],[44,-20],[-26,-44],[33,-17],[-18,-17],[14,-16],[-8,-6],[27,-42],[19,7],[-1,-106],[-4,-21],[-27,-6]],[[2504,5218],[-8,-23]],[[2496,5195],[-17,5],[-62,0],[-4,26],[-27,15],[3,10],[-18,11],[8,23]],[[2379,5285],[27,-20],[66,-27],[32,-20]],[[2553,5215],[3,-23],[-52,26]],[[2379,5285],[-2,12],[30,10],[-5,-24],[12,-3],[4,15],[39,-11],[40,-2],[9,-27],[33,-18],[14,-22]],[[2541,5123],[11,19],[-11,21],[-16,6],[0,14],[-29,12]],[[2553,5215],[13,8],[40,-35],[23,-39],[33,-35],[4,9],[2,51],[25,17],[10,18],[10,-30],[-30,-20],[30,-5],[25,5]],[[2518,4967],[-26,-10],[-18,18],[-4,32],[-31,-3],[-10,23],[-11,-1],[-6,37],[3,39],[59,1],[13,-17],[22,7],[0,33],[20,-3]],[[2791,4871],[-23,-52],[37,-24],[-20,-39],[-40,24],[-33,-61],[-29,-48],[41,-39],[-20,-28],[-17,-9],[-26,25],[-17,-22],[-12,9],[-13,-19],[2,34],[-19,35],[-18,-8],[-10,26],[23,6],[-4,23],[5,25],[-15,43],[22,15],[30,-36],[15,34],[-26,38],[19,7],[-24,36],[-13,34],[-25,-9],[-26,36]],[[9857,7879],[-20,-21],[-17,-45],[-10,-12]],[[9810,7801],[-14,-14],[-10,7],[-18,-9],[-7,31],[-10,-2],[-3,66],[-21,36],[3,17],[-25,46],[-2,15],[21,-7],[31,12],[12,-28],[18,-14],[14,8],[58,-86]],[[9699,7969],[-8,-6],[-14,24],[14,4],[8,-22]],[[9673,7996],[-13,-2],[1,19],[12,-17]],[[9857,7879],[79,-57],[25,25],[38,-56],[-35,-18],[11,-24],[-33,-15],[-35,15],[-10,-3],[-31,34],[-56,21]],[[2216,4286],[-6,-13],[-9,22],[-31,18],[7,17],[-24,17],[11,8]],[[2164,4355],[52,-69]],[[2164,4355],[7,22],[30,21],[19,-3],[-13,14],[46,42],[8,-18],[24,-3],[-19,-12],[-23,-27],[24,-15],[-40,-62],[10,-7],[-21,-21]],[[2438,4508],[23,-13],[-12,-9],[11,-18],[14,-3],[-2,-35],[-9,0],[1,27],[-40,-26],[-48,0],[-14,-17],[-28,-8],[40,30],[-5,9],[41,4],[23,10],[2,17],[-21,16],[24,16]],[[1844,649],[-28,20],[-12,-11],[-47,40],[-52,9],[-50,22],[5,16],[35,-13],[19,23]],[[1714,755],[138,-42]],[[1714,755],[7,23],[54,-15],[11,10],[55,-18],[22,-15],[24,36],[26,-14],[17,10],[-19,-47],[22,-7],[20,16],[6,-7],[22,23],[8,-7],[14,18],[7,-6],[-11,-27],[-34,-24],[-11,-23]],[[4639,9997],[24,-42],[-5,-19],[20,-37],[23,-57],[39,-59],[-6,-4],[-54,75],[-65,58],[-30,37],[2,30],[24,13],[28,5]]]}
