{"type":"Topology","bbox":[-74.26547676530464,10.736748381907208,-73.91951735589367,11.028470664742596],"transform":{"scale":[0.00003459940088118473,0.000029175145798118527],"translate":[-74.26547676530464,10.736748381907208]},"objects":{"municipios":{"type":"GeometryCollection","geometries":[{"type":"Polygon","arcs":[[0,1]],"properties":{"codigo":"47189100000000000207","sector":"471891000000000002","pcode":"CO47189","area_m2":38393}},{"type":"Polygon","arcs":[[2,3,4,5,6,7]],"properties":{"codigo":"47189100000000000102","sector":"471891000000000001","pcode":"CO47189","area_m2":67396}},{"type":"Polygon","arcs":[[8,9,10,11,12,13]],"properties":{"codigo":"47189100000000000105","sector":"471891000000000001","pcode":"CO47189","area_m2":46188}},{"type":"Polygon","arcs":[[14,15,-8,16]],"properties":{"codigo":"47189100000000000201","sector":"471891000000000002","pcode":"CO47189","area_m2":75914}},{"type":"Polygon","arcs":[[17,18,19,20,21,22,23]],"properties":{"codigo":"47189100000000000304","sector":"471891000000000003","pcode":"CO47189","area_m2":49424}},{"type":"Polygon","arcs":[[24,25,26,27,-24]],"properties":{"codigo":"47189100000000000306","sector":"471891000000000003","pcode":"CO47189","area_m2":103458}},{"type":"Polygon","arcs":[[28,29,30,-27,31,32]],"properties":{"codigo":"47189100000000000307","sector":"471891000000000003","pcode":"CO47189","area_m2":177818}},{"type":"Polygon","arcs":[[33,34,-18,-28,-31,35,36]],"properties":{"codigo":"47189100000000000308","sector":"471891000000000003","pcode":"CO47189","area_m2":262502}},{"type":"Polygon","arcs":[[37,38,39,40,41]],"properties":{"codigo":"47189100000000000401","sector":"471891000000000004","pcode":"CO47189","area_m2":83245}},{"type":"Polygon","arcs":[[42,43,44,45,46]],"properties":{"codigo":"47189100000000000406","sector":"471891000000000004","pcode":"CO47189","area_m2":104809}},{"type":"Polygon","arcs":[[47,48,-38,49,50,51]],"properties":{"codigo":"47189100000000000408","sector":"471891000000000004","pcode":"CO47189","area_m2":140756}},{"type":"Polygon","arcs":[[52,53,54,-21,55,-41]],"properties":{"codigo":"47189100000000000409","sector":"471891000000000004","pcode":"CO47189","area_m2":63563}},{"type":"Polygon","arcs":[[56,57,58,-53,-40,59,60]],"properties":{"codigo":"47189100000000000501","sector":"471891000000000005","pcode":"CO47189","area_m2":84746}},{"type":"Polygon","arcs":[[61,62,-61,63,64,65]],"properties":{"codigo":"47189100000000000502","sector":"471891000000000005","pcode":"CO47189","area_m2":77477}},{"type":"Polygon","arcs":[[66,67,68,69,70]],"properties":{"codigo":"47189100000000000505","sector":"471891000000000005","pcode":"CO47189","area_m2":139221}},{"type":"Polygon","arcs":[[71,72,73,74,-13,75,-58]],"properties":{"codigo":"47189100000000000603","sector":"471891000000000006","pcode":"CO47189","area_m2":142872}},{"type":"Polygon","arcs":[[76,77,78,79,80]],"properties":{"codigo":"47189100000000000701","sector":"471891000000000007","pcode":"CO47189","area_m2":46787}},{"type":"Polygon","arcs":[[81,82,-77,83,84,85]],"properties":{"codigo":"47189100000000000703","sector":"471891000000000007","pcode":"CO47189","area_m2":54508}},{"type":"Polygon","arcs":[[86,-78,-83,87,88]],"properties":{"codigo":"47189100000000000704","sector":"471891000000000007","pcode":"CO47189","area_m2":39447}},{"type":"Polygon","arcs":[[-88,-82,89,90,91]],"properties":{"codigo":"47189100000000000705","sector":"471891000000000007","pcode":"CO47189","area_m2":31437}},{"type":"Polygon","arcs":[[92,93,94,95,96]],"properties":{"codigo":"47189100000000000802","sector":"471891000000000008","pcode":"CO47189","area_m2":130245}},{"type":"Polygon","arcs":[[97,98,99,100,101]],"properties":{"codigo":"47189100000000000807","sector":"471891000000000008","pcode":"CO47189","area_m2":104158}},{"type":"Polygon","arcs":[[102,-102,103]],"properties":{"codigo":"47189100000000000808","sector":"471891000000000008","pcode":"CO47189","area_m2":140362}},{"type":"Polygon","arcs":[[104,105,106,-47]],"properties":{"codigo":"47189100000000000903","sector":"471891000000000009","pcode":"CO47189","area_m2":78801}},{"type":"Polygon","arcs":[[-43,-107,107,108,109]],"properties":{"codigo":"47189100000000000904","sector":"471891000000000009","pcode":"CO47189","area_m2":127632}},{"type":"Polygon","arcs":[[110,111,112,113,-98,-103]],"properties":{"codigo":"47189100000000000906","sector":"471891000000000009","pcode":"CO47189","area_m2":371132}},{"type":"Polygon","arcs":[[114,-29,115,116,117]],"properties":{"codigo":"47189100000000001001","sector":"471891000000000010","pcode":"CO47189","area_m2":70140}},{"type":"Polygon","arcs":[[-30,-115,118,-36]],"properties":{"codigo":"47189100000000001002","sector":"471891000000000010","pcode":"CO47189","area_m2":31068}},{"type":"MultiPolygon","arcs":[[[119,120]],[[121]]],"properties":{"codigo":"47189200204006000103","sector":"471892002040060001","pcode":"CO47189","area_m2":75471}},{"type":"Polygon","arcs":[[122,123]],"properties":{"codigo":"47189200204006000101","sector":"471892002040060001","pcode":"CO47189","area_m2":97989}},{"type":"Polygon","arcs":[[124]],"properties":{"codigo":"47189200604024000101","sector":"471892006040240001","pcode":"CO47189","area_m2":39778}},{"type":"Polygon","arcs":[[-121,125,-123,126]],"properties":{"codigo":"47189200204006000102","sector":"471892002040060001","pcode":"CO47189","area_m2":35717}},{"type":"Polygon","arcs":[[127,128,129,-5,130]],"properties":{"codigo":"47189100000000000101","sector":"471891000000000001","pcode":"CO47189","area_m2":118320}},{"type":"Polygon","arcs":[[131,-131,-4,132,-80,133,-10]],"properties":{"codigo":"47189100000000000103","sector":"471891000000000001","pcode":"CO47189","area_m2":78801}},{"type":"Polygon","arcs":[[-128,-132,134]],"properties":{"codigo":"47189100000000000104","sector":"471891000000000001","pcode":"CO47189","area_m2":106504}},{"type":"Polygon","arcs":[[-94,135,-50,-42,-56,-20,136]],"properties":{"codigo":"47189100000000000402","sector":"471891000000000004","pcode":"CO47189","area_m2":98052}},{"type":"Polygon","arcs":[[137,-64,-60,-39,-49]],"properties":{"codigo":"47189100000000000403","sector":"471891000000000004","pcode":"CO47189","area_m2":74855}},{"type":"Polygon","arcs":[[-12,138,-89,-92,139,-54,-59,-76]],"properties":{"codigo":"47189100000000000706","sector":"471891000000000007","pcode":"CO47189","area_m2":64868}},{"type":"Polygon","arcs":[[-135,-9,140,141,-129]],"properties":{"codigo":"47189100000000000106","sector":"471891000000000001","pcode":"CO47189","area_m2":283884}},{"type":"Polygon","arcs":[[-84,-81,-133,-3,-16,142,143]],"properties":{"codigo":"47189100000000000202","sector":"471891000000000002","pcode":"CO47189","area_m2":67865}},{"type":"Polygon","arcs":[[144,145,-17,-7,146]],"properties":{"codigo":"47189100000000000203","sector":"471891000000000002","pcode":"CO47189","area_m2":427212}},{"type":"Polygon","arcs":[[147,148,-2,149,150,-145,151]],"properties":{"codigo":"47189100000000000204","sector":"471891000000000002","pcode":"CO47189","area_m2":409699}},{"type":"Polygon","arcs":[[-143,-15,-146,-151,152]],"properties":{"codigo":"47189100000000000205","sector":"471891000000000002","pcode":"CO47189","area_m2":65771}},{"type":"Polygon","arcs":[[153,154,155,-85,-144,-153,-150,-1,-149]],"properties":{"codigo":"47189100000000000206","sector":"471891000000000002","pcode":"CO47189","area_m2":147516}},{"type":"Polygon","arcs":[[-116,-33,156,-154,-148,157]],"properties":{"codigo":"47189100000000000208","sector":"471891000000000002","pcode":"CO47189","area_m2":284394}},{"type":"Polygon","arcs":[[-90,-86,-156,158,159,160]],"properties":{"codigo":"47189100000000000301","sector":"471891000000000003","pcode":"CO47189","area_m2":60198}},{"type":"Polygon","arcs":[[-140,-91,-161,161,-22,-55]],"properties":{"codigo":"47189100000000000302","sector":"471891000000000003","pcode":"CO47189","area_m2":91497}},{"type":"Polygon","arcs":[[-162,-160,-25,-23]],"properties":{"codigo":"47189100000000000303","sector":"471891000000000003","pcode":"CO47189","area_m2":58817}},{"type":"Polygon","arcs":[[-26,-159,-155,-157,-32]],"properties":{"codigo":"47189100000000000305","sector":"471891000000000003","pcode":"CO47189","area_m2":91952}},{"type":"Polygon","arcs":[[-52,162,163,164,-46,165]],"properties":{"codigo":"47189100000000000404","sector":"471891000000000004","pcode":"CO47189","area_m2":67651}},{"type":"Polygon","arcs":[[166,167,168,-71,169,170,-65,-138,-48,171]],"properties":{"codigo":"47189100000000000405","sector":"471891000000000004","pcode":"CO47189","area_m2":197293}},{"type":"Polygon","arcs":[[-172,-166,-45,172]],"properties":{"codigo":"47189100000000000407","sector":"471891000000000004","pcode":"CO47189","area_m2":103828}},{"type":"Polygon","arcs":[[173,-66,-171,174]],"properties":{"codigo":"47189100000000000503","sector":"471891000000000005","pcode":"CO47189","area_m2":89301}},{"type":"Polygon","arcs":[[175,-175,-170,-70]],"properties":{"codigo":"47189100000000000504","sector":"471891000000000005","pcode":"CO47189","area_m2":130809}},{"type":"Polygon","arcs":[[176,177,-67,-169]],"properties":{"codigo":"47189100000000000506","sector":"471891000000000005","pcode":"CO47189","area_m2":152011}},{"type":"Polygon","arcs":[[178,-177,-168,179]],"properties":{"codigo":"47189100000000000507","sector":"471891000000000005","pcode":"CO47189","area_m2":271820}},{"type":"Polygon","arcs":[[180,181,-141,-14,-75]],"properties":{"codigo":"47189100000000000601","sector":"471891000000000006","pcode":"CO47189","area_m2":112544}},{"type":"Polygon","arcs":[[-74,182,183,-181]],"properties":{"codigo":"47189100000000000602","sector":"471891000000000006","pcode":"CO47189","area_m2":71413}},{"type":"Polygon","arcs":[[-72,-57,-63,184]],"properties":{"codigo":"47189100000000000604","sector":"471891000000000006","pcode":"CO47189","area_m2":92634}},{"type":"Polygon","arcs":[[-176,-69,185,186,-174]],"properties":{"codigo":"47189100000000000605","sector":"471891000000000006","pcode":"CO47189","area_m2":137739}},{"type":"Polygon","arcs":[[-62,-187,187,-183,-73,-185]],"properties":{"codigo":"47189100000000000606","sector":"471891000000000006","pcode":"CO47189","area_m2":130327}},{"type":"Polygon","arcs":[[-11,-134,-79,-87,-139]],"properties":{"codigo":"47189100000000000702","sector":"471891000000000007","pcode":"CO47189","area_m2":54161}},{"type":"Polygon","arcs":[[-137,-19,-35,188,-95]],"properties":{"codigo":"47189100000000000801","sector":"471891000000000008","pcode":"CO47189","area_m2":95542}},{"type":"Polygon","arcs":[[189,190,191,-163,-51,-136,-93]],"properties":{"codigo":"47189100000000000803","sector":"471891000000000008","pcode":"CO47189","area_m2":67810}},{"type":"Polygon","arcs":[[-114,192,-190,-97,193,194,-99]],"properties":{"codigo":"47189100000000000804","sector":"471891000000000008","pcode":"CO47189","area_m2":214363}},{"type":"Polygon","arcs":[[-194,-96,-189,-34,195,196]],"properties":{"codigo":"47189100000000000805","sector":"471891000000000008","pcode":"CO47189","area_m2":131493}},{"type":"Polygon","arcs":[[-195,-197,197,-100]],"properties":{"codigo":"47189100000000000806","sector":"471891000000000008","pcode":"CO47189","area_m2":88499}},{"type":"Polygon","arcs":[[-164,-192,198,199]],"properties":{"codigo":"47189100000000000901","sector":"471891000000000009","pcode":"CO47189","area_m2":85953}},{"type":"Polygon","arcs":[[-165,-200,200,-105]],"properties":{"codigo":"47189100000000000902","sector":"471891000000000009","pcode":"CO47189","area_m2":54939}},{"type":"Polygon","arcs":[[-110,201,202,-180,-167,-173,-44]],"properties":{"codigo":"47189100000000000905","sector":"471891000000000009","pcode":"CO47189","area_m2":328038}},{"type":"Polygon","arcs":[[203,204,205,-108,-106,-201,-199,-191,-193,-113]],"properties":{"codigo":"47189100000000000907","sector":"471891000000000009","pcode":"CO47189","area_m2":468331}},{"type":"Polygon","arcs":[[-202,-109,-206,206,207]],"properties":{"codigo":"47189100000000000908","sector":"471891000000000009","pcode":"CO47189","area_m2":285799}},{"type":"Polygon","arcs":[[-207,-205,208]],"properties":{"codigo":"47189100000000000909","sector":"471891000000000009","pcode":"CO47189","area_m2":26467}},{"type":"Polygon","arcs":[[-111,-104,-101,-198,-196,-37,-119,-118,209]],"properties":{"codigo":"47189100000000001003","sector":"471891000000000010","pcode":"CO47189","area_m2":997277}},{"type":"Polygon","arcs":[[210]],"properties":{"codigo":"47189200605022000101","sector":"471892006050220001","pcode":"CO47189","area_m2":168055}},{"type":"MultiPolygon","arcs":[[[211]],[[212]],[[213]]],"properties":{"codigo":"47189200403004000101","sector":"471892004030040001","pcode":"CO47189","area_m2":195554}},{"type":"MultiPolygon","arcs":[[[214,215]],[[216]]],"properties":{"codigo":"47189201403018000101","sector":"471892014030180001","pcode":"CO47189","area_m2":90295}},{"type":"Polygon","arcs":[[-216,217]],"properties":{"codigo":"47189201403018000102","sector":"471892014030180001","pcode":"CO47189","area_m2":103532}},{"type":"Polygon","arcs":[[218]],"properties":{"codigo":"47189200204025000101","sector":"471892002040250001","pcode":"CO47189","area_m2":117214}},{"type":"Polygon","arcs":[[219]],"properties":{"codigo":"47189201301026000101","sector":"471892013010260001","pcode":"CO47189","area_m2":78783}},{"type":"Polygon","arcs":[[220]],"properties":{"codigo":"47189200701023000101","sector":"471892007010230001","pcode":"CO47189","area_m2":16264}},{"type":"MultiPolygon","arcs":[[[221]],[[222]]],"properties":{"codigo":"47189201204027000101","sector":"471892012040270001","pcode":"CO47189","area_m2":4319}},{"type":"MultiPolygon","arcs":[[[223]],[[224]]],"properties":{"codigo":"47189201205028000101","sector":"471892012050280001","pcode":"CO47189","area_m2":17063}}]}},"arcs":[[[609,9568],[-38,-4],[-45,-6]],[[526,9558],[-1,19],[27,3],[1,17],[32,4],[-1,16],[18,2],[1,-15],[15,2],[2,-21],[-1,-16],[-10,-1]],[[321,9458],[3,-23]],[[324,9435],[-52,-14]],[[272,9421],[-4,30],[-7,37]],[[261,9488],[0,10],[36,28],[5,7],[32,19],[8,9],[2,10],[18,21],[6,-1],[-1,-8]],[[367,9583],[5,-10]],[[372,9573],[-39,-25],[-26,-20],[14,-70]],[[300,9248],[1,1],[-9,54]],[[292,9303],[53,19]],[[345,9322],[11,-49]],[[356,9273],[5,-24]],[[361,9249],[-32,-1]],[[329,9248],[-29,0]],[[386,9487],[3,-18]],[[389,9469],[-44,-7],[-24,-4]],[[372,9573],[4,-24],[10,-62]],[[693,9335],[3,-20]],[[696,9315],[-44,-10]],[[652,9305],[-44,-8],[-50,-12]],[[558,9285],[-3,18]],[[555,9303],[17,6],[-4,18]],[[568,9327],[58,14]],[[626,9341],[5,-18],[62,12]],[[626,9341],[-16,58],[-3,20]],[[607,9419],[93,16]],[[700,9435],[57,8],[1,-8],[-20,-3],[2,-17]],[[740,9415],[-57,-12],[10,-68]],[[779,9548],[14,-19],[1,-6],[6,1],[7,-30]],[[807,9494],[6,-27]],[[813,9467],[1,-13],[-9,-2],[5,-45],[-22,-6],[-5,23],[-43,-9]],[[700,9435],[0,35],[-3,26],[-50,-5],[-8,27]],[[639,9518],[39,11],[1,-4],[11,4],[12,9],[30,5],[9,5],[22,2],[16,-2]],[[905,9360],[-57,-12]],[[848,9348],[-152,-33]],[[813,9467],[59,7],[14,8]],[[886,9482],[9,-4],[10,-118]],[[604,9210],[1,-6],[-32,-10],[-17,-1],[-1,-24]],[[555,9169],[-76,-5]],[[479,9164],[-4,25],[-5,18],[-2,21]],[[468,9228],[63,1],[-2,17],[35,8]],[[564,9254],[5,-25],[0,-19],[35,0]],[[793,9068],[8,-59]],[[801,9009],[-21,-6],[-11,0],[-14,-4],[-42,-8]],[[713,8991],[-3,18],[-15,97]],[[695,9106],[48,8]],[[743,9114],[24,-50],[26,4]],[[640,9098],[-43,-6]],[[597,9092],[-2,18],[-31,-5],[-2,18],[-7,46]],[[604,9210],[51,1]],[[655,9211],[24,1]],[[679,9212],[1,-5],[10,-65],[-56,-8],[6,-36]],[[468,9228],[-5,46]],[[463,9274],[31,11]],[[494,9285],[40,11],[21,7]],[[558,9285],[6,-31]],[[433,9106],[0,35]],[[433,9141],[3,31],[-6,53],[-7,34]],[[423,9259],[40,15]],[[479,9164],[2,-13],[15,-36]],[[496,9115],[-63,-9]],[[435,9032],[-1,37]],[[434,9069],[-1,37]],[[496,9115],[22,-34]],[[518,9081],[26,-33]],[[544,9048],[-109,-16]],[[662,8882],[-4,-5],[-79,-14],[-1,15],[-24,-4],[-33,-25]],[[521,8849],[-14,5],[-32,18],[-24,17],[-12,-4]],[[439,8885],[-1,16]],[[438,8901],[15,1],[89,10],[-2,18],[31,6],[0,7],[27,5],[-4,29]],[[594,8977],[42,-58],[19,-28],[7,-9]],[[433,9141],[-103,-10]],[[330,9131],[0,22]],[[330,9153],[0,51]],[[330,9204],[-1,44]],[[361,9249],[25,0],[37,10]],[[395,9426],[2,-14],[-10,-3],[6,-35],[10,2]],[[403,9376],[2,-15]],[[405,9361],[-64,-16]],[[341,9345],[-11,60]],[[330,9405],[65,21]],[[488,9393],[-40,-9]],[[448,9384],[-45,-8]],[[395,9426],[18,4],[15,-3],[16,1]],[[444,9428],[43,8]],[[487,9436],[1,-43]],[[416,9299],[-7,33],[-4,29]],[[448,9384],[5,-51],[3,-17]],[[456,9316],[-40,-17]],[[488,9393],[5,1]],[[493,9394],[-3,-10],[1,-11],[-5,-1],[3,-41],[-3,-3]],[[486,9328],[-30,-12]],[[855,9233],[-111,-3],[0,-6],[-12,8],[-20,5],[-45,-3]],[[667,9234],[-8,35]],[[659,9269],[38,9],[38,6],[12,1],[49,10],[58,11]],[[854,9306],[1,-40]],[[855,9266],[0,-33]],[[1104,9287],[-7,-25],[-17,1]],[[1080,9263],[0,21],[-19,1],[-31,-6],[-9,-1],[0,4]],[[1021,9282],[-9,65],[-10,-1],[-1,10],[7,0],[-2,26]],[[1006,9382],[71,16]],[[1077,9398],[4,-22],[-1,-28],[12,-34],[7,-16],[8,2],[-3,-13]],[[1170,9265],[-15,6],[-36,10],[-15,6]],[[1077,9398],[72,16],[11,4],[10,14],[2,13],[0,23],[3,0],[-2,-122],[-3,-81]],[[743,9114],[56,9],[64,9]],[[863,9132],[23,3],[3,-19]],[[889,9116],[-24,-3],[5,-33],[-77,-12]],[[889,9116],[15,-86],[-59,-11],[6,-52],[2,-18]],[[853,8949],[-16,-4],[5,-22]],[[842,8923],[-27,-8],[-11,70],[-3,24]],[[1170,9265],[-4,-126],[-1,-1],[-2,-64]],[[1163,9074],[-2,-87],[0,-104],[-7,-3],[-63,0],[-2,35],[1,69],[5,37],[-2,1]],[[1093,9022],[3,9],[1,22],[-1,18],[-11,38],[-7,32],[1,22]],[[1079,9163],[1,34],[-1,44],[1,22]],[[885,9518],[-9,-3],[-40,-15],[-29,-6]],[[779,9548],[10,1],[35,10]],[[824,9559],[26,17],[25,16]],[[875,9592],[5,-18],[5,-38],[0,-18]],[[885,9518],[1,-36]],[[383,6775],[5,-4],[0,-13],[17,-2],[0,6],[33,0],[1,-37],[-19,-1],[-1,22],[-6,0],[0,-30],[5,0],[-6,-50],[-18,0],[1,-4],[-25,8]],[[370,6670],[-9,104],[22,1]],[[439,6823],[-19,-2],[-1,26],[22,3],[-2,-27]],[[347,6802],[3,-43],[-11,-1],[8,-78]],[[347,6680],[-18,8],[-10,8],[-10,-12],[-16,18],[-14,1],[-11,43],[-2,40],[26,-3],[0,11],[5,7],[0,6],[10,4],[37,-1],[3,-8]],[[2607,7733],[5,-9],[10,-1],[13,4],[4,-4],[20,-44],[22,6],[3,-13],[-6,-6],[-25,-6],[-11,-11],[-7,13],[-14,16],[-4,13],[-7,-3],[-8,17],[-4,0],[-7,20],[7,6],[9,2]],[[370,6670],[-23,10]],[[347,6802],[25,2],[1,-16],[14,1],[-4,-14]],[[278,9388],[-47,-15],[-52,-15]],[[179,9358],[-34,-11],[-8,20]],[[137,9367],[3,12],[6,9],[23,19],[15,16],[11,6],[-1,4],[17,13],[15,17],[7,4],[-1,5],[17,12],[12,4]],[[272,9421],[6,-33]],[[292,9303],[-11,62],[-3,23]],[[324,9435],[6,-30]],[[341,9345],[4,-23]],[[292,9303],[-30,-10],[-63,-22],[-20,87]],[[667,9234],[-15,-1],[3,-22]],[[652,9305],[7,-36]],[[597,9092],[-79,-11]],[[356,9273],[60,26]],[[486,9328],[8,-43]],[[300,9248],[-111,-2],[-31,1],[-17,-3],[-21,-11],[-15,-12],[-25,-22]],[[80,9199],[-48,-43],[-32,56],[20,14],[-10,19],[13,13],[15,12],[1,-3],[23,19],[36,37],[-3,5],[19,17],[-1,2],[24,20]],[[389,9469],[50,7],[1,-12]],[[440,9464],[4,-36]],[[656,9782],[-7,2],[-15,12],[-25,17],[-16,-19],[-18,-29],[-46,-68],[-23,-38],[-27,-36],[-17,-26],[-1,-3],[4,-83]],[[465,9511],[-79,-24]],[[367,9583],[18,15],[7,9],[26,20],[14,5],[-8,12],[24,25],[9,6],[-1,4],[18,17],[23,24],[-6,7],[62,71],[41,52],[4,23],[34,46],[28,58],[3,17],[19,5],[6,-1],[2,-35],[-9,-47],[20,-9],[-5,-19],[-2,-24],[6,-2],[-8,-49],[-24,4],[-2,-34],[-10,-1]],[[667,9706],[-3,-5],[5,-17],[-5,-14],[-5,-3],[2,-14],[-6,-40],[-18,-43],[-4,-28]],[[633,9542],[-15,-8],[-6,16],[-3,18]],[[526,9558],[-1,-30]],[[525,9528],[-60,-17]],[[656,9782],[18,-2],[7,-46],[-14,-28]],[[525,9528],[0,-12],[34,-4],[2,-15],[-32,-8],[-89,-25]],[[633,9542],[6,-24]],[[639,9518],[-46,-13],[7,-46]],[[600,9459],[-30,-7],[-45,-8],[-38,-8]],[[639,9518],[0,0]],[[667,9706],[15,-10],[37,7],[7,-30],[10,11],[20,18],[8,3],[-2,-11],[5,-19],[-4,-12],[13,7],[23,5],[4,-27],[2,-7],[-1,-39],[7,-30],[11,-8],[2,-5]],[[600,9459],[7,-40]],[[607,9419],[-33,-5],[-26,-6],[1,-4]],[[549,9404],[-56,-10]],[[549,9404],[9,-34],[10,-43]],[[679,9212],[29,0]],[[708,9212],[1,-14],[4,-24],[13,-26]],[[726,9148],[17,-34]],[[695,9106],[-55,-8]],[[700,8906],[5,-10],[9,-8]],[[714,8888],[-23,-5],[8,-14],[-7,-2],[2,-11],[9,-14],[-4,-12]],[[699,8830],[-15,19],[-22,33]],[[594,8977],[-13,18]],[[581,8995],[-13,19],[-24,34]],[[640,9098],[15,-96],[8,-59],[15,-44],[22,7]],[[713,8991],[-21,-3],[3,-30],[-22,-12],[8,-2],[19,-38]],[[436,8976],[-1,56]],[[581,8995],[-81,-12],[-64,-7]],[[438,8901],[-2,75]],[[699,8830],[0,-4],[8,-45],[-58,-3],[-28,3],[-33,12]],[[588,8793],[-13,7],[-1,15],[-33,24],[-4,-5],[-9,5],[1,5],[-8,5]],[[780,8730],[-13,-8],[-7,-2],[-19,1],[-9,-7],[-24,-7],[-14,-14],[-7,-1],[-20,6],[-5,-3],[-7,-22],[-4,-6],[-11,2],[-6,-5],[-9,0],[-9,5],[-18,-3],[-35,44],[5,20],[11,10],[14,9],[0,9],[-5,35]],[[714,8888],[12,-8],[9,-18],[21,-48],[14,-37],[10,-47]],[[330,9204],[-32,-1],[0,3],[-44,-1],[-1,-4],[-19,-2],[-33,0],[-16,-1],[-18,-3]],[[167,9195],[-6,10],[14,9],[1,9],[7,8],[-12,6],[-37,-27],[-12,-4],[-5,-7],[-10,-4],[-4,6],[-16,-14],[-7,12]],[[330,9153],[-84,-5]],[[246,9148],[-1,11],[-5,9],[-9,1],[-4,-5],[-1,8],[5,1],[-4,6],[-7,0],[0,10],[-43,0],[-6,-2],[-12,-12],[-4,5],[12,15]],[[434,9069],[-71,-9],[-31,-5],[-2,76]],[[439,8885],[-26,5],[-22,16],[-8,-5],[-7,30],[-5,7],[-6,-2],[-4,8],[-20,29],[-6,12],[-7,-1],[-3,7],[-14,12],[-3,11]],[[308,9014],[91,12],[36,6]],[[308,9014],[-9,18],[-1,13],[-5,8],[-5,21],[0,17],[-8,11],[-9,-2],[7,6],[-3,8],[-10,2],[-2,9],[-9,5],[-8,18]],[[848,9348],[6,-42]],[[855,9233],[13,0],[1,-40]],[[869,9193],[-11,2]],[[858,9195],[-100,16],[-24,2],[-26,-1]],[[1079,9163],[-68,15],[-31,4],[-87,7],[-24,4]],[[855,9266],[12,0],[1,-19],[51,7],[28,1]],[[947,9255],[48,-2],[20,1],[0,28],[6,0]],[[905,9360],[64,14]],[[969,9374],[0,-48],[-29,-4],[6,-38],[1,-29]],[[969,9374],[37,8]],[[858,9195],[-3,-29]],[[855,9166],[-52,-6],[-77,-12]],[[855,9166],[8,-34]],[[842,8923],[9,-36],[-16,-81],[-9,-4],[8,-15],[22,-27]],[[856,8760],[-36,-17],[-21,-7],[-10,0],[-9,-6]],[[1093,9022],[-10,-38],[-16,2],[-22,-6],[-10,0],[-16,-3],[-14,5]],[[1005,8982],[-8,27],[-1,28],[-34,-9]],[[962,9028],[6,11],[-34,-7],[1,-5],[-32,-7],[-9,-33],[-3,-26],[-38,-12]],[[962,9028],[2,-63]],[[964,8965],[-6,-62],[-5,-23],[-8,-27],[-13,-25],[-14,-37],[-62,-31]],[[1005,8982],[-41,-17]],[[875,9592],[7,6],[6,-1],[9,9],[9,13],[9,-2],[7,-13],[31,6],[3,-12],[8,7],[8,-15],[12,11],[1,20],[50,12],[4,-32],[-11,-18],[24,-97],[128,19],[-1,-36],[4,-16],[3,-32],[-5,-23],[-1,-30],[1,-34],[10,-33],[2,-11],[0,-23],[14,4],[0,-35],[13,-7],[21,-1],[42,11],[19,20],[15,7],[3,-7],[16,7],[16,3],[14,6],[12,0],[-1,-15],[-13,-14],[-5,-11],[0,-10],[5,-16],[10,-8],[-17,6],[-12,-3],[-7,-5],[-5,-11],[1,-15],[5,-6],[16,-9],[21,-1],[10,-3],[-2,-8],[11,-1],[-15,-35],[-10,6],[-7,-19],[-29,-12],[-35,-3],[0,3],[-19,3],[-14,5],[-42,4],[-32,-3],[-18,-8],[-11,-12]],[[1762,9982],[-2,-23],[-3,-9],[-11,4],[-20,-47],[-1,-5],[-14,7],[-9,-17],[18,-7],[-13,-15],[19,-1],[1,-6],[-12,-6],[-5,-21],[19,-5],[-6,-27],[-5,-2],[-32,11],[-20,-83],[49,-1],[1,8],[14,1],[-1,8],[9,2],[4,-14],[7,0],[1,-6],[-12,-12],[-18,-3],[-25,-11],[-16,0],[-18,5],[2,10],[-41,17],[-8,-12],[-9,-4],[-5,13],[32,51],[20,30],[-17,8],[23,33],[10,-10],[16,33],[27,44],[-1,12],[-10,8],[2,13],[6,13],[10,-2],[2,8],[16,-5],[6,25],[20,-10]],[[6228,6311],[1,-4],[12,-2],[-4,-15],[6,-4],[-1,-9],[-7,-4],[1,-18],[9,-2],[4,-17],[-4,-15],[3,-9],[1,-18],[6,-30],[10,-19],[3,-20],[-4,-7],[1,-6],[-7,-10],[11,-8],[6,-18],[-1,-7],[6,-18],[-2,-5],[5,-20],[4,-8],[-2,-15],[3,-21],[16,-36],[7,-35],[31,-3],[11,-5],[-5,-22],[-8,-19],[7,-5],[4,-10],[0,-16],[-9,-5],[-5,-9],[4,-7],[-2,-22],[-4,-11],[9,-32],[12,-22],[-11,-3],[-18,-10],[-8,13],[-10,-1],[-3,-20],[-6,10],[-2,12],[-9,6],[9,3],[12,-2],[-3,6],[5,3],[3,-7],[13,16],[0,14],[-4,10],[-9,-1],[-4,12],[0,12],[18,23],[-7,11],[7,14],[-6,14],[6,8],[-2,17],[-5,0],[-5,-7],[-3,5],[2,9],[-9,17],[-6,1],[-4,15],[-2,12],[-10,29],[-9,23],[-10,1],[-4,8],[4,13],[6,29],[-4,31],[-11,7],[-6,14],[-6,25],[7,9],[1,19],[-10,33],[0,11],[-6,24],[-4,8],[-4,15],[-7,6],[-1,26],[-6,9],[1,8],[7,4],[-7,17],[12,7]],[[6382,5921],[-3,-4],[7,-1],[-7,-30],[-10,-1],[-3,-10],[7,-11],[-2,-11],[2,-12],[-5,-10],[-5,22],[-3,32],[0,20],[-4,10],[9,7],[8,-2],[6,6],[3,-5]],[[6276,6430],[5,-20],[15,-1],[9,-9],[-6,-12],[-14,-8],[-15,-18],[-9,-5],[-24,-8],[-8,6],[-4,8],[0,22],[4,10],[-1,12],[4,10],[8,0],[4,6],[32,7]],[[6973,1069],[-5,-3],[-20,24],[0,-2],[-20,20],[2,3],[-14,15],[-13,-14],[-3,-12],[-15,3],[-12,11],[6,3],[1,16],[6,8],[17,10],[-4,16],[6,5],[12,-1],[3,6],[14,2],[8,-12],[9,5],[13,14],[-1,8],[5,3]],[[6968,1197],[9,-16],[-3,-16],[3,-14],[7,-12],[-1,-18],[-6,-5],[11,-14],[-15,-33]],[[6930,1097],[-10,-5],[-3,5],[8,5],[5,-5]],[[6968,1197],[10,5],[2,13],[-3,10],[5,8],[1,9],[9,5],[7,-19],[6,-1],[8,-18],[1,-18],[-6,-8],[19,-11],[12,6],[11,-1],[-2,-5],[-11,-1],[-8,-13],[6,-6],[-1,-10],[12,-6],[6,-17],[9,-10],[8,-33],[-2,-7],[-25,10],[-9,-2],[-11,5],[-4,15],[-5,5],[-10,-6],[-7,-1],[-5,-13],[-13,-16],[-5,3]],[[763,6202],[14,0],[15,-13],[13,3],[11,0],[8,-8],[-3,-16],[5,-10],[-13,-3],[0,-3],[12,-7],[-6,-16],[3,-3],[3,-15],[-3,-13],[7,-1],[18,-13],[28,-15],[4,-3],[2,-37],[-5,-26],[-45,3],[-7,3],[-19,12],[1,34],[3,40],[-12,1],[-1,28],[-7,30],[-9,18],[-31,8],[1,16],[13,6]],[[6765,4264],[-10,-2],[0,-35],[-1,-15],[-5,-11],[-6,-36],[0,-10],[5,-36],[-1,-18],[-6,-34],[0,-19],[-8,5],[-2,-6],[6,-6],[-2,-16],[-9,-22],[-39,-81],[-6,-11],[-15,-16],[-4,11],[6,5],[-3,9],[10,13],[10,23],[20,48],[9,15],[10,27],[8,46],[3,29],[-5,47],[14,60],[-2,42],[6,1],[-3,16],[4,20],[12,13],[-4,-29],[17,-6],[-3,-13],[-6,-8]],[[6983,8635],[-11,-19],[-1,-15],[3,-4],[1,-27],[-5,-2],[11,-15],[3,3],[11,-21],[-3,-1],[-8,15],[-6,-2],[-10,17],[-3,0],[-6,14],[-4,0],[0,9],[5,34],[-11,-3],[-3,9],[18,-1],[3,5],[8,0],[8,4]],[[9974,1517],[-10,-1],[3,12],[7,-11]],[[9999,1543],[-13,-12],[-10,9],[14,15],[9,-12]],[[9439,62],[16,-1],[4,-11],[-14,-22],[-3,0],[-15,-14],[6,-7],[-3,-7],[-9,11],[-5,-1],[11,36],[10,8],[2,8]],[[9469,93],[-8,-12],[-9,7],[2,19],[11,-6],[4,-8]]]}
