{"type":"Topology","bbox":[-74.75204304833659,9.421869306392008,-74.5973439520601,9.650770279832471],"transform":{"scale":[0.000015471456773326135,0.000022892386582704637],"translate":[-74.75204304833659,9.421869306392008]},"objects":{"municipios":{"type":"GeometryCollection","geometries":[{"type":"Polygon","arcs":[[0,1,2]],"properties":{"codigo":"47720100000000000208","sector":"477201000000000002","pcode":"CO47720","area_m2":66550}},{"type":"Polygon","arcs":[[3,4,5,6]],"properties":{"codigo":"47720100000000000204","sector":"477201000000000002","pcode":"CO47720","area_m2":67225}},{"type":"Polygon","arcs":[[7,8,9,10]],"properties":{"codigo":"47720100000000000206","sector":"477201000000000002","pcode":"CO47720","area_m2":185883}},{"type":"MultiPolygon","arcs":[[[11]],[[12]],[[13]]],"properties":{"codigo":"47720200101001000101","sector":"477202001010010001","pcode":"CO47720","area_m2":109568}},{"type":"Polygon","arcs":[[14,15,16]],"properties":{"codigo":"47720200406002000102","sector":"477202004060020001","pcode":"CO47720","area_m2":55041}},{"type":"Polygon","arcs":[[17,18]],"properties":{"codigo":"47720200502003000101","sector":"477202005020030001","pcode":"CO47720","area_m2":36143}},{"type":"Polygon","arcs":[[19,20,-1,21]],"properties":{"codigo":"47720100000000000209","sector":"477201000000000002","pcode":"CO47720","area_m2":92408}},{"type":"Polygon","arcs":[[-17,22,23]],"properties":{"codigo":"47720200406002000103","sector":"477202004060020001","pcode":"CO47720","area_m2":67788}},{"type":"Polygon","arcs":[[24,25,-18,26]],"properties":{"codigo":"47720200502003000102","sector":"477202005020030001","pcode":"CO47720","area_m2":60524}},{"type":"Polygon","arcs":[[-25,27]],"properties":{"codigo":"47720200502003000103","sector":"477202005020030001","pcode":"CO47720","area_m2":31271}},{"type":"Polygon","arcs":[[28,-8,29,-2,-21]],"properties":{"codigo":"47720100000000000207","sector":"477201000000000002","pcode":"CO47720","area_m2":101035}},{"type":"Polygon","arcs":[[30,31,32,33,34,-5]],"properties":{"codigo":"47720100000000000101","sector":"477201000000000001","pcode":"CO47720","area_m2":506860}},{"type":"Polygon","arcs":[[35,-33]],"properties":{"codigo":"47720100000000000102","sector":"477201000000000001","pcode":"CO47720","area_m2":147404}},{"type":"Polygon","arcs":[[-20,36,37,-9,-29]],"properties":{"codigo":"47720100000000000201","sector":"477201000000000002","pcode":"CO47720","area_m2":165853}},{"type":"Polygon","arcs":[[-38,38,39,-7,40,41,-10]],"properties":{"codigo":"47720100000000000202","sector":"477201000000000002","pcode":"CO47720","area_m2":110345}},{"type":"Polygon","arcs":[[42,-31,-4,-40]],"properties":{"codigo":"47720100000000000203","sector":"477201000000000002","pcode":"CO47720","area_m2":71114}},{"type":"Polygon","arcs":[[-6,-35,43,-41]],"properties":{"codigo":"47720100000000000205","sector":"477201000000000002","pcode":"CO47720","area_m2":45957}},{"type":"Polygon","arcs":[[44,-23,-16]],"properties":{"codigo":"47720200406002000101","sector":"477202004060020001","pcode":"CO47720","area_m2":72086}},{"type":"MultiPolygon","arcs":[[[45]],[[46]]],"properties":{"codigo":"47720200406004000101","sector":"477202004060040001","pcode":"CO47720","area_m2":32792}},{"type":"Polygon","arcs":[[47]],"properties":{"codigo":"47720200402005000101","sector":"477202004020050001","pcode":"CO47720","area_m2":31536}}]}},"arcs":[[[3629,696],[-217,62]],[[3412,758],[18,35]],[[3430,793],[11,25],[83,-8],[-4,-11],[95,-13],[7,-34],[15,-5],[-11,-23],[15,-4],[-12,-24]],[[3093,456],[-41,-100]],[[3052,356],[-48,42],[-40,24],[-64,29],[-30,32]],[[2870,483],[16,15],[40,-11],[11,10],[32,-22],[42,24]],[[3011,499],[42,-6],[-7,-18],[45,-4],[2,-15]],[[3180,821],[17,-98]],[[3197,723],[-9,-66],[-57,0]],[[3131,657],[-157,2]],[[2974,659],[-35,62],[-33,77],[2,30],[167,1],[48,-9],[57,1]],[[8656,9760],[24,-8],[12,-25],[59,23],[3,-31],[-55,-10],[25,-22],[40,-4],[58,32],[22,24],[50,-6],[-77,-58],[48,1],[-13,-17],[-53,19],[-99,8],[5,-20],[-36,-36],[-57,17],[-23,-11],[-2,36],[-36,10],[10,39],[-28,9],[17,22],[106,8]],[[8324,9920],[35,-54],[31,9],[5,-16],[-27,-9],[36,-34],[-29,-18],[-35,43],[24,11],[-10,20],[-35,2],[-4,22],[-33,44],[25,4],[17,-24]],[[8302,9983],[-31,0],[0,15],[30,1],[1,-16]],[[5845,784],[26,-41]],[[5871,743],[-44,-40],[-26,18],[-136,81]],[[5665,802],[38,36],[63,-36],[52,20],[27,-38]],[[123,3381],[24,-12],[-28,-26],[48,-3],[59,-13],[-6,-16]],[[220,3311],[-15,9],[-178,8],[-27,13],[26,12],[-23,10],[37,21],[50,17],[33,-20]],[[3464,641],[-145,46]],[[3319,687],[53,31],[40,40]],[[3629,696],[-11,-21],[-33,8],[-21,-13],[21,-14],[-93,-43],[-28,28]],[[5665,802],[-20,9]],[[5645,811],[-52,13],[8,74],[14,13],[121,-46],[72,-24],[101,16],[-36,-22],[18,-20],[-41,-14],[-5,-17]],[[350,3375],[-9,-53],[-28,-7]],[[313,3315],[-40,-15],[-53,11]],[[123,3381],[36,2],[101,16],[15,-28],[45,17],[36,5],[-6,-18]],[[350,3375],[97,-9],[0,-48],[-23,-5],[-7,-22],[-49,16],[-55,8]],[[3319,687],[-26,-15],[-68,49],[-28,2]],[[3180,821],[48,4],[50,-7],[72,-18],[80,-7]],[[3052,356],[-14,-34],[41,-4],[38,-17],[28,-26]],[[3145,275],[13,-5],[64,3],[54,-34],[19,-43],[-288,-90],[-151,-41],[-138,-65],[-76,63]],[[2642,63],[135,29],[40,23],[15,48],[-46,2],[-9,80],[-11,-1],[-9,34]],[[2757,278],[-4,51],[35,-7],[15,15],[60,2],[44,-22],[21,2],[-6,29],[-39,11],[2,18],[23,-12],[39,1],[24,15],[-9,17],[-32,26],[-28,6],[-42,-22],[-8,15],[-25,0],[-7,18],[-28,6],[29,17],[-14,17],[39,23]],[[2846,504],[24,-21]],[[2642,63],[-61,56],[-73,9],[7,24],[33,13],[28,36],[58,-5],[36,11],[81,55],[6,16]],[[3464,641],[-113,-10],[-5,-20],[-20,11],[-80,-44],[-33,-32],[-18,-35],[27,-15],[-19,-24]],[[3203,472],[-102,33],[25,27],[-4,32],[-16,0],[-4,-24],[-67,2],[3,33],[36,42],[20,-9],[21,16],[16,33]],[[3203,472],[-19,-42]],[[3184,430],[-35,6],[-56,20]],[[3011,499],[-32,27],[38,41],[-89,5],[-10,6]],[[2918,578],[-7,11],[63,70]],[[3184,430],[12,-2],[11,-46],[-25,-8],[-28,-60],[-9,-39]],[[2846,504],[58,68],[14,6]],[[5871,743],[14,-23],[4,-30],[-31,-41],[-68,-2],[-19,26],[-76,43],[15,11],[-79,34],[-31,-20],[-23,21],[34,14],[15,-12],[30,25],[-22,13],[11,9]],[[7280,353],[-3,-15],[19,-18],[-21,-29],[-60,-20],[-34,54],[50,15],[-7,10],[38,14],[18,-11]],[[7359,380],[18,-30],[-16,-6],[-21,20],[-27,-3],[46,19]],[[9857,4982],[12,-8],[92,-21],[38,-1],[-28,-10],[-36,-40],[-75,28],[-16,12],[22,25],[-45,3],[-10,-17],[-24,-6],[9,47],[22,3],[39,-15]]]}
