{"type":"Topology","bbox":[-74.40511994887703,9.953819076971502,-74.13520052119208,10.302775829995145],"transform":{"scale":[0.000026994642232718662,0.00003489916521888617],"translate":[-74.40511994887703,9.953819076971502]},"objects":{"municipios":{"type":"GeometryCollection","geometries":[{"type":"Polygon","arcs":[[0]],"properties":{"codigo":"47660201004003000101","sector":"476602010040030001","pcode":"CO47660","area_m2":54082}},{"type":"Polygon","arcs":[[1]],"properties":{"codigo":"47660200103005000101","sector":"476602001030050001","pcode":"CO47660","area_m2":109094}},{"type":"Polygon","arcs":[[2]],"properties":{"codigo":"47660200506007000101","sector":"476602005060070001","pcode":"CO47660","area_m2":13541}},{"type":"Polygon","arcs":[[3]],"properties":{"codigo":"47660201003009000101","sector":"476602010030090001","pcode":"CO47660","area_m2":108318}},{"type":"Polygon","arcs":[[4]],"properties":{"codigo":"47660200203010000101","sector":"476602002030100001","pcode":"CO47660","area_m2":20646}},{"type":"Polygon","arcs":[[5,6]],"properties":{"codigo":"47660201201014000101","sector":"476602012010140001","pcode":"CO47660","area_m2":96467}},{"type":"Polygon","arcs":[[7,8,9,-6]],"properties":{"codigo":"47660201201014000102","sector":"476602012010140001","pcode":"CO47660","area_m2":114929}},{"type":"Polygon","arcs":[[10,11,12,13]],"properties":{"codigo":"47660100000000000101","sector":"476601000000000001","pcode":"CO47660","area_m2":123212}},{"type":"Polygon","arcs":[[-13,14,15]],"properties":{"codigo":"47660100000000000103","sector":"476601000000000001","pcode":"CO47660","area_m2":92695}},{"type":"Polygon","arcs":[[16,17,18]],"properties":{"codigo":"47660100000000000106","sector":"476601000000000001","pcode":"CO47660","area_m2":196254}},{"type":"Polygon","arcs":[[19,20,21,-17]],"properties":{"codigo":"47660100000000000105","sector":"476601000000000001","pcode":"CO47660","area_m2":241016}},{"type":"Polygon","arcs":[[-15,-12,-21,22]],"properties":{"codigo":"47660100000000000104","sector":"476601000000000001","pcode":"CO47660","area_m2":52392}},{"type":"Polygon","arcs":[[-18,-22,-11,23]],"properties":{"codigo":"47660100000000000102","sector":"476601000000000001","pcode":"CO47660","area_m2":97508}},{"type":"Polygon","arcs":[[24]],"properties":{"codigo":"47660200803002000101","sector":"476602008030020001","pcode":"CO47660","area_m2":144299}},{"type":"Polygon","arcs":[[25]],"properties":{"codigo":"47660200203011000101","sector":"476602002030110001","pcode":"CO47660","area_m2":44871}},{"type":"Polygon","arcs":[[26]],"properties":{"codigo":"47660201206013000101","sector":"476602012060130001","pcode":"CO47660","area_m2":54010}},{"type":"Polygon","arcs":[[27,-9]],"properties":{"codigo":"47660201201014000103","sector":"476602012010140001","pcode":"CO47660","area_m2":128280}},{"type":"Polygon","arcs":[[28]],"properties":{"codigo":"47660201005016000101","sector":"476602010050160001","pcode":"CO47660","area_m2":85282}}]}},"arcs":[[[3269,383],[48,-4],[43,0],[-1,-14],[14,-1],[-7,-14],[-30,-17],[-22,4],[-8,-8],[-35,0],[-6,40],[-12,-3],[-2,14],[18,3]],[[83,7276],[32,-11],[-5,-8],[28,-14],[8,-18],[19,-18],[-9,-7],[12,-9],[30,-9],[-38,-25],[-7,8],[-12,-7],[-23,28],[-31,10],[-22,-18],[-9,4],[8,12],[-13,7],[-8,15],[18,15],[-6,11],[-9,-6],[-46,1],[9,22],[51,-6],[23,23]],[[8940,1980],[13,-2],[-13,-24],[27,-14],[-17,-8],[-31,25],[-10,13],[24,14],[7,-4]],[[1217,593],[31,-19],[-13,-9],[-24,6],[-30,-21],[50,-39],[-16,-15],[-30,22],[-35,-20],[-3,24],[-17,28],[-88,-1],[-14,-23],[-63,16],[2,12],[-17,5],[-45,-23],[-12,15],[36,16],[-8,16],[26,11],[7,-3],[105,-27],[16,-14],[74,2],[31,-1],[38,27],[-12,8],[11,7]],[[2005,6397],[13,5],[20,-7],[5,-15],[16,1],[22,-17],[-9,-15],[-36,26],[-35,8],[-17,20],[11,5],[10,-11]],[[4953,8057],[-32,8],[-104,20],[-56,8],[-65,13],[-7,-5]],[[4689,8101],[-28,27],[14,8],[21,1],[14,-8],[35,-8],[-4,-11],[18,-3],[10,9],[36,0],[42,-5],[50,0],[5,-11],[19,-2],[1,-12],[41,3],[4,-11],[-14,-21]],[[4953,8057],[-14,-21],[3,-20],[33,-9],[1,-8]],[[4976,7999],[-5,0],[-113,35],[-117,39],[-33,-20]],[[4708,8053],[-19,48]],[[6922,2234],[8,-6],[4,15],[97,-11]],[[7031,2232],[-12,-39]],[[7019,2193],[-17,-56],[-18,-30]],[[6984,2107],[-27,12],[9,11],[-18,13],[38,21],[-13,14],[-28,6],[-40,-22],[-4,20],[-24,66],[9,7],[10,-14],[26,-7]],[[7019,2193],[113,-15]],[[7132,2178],[-23,-55],[-82,-11],[-43,-5]],[[7191,2341],[-43,10],[-15,-21],[-17,-84],[-20,1],[1,11],[-58,4]],[[7039,2262],[7,26],[-50,25]],[[6996,2313],[3,4],[-23,12],[6,5],[25,-1],[21,16],[35,-11],[3,11],[-15,13],[14,14],[10,-4],[25,26],[-7,9],[21,-6],[35,9],[40,6],[6,-7],[-19,-24],[31,-7],[11,-11],[-27,-26]],[[7191,2341],[24,-15],[74,-39],[-5,-4],[16,-73],[-119,11],[-44,-15]],[[7137,2206],[-25,4],[3,13],[-84,9]],[[7031,2232],[8,30]],[[7137,2206],[16,-10],[-11,-20],[-10,2]],[[6922,2234],[11,35],[-14,3],[-18,-9],[-11,10],[-43,7],[9,27],[56,-19],[27,-15],[27,23],[9,21],[21,-4]],[[9877,102],[15,-7],[59,-10],[18,15],[10,-11],[18,2],[2,-17],[-27,3],[-12,-17],[7,-25],[-37,13],[-32,-48],[-30,8],[-42,37],[-6,10],[-25,2],[-43,14],[-22,15],[18,0],[0,10],[31,1],[33,-5],[27,4],[22,-5],[16,11]],[[2339,6020],[11,-14],[35,-36],[-16,-7],[32,-29],[17,-12],[-15,-5],[-71,58],[-10,-10],[23,-17],[-13,-10],[-17,16],[6,11],[-18,45],[36,10]],[[8100,9999],[4,-32],[-8,-38],[-7,2],[-6,-47],[32,-10],[-23,-46],[-21,-26],[-33,16],[-25,-35],[7,-11],[-16,0],[-44,-26],[-20,13],[33,-3],[34,19],[19,32],[19,18],[-6,3],[29,32],[6,-3],[9,35],[9,59],[-27,6],[1,18],[19,-3],[2,27],[13,0]],[[4976,7999],[11,-16],[-8,-6],[-31,14],[-10,-5],[27,-27],[-23,-8],[-27,23],[-11,-12],[-13,2],[-12,-16],[-5,8],[-24,-13],[-7,24],[-16,29],[-18,6],[-6,14],[13,9],[-52,21],[-56,7]],[[3432,1873],[9,1],[1,-16],[41,-13],[58,-10],[29,0],[3,13],[13,-4],[5,-23],[28,12],[2,23],[14,6],[13,-25],[10,2],[-16,-37],[18,4],[2,-37],[-9,5],[-43,9],[-26,11],[0,12],[-24,12],[-3,-6],[-25,9],[-25,2],[-16,-4],[-2,10],[-25,-4],[-29,9],[-3,39]]]}
