{"type":"Topology","bbox":[-74.24300072920289,10.520163275012134,-74.04961623559694,10.662237716698163],"transform":{"scale":[0.000019340383398934617,0.000014208865055108422],"translate":[-74.24300072920289,10.520163275012134]},"objects":{"municipios":{"type":"GeometryCollection","geometries":[{"type":"MultiPolygon","arcs":[[[0]],[[1]]],"properties":{"codigo":"47053201005017000101","sector":"470532010050170001","pcode":"CO47053","area_m2":9285}},{"type":"Polygon","arcs":[[2,3,4,5]],"properties":{"codigo":"47053100000000000207","sector":"470531000000000002","pcode":"CO47053","area_m2":61303}},{"type":"Polygon","arcs":[[6,7]],"properties":{"codigo":"47053100000000000101","sector":"470531000000000001","pcode":"CO47053","area_m2":88332}},{"type":"Polygon","arcs":[[-7,8,9,10,11]],"properties":{"codigo":"47053100000000000102","sector":"470531000000000001","pcode":"CO47053","area_m2":88821}},{"type":"Polygon","arcs":[[12,13,-10,14,15,16]],"properties":{"codigo":"47053100000000000103","sector":"470531000000000001","pcode":"CO47053","area_m2":60905}},{"type":"Polygon","arcs":[[17,-16,18]],"properties":{"codigo":"47053100000000000104","sector":"470531000000000001","pcode":"CO47053","area_m2":93097}},{"type":"Polygon","arcs":[[19,20,21,22,23,24]],"properties":{"codigo":"47053100000000000105","sector":"470531000000000001","pcode":"CO47053","area_m2":225719}},{"type":"Polygon","arcs":[[25,26,27,28,-21]],"properties":{"codigo":"47053100000000000106","sector":"470531000000000001","pcode":"CO47053","area_m2":153992}},{"type":"Polygon","arcs":[[-24,29,30,-17,-18,31]],"properties":{"codigo":"47053100000000000107","sector":"470531000000000001","pcode":"CO47053","area_m2":175290}},{"type":"Polygon","arcs":[[-23,32,33,34,35,-30]],"properties":{"codigo":"47053100000000000108","sector":"470531000000000001","pcode":"CO47053","area_m2":396558}},{"type":"Polygon","arcs":[[36,-26,-20,37]],"properties":{"codigo":"47053100000000000109","sector":"470531000000000001","pcode":"CO47053","area_m2":393211}},{"type":"Polygon","arcs":[[-11,38,39,40,41]],"properties":{"codigo":"47053100000000000201","sector":"470531000000000002","pcode":"CO47053","area_m2":126589}},{"type":"Polygon","arcs":[[42,43,44,-41]],"properties":{"codigo":"47053100000000000202","sector":"470531000000000002","pcode":"CO47053","area_m2":46961}},{"type":"Polygon","arcs":[[45,46,-43,-40,47]],"properties":{"codigo":"47053100000000000203","sector":"470531000000000002","pcode":"CO47053","area_m2":47557}},{"type":"Polygon","arcs":[[48,-5,49,-48,-39,-14]],"properties":{"codigo":"47053100000000000204","sector":"470531000000000002","pcode":"CO47053","area_m2":52734}},{"type":"Polygon","arcs":[[50,-44,-47,51]],"properties":{"codigo":"47053100000000000205","sector":"470531000000000002","pcode":"CO47053","area_m2":229576}},{"type":"Polygon","arcs":[[-50,-4,52,53,-52,-46]],"properties":{"codigo":"47053100000000000206","sector":"470531000000000002","pcode":"CO47053","area_m2":115019}},{"type":"Polygon","arcs":[[-31,-36,54,55,-6,-49,-13]],"properties":{"codigo":"47053100000000000208","sector":"470531000000000002","pcode":"CO47053","area_m2":108807}},{"type":"Polygon","arcs":[[-56,56,-53,-3]],"properties":{"codigo":"47053100000000000209","sector":"470531000000000002","pcode":"CO47053","area_m2":173091}},{"type":"Polygon","arcs":[[-28,57,58,59,-34,60]],"properties":{"codigo":"47053100000000000305","sector":"470531000000000003","pcode":"CO47053","area_m2":74691}},{"type":"Polygon","arcs":[[61,62]],"properties":{"codigo":"47053100000000000307","sector":"470531000000000003","pcode":"CO47053","area_m2":60363}},{"type":"Polygon","arcs":[[63,64,-63,65,-59]],"properties":{"codigo":"47053100000000000308","sector":"470531000000000003","pcode":"CO47053","area_m2":93898}},{"type":"Polygon","arcs":[[66,-64,-58,-27,-37]],"properties":{"codigo":"47053100000000000309","sector":"470531000000000003","pcode":"CO47053","area_m2":101522}},{"type":"Polygon","arcs":[[-61,-33,-22,-29]],"properties":{"codigo":"47053100000000000310","sector":"470531000000000003","pcode":"CO47053","area_m2":109679}},{"type":"Polygon","arcs":[[67,68,69]],"properties":{"codigo":"47053200503001000101","sector":"470532005030010001","pcode":"CO47053","area_m2":78016}},{"type":"Polygon","arcs":[[70,71,-70,72,73]],"properties":{"codigo":"47053200503001000102","sector":"470532005030010001","pcode":"CO47053","area_m2":162064}},{"type":"Polygon","arcs":[[-71,74]],"properties":{"codigo":"47053200503001000103","sector":"470532005030010001","pcode":"CO47053","area_m2":91902}},{"type":"Polygon","arcs":[[75]],"properties":{"codigo":"47053200402011000101","sector":"470532004020110001","pcode":"CO47053","area_m2":68814}},{"type":"Polygon","arcs":[[76,77]],"properties":{"codigo":"47053200503013000101","sector":"470532005030130001","pcode":"CO47053","area_m2":109334}},{"type":"Polygon","arcs":[[78,79,-78,80]],"properties":{"codigo":"47053200503013000102","sector":"470532005030130001","pcode":"CO47053","area_m2":91441}},{"type":"Polygon","arcs":[[81,-79,82,-73,-69]],"properties":{"codigo":"47053200503013000103","sector":"470532005030130001","pcode":"CO47053","area_m2":64888}},{"type":"Polygon","arcs":[[83]],"properties":{"codigo":"47053200401016000101","sector":"470532004010160001","pcode":"CO47053","area_m2":6702}},{"type":"MultiPolygon","arcs":[[[84]],[[85]]],"properties":{"codigo":"47053200602018000101","sector":"470532006020180001","pcode":"CO47053","area_m2":6167}}]}},"arcs":[[[9988,9995],[10,-22],[-29,-4],[-13,-8],[5,-22],[-27,5],[-3,38],[57,13]],[[9860,9952],[3,-34],[-6,-23],[-11,4],[6,23],[-13,-4],[-7,19],[28,15]],[[2608,4882],[-17,47],[0,41]],[[2591,4970],[11,92]],[[2602,5062],[89,-9]],[[2691,5053],[-1,-64],[-4,-50],[-16,-94],[-11,-48],[-19,7],[4,62],[-36,16]],[[2841,5377],[4,31],[-91,40]],[[2754,5448],[-31,158],[104,-48],[58,-30],[16,-11],[11,-36],[9,-68],[6,-14],[-12,-33],[-74,11]],[[2841,5377],[-21,-64],[-18,-71]],[[2802,5242],[-15,3],[-126,9]],[[2661,5254],[-11,44],[-19,14],[3,22],[12,-2]],[[2646,5332],[48,-45],[5,17],[4,69],[5,18],[4,76],[42,-19]],[[2757,5041],[-25,15]],[[2732,5056],[-27,44],[-17,63],[-11,27],[-16,64]],[[2802,5242],[5,-7]],[[2807,5235],[-48,-188]],[[2759,5047],[-2,-6]],[[2993,5128],[-7,-25],[-48,17],[-3,-38],[32,-17],[-43,-50],[5,-21],[-85,40],[-42,-4],[-43,17]],[[2807,5235],[36,-39],[38,-29],[90,-34],[22,-5]],[[3335,4976],[-18,-43],[-29,-1],[-9,-19],[60,-21],[36,3],[11,-70]],[[3386,4825],[-36,-4],[-27,4],[-66,15],[-33,13],[-101,22],[-48,9],[-10,-25]],[[3065,4859],[-19,-28],[-21,-39],[-34,0],[-11,-16]],[[2980,4776],[-43,31],[-66,36],[-26,4],[-20,18]],[[2825,4865],[77,58],[80,64],[20,13],[23,2],[118,-41],[4,23],[39,30]],[[3186,5014],[32,-25],[21,5],[11,-14],[85,-4]],[[3386,4825],[20,-93]],[[3406,4732],[-32,-3],[-2,-29],[-30,0],[-2,-47],[-34,-5]],[[3306,4648],[-78,-12]],[[3228,4636],[13,91],[-98,1],[-27,10],[-7,12],[-34,83],[7,12],[-17,14]],[[2825,4865],[-37,-28],[-68,30],[-7,8]],[[2713,4875],[44,166]],[[2993,5128],[65,-27],[15,-9],[48,-48],[65,-30]],[[2980,4776],[-5,-53]],[[2975,4723],[-1,-35],[-17,-33]],[[2957,4655],[-69,12],[-39,-6],[12,-45],[-84,-21],[4,-77],[53,-98],[-30,-28],[-6,29],[-25,38],[-12,40],[-24,-16],[-61,-88],[4,-34],[-133,-181],[-24,11],[7,45],[30,129],[4,11],[39,165],[18,67]],[[2621,4608],[16,69],[15,39],[28,36],[33,123]],[[3541,4670],[-29,11],[-27,-3],[0,38],[-27,-7],[-15,10],[-4,24],[-33,-11]],[[3335,4976],[12,25],[26,10],[23,28],[23,1],[43,-27],[55,18],[61,4],[116,30],[8,-22],[-9,-25],[13,-28],[11,3],[12,-67],[-19,-8],[-10,-141],[-12,-40],[-23,-101],[-38,14],[-4,53],[-30,-36],[-52,3]],[[2661,5254],[-38,2]],[[2623,5256],[4,26],[-32,3],[-101,17]],[[2494,5302],[2,17],[-14,4],[-3,-21],[-77,0],[-50,2],[-28,20]],[[2324,5324],[41,38],[-3,13],[41,26],[-1,-56],[14,-23],[9,9],[21,39],[26,-13],[34,-28],[7,-13],[22,45],[-14,18],[-6,22],[-16,22],[-49,50],[13,24],[37,-17],[54,39],[29,-11],[19,-31],[27,-20],[18,-61],[-6,-49],[5,-15]],[[2494,5302],[-1,-40],[19,-1],[-5,-59]],[[2507,5202],[-54,13],[-37,17],[-83,33],[-46,28]],[[2287,5293],[37,31]],[[2610,5153],[-36,1],[2,19],[-71,2]],[[2505,5175],[2,27]],[[2623,5256],[-9,-54],[-4,-49]],[[2732,5056],[0,-7],[-41,4]],[[2602,5062],[8,91]],[[2321,4981],[-48,4],[-38,19],[-9,20],[-10,42],[-5,63],[-10,56],[-14,37],[100,71]],[[2505,5175],[-3,-21],[-4,-117],[-37,4],[-55,-25],[5,-19],[-33,-17],[-11,8],[-13,51],[-36,-3],[3,-55]],[[2591,4970],[-48,-6],[-20,-9],[-47,-13],[-35,-17],[-15,-20]],[[2426,4905],[-40,46],[-32,19],[-33,11]],[[2621,4608],[-26,7],[-29,-5],[-80,-56],[-31,-1],[-20,25]],[[2435,4578],[15,12],[36,-7],[23,10],[28,27],[25,57],[4,16],[42,122],[-14,4],[14,31],[0,32]],[[2435,4578],[-9,35],[4,99],[20,78],[2,19],[-3,49],[-23,47]],[[3306,4648],[-9,-82]],[[3297,4566],[-72,2],[-3,-25]],[[3222,4543],[-21,2],[-113,36],[-102,25],[-6,35],[-24,7],[1,7]],[[2975,4723],[8,-2],[3,-36],[114,-30],[-4,-26],[131,-35],[1,42]],[[3398,4424],[-3,-28],[-33,-10],[-18,-1],[-6,11],[-39,-23],[-30,0],[-2,42],[-59,0],[7,66]],[[3215,4481],[51,12],[31,2],[81,-9],[34,-8],[-14,-54]],[[3297,4566],[136,-4],[-8,-34],[53,-13]],[[3478,4515],[66,-31],[-14,-20],[-21,-4],[-26,-57],[-33,-53],[3,34],[-14,5],[-14,27],[-27,8]],[[3215,4481],[7,62]],[[3541,4670],[-27,-4],[-36,-151]],[[3220,39],[-21,19],[-26,35],[-18,44],[-22,91],[-18,113]],[[3115,341],[74,22]],[[3189,363],[7,-55],[33,19],[2,-38],[-11,-250]],[[3341,451],[-19,-51],[26,-44],[-30,-3],[-3,-236],[-3,-67],[5,-27]],[[3317,23],[-65,-16],[-32,32]],[[3189,363],[36,27],[17,22],[15,29],[14,53]],[[3271,494],[4,40],[-7,65],[18,14],[5,-19],[7,5],[34,-90],[-19,-7],[6,-37],[22,-14]],[[3341,451],[22,-28],[48,-128],[22,-73],[-37,-2],[-15,-49],[34,-17],[-1,-7],[-33,12],[-1,-47],[-21,1],[-1,-51],[-5,-16],[-14,1],[0,-37],[-16,-10],[-6,23]],[[2640,8314],[-49,-182],[-16,-63],[-127,56],[9,33],[15,-6],[22,67],[7,31],[43,-19],[7,13],[20,-10],[-3,-13],[19,2],[19,85],[27,12],[7,-6]],[[3028,546],[-10,-6],[-13,-39],[-11,-93],[-16,-36],[-14,-13],[-25,-6],[-42,0],[-27,14],[13,22],[-9,6],[-1,24],[-14,58],[-9,59],[50,41],[77,49]],[[2977,626],[34,-45],[19,24],[7,-10],[-14,-21],[5,-28]],[[3220,547],[0,-40],[-67,-32],[-58,-22]],[[3095,453],[-27,69],[-26,26],[-14,-2]],[[2977,626],[57,31],[22,23],[29,-17],[74,-63],[24,-18],[37,-35]],[[3115,341],[-7,30],[-13,82]],[[3220,547],[39,-33],[12,-20]],[[16,8564],[20,-61],[29,-105],[-9,-3],[-19,70],[-18,55],[-8,37],[-11,16],[12,6],[4,-15]],[[9749,399],[-7,-23],[-18,-26],[-18,-15],[0,-23],[-10,24],[-11,6],[14,8],[-1,15],[34,28],[17,6]],[[9705,272],[-13,-24],[7,30],[6,-6]]]}
