{"type":"Topology","bbox":[-74.50410438459977,9.238751746305843,-74.22097172299061,9.40731421563822],"transform":{"scale":[0.000028316097770692944,0.000016857932726510358],"translate":[-74.50410438459977,9.238751746305843]},"objects":{"municipios":{"type":"GeometryCollection","geometries":[{"type":"Polygon","arcs":[[0,1]],"properties":{"codigo":"47703100000000000101","sector":"477031000000000001","pcode":"CO47703","area_m2":186995}},{"type":"Polygon","arcs":[[-2,2]],"properties":{"codigo":"47703100000000000102","sector":"477031000000000001","pcode":"CO47703","area_m2":248441}},{"type":"Polygon","arcs":[[3,4]],"properties":{"codigo":"47703200104002000101","sector":"477032001040020001","pcode":"CO47703","area_m2":33958}},{"type":"Polygon","arcs":[[5,6]],"properties":{"codigo":"47703200101006000102","sector":"477032001010060001","pcode":"CO47703","area_m2":144350}},{"type":"Polygon","arcs":[[7]],"properties":{"codigo":"47703200101010000101","sector":"477032001010100001","pcode":"CO47703","area_m2":107528}},{"type":"MultiPolygon","arcs":[[[-4,8]],[[9]]],"properties":{"codigo":"47703200104002000102","sector":"477032001040020001","pcode":"CO47703","area_m2":117761}},{"type":"Polygon","arcs":[[10,11]],"properties":{"codigo":"47703200104001000101","sector":"477032001040010001","pcode":"CO47703","area_m2":25448}},{"type":"Polygon","arcs":[[-11,12]],"properties":{"codigo":"47703200104001000102","sector":"477032001040010001","pcode":"CO47703","area_m2":86250}},{"type":"Polygon","arcs":[[13,14]],"properties":{"codigo":"47703200104008000102","sector":"477032001040080001","pcode":"CO47703","area_m2":31055}},{"type":"Polygon","arcs":[[15]],"properties":{"codigo":"47703200104003000101","sector":"477032001040030001","pcode":"CO47703","area_m2":47193}},{"type":"Polygon","arcs":[[16]],"properties":{"codigo":"47703200201004000101","sector":"477032002010040001","pcode":"CO47703","area_m2":102698}},{"type":"Polygon","arcs":[[17]],"properties":{"codigo":"47703200203005000101","sector":"477032002030050001","pcode":"CO47703","area_m2":36131}},{"type":"Polygon","arcs":[[-7,18]],"properties":{"codigo":"47703200101006000101","sector":"477032001010060001","pcode":"CO47703","area_m2":190335}},{"type":"Polygon","arcs":[[19,20]],"properties":{"codigo":"47703200104007000101","sector":"477032001040070001","pcode":"CO47703","area_m2":52176}},{"type":"Polygon","arcs":[[-20,21]],"properties":{"codigo":"47703200104007000102","sector":"477032001040070001","pcode":"CO47703","area_m2":105333}},{"type":"Polygon","arcs":[[22,-14]],"properties":{"codigo":"47703200104008000101","sector":"477032001040080001","pcode":"CO47703","area_m2":66284}},{"type":"Polygon","arcs":[[23]],"properties":{"codigo":"47703200103009000101","sector":"477032001030090001","pcode":"CO47703","area_m2":217484}}]}},"arcs":[[[209,263],[-63,-100],[-98,-163],[-18,48],[-30,53],[50,87],[-13,32],[56,31],[26,50],[-23,49],[48,48]],[[144,398],[32,-81],[33,-54]],[[144,398],[-2,8],[28,46],[5,-9],[23,28],[-19,54],[22,11],[47,204],[17,50],[35,-29],[10,-31],[-9,-64],[0,-58],[-10,-53],[2,-20],[-31,-103],[32,-59],[-19,-20],[-66,-90]],[[4125,1506],[-5,-10],[26,-38],[-6,-7]],[[4140,1451],[-12,-16],[-63,103],[-16,31],[-53,79],[15,23],[19,-27],[-8,-17],[103,-121]],[[1389,2230],[21,-17],[33,5],[32,-39],[-44,-80],[9,-21],[-24,-77],[-34,-49]],[[1382,1952],[-17,23],[-20,53],[8,104],[-21,25],[6,19],[-11,34],[19,49],[39,-44],[4,15]],[[1685,2673],[28,11],[36,-35],[39,-17],[14,-32],[-43,-58],[-72,97],[-22,13],[-27,-55],[-30,26],[-52,68],[13,25],[-31,13],[7,21],[42,-23],[55,-16],[43,-38]],[[4125,1506],[24,-33],[15,7],[30,-12],[32,56],[-14,38],[26,-36],[23,-16],[33,-38],[-26,-50],[7,-13],[51,-48],[-27,-32],[-36,22],[-5,-12],[-43,74],[-30,-29],[-45,67]],[[4362,1441],[-36,-69],[-8,12],[18,36],[-9,10],[-18,-35],[-9,11],[35,73],[27,-38]],[[4051,3963],[-9,4],[-24,-169]],[[4018,3798],[-18,-2],[12,72],[-9,1],[5,92],[9,14],[34,-12]],[[4051,3963],[18,2],[20,63],[24,-4],[7,89],[14,6],[9,-18],[-9,-82],[48,-7],[-67,-66],[9,-31],[-19,-13],[-25,5],[-25,-37],[6,-28],[-12,-44],[-16,11],[-15,-11]],[[3995,1182],[-43,-30],[-40,55],[-12,42],[-24,109]],[[3876,1358],[11,6],[30,-130],[23,-10],[55,-42]],[[3209,469],[9,-48],[14,11],[11,-76],[40,7],[4,-18],[-21,-13],[-14,-29],[6,-34],[-12,-3],[-9,-37],[-18,74],[-2,57],[-16,7],[6,72],[-26,94],[16,4],[12,-68]],[[6554,4920],[30,-22],[-2,-45],[17,-21],[39,1],[9,28],[33,63],[14,-12],[-20,-34],[15,-26],[-5,-16],[14,-18],[-12,-34],[18,7],[45,-60],[-23,-43],[-62,72],[-16,-8],[-14,-31],[-6,15],[13,33],[-41,37],[-19,-14],[-40,60],[-17,-9],[16,52],[-12,27],[9,19],[17,-21]],[[9977,9986],[22,-10],[-49,-56],[-74,-61],[-9,27],[5,19],[101,94],[4,-13]],[[1382,1952],[-13,-16],[-34,50],[7,45],[-25,-10],[-55,11],[-8,7],[24,85],[-10,7],[16,49],[-40,38],[-10,19],[-19,-21],[-24,22],[13,37],[-20,4],[-7,42],[38,58],[24,-47],[-14,-23],[8,-11],[42,45],[15,-26],[37,-15],[7,-30],[37,24],[-10,-50],[28,-16]],[[3761,763],[16,-48],[-15,-20],[24,-38],[38,32],[13,-34],[-11,-19]],[[3826,636],[1,-53],[17,9],[14,-29],[-33,-18],[-14,30],[-17,-1],[-16,70],[-15,22],[-14,-27],[-16,44],[14,22],[-16,31],[30,27]],[[3761,763],[10,9],[6,-25],[52,46],[34,6],[-3,17],[25,17],[24,-78],[3,-32],[-11,-6],[12,-40],[-22,-9],[6,-28],[-17,8],[-17,-15],[-17,15],[-20,-12]],[[3995,1182],[8,14],[23,-26],[-10,-25],[11,-10],[-14,-18],[-18,23],[-33,-22],[-13,-23],[-6,43],[-10,-11],[-2,30],[-32,43],[-31,1],[-10,21],[-19,79],[6,31],[31,26]],[[2654,2269],[38,-13],[-13,-17],[29,-49],[68,-90],[-5,-8],[25,-59],[-19,-25],[20,-50],[4,-50],[22,-116],[20,-59],[13,-58],[13,-25],[34,21],[5,-23],[-37,-30],[2,-11],[-25,-16],[35,-135],[7,-52],[13,-48],[26,-65],[25,-77],[-32,-22],[23,-18],[17,13],[17,-46],[-32,-23],[-16,18],[-35,113],[-52,142],[-9,64],[19,6],[-9,51],[-10,-5],[-11,72],[11,9],[-13,121],[-30,158],[-19,114],[-48,145],[-25,47],[-55,61],[-13,1],[12,40],[10,-6]]]}
