{"type":"Topology","bbox":[-74.24666349142024,9.758626640674805,-73.95708176085651,9.930833133352705],"transform":{"scale":[0.000028961069163288845,0.00001722237150494044],"translate":[-74.24666349142024,9.758626640674805]},"objects":{"municipios":{"type":"GeometryCollection","geometries":[{"type":"Polygon","arcs":[[0,1,2,3,4,5,6]],"properties":{"codigo":"47058100000000000203","sector":"470581000000000002","pcode":"CO47058","area_m2":146879}},{"type":"Polygon","arcs":[[7,8,-1,9,10]],"properties":{"codigo":"47058100000000000204","sector":"470581000000000002","pcode":"CO47058","area_m2":94542}},{"type":"Polygon","arcs":[[-11,11,-6,12]],"properties":{"codigo":"47058100000000000207","sector":"470581000000000002","pcode":"CO47058","area_m2":115972}},{"type":"Polygon","arcs":[[-10,-7,-12]],"properties":{"codigo":"47058100000000000208","sector":"470581000000000002","pcode":"CO47058","area_m2":44970}},{"type":"Polygon","arcs":[[13]],"properties":{"codigo":"47058201202005000101","sector":"470582012020050001","pcode":"CO47058","area_m2":30381}},{"type":"Polygon","arcs":[[14]],"properties":{"codigo":"47058200703008000101","sector":"470582007030080001","pcode":"CO47058","area_m2":27504}},{"type":"Polygon","arcs":[[15,16]],"properties":{"codigo":"47058201405009000102","sector":"470582014050090001","pcode":"CO47058","area_m2":4297}},{"type":"Polygon","arcs":[[17,18,19,20]],"properties":{"codigo":"47058100000000000101","sector":"470581000000000001","pcode":"CO47058","area_m2":146000}},{"type":"Polygon","arcs":[[21]],"properties":{"codigo":"47058200703001000101","sector":"470582007030010001","pcode":"CO47058","area_m2":150043}},{"type":"MultiPolygon","arcs":[[[22,23,24,25,26]],[[27]]],"properties":{"codigo":"47058201201003000101","sector":"470582012010030001","pcode":"CO47058","area_m2":148778}},{"type":"MultiPolygon","arcs":[[[28,-23,29]],[[30]],[[31]]],"properties":{"codigo":"47058201201003000102","sector":"470582012010030001","pcode":"CO47058","area_m2":197776}},{"type":"Polygon","arcs":[[32,-24,-29,33]],"properties":{"codigo":"47058201201003000103","sector":"470582012010030001","pcode":"CO47058","area_m2":172981}},{"type":"Polygon","arcs":[[34,35,-25,-33]],"properties":{"codigo":"47058201201003000104","sector":"470582012010030001","pcode":"CO47058","area_m2":97872}},{"type":"Polygon","arcs":[[36,-26,-36]],"properties":{"codigo":"47058201201003000105","sector":"470582012010030001","pcode":"CO47058","area_m2":45594}},{"type":"MultiPolygon","arcs":[[[-16,37]],[[38]],[[39]]],"properties":{"codigo":"47058201405009000101","sector":"470582014050090001","pcode":"CO47058","area_m2":191641}},{"type":"Polygon","arcs":[[40,41,42,43,44,-19,45,46]],"properties":{"codigo":"47058100000000000109","sector":"470581000000000001","pcode":"CO47058","area_m2":375597}},{"type":"Polygon","arcs":[[-9,47,48,49,50,51,-2]],"properties":{"codigo":"47058100000000000205","sector":"470581000000000002","pcode":"CO47058","area_m2":165961}},{"type":"Polygon","arcs":[[-3,-52,52,53,54,55]],"properties":{"codigo":"47058100000000000201","sector":"470581000000000002","pcode":"CO47058","area_m2":107634}},{"type":"Polygon","arcs":[[56,-43]],"properties":{"codigo":"47058100000000000110","sector":"470581000000000001","pcode":"CO47058","area_m2":32377}},{"type":"Polygon","arcs":[[57,58,-45]],"properties":{"codigo":"47058100000000000107","sector":"470581000000000001","pcode":"CO47058","area_m2":71261}},{"type":"Polygon","arcs":[[59,-41,60,61]],"properties":{"codigo":"47058100000000000108","sector":"470581000000000001","pcode":"CO47058","area_m2":129598}},{"type":"Polygon","arcs":[[62,63,64,65,-50]],"properties":{"codigo":"47058100000000000104","sector":"470581000000000001","pcode":"CO47058","area_m2":116579}},{"type":"Polygon","arcs":[[66,-53,-51,-66,67,68]],"properties":{"codigo":"47058100000000000103","sector":"470581000000000001","pcode":"CO47058","area_m2":261241}},{"type":"Polygon","arcs":[[-4,-56,69]],"properties":{"codigo":"47058100000000000202","sector":"470581000000000002","pcode":"CO47058","area_m2":164521}},{"type":"Polygon","arcs":[[-67,70,-54]],"properties":{"codigo":"47058100000000000209","sector":"470581000000000002","pcode":"CO47058","area_m2":35744}},{"type":"Polygon","arcs":[[71,-62,72,-63,-49]],"properties":{"codigo":"47058100000000000206","sector":"470581000000000002","pcode":"CO47058","area_m2":247403}},{"type":"Polygon","arcs":[[-61,-47,73,-64,-73]],"properties":{"codigo":"47058100000000000105","sector":"470581000000000001","pcode":"CO47058","area_m2":160802}},{"type":"Polygon","arcs":[[-65,-74,-46,-18,74,-68]],"properties":{"codigo":"47058100000000000102","sector":"470581000000000001","pcode":"CO47058","area_m2":133908}},{"type":"Polygon","arcs":[[-59,75,-20]],"properties":{"codigo":"47058100000000000106","sector":"470581000000000001","pcode":"CO47058","area_m2":129972}}]}},"arcs":[[[505,5370],[-24,30],[-11,-22],[-14,-20],[-2,-11],[1,-28],[4,-12],[4,-37]],[[463,5270],[-22,4],[-24,8],[-49,52],[-5,9]],[[363,5343],[69,83],[19,26]],[[451,5452],[110,136],[1,3]],[[562,5591],[19,-47],[2,-27],[-8,-24]],[[575,5493],[-9,-24],[-13,-20]],[[553,5449],[-13,-13],[-10,-17],[-25,-49]],[[656,5262],[-3,0]],[[653,5262],[-13,-4],[-25,-24],[-14,-9],[-52,13],[-47,-2],[-24,28],[-4,10],[-11,-4]],[[505,5370],[-14,-33],[40,-35]],[[531,5302],[11,-11],[10,-28],[40,28],[2,-11],[14,17],[-5,22],[38,32],[4,-20],[12,-29],[6,-28],[-7,-12]],[[531,5302],[7,11],[42,28],[11,12],[-26,57],[-12,39]],[[575,5493],[32,-34],[10,-15],[5,-26],[10,0],[19,-9],[36,-28],[2,4],[16,-14],[-2,-73],[-4,-43],[-43,7]],[[9940,9985],[11,-10],[33,5],[15,-6],[-4,-15],[-9,3],[-29,-25],[1,-3],[-40,-29],[-8,-9],[-18,71],[22,14],[21,18],[5,-14]],[[4429,9594],[2,-81],[-79,0],[-1,23],[26,0],[0,17],[14,0],[0,41],[38,11],[0,-11]],[[8614,454],[8,8],[7,-7],[9,22],[15,-20]],[[8653,457],[-13,-22],[-13,15],[-3,-8],[-10,12]],[[164,5121],[6,-13],[-4,-16],[-7,-10],[39,-79],[-12,-22],[7,-12]],[[193,4969],[11,-92],[-12,-4]],[[192,4873],[-7,28],[-17,42],[-12,-15],[-22,37],[-9,-10],[18,-63],[-25,-20],[-9,26],[-34,117],[-50,-43]],[[25,4972],[-18,-16],[-7,20],[12,10],[-6,22],[18,37],[8,8],[15,3],[42,41],[24,-8],[14,13],[6,16],[31,3]],[[5073,9552],[8,-8],[6,14],[15,-20],[-6,-12],[-17,-8],[10,-32],[31,24],[7,-25],[0,-20],[13,-5],[3,-8],[-16,-15],[1,-23],[-7,-5],[4,-37],[-14,-1],[-4,-48],[-3,-60],[7,-35],[31,0],[0,-59],[-88,-2],[6,22],[-2,54],[3,34],[-17,4],[2,60],[15,58],[1,23],[-6,43],[-9,12],[-7,43],[0,25],[10,-3],[7,17],[16,-7]],[[5008,8620],[4,-42],[31,-50]],[[5043,8528],[-22,-6]],[[5021,8522],[-116,-27],[-55,-16],[-78,-19]],[[4772,8460],[-28,-6]],[[4744,8454],[-8,-2],[-2,38],[-5,10],[14,-2],[0,53],[39,20],[1,-32],[-6,1],[1,-68],[15,1],[0,19],[29,3],[38,11],[-2,20],[15,6],[-6,17],[10,5],[6,-20],[15,-5],[13,5],[-5,33],[13,-1],[-1,9],[19,-9],[-7,18],[12,1],[-7,31],[-2,31],[22,13],[10,-9],[4,-31],[16,4],[2,-5],[21,1]],[[4952,8762],[12,23],[4,-21],[-6,-1],[4,-13],[-2,-24],[13,-8],[0,-17],[-37,-21],[-13,12],[1,8],[-5,59],[8,2],[-2,31],[10,21],[6,3],[4,-44],[3,-10]],[[5226,8696],[-59,-56],[-48,-53],[-47,-43],[-29,-16]],[[5008,8620],[-2,19],[37,-3],[5,23],[-12,6],[6,37],[15,-3],[1,24],[6,5],[-1,-48],[3,-18],[8,-4],[26,0],[43,8],[22,-1],[-1,35],[8,5],[-6,12],[2,69],[-1,10],[33,14],[1,-41],[-6,-8],[-3,-19],[-1,-52],[-4,-14],[35,31],[4,-11]],[[5185,8934],[-4,-26],[8,-2],[1,-57],[8,-5],[1,-20],[-38,-21],[-5,8],[-13,1],[-80,-57],[-5,-1],[3,96],[23,1],[27,7],[37,6],[15,11],[3,23],[6,0],[6,39],[7,-3]],[[5337,8932],[15,-60],[-7,2],[-39,-4],[-47,-8],[0,13],[46,39],[23,26],[4,10],[5,-18]],[[4942,8329],[14,6],[15,-49],[19,16],[-13,66],[-3,53],[37,4],[-7,43],[2,28],[15,26]],[[5226,8696],[60,60],[59,57],[2,-12],[-25,-25],[-44,-38],[-3,-5],[-50,-50],[-2,-11],[-8,-3],[-8,-27],[7,-28],[-6,-9],[-7,7],[-7,23],[-29,-16],[-6,-15],[-9,-1],[-2,-11],[-31,-33],[4,-31],[-20,-12],[-11,14],[-24,-21],[-14,-7],[-4,11],[-10,-2],[-1,-25],[3,-50],[-3,-20],[8,4],[-1,-27],[-11,0],[9,-53],[4,-33],[10,-42],[11,-30],[22,-43],[8,-28],[1,-46],[-12,5],[1,22],[-5,27],[-8,13],[-6,-8],[-19,32],[-10,5],[-12,-11],[-4,15],[-34,-26],[-6,52],[-4,20],[-17,19],[-11,-5],[-5,8],[-3,22],[-8,19],[7,2]],[[4942,8329],[-2,47],[-8,0],[0,12],[13,-2],[-4,25],[-10,-4],[-29,5],[1,17],[-10,8],[1,29],[-11,-2],[-3,7],[-30,-7],[-2,-10],[-27,-5],[-15,1]],[[4806,8450],[-1,7],[-28,-6],[-5,9]],[[4806,8450],[4,-16],[10,4],[-1,-19],[-7,2],[-4,-14],[-10,-9],[5,-38],[7,2],[0,-15],[-6,0],[6,-16],[0,-22],[-61,-21],[-1,17],[-5,1],[0,43],[27,7],[2,28],[0,58],[-27,-7],[-1,19]],[[8614,454],[-13,29],[-17,-21],[0,-27],[-9,-3],[-6,8],[-18,-15],[-7,28],[6,3],[3,-15],[28,16],[-15,40],[-5,-5],[-7,20],[5,6],[-8,29],[-37,72],[-12,-18],[-22,38],[-11,-9],[-20,35],[16,23],[1,16],[-8,8],[8,15],[16,-18],[-4,-6],[66,-81],[6,9],[11,-24],[6,10],[1,-19],[18,-23],[8,18],[65,3],[5,6],[-5,-23],[8,-5],[-11,-42],[-7,-21],[50,-50],[6,14],[20,-25],[-13,-30],[-8,12],[-15,-23],[-36,48]],[[8926,108],[16,-27],[6,-29],[8,-15],[11,25],[17,-22],[-22,-40],[-7,13],[-10,-8],[-69,101],[-3,-4],[-16,25],[3,4],[-12,22],[20,32],[56,-71],[2,-6]],[[8757,242],[-7,-1],[-12,12],[13,73],[4,-7],[-5,-56],[9,-6],[-2,-15]],[[327,4875],[3,-49],[8,-12],[33,-9],[22,-52],[-25,-26],[-28,-22]],[[340,4705],[-5,-11],[-8,-31],[-23,-48],[-19,-36],[-15,-17]],[[270,4562],[-21,34],[-7,-13],[-15,16],[-5,26],[-19,-1],[0,-15]],[[203,4609],[-33,-42],[-11,22],[-24,58]],[[135,4647],[61,36],[-7,58],[3,26],[8,32],[3,26],[-2,18],[-9,30]],[[193,4969],[26,46],[28,39],[16,-15],[6,-1]],[[269,5038],[-3,-33],[21,4],[2,-62],[24,-5],[18,27],[8,4],[-12,-98]],[[653,5262],[-4,-11],[-26,-23],[7,-45],[-9,-42]],[[621,5141],[-11,14],[-22,9],[5,36],[-41,-35],[-6,-17],[-21,4],[-20,-1],[-23,-6],[-24,-11],[-1,-8],[-14,6],[-47,-1]],[[396,5131],[0,60],[-5,17],[-23,43],[-8,30],[-15,42]],[[345,5323],[12,14]],[[357,5337],[6,6]],[[357,5337],[-2,7],[-22,20],[8,37],[5,38]],[[346,5439],[9,94],[-16,16]],[[339,5549],[6,8],[11,0],[11,27],[-14,80],[9,4]],[[362,5668],[9,-57],[10,-31],[10,-18],[21,25],[17,-51],[-10,-13],[32,-71]],[[270,4562],[-30,-35],[-25,-21],[-30,-17],[-1,9],[10,19],[8,32],[1,60]],[[135,4647],[-18,42],[-5,-16],[-13,-1],[8,13],[-16,70]],[[91,4755],[50,17],[46,40],[-12,47],[17,14]],[[476,4872],[6,-10],[42,-47],[-4,-15],[-43,8],[-45,0],[-3,-15],[4,-10],[-7,-51],[-5,-4],[0,-19],[18,-2],[-2,-13],[18,-3],[-14,-56],[-12,-74],[-7,7],[-10,-3],[8,50],[-28,39],[-8,1],[-25,50],[-15,-11],[-4,11]],[[327,4875],[50,-23],[12,0]],[[389,4852],[14,-4],[33,-2],[2,21],[7,16],[14,14],[12,-23],[5,-2]],[[396,5131],[0,-2]],[[396,5129],[-55,-5],[-63,-2],[-12,3]],[[266,5125],[2,48],[-31,5],[-3,7],[13,15]],[[247,5200],[98,123]],[[282,5608],[26,-74],[12,-56],[-2,-29],[28,-10]],[[247,5200],[-4,11],[1,27],[5,33],[-16,10],[-20,5]],[[213,5286],[-2,33],[1,32],[-15,11],[-1,-6],[-18,6],[9,42],[6,18],[22,11],[12,15],[14,7],[-24,46],[2,6],[-20,41],[-21,29],[16,23],[20,23],[3,12],[15,-9],[7,23],[11,-1],[12,-14],[15,-26],[5,0]],[[362,5668],[-2,25],[11,8],[5,-18],[24,39],[30,-45],[21,-39],[8,-32],[14,-19],[19,-15],[7,-15],[17,21],[-4,14],[34,13],[-28,96],[-4,36],[18,12],[22,-1],[35,-6],[-19,-77],[0,-18],[11,-33],[-19,-23]],[[282,5608],[25,17],[23,-60],[9,-16]],[[621,5141],[6,-38],[-11,8],[-22,-24],[-52,-62],[-18,-17],[-2,-13],[-47,-68],[3,-23],[-2,-32]],[[389,4852],[8,185],[1,88],[-2,4]],[[269,5038],[-3,87]],[[164,5121],[-3,16],[4,6],[-11,49],[4,3],[-8,18],[48,39],[6,-32],[7,4],[2,62]],[[91,4755],[-3,19],[-8,6],[4,10],[-7,10],[4,11],[-12,13],[-14,64],[-14,37],[-8,28],[-8,19]]]}
