{"type":"Topology","bbox":[-74.86719316916316,9.825709937567854,-74.71895140275524,9.980987998501469],"transform":{"scale":[0.000014825659206712747,0.00001552935902926439],"translate":[-74.86719316916316,9.825709937567854]},"objects":{"municipios":{"type":"GeometryCollection","geometries":[{"type":"Polygon","arcs":[[0,1]],"properties":{"codigo":"47798200304008000101","sector":"477982003040080001","pcode":"CO47798","area_m2":75483}},{"type":"Polygon","arcs":[[2,3]],"properties":{"codigo":"47798100000000000102","sector":"477981000000000001","pcode":"CO47798","area_m2":72430}},{"type":"Polygon","arcs":[[4,5,6,7,-4,8,9]],"properties":{"codigo":"47798100000000000103","sector":"477981000000000001","pcode":"CO47798","area_m2":88151}},{"type":"Polygon","arcs":[[10,11,-7]],"properties":{"codigo":"47798100000000000104","sector":"477981000000000001","pcode":"CO47798","area_m2":80079}},{"type":"Polygon","arcs":[[12,13]],"properties":{"codigo":"47798200605005000101","sector":"477982006050050001","pcode":"CO47798","area_m2":172004}},{"type":"Polygon","arcs":[[-13,14]],"properties":{"codigo":"47798200605005000102","sector":"477982006050050001","pcode":"CO47798","area_m2":115207}},{"type":"Polygon","arcs":[[-1,15]],"properties":{"codigo":"47798200304008000102","sector":"477982003040080001","pcode":"CO47798","area_m2":83833}},{"type":"Polygon","arcs":[[16,17,18,19]],"properties":{"codigo":"47798100000000000202","sector":"477981000000000002","pcode":"CO47798","area_m2":134955}},{"type":"Polygon","arcs":[[-9,-3,-8,-12,20,21]],"properties":{"codigo":"47798100000000000101","sector":"477981000000000001","pcode":"CO47798","area_m2":360849}},{"type":"Polygon","arcs":[[22,-20,23,-21,-11,-6,24]],"properties":{"codigo":"47798100000000000201","sector":"477981000000000002","pcode":"CO47798","area_m2":128930}},{"type":"Polygon","arcs":[[25,26,-17,-23,27]],"properties":{"codigo":"47798100000000000203","sector":"477981000000000002","pcode":"CO47798","area_m2":335593}},{"type":"Polygon","arcs":[[28,-18,-27]],"properties":{"codigo":"47798100000000000204","sector":"477981000000000002","pcode":"CO47798","area_m2":394233}},{"type":"Polygon","arcs":[[29,-28,-25,-5]],"properties":{"codigo":"47798100000000000205","sector":"477981000000000002","pcode":"CO47798","area_m2":119760}},{"type":"MultiPolygon","arcs":[[[30,31]],[[32]]],"properties":{"codigo":"47798200301004000101","sector":"477982003010040001","pcode":"CO47798","area_m2":137574}},{"type":"Polygon","arcs":[[-31,33]],"properties":{"codigo":"47798200301004000102","sector":"477982003010040001","pcode":"CO47798","area_m2":90597}},{"type":"Polygon","arcs":[[34]],"properties":{"codigo":"47798200602007000101","sector":"477982006020070001","pcode":"CO47798","area_m2":38187}}]}},"arcs":[[[9793,9602],[27,8],[75,47],[75,101]],[[9970,9758],[7,-44],[-11,-44],[33,-40],[-12,-43],[-44,-45],[-14,-41],[-54,11],[-39,-22],[4,28],[-75,70],[28,14]],[[246,4851],[-8,117],[22,-47],[299,112],[92,36],[17,-47]],[[668,5022],[-192,-78],[-77,-26],[-72,-45],[-81,-22]],[[752,4988],[-67,-8],[29,-75]],[[714,4905],[-92,-30]],[[622,4875],[-29,68],[-97,-38],[-145,-61],[-97,-30]],[[254,4814],[-8,37]],[[668,5022],[46,16],[16,63]],[[730,5101],[13,0],[-16,-62],[25,-51]],[[622,4875],[-80,-35],[-163,-63],[-107,-60]],[[272,4717],[-18,97]],[[1757,29],[-48,102],[-44,105],[-49,135],[-71,173],[-23,66]],[[1522,610],[33,75],[43,38],[48,-160],[29,-71],[40,-137],[105,-330],[-54,-15],[-9,19]],[[1757,29],[-64,-29],[-25,66],[-68,157],[-24,31],[-15,62],[-21,51],[-34,130],[-31,67],[-6,34],[53,12]],[[9793,9602],[-35,22],[-22,38],[13,4],[-19,55],[-35,-2],[-23,67],[47,-24],[89,22],[19,-35],[40,8],[11,-27],[64,68],[21,-22],[34,3],[-27,-21]],[[522,4734],[57,-79],[-75,-44],[-47,-12],[11,-51]],[[468,4548],[-67,12],[-22,-5],[-144,-91]],[[235,4464],[-56,104]],[[179,4568],[135,74],[83,77],[34,39],[56,-45],[35,21]],[[272,4717],[3,-22],[-129,-65]],[[146,4630],[-11,21],[-135,322],[180,77],[32,18],[39,0],[51,13],[15,27],[33,-10],[62,1],[32,-8],[62,59],[121,11],[3,-36],[82,12],[18,-36]],[[716,4765],[-42,75],[-119,-60],[8,-17],[-41,-29]],[[179,4568],[-33,62]],[[714,4905],[46,-119],[-44,-21]],[[846,4610],[17,-48],[-30,-90],[112,-72],[-34,-66],[-98,10],[-3,-84],[-64,1],[-48,12]],[[698,4273],[-6,32],[65,58],[-35,80],[-31,-22],[-46,22],[-42,60],[-38,-26],[-65,60],[-32,11]],[[716,4765],[10,-29],[75,-79],[-38,-6],[20,-68],[63,27]],[[698,4273],[5,-23],[-46,-26],[8,-40],[-27,-10],[5,-18],[-173,-66],[-235,374]],[[752,4988],[-2,-32],[15,-10],[21,-70],[26,11],[20,-42],[32,13],[39,-47],[-11,-5],[21,-42],[-33,-26],[43,-47],[-44,-33],[-24,-7],[-9,-41]],[[5793,9826],[11,-17],[-65,-32],[-70,-65],[-106,-26],[-6,21],[-24,-5]],[[5533,9702],[4,52],[-16,89],[67,43],[17,-2],[108,68],[58,15],[-21,-49],[-40,-47],[24,-2],[27,-31],[32,-12]],[[5886,9898],[-9,36],[18,65],[89,-28],[-98,-73]],[[5793,9826],[55,30],[13,20],[37,-63],[-40,-51],[-52,-27],[28,-29],[-88,-59],[-17,17],[-88,-62],[-80,70],[-21,0],[-7,30]],[[4927,7236],[47,-32],[-13,-15],[10,-67],[-37,14],[10,-60],[-33,-9],[-34,49],[11,8],[-21,43],[1,63],[17,30],[40,5],[2,-29]]]}
