{"type":"Topology","bbox":[-74.6353665960994,9.952955203305262,-74.41399758818812,10.14074124426964],"transform":{"scale":[0.00002213911470259806,0.000018780482144652233],"translate":[-74.6353665960994,9.952955203305262]},"objects":{"municipios":{"type":"GeometryCollection","geometries":[{"type":"Polygon","arcs":[[0]],"properties":{"codigo":"47170200504002000101","sector":"471702005040020001","pcode":"CO47170","area_m2":20448}},{"type":"Polygon","arcs":[[1,2]],"properties":{"codigo":"47170200104001000101","sector":"471702001040010001","pcode":"CO47170","area_m2":80664}},{"type":"Polygon","arcs":[[3,-2]],"properties":{"codigo":"47170200104001000102","sector":"471702001040010001","pcode":"CO47170","area_m2":78428}},{"type":"Polygon","arcs":[[4]],"properties":{"codigo":"47170200305003000101","sector":"471702003050030001","pcode":"CO47170","area_m2":124214}},{"type":"Polygon","arcs":[[5]],"properties":{"codigo":"47170200404004000101","sector":"471702004040040001","pcode":"CO47170","area_m2":100378}},{"type":"Polygon","arcs":[[6]],"properties":{"codigo":"47170200506005000101","sector":"471702005060050001","pcode":"CO47170","area_m2":45565}},{"type":"Polygon","arcs":[[7,8,9,10]],"properties":{"codigo":"47170100000000000101","sector":"471701000000000001","pcode":"CO47170","area_m2":95435}},{"type":"Polygon","arcs":[[11,-10,12]],"properties":{"codigo":"47170100000000000102","sector":"471701000000000001","pcode":"CO47170","area_m2":68783}},{"type":"Polygon","arcs":[[13,-13,-9,14]],"properties":{"codigo":"47170100000000000103","sector":"471701000000000001","pcode":"CO47170","area_m2":68854}},{"type":"Polygon","arcs":[[15,16,-15,-8,17]],"properties":{"codigo":"47170100000000000104","sector":"471701000000000001","pcode":"CO47170","area_m2":111852}},{"type":"Polygon","arcs":[[18,19,-16,20,21,22]],"properties":{"codigo":"47170100000000000105","sector":"471701000000000001","pcode":"CO47170","area_m2":181789}},{"type":"Polygon","arcs":[[23,24,-22,25,26]],"properties":{"codigo":"47170100000000000201","sector":"471701000000000002","pcode":"CO47170","area_m2":174459}},{"type":"Polygon","arcs":[[27,-23,-25,28]],"properties":{"codigo":"47170100000000000202","sector":"471701000000000002","pcode":"CO47170","area_m2":134534}},{"type":"Polygon","arcs":[[29,30,-19,-28,31,32]],"properties":{"codigo":"47170100000000000203","sector":"471701000000000002","pcode":"CO47170","area_m2":137205}},{"type":"Polygon","arcs":[[33,34,35,-30,36]],"properties":{"codigo":"47170100000000000204","sector":"471701000000000002","pcode":"CO47170","area_m2":261447}},{"type":"Polygon","arcs":[[-37,-33,37,38]],"properties":{"codigo":"47170100000000000205","sector":"471701000000000002","pcode":"CO47170","area_m2":105560}},{"type":"Polygon","arcs":[[39,-38,-32,-29,-24,40]],"properties":{"codigo":"47170100000000000206","sector":"471701000000000002","pcode":"CO47170","area_m2":125229}},{"type":"Polygon","arcs":[[-41,-27,41]],"properties":{"codigo":"47170100000000000207","sector":"471701000000000002","pcode":"CO47170","area_m2":162298}},{"type":"Polygon","arcs":[[-35,42]],"properties":{"codigo":"47170100000000000208","sector":"471701000000000002","pcode":"CO47170","area_m2":78500}}]}},"arcs":[[[9909,9996],[32,-80],[13,9],[25,-15],[20,-32],[-13,1],[-13,-16],[-39,41],[-13,-13],[-17,56],[5,49]],[[3661,40],[-40,7],[-66,46],[-64,31],[-22,29]],[[3469,153],[11,16],[52,-14],[30,61],[-1,23],[32,4],[13,-20],[-1,-35],[11,-28],[19,-3],[-13,-54],[17,-10],[-15,-8],[30,-25],[7,-20]],[[3661,40],[1,-18],[-15,-16],[-18,14],[-15,-16],[-20,10],[-52,4],[-44,-14],[-30,-4],[-23,24],[-15,-10],[-9,14],[47,34],[6,65],[-17,9],[12,17]],[[5320,8603],[10,4],[18,-31],[16,13],[34,-39],[-24,-33],[23,-20],[7,11],[20,-18],[13,18],[35,-30],[-15,-22],[30,1],[-5,14],[46,18],[6,-27],[-48,-52],[-21,-32],[-34,-22],[-1,7],[-35,-9],[-12,-12],[5,29],[-15,45],[-85,180],[1,19],[24,15],[7,-27]],[[5954,3789],[40,23],[11,-3],[19,-33],[-130,-93],[-82,-61],[-42,-21],[-12,29],[58,30],[-9,39],[-20,8],[50,40],[6,14],[12,-10],[51,35],[31,36],[17,-33]],[[9839,6062],[-5,-24],[31,-12],[57,-39],[-18,-6],[29,-12],[-9,-34],[-36,16],[-11,-9],[-13,13],[-55,19],[-22,37],[9,6],[-22,34],[42,-8],[23,19]],[[263,3958],[-5,-17]],[[258,3941],[-32,20],[-16,-22],[-19,-5]],[[191,3934],[-37,-72],[-13,-7],[-7,14],[-46,-19],[-49,3]],[[39,3853],[-39,19],[46,5],[53,20],[-4,56],[6,23],[-39,5],[15,26],[34,-5],[24,-13],[17,33],[17,6],[49,-44],[8,16],[17,-7],[20,-35]],[[185,3762],[-9,-16],[-17,25],[-42,3],[-36,15],[12,23],[-54,23],[0,18]],[[191,3934],[12,-70],[-12,-32],[20,0],[6,-39],[-39,-11],[7,-20]],[[192,3758],[-7,4]],[[258,3941],[19,-13],[11,-24],[-4,-59],[18,-9],[-38,-42],[-72,-28],[0,-8]],[[402,3929],[-33,-7],[-6,-24],[44,-37],[-1,-23],[-23,-13],[-50,-12],[-14,-9],[-41,-51],[-11,-51]],[[267,3702],[-8,-30],[-32,13],[-29,50],[-6,23]],[[263,3958],[34,-33],[19,-4],[-20,61],[10,9],[19,-27],[15,-31],[11,13],[25,1],[28,-9],[-2,-9]],[[555,3883],[14,-55],[41,-48],[-36,-69]],[[574,3711],[-20,6],[-37,36],[5,2],[-20,84],[-89,-29],[4,-29],[-37,-16],[-33,-39],[-30,6],[-23,-25],[-8,7],[-9,-22],[-10,10]],[[402,3929],[24,11]],[[426,3940],[38,3]],[[464,3943],[32,8],[11,-25],[25,12],[23,-55]],[[690,4191],[-12,-52],[23,-13],[-25,-17],[21,-16]],[[697,4093],[-105,-55],[-135,-72],[7,-23]],[[426,3940],[-1,37],[17,9],[-14,30],[-32,11],[-22,1],[1,13],[45,-6],[39,-28],[15,11],[-2,64],[8,1],[-13,93],[43,6],[6,-35],[13,-1],[-4,-30],[14,-4],[38,15],[-12,30],[22,3],[-4,54],[23,3]],[[606,4217],[2,-14],[18,19],[64,-31]],[[642,3912],[-15,-7],[-72,-22]],[[697,4093],[29,-27],[14,41],[25,-13],[-23,-55],[-37,-32],[-78,-46],[15,-49]],[[730,3865],[-94,-178],[-10,-17]],[[626,3670],[-7,18],[-45,23]],[[642,3912],[33,39],[17,-15],[31,51],[15,-14]],[[738,3973],[-27,-51],[34,-27],[-15,-30]],[[899,3793],[24,-9]],[[923,3784],[64,-42]],[[987,3742],[42,-41],[58,-37],[-17,-18],[-69,51],[-41,-28],[18,-25],[-10,-9],[-11,14],[-12,-9],[-15,22],[-13,-8],[-11,23],[13,7],[-29,59],[-40,-39],[-27,-41],[30,-26],[4,4],[33,-32],[-7,-8],[14,-13],[-11,-9],[-44,43],[-3,-5],[-79,61],[-10,-3],[-44,-39],[1,-38],[-33,7],[0,-27],[-21,3],[-4,60],[-23,29]],[[730,3865],[66,-52],[24,-13],[79,-7]],[[738,3973],[41,70],[5,12],[-26,14],[15,19],[23,-63],[13,-51]],[[809,3974],[23,-64],[27,-54],[18,-45],[22,-18]],[[847,4189],[10,-14],[-15,-15],[29,-39],[-13,-32],[8,-10],[-15,-17],[8,-11],[-22,-16],[-28,-61]],[[690,4191],[49,-24],[55,-31],[2,-22],[44,46],[-12,16],[19,13]],[[606,4217],[-3,82],[21,77],[62,3],[-4,-16],[19,-9],[14,26],[19,2],[-17,-131],[10,-11],[57,-26],[20,26],[58,19],[14,-50],[-29,-20]],[[923,3784],[81,61],[3,11],[-18,41],[57,37],[50,-105],[-22,-28],[-25,-21],[-62,-38]]]}
