{"type":"Topology","bbox":[-74.92464697218787,10.071225617567732,-74.75586982868248,10.192423376874217],"transform":{"scale":[0.00001687940229076854,0.000012120988029451426],"translate":[-74.92464697218787,10.071225617567732]},"objects":{"municipios":{"type":"GeometryCollection","geometries":[{"type":"Polygon","arcs":[[0,1]],"properties":{"codigo":"47541200202003000103","sector":"475412002020030001","pcode":"CO47541","area_m2":23554}},{"type":"Polygon","arcs":[[2,3]],"properties":{"codigo":"47541200202003000101","sector":"475412002020030001","pcode":"CO47541","area_m2":131630}},{"type":"Polygon","arcs":[[-1,4,-3,5]],"properties":{"codigo":"47541200202003000102","sector":"475412002020030001","pcode":"CO47541","area_m2":61733}},{"type":"Polygon","arcs":[[6,7]],"properties":{"codigo":"47541200207008000104","sector":"475412002070080001","pcode":"CO47541","area_m2":205025}},{"type":"Polygon","arcs":[[8,9,10,11]],"properties":{"codigo":"47541200106001000101","sector":"475412001060010001","pcode":"CO47541","area_m2":114976}},{"type":"Polygon","arcs":[[12,-11,13,14]],"properties":{"codigo":"47541200106001000102","sector":"475412001060010001","pcode":"CO47541","area_m2":23342}},{"type":"Polygon","arcs":[[-14,-10,15]],"properties":{"codigo":"47541200106001000103","sector":"475412001060010001","pcode":"CO47541","area_m2":82209}},{"type":"Polygon","arcs":[[-15,-16,-9,16]],"properties":{"codigo":"47541200106001000104","sector":"475412001060010001","pcode":"CO47541","area_m2":63339}},{"type":"Polygon","arcs":[[17,18]],"properties":{"codigo":"47541200105007000101","sector":"475412001050070001","pcode":"CO47541","area_m2":31411}},{"type":"Polygon","arcs":[[-18,19]],"properties":{"codigo":"47541200105007000102","sector":"475412001050070001","pcode":"CO47541","area_m2":31601}},{"type":"Polygon","arcs":[[20,21,22]],"properties":{"codigo":"47541200207008000101","sector":"475412002070080001","pcode":"CO47541","area_m2":107776}},{"type":"Polygon","arcs":[[-23,23,24]],"properties":{"codigo":"47541200207008000102","sector":"475412002070080001","pcode":"CO47541","area_m2":93980}},{"type":"Polygon","arcs":[[-24,-22,25,-7,26]],"properties":{"codigo":"47541200207008000103","sector":"475412002070080001","pcode":"CO47541","area_m2":101257}},{"type":"Polygon","arcs":[[27,28]],"properties":{"codigo":"47541100000000000101","sector":"475411000000000001","pcode":"CO47541","area_m2":62923}},{"type":"Polygon","arcs":[[-28,29,30,31]],"properties":{"codigo":"47541100000000000102","sector":"475411000000000001","pcode":"CO47541","area_m2":41954}},{"type":"Polygon","arcs":[[32,-31,33,34]],"properties":{"codigo":"47541100000000000103","sector":"475411000000000001","pcode":"CO47541","area_m2":37802}},{"type":"Polygon","arcs":[[35,-35,36,37]],"properties":{"codigo":"47541100000000000104","sector":"475411000000000001","pcode":"CO47541","area_m2":74198}},{"type":"Polygon","arcs":[[38,39,40,-38]],"properties":{"codigo":"47541100000000000105","sector":"475411000000000001","pcode":"CO47541","area_m2":50190}},{"type":"Polygon","arcs":[[-40,41]],"properties":{"codigo":"47541100000000000106","sector":"475411000000000001","pcode":"CO47541","area_m2":102478}}]}},"arcs":[[[9871,6690],[19,12]],[[9890,6702],[50,52],[44,-26],[15,-31],[0,-27],[-29,-31],[-95,14],[7,32],[-11,5]],[[9832,6829],[-127,-75],[9,-37],[-53,-24]],[[9661,6693],[-15,33],[-44,8],[-26,15],[-20,37],[5,32],[27,17],[31,-4],[30,-26],[48,-3],[-3,127],[34,25],[-22,2],[-4,18],[-37,-20],[-15,50],[78,49],[18,23],[20,-2],[9,-31],[52,20],[22,-61],[-10,-43],[1,-52],[-8,-78]],[[9871,6690],[-53,-14],[-11,-13],[0,-67],[-41,9],[-9,47],[-25,7],[-8,18],[-56,5],[-7,11]],[[9832,6829],[20,0],[-2,-33],[16,1],[7,-30],[-16,-11],[24,-27],[9,-27]],[[5371,565],[-11,-14],[-95,-71],[-107,-89]],[[5158,391],[-128,222],[117,111],[22,28],[37,19],[110,26],[36,5],[2,-107],[-16,-1],[6,-60],[12,5],[15,-74]],[[3679,4536],[20,-13],[-7,-17]],[[3692,4506],[-18,-48],[-32,9],[-10,-24],[-16,13],[-8,-62],[-15,-31],[-13,14],[-10,-31],[12,-12],[-15,-72]],[[3567,4262],[-33,-83]],[[3534,4179],[-5,17],[-27,19],[-10,37],[-6,63],[-42,29],[-26,7],[1,20],[-65,41],[32,60],[-36,42],[12,19],[14,-17],[27,26],[74,-86],[23,31],[27,-32],[42,4],[-2,21],[58,7],[2,26],[24,-19],[28,42]],[[3686,4164],[-8,-18],[-40,33],[-14,-40],[-21,10],[-11,-33],[-31,17],[12,34],[-39,12]],[[3567,4262],[73,-60]],[[3640,4202],[46,-38]],[[3692,4506],[18,-13],[13,24],[59,-25],[-35,-113],[-24,34],[-7,-46],[-39,-87],[9,-9],[-46,-69]],[[3679,4536],[5,33],[54,-25],[18,8],[-9,-24],[42,-20],[-5,-17],[37,-17],[-12,-28],[24,-30],[-22,-25],[-50,-41],[13,-12],[-20,-44],[24,-26],[-28,-27],[-42,-57],[9,-9],[-17,-21],[-14,10]],[[140,3717],[-85,-60],[9,-20],[-30,-38]],[[34,3599],[-27,38],[9,72],[-16,88],[14,39],[16,-22],[8,-48],[24,11],[23,-68],[31,19],[-5,15],[18,11],[11,-37]],[[140,3717],[26,-65],[-43,-22],[-3,-112],[-23,0],[-63,81]],[[5324,101],[-108,189]],[[5216,290],[98,82],[9,10],[66,29],[63,14]],[[5452,425],[-7,-56],[-20,-123],[-12,-35],[4,-28],[-93,-82]],[[5452,425],[31,-3],[17,12],[-1,28],[33,11]],[[5532,473],[-7,-67],[8,-40],[-4,-63],[-9,-28],[15,-8],[-4,-35],[-22,12],[-18,-50],[-30,-48],[19,-25],[-98,-121],[-58,101]],[[5216,290],[-58,101]],[[5371,565],[21,-70],[51,15],[51,5],[21,10],[15,-25],[2,-27]],[[376,9505],[51,-13],[109,-43],[35,-20]],[[571,9429],[-13,-26],[28,-47],[-19,-21],[-11,24],[-111,-18],[-24,-19],[-2,37],[-38,37],[-11,-30],[-2,45],[-20,12],[11,89],[17,-7]],[[376,9505],[8,81]],[[384,9586],[141,-44],[71,-31]],[[596,9511],[-10,-47],[-13,7],[-10,-35],[8,-7]],[[620,9532],[-19,6],[-5,-27]],[[384,9586],[-7,14],[12,59]],[[389,9659],[40,-17],[121,-35],[-8,-40],[33,-14],[9,27],[40,-8],[-4,-40]],[[617,9669],[39,-18],[-4,-30],[49,8],[29,-5],[-9,-54],[-20,-21],[-58,-32],[2,-18],[-21,9],[-4,24]],[[389,9659],[35,70]],[[424,9729],[141,-52],[52,-8]],[[424,9729],[30,75]],[[454,9804],[80,-14],[52,-21],[7,34],[37,-16],[-3,-27],[35,-17]],[[662,9743],[-43,-61],[-2,-13]],[[454,9804],[54,114],[18,1],[54,-37],[26,56],[51,-23],[64,48],[62,36],[17,-31],[-14,-45],[-40,-73],[-50,-60],[-34,-47]]]}
