{"type":"Topology","bbox":[-74.63910516091579,9.26414648565098,-74.46400635930905,9.563745417871479],"transform":{"scale":[0.000017511631323806054,0.00002996288951100105],"translate":[-74.63910516091579,9.26414648565098]},"objects":{"municipios":{"type":"GeometryCollection","geometries":[{"type":"Polygon","arcs":[[0,1,2,3,4,5]],"properties":{"codigo":"47707100000000000101","sector":"477071000000000001","pcode":"CO47707","area_m2":145643}},{"type":"Polygon","arcs":[[-3,6,7,8,9]],"properties":{"codigo":"47707100000000000102","sector":"477071000000000001","pcode":"CO47707","area_m2":54446}},{"type":"Polygon","arcs":[[10,11,12,13,-7,-2]],"properties":{"codigo":"47707100000000000103","sector":"477071000000000001","pcode":"CO47707","area_m2":229824}},{"type":"Polygon","arcs":[[14,15,-11,-1,16]],"properties":{"codigo":"47707100000000000104","sector":"477071000000000001","pcode":"CO47707","area_m2":119467}},{"type":"Polygon","arcs":[[17,-15,18,19,20]],"properties":{"codigo":"47707100000000000105","sector":"477071000000000001","pcode":"CO47707","area_m2":46281}},{"type":"Polygon","arcs":[[-13,21,22]],"properties":{"codigo":"47707100000000000203","sector":"477071000000000002","pcode":"CO47707","area_m2":49752}},{"type":"Polygon","arcs":[[23,24,25,-22,-12,-16,-18,26]],"properties":{"codigo":"47707100000000000204","sector":"477071000000000002","pcode":"CO47707","area_m2":410429}},{"type":"Polygon","arcs":[[27,-5,28]],"properties":{"codigo":"47707100000000000301","sector":"477071000000000003","pcode":"CO47707","area_m2":492383}},{"type":"Polygon","arcs":[[29,30,31,32]],"properties":{"codigo":"47707201005006000102","sector":"477072010050060001","pcode":"CO47707","area_m2":86013}},{"type":"Polygon","arcs":[[-30,33]],"properties":{"codigo":"47707201005006000103","sector":"477072010050060001","pcode":"CO47707","area_m2":88572}},{"type":"Polygon","arcs":[[34]],"properties":{"codigo":"47707200501011000101","sector":"477072005010110001","pcode":"CO47707","area_m2":37526}},{"type":"Polygon","arcs":[[35,-19,-17,-6,-28,36]],"properties":{"codigo":"47707100000000000106","sector":"477071000000000001","pcode":"CO47707","area_m2":95046}},{"type":"Polygon","arcs":[[-20,-36,37]],"properties":{"codigo":"47707100000000000107","sector":"477071000000000001","pcode":"CO47707","area_m2":110553}},{"type":"Polygon","arcs":[[-9,38,39]],"properties":{"codigo":"47707100000000000201","sector":"477071000000000002","pcode":"CO47707","area_m2":196505}},{"type":"Polygon","arcs":[[-14,-23,-26,40,-39,-8]],"properties":{"codigo":"47707100000000000202","sector":"477071000000000002","pcode":"CO47707","area_m2":140180}},{"type":"Polygon","arcs":[[-24,41]],"properties":{"codigo":"47707100000000000205","sector":"477071000000000002","pcode":"CO47707","area_m2":100594}},{"type":"Polygon","arcs":[[42,43]],"properties":{"codigo":"47707200301001000101","sector":"477072003010010001","pcode":"CO47707","area_m2":122219}},{"type":"Polygon","arcs":[[44,45,-43,46]],"properties":{"codigo":"47707200301001000102","sector":"477072003010010001","pcode":"CO47707","area_m2":143403}},{"type":"Polygon","arcs":[[-45,47]],"properties":{"codigo":"47707200301001000103","sector":"477072003010010001","pcode":"CO47707","area_m2":66451}},{"type":"Polygon","arcs":[[48,-32,49,50]],"properties":{"codigo":"47707201005006000101","sector":"477072010050060001","pcode":"CO47707","area_m2":110731}},{"type":"Polygon","arcs":[[-51,51]],"properties":{"codigo":"47707201005006000104","sector":"477072010050060001","pcode":"CO47707","area_m2":96264}},{"type":"Polygon","arcs":[[52,53]],"properties":{"codigo":"47707201003009000101","sector":"477072010030090001","pcode":"CO47707","area_m2":100742}},{"type":"Polygon","arcs":[[-53,54]],"properties":{"codigo":"47707201003009000102","sector":"477072010030090001","pcode":"CO47707","area_m2":15588}}]}},"arcs":[[[4156,2020],[-13,-15],[-10,-25],[10,-2],[-19,-33],[11,-14],[-17,-3]],[[4118,1928],[-68,39],[-55,38],[-40,32],[-13,-7]],[[3942,2030],[-14,9]],[[3928,2039],[46,19],[51,25],[-31,21],[43,20],[55,-10]],[[4092,2114],[6,-1],[28,16],[6,-3]],[[4132,2126],[-29,-49],[48,-14],[-23,-25],[35,-12],[-7,-6]],[[3942,2030],[-63,-32],[-58,-44]],[[3821,1954],[-33,15],[-9,-7],[-21,4]],[[3758,1966],[-16,13]],[[3742,1979],[26,15],[63,49],[36,-7],[45,12],[16,-9]],[[4118,1928],[26,-8],[92,-19]],[[4236,1901],[-15,-9],[-67,-25],[-27,-8],[-36,-24],[5,-18],[-81,27],[5,13],[-76,36]],[[3944,1893],[-40,21]],[[3904,1914],[-78,36],[-5,4]],[[4260,2018],[22,-17],[52,-11],[-28,-30],[52,-11],[-27,-33]],[[4331,1916],[-9,-8],[-53,11],[-33,-18]],[[4156,2020],[63,-21],[41,19]],[[4421,1923],[-20,5],[-19,-21],[-21,1],[-30,8]],[[4260,2018],[26,15]],[[4286,2033],[20,6],[44,3]],[[4350,2042],[5,-88],[77,-14],[-11,-17]],[[3944,1893],[-66,-47],[-10,-4]],[[3868,1842],[-84,18],[-18,-12],[-12,7],[30,34],[-5,5],[12,24],[69,-33],[44,29]],[[4626,1883],[-41,-7],[-40,-26],[-18,-19],[-18,-6]],[[4509,1825],[-53,-2],[-91,5],[-69,-6],[-145,-13],[-15,-25],[-11,-2],[6,-28],[-3,-44],[-40,17],[-105,33],[-173,45]],[[3810,1805],[58,37]],[[4421,1923],[79,-14],[126,-26]],[[4219,2147],[-22,-9],[-34,0],[-31,-12]],[[4092,2114],[0,27],[-13,55],[2,36],[22,38],[37,31],[12,14],[25,17],[37,12],[7,-10],[51,-26],[161,119],[188,-113],[-25,-13],[-115,-50],[-92,-28],[-15,-6],[-39,-26],[-25,-9],[-39,-9],[-20,-8],[-32,-18]],[[6328,150],[-32,-9],[-46,-17],[-82,-27]],[[6168,97],[-7,1],[-43,58]],[[6118,156],[26,6],[80,31],[62,29]],[[6286,222],[23,-14],[7,-33],[12,-25]],[[6328,150],[14,-17],[-56,-20],[25,-25],[11,2],[7,-22],[-20,-9],[5,-5],[-20,-12],[19,-17],[-52,-21],[-22,-4],[-39,61],[-17,-3],[-29,29],[14,10]],[[9968,9998],[31,-17],[-30,-14],[0,-18],[-13,-26],[3,-17],[18,0],[-1,-13],[-65,-1],[1,7],[-32,8],[39,15],[-2,25],[-12,3],[0,10],[15,11],[-1,12],[14,-1],[35,16]],[[4281,2136],[7,-4],[-31,-32],[-25,5],[-36,-37],[90,-35]],[[4219,2147],[35,-11],[27,0]],[[4281,2136],[17,16],[57,-17],[35,-34],[31,10],[24,-14],[-22,-10],[31,-28],[8,2],[9,-14],[-13,-2],[-6,9],[-13,1],[-45,-12],[-44,-1]],[[3758,1966],[-81,-52],[-75,-55]],[[3602,1859],[-106,22],[-60,7],[-84,5],[26,41],[17,33],[17,-3],[72,-29],[31,28],[54,26],[12,-4],[27,21],[37,-12],[83,-20],[14,5]],[[3810,1805],[-60,19],[-51,14],[-97,21]],[[4626,1883],[33,5],[74,32],[7,-7],[30,-11],[-22,-33],[56,-4],[4,-19],[-23,-10],[-48,9],[-6,-11],[25,-8],[-11,-10],[-40,14],[-1,-4],[-50,15],[-2,-15],[-10,-9],[-20,-3],[-85,5],[-28,6]],[[300,3941],[-3,-9],[-13,1],[-7,-14],[-12,-49]],[[265,3870],[-64,5],[-178,19],[9,55],[-32,4],[1,9],[47,-1],[50,-5],[17,22],[24,12],[12,0],[-11,-30],[46,-7],[-4,-9],[21,-3],[3,8],[74,-8],[20,0]],[[547,3959],[-23,-27]],[[524,3932],[-10,-6],[-22,-35],[-19,-4],[31,-12],[48,-7],[-9,-28],[-73,11],[-126,13],[-79,6]],[[300,3941],[8,24],[39,-6],[5,13],[29,-5],[-3,-13],[103,-18],[8,6],[58,17]],[[547,3959],[44,26],[37,15],[-3,8],[17,6],[26,34],[-12,117],[-9,25],[-3,24],[91,0],[0,-31],[-84,2],[6,-18],[13,-119],[4,-6],[-29,-34],[37,-18],[-25,-27],[-35,11],[-16,-26],[26,-7],[7,-8],[-14,-22],[-12,-7],[-30,6],[-10,7],[-49,15]],[[6165,269],[40,4],[-2,-28],[32,11],[30,-24],[21,-10]],[[6118,156],[-39,37],[-21,26],[-28,16],[-14,13]],[[6016,248],[31,13],[-13,13],[41,14],[41,-43],[50,11],[-1,13]],[[6016,248],[-47,28],[-61,30],[34,2],[82,27],[38,-35],[109,39],[52,16],[0,-21],[-58,-65]],[[5826,1967],[-57,-4],[-75,-1],[-69,-2]],[[5625,1960],[6,12],[43,5],[20,10],[-11,21],[-33,17],[9,3],[24,-18],[8,-17],[23,2],[1,23],[26,3],[-9,19],[55,21],[59,10],[24,-49],[19,-45],[-63,-10]],[[5826,1967],[0,-10],[-48,-4],[-14,-5],[-34,-1],[0,7],[-26,1],[0,-8],[-78,0],[-1,13]]]}
