{"type":"Topology","bbox":[-74.22515385199324,10.644113862615038,-74.09682418319409,10.957147387296649],"transform":{"scale":[0.00001283425030494587,0.00003130648311647274],"translate":[-74.22515385199324,10.644113862615038]},"objects":{"municipios":{"type":"GeometryCollection","geometries":[{"type":"Polygon","arcs":[[0]],"properties":{"codigo":"47980200402027000101","sector":"479802004020270001","pcode":"CO47980","area_m2":51098}},{"type":"Polygon","arcs":[[1,2,3,4]],"properties":{"codigo":"47980100000000000101","sector":"479801000000000001","pcode":"CO47980","area_m2":246654}},{"type":"Polygon","arcs":[[-2,5,6,7]],"properties":{"codigo":"47980100000000000103","sector":"479801000000000001","pcode":"CO47980","area_m2":69694}},{"type":"Polygon","arcs":[[8,9]],"properties":{"codigo":"47980100000000000105","sector":"479801000000000001","pcode":"CO47980","area_m2":112861}},{"type":"Polygon","arcs":[[10,11,12,13]],"properties":{"codigo":"47980200201006000102","sector":"479802002010060001","pcode":"CO47980","area_m2":128588}},{"type":"Polygon","arcs":[[-13,14]],"properties":{"codigo":"47980200201006000101","sector":"479802002010060001","pcode":"CO47980","area_m2":95562}},{"type":"Polygon","arcs":[[15]],"properties":{"codigo":"47980200102028000101","sector":"479802001020280001","pcode":"CO47980","area_m2":63908}},{"type":"Polygon","arcs":[[-11,16]],"properties":{"codigo":"47980200201006000103","sector":"479802002010060001","pcode":"CO47980","area_m2":185229}},{"type":"Polygon","arcs":[[17,18,19,20]],"properties":{"codigo":"47980200104007000102","sector":"479802001040070001","pcode":"CO47980","area_m2":84688}},{"type":"Polygon","arcs":[[21,22,23,24]],"properties":{"codigo":"47980200103011000102","sector":"479802001030110001","pcode":"CO47980","area_m2":102591}},{"type":"Polygon","arcs":[[25]],"properties":{"codigo":"47980200402026000101","sector":"479802004020260001","pcode":"CO47980","area_m2":30459}},{"type":"Polygon","arcs":[[26,27]],"properties":{"codigo":"47980200403015000102","sector":"479802004030150001","pcode":"CO47980","area_m2":102096}},{"type":"Polygon","arcs":[[28]],"properties":{"codigo":"47980200401016000101","sector":"479802004010160001","pcode":"CO47980","area_m2":19797}},{"type":"Polygon","arcs":[[29]],"properties":{"codigo":"47980200403018000101","sector":"479802004030180001","pcode":"CO47980","area_m2":71268}},{"type":"Polygon","arcs":[[30]],"properties":{"codigo":"47980200202019000101","sector":"479802002020190001","pcode":"CO47980","area_m2":21529}},{"type":"Polygon","arcs":[[31]],"properties":{"codigo":"47980200404020000101","sector":"479802004040200001","pcode":"CO47980","area_m2":20384}},{"type":"Polygon","arcs":[[32]],"properties":{"codigo":"47980200102022000101","sector":"479802001020220001","pcode":"CO47980","area_m2":69884}},{"type":"Polygon","arcs":[[33]],"properties":{"codigo":"47980200203023000101","sector":"479802002030230001","pcode":"CO47980","area_m2":83261}},{"type":"Polygon","arcs":[[34]],"properties":{"codigo":"47980200502024000101","sector":"479802005020240001","pcode":"CO47980","area_m2":31745}},{"type":"Polygon","arcs":[[-5,35,-6]],"properties":{"codigo":"47980100000000000102","sector":"479801000000000001","pcode":"CO47980","area_m2":84706}},{"type":"Polygon","arcs":[[-10,36,-3,-8,37]],"properties":{"codigo":"47980100000000000104","sector":"479801000000000001","pcode":"CO47980","area_m2":63691}},{"type":"Polygon","arcs":[[38,39,40]],"properties":{"codigo":"47980200402001000101","sector":"479802004020010001","pcode":"CO47980","area_m2":267888}},{"type":"Polygon","arcs":[[41,42,-39]],"properties":{"codigo":"47980200402001000102","sector":"479802004020010001","pcode":"CO47980","area_m2":122640}},{"type":"Polygon","arcs":[[43,44,-42]],"properties":{"codigo":"47980200402001000103","sector":"479802004020010001","pcode":"CO47980","area_m2":102705}},{"type":"Polygon","arcs":[[45,-40,-43,-45,46,47,48,49]],"properties":{"codigo":"47980200402001000104","sector":"479802004020010001","pcode":"CO47980","area_m2":138138}},{"type":"Polygon","arcs":[[50,-48,51,52,53]],"properties":{"codigo":"47980200402001000105","sector":"479802004020010001","pcode":"CO47980","area_m2":87297}},{"type":"Polygon","arcs":[[-53,54,55]],"properties":{"codigo":"47980200402001000106","sector":"479802004020010001","pcode":"CO47980","area_m2":50429}},{"type":"Polygon","arcs":[[-54,-56,56]],"properties":{"codigo":"47980200402001000107","sector":"479802004020010001","pcode":"CO47980","area_m2":111773}},{"type":"Polygon","arcs":[[57]],"properties":{"codigo":"47980200405002000101","sector":"479802004050020001","pcode":"CO47980","area_m2":337891}},{"type":"Polygon","arcs":[[58,59]],"properties":{"codigo":"47980200104003000101","sector":"479802001040030001","pcode":"CO47980","area_m2":161919}},{"type":"Polygon","arcs":[[60,-59]],"properties":{"codigo":"47980200104003000102","sector":"479802001040030001","pcode":"CO47980","area_m2":206521}},{"type":"Polygon","arcs":[[61,62,63]],"properties":{"codigo":"47980200203004000101","sector":"479802002030040001","pcode":"CO47980","area_m2":178975}},{"type":"Polygon","arcs":[[64,65,-63]],"properties":{"codigo":"47980200203004000102","sector":"479802002030040001","pcode":"CO47980","area_m2":112020}},{"type":"Polygon","arcs":[[66,-23]],"properties":{"codigo":"47980200103011000103","sector":"479802001030110001","pcode":"CO47980","area_m2":189010}},{"type":"Polygon","arcs":[[67,68,-65,-62,69]],"properties":{"codigo":"47980200203004000103","sector":"479802002030040001","pcode":"CO47980","area_m2":260525}},{"type":"Polygon","arcs":[[-68,70]],"properties":{"codigo":"47980200203004000104","sector":"479802002030040001","pcode":"CO47980","area_m2":156583}},{"type":"Polygon","arcs":[[71]],"properties":{"codigo":"47980200401005000101","sector":"479802004010050001","pcode":"CO47980","area_m2":107204}},{"type":"Polygon","arcs":[[-20,72]],"properties":{"codigo":"47980200104007000101","sector":"479802001040070001","pcode":"CO47980","area_m2":104531}},{"type":"Polygon","arcs":[[-18,73]],"properties":{"codigo":"47980200104007000103","sector":"479802001040070001","pcode":"CO47980","area_m2":125941}},{"type":"Polygon","arcs":[[74,75]],"properties":{"codigo":"47980200503009000101","sector":"479802005030090001","pcode":"CO47980","area_m2":82913}},{"type":"Polygon","arcs":[[-76,76]],"properties":{"codigo":"47980200503009000102","sector":"479802005030090001","pcode":"CO47980","area_m2":138203}},{"type":"Polygon","arcs":[[77,78]],"properties":{"codigo":"47980200504010000101","sector":"479802005040100001","pcode":"CO47980","area_m2":45769}},{"type":"Polygon","arcs":[[79,80,81,-78,82]],"properties":{"codigo":"47980200504010000102","sector":"479802005040100001","pcode":"CO47980","area_m2":79248}},{"type":"Polygon","arcs":[[83,84,-80]],"properties":{"codigo":"47980200504010000103","sector":"479802005040100001","pcode":"CO47980","area_m2":173791}},{"type":"Polygon","arcs":[[85,86,87,-81,-85]],"properties":{"codigo":"47980200504010000104","sector":"479802005040100001","pcode":"CO47980","area_m2":224633}},{"type":"Polygon","arcs":[[88,-87]],"properties":{"codigo":"47980200504010000105","sector":"479802005040100001","pcode":"CO47980","area_m2":140371}},{"type":"Polygon","arcs":[[-25,89]],"properties":{"codigo":"47980200103011000101","sector":"479802001030110001","pcode":"CO47980","area_m2":100733}},{"type":"Polygon","arcs":[[90,91]],"properties":{"codigo":"47980200102012000101","sector":"479802001020120001","pcode":"CO47980","area_m2":125963}},{"type":"Polygon","arcs":[[92,-91,93,94]],"properties":{"codigo":"47980200102012000102","sector":"479802001020120001","pcode":"CO47980","area_m2":123500}},{"type":"Polygon","arcs":[[-95,95]],"properties":{"codigo":"47980200102012000103","sector":"479802001020120001","pcode":"CO47980","area_m2":82612}},{"type":"Polygon","arcs":[[96,97,98,99,100]],"properties":{"codigo":"47980200402013000101","sector":"479802004020130001","pcode":"CO47980","area_m2":242072}},{"type":"MultiPolygon","arcs":[[[101,102,-99,103]],[[-50,104]]],"properties":{"codigo":"47980200402013000102","sector":"479802004020130001","pcode":"CO47980","area_m2":439030}},{"type":"Polygon","arcs":[[-103,105,-100]],"properties":{"codigo":"47980200402013000103","sector":"479802004020130001","pcode":"CO47980","area_m2":26260}},{"type":"Polygon","arcs":[[-104,-98,106,107]],"properties":{"codigo":"47980200402013000104","sector":"479802004020130001","pcode":"CO47980","area_m2":173941}},{"type":"Polygon","arcs":[[-107,-97,108]],"properties":{"codigo":"47980200402013000105","sector":"479802004020130001","pcode":"CO47980","area_m2":88010}},{"type":"Polygon","arcs":[[109]],"properties":{"codigo":"47980200202014000101","sector":"479802002020140001","pcode":"CO47980","area_m2":143559}},{"type":"Polygon","arcs":[[-27,110]],"properties":{"codigo":"47980200403015000101","sector":"479802004030150001","pcode":"CO47980","area_m2":57665}},{"type":"Polygon","arcs":[[111]],"properties":{"codigo":"47980200202017000101","sector":"479802002020170001","pcode":"CO47980","area_m2":24758}},{"type":"Polygon","arcs":[[112]],"properties":{"codigo":"47980200504021000101","sector":"479802005040210001","pcode":"CO47980","area_m2":69784}},{"type":"Polygon","arcs":[[113]],"properties":{"codigo":"47980200404025000101","sector":"479802004040250001","pcode":"CO47980","area_m2":82285}}]}},"arcs":[[[3788,2951],[15,-21],[-8,-15],[-30,-1],[-4,11],[-46,-4],[-42,-19],[-93,25],[48,35],[141,18],[19,-29]],[[6753,3780],[33,-1]],[[6786,3779],[-2,-19]],[[6784,3760],[-46,1],[-63,-7],[-67,-23],[-81,-42],[-68,-19],[-18,15],[43,21],[-40,14],[-79,-15],[4,31],[-194,9],[-26,89],[181,10],[77,14],[40,2]],[[6447,3860],[4,-15],[61,10],[23,-20],[-73,-13],[82,-50],[80,-18],[11,7],[66,7],[52,12]],[[6753,3780],[-48,7],[-83,57],[-57,47]],[[6565,3891],[146,0],[29,8]],[[6740,3899],[46,-120]],[[7036,3833],[32,-11],[-54,-8],[-6,-33],[38,-7],[160,-4],[82,-10],[66,-1],[8,-13],[-131,0],[-96,9],[-96,1],[-75,-10],[-69,0],[-55,8]],[[6840,3754],[6,21],[-13,59],[133,11],[70,-12]],[[4342,8337],[-490,-18]],[[3852,8319],[-67,-1],[-6,20],[28,21]],[[3807,8359],[13,2],[422,29],[-2,5]],[[4240,8395],[53,-11],[33,-21],[16,-26]],[[3807,8359],[-35,-3],[105,41],[13,20],[-33,4],[19,23],[-5,16],[369,-65]],[[4457,9642],[20,-2],[35,-60],[-10,-18],[-69,-17],[-8,20],[-32,-10],[5,-10],[-49,4],[-9,18],[22,9],[-35,59],[130,7]],[[4342,8337],[16,-28],[143,7],[25,-11],[-17,-63],[-51,7],[-22,27],[-40,6],[-98,-9],[-27,16],[-70,-4],[-56,-9],[-77,-20],[-126,-17],[-41,-2],[0,20],[40,6],[-15,17],[-33,-3],[-9,-14],[-57,-2],[-15,22],[79,-3],[-10,25],[35,2],[-6,9],[-58,3]],[[8554,6066],[-489,-30],[28,-40]],[[8093,5996],[-24,0],[-37,47],[-72,54]],[[7960,6097],[20,1],[33,-24],[25,5],[174,17]],[[8212,6096],[24,-2],[-2,-21],[30,-9],[72,8],[40,-5],[168,10],[29,6],[12,-14],[-31,-3]],[[4483,7402],[135,0],[62,-5],[1,-12],[-65,0],[-21,-26]],[[4595,7359],[-176,-3],[-188,4],[-45,3]],[[4186,7363],[30,53]],[[4216,7416],[160,-6],[107,-8]],[[4739,3053],[49,1],[3,-7],[-110,-11],[16,-25],[-100,-15],[-36,35],[9,11],[163,15],[6,-4]],[[9508,3242],[94,24]],[[9602,3266],[92,-32],[115,-10],[112,-7],[0,-13],[70,-1],[8,-23],[-58,-4],[-16,-20],[-51,-1],[-24,24],[4,-18],[-30,-5],[-39,7],[2,10],[-197,53],[-19,-9],[-76,20],[13,5]],[[1990,5388],[21,-7],[-39,-18],[-129,-22],[-28,9],[27,4],[31,22],[64,10],[53,2]],[[6002,3114],[17,-24],[-29,1],[-124,-13],[-63,33],[20,2],[-33,44],[159,15],[53,-58]],[[1002,7570],[178,-7],[90,15],[21,-11],[-43,-8],[32,-13],[-13,-9],[-93,20],[-239,5],[41,7],[21,23],[5,-22]],[[2277,2689],[-14,-19],[17,-2],[-43,-54],[-32,3],[9,12],[-76,10],[6,8],[51,-6],[37,43],[45,5]],[[4131,9993],[60,-11],[4,-20],[-7,-48],[38,9],[19,-27],[-32,-2],[9,-24],[-26,-2],[8,-15],[-27,-2],[-19,49],[-31,46],[-83,-3],[-15,9],[-6,29],[-25,6],[-50,-6],[-11,15],[51,3],[143,-6]],[[4563,5685],[8,-23],[-20,-2],[0,-19],[-173,-11],[8,-24],[-71,-4],[-9,24],[-163,-10],[-21,27],[25,8],[51,2],[33,17],[30,-13],[136,8],[135,4],[-11,34],[34,6],[8,-24]],[[2634,2857],[-140,-11],[-8,11],[33,3],[-5,12],[235,24],[-3,-30],[-112,-9]],[[6447,3860],[82,6],[36,25]],[[6840,3754],[-56,6]],[[6740,3899],[30,10],[32,-35],[49,-16],[92,5],[109,-11],[-16,-19]],[[4967,3298],[24,-14],[71,3],[70,18],[-7,17],[144,9],[-1,2],[224,39],[-78,28]],[[5414,3400],[22,6]],[[5436,3406],[186,-68],[-10,-4],[127,-47],[-62,-10],[-90,-4],[-58,-8],[-35,-18],[-70,-3],[-6,7],[-110,-15],[-42,-1],[-49,17],[-78,9],[-73,-2],[-52,9],[6,6],[-42,11],[-11,13]],[[4967,3298],[50,11],[11,39],[259,46],[92,18]],[[5379,3412],[35,-12]],[[4967,3298],[-18,14],[-19,85]],[[4930,3397],[412,31],[37,-16]],[[5341,3486],[49,-42],[55,-37],[-9,-1]],[[4930,3397],[-18,85]],[[4912,3482],[19,0],[378,-25],[-8,24]],[[5301,3481],[4,5]],[[5305,3486],[36,0]],[[5220,3491],[81,-10]],[[4912,3482],[-5,14],[-90,0],[-9,23]],[[4808,3519],[104,6]],[[4912,3525],[100,4],[208,-38]],[[4808,3519],[-87,-6],[-102,-13],[-68,1],[80,15],[-11,10],[45,22],[80,1],[85,10]],[[4830,3559],[4,-8],[61,4],[17,-30]],[[4830,3559],[27,31],[52,18],[99,13],[55,-7],[25,-42],[79,-49],[65,-23],[-12,-9]],[[5459,1618],[100,-12],[22,21],[81,-12],[22,18],[79,-14],[40,7],[90,-1],[162,-35],[37,21],[31,-3],[-181,-128],[-146,35],[-202,46],[-36,-11],[-36,5],[-7,-8],[-101,9],[-13,-13],[-92,15],[-8,8],[-102,11],[8,32],[29,3],[78,-10],[18,20],[53,-7],[19,22],[61,-12],[-6,-7]],[[7110,6633],[-46,-5],[7,-12],[-122,-3],[-22,44],[-32,81],[-25,4]],[[6870,6742],[37,5],[32,24],[132,-3],[46,-9],[5,-30],[32,-24],[31,-48],[-56,-6],[-19,-18]],[[7110,6633],[11,-27],[34,-16],[-39,0],[3,-15],[-97,-5],[-14,-9],[-59,23],[-165,-32],[-8,48],[-45,2],[29,41],[-37,-5],[-21,25],[-36,26],[-60,-9],[-9,21],[-44,11],[11,7],[45,-12],[16,5],[51,-20],[73,6],[1,15],[25,18],[95,11]],[[4341,6290],[23,-55]],[[4364,6235],[-40,4],[-339,-10],[-36,1]],[[3949,6230],[3,34],[-32,-1],[-6,-16],[-57,17],[0,15],[-69,1],[-2,-6],[-182,25],[-22,-21],[-41,7],[51,16],[-326,38],[-86,13],[-6,5],[-303,38],[-4,4],[267,-31],[37,0],[103,-17],[379,-46],[11,4],[82,-5],[7,-11],[55,-4],[133,7],[48,-4],[28,7],[7,-11],[104,-9],[70,-12],[-8,26],[87,2],[28,-21],[36,16]],[[4364,6235],[8,-28],[15,-5]],[[4387,6202],[0,-9],[-190,-7],[-4,-7],[-111,-1],[-60,-17],[-64,11],[-9,58]],[[4595,7359],[-9,-24],[-22,-10],[-2,-17],[-22,1],[-8,-21],[31,-2],[-26,-21],[-154,-1],[-44,-10],[-80,4],[-82,9],[0,13],[-40,1],[49,82]],[[5029,6189],[-34,-18],[-58,15],[-251,-36]],[[4686,6150],[-23,29],[-88,-7],[2,29],[-164,-5],[-26,6]],[[4341,6290],[-7,19],[55,-3],[6,-23],[30,-19],[98,0],[5,-11],[85,10],[169,0],[0,-9],[148,10],[41,6],[-8,8],[68,14],[26,-13],[-129,-23],[68,-43],[-13,-14],[46,-10]],[[5029,6189],[49,-38],[-8,-11],[14,-45],[-48,-5],[-104,-3],[-209,-9],[-8,32],[-29,40]],[[3621,4748],[1,-7],[-93,-5],[-189,-48],[47,-40],[-164,-37],[-8,6],[-97,-20],[-27,15],[35,4],[-21,26],[9,15],[41,19],[-50,19],[36,3],[32,-9],[24,12],[26,-11],[-21,-9],[20,-8],[287,73],[52,0],[1,7],[99,3],[-40,-8]],[[7960,6097],[-121,2],[-5,29],[27,2],[52,16],[-95,68],[50,8],[27,-19],[54,12],[68,-64],[-16,-5],[37,-29],[101,4],[4,-20],[63,11],[6,-16]],[[8554,6066],[6,-35],[-41,-6],[-71,-23],[-44,5],[-14,-13],[-60,-1],[-10,-6],[-156,0],[-64,-2],[-7,11]],[[620,2705],[-15,-9],[-69,7],[-207,7],[-68,-2],[7,31],[44,-3],[4,12],[29,-6],[80,-1],[51,7],[0,-8],[100,1],[2,16],[24,12],[15,60],[-10,12],[20,41],[18,-1]],[[645,2881],[-34,-156],[22,0],[-13,-20]],[[645,2881],[1,7],[157,-22],[24,-11],[17,-47],[-25,-8],[-33,-56],[-71,4],[3,-21],[-20,-26],[-30,-3],[-48,7]],[[4386,333],[-68,-84],[-11,2],[-23,-28]],[[4284,223],[-63,11],[23,36],[-34,0],[8,10],[32,-4],[35,49],[48,-2],[8,15],[45,-5]],[[4712,290],[-4,-5],[-221,25],[-62,-74]],[[4425,236],[-23,-31],[-83,11],[-24,-24]],[[4295,192],[-30,7],[19,24]],[[4386,333],[206,-29],[120,-14]],[[4712,290],[26,6],[40,-13],[-3,-18],[66,-4],[-5,-35],[76,-8],[-8,-46]],[[4904,172],[-479,64]],[[4904,172],[-12,-75]],[[4892,97],[-26,-5],[-23,12],[-103,10],[-164,12],[56,-39],[-91,11],[-85,24]],[[4456,122],[-32,9],[39,29],[-36,6],[19,14],[-104,22],[0,-14],[-47,4]],[[4892,97],[-10,-65],[-66,-32],[-131,48],[-266,37],[37,37]],[[4216,7416],[56,104],[54,-6],[2,-27],[73,-7],[114,-4],[-6,-16],[-22,1],[-4,-59]],[[5598,8278],[-45,-3]],[[5553,8275],[-3,23],[-28,7],[-179,-42],[-33,44],[47,1],[19,-21],[39,-2],[62,19],[-14,22],[-40,-6],[-17,19],[47,7],[-10,15],[95,10],[-62,65],[35,6],[40,-39],[37,20],[22,-40],[9,-32],[21,-12],[43,12],[26,-24],[18,-35],[-131,-5],[2,-9]],[[5754,8223],[-21,-27],[24,4],[21,-18],[-92,-14],[-6,18],[-77,-11],[6,-9],[65,2],[2,-8],[-109,-10],[1,-12],[-54,-14],[-38,1],[-27,29],[115,7],[0,8],[-46,-3],[-12,14],[15,17],[38,14],[-75,0],[-12,27],[23,12],[59,1],[-1,24]],[[5598,8278],[28,4]],[[5626,8282],[42,-33],[86,-26]],[[5626,8282],[56,9],[23,-9],[-55,-9],[43,-24],[88,18],[-9,40],[34,0],[-13,20],[-44,-9],[25,14],[-26,31],[26,2],[32,-37],[82,-7],[11,38],[43,-3],[-32,23],[39,7],[1,-30],[36,0],[-10,-13],[-29,5],[8,-38],[-33,-14],[-64,-12],[-21,-22],[-27,-11],[-31,-31],[-25,3]],[[5149,3975],[11,-33]],[[5160,3942],[15,-49],[29,2]],[[5204,3895],[12,-36],[-17,-37],[26,-81]],[[5225,3741],[-109,-2]],[[5116,3739],[0,23],[-42,26],[-120,21],[-1,23],[-15,0],[-9,57],[-26,50],[17,15],[39,7],[139,3],[11,9],[40,2]],[[5705,3754],[16,-16],[-28,0],[-196,-56],[-29,-16],[-209,-9],[-5,6]],[[5254,3663],[-13,52],[-16,26]],[[5204,3895],[41,2],[-2,23],[163,15],[28,-11],[45,-51],[95,-86],[59,-49],[72,16]],[[5305,3486],[-6,47],[-18,60],[63,2],[15,-66],[-11,-8],[4,-33],[-11,-2]],[[5254,3663],[-35,2],[-16,29],[-48,2],[5,31],[-48,-3],[4,15]],[[5160,3942],[52,2],[229,22]],[[5441,3966],[7,-6],[79,-1],[38,-120],[133,8],[14,-31],[42,3],[17,-29],[-5,-11],[-32,-3],[2,-20],[-31,-2]],[[5149,3975],[-16,46],[175,-6],[98,1],[35,-50]],[[312,6744],[17,-9],[28,7],[17,-9],[-27,-8],[12,-14],[-54,-21],[-8,16],[-39,-5],[-214,-4],[-15,47],[-28,-1],[38,56],[100,2],[2,23],[58,3],[4,-17],[71,-36],[38,-30]],[[9508,3242],[-112,49],[-17,26],[74,32],[62,-31],[87,-52]],[[700,7327],[-54,-44],[2,-19],[-69,3],[15,13],[38,4],[3,23],[-35,0],[7,13],[52,2],[69,43],[45,38],[28,-2],[-95,-61],[-6,-13]],[[668,1780],[-3,-12],[107,-22],[14,22],[83,-14],[-21,-23],[105,-16],[20,-14],[-10,-28],[-21,1],[-6,-24],[-21,3],[-35,24],[-15,38],[-31,6],[11,11],[-69,12],[-26,-22],[-101,16],[8,9],[-125,17],[31,4],[23,24],[35,-13],[25,24],[17,0],[5,-23]],[[2414,1927],[95,-2],[23,-10],[-47,-57],[-95,10],[-13,-14],[-21,10],[-16,-14],[-41,5],[-17,14],[67,83],[-62,9],[7,12],[137,-23],[-17,-23]]]}
