{"type":"Topology","bbox":[-74.38939177959776,10.555028252071983,-74.19282628076377,10.701620344684839],"transform":{"scale":[0.000019658515734972565,0.000014660675328818492],"translate":[-74.38939177959776,10.555028252071983]},"objects":{"municipios":{"type":"GeometryCollection","geometries":[{"type":"Polygon","arcs":[[0,1,2,3]],"properties":{"codigo":"47268100000000000205","sector":"472681000000000002","pcode":"CO47268","area_m2":46803}},{"type":"Polygon","arcs":[[4]],"properties":{"codigo":"47268200105001000101","sector":"472682001050010001","pcode":"CO47268","area_m2":69635}},{"type":"MultiPolygon","arcs":[[[5]],[[6]]],"properties":{"codigo":"47268200103007000101","sector":"472682001030070001","pcode":"CO47268","area_m2":23384}},{"type":"Polygon","arcs":[[7]],"properties":{"codigo":"47268200103008000101","sector":"472682001030080001","pcode":"CO47268","area_m2":15961}},{"type":"Polygon","arcs":[[8]],"properties":{"codigo":"47268200303009000101","sector":"472682003030090001","pcode":"CO47268","area_m2":14272}},{"type":"MultiPolygon","arcs":[[[9]],[[10]]],"properties":{"codigo":"47268200101010000101","sector":"472682001010100001","pcode":"CO47268","area_m2":17085}},{"type":"Polygon","arcs":[[11,12]],"properties":{"codigo":"47268100000000000208","sector":"472681000000000002","pcode":"CO47268","area_m2":34840}},{"type":"MultiPolygon","arcs":[[[13,14,15,16,17,18]],[[19]]],"properties":{"codigo":"47268100000000000101","sector":"472681000000000001","pcode":"CO47268","area_m2":78699}},{"type":"Polygon","arcs":[[20,21,-16,22]],"properties":{"codigo":"47268100000000000102","sector":"472681000000000001","pcode":"CO47268","area_m2":88994}},{"type":"Polygon","arcs":[[23,-23,-15,24,25,26]],"properties":{"codigo":"47268100000000000103","sector":"472681000000000001","pcode":"CO47268","area_m2":109819}},{"type":"Polygon","arcs":[[27,28,29,-21,-24]],"properties":{"codigo":"47268100000000000104","sector":"472681000000000001","pcode":"CO47268","area_m2":118466}},{"type":"Polygon","arcs":[[30,31,-28,-27,32,33]],"properties":{"codigo":"47268100000000000105","sector":"472681000000000001","pcode":"CO47268","area_m2":100431}},{"type":"Polygon","arcs":[[34,-31,35,36]],"properties":{"codigo":"47268100000000000106","sector":"472681000000000001","pcode":"CO47268","area_m2":110570}},{"type":"Polygon","arcs":[[-35,37,-29,-32]],"properties":{"codigo":"47268100000000000107","sector":"472681000000000001","pcode":"CO47268","area_m2":42649}},{"type":"Polygon","arcs":[[38,-18,39]],"properties":{"codigo":"47268100000000000201","sector":"472681000000000002","pcode":"CO47268","area_m2":96110}},{"type":"Polygon","arcs":[[40,-19,-39,41]],"properties":{"codigo":"47268100000000000202","sector":"472681000000000002","pcode":"CO47268","area_m2":91854}},{"type":"Polygon","arcs":[[42,-25,-14,-41,43]],"properties":{"codigo":"47268100000000000203","sector":"472681000000000002","pcode":"CO47268","area_m2":66799}},{"type":"Polygon","arcs":[[-4,44,-33,-26,-43,45]],"properties":{"codigo":"47268100000000000204","sector":"472681000000000002","pcode":"CO47268","area_m2":99140}},{"type":"Polygon","arcs":[[46,-2,47]],"properties":{"codigo":"47268100000000000206","sector":"472681000000000002","pcode":"CO47268","area_m2":57685}},{"type":"Polygon","arcs":[[-47,48,-12,49,-36,-34,-45,-3]],"properties":{"codigo":"47268100000000000207","sector":"472681000000000002","pcode":"CO47268","area_m2":104063}},{"type":"MultiPolygon","arcs":[[[50]],[[51]],[[52]],[[53]],[[54]]],"properties":{"codigo":"47268200303002000101","sector":"472682003030020001","pcode":"CO47268","area_m2":91603}},{"type":"Polygon","arcs":[[55]],"properties":{"codigo":"47268200303003000101","sector":"472682003030030001","pcode":"CO47268","area_m2":94790}},{"type":"Polygon","arcs":[[56]],"properties":{"codigo":"47268200304006000101","sector":"472682003040060001","pcode":"CO47268","area_m2":94055}}]}},"arcs":[[[6339,3902],[46,-76]],[[6385,3826],[-9,-4],[-81,-81]],[[6295,3741],[-29,-28],[-42,73]],[[6224,3786],[48,51],[67,65]],[[813,6517],[7,-36],[-44,-33],[-15,-42],[14,-4],[-20,-79],[-86,11],[-18,15],[1,30],[-11,-8],[-18,17],[-23,-11],[14,-14],[-2,-30],[-23,2],[1,29],[-10,9],[19,6],[11,23],[-12,23],[5,8],[75,4],[19,-5],[10,-22],[11,-1],[8,47],[43,23],[-13,27],[18,15],[11,-8],[11,18],[15,2],[2,-16]],[[1023,7813],[-12,-40],[13,-8],[-9,-25],[4,-14],[-23,19],[-14,-53],[16,-23],[-12,-28],[0,-21],[-10,7],[-9,-13],[-8,32],[12,18],[-38,46],[12,26],[25,-29],[10,9],[8,30],[-10,12],[38,61],[7,-6]],[[1042,7865],[-11,-30],[-15,2],[-8,-14],[0,29],[8,0],[5,28],[21,-15]],[[10,7267],[-10,49],[36,3],[44,12],[0,-6],[34,5],[-8,-46],[-57,-9],[-30,1],[-9,-9]],[[8065,1595],[68,-98],[-87,17],[8,85],[11,-4]],[[1576,9950],[-8,-44],[-29,34],[-2,-18],[-46,10],[-2,28],[31,-13],[38,43],[15,4],[14,-37],[-11,-7]],[[1446,9982],[21,-14],[-6,-18],[-19,21],[-38,9],[5,15],[37,-13]],[[6380,3399],[39,89]],[[6419,3488],[27,-43],[35,-63],[-9,-9],[13,-21],[-44,-42],[-25,45],[-31,-22],[-5,66]],[[6072,3972],[-5,-2]],[[6067,3970],[-105,-54]],[[5962,3916],[-32,58]],[[5930,3974],[-38,76],[15,18],[71,67]],[[5978,4135],[80,-139]],[[6058,3996],[14,-24]],[[5902,4223],[-12,-12],[-27,48],[32,27],[26,-46],[-19,-17]],[[6031,3795],[-37,-39],[-6,10],[-56,-56],[-26,47],[-14,-14]],[[5892,3743],[-2,48],[-51,74],[76,99],[15,10]],[[5962,3916],[69,-121]],[[6101,3667],[-70,128]],[[6067,3970],[47,-80]],[[6114,3890],[-1,-5],[76,-132]],[[6189,3753],[-88,-86]],[[6101,3667],[11,-16],[-58,-64],[-18,-13]],[[6036,3574],[-60,-46]],[[5976,3528],[-6,11],[-34,-33],[-19,30],[26,20],[-15,28],[-12,40],[-10,83],[-14,36]],[[6257,3642],[-77,-76],[9,-16],[-59,-57]],[[6130,3493],[-34,-15],[-20,53],[-18,-13],[-22,56]],[[6189,3753],[4,3]],[[6193,3756],[64,-114]],[[6152,3430],[-22,63]],[[6257,3642],[64,-116]],[[6321,3526],[-66,-43],[-32,-24],[79,-187],[17,-31],[-41,-37],[-4,39],[-30,49],[-59,113],[-3,17],[-30,8]],[[6152,3430],[-98,-3],[-78,101]],[[6136,4187],[43,-80],[-79,-81],[6,-13],[-48,-17]],[[5978,4135],[-4,8],[23,11],[99,99],[37,-68],[3,2]],[[6256,4150],[-2,-10],[17,-97],[-72,-29],[-127,-42]],[[6136,4187],[94,79],[5,-10],[21,-106]],[[6305,3974],[-42,-23],[-127,-48],[-22,-13]],[[6256,4150],[8,-6],[21,-116],[20,-54]],[[6224,3786],[-31,-30]],[[6305,3974],[32,17],[20,-22],[19,15],[16,-32],[-53,-50]],[[6365,3636],[-23,20],[-25,32],[-19,36],[-3,17]],[[6385,3826],[33,31],[36,-20],[8,-14],[-73,-77],[27,-51],[-12,-19],[-39,-40]],[[6365,3636],[30,-34],[17,-38],[9,-58],[-2,-18]],[[6380,3399],[-23,26],[-25,8],[31,19],[-42,74]],[[8736,593],[19,-33],[11,10],[29,-37],[-27,-25],[-9,15],[-55,-47],[-58,-57],[-30,49],[-12,33],[46,43],[49,53],[5,-10],[23,22],[9,-16]],[[9040,6],[-7,-6],[-19,45],[-32,57],[10,7],[48,-103]],[[8926,236],[42,-83],[-9,-9],[-33,62],[-18,8],[-13,-15],[-28,31],[18,-7],[34,26],[7,-13]],[[8876,328],[10,-21],[-18,-17],[-26,37],[22,19],[12,-18]],[[8684,720],[9,6],[12,-22],[-19,-17],[-55,96],[33,35],[-23,42],[32,35],[23,-42],[-24,-26],[10,-21],[-28,-31],[30,-55]],[[6744,3970],[6,-11],[13,13],[27,-42],[7,5],[7,-28],[16,-31],[-15,-14],[66,-121],[82,-145],[16,15],[28,-54],[19,16],[8,-17],[-18,-15],[6,-11],[-15,-15],[50,-86],[79,-144],[-22,-19],[-19,41],[-6,-6],[-27,46],[-17,43],[-13,0],[-4,20],[-15,25],[-30,5],[-26,-11],[-8,35],[39,13],[3,17],[-17,45],[-50,87],[-10,-5],[-6,20],[-16,10],[3,27],[-91,165],[-5,6],[-118,222],[11,10],[62,-111]],[[9993,1960],[-28,-108],[-22,-95],[-12,7],[1,29],[-23,18],[-36,-1],[-22,-16],[-55,-16],[-3,15],[-66,-25],[3,-10],[-77,-36],[-15,15],[-34,6],[9,48],[19,43],[28,-16],[16,2],[-5,28],[21,6],[34,-13],[93,36],[11,-59],[111,41],[19,9],[-7,11],[15,38],[-5,22],[30,21]]]}
