{"type":"Topology","bbox":[-74.39963541708306,9.208199220543888,-74.0182318512517,9.415949811787657],"transform":{"scale":[0.0000381441710002363,0.000020777136838060744],"translate":[-74.39963541708306,9.208199220543888]},"objects":{"municipios":{"type":"GeometryCollection","geometries":[{"type":"Polygon","arcs":[[0,1,2]],"properties":{"codigo":"47692100000000000101","sector":"476921000000000001","pcode":"CO47692","area_m2":96306}},{"type":"Polygon","arcs":[[3,-1,4,5]],"properties":{"codigo":"47692100000000000102","sector":"476921000000000001","pcode":"CO47692","area_m2":39120}},{"type":"Polygon","arcs":[[6,7,8,9,10,11]],"properties":{"codigo":"47692100000000000203","sector":"476921000000000002","pcode":"CO47692","area_m2":87379}},{"type":"Polygon","arcs":[[12]],"properties":{"codigo":"47692100000000000205","sector":"476921000000000002","pcode":"CO47692","area_m2":91225}},{"type":"Polygon","arcs":[[13,14]],"properties":{"codigo":"47692200101005000102","sector":"476922001010050001","pcode":"CO47692","area_m2":138661}},{"type":"Polygon","arcs":[[-5,15,16,-9,17]],"properties":{"codigo":"47692100000000000103","sector":"476921000000000001","pcode":"CO47692","area_m2":47752}},{"type":"Polygon","arcs":[[18,-6,-18,-8,19]],"properties":{"codigo":"47692100000000000104","sector":"476921000000000001","pcode":"CO47692","area_m2":96119}},{"type":"MultiPolygon","arcs":[[[-20,-7,20]],[[21]]],"properties":{"codigo":"47692100000000000105","sector":"476921000000000001","pcode":"CO47692","area_m2":105145}},{"type":"Polygon","arcs":[[-3,22,23,-16]],"properties":{"codigo":"47692100000000000201","sector":"476921000000000002","pcode":"CO47692","area_m2":92402}},{"type":"Polygon","arcs":[[24,-10,-17,-24,25]],"properties":{"codigo":"47692100000000000202","sector":"476921000000000002","pcode":"CO47692","area_m2":50604}},{"type":"Polygon","arcs":[[-11,-25,26]],"properties":{"codigo":"47692100000000000204","sector":"476921000000000002","pcode":"CO47692","area_m2":284066}},{"type":"Polygon","arcs":[[27,28]],"properties":{"codigo":"47692200104001000101","sector":"476922001040010001","pcode":"CO47692","area_m2":151566}},{"type":"Polygon","arcs":[[-29,29]],"properties":{"codigo":"47692200104001000102","sector":"476922001040010001","pcode":"CO47692","area_m2":163719}},{"type":"Polygon","arcs":[[30]],"properties":{"codigo":"47692200105002000101","sector":"476922001050020001","pcode":"CO47692","area_m2":224312}},{"type":"MultiPolygon","arcs":[[[31,32,33]],[[34]]],"properties":{"codigo":"47692200105003000101","sector":"476922001050030001","pcode":"CO47692","area_m2":194330}},{"type":"Polygon","arcs":[[35,-32,36]],"properties":{"codigo":"47692200105003000102","sector":"476922001050030001","pcode":"CO47692","area_m2":111228}},{"type":"Polygon","arcs":[[37,-33,-36]],"properties":{"codigo":"47692200105003000103","sector":"476922001050030001","pcode":"CO47692","area_m2":85873}},{"type":"Polygon","arcs":[[38,39]],"properties":{"codigo":"47692200104004000101","sector":"476922001040040001","pcode":"CO47692","area_m2":24609}},{"type":"Polygon","arcs":[[40,41,-39,42]],"properties":{"codigo":"47692200104004000102","sector":"476922001040040001","pcode":"CO47692","area_m2":40604}},{"type":"Polygon","arcs":[[43,44]],"properties":{"codigo":"47692200103009000102","sector":"476922001030090001","pcode":"CO47692","area_m2":91328}},{"type":"MultiPolygon","arcs":[[[-41,45]],[[46]]],"properties":{"codigo":"47692200104004000103","sector":"476922001040040001","pcode":"CO47692","area_m2":196813}},{"type":"Polygon","arcs":[[47,-14]],"properties":{"codigo":"47692200101005000101","sector":"476922001010050001","pcode":"CO47692","area_m2":13741}},{"type":"Polygon","arcs":[[48]],"properties":{"codigo":"47692200204006000101","sector":"476922002040060001","pcode":"CO47692","area_m2":94059}},{"type":"Polygon","arcs":[[49]],"properties":{"codigo":"47692200302007000101","sector":"476922003020070001","pcode":"CO47692","area_m2":153657}},{"type":"Polygon","arcs":[[50]],"properties":{"codigo":"47692200304008000101","sector":"476922003040080001","pcode":"CO47692","area_m2":33223}},{"type":"Polygon","arcs":[[-44,51]],"properties":{"codigo":"47692200103009000101","sector":"476922001030090001","pcode":"CO47692","area_m2":42299}},{"type":"Polygon","arcs":[[52,53]],"properties":{"codigo":"47692200103010000101","sector":"476922001030100001","pcode":"CO47692","area_m2":57042}},{"type":"Polygon","arcs":[[54,-53]],"properties":{"codigo":"47692200103010000102","sector":"476922001030100001","pcode":"CO47692","area_m2":53358}},{"type":"Polygon","arcs":[[55]],"properties":{"codigo":"47692200204011000101","sector":"476922002040110001","pcode":"CO47692","area_m2":126035}},{"type":"MultiPolygon","arcs":[[[56]],[[57]],[[58]]],"properties":{"codigo":"47692200201013000101","sector":"476922002010130001","pcode":"CO47692","area_m2":51491}},{"type":"MultiPolygon","arcs":[[[59]],[[60]]],"properties":{"codigo":"47692200202018000101","sector":"476922002020180001","pcode":"CO47692","area_m2":145376}},{"type":"Polygon","arcs":[[61]],"properties":{"codigo":"47692200403019000101","sector":"476922004030190001","pcode":"CO47692","area_m2":48894}}]}},"arcs":[[[1225,1382],[-20,-124]],[[1205,1258],[-3,-9],[-29,-13],[-28,-2],[-14,-13],[4,39],[16,72],[-7,5],[4,22],[-13,5],[6,13],[19,-2]],[[1160,1375],[29,-20],[11,44],[25,-17]],[[1235,1253],[-30,5]],[[1225,1382],[34,-23]],[[1259,1359],[-24,-106]],[[1352,1554],[-22,-29]],[[1330,1525],[-33,13]],[[1297,1538],[-12,4]],[[1285,1542],[-39,28]],[[1246,1570],[13,45],[-4,50],[28,10],[1,-28],[18,-13],[11,67]],[[1313,1701],[9,15],[-9,-54],[15,-11],[1,-18],[-14,-55],[37,-24]],[[1326,2240],[-18,-32],[-30,-40],[-6,-28],[-10,-113],[-6,14],[-22,102],[5,93],[19,-2],[4,31],[21,-2],[45,-16],[-2,-7]],[[2434,2527],[-30,-4],[-1,12],[-23,-11]],[[2380,2524],[-1,52],[-14,10],[-19,70],[12,12],[-5,45],[29,18],[4,-27],[33,7],[9,14],[7,-25],[11,2],[-3,-49],[4,-22],[22,-23],[-31,9],[-17,-55],[6,-2],[7,-33]],[[1225,1382],[22,103]],[[1247,1485],[23,-17],[15,74]],[[1297,1538],[-11,-59],[-27,-120]],[[1322,1426],[-23,-51],[-8,4],[-13,-54],[-5,-63],[-20,2],[-18,-11]],[[1330,1525],[11,-12],[-26,-55],[12,-14],[-5,-18]],[[1352,1554],[18,20],[16,45],[41,-55],[-20,-37],[5,-20],[-18,8],[-7,-30],[-22,-2],[-15,-62],[-8,-10],[-20,15]],[[1407,1373],[-15,-3],[-6,-27],[-29,19],[11,43],[39,-32]],[[1160,1375],[9,38],[9,0],[-1,23],[-19,19],[3,8],[-16,18],[11,33],[16,-18],[16,25],[18,-42],[4,29],[12,21]],[[1222,1529],[7,-26],[18,-18]],[[1228,1585],[18,-15]],[[1222,1529],[-4,31],[-19,30],[10,21],[19,-26]],[[1228,1585],[13,19],[3,41],[-5,26],[-14,-3],[-12,30],[-39,3],[-2,20],[19,9],[-8,16],[5,25],[-2,31],[20,49],[24,11],[18,-14],[-7,28],[15,2],[5,76],[29,-26],[17,-34],[20,-9],[4,-50],[25,-2],[1,-17],[-38,1],[0,-55],[-30,-2],[6,-68],[18,9]],[[2282,210],[-12,25],[-20,18],[-62,68],[19,48],[-28,65],[-36,72],[31,-27],[89,-111],[63,-91]],[[2326,277],[-44,-67]],[[2326,277],[91,-131],[83,-125],[16,33],[14,-20],[-15,-34],[-12,16],[-6,-7],[-65,40],[-20,18],[-79,91],[-13,-1],[-38,53]],[[2826,2663],[9,-8],[-16,-37],[-9,-36],[4,-16],[23,-25],[13,34],[10,-12],[-4,-26],[18,-23],[5,16],[35,-40],[2,-16],[13,24],[5,-12],[-8,-15],[8,-18],[6,11],[7,-33],[7,12],[17,-12],[13,36],[26,85],[27,-46],[-6,-33],[3,-25],[-8,-12],[-18,-46],[5,-5],[-15,-49],[16,-33],[-12,-20],[-12,24],[-19,-25],[-8,15],[23,41],[-14,18],[-12,42],[-12,-24],[-23,23],[-16,-11],[-7,16],[-14,-26],[-27,48],[14,26],[16,-18],[15,40],[-20,18],[-49,25],[-5,-14],[-12,7],[3,18],[-29,33],[-20,33],[15,21],[11,2],[21,53],[5,-5]],[[3657,2588],[-8,-45],[13,-14],[-10,-53],[25,-10],[-6,-42]],[[3671,2424],[-8,6],[-4,-28],[8,-4],[-8,-27]],[[3659,2371],[-16,7],[3,17],[-13,24],[-19,-2],[-6,-23],[-19,-7],[-8,13],[37,48],[-1,18],[-19,61],[-1,43],[-20,52],[-24,38],[-6,27],[42,55],[50,-118],[18,-36]],[[3610,2332],[-15,5],[0,30],[15,0],[0,-35]],[[3734,2345],[-63,76],[0,3]],[[3657,2588],[37,-63],[13,33],[11,-16],[-8,-47],[20,-2],[17,-27],[-14,-25],[-6,-28],[33,-20],[-26,-48]],[[3734,2345],[-9,-22],[1,-35],[-11,-22],[-8,14],[-16,-31],[-14,14],[-12,-3],[-16,60],[10,51]],[[2589,1671],[-29,-25],[-3,-27],[-12,-10]],[[2545,1609],[-22,62],[15,15],[2,-12],[28,24],[4,-17],[17,-10]],[[2617,1606],[10,-16],[-17,-25],[-10,-31]],[[2600,1534],[0,19],[-23,31],[-13,10],[3,25],[-18,-25],[-4,15]],[[2589,1671],[0,-32],[8,-29],[20,-4]],[[385,744],[-7,27],[-12,-8],[6,-13]],[[372,750],[-6,3],[-24,43],[-18,-15],[-9,24],[0,23],[20,36],[26,21],[28,2],[5,40],[15,1],[2,-44],[12,-37],[-16,-23],[-23,-13],[-2,-12],[10,-49],[-7,-6]],[[2617,1606],[12,20],[7,-16],[23,26],[-8,34],[11,20],[23,18],[10,-32],[-6,-7],[14,-31],[10,-48],[20,6],[41,26],[13,-13],[16,-48],[-14,-19],[-29,-24],[3,33],[-45,10],[-36,-20],[-26,-32],[8,-11],[-47,-60],[-12,35],[17,21],[-28,30],[6,10]],[[2807,1632],[-21,15],[9,23],[20,-23],[-8,-15]],[[2434,2527],[1,-7],[-28,-31],[-13,-3],[-14,38]],[[4091,2067],[-11,-19],[-13,-43],[-29,-48],[-23,30],[4,7],[-15,42],[-17,18],[37,19],[-2,12],[17,12],[32,45],[1,20],[11,11],[2,-31],[7,-13],[-10,-36],[12,-15],[-3,-11]],[[7037,9999],[15,-19],[4,-27],[-5,-11],[27,-43],[21,33],[29,-11],[-6,-7],[2,-32],[-12,-13],[-23,6],[-16,-19],[-74,-78],[-29,-24],[22,121],[2,32],[10,91],[25,-25],[8,26]],[[4696,9570],[-26,-28],[4,-8],[-34,-38],[10,-14],[-66,-57],[-6,-13],[-12,12],[8,23],[14,19],[60,53],[22,25],[21,33],[5,-7]],[[385,744],[11,-29],[11,5],[5,-23],[12,-2],[21,16],[5,-21],[-38,-43],[-32,-49],[-12,20],[25,43],[-7,48],[4,8],[-18,33]],[[188,473],[-47,3],[-26,13],[-68,73]],[[47,562],[-17,16],[4,15],[37,-24],[6,25],[28,-40],[61,-68],[25,-3],[-3,-10]],[[188,473],[0,-10],[-52,4],[-12,-6],[-19,12],[-7,-9],[-48,24],[1,10],[-51,21],[6,21],[33,-14],[8,36]],[[3903,2115],[10,-28],[15,-8],[3,40],[15,-1],[2,-36],[-11,-17],[-1,-30],[7,-27],[25,16],[5,-9],[-15,-33],[20,-7],[-11,-25],[-16,21],[15,-41],[-25,-31],[-12,22],[-23,61],[7,13],[-8,12],[-26,-38],[-11,30],[-8,-9],[-3,32],[20,42],[-7,12],[9,15],[-7,17],[15,16],[16,-9]],[[5491,8410],[12,-9],[2,-21],[11,7],[4,-30],[-33,-31],[-12,13],[-38,-34],[-10,30],[8,23],[37,36],[5,-22],[12,17],[2,21]],[[5428,8276],[0,0]],[[5542,8266],[0,-14],[-20,36],[9,17],[14,-29],[-3,-10]],[[4033,6738],[-3,-12],[-21,-14],[-20,-51],[5,-16],[26,-31],[14,-25],[-4,-9],[-41,64],[-13,5],[-36,-39],[-4,-23],[-13,3],[3,-26],[34,-69],[-7,-9],[-21,41],[-21,-24],[-8,4],[5,-24],[-12,-1],[-20,25],[15,6],[-12,26],[-17,-20],[-8,-25],[13,-33],[-5,-7],[-23,40],[-23,-43],[-15,15],[15,14],[63,74],[0,9],[23,29],[3,-7],[86,100],[17,39],[25,14]],[[3761,6398],[-18,-21],[-3,18],[-25,-37],[12,-21],[-4,-17],[-22,19],[-22,-17],[-36,-37],[37,-50],[9,22],[15,-18],[-14,-34],[-60,83],[3,17],[86,86],[3,-6],[37,45],[2,-32]],[[9999,9406],[-8,-16],[-9,-90],[11,-28],[-1,-30],[-45,26],[8,71],[1,56],[15,5],[16,-14],[2,20],[10,0]]]}
