{"type":"Topology","bbox":[-73.72750123201621,3.745105432663724,-73.39024185765658,3.8589205508076754],"transform":{"scale":[0.00003372931036699996,0.00001138265007940307],"translate":[-73.72750123201621,3.745105432663724]},"objects":{"municipios":{"type":"GeometryCollection","geometries":[{"type":"Polygon","arcs":[[0,1,2,3,4]],"properties":{"codigo":"50150100000000000101","sector":"501501000000000001","pcode":"CO50150","area_m2":203145}},{"type":"Polygon","arcs":[[5,6]],"properties":{"codigo":"50150100000000000104","sector":"501501000000000001","pcode":"CO50150","area_m2":68980}},{"type":"Polygon","arcs":[[7,-5,8]],"properties":{"codigo":"50150100000000000105","sector":"501501000000000001","pcode":"CO50150","area_m2":77078}},{"type":"Polygon","arcs":[[9,-1,-8,10]],"properties":{"codigo":"50150100000000000106","sector":"501501000000000001","pcode":"CO50150","area_m2":61327}},{"type":"Polygon","arcs":[[11,12]],"properties":{"codigo":"50150100000000000108","sector":"501501000000000001","pcode":"CO50150","area_m2":200218}},{"type":"MultiPolygon","arcs":[[[13]],[[14]],[[15]]],"properties":{"codigo":"50150200101004000101","sector":"501502001010040001","pcode":"CO50150","area_m2":67098}},{"type":"Polygon","arcs":[[16]],"properties":{"codigo":"50150200402005000101","sector":"501502004020050001","pcode":"CO50150","area_m2":11529}},{"type":"Polygon","arcs":[[17,18]],"properties":{"codigo":"50150200201001000102","sector":"501502002010010001","pcode":"CO50150","area_m2":143148}},{"type":"Polygon","arcs":[[19]],"properties":{"codigo":"50150200404002000101","sector":"501502004040020001","pcode":"CO50150","area_m2":50906}},{"type":"MultiPolygon","arcs":[[[20]],[[21]]],"properties":{"codigo":"50150200504003000101","sector":"501502005040030001","pcode":"CO50150","area_m2":38949}},{"type":"Polygon","arcs":[[-6,22,23,-2,-10,24]],"properties":{"codigo":"50150100000000000102","sector":"501501000000000001","pcode":"CO50150","area_m2":261506}},{"type":"Polygon","arcs":[[-3,-24,25]],"properties":{"codigo":"50150100000000000103","sector":"501501000000000001","pcode":"CO50150","area_m2":372305}},{"type":"Polygon","arcs":[[-25,26,-13,27]],"properties":{"codigo":"50150100000000000107","sector":"501501000000000001","pcode":"CO50150","area_m2":443444}},{"type":"Polygon","arcs":[[-18,28]],"properties":{"codigo":"50150200201001000101","sector":"501502002010010001","pcode":"CO50150","area_m2":169077}}]}},"arcs":[[[1088,7519],[44,-97],[23,109],[28,-52]],[[1183,7479],[-78,-369]],[[1105,7110],[-34,46],[-21,52]],[[1050,7208],[-33,84],[-6,72],[18,89],[-13,69],[17,23],[-8,55]],[[1025,7600],[52,-127],[11,46]],[[1280,7093],[-33,76],[30,144],[15,25]],[[1292,7338],[39,-49],[19,-79],[-20,-65],[-47,-39],[-3,-13]],[[1134,7633],[-19,-10],[-27,-104]],[[1025,7600],[0,22],[61,164],[48,-153]],[[1202,7580],[-19,-101]],[[1134,7633],[46,-23],[22,-30]],[[1247,7811],[-72,108],[-25,-149],[-29,43],[42,245],[2,47],[41,-33],[22,24],[33,76],[3,59],[-31,71],[29,153],[26,-63],[2,-63],[16,-66]],[[1306,8263],[-38,-234],[-21,-218]],[[64,9912],[-3,-86],[-15,27],[-41,-4],[-1,62],[23,-15],[0,77],[35,26],[2,-87]],[[19,9473],[3,-65],[-11,-23],[-11,178],[13,13],[6,-103]],[[85,9703],[-19,-2],[0,-139],[-36,11],[-6,87],[41,41],[0,63],[23,-14],[-3,-47]],[[9921,2163],[78,-230],[-6,-16],[-81,251],[9,-5]],[[5377,5872],[-16,-27],[-10,45],[-38,-82],[-7,36],[-37,-69],[-12,54]],[[5257,5829],[-28,115],[35,76],[-19,64],[18,41],[-8,34],[10,47],[12,-50],[7,15],[10,-47],[22,-34],[12,-70],[18,13],[4,-57],[27,-104]],[[8758,213],[43,1],[11,-27],[-13,-104],[-6,-83],[-42,24],[-1,195],[8,-6]],[[9718,3586],[-5,-94],[-10,40],[-59,183],[49,-23],[44,-33],[-20,-21],[1,-52]],[[9626,3776],[-12,33],[14,41],[9,-38],[-11,-36]],[[1280,7093],[-31,-24],[-13,-86]],[[1236,6983],[-23,14],[-32,72],[-32,-10],[-44,51]],[[1202,7580],[16,-59],[-6,-39],[49,-57],[1,-73],[30,-14]],[[1236,6983],[15,30],[21,7],[-21,-85],[11,-27],[-26,-95],[-13,9],[-17,-57],[-36,95],[-16,-57],[-9,-89],[-103,-14],[-53,11],[23,135],[53,61],[4,44],[-15,5],[11,106],[-29,44],[-18,-64],[-44,75],[10,56],[-29,38],[7,50],[66,-85],[22,32]],[[1202,7580],[14,67],[-27,41],[21,120],[32,-42],[5,45]],[[1306,8263],[40,-93],[20,14],[22,-41],[-7,-32],[35,-74],[17,2],[-43,-116],[-13,27],[-30,-130],[-9,12],[-7,-61],[-33,50],[-22,-1],[31,-70],[-4,-19],[36,-83],[13,-57],[-3,-77],[-14,-39],[-15,-7],[-28,-130]],[[5377,5872],[24,43],[16,-70],[-24,-43],[13,-63],[46,74],[-4,-40],[-68,-126],[-22,-68],[-30,-65],[-25,12],[0,25],[-48,247],[2,31]]]}
