{"type":"Topology","bbox":[-73.74460856788392,4.0313792519904545,-73.36256386044857,4.204585651224438],"transform":{"scale":[0.00003820829157269137,0.00001732237216061438],"translate":[-73.74460856788392,4.0313792519904545]},"objects":{"municipios":{"type":"GeometryCollection","geometries":[{"type":"Polygon","arcs":[[0,1,2]]},{"type":"Polygon","arcs":[[3,4,5]]},{"type":"Polygon","arcs":[[6,7,8,9,10]]},{"type":"Polygon","arcs":[[11,12,13,14]]},{"type":"Polygon","arcs":[[15,16,17,18]]},{"type":"Polygon","arcs":[[19,20,21,22,23]]},{"type":"Polygon","arcs":[[24,25,-19,26,27]]},{"type":"Polygon","arcs":[[28,-25,29]]},{"type":"Polygon","arcs":[[30,31,32]]},{"type":"Polygon","arcs":[[33,-24,34,35]]},{"type":"Polygon","arcs":[[36,-35,37,38,-16,-26,-29]]},{"type":"Polygon","arcs":[[39,40,41,42,43]]},{"type":"Polygon","arcs":[[44,45,46]]},{"type":"Polygon","arcs":[[47,48,-47,49,50]]},{"type":"Polygon","arcs":[[51,52,53,54,55,56]]},{"type":"Polygon","arcs":[[57,58,59,-44]]},{"type":"Polygon","arcs":[[-55,60,61,62,63,64]]},{"type":"Polygon","arcs":[[65,-56,-65,66]]},{"type":"Polygon","arcs":[[-57,-66,67,68]]},{"type":"Polygon","arcs":[[69,70,-52,71]]},{"type":"Polygon","arcs":[[72,73,74,75,76]]},{"type":"Polygon","arcs":[[77,78,79,80,-70,81]]},{"type":"Polygon","arcs":[[82,83,84,-80]]},{"type":"Polygon","arcs":[[85,-2,86,87,88,-7,89]]},{"type":"Polygon","arcs":[[90,91,92,93]]},{"type":"Polygon","arcs":[[94,95]]},{"type":"Polygon","arcs":[[-74,96,-84]]},{"type":"Polygon","arcs":[[97,98,99]]},{"type":"Polygon","arcs":[[-92,100,101,-98,102,103,-76,104]]},{"type":"Polygon","arcs":[[105,106,-87,-1,107]]},{"type":"Polygon","arcs":[[108,109,110,111]]},{"type":"Polygon","arcs":[[112,-90,-11,113,-104]]},{"type":"Polygon","arcs":[[114,115]]},{"type":"Polygon","arcs":[[116,117,118,119,120]]},{"type":"Polygon","arcs":[[121,122,123]]},{"type":"Polygon","arcs":[[124,125,126,127]]},{"type":"Polygon","arcs":[[128,129,130,131]]},{"type":"Polygon","arcs":[[132,-129,133]]},{"type":"Polygon","arcs":[[134,-127,135,136]]},{"type":"Polygon","arcs":[[137,138,139]]},{"type":"Polygon","arcs":[[140,141,142,143]]},{"type":"Polygon","arcs":[[144,-108,-3,-86,-113,145]]},{"type":"Polygon","arcs":[[146,147,-122,148,149,150,151,152]]},{"type":"Polygon","arcs":[[153,154,155,-150]]},{"type":"Polygon","arcs":[[-154,-149,156]]},{"type":"Polygon","arcs":[[157,-123,-148,158,159]]},{"type":"Polygon","arcs":[[160,161,162,163]]},{"type":"Polygon","arcs":[[164,165,166,167,-9]]},{"type":"Polygon","arcs":[[168,169,170,-165,-8,-89]]},{"type":"Polygon","arcs":[[171,172,-164,173,-169,-88,-107]]},{"type":"Polygon","arcs":[[174,-161,-173,175]]},{"type":"Polygon","arcs":[[176,177,178,179,180]]},{"type":"Polygon","arcs":[[181,182,183,184,-177,185,-167]]},{"type":"Polygon","arcs":[[186,187,188,189,190]]},{"type":"Polygon","arcs":[[191,192,193,194]]},{"type":"Polygon","arcs":[[195,196,-195,197,198]]},{"type":"Polygon","arcs":[[199,200,201,202,203,204,-193]]},{"type":"Polygon","arcs":[[205,206,-140,207,208]]},{"type":"Polygon","arcs":[[209,210,211]]},{"type":"Polygon","arcs":[[212,213,-210,214]]},{"type":"Polygon","arcs":[[215,216,217,218,219]]},{"type":"Polygon","arcs":[[220,221,-187,222,223]]},{"type":"Polygon","arcs":[[224,225,-218]]},{"type":"Polygon","arcs":[[226,-219,-226,227,228,229]]},{"type":"Polygon","arcs":[[230,231,-230,232,233]]},{"type":"Polygon","arcs":[[234,235,-234,236,237]]},{"type":"Polygon","arcs":[[238,-231,-236,239]]},{"type":"Polygon","arcs":[[240,241,-220,-227,-232,-239]]},{"type":"Polygon","arcs":[[242,243,244,245]]},{"type":"Polygon","arcs":[[246,247,248,-243]]},{"type":"Polygon","arcs":[[249,250,-206,251,252]]},{"type":"Polygon","arcs":[[253,254,-250]]},{"type":"Polygon","arcs":[[255,256,257,258,259,-254,-253,260]]},{"type":"Polygon","arcs":[[261,262,263,-256,264,265,266]]},{"type":"Polygon","arcs":[[267,268,-263,269]]},{"type":"Polygon","arcs":[[270,271,-257,-264,-269]]},{"type":"Polygon","arcs":[[272,273,-259,274]]},{"type":"Polygon","arcs":[[275,276,277,278,-267,279]]},{"type":"Polygon","arcs":[[280,281,282,283,284]]},{"type":"Polygon","arcs":[[285,-284,286,287,-278,288]]},{"type":"Polygon","arcs":[[-288,289,290,-270,-262,-279]]},{"type":"Polygon","arcs":[[-283,291,292,293,-290,-287]]},{"type":"Polygon","arcs":[[294,295,296,-292,-282]]},{"type":"Polygon","arcs":[[-297,297,298,299,-293]]},{"type":"Polygon","arcs":[[300,301,302,303]]},{"type":"Polygon","arcs":[[304,305,-301,306,307]]},{"type":"Polygon","arcs":[[308,309,310,311,312,313]]},{"type":"Polygon","arcs":[[314,315,316,317,-312]]},{"type":"Polygon","arcs":[[318,319,320,-315,-311]]},{"type":"Polygon","arcs":[[321,322,323,-320,324]]},{"type":"Polygon","arcs":[[325,326,327,328]]},{"type":"Polygon","arcs":[[329,330,331,332,-317]]},{"type":"Polygon","arcs":[[333,334,335,336,337]]},{"type":"Polygon","arcs":[[-337,338,-327,339,-331,340]]},{"type":"Polygon","arcs":[[341,342,343,344]]},{"type":"Polygon","arcs":[[345,346,347,348,349,350]]},{"type":"Polygon","arcs":[[351,352,353,-334,354]]},{"type":"Polygon","arcs":[[355,-353,356]]},{"type":"Polygon","arcs":[[357,358,359]]},{"type":"Polygon","arcs":[[-346,360,361,362]]},{"type":"Polygon","arcs":[[-358,363,364,365]]},{"type":"Polygon","arcs":[[366,367,368]]},{"type":"Polygon","arcs":[[369,370]]},{"type":"Polygon","arcs":[[371,372,-348,373,374]]},{"type":"Polygon","arcs":[[-375,375,376,377]]},{"type":"Polygon","arcs":[[378,379,380,-377,381]]},{"type":"Polygon","arcs":[[382,383,-378,-381]]},{"type":"Polygon","arcs":[[384,-374,-347,-363,385,386]]},{"type":"Polygon","arcs":[[387,-350,388]]},{"type":"Polygon","arcs":[[389,390,391,392]]},{"type":"Polygon","arcs":[[393,394,395,396,397]]},{"type":"Polygon","arcs":[[398,399,400]]},{"type":"Polygon","arcs":[[401,402,403,404,405,406]]},{"type":"Polygon","arcs":[[407,408,-402,409,410]]},{"type":"Polygon","arcs":[[411,412,413,414,-405]]},{"type":"Polygon","arcs":[[415,416]]},{"type":"Polygon","arcs":[[417,418,-412,-404,419]]},{"type":"Polygon","arcs":[[420,421,422,423,424]]},{"type":"Polygon","arcs":[[425,426,427,-422]]},{"type":"Polygon","arcs":[[428,-427]]},{"type":"Polygon","arcs":[[429]]},{"type":"Polygon","arcs":[[430,431]]},{"type":"Polygon","arcs":[[432,433,434]]},{"type":"Polygon","arcs":[[435,-433,436]]},{"type":"Polygon","arcs":[[-434,-436,437,438,439]]},{"type":"Polygon","arcs":[[440,441]]},{"type":"Polygon","arcs":[[442,443,444]]},{"type":"Polygon","arcs":[[-431,445]]},{"type":"Polygon","arcs":[[446]]},{"type":"Polygon","arcs":[[-396,447]]},{"type":"Polygon","arcs":[[448,449,450]]},{"type":"Polygon","arcs":[[451,452,453,454,455]]},{"type":"Polygon","arcs":[[456,-13,457,458,459,460,461,462]]},{"type":"Polygon","arcs":[[463,-463,464]]},{"type":"Polygon","arcs":[[465,-4,466,467]]},{"type":"Polygon","arcs":[[-14,-457,-464,468,-468,469]]},{"type":"Polygon","arcs":[[470,-15,-470,-467,-6,471,472]]},{"type":"Polygon","arcs":[[473,474,475,476,-458,-12,-471]]},{"type":"Polygon","arcs":[[-475,477]]},{"type":"Polygon","arcs":[[478,479,480,481,482]]},{"type":"Polygon","arcs":[[483,484,485,-45,-49,486]]},{"type":"Polygon","arcs":[[-27,-18,487,-476,-478,-474,-473,488,489]]},{"type":"Polygon","arcs":[[-39,490,491,-417,-459,-477,-488,-17]]},{"type":"Polygon","arcs":[[-32,492,493,494,495]]},{"type":"Polygon","arcs":[[-439,496,-50,-46,497,-36,-37,-30,-28,-490,498,499,500]]},{"type":"Polygon","arcs":[[-34,-498,-486,501]]},{"type":"Polygon","arcs":[[-500,502]]},{"type":"Polygon","arcs":[[503,504]]},{"type":"Polygon","arcs":[[505,506,507,508]]},{"type":"Polygon","arcs":[[-23,509,-506,510,-491,-38]]},{"type":"Polygon","arcs":[[-309,511,512,513,514]]},{"type":"Polygon","arcs":[[-454,-33,-496,515,-21,516]]},{"type":"Polygon","arcs":[[-22,-516,517,518,-507,-510]]},{"type":"Polygon","arcs":[[519,520,-508,-519,521]]},{"type":"Polygon","arcs":[[522,-456,523,-484,-482]]},{"type":"Polygon","arcs":[[-485,-524,-455,-517,-20,-502]]},{"type":"Polygon","arcs":[[524,525,-483,-487,-48]]},{"type":"Polygon","arcs":[[526,527,528,529]]},{"type":"Polygon","arcs":[[530,531,-494,532,533]]},{"type":"Polygon","arcs":[[534,-522,-518,-495,-532]]},{"type":"Polygon","arcs":[[535,-520,-535,-531,536,-529,537,-461]]},{"type":"Polygon","arcs":[[-63,538,539,-42,540,541]]},{"type":"Polygon","arcs":[[-534,542,543,544,-530,-537]]},{"type":"Polygon","arcs":[[545,546,547,-543,-533,-493,-31,-453]]},{"type":"Polygon","arcs":[[-60,548,-546,-452,-523,-481,549,-40]]},{"type":"Polygon","arcs":[[550,551,552,-58,-43,-540,553]]},{"type":"Polygon","arcs":[[554,-504,555,556,557]]},{"type":"Polygon","arcs":[[558,559,-554,-539,-62,560,561]]},{"type":"Polygon","arcs":[[-276,562,-552]]},{"type":"Polygon","arcs":[[-280,-266,563,-547,-549,-59,-553,-563]]},{"type":"Polygon","arcs":[[-41,-550,-480,564,-541]]},{"type":"Polygon","arcs":[[565,-68,-67,-64,-542,-565,-479,-526,566]]},{"type":"Polygon","arcs":[[567,568,-82,-72,-69,-566,569,570]]},{"type":"Polygon","arcs":[[571,-561,-61,-54,572]]},{"type":"Polygon","arcs":[[-81,-85,573,-573,-53,-71]]},{"type":"Polygon","arcs":[[-105,-75,-83,-79,574,575,-93]]},{"type":"Polygon","arcs":[[576,-575,-78,-569,577]]},{"type":"Polygon","arcs":[[-91,578,-95,579,580,-101]]},{"type":"Polygon","arcs":[[581,-562,-572,-574,-97,-73]]},{"type":"Polygon","arcs":[[582,583,584,585,-99,-102,-581,586,-110]]},{"type":"Polygon","arcs":[[587,-146,-103,-100,-586]]},{"type":"Polygon","arcs":[[588,589,-112,590,591]]},{"type":"Polygon","arcs":[[592,593,594,595]]},{"type":"Polygon","arcs":[[596,597,598]]},{"type":"Polygon","arcs":[[599,600,-594,601,602]]},{"type":"Polygon","arcs":[[603,604,-116,605,-595,-601,606,-589,607,-142,608,609]]},{"type":"Polygon","arcs":[[610,-602,-593,611,612,613]]},{"type":"Polygon","arcs":[[614,615,616,617,-583,-109,-590,-607]]},{"type":"Polygon","arcs":[[618,619,-617,620]]},{"type":"Polygon","arcs":[[621,622,-615,-600]]},{"type":"Polygon","arcs":[[-326,623,624,-332,-340]]},{"type":"Polygon","arcs":[[625,-612,-596,-606,-115,-605]]},{"type":"Polygon","arcs":[[-119,626,-613,-626,-604,627]]},{"type":"Polygon","arcs":[[-120,-628,-610,628]]},{"type":"Polygon","arcs":[[-117,629,-442,630]]},{"type":"Polygon","arcs":[[631,632,-621,-616,-623,633,-131]]},{"type":"Polygon","arcs":[[634,-603,-611,635]]},{"type":"Polygon","arcs":[[636,637,-128,-135,638,-598]]},{"type":"Polygon","arcs":[[-134,-132,-634,-622,-635,639]]},{"type":"Polygon","arcs":[[640,641,642,643,644]]},{"type":"MultiPolygon","arcs":[[[645,646]],[[-599,-639,-137,647]]]},{"type":"Polygon","arcs":[[-152,648]]},{"type":"Polygon","arcs":[[-644,649,650,-125,-638,651]]},{"type":"Polygon","arcs":[[652,653,-650,-643]]},{"type":"Polygon","arcs":[[654,-557,655,-653,-642]]},{"type":"Polygon","arcs":[[-558,-655,-641,656]]},{"type":"Polygon","arcs":[[657,-591,-111,-587,-580,-96,-579,-94,-576,-577]]},{"type":"Polygon","arcs":[[-143,-608,-592,-658,-578,-568,658]]},{"type":"Polygon","arcs":[[-144,-659,-571,659]]},{"type":"Polygon","arcs":[[-620,660,-238,661,-584,-618]]},{"type":"Polygon","arcs":[[662,-661,-619,-633,663]]},{"type":"Polygon","arcs":[[664,665,-664,-632,-130]]},{"type":"Polygon","arcs":[[666,667,668,-155,-157,-124,-158,669]]},{"type":"Polygon","arcs":[[-199,670,-178,-185,671]]},{"type":"Polygon","arcs":[[-646,672,-159,-147,673]]},{"type":"Polygon","arcs":[[674,675,676,-451,677,-668]]},{"type":"Polygon","arcs":[[678,-675,-667]]},{"type":"Polygon","arcs":[[679,-190,680,-196,-672,-184]]},{"type":"Polygon","arcs":[[681,682,-445,683,684]]},{"type":"Polygon","arcs":[[-449,-677,685,686,-685,687]]},{"type":"Polygon","arcs":[[688,689,-582,-77,-114]]},{"type":"Polygon","arcs":[[-168,-186,-181,690,-295,-281,691,-689,-10]]},{"type":"Polygon","arcs":[[692,-182,-166,-171,693]]},{"type":"Polygon","arcs":[[694,-694,-170,-174,-163,695]]},{"type":"Polygon","arcs":[[696,697,-221,698,-176,-172,-106,-145,-588,-585]]},{"type":"Polygon","arcs":[[-699,-224,699,-696,-162,-175]]},{"type":"Polygon","arcs":[[-198,-194,-205,700,-298,-296,-691,-180,701]]},{"type":"Polygon","arcs":[[-702,-179,-671]]},{"type":"Polygon","arcs":[[-695,-700,-223,-191,-680,-183,-693]]},{"type":"Polygon","arcs":[[702,703,-681,-189]]},{"type":"Polygon","arcs":[[704,-200,-192,-197,-704]]},{"type":"Polygon","arcs":[[705,-705,706]]},{"type":"Polygon","arcs":[[707,708,709,-201,-706]]},{"type":"Polygon","arcs":[[710,711,712,713,714]]},{"type":"Polygon","arcs":[[-245,715,-715,716,717]]},{"type":"Polygon","arcs":[[718,-215,-212,719,720,721,722,723,-709,724]]},{"type":"Polygon","arcs":[[725,726,-721]]},{"type":"Polygon","arcs":[[-713,727,728,729,-213,-719,730]]},{"type":"Polygon","arcs":[[731,-729]]},{"type":"Polygon","arcs":[[-237,-233,-229,732,733,-697,-662]]},{"type":"Polygon","arcs":[[734,-241,-240,-235,-663,-666]]},{"type":"Polygon","arcs":[[-712,735,-248,736,737,-726,-720,-211,-214,-730,-732,-728]]},{"type":"Polygon","arcs":[[-736,-711,-716,-244,-249]]},{"type":"Polygon","arcs":[[-690,-692,-285,-286,738,-559]]},{"type":"Polygon","arcs":[[739,740,-708,-707,-703,-188,-222,-698,-734,741]]},{"type":"Polygon","arcs":[[742,-740]]},{"type":"Polygon","arcs":[[-261,-252,-209,743,-544,-548,-564,-265]]},{"type":"Polygon","arcs":[[-207,-251,-255,-260,744,745,746,747,-138]]},{"type":"Polygon","arcs":[[-208,-139,-748,748,-527,-545,-744]]},{"type":"Polygon","arcs":[[749,-514,750,751,-299]]},{"type":"Polygon","arcs":[[752,753,-275,-258,-272]]},{"type":"Polygon","arcs":[[-314,754,755,-273,-754,756,-512]]},{"type":"Polygon","arcs":[[757,-751,-513,-757,-753,-271]]},{"type":"Polygon","arcs":[[-294,-300,-752,-758,-268,-291]]},{"type":"Polygon","arcs":[[-289,-277,-551,-560,-739]]},{"type":"Polygon","arcs":[[-746,758,-303,759,760,761,762,763]]},{"type":"Polygon","arcs":[[-329,764,-760,-302,-306,765,-624]]},{"type":"Polygon","arcs":[[-318,766,767,-755,-313]]},{"type":"Polygon","arcs":[[768,769,770,-762,771]]},{"type":"Polygon","arcs":[[772,773,-745,-274,774]]},{"type":"Polygon","arcs":[[775,-775,-756,-768]]},{"type":"Polygon","arcs":[[-776,776,-308,777,-773]]},{"type":"Polygon","arcs":[[-778,-307,-304,-759,-774]]},{"type":"Polygon","arcs":[[778,779,-722,-727,-738]]},{"type":"Polygon","arcs":[[-204,780,-325,-319,-310,-515,-750,-701]]},{"type":"Polygon","arcs":[[-324,781,782,-316,-321]]},{"type":"Polygon","arcs":[[783,784,785,-782,-323]]},{"type":"Polygon","arcs":[[786,787,788,789,-785]]},{"type":"Polygon","arcs":[[-787,-784,-322,-781,-203,790]]},{"type":"Polygon","arcs":[[791,-788,-791,-202,-710,792]]},{"type":"Polygon","arcs":[[-780,793,794,795,-723]]},{"type":"Polygon","arcs":[[796,-793,-724,-796]]},{"type":"Polygon","arcs":[[-625,-766,-305,-777,-767,-333]]},{"type":"Polygon","arcs":[[-783,-786,-790,797,-355,-338,-341,-330]]},{"type":"Polygon","arcs":[[-772,-761,-765,-328,798,799,800]]},{"type":"Polygon","arcs":[[801,-799,-339,-336]]},{"type":"Polygon","arcs":[[802,803,804,-800,-802,-335,-354,-356]]},{"type":"Polygon","arcs":[[805,806,807]]},{"type":"Polygon","arcs":[[-805,808,-807,809,810,811,-769,-801]]},{"type":"Polygon","arcs":[[812,-808,-809,-804,813,814]]},{"type":"Polygon","arcs":[[-795,-815,815,-797]]},{"type":"Polygon","arcs":[[-344,816,817,-810,-806,-813,-794,-779,818,819]]},{"type":"Polygon","arcs":[[820,-342,821]]},{"type":"Polygon","arcs":[[822,-390,823,824,-811,-818]]},{"type":"Polygon","arcs":[[825,-343,-821]]},{"type":"Polygon","arcs":[[-792,-816,-814,-803,-357,-352,-798,-789]]},{"type":"Polygon","arcs":[[826,827,828,829]]},{"type":"Polygon","arcs":[[830,831,-420,-403,-409,832]]},{"type":"Polygon","arcs":[[-771,833,-364,-360,834,-763]]},{"type":"Polygon","arcs":[[835,836,837]]},{"type":"Polygon","arcs":[[838,839,-682,-687]]},{"type":"Polygon","arcs":[[-825,840,841,-379,842,-369,843,-836,844,-365,-834,-770,-812]]},{"type":"Polygon","arcs":[[845,846,-383,-380,-842]]},{"type":"Polygon","arcs":[[847,-830,848,-370,849,-837]]},{"type":"Polygon","arcs":[[-368,850,-387,-827,-848,-844]]},{"type":"Polygon","arcs":[[-382,-376,-385,-851,-367,-843]]},{"type":"Polygon","arcs":[[-828,-386,-362,851,852]]},{"type":"Polygon","arcs":[[853,-831,854,855]]},{"type":"Polygon","arcs":[[856,857,-389,-349,-373,858]]},{"type":"Polygon","arcs":[[-852,-361,-351,-388,-858,859,-400,860,861]]},{"type":"Polygon","arcs":[[862,863,-399,864]]},{"type":"Polygon","arcs":[[865,-855,-833,-408,866,867]]},{"type":"Polygon","arcs":[[-847,868,-392,869,-859,-372,-384]]},{"type":"Polygon","arcs":[[-824,-393,-869,-846,-841]]},{"type":"Polygon","arcs":[[-840,870,-443,-683]]},{"type":"Polygon","arcs":[[-864,871,-398,872,-868,873,874,875,-861]]},{"type":"Polygon","arcs":[[876,877,-394,-872,-863,878]]},{"type":"Polygon","arcs":[[-877,879]]},{"type":"Polygon","arcs":[[-410,-407,880,881]]},{"type":"Polygon","arcs":[[-882,882,-874,-867,-411]]},{"type":"Polygon","arcs":[[883]]},{"type":"Polygon","arcs":[[884,885,886]]},{"type":"Polygon","arcs":[[-854,887,888,889,890,-418,-832]]},{"type":"Polygon","arcs":[[891,-889,892]]},{"type":"Polygon","arcs":[[-886,893,-424,894,-890,-892,895]]},{"type":"Polygon","arcs":[[896,-414,897]]},{"type":"Polygon","arcs":[[-883,-881,-406,-415,-897,898,-875]]},{"type":"Polygon","arcs":[[-228,-225,-217,899,-717,-714,-731,-725,-741,-743,-742,-733]]},{"type":"Polygon","arcs":[[900,901,902,-819,-737]]},{"type":"Polygon","arcs":[[903,-425,-894,-885]]},{"type":"Polygon","arcs":[[904]]},{"type":"Polygon","arcs":[[905]]},{"type":"Polygon","arcs":[[906]]},{"type":"Polygon","arcs":[[-902,907]]},{"type":"MultiPolygon","arcs":[[[908]],[[909]],[[910]],[[911]]]},{"type":"MultiPolygon","arcs":[[[912]],[[913]],[[914]]]},{"type":"MultiPolygon","arcs":[[[915]],[[916]]]},{"type":"Polygon","arcs":[[917]]},{"type":"Polygon","arcs":[[918]]},{"type":"MultiPolygon","arcs":[[[919]],[[920]]]},{"type":"Polygon","arcs":[[921]]},{"type":"Polygon","arcs":[[922]]},{"type":"Polygon","arcs":[[923]]},{"type":"Polygon","arcs":[[924]]},{"type":"Polygon","arcs":[[925]]}]}},"arcs":[[[3485,6270],[-3,-115],[-21,3],[0,-9],[-11,2]],[[3450,6151],[-11,1],[1,42],[-10,1],[1,26],[6,-1],[1,56]],[[3438,6276],[47,-6]],[[2369,7537],[-7,-1],[1,-29],[-16,-4],[1,-22],[-2,-1],[2,-24],[-2,-4],[-4,-33],[-2,-10],[1,-47],[2,0],[0,-35],[-19,13],[-2,4],[-5,-9],[-4,15]],[[2313,7350],[3,3],[-2,43],[-12,4],[-4,8],[5,0],[1,11],[3,-2],[1,17],[5,0],[5,13],[8,10],[4,10],[2,24],[14,25],[-3,-1],[-5,23],[1,5],[-5,23],[8,17],[6,3],[-6,28],[-5,4],[3,8],[6,0],[9,7],[10,3]],[[2365,7636],[1,-11],[5,-42],[1,-7],[-3,-26],[0,-13]],[[3390,6283],[-2,-56],[-1,-46]],[[3387,6181],[-9,-2],[-10,-5],[-1,-12]],[[3367,6162],[-25,3],[-22,5]],[[3320,6170],[12,123]],[[3332,6293],[2,-1],[56,-9]],[[2442,7486],[13,-69],[21,-127]],[[2476,7290],[-5,-7],[-10,-8],[-30,-18]],[[2431,7257],[-2,13],[-22,124]],[[2407,7394],[-1,9],[21,19],[-5,26],[-14,79],[-7,39],[23,21],[9,-47],[4,-29],[5,-25]],[[2757,7431],[3,-29],[7,-62],[9,-42],[-2,-5]],[[2774,7293],[-9,7],[-60,37],[-36,21]],[[2669,7358],[12,96]],[[2681,7454],[20,3],[25,-9],[31,-17]],[[2868,7076],[14,-31],[4,-17]],[[2886,7028],[-26,-29],[-40,-49],[-37,-41],[-18,-21],[-12,-6]],[[2753,6882],[-18,-8],[-8,-5],[-6,29]],[[2721,6898],[26,28],[-15,79],[2,5],[20,24],[30,38],[14,21]],[[2798,7093],[5,-12],[8,-1],[15,9],[15,-8],[11,-2],[6,-5],[10,2]],[[2746,7538],[6,-52],[3,-35]],[[2755,7451],[2,-20]],[[2681,7454],[-5,1],[-5,40],[-5,-2],[0,37],[1,40],[15,8],[55,32]],[[2737,7610],[5,-34],[4,-38]],[[2809,7415],[-42,30],[-12,6]],[[2746,7538],[62,34],[4,-15],[7,-27],[-3,-2],[2,-29],[-2,-34],[-7,-50]],[[2861,6741],[-3,-28],[1,-8],[-9,-76],[1,-10]],[[2851,6619],[-17,46],[-4,13],[-13,65],[-5,16],[-17,72]],[[2795,6831],[4,-1],[13,-13],[15,-20],[16,-33],[6,-15],[12,-8]],[[2927,7265],[-29,-78],[-37,-95],[7,-16]],[[2798,7093],[11,21],[3,11],[23,75],[4,16],[7,22],[34,115]],[[2880,7353],[1,-2],[46,-86]],[[2809,7415],[10,-8],[7,-58],[2,-12],[22,22],[12,5],[10,-3],[8,-8]],[[2798,7093],[-2,9],[-3,19],[-3,7],[-4,1],[-10,-7],[-6,6],[-4,19],[-4,12],[-4,30],[-3,5],[-7,5]],[[2748,7199],[0,15],[2,9],[17,34],[9,16],[-2,20]],[[3054,6756],[10,15],[1,6]],[[3065,6777],[15,-8],[64,-21]],[[3144,6748],[29,-10]],[[3173,6738],[0,-16],[-18,-3],[-40,-59]],[[3115,6660],[-6,22],[-23,-34],[-22,74],[-10,34]],[[3000,7128],[-18,34]],[[2982,7162],[11,39],[1,9],[0,25],[2,30],[3,9],[8,7]],[[3007,7281],[21,0],[9,-4],[3,-18],[-1,-16],[-5,-17],[7,-15],[-3,-8],[2,-5],[-5,-28],[-7,-37],[-16,22],[-8,4],[-4,-31]],[[3101,7316],[-10,-11],[-4,-3],[-2,-17],[2,-28],[3,-15],[9,-19],[6,-8],[3,-14],[-2,-14],[-8,-19],[6,-14],[4,2],[3,-5],[-2,-15],[-3,-6],[-7,-1],[-11,9],[-5,-17],[-5,-35],[-5,-19],[2,-12],[-12,-11],[-11,-13],[-11,-8]],[[3041,7023],[-1,13],[-6,25],[-6,15],[-28,52]],[[3007,7281],[5,5],[7,18],[3,16],[21,65]],[[3043,7385],[43,-62],[15,-7]],[[3358,7040],[-8,-56],[-20,19],[-6,-51],[-6,-42],[-4,-17]],[[3314,6893],[-6,-36]],[[3308,6857],[-36,18]],[[3272,6875],[6,56],[5,24]],[[3283,6955],[17,84],[1,22]],[[3301,7061],[3,5],[15,4],[17,-7],[22,-23]],[[3115,6660],[-17,-26],[-15,-21],[-17,-25],[-6,23],[-14,-20]],[[3046,6591],[-29,98],[-3,9]],[[3014,6698],[21,28],[19,30]],[[3272,6875],[-2,-23],[-3,-16],[-11,-47],[-13,-63],[-2,-10]],[[3241,6716],[-23,8]],[[3218,6724],[6,52],[-20,10],[8,76]],[[3212,6862],[9,92],[3,24]],[[3224,6978],[19,-10],[1,6],[24,-11],[15,-8]],[[3267,7078],[34,-17]],[[3224,6978],[7,76],[20,-10],[3,40],[13,-6]],[[3267,7078],[1,13],[-21,11],[4,10],[7,9],[14,6],[13,-2],[12,3],[44,-13],[14,-13],[4,29],[1,0]],[[3360,7131],[27,-9],[1,-10],[-2,-16],[15,3],[-1,-12],[-4,-19],[-12,5],[-12,0],[-9,4],[-5,-37]],[[3377,7025],[-4,-33],[-18,-118]],[[3355,6874],[-19,10],[-1,-2],[-21,11]],[[3358,7040],[19,-15]],[[3299,6434],[7,9],[3,24],[6,49]],[[3315,6516],[52,-30],[6,125],[1,51]],[[3374,6662],[12,-6]],[[3386,6656],[1,-81],[3,-190],[-46,27],[-2,-11]],[[3342,6401],[-9,8],[-11,6],[-11,5],[-6,5],[-6,9]],[[3412,6990],[-1,-6]],[[3411,6984],[-8,-90],[-9,-55],[-3,-11]],[[3391,6828],[-38,28]],[[3353,6856],[2,18]],[[3377,7025],[5,-4],[5,-12],[-1,-7],[14,-12],[12,0]],[[3391,6828],[-5,-31],[0,-9],[-4,-29],[-8,-87],[0,-10]],[[3374,6662],[-41,21]],[[3333,6683],[14,130],[6,43]],[[3418,6279],[20,-3]],[[3450,6151],[-1,-20]],[[3449,6131],[0,-2]],[[3449,6129],[-32,5],[0,-2],[-21,4],[1,21],[-10,24]],[[3390,6283],[28,-4]],[[3465,6879],[-4,-122],[-1,-9],[-2,-55],[-2,-69]],[[3456,6624],[-41,18]],[[3415,6642],[7,80],[2,5],[4,91],[5,63]],[[3433,6881],[11,-4],[21,2]],[[3522,6736],[-35,10],[2,42],[4,51],[1,33]],[[3494,6872],[39,-11],[-11,-121],[0,-4]],[[3315,6516],[18,167]],[[3463,6467],[8,69],[7,69]],[[3478,6605],[46,-34],[13,-11]],[[3537,6560],[-12,-27],[-18,-41],[25,-19],[-8,-51],[-61,45]],[[3456,6624],[9,-4],[13,1]],[[3478,6621],[0,-16]],[[3463,6467],[-4,-4]],[[3459,6463],[-3,8],[-7,-3],[-13,-26],[-9,-15],[-5,-14],[-5,-17],[-8,-21],[-6,-5],[-7,0],[-14,10],[-6,2],[-34,19]],[[3386,6656],[29,-14]],[[3521,6265],[8,-1],[7,-24],[1,-1],[21,-3],[-3,-93]],[[3555,6143],[-20,3],[-10,0],[-12,-4],[0,-20],[-21,2],[-43,7]],[[3485,6270],[36,-5]],[[3654,6730],[24,-28],[2,-12],[-2,-7],[-12,14],[-4,-18],[27,-32],[-10,-47],[-44,50],[-19,-78]],[[3616,6572],[-29,35],[-28,29]],[[3559,6636],[9,37],[4,26],[1,20],[5,80]],[[3578,6799],[2,0],[36,-44],[4,15],[34,-40]],[[3459,6463],[-4,-4],[-1,-9],[-1,-28],[-4,-8],[-2,-56],[4,0],[0,-25],[-22,3],[-1,-33],[-9,1],[-1,-25]],[[3332,6293],[8,92],[2,16]],[[4034,6854],[2,-19],[-10,-3],[-3,-22]],[[4023,6810],[-18,-2],[-5,4],[-15,18],[-14,9],[-18,-3],[-22,0],[-14,-3],[-14,22],[-6,5],[0,21],[40,3],[1,3],[0,20],[23,2],[10,0],[24,-6],[3,34],[15,-6],[4,-7],[14,-14],[1,-4],[2,-52]],[[4342,7129],[-2,-104],[-1,-23],[-12,1],[-3,-88],[2,-1]],[[4326,6914],[0,-20],[-24,0],[-1,22],[-33,0]],[[4268,6916],[-24,1],[-16,3],[-4,3]],[[4224,6923],[3,17],[9,37],[9,66],[2,20],[0,21],[-5,41],[-5,31]],[[4237,7156],[4,12],[13,16],[2,2],[30,2],[17,-6],[13,-14],[26,-39]],[[4793,5112],[0,121],[27,0]],[[4820,5233],[30,1]],[[4850,5234],[-1,-12],[-4,-20],[-9,-24],[-8,-39],[-7,-27],[-28,0]],[[5210,5389],[-8,-10],[-5,18],[-23,-28],[4,-17],[-10,-11],[-5,15],[-3,0],[-11,-16],[-5,-15],[-34,-37]],[[5110,5288],[-10,37],[-9,26]],[[5091,5351],[24,30],[5,-19],[16,19],[-5,21],[59,70]],[[5190,5472],[20,-83]],[[4208,6304],[-19,-185],[-2,-17]],[[4187,6102],[-10,-6],[-6,0],[-26,12]],[[4145,6108],[14,138],[7,78]],[[4166,6324],[42,-20]],[[4227,6141],[-40,-39]],[[4208,6304],[39,-20],[-9,-78],[-4,-36],[-2,-9],[3,-14],[-8,-6]],[[5163,5585],[27,-113]],[[5091,5351],[-4,17],[-1,17],[0,35],[8,27],[3,19]],[[5097,5466],[18,21],[39,46],[-8,31],[17,21]],[[2635,6057],[-27,20],[-86,64]],[[2522,6141],[1,3],[40,40],[21,20],[9,12],[7,6],[10,1],[26,13],[20,9]],[[2656,6245],[3,-34],[-24,-154]],[[3807,7103],[7,-36],[14,-32],[0,-13]],[[3828,7022],[-12,-13],[-5,-23],[-4,-5],[-31,-23],[-11,-11]],[[3765,6947],[-7,57],[-23,-5],[-2,17],[7,8],[5,13],[-3,16],[2,32]],[[3744,7085],[44,17],[18,6],[1,-5]],[[3505,6331],[-3,-6],[13,-7],[7,0],[-1,-53]],[[3459,6463],[5,-26],[12,-24],[14,-19],[2,-9],[4,-21],[9,-33]],[[4612,5709],[21,-64],[3,4],[9,-28],[-1,-14],[-6,-15],[-2,-20],[23,-1],[9,-21],[0,-92],[68,0]],[[4736,5458],[0,-97],[1,-93],[68,0],[9,-14],[5,-12],[1,-9]],[[4793,5112],[-56,0]],[[4737,5112],[-51,1]],[[4686,5113],[-1,50],[0,105],[-1,17],[-23,76],[-30,99],[-33,110],[-5,15]],[[4593,5585],[14,21]],[[4607,5606],[9,13],[-9,29],[-14,40],[-6,12],[-15,21],[22,32],[0,-6],[6,-15],[6,-5],[6,-18]],[[4737,5112],[0,-123]],[[4737,4989],[-5,-6],[-20,-1],[-5,1],[-6,7],[-8,21],[-7,5]],[[4686,5016],[-1,2],[1,95]],[[4793,5112],[0,-157],[-10,1],[-12,19],[-9,0],[-12,13],[-7,4],[-6,-3]],[[4854,5241],[-4,-7]],[[4736,5458],[47,1],[21,-22],[2,3],[1,17]],[[4807,5457],[7,-4],[5,21],[6,1],[-2,-17],[2,-20],[3,-14],[6,-8],[5,-1],[13,10],[7,-3],[2,-9],[-2,-15],[-14,-24],[-3,-10],[2,-12],[3,-5],[18,-19],[5,0],[2,-17],[-1,-14],[-4,-22],[-11,-33],[-2,-1]],[[3574,6060],[-1,-57]],[[3573,6003],[-18,3],[-9,-27],[-37,5]],[[3509,5984],[2,85]],[[3511,6069],[63,-9]],[[3367,6162],[-2,-62],[-9,2],[-1,-18]],[[3355,6084],[-2,-67]],[[3353,6017],[-55,-2],[-4,7],[-8,27]],[[3286,6049],[-8,26],[13,18],[1,58],[7,14],[20,-1],[1,6]],[[3449,6129],[-2,-51]],[[3447,6078],[0,-25]],[[3447,6053],[-16,2],[1,17],[-17,2],[-60,10]],[[3555,6143],[21,-4],[-1,-27]],[[3575,6112],[-1,-52]],[[3511,6069],[-64,9]],[[3571,5948],[2,55]],[[3575,6112],[20,-2],[7,-3],[0,-8],[6,-17],[38,-5],[-6,-45],[-10,-62],[-4,3],[-5,-6],[-10,18],[-3,-6],[-5,1],[-1,-36],[-31,4]],[[3237,5957],[-6,-40],[-3,-27]],[[3228,5890],[-5,2]],[[3223,5892],[-15,-25]],[[3208,5867],[-16,47],[15,25]],[[3207,5939],[4,-11],[5,-4],[10,75],[9,-17],[4,-3],[-2,-22]],[[3353,6017],[19,-1]],[[3372,6016],[-1,-159]],[[3371,5857],[-26,1],[-25,0],[-18,1]],[[3302,5859],[-74,31]],[[3237,5957],[40,-17],[2,34],[7,75]],[[3497,5818],[0,-54]],[[3497,5764],[-1,-26],[1,-27]],[[3497,5711],[-21,1],[-31,1],[-1,-2],[-14,0],[0,53],[-60,-1]],[[3370,5763],[1,73]],[[3371,5836],[2,7],[70,2],[33,-1],[0,-27],[21,1]],[[3319,5618],[11,-30]],[[3330,5588],[-42,-72],[-50,148]],[[3238,5664],[42,67]],[[3280,5731],[39,-113]],[[3308,5787],[6,-9],[9,1],[20,-13],[9,-5],[5,-4],[5,-18],[4,-7],[4,-2]],[[3370,5730],[0,-9],[9,-2],[-10,-15],[-50,-86]],[[3280,5731],[-12,33],[13,18],[1,10]],[[3282,5792],[11,-1],[6,-4],[9,0]],[[3330,5588],[29,-81]],[[3359,5507],[-76,-133]],[[3283,5374],[-13,37]],[[3270,5411],[-29,85]],[[3241,5496],[-38,112]],[[3203,5608],[35,56]],[[2712,6226],[-3,-14],[-46,-167],[-2,-8]],[[2661,6037],[-26,20]],[[2656,6245],[12,5],[40,19],[5,1]],[[2713,6270],[12,-1],[-13,-43]],[[3848,5154],[-1,-25],[-9,-116],[-4,-65],[-4,-56]],[[3830,4892],[-16,-7]],[[3814,4885],[5,74],[-15,165],[8,3],[4,6],[3,9],[5,34],[10,-4],[7,-5],[7,-13]],[[3898,5146],[-11,-168],[-5,-67]],[[3882,4911],[-52,-19]],[[3848,5154],[6,-8],[20,8],[4,1],[20,-9]],[[4174,5675],[-3,-76]],[[4171,5599],[-6,5],[-37,-8],[0,-9],[-10,-1],[-5,-4],[-12,3],[0,-11],[-7,0],[0,10],[-7,1]],[[4087,5585],[1,22],[2,43]],[[4090,5650],[4,50]],[[4094,5700],[12,0],[38,-20],[15,-6],[15,1]],[[3567,5846],[16,-2]],[[3583,5844],[-4,-129],[-14,15],[-17,24],[-51,10]],[[3497,5818],[0,40]],[[3497,5858],[5,-3],[65,-9]],[[4087,5585],[-15,2],[0,-33],[-3,-5],[-7,-2],[-25,1],[-11,-5],[-10,-2],[-7,3],[-19,-3],[-5,1],[-9,28],[-5,3],[2,67]],[[3973,5640],[92,8],[25,2]],[[4069,5735],[-2,-39],[27,4]],[[3973,5640],[1,23]],[[3974,5663],[3,64]],[[3977,5727],[40,2],[13,-4],[-2,16],[18,-3],[22,1],[1,-4]],[[4063,5844],[0,-8]],[[4063,5836],[-1,-16],[6,-48],[1,-15],[0,-22]],[[3977,5727],[-7,79],[-5,52],[-1,23]],[[3964,5881],[21,-2],[30,-9],[-1,-23],[19,-3],[30,0]],[[4064,6011],[0,-51],[-1,-48]],[[4063,5912],[0,-68]],[[3964,5881],[-2,41],[2,20],[6,26],[4,37],[1,-1],[4,21]],[[3979,6025],[3,-7],[15,-1],[15,3],[9,6],[11,0],[16,-5],[9,-7],[7,-3]],[[4175,5778],[-9,4],[-28,14],[-27,12],[-17,9],[-1,12],[-30,7]],[[4063,5912],[48,-20],[66,-27],[-1,-67],[-1,-20]],[[4175,5778],[3,-1]],[[4178,5777],[-1,-39],[-1,-2],[-2,-61]],[[4245,4768],[-10,-8],[-21,-5],[-10,41],[-3,7],[-39,-36],[-2,12],[-8,-8],[-10,53],[-4,17],[-17,-21],[-4,18],[-8,-9]],[[4109,4829],[-1,23],[-8,75]],[[4100,4927],[6,1],[55,66],[23,27]],[[4184,5021],[15,-61],[19,-80],[1,-3],[26,-109]],[[4245,4768],[5,-21],[16,17],[-1,5],[20,24],[10,-38],[-5,-6],[4,-17],[2,-31],[2,-9],[-6,-41],[-3,-14],[-5,-8],[-10,-11],[-7,-1],[-22,5],[-11,9],[-7,16],[-5,19],[-6,14],[-10,14],[-7,6],[-13,0],[-15,-10],[-35,-43],[-37,-28],[-13,-2],[-11,3]],[[4075,4620],[5,24],[0,64],[-1,26]],[[4079,4734],[38,14],[-8,81]],[[2778,6067],[-58,42],[-15,-104]],[[2705,6005],[-44,32]],[[2712,6226],[3,-5],[35,25],[61,47],[28,21]],[[2839,6314],[7,-39],[-29,-22],[-44,-34],[9,-57],[3,-27],[-1,-29],[-6,-39]],[[2778,6067],[35,-25],[-13,-75],[-3,-30]],[[2797,5937],[-92,68]],[[2872,6325],[-6,-74],[-5,-40]],[[2861,6211],[-3,-19]],[[2858,6192],[-11,-84],[-3,-33],[-8,-73],[-7,-63]],[[2829,5939],[-3,-23]],[[2826,5916],[-29,21]],[[2839,6314],[12,9],[6,4],[15,-2]],[[2946,6351],[6,-15]],[[2952,6336],[-22,-31],[-23,-30]],[[2907,6275],[-23,-33],[-17,-24],[-6,-7]],[[2872,6325],[4,46],[6,85]],[[2882,6456],[5,-4],[6,5],[8,15],[3,2]],[[2904,6474],[42,-123]],[[3030,6107],[-40,-67]],[[2990,6040],[-15,44],[-31,85],[-23,68],[-7,14],[-7,24]],[[2952,6336],[22,-62],[12,-35],[16,-52],[28,-80]],[[2990,6040],[-40,-66],[-8,-14]],[[2942,5960],[-16,33],[-34,36],[-3,8],[-3,19],[-1,24],[-7,27],[-13,48],[-2,24],[-5,13]],[[2918,5978],[-6,-52],[-3,-27],[-5,-41]],[[2904,5858],[-62,46],[-16,12]],[[2829,5939],[33,-19],[5,43],[36,-20],[5,44],[10,-9]],[[2953,6420],[6,0],[7,4],[11,3],[11,-19],[12,-27],[2,-9],[7,-4],[7,2],[11,-3],[13,6],[10,16],[8,32],[3,21],[3,13],[7,4],[12,-7],[3,1]],[[3086,6453],[3,-13],[-1,-22],[-7,-24]],[[3081,6394],[-20,-124]],[[3061,6270],[-8,16],[-18,26],[-41,20],[-48,19]],[[2904,6474],[8,-2],[6,-9],[8,-20],[8,-11],[13,-9],[6,-3]],[[3234,6334],[-12,-155]],[[3222,6179],[-52,26]],[[3170,6205],[-24,12]],[[3146,6217],[5,57],[6,-2],[1,22],[6,69]],[[3164,6363],[33,-13],[37,-16]],[[3169,6424],[-5,-61]],[[3146,6217],[-27,13]],[[3119,6230],[-55,35],[-3,5]],[[3081,6394],[49,-18],[4,54],[11,-4],[1,5],[11,-2],[12,-5]],[[3119,6230],[-4,-21],[-16,-83],[-41,-99]],[[3058,6027],[-4,11],[-24,69]],[[3170,6205],[-11,-101],[10,-5],[-1,-8],[16,-9],[-1,-8],[-7,-6]],[[3176,6068],[-8,11],[-4,-13],[-23,-66],[-32,-72],[-27,49],[-6,14],[-6,-1]],[[3070,5990],[-12,37]],[[3222,6179],[-11,-143],[-2,-21],[-7,-28],[-6,-15]],[[3196,5972],[-16,-28]],[[3180,5944],[-7,10],[26,77],[-23,37]],[[3180,5944],[-59,-100]],[[3121,5844],[-15,45],[-14,37],[-16,47]],[[3076,5973],[-6,17]],[[2853,5663],[-4,-24],[6,-4],[-11,-71]],[[2844,5564],[-47,38],[-16,11]],[[2781,5613],[8,99]],[[2789,5712],[8,-5],[31,-24],[25,-20]],[[2945,5563],[-11,-70]],[[2934,5493],[-51,41],[-39,30]],[[2853,5663],[4,21]],[[2857,5684],[44,-35],[20,-16],[-7,-45],[31,-25]],[[3024,5771],[3,-1]],[[3027,5770],[4,-39],[4,-22],[22,-95]],[[3057,5614],[-4,3]],[[3053,5617],[-16,14],[-7,-43],[-31,27]],[[2999,5615],[7,43],[3,0],[6,32],[-16,16],[8,46],[4,27]],[[3011,5779],[13,-8]],[[3053,5617],[-15,-31],[-2,-9],[1,-27],[6,-47],[3,-10]],[[3046,5493],[-2,-34],[-11,-11]],[[3033,5448],[-8,28],[-3,12],[-8,19],[-7,9],[-23,24]],[[2984,5540],[3,6],[12,69]],[[3057,5614],[42,-36],[-9,-118],[22,-43]],[[3112,5417],[-7,-9]],[[3105,5408],[-8,13],[-22,44],[-6,-14],[-6,1],[-1,8],[-12,23],[-4,10]],[[3156,5331],[-7,-24],[-10,-32]],[[3139,5275],[-3,4],[-5,18],[-17,53],[-5,12]],[[3109,5362],[-9,16],[-5,19],[10,11]],[[3112,5417],[44,-86]],[[2906,5320],[21,-37]],[[2927,5283],[2,-3],[-21,-90],[-11,-45]],[[2897,5145],[-17,29],[-5,10],[10,41],[-24,41],[-6,12],[23,63],[6,19]],[[2884,5360],[22,-40]],[[3033,5448],[-6,-1],[-19,14],[-13,-77]],[[2995,5384],[-3,-15]],[[2992,5369],[-31,24],[-18,13]],[[2943,5406],[3,23],[16,-12],[6,40],[1,4],[11,67],[4,12]],[[3028,5117],[-16,-9]],[[3012,5108],[-48,-28]],[[2964,5080],[-11,92]],[[2953,5172],[-7,61],[36,21],[27,16]],[[3009,5270],[35,20],[5,-39],[13,7],[3,-20],[-48,-29],[11,-92]],[[2953,5172],[-53,-31],[-3,4]],[[2927,5283],[17,13],[39,23],[5,32],[4,18]],[[2995,5384],[14,-114]],[[3399,3934],[-5,-3],[-7,-13],[-10,-4],[-21,-17],[-15,-9],[-14,-23],[-9,-1],[-15,12],[-14,25],[-14,10],[-7,2],[-9,-4],[-11,-11],[-4,-2],[-8,4],[-9,-3],[-19,3]],[[3208,3900],[-17,22],[-2,-13],[-6,-12],[-1,-6],[4,-1],[1,-8],[7,-3],[3,-8],[-4,-11],[-2,-17],[1,-8],[-7,-5],[1,-12],[-3,-18],[5,-14],[0,-8],[-3,-6],[-5,8],[-4,10],[-4,-3],[-2,7],[-4,-1],[-4,-26],[-5,-8],[1,-9],[5,-8],[-3,-12],[-13,-1],[-6,-8],[-3,4],[-16,-1],[-5,-2],[-6,-10]],[[3111,3712],[-15,53],[-19,66],[8,16],[13,34],[29,75],[38,79],[14,36],[5,7],[39,41],[9,9],[12,5],[13,-7],[8,2],[6,10],[24,40],[15,34],[17,33],[10,20],[8,13]],[[3345,4278],[11,-53],[22,-101],[21,-100],[-16,-18],[16,-72]],[[2367,3987],[0,1]],[[2367,3988],[33,144]],[[2400,4132],[50,-49]],[[2450,4083],[-5,-23],[-5,-15],[3,-1],[9,-22]],[[2452,4022],[-16,-41],[-16,-29]],[[2420,3952],[-8,10],[13,22],[-5,16],[-16,-28],[-6,-17],[-31,32]],[[3129,5158],[6,-17],[2,-19]],[[3137,5122],[-15,-8],[-42,-25],[-62,-36]],[[3018,5053],[-6,55]],[[3028,5117],[81,47],[7,-10],[4,-1],[9,5]],[[3040,5015],[-18,-11],[-6,47],[2,2]],[[3137,5122],[5,2],[6,-15],[20,-18],[0,-1],[-122,-72],[-6,-3]],[[2438,5203],[-9,-4]],[[2429,5199],[4,27],[-3,10],[-13,23],[-7,2],[-8,9],[-4,18],[-10,19],[-2,18],[2,16],[-2,17],[-28,15],[8,13],[-11,30],[-1,4],[7,13]],[[2361,5433],[12,-33],[12,-35],[9,-3],[4,53],[13,0],[6,-5],[0,-18],[3,0],[8,-23],[-1,-17],[7,0],[8,-5],[2,-5],[0,-19],[-10,-83],[1,-23],[3,-14]],[[2367,3987],[-25,-102],[-25,28],[-79,97]],[[2238,4010],[29,116]],[[2267,4126],[5,-17],[4,-30],[3,-5],[88,-86]],[[2438,5203],[12,-47],[60,-232],[9,-32]],[[2519,4892],[-16,-30],[-19,-33],[-45,-79],[-8,-17]],[[2431,4733],[-10,40],[0,7],[-5,-3],[-14,51],[2,3],[-4,18],[3,4],[-5,20],[-2,21],[9,9],[-19,68],[-8,-11],[-10,35],[21,27],[17,-9],[11,-32],[4,10],[-6,37],[4,40],[-2,4],[1,21],[-5,14],[-7,13],[-11,22],[4,5],[5,16],[1,15],[-2,5],[3,24],[2,1],[21,-9]],[[2454,4528],[-1,-24],[-7,-2],[-13,7],[-6,-5]],[[2427,4504],[2,26]],[[2429,4530],[11,-10],[10,9],[4,-1]],[[2149,4491],[-3,3],[-2,-9],[-7,9],[-1,4],[-17,23],[-2,-30],[-1,-20],[6,-16],[-2,-2]],[[2120,4453],[-5,4],[-9,16],[-10,7],[-1,13],[-3,13],[1,12],[7,7],[0,9],[-3,13],[-1,15],[2,7],[-5,11],[0,7],[-5,-1],[-5,5],[17,27],[5,2],[9,-8],[-5,-19],[3,-16],[3,-7],[4,21],[0,18],[12,4],[-2,31],[-13,35],[4,9],[4,-2],[6,-11],[6,-22],[10,-4],[9,6],[7,6],[6,-2],[7,-7],[-1,-12],[-9,-15],[11,-34],[7,2],[7,-8],[6,-14],[2,-1],[-6,-19],[-1,-13],[-7,-28],[-5,-10],[-10,-5],[-7,-8],[-1,8],[-4,2],[-1,-8],[-7,2]],[[2550,4143],[-2,-6],[-3,3],[-22,-66],[-11,11],[-14,-41]],[[2498,4044],[-31,22],[-17,17]],[[2400,4132],[17,77],[8,31]],[[2425,4240],[15,-16],[29,-33],[16,-7],[28,6],[13,-6],[11,-10],[6,-9],[7,-22]],[[2425,4240],[10,42],[19,89]],[[2454,4371],[25,-29],[25,-31],[48,-16]],[[2552,4295],[-9,-115],[12,-27],[-5,-10]],[[2498,4442],[3,14],[8,6],[8,-4],[6,-12],[6,-3],[4,7],[2,0],[3,-9],[4,-22],[2,-5],[10,-11],[6,8],[11,-1],[3,-10],[4,-27],[-3,-15],[5,-4],[2,14],[8,-11],[20,-13],[4,-4]],[[2614,4340],[-4,-3]],[[2610,4337],[-27,9],[-4,-60],[-27,9]],[[2454,4371],[-17,21],[3,19],[6,37],[3,18],[3,29],[3,3],[9,-4],[1,-4],[1,-33],[26,-56],[0,4],[6,37]],[[2610,4337],[0,-21],[-8,-99],[0,-2],[-8,-119],[-4,-48],[-3,-22]],[[2587,4026],[-5,15],[-8,41],[-6,23],[-9,18],[-9,20]],[[2394,4233],[14,12],[7,3],[10,-8]],[[2267,4126],[41,163],[8,43]],[[2316,4332],[21,-17],[16,-22],[9,-25],[5,-19],[5,-16],[11,-8],[11,8]],[[2483,3756],[-20,20],[-10,8],[9,43],[8,-7],[-8,37],[-8,48],[-11,15],[-13,21],[-10,11]],[[2452,4022],[-2,-8],[5,-42],[10,-11],[-1,-4],[18,-75],[5,-23],[1,-37],[3,-22],[-8,-44]],[[2886,3980],[2,-21],[-2,-30],[-7,-28],[-5,-12],[-6,-6],[-4,-11],[-7,-8]],[[2857,3864],[-6,3],[-10,1],[-37,-5],[-16,-13],[-4,-8]],[[2784,3842],[-3,34],[-10,-8],[-13,-8],[0,-19],[-11,-7],[-6,0],[1,19],[4,35],[3,16]],[[2749,3904],[7,21],[8,13],[39,39],[13,16],[19,11],[31,16],[3,-2],[5,-21],[5,-13],[7,-4]],[[2011,3028],[32,-2],[8,1],[2,-29],[21,8],[4,-40],[62,28],[18,9],[3,-42],[15,6]],[[2176,2967],[1,-41]],[[2177,2926],[-42,-18],[-50,-22]],[[2085,2886],[-6,63],[-57,-25]],[[2022,2924],[-3,38],[-5,0],[0,27],[-5,39],[2,0]],[[2144,3594],[-17,45]],[[2127,3639],[34,116],[2,9],[35,99]],[[2198,3863],[4,-22],[0,-17],[-19,-48],[-15,-31],[11,-29],[1,-6],[7,-17],[-5,-8],[-6,5],[-9,-29],[-1,2],[-22,-69]],[[1912,2786],[-1,-66],[0,-41],[-1,-68]],[[1910,2611],[-38,1]],[[1872,2612],[-11,41],[-5,25],[-8,5]],[[1848,2683],[-6,14],[-6,10],[-23,20],[-4,-3],[-9,28],[-11,-13],[-6,31]],[[1783,2770],[17,7],[8,7],[13,27],[6,21],[4,37],[3,13],[18,41],[17,34],[6,13]],[[1875,2970],[8,-5],[-5,-17],[0,-7],[-12,-27],[-3,6],[-10,-19],[-6,-17],[-2,-16],[-5,-17],[-3,-36],[2,-3],[-3,-22],[3,-2],[73,-2]],[[1971,2828],[-1,-113],[-1,-106]],[[1969,2609],[-30,0],[-29,2]],[[1912,2786],[0,44]],[[1912,2830],[55,-2],[4,0]],[[1848,2683],[-64,-57],[-22,-20]],[[1762,2606],[-7,34],[-1,20],[-1,33]],[[1753,2693],[-8,43]],[[1745,2736],[7,11],[9,8],[15,12],[7,3]],[[2635,7256],[-3,-21],[2,-3],[1,-15],[-2,-9],[-13,6],[-10,-2],[-17,-11],[-24,-28],[-5,-5],[-3,-11],[-8,-8],[-9,-19],[-16,37],[-6,-5],[-20,2],[-10,15],[-2,8],[1,12],[5,11],[2,8]],[[2498,7218],[8,6],[3,18],[5,12],[2,12],[-1,17],[3,11],[4,1],[8,-9],[6,0],[7,5],[0,7],[-1,22],[14,2],[6,-3],[8,-14],[3,7],[1,13],[11,21],[5,6],[16,-22],[2,-5],[3,-26],[3,-8],[12,-30],[9,-5]],[[1932,2417],[-11,-16],[-61,-76],[-11,-16],[-9,-16],[-3,-8]],[[1837,2285],[-7,33],[-14,73],[-9,40],[-6,22],[-22,86],[-1,7],[-7,27],[-8,29],[-1,4]],[[1872,2612],[7,-23],[8,-22],[6,-22],[2,-2],[4,-18],[13,-46],[14,-42],[6,-20]],[[2067,1906],[-2,-5],[-10,-7],[-3,-6],[-10,-3],[-1,-13],[-5,3],[-6,-4],[1,-5],[-9,-4],[-2,-10],[-7,-3],[-8,4],[-2,-8],[-3,0],[0,-6],[-4,-7],[-3,5],[-9,-9],[-1,-8],[-8,2],[0,-7],[-4,5],[-1,-7],[-18,-13],[-3,-6],[-3,1]],[[1946,1795],[-9,54],[1,4],[-6,32],[-6,22],[-8,22]],[[1918,1929],[-9,23]],[[1909,1952],[17,14],[21,21],[22,18],[44,39],[23,20],[0,2]],[[2036,2066],[13,-65],[18,-95]],[[1946,1795],[3,-21],[1,-3],[4,-42],[-3,-64],[-1,-45],[18,-72],[11,-28],[4,-4],[1,-9],[-5,-8],[-5,-20],[-16,-15],[-15,-18]],[[1943,1446],[-2,11],[-34,-28],[-12,83],[-16,100],[-2,10],[-8,-6],[-12,73]],[[1857,1689],[-1,8],[11,13],[6,18],[5,5],[5,-31],[34,26],[1,7],[-13,75],[-27,-29],[-48,-52],[-49,-52],[-3,16],[35,45],[19,22],[14,20],[10,29],[1,27],[16,24],[12,-3],[17,23],[16,49]],[[1943,1446],[-27,-32],[-33,-25],[-20,-16],[-35,-27],[-55,-43],[-1,0],[-3,27],[-2,77],[-6,48],[-3,24],[-2,69],[1,2],[42,32],[-3,23],[5,24],[-3,23],[15,12],[3,-17],[8,6],[-1,9],[34,27]],[[1883,1137],[7,-162],[6,2],[2,-44],[-62,-13],[-1,36],[-13,20],[-8,5],[-4,110],[-41,-8],[5,28],[32,6],[3,4],[29,59],[78,15],[-3,-7],[-28,-37],[-2,-14]],[[1312,2797],[-15,-3],[-5,48],[-18,10],[-23,11],[-24,15],[-8,7],[-41,46],[-7,5],[-4,13],[0,12]],[[1167,2961],[-2,35],[8,3],[21,-11],[29,4],[17,4],[15,7],[31,28],[10,13],[3,-5],[1,-25],[-3,-34],[0,-26],[6,4],[0,-10],[-4,-4],[3,-9],[-3,-15],[0,-12],[4,0],[0,7],[9,-3],[-1,-17],[-2,1],[-4,-23],[1,-17],[6,1],[0,-14],[-5,-2],[0,-9],[3,0],[0,-16],[1,-7],[1,-12]],[[3288,8171],[-21,-55],[-42,-130],[-19,-58],[-15,-53],[-3,-14],[-11,-34]],[[3177,7827],[-10,12],[-53,79],[-49,75],[-3,4],[-45,70],[-44,65],[-2,4]],[[2971,8136],[11,22],[13,33],[7,14],[30,63],[11,11],[25,15],[33,32],[15,15],[9,10],[38,40],[26,31],[15,19],[-10,20],[-6,20],[8,0],[7,-6],[5,1],[8,11],[6,14],[9,15],[6,8],[7,12],[3,10],[4,5],[5,-3],[23,18],[6,9],[-1,13],[12,9],[1,-12],[18,10],[10,3],[7,9],[4,-9],[11,21],[17,27],[5,0],[10,16],[7,-18],[0,8],[5,19],[0,15],[-3,25],[28,62],[7,-14],[3,5],[9,-21],[54,-118],[-18,-40],[-31,-72],[-9,-20],[-7,-14],[-26,-55],[-21,-48],[-15,-33],[-8,-18],[-25,-54],[-19,-39],[-22,-61]],[[3060,7477],[44,122],[62,188],[11,40]],[[3288,8171],[21,-35],[77,-132],[11,16],[8,16],[13,40],[-2,5],[7,17],[23,-36],[29,81],[33,90],[60,164],[24,63],[51,-94],[-87,-274],[-61,-185],[-61,-169],[-41,-116],[-28,-85],[-13,18],[-2,0],[-25,-44],[-7,1],[-27,5],[-16,-4],[-10,-9],[-4,-42],[9,-7],[0,-9],[-21,7],[-24,6],[-14,5],[-9,2],[-33,18],[-38,22],[-1,2],[-15,7],[-18,10],[-4,-1],[-6,-15],[-7,-11],[-7,-9],[-13,-12]],[[3060,7477],[-28,-77]],[[3032,7400],[-78,104],[-47,74],[-32,66],[-31,82],[-21,67],[-55,222]],[[2768,8015],[-18,114],[-5,66],[0,61],[10,103],[6,53],[48,-1],[5,-25],[0,-33],[1,-38],[8,-8],[-2,-14],[2,-12],[5,-8],[-2,-12],[1,-32],[-6,-35],[-7,2],[0,-15],[2,-10],[5,-12],[22,-40],[7,-9],[18,-3],[37,-9],[7,-3],[23,0],[16,8],[5,7],[15,26]],[[4435,7108],[-2,69],[12,2],[5,3]],[[4450,7182],[2,-71],[-17,-3]],[[4643,4644],[-7,16],[-6,7],[-11,15],[-8,3]],[[4611,4685],[0,25]],[[4611,4710],[46,-1],[0,-16],[27,0],[0,49],[52,-1],[0,-47],[28,2],[21,0],[0,-53],[-74,1],[0,16],[-30,0],[-24,1],[1,-17],[-15,0]],[[1312,2797],[6,1],[0,-9],[-13,-30],[-19,-42],[-13,-21],[-5,16],[-3,3],[-7,0],[-2,4],[-9,62],[0,5],[-35,-6],[0,15],[4,1],[0,12],[-9,4],[-10,21],[-2,7],[-7,19],[-10,32],[-7,28],[2,3],[-6,13],[-4,14],[4,12]],[[4868,4444],[22,-19],[5,20],[4,-4],[-1,-5],[8,-9],[-1,-11],[-13,-23],[-20,18],[-11,-27],[1,-24],[5,-8],[12,0],[14,6],[6,8],[5,12],[6,4],[10,3],[9,-2],[12,-10],[0,-9],[-5,-19],[0,-17],[4,-13],[9,-12],[23,2],[27,18],[22,21],[14,7],[12,-1],[21,-24],[15,-24],[5,-3],[7,3],[-5,-66],[-77,27],[-8,-101],[-6,-92],[4,3],[39,2],[1,-70],[5,-230],[-47,-1],[-3,-85],[-1,-45],[-6,-94],[-2,-63],[-3,-36],[-2,-45],[-1,-45],[2,-44],[12,-183],[4,-56],[-53,17],[-29,9],[2,-40],[36,-114],[49,-151],[28,-93],[2,-4],[23,-1],[19,1],[59,14],[0,-3],[-5,-359],[-24,-154],[-37,25],[-95,-81],[-6,36],[-158,-93],[-48,288],[-370,73],[1,224],[-40,149],[-2,9],[10,25],[22,72],[11,35],[10,28],[18,30],[-2,24],[-8,55],[-11,66],[-11,122],[-4,35],[-8,45],[2,2],[6,-8],[9,-17],[24,-37],[22,-25],[26,-25],[20,-13],[27,-13],[137,-43],[3,41],[3,37],[6,42],[3,28],[6,50],[15,120],[3,35],[1,57],[-1,42],[2,56],[1,6],[9,33],[17,68],[9,42],[12,75],[28,-10],[5,158],[47,-11],[-20,103],[-28,0],[-15,87],[-6,2],[-37,45],[5,2],[7,-8],[3,5],[3,13],[4,0],[5,-12],[10,0],[11,13],[3,20],[3,8],[5,-5],[-2,-20],[0,-17],[2,-3],[7,0],[3,3],[7,19],[9,9],[6,28],[-5,19],[-26,41],[7,9],[16,-4],[8,15],[8,6],[3,8],[5,-1],[27,23],[13,-16],[5,-5]],[[2177,2926],[5,-126],[-25,-11],[4,-35],[4,1],[1,-13],[-5,-3],[0,-8],[-12,2],[-1,5],[-5,-2],[-13,12],[-36,35],[-1,3],[-8,100]],[[4794,4826],[0,-31],[-69,0],[-42,0],[0,41]],[[4683,4836],[13,12],[26,19]],[[4722,4867],[5,-6],[5,0],[5,6],[6,-2],[8,0],[10,-18],[15,-6],[10,-7],[8,-8]],[[2969,6730],[-5,-8],[-11,-7],[-9,0]],[[2944,6715],[-10,2],[-12,-1],[-12,-4],[-3,1],[-7,21],[-3,5],[-9,3],[-9,-1],[-10,-6],[-8,6]],[[2861,6741],[13,118]],[[2874,6859],[49,-11],[49,-9]],[[2972,6839],[-3,-97],[-2,-8],[2,-4]],[[2285,7169],[6,2],[19,10],[34,27],[13,9],[26,15],[48,25]],[[2476,7290],[7,11],[19,41],[9,15]],[[2511,7357],[6,-29],[0,-11],[-7,-9],[-3,-12],[-2,-30],[-3,-26],[-4,-22]],[[2498,7218],[-7,-2],[-3,-5],[-6,-24],[-11,-22],[-7,-7],[-6,1],[-19,8],[-3,-2],[-12,-28],[-7,-8],[-3,1],[-12,11],[-8,3],[-6,-7],[-6,-25],[-4,-5],[-4,3],[-3,15],[-3,2],[-18,-17],[-14,-21],[-7,-7],[-8,-4],[-5,1],[-18,9]],[[2298,7088],[-8,4],[-17,6],[-5,4],[-13,23],[-9,5],[-9,-3],[-10,2],[-6,7],[-7,13]],[[2214,7149],[-8,14],[-3,9],[-5,26],[-6,11],[-9,6],[-5,12],[-4,24],[-4,9],[-9,7],[-2,6],[-1,35],[-2,8],[-7,17],[-3,15],[-6,42],[-3,9],[-14,8],[-6,11],[-2,9],[0,28],[-4,7],[-17,8],[-2,11],[3,22],[-2,17],[10,10],[25,23]],[[2128,7553],[23,-148],[5,-16],[10,-22],[4,-12],[7,-37],[6,-20],[15,-38],[4,-11],[13,-22],[13,-21],[15,-17],[18,-16],[14,-5],[10,1]],[[2284,7292],[9,-14],[-1,-18],[-7,-91]],[[2128,7553],[-4,29],[-1,21],[11,44],[2,19],[-1,7],[4,5],[3,-22],[0,-14],[-4,-6],[3,-22],[7,4],[7,-8],[1,-24],[-4,-1],[-3,-14],[-1,-45],[1,-17],[2,-12],[6,-10],[1,-34],[-6,-21],[5,-14],[3,-19],[12,-19],[1,-12],[3,-8],[9,-8],[19,-9],[10,-9],[7,-14],[8,-3],[13,0],[21,-12],[1,2],[20,-15]],[[2287,7301],[8,16],[5,-7],[4,6],[9,21],[0,13]],[[2369,7537],[2,-12],[3,-35],[-8,-67]],[[2366,7423],[-5,-31],[17,-3],[-2,-8],[-9,-5],[-3,-10],[-1,-9],[5,-14],[0,-9],[-8,1],[-4,-16],[1,-19],[-9,-15],[-9,-3],[-4,-8],[-5,1],[-9,7],[-4,1],[-9,-5],[-8,5],[-13,18]],[[2284,7292],[3,9]],[[2366,7423],[16,4],[2,5],[10,-51],[13,13]],[[2472,7620],[-9,-9],[-4,22],[-15,-13],[4,-22],[15,-91],[-21,-21]],[[2365,7636],[7,-10],[21,-8],[3,4],[3,21],[5,10],[2,7],[0,17],[7,11],[7,-1],[9,-4],[9,14]],[[2438,7697],[8,1],[2,-6],[-5,-11],[0,-6],[4,1],[4,11],[5,-3],[5,-31],[9,-21],[2,-12]],[[2472,7620],[12,-71]],[[2484,7549],[-1,-1],[7,-41],[2,-6],[6,-29]],[[2498,7472],[19,-110]],[[2517,7362],[-6,-5]],[[2484,7549],[34,24],[44,29],[10,-57],[3,-6],[-42,-37],[-35,-30]],[[3127,6919],[-11,-41],[-5,-12],[-7,-12]],[[3104,6854],[-1,-1],[-38,6],[-5,-4],[-3,-12],[-1,-18],[-2,-28],[-2,-10]],[[3052,6787],[-3,-11],[-12,-6]],[[3037,6770],[1,55],[3,143]],[[3041,6968],[18,2],[27,34],[10,-42],[14,17],[13,-54],[4,-6]],[[3041,6968],[-34,4],[-33,5],[-21,3]],[[2953,6980],[1,40],[0,25],[-3,42],[19,16],[-1,14],[0,23]],[[2969,7140],[7,7],[6,15]],[[3041,7023],[1,-10],[-1,-45]],[[2669,7358],[-11,5],[-28,10],[-38,13],[-12,2],[-9,-2],[-42,-17],[-12,-7]],[[2438,7697],[3,9],[5,5],[5,0],[3,-7],[8,9],[5,-25],[16,-8],[8,1],[4,-3],[3,-11],[4,-5],[4,1],[8,13],[18,19],[4,11],[2,17],[11,8],[21,-5],[9,-8],[2,-10],[4,-3],[9,6],[4,7],[9,5],[8,16],[3,32],[5,4],[3,-3],[4,-16],[3,-2],[11,10],[10,36],[4,19],[8,10]],[[2666,7829],[3,-8],[4,2],[9,16],[2,11],[3,18],[4,14],[8,3],[3,-5],[2,-17],[-1,-36],[-2,-23],[-7,-34],[-2,-16],[3,-17],[3,-6],[15,-19],[9,-25],[7,-25],[8,-52]],[[2748,7199],[-7,2]],[[2741,7201],[-12,5],[-10,-4],[-8,5],[-21,27],[-6,12],[-15,15],[-7,6],[-4,-4],[-8,1],[-10,-9],[-5,1]],[[2851,6619],[-2,-4],[-24,-24],[-4,-2]],[[2821,6589],[-2,1],[-22,39],[-26,46],[-40,71]],[[2731,6746],[20,61],[2,9],[-3,49]],[[2750,6865],[8,1],[8,-5],[8,-12],[5,-23],[6,-1],[10,6]],[[3032,7400],[11,-15]],[[2982,7162],[-28,54],[-27,49]],[[2666,7829],[8,10],[4,14],[0,10],[-2,15],[2,26],[-3,14]],[[2675,7918],[6,18],[3,15],[7,16]],[[2691,7967],[4,3],[9,12],[64,33]],[[2969,7140],[-4,-3],[-13,0],[-3,-3],[-5,-11],[-9,-9],[-12,3],[-11,-8],[-7,-12],[-6,-6],[-12,-8],[-15,-8],[-4,1]],[[2675,7918],[-4,13],[-1,29],[2,22],[-6,31],[0,20],[-2,23],[-8,82],[-1,28],[2,11],[-2,33],[2,17],[6,9],[-3,13],[1,1],[-2,14],[3,3],[3,20],[6,5],[-3,19],[4,11],[-3,6],[0,18],[-3,29],[1,13],[-3,22],[1,8],[4,21],[-3,9],[0,13],[-2,19],[-6,16],[14,18],[-16,47],[3,21],[2,16],[1,33],[-1,20],[0,25],[6,-9],[19,-5],[5,-3],[4,-16],[2,-28],[-1,-16],[-9,-43],[8,-18],[-4,-15],[0,-19],[5,-25],[-5,-8],[-3,1],[5,-19],[4,-23],[2,-29],[1,-25],[-1,-35],[7,-6],[4,-34],[3,-46],[2,-23],[-1,-43],[-3,-14],[-32,47],[-6,-18],[-12,-30],[5,-13],[-5,-8],[0,-7],[4,-3],[2,-8],[-2,-15],[3,-14],[-3,-2],[3,-31],[3,1],[3,-9],[6,-2],[0,-9],[3,0],[4,-11],[21,5],[3,-32],[-13,-3],[-6,-5],[2,-4],[1,-26],[-4,-11]],[[5466,5033],[-2,5],[-2,22],[14,2],[31,1]],[[5507,5063],[0,-3],[-9,-35],[4,-2],[11,-17],[9,-6],[13,-18],[6,-4],[8,-9],[5,-3],[7,-9],[15,-17],[-4,-36],[-7,13],[-5,-6],[-6,2],[-8,16],[-14,12],[-4,9],[-6,-5],[-5,1],[-3,19],[2,11],[5,12],[-3,8],[-8,-13],[-5,-2],[-2,5],[-2,14],[-4,5],[-8,-3],[-3,4],[1,14],[3,18],[-4,5],[-8,-7],[-9,3],[-3,-6]],[[2711,6892],[1,-2]],[[2712,6890],[-3,-16],[-6,-32],[-4,-9],[-11,-17],[-3,8],[-5,1],[-7,7],[-9,-2],[-5,-15],[-11,-24],[-9,-8],[3,-7],[-13,-23],[-3,-9]],[[2626,6744],[-14,-29],[-4,-13],[-10,-22],[-3,-10],[-10,-23],[-9,-10],[-6,1],[-11,-7]],[[2559,6631],[-1,7],[11,10],[0,4],[5,6],[2,16],[7,-12],[5,2],[6,15],[9,24],[4,7],[1,13],[-2,10],[11,15],[-3,12],[5,14],[7,13],[9,-3],[4,8],[8,9],[-1,10],[-5,5],[0,8],[-5,-1],[-8,18],[9,53],[11,-13],[3,-13],[5,-18],[4,-6],[11,-5],[0,16],[-8,12],[-4,12],[6,20],[-1,15],[-2,12],[0,18],[14,-35],[5,-8],[6,-5],[12,1],[12,-5]],[[2721,6898],[-9,-8]],[[2711,6892],[-5,14],[11,13],[-1,5],[3,18],[5,6],[-5,18],[5,7],[-3,11],[3,9],[-1,14],[-6,3],[1,9],[-2,5],[-4,-5],[-1,4],[4,10],[10,-13],[1,2],[-5,13],[13,25],[-3,7],[9,18],[3,10],[-3,43],[2,4],[0,14],[-5,23],[-6,2],[7,6],[3,14]],[[3024,5771],[-16,48],[-1,6]],[[3007,5825],[5,7]],[[3012,5832],[12,20],[-1,2],[40,21],[5,-14],[23,-66]],[[3091,5795],[-11,-12],[-9,-8],[-16,-7],[-13,-1],[-15,3]],[[2750,6865],[0,9],[3,8]],[[2886,7028],[3,-22],[-1,-19],[-8,-78],[-6,-50]],[[2750,6865],[-10,-12],[-9,-15],[-3,-11],[-7,-18],[-8,-5],[-4,-14],[-2,-33],[-5,-13],[-6,-3],[-6,4],[-14,-6],[-9,2],[-3,-3],[-3,-24],[-5,-8],[-13,5],[-9,-10]],[[2634,6701],[2,20],[-4,6],[1,8],[-7,9]],[[2612,6652],[0,-8],[-5,-16],[0,-20],[-7,-7],[-14,2],[-13,-3],[-6,-7],[-8,-3],[-6,-22]],[[2553,6568],[-3,5],[5,10],[1,14],[4,11],[-3,7],[5,6],[-3,10]],[[2634,6701],[-8,-3],[-2,-4],[0,-21],[-3,-7],[-9,-5],[0,-9]],[[3037,6770],[-12,-4],[-7,-5],[-8,5],[-8,13],[-9,6],[-6,0],[-5,-4],[-5,-9],[-3,-11],[-1,-16],[-4,-15]],[[2972,6839],[2,88],[-23,3],[2,50]],[[3101,7316],[28,-12],[30,4],[30,-14],[19,-18],[8,-5],[23,-5],[15,3],[15,-5],[11,-7],[16,-8]],[[3296,7249],[9,-61],[-2,-9],[-16,-7],[-11,10],[-3,-5],[-3,-12],[0,-26],[-8,-4],[-8,-7],[-7,-11],[-9,-24],[-6,-10],[-13,-14],[-33,-25],[-31,-44],[-28,-81]],[[2595,6290],[-15,2],[-10,-5],[-9,-10],[-9,-3],[-6,3],[-15,-5],[-16,35],[-7,6],[-6,-6],[-6,-1],[-25,7],[-8,10],[-6,12]],[[2457,6335],[-2,12],[2,15],[-3,4],[-13,-12],[-7,4],[-4,10],[-2,10],[-3,1],[-4,9],[-4,2],[-4,8],[0,29],[0,16],[-3,20],[-3,6],[-15,11],[-22,19],[-6,8],[-3,19],[-2,1],[-6,-9],[-2,-11],[-4,-1],[-11,8]],[[2336,6514],[-5,61],[0,8],[23,-4],[12,-28],[8,-11],[21,-9],[8,-13],[8,-16],[14,-33],[18,-11],[19,-20],[6,-6],[7,-2],[11,2],[25,14],[24,21],[11,14],[13,26],[5,11],[5,25],[5,10],[16,6],[10,14],[20,39],[4,6],[5,0],[7,-18],[14,-39],[-1,-16]],[[2649,6545],[-5,-8],[-13,-61],[-8,-50],[9,-4],[-12,-18],[-3,-24],[-4,-26],[-5,-14],[-12,-7],[-1,-43]],[[2756,6455],[-6,35],[-24,150],[-3,24],[-4,6]],[[2719,6670],[4,22],[1,28],[3,15],[4,11]],[[2821,6589],[12,-72]],[[2833,6517],[-27,-22],[-28,-21],[-22,-19]],[[2719,6670],[-3,-12],[-10,-23],[-9,20],[-11,16],[-16,28],[-3,-2],[-6,-15],[-6,-6],[-19,-7],[-5,-8],[-2,5],[-7,-7],[-10,-7]],[[2298,7088],[1,-23],[-2,-27],[-2,-14],[-15,-41],[4,-16],[-1,-10],[-4,-5],[11,-34],[3,-16],[2,-26],[25,6],[0,-26],[-3,-19],[4,-34],[4,-26],[3,-10],[6,-11],[11,-17],[4,-18],[5,-34],[4,-15],[6,-15],[2,-22],[-2,-25],[2,-18],[4,-7],[4,-25],[7,-9],[14,-7],[12,-18],[7,-9],[10,-3],[18,-1],[9,-6],[9,-10],[11,-4],[9,2],[6,5],[15,-14],[13,6],[3,14],[15,17],[6,-2],[5,2],[8,13],[1,9],[-2,18],[3,5]],[[2756,6455],[-27,-24],[-34,-29],[-12,71],[-13,37],[-10,30],[-2,3],[-9,2]],[[2336,6514],[-7,9],[-6,11],[-6,6],[-4,10],[-6,5],[-2,14],[-3,6],[0,17],[-6,7],[-2,8],[-10,-10],[-2,-6],[-20,-20],[-2,24],[-2,5],[0,56],[3,0],[2,35],[11,4],[2,-41],[11,3],[3,-35],[6,-1],[1,-5],[6,14],[3,1],[0,13],[-3,13],[-1,20],[1,21],[-4,32],[-2,7],[1,20],[-2,10],[0,15],[-1,12],[-6,24],[2,24],[-3,23],[-33,-5],[-1,-7],[11,-57],[1,-11],[-4,-5],[-1,4],[-9,-17],[0,-24],[2,-17],[6,6],[3,-2],[-5,-6],[1,-10],[-13,-15],[-9,20],[3,12],[6,10],[1,15],[-2,22],[-1,17],[-4,-1],[-3,27],[2,7],[-9,11],[0,29],[-3,6],[-1,15],[6,15],[14,24],[2,4],[15,29],[-12,22],[-11,16],[-4,8],[-5,29],[-4,-8],[-9,-6],[-1,-27],[-3,-3],[-2,14],[-3,7],[1,7],[-8,10],[-14,0],[-30,-30],[2,-11],[-5,-5],[-3,5],[-6,-14],[2,-6],[-6,-11],[-5,10],[4,8],[0,10],[2,8],[3,16],[3,15],[1,27],[24,2],[17,-5],[1,12],[5,13],[-6,27],[1,31],[2,6],[8,3],[12,8]],[[3218,6724],[-19,6]],[[3199,6730],[-26,8]],[[3144,6748],[-1,36],[0,64],[0,29]],[[3143,6877],[23,-12],[2,19],[44,-22]],[[2833,6517],[6,-38],[5,-36]],[[2844,6443],[-18,8],[-7,1],[-10,-19],[-11,-12],[-14,-10],[-13,-10],[-12,-22],[-9,-14],[-12,-8],[-12,-19],[-11,6],[-12,2]],[[2703,6346],[-3,0],[-13,-12],[-16,-9],[-11,-16],[-20,-15],[-7,-1],[-7,3],[-7,7],[-9,2],[-6,-4],[-5,-9],[-4,-2]],[[2944,6715],[-1,-25],[2,-7],[18,-61]],[[2963,6622],[-9,-13],[-27,-39],[-16,-22],[-22,-34],[-4,-3],[0,-15],[-4,-40]],[[2881,6456],[-8,1],[-10,-14],[-10,-4],[-9,4]],[[3014,6698],[-28,-40],[-23,-36]],[[3052,6787],[13,-10]],[[3160,6468],[-34,5],[-19,-9],[-21,-11]],[[3086,6453],[-32,104],[-1,11]],[[3053,6568],[-7,23]],[[3199,6730],[-4,-37],[-3,-48],[-43,-10],[7,-130],[8,-4],[-4,-33]],[[5523,5116],[-9,-27],[-7,-26]],[[5466,5033],[-3,-15],[-9,6],[-7,20],[-7,13],[-12,18],[-15,15],[-3,18],[0,17],[-3,2],[-13,-6]],[[5394,5121],[0,12],[7,1],[-1,18],[0,63],[2,40],[3,2]],[[5405,5257],[23,0],[13,-18],[36,-56],[18,-25],[28,-42]],[[3247,6489],[-10,0],[-5,4],[-3,10],[0,10],[3,21],[-1,8],[-12,-7],[-12,-12]],[[3207,6523],[-8,-14],[-8,-25],[-7,-13],[-9,-4],[-15,1]],[[3241,6716],[22,-7]],[[3263,6709],[-16,-220]],[[2953,6420],[-2,32],[20,29],[24,36],[25,36],[7,-23],[26,38]],[[2882,6456],[-1,0]],[[3104,6854],[2,-7],[5,2],[14,20],[10,10],[8,-2]],[[3387,7233],[-1,-20],[5,-16],[16,-24],[0,-11],[-13,-11],[-8,-2],[-18,1],[-7,-6],[-1,-13]],[[3296,7249],[16,-6],[24,6],[19,-7],[9,-2],[23,-7]],[[3481,7111],[-14,-2],[-1,-10]],[[3466,7099],[-2,-11],[-14,-37],[-8,2],[-3,4],[-9,-1],[-8,-15],[-9,-29],[-1,-22]],[[3387,7233],[21,-6],[14,-5],[13,-2],[15,-1]],[[3450,7219],[9,-18],[4,-16],[-7,-15],[7,-13],[1,-7],[9,-19],[8,-13],[0,-7]],[[3289,6700],[-26,9]],[[3308,6857],[-9,-56],[-3,-38],[-7,-63]],[[3333,6683],[-44,17]],[[3411,6984],[28,-19]],[[3439,6965],[-6,-84]],[[3606,7045],[-10,-3],[-13,8],[-10,9],[-14,10],[-14,6],[-7,-2],[-12,3],[-13,-9],[-17,0],[-8,-5],[-34,-43],[-10,11],[-5,-65]],[[3466,7099],[37,2],[30,-11],[21,-7],[54,-20],[-2,-18]],[[3465,6879],[29,-7]],[[3522,6736],[-8,-92]],[[3514,6644],[-36,-23]],[[3299,6434],[-5,8],[-10,12],[0,22],[-5,11],[-21,4],[-11,-2]],[[3616,6572],[38,-43],[21,-37],[13,-17],[22,-18],[34,-23]],[[3744,6434],[2,-14],[-4,-27],[-12,-74]],[[3730,6319],[-5,10],[-7,2],[-8,-8],[-5,4],[-3,7],[-4,30],[0,18],[-2,8],[-3,0],[-5,-7]],[[3688,6383],[-2,15],[-2,3],[-7,-1],[-2,16],[-5,7],[-4,1],[-10,19],[-11,5],[-16,12],[-11,19],[-5,6],[-7,3],[-14,0],[-10,27],[-12,22],[-26,38],[-7,-15]],[[3514,6644],[14,9],[6,2],[8,-2],[17,-17]],[[3688,6383],[-8,-14],[-15,-36],[-8,-23],[-6,-5],[-11,11],[-13,6],[-8,0],[-17,5],[-1,-4],[2,-23],[-1,-10],[-7,-3],[-13,5],[-4,4],[-14,7],[-9,0],[-6,12],[-6,9],[-8,2],[-10,-3],[-12,1],[-8,7]],[[3684,6824],[-4,-20],[-2,-6]],[[3678,6798],[-16,-37],[-8,-31]],[[3578,6799],[2,31],[22,-6]],[[3602,6824],[16,-7],[18,-15],[13,-10],[7,0],[9,7],[12,17],[7,8]],[[4148,6633],[-1,-2],[-8,-67]],[[4139,6564],[-3,-28],[22,-11],[-3,-25],[-22,9],[-6,-51],[-3,-16],[-11,3]],[[4113,6445],[9,125],[-27,-3],[-1,43]],[[4094,6610],[-1,27],[18,-2],[9,7],[8,8],[6,-2],[7,-15],[7,0]],[[5124,5834],[14,-37],[24,-57],[7,-20],[7,-15],[20,-26],[4,41],[17,-6],[-5,-56],[46,-55],[0,1],[22,-18],[-9,-36],[-5,-19]],[[5266,5531],[-50,62],[-35,44],[3,15],[-17,-1],[-9,-5],[-9,-6]],[[5149,5640],[-24,99],[-7,32],[-5,65],[11,-2]],[[4173,6392],[-8,-2],[-9,2],[-8,-6],[-3,1],[-10,14],[-1,17],[-4,13],[-12,-6],[-6,3]],[[4112,6428],[1,17]],[[4139,6564],[31,-16],[46,-22]],[[4216,6526],[-10,-107],[-16,7],[-3,-27],[-12,6],[-2,-13]],[[4180,6958],[-1,-25],[-1,-41],[5,-2],[37,-12],[-13,-155]],[[4207,6723],[-52,14],[2,29],[-3,10],[-8,8],[5,22],[6,2],[0,10],[-4,2],[2,25],[-11,-3],[-55,8],[-26,4],[-23,1],[-6,-1]],[[4023,6810],[4,-6],[11,-19],[0,-6],[-2,-15],[-11,-3],[-6,-37],[-5,-20],[-9,-26],[-5,-7],[-7,-21],[1,-19],[15,0],[0,-6],[12,-11],[10,2],[9,-53],[6,2],[27,-1],[-2,60],[11,1],[1,-15],[11,0]],[[4112,6428],[-8,-1],[-7,-28],[-5,-6],[-11,-4],[-9,3],[-9,9],[-19,40],[-12,16],[-6,0],[-23,-6],[-5,3],[-9,22],[-4,2],[-13,-8],[-20,-11],[-31,-6],[-5,-3],[-6,-10],[-4,1],[-12,9],[-6,-1],[-16,9],[-40,39],[-13,9],[-15,4],[-21,19],[-18,22],[-22,9],[-3,3],[-8,17],[-8,28],[-7,23],[-15,22],[-6,8],[-6,18],[-5,31],[-7,88]],[[3684,6824],[7,20],[7,8],[15,13],[3,11],[1,26],[4,17],[5,7],[29,14],[10,7]],[[3828,7022],[2,3],[5,-27],[7,0],[13,-3],[10,-11],[7,0],[9,6],[22,3],[27,-4],[9,-4],[8,-7]],[[3947,6978],[7,-6],[24,-5],[9,6],[19,30],[24,14],[3,9],[10,-84],[48,-30],[9,-4],[10,0],[-19,56],[32,10],[13,-2],[16,1],[18,-7],[10,-8]],[[4243,6512],[-27,14]],[[4148,6633],[5,1],[13,14],[5,8],[3,12],[5,9],[4,1],[6,-8],[12,0],[6,50]],[[4207,6720],[94,-20],[35,-6]],[[4336,6694],[18,-5],[0,-8],[0,-86],[-9,0],[-26,5],[-5,-1],[-13,-21],[-11,-4],[-4,4],[-3,7],[1,17],[-6,10],[-10,1],[-7,-4],[-14,0],[-5,-3],[0,-8],[-5,-52],[6,-34]],[[4112,6428],[-8,-125]],[[4104,6303],[-3,-44]],[[4101,6259],[-20,5],[-1,-2],[-3,-54],[-48,16],[-5,-78]],[[4024,6146],[-26,9],[-31,8],[-6,4],[-18,24],[-77,108],[-66,92],[-13,16],[-18,12],[-25,15]],[[4093,6128],[-23,2]],[[4070,6130],[-46,16]],[[4101,6259],[-8,-131]],[[4173,6392],[-3,-30]],[[4170,6362],[-20,10],[-5,-57],[-20,9],[-3,-33],[-7,8],[-11,4]],[[2906,5320],[6,39]],[[2912,5359],[21,-18],[10,65]],[[4207,6723],[0,-3]],[[4268,6916],[0,-15],[-4,0],[0,-11],[6,-6],[7,-41],[2,-2],[19,2],[-2,-30],[-7,5],[-3,-27],[-16,5],[-1,-8],[-5,3],[-3,-12],[7,-5],[15,1],[8,8],[27,-14],[22,4],[-5,-72],[1,-7]],[[4180,6958],[7,-6],[13,-18],[10,-7],[0,-4],[14,-4],[0,4]],[[3947,6978],[7,74],[28,-23],[9,1],[18,19],[12,-6],[7,6],[9,14],[27,9],[43,17],[4,2],[20,24],[6,4],[14,4],[13,17],[10,8],[15,4],[14,-3],[5,1],[6,15],[4,3],[8,-4],[10,-10],[1,2]],[[4342,7129],[14,-5],[19,-10],[32,-14],[14,6],[14,2]],[[4450,7182],[-4,65],[10,2],[-1,9],[1,23],[12,0],[-1,-17],[2,-11],[19,10],[2,11],[8,3],[30,2],[16,0],[16,-7],[16,-16],[9,-5],[10,-2],[14,-5],[9,-9],[8,-15],[2,-10],[5,-10],[0,-4],[-26,5],[-4,-21],[-8,-3],[-6,0],[-12,-9],[-8,1],[-4,-10],[-12,7],[-9,-6],[-24,-7],[-3,1],[-11,12],[-3,-4],[-5,-42],[18,-22],[7,7],[3,-1],[11,-20],[8,-7],[8,1],[4,-6],[9,-5],[14,5],[-7,-31],[1,-4],[-17,-103],[-15,-2],[-7,8],[-2,27],[2,10],[6,7],[-3,12],[-19,12],[-10,-8],[-16,-9],[-13,-10],[-7,0],[-10,5],[-12,10],[-6,-1],[-11,-8],[-20,-12],[-14,-10],[-19,-16],[-20,-20],[-16,-14],[-19,-1]],[[4145,6108],[-28,14]],[[4117,6122],[-24,6]],[[4170,6362],[-4,-38]],[[4229,6340],[-5,-1],[-12,-7],[-4,-4],[-5,2],[-7,13],[-1,12],[-11,28],[-11,9]],[[4243,6512],[7,-46],[-6,-41],[-10,-53],[-5,-32]],[[5266,5531],[-9,-29],[2,-8]],[[5259,5494],[-4,-6],[9,-35],[-54,-64]],[[5163,5585],[-14,55]],[[4229,6340],[2,-2],[9,-24],[9,0],[8,6],[5,7],[4,15],[7,16],[11,19],[6,1],[10,-4],[10,0],[15,-16],[-2,-7],[-5,0],[0,-13],[-9,-1],[-3,3],[-12,-25],[3,-23],[5,-8],[15,-12],[6,-2],[24,-19],[9,-2],[3,31],[6,36],[8,39],[5,35],[2,5],[20,-5],[-1,-30],[6,-14],[-13,-78],[-6,-30],[-18,-106],[-5,-33],[-46,19],[-8,-65],[-16,3],[-3,-21],[-3,-9],[-5,16],[-7,4],[1,12],[-13,8],[-10,22],[-19,4],[-3,-5],[-12,3],[1,11],[3,22],[4,18]],[[5409,5299],[-3,-4]],[[5406,5295],[-4,4],[-3,-18],[-17,17],[-6,0],[1,-42],[-28,-2],[0,-24]],[[5349,5230],[-8,17],[0,8],[-4,0],[-3,7],[0,32],[1,0],[0,22],[-1,17],[-6,-3],[-23,2],[-4,2]],[[5301,5334],[4,18],[-4,6]],[[5301,5358],[3,7],[6,-4],[2,4],[9,5],[6,-14],[11,-5],[5,-6],[6,2],[6,-6],[4,0],[6,-9],[9,3],[6,-1],[6,8],[3,-3],[2,-17],[3,-5],[7,-5],[8,-13]],[[4978,5851],[-37,3],[-43,-1],[-45,1],[-17,1]],[[4836,5855],[0,5],[-2,115],[30,-26],[11,0],[4,14],[6,-8],[12,-1],[6,18],[23,-12],[6,-13],[5,-4],[6,4],[17,29],[6,2],[3,25],[4,15],[8,3],[8,-5],[1,-11],[2,-9],[5,-4],[9,4],[1,10],[0,15],[2,9],[4,-5],[5,-15],[4,-1],[3,-10],[6,-1],[3,-6],[9,-6],[11,-21],[6,3],[-1,-14],[2,-26],[-1,-38],[9,-1],[-1,-44],[-90,6]],[[5097,5466],[4,52],[5,50],[9,37],[6,18],[3,18],[0,17],[-2,17],[-10,63],[-4,12],[-11,19],[-4,19],[-2,13],[1,40],[2,-1],[1,75],[11,0],[6,-9],[19,-2],[-2,-71],[-5,1]],[[4593,5585],[-22,-31],[-47,-70],[-8,-12],[-42,-34],[0,-7],[5,-97],[6,-111],[40,-8],[-12,-130],[-26,12],[-21,-3],[-44,44],[-5,31],[-5,36],[20,4],[-1,13],[-19,0],[-11,29],[-8,-17],[-10,9],[-1,-5],[-40,5],[32,81],[20,46],[4,11],[5,5],[22,15],[11,10],[-4,68],[21,13],[4,27],[55,60],[13,41],[11,13],[14,4],[0,-11],[8,-20],[31,51],[18,-51]],[[5301,5334],[-6,-6],[2,-7],[6,-1],[-3,-4],[-11,-8],[-5,-7],[-2,-5],[-9,-15],[-3,-10]],[[5270,5271],[-15,2],[-4,6],[0,17],[3,1],[11,0],[5,2],[2,10],[-7,14],[-10,7],[-16,1],[-1,9],[4,25],[-3,8],[-5,1],[-18,-18],[-17,-5],[-10,-11],[-1,-14],[5,-10],[-2,-7],[-5,-5],[-8,6],[-8,18],[-3,9],[-6,-1],[-7,-27],[-6,-10],[-10,-3],[-6,-5],[-4,-7],[-4,-17],[-8,-5],[-2,12],[-4,14]],[[5259,5494],[3,-7],[3,-19],[3,-7],[5,-21],[6,-21],[2,-13],[3,1],[3,-12],[-1,-2],[6,-10],[9,-25]],[[5349,5230],[1,-27],[26,-62],[4,-6],[10,-3],[-1,-12]],[[5389,5120],[-8,-1],[-8,3],[-9,8],[-12,5],[-14,31],[0,9],[1,12],[-1,7],[-18,16],[-13,23],[-7,8],[-2,8],[-5,3],[-3,-4],[-3,-29],[-4,-16],[-2,-6],[-4,3],[-4,14],[-7,16],[0,15],[1,4],[12,10],[-1,7],[-8,5]],[[5406,5295],[-3,-21],[2,-17]],[[5394,5121],[-5,-1]],[[5409,5299],[20,-14],[10,-9],[6,-3],[9,-15],[7,-10],[2,7],[4,-8],[9,-3],[7,24],[3,-2],[2,7],[27,19],[7,7],[16,12],[17,4],[2,-11],[7,-11],[9,-12],[-38,-123],[-12,-42]],[[3606,7045],[-2,-36],[-6,-85],[-1,-20],[9,-3],[2,-25],[-6,-52]],[[3481,7111],[16,1],[63,-23],[24,-7],[37,-13],[27,-9],[15,-2],[25,7],[5,0],[23,8],[28,12]],[[3450,7219],[55,-51],[37,-28],[18,-1],[36,32],[28,40],[32,35],[26,16],[30,-1],[23,-25],[18,-45],[19,-30],[13,-5],[6,14],[9,17],[19,7],[17,-1],[14,-12],[18,-6],[23,0],[27,7],[1,-17],[6,-11],[-2,-11],[-21,-5],[-68,-26],[-27,-9]],[[4070,6130],[-4,-66],[-2,-35],[0,-18]],[[3979,6025],[-1,24],[3,33],[2,11],[0,18],[-4,6],[-8,-14],[-4,-1],[-3,5],[-7,30],[-6,3],[-13,-10],[-5,-1],[-4,3],[-6,11],[-5,12],[-4,7],[-11,3],[-7,10],[-14,34],[-5,1],[-11,-5],[-10,-2],[-11,7],[-21,23],[-22,25],[-24,20],[-29,25],[-10,10],[-9,6]],[[4110,6011],[-11,22],[-6,4],[-14,-5],[-15,-21]],[[4117,6122],[-7,-111]],[[4187,6102],[1,-20],[-2,-2]],[[4186,6080],[-4,-10],[-3,-15],[-4,-9],[-6,3],[-9,20],[-10,12],[-6,-3],[-2,-20],[-1,-19],[-2,-12],[-10,-15],[-7,-7],[-6,0],[-6,6]],[[4943,4930],[-9,5],[-17,-1],[-8,-2],[-34,1]],[[4875,4933],[-82,0],[0,-19],[-48,2],[-4,-1],[-36,1],[-4,-1]],[[4701,4915],[-3,5],[-4,18],[1,7],[-7,11],[-4,17],[0,20],[4,13],[-2,10]],[[4854,5241],[0,-6],[-2,-18],[-12,-47],[-3,-25],[-11,-43],[-3,-15],[0,-21],[2,-25],[4,-10],[1,-10],[-2,-9],[-1,-24],[1,-4],[16,-14],[6,-3],[5,6],[18,37],[5,-3],[11,-19],[6,-6],[16,-13],[14,-2],[11,-20],[7,-17]],[[3282,5792],[1,2],[-30,12],[-30,86]],[[3302,5859],[5,-56],[1,-16]],[[4978,5851],[0,-34],[0,-28],[-1,-116],[-9,11],[-6,-2],[-4,8],[-7,3],[-2,-5],[-6,12],[-19,15],[-7,4],[-11,15],[-8,0],[-8,9],[-9,2],[-9,6],[-6,-2],[-3,3],[-12,-3],[-3,2],[-5,-5],[-7,-15],[-6,-2],[-16,15],[-9,5],[-6,-2],[-3,-5],[-8,0],[-9,-14],[-3,-26],[-5,2],[-11,-2],[-8,16],[-6,-7],[-10,-4],[-7,0],[-5,-2],[-7,5],[-3,24],[-2,4],[-21,1],[-19,6],[-12,-47],[6,-12],[4,-17],[1,-14],[-1,-13],[-3,-10],[-8,-14],[2,-11],[8,-3],[4,-4],[16,-26],[9,1],[12,18],[2,-5],[8,-8],[4,-8],[4,-18],[2,-2],[11,15],[0,5],[-12,11],[-1,11],[10,3],[6,-5],[5,1],[7,-4],[7,-7],[9,4],[5,13],[6,6],[5,0],[14,-21],[1,-9],[-8,-12],[-3,-12],[2,-18],[-1,-7],[-11,-6],[4,-27],[3,-7],[8,-16],[10,-13]],[[4612,5709],[6,9],[5,-4],[6,4],[2,6],[-1,18],[-2,13],[-8,22],[-15,14],[1,8],[-7,9],[4,47],[-18,13],[-2,0],[-6,11],[-17,2],[-6,3],[-3,15],[-5,15],[-11,17],[-10,5],[-32,-147],[-11,-54],[-27,5],[-2,-2],[-38,8],[-10,107],[1,2],[8,-7],[3,1],[8,23],[10,-2],[-14,27],[-5,2],[-5,-5],[-6,-1],[-8,14],[-9,1],[10,99],[9,74],[11,-6],[39,-23],[2,-19],[5,-6],[5,0],[5,4],[3,9],[64,-39],[56,-41],[23,-19],[63,-50],[9,-8],[6,37],[14,53],[43,-39],[-7,-40],[7,1],[9,22],[7,-3],[3,-7],[0,-47],[62,-5]],[[4875,4933],[1,-38],[0,-100],[1,-58],[0,-43],[0,-37],[0,-54],[0,-42]],[[4877,4561],[-7,4],[-6,1]],[[4864,4566],[4,40],[-3,25],[1,18],[-3,15],[3,8],[-5,21],[-3,12],[-13,22],[-11,28],[-6,8],[-15,34],[-5,7],[-5,12],[-9,10]],[[4722,4867],[-5,4],[-2,11],[-9,23],[-5,10]],[[4943,4930],[10,-37],[2,-3],[11,-43],[-8,-21],[-5,-23],[-11,-45],[-6,-26],[-8,-29],[-5,-13],[-8,-36],[0,-7],[-6,-25],[-2,-74],[-22,10],[-8,3]],[[3371,5857],[0,-21]],[[3370,5763],[0,-33]],[[4793,4604],[-1,-17],[0,-28],[-14,8],[-14,0],[-4,8],[-7,4],[-7,-4],[-10,7],[-15,4],[-2,2],[-15,0],[-10,-3],[-8,2]],[[4686,4587],[-21,3],[-3,3],[-12,37],[-7,14]],[[4611,4710],[-1,54]],[[4610,4764],[11,1],[38,-2],[36,-2],[29,0],[70,2],[1,-42],[-1,-5],[0,-94],[-1,-18]],[[4864,4566],[-19,-1]],[[4845,4565],[0,32],[-1,5],[-51,2]],[[4610,4764],[0,49],[24,5],[0,-3],[48,0],[-1,19],[2,2]],[[3332,6293],[-18,6],[-21,17],[-30,23],[-9,2],[-19,-3]],[[3235,6338],[12,151]],[[3207,5939],[-11,33]],[[3234,6334],[1,4]],[[3444,5951],[-1,-26],[-30,38],[-41,53]],[[3447,6053],[-3,-80],[0,-22]],[[3499,5943],[-55,8]],[[3509,5984],[-1,-43],[-9,2]],[[3730,6319],[-3,-11],[-33,-205],[-9,-59],[-7,-45],[-12,-73],[-19,-122]],[[3647,5804],[-39,32],[-8,5],[-17,3]],[[3567,5846],[2,48],[2,54]],[[3497,5858],[2,85]],[[3203,5608],[-52,149],[-8,26],[-22,61]],[[3208,5867],[6,-18],[-11,-19],[12,-35],[8,-8],[5,-17],[8,17],[5,-2],[5,10],[7,2],[4,-4],[-2,-19],[6,-10],[3,3],[-1,12],[7,7],[7,1],[5,5]],[[3497,5711],[0,-36],[-11,-1],[-1,-21],[-42,0],[-2,-6],[-12,-17]],[[3429,5630],[-9,17],[-5,5],[-8,2],[-1,13],[2,15],[-3,3],[-8,0],[-3,42],[-3,3],[-21,0]],[[3429,5630],[-14,-24],[-56,-99]],[[3493,5493],[-5,-15],[-3,4],[-16,2],[-6,3],[-15,23],[-55,-98],[-34,95]],[[3429,5630],[5,-18],[4,-21],[11,-13],[4,-7],[3,-12],[3,-30],[5,-16],[7,-9],[13,-4],[9,-7]],[[3493,5493],[6,-10],[5,-13],[0,-12],[-3,-17],[0,-15],[3,-17],[9,-16]],[[3513,5393],[-46,-90],[-26,-53],[-32,-62],[-14,-30],[-14,-24]],[[3381,5134],[-21,35],[-15,31],[-10,25],[-8,21],[-44,128]],[[4070,4918],[-8,-3]],[[4062,4915],[-19,-6]],[[4043,4909],[-10,239],[-2,5]],[[4031,5153],[7,8],[6,2],[8,-2],[7,4]],[[4059,5165],[6,-121],[5,-126]],[[4100,4927],[-30,-9]],[[4059,5165],[8,13],[5,2],[9,-7],[5,-12],[1,-15],[-4,-20],[1,-7],[11,-28],[6,-2],[5,26],[8,19],[6,18],[11,10],[0,10],[-3,8],[-2,11],[1,10],[7,18],[6,3]],[[4140,5222],[9,-39],[1,-12],[-1,-9],[-6,-17],[-1,-12],[2,-8],[5,-3],[7,2],[7,-10],[3,-18],[0,-10],[2,-12],[6,-4],[13,4],[10,10],[7,15],[5,5],[7,24],[9,16],[7,0],[9,-7],[11,-15],[6,5],[3,9],[5,-19],[-15,-17],[-67,-79]],[[3900,5158],[-2,-12]],[[3814,4885],[-39,-16],[-31,-12],[-13,-4],[-25,-11],[-11,-9]],[[3695,4833],[-1,6],[-24,-12],[-22,0],[-2,3],[24,66],[-47,80],[-5,7],[-5,-12],[-12,-23],[0,-6],[-11,-14],[10,-16],[-30,-86],[-12,0]],[[3558,4826],[-21,38]],[[3537,4864],[-37,65],[-49,86]],[[3451,5015],[-25,44],[-45,75]],[[3513,5393],[10,-20],[53,-107],[14,-31],[7,-36],[3,-25],[6,-16],[13,-27],[11,-18],[13,-12],[11,-15],[9,-6],[8,-12],[8,-2],[6,3],[8,-1],[11,-5],[16,-2],[10,-7],[7,4],[4,16],[5,10],[9,13],[7,2],[7,7],[5,12],[6,34],[7,14],[7,4],[17,0],[3,8],[0,28],[-5,9],[1,12],[2,11],[3,3],[6,12],[6,1],[14,-5],[3,-8],[-1,-9],[-5,-14],[0,-11],[19,-43],[4,-1],[22,9],[9,-3],[8,-11]],[[3695,4833],[-18,-21],[-55,-67],[-10,-15]],[[3612,4730],[-27,49],[-27,47]],[[4043,4909],[-33,-10],[-11,-1]],[[3999,4898],[0,85],[-2,60],[-8,1],[1,50],[-16,2],[-4,-189]],[[3970,4907],[-43,17],[-9,2],[-9,-2],[-27,-13]],[[3900,5158],[5,-1],[9,3],[14,7],[12,-2],[19,5],[5,-5],[8,-25],[4,-14],[3,-4],[8,2],[8,-4],[7,4],[3,6],[2,16],[5,2],[7,-4],[5,2],[7,7]],[[3999,4898],[-4,0],[-25,9]],[[3974,5663],[-42,-4],[-16,-4],[-49,-23],[-8,-2],[-9,3],[-38,31],[-71,61],[-63,53],[-13,-74],[-29,30]],[[3636,5734],[11,70]],[[4186,6080],[0,-83],[0,-12],[-2,-57],[-1,0],[-2,-86],[-3,-65]],[[4062,4915],[16,-165],[1,-16]],[[4075,4620],[-13,1],[-15,18],[-12,26],[-6,32],[-4,37],[-14,48],[-14,69],[-9,13],[-8,0],[-5,-3],[-8,-12],[-25,-83],[-19,-30],[-18,-15],[-7,-4],[-20,-5],[-12,2],[-14,8],[-21,3],[-12,-5],[-10,-8],[-10,-15],[-24,-1],[-14,9],[-16,16],[-8,14],[-45,52],[-11,2],[-10,-2],[-8,-10],[-7,-15],[-2,-16],[-4,-43],[0,-30],[-2,-9]],[[3648,4664],[-36,66]],[[3169,6424],[12,9],[27,46],[3,31],[-4,13]],[[3564,5494],[-30,72],[-37,85],[-12,0],[-5,-66],[18,-62],[8,-17],[1,-22],[18,-67]],[[3525,5417],[-12,-24]],[[3636,5734],[-14,-88],[-6,-30],[-7,-23],[-7,-21],[-9,-21],[-29,-57]],[[3564,5494],[-39,-77]],[[2713,6270],[-2,27],[-2,0],[-6,49]],[[2826,5916],[-3,-16],[-6,-30],[-16,-48]],[[2801,5822],[-7,8],[-6,4],[-5,11],[-4,2],[-7,15],[-8,9],[-9,7],[-11,2],[-16,-5],[-3,5],[-2,19],[-4,5],[-9,-9],[-8,17],[-7,5],[-10,-4],[-4,2],[-5,19],[-17,21],[-6,14],[-5,7],[-7,2],[-12,-4],[-13,10],[-5,8],[-6,21],[-6,10],[-4,1],[-8,-7],[-12,-12],[-2,-1],[-6,19],[-4,12],[-5,2],[-8,-6],[-8,2],[-8,7],[-10,3],[-9,22],[-6,6],[-15,1],[-6,6],[-9,19],[-8,3],[-11,-3],[-5,2]],[[2455,6099],[17,25],[-1,3],[-25,6],[10,60]],[[2456,6193],[24,-18],[0,-3],[42,-31]],[[2456,6193],[-19,13],[14,91],[6,38]],[[3121,5844],[-12,-21],[-18,-28]],[[3012,5832],[-19,56],[17,4],[-9,27]],[[3001,5919],[24,18],[14,1],[37,6],[0,29]],[[2942,5960],[-1,-1],[5,-18],[-2,-2]],[[2944,5939],[-2,6],[-11,8],[-4,10],[-5,5],[-4,10]],[[3011,5779],[-21,16]],[[2990,5795],[-72,53],[-14,10]],[[2944,5939],[-1,-2],[4,-17],[4,-5],[13,-5],[10,-22],[11,-18],[14,-21],[5,-11],[3,-13]],[[2990,6040],[7,-21],[4,8],[23,-52],[-13,-28],[3,-4],[-5,-3],[-10,-16],[2,-5]],[[2801,5822],[-4,-19],[-4,-30],[-4,-61]],[[2781,5613],[-5,-61]],[[2776,5552],[-5,-42],[-6,-34],[-16,-77],[-14,-48]],[[2735,5351],[-25,-26],[-111,-72],[-10,-2],[-5,5],[-21,23],[-7,12],[-31,52],[-24,-69],[-4,-4],[-16,4],[-6,-8]],[[2475,5266],[-7,11],[-4,23],[-8,24],[-5,24],[-1,18],[-1,5],[-9,-10],[-4,2],[-3,14],[-7,23],[-5,10],[-1,16],[-4,18],[2,14],[-3,14],[-8,-1],[-5,5],[0,11],[-4,14],[-5,5],[-2,9],[-5,9],[-6,5],[-6,0],[3,14],[4,7],[1,14],[-5,7],[-8,-6],[-3,9],[-1,13],[-8,13],[-7,1],[-9,36],[1,12],[-2,14],[-5,13],[-15,8],[-5,7],[-10,3],[-7,-8],[-2,-9]],[[2296,5677],[1,19],[-1,9],[-6,15],[-3,21],[1,5],[12,17],[5,2],[21,0],[-1,5],[26,38],[-23,190],[-11,100],[-7,57],[8,13],[11,4],[4,-1],[6,-10],[2,-13],[3,-9],[5,0],[6,19],[5,5],[3,-3],[2,-13],[-3,-24],[2,-7],[8,3],[8,14],[5,4],[8,-18],[3,-6],[5,-1],[21,7],[8,-5],[7,-12],[7,3],[7,-1],[4,-5]],[[2884,5360],[-41,72],[-32,57],[-28,50],[-7,13]],[[2934,5493],[-22,-134]],[[2984,5540],[-15,8],[-4,4],[-3,23],[4,20],[0,7],[-7,30]],[[2959,5632],[3,8],[8,39],[20,116]],[[2677,5150],[-2,-4],[-33,-39],[-7,-5],[-20,-4],[-7,-6],[-7,-16]],[[2601,5076],[-5,-9]],[[2596,5067],[-20,30],[-10,23],[-14,4],[-7,7],[-1,19],[-5,11],[-1,11],[1,8],[0,19],[-3,9],[-4,-1],[-4,-15],[-3,-3],[-6,2],[-1,22],[-2,11],[-5,15],[-6,11],[-12,-1],[-7,4],[-11,13]],[[2735,5351],[-7,-41],[-18,-64],[-12,-46],[-10,-29],[-11,-21]],[[2949,5681],[-10,41],[-6,14],[-5,6],[-13,-13],[-5,0],[-9,13],[-12,-7]],[[2889,5735],[-9,-3],[-7,5],[-4,28],[-4,5],[-7,1],[-7,6],[-3,7],[-4,18],[-7,3],[-9,-7],[-5,-1],[-22,25]],[[2904,5858],[-7,-42],[20,-16],[29,-20],[-3,-23],[11,-50],[-5,-26]],[[2959,5632],[-6,34],[-4,15]],[[2959,5632],[-6,-19],[-8,-50]],[[2857,5684],[3,23],[4,-2],[4,24],[19,-16],[3,16],[-1,6]],[[3648,4664],[-1,-19],[-6,-34],[-7,-23],[-13,-21],[-8,-10],[-20,-21],[-16,-12],[-8,-4],[-10,-1],[-24,8],[-16,11],[-19,21],[-18,15],[-35,17],[-13,4],[-11,0],[-17,-9]],[[3406,4586],[0,79],[22,0],[9,1],[0,9],[-1,64],[55,68],[22,29],[24,28]],[[3241,5496],[-73,-126],[-12,-39]],[[3109,5362],[-27,3],[-26,3],[-20,-3]],[[3036,5365],[-4,8],[1,19],[5,20],[-1,17],[-4,19]],[[3139,5275],[-2,-7]],[[3137,5268],[-2,-14],[-4,-11],[-3,5],[-12,3],[-1,13],[-22,1],[-7,31],[-16,1],[-2,-1]],[[3068,5296],[-13,41],[-5,12],[-14,16]],[[3137,5268],[18,-51]],[[3155,5217],[25,-73],[-3,-14],[-2,-24]],[[3175,5106],[-6,-2],[-4,4],[-5,17],[-2,11],[-8,35],[-3,3],[-14,-4]],[[3133,5170],[-12,3],[-16,8],[-5,11],[-5,30],[-4,15],[-8,16],[-4,20],[-9,15],[-2,8]],[[3270,5411],[-21,-38],[-30,-48],[-30,-52],[-34,-56]],[[3252,5023],[0,18],[-3,9],[-10,15],[-11,4],[-6,11],[-2,17],[-3,9],[-3,3],[-13,-10],[-19,8],[-7,-1]],[[3381,5134],[-17,-34],[-10,-16],[-11,-12],[-9,-5],[-44,-19],[-38,-25]],[[3406,4586],[-11,-32],[-9,-14],[-12,-3],[-9,4],[-13,19],[-9,20],[-5,14],[-14,34],[-12,11]],[[3312,4639],[-3,27]],[[3309,4666],[12,-3],[11,1],[-5,39],[-3,-1],[-2,16],[8,2],[37,-1],[1,-1],[23,0],[-6,45],[-4,15],[-15,6],[-14,-10],[-10,3],[-4,5],[-27,8],[-2,5],[-3,22],[45,40],[29,26],[5,-2],[3,-7],[9,-8],[5,8],[8,3],[5,8],[9,21],[1,13],[2,26],[1,23],[22,42],[1,5]],[[3309,4666],[-1,31],[2,23],[-2,15],[-8,30],[-12,13],[-8,15],[-4,19],[-5,30],[-4,35],[1,20],[-2,10],[-5,13],[0,22],[-3,18],[-1,33],[-5,30]],[[3133,5170],[-4,-12]],[[2897,5145],[-3,-20],[3,-15],[-8,-6],[4,-21],[3,-7],[6,-8],[2,-11],[5,-5],[3,-16],[8,-31],[12,-38],[6,-10],[-3,-8],[2,-18]],[[2937,4931],[-1,-26],[4,-10],[10,-7],[10,-10],[4,-17],[12,-12],[4,-7]],[[2980,4842],[-14,-8],[-22,-2],[-16,4],[-14,11],[-17,18],[-58,68],[-70,80],[-10,14],[-36,58],[-15,18],[-25,40],[-6,7]],[[2964,5080],[15,-122],[-36,-21],[-6,-6]],[[3040,5015],[15,-124]],[[3055,4891],[-70,-46]],[[2985,4845],[-5,-3]],[[3231,4568],[-30,-15],[-18,1],[-13,-4],[-13,-8],[-11,-8],[-5,-8],[-11,-29],[-1,-8],[0,-24]],[[3129,4465],[-3,0],[-3,-27],[3,-56],[0,-15],[2,-21],[6,-36],[1,-17],[-5,-20],[-15,-18],[-4,-3],[-7,3],[-6,8],[-11,10],[-13,1],[-12,4],[-12,10],[-12,4],[-8,25],[-50,-18],[-34,-14],[-4,42],[-5,62],[52,35],[-5,48],[43,22],[-14,133],[75,39],[19,9],[1,-5],[45,22],[2,7]],[[3155,4699],[7,-2],[5,-6],[10,-21],[7,-7],[12,-8],[8,-38],[5,-8],[8,-5],[8,0],[6,-12],[0,-24]],[[2985,4845],[5,-19],[3,-2],[11,3],[4,-3],[5,-14],[4,-5],[15,2],[7,-3],[9,-9],[11,-17],[7,-26],[3,-6],[8,4],[7,11],[7,9],[12,4],[20,1],[3,-3],[1,-7],[-2,-24],[5,-17],[3,-1],[9,10],[3,-1],[3,-9],[2,-19],[5,-5]],[[3129,4465],[4,-41],[5,-20],[11,-29],[7,-29],[5,-33],[1,-18],[-3,-33],[-4,-14],[-5,-14],[-10,-15],[-7,-5],[-9,1],[-23,11],[-35,28],[-15,8],[-15,3],[-15,-5],[-19,-9],[-23,-18],[-10,-10],[-14,-16]],[[2955,4207],[-19,-17],[-20,-5],[-5,2],[-6,-2]],[[2905,4185],[-3,18],[3,35],[-3,12],[-8,10],[-3,13],[0,12],[5,35],[-3,23],[1,31],[1,16],[-4,16],[-3,3],[-8,-4],[-6,8],[2,13],[4,26],[1,17],[-2,9],[2,53],[3,24],[1,11],[-4,27],[-26,31],[-9,-1],[-6,2],[-7,8],[-4,11],[-8,17],[-6,6],[-4,10],[-1,24],[-10,2],[-2,3],[-2,22],[-5,1],[-7,-6],[-6,1],[6,19],[-1,7],[-6,6],[-13,3],[-4,7],[-4,42],[-2,9],[-3,1],[-7,-10],[-3,5],[2,31],[0,16],[-3,16],[-5,3],[-8,-2],[-13,6],[-13,12],[-3,8],[-3,25],[-2,13],[-12,28],[-4,28],[-3,12],[-13,7],[-14,20],[-6,5],[-15,6],[-10,14],[-9,7],[-6,8]],[[3312,4639],[-10,0],[-18,-14],[-11,-16],[-15,-18],[-23,-22],[-4,-1]],[[3055,4891],[21,15],[33,22]],[[3109,4928],[8,-48],[2,-11],[3,-1],[34,-41],[11,-76],[3,-20],[13,-20],[2,0],[15,34],[12,-21],[7,-12],[23,-26],[3,-15],[3,-1],[16,12],[14,1],[14,-12],[10,-15],[1,-7],[9,-10]],[[3109,4928],[45,30],[61,40],[37,25]],[[3111,3712],[-15,-23],[-18,-16],[-16,-3],[-16,12],[-9,3],[-9,8],[-14,5]],[[3014,3698],[-11,88],[-2,21],[-17,154],[-13,105],[-6,53],[-10,88]],[[3648,4664],[14,-25]],[[3662,4639],[-10,-30],[-18,-67],[-3,-8],[-6,-10],[6,-18],[-1,-2],[44,-112],[7,-23],[-11,-18],[-5,-4],[-13,-15],[-28,92],[-24,82],[-1,5],[-49,-4],[-14,-2],[-20,-4],[-8,-3],[-23,-20],[-8,-10],[-24,-47],[-27,-56],[-10,-9],[-10,-2],[-11,-6],[-24,-31],[-26,-39]],[[3305,3399],[-2,14],[-20,118],[-8,45],[-15,72],[-12,49],[-5,21],[-9,41],[-13,54],[-14,66],[1,11],[5,4],[-5,6]],[[3399,3934],[3,-15],[20,-6],[1,1],[10,39],[9,22],[18,27],[4,-12],[17,15],[61,-152],[18,-44],[15,-36],[-7,-8],[-4,-10],[-6,-4],[-1,4],[-5,23],[-14,11],[-2,-2],[-1,-15],[-8,-17],[-18,-31],[-11,-14],[-12,-8],[-6,-8],[-5,-12],[-2,-14],[-2,-7],[-8,-11],[-11,-11],[-8,-12],[-5,6],[-27,-37],[-6,-22],[-7,-29],[-3,-16],[-5,-13],[-20,-18],[-6,-9],[-8,-16],[-17,-46],[-12,-28],[-8,-3],[-15,3]],[[3014,3698],[5,-50],[9,-74],[16,-138],[5,-38],[-33,-37],[-36,-38],[-8,-13],[-10,-20],[-22,-42],[-8,-15],[-20,-67],[-17,-66],[-21,-71],[-15,-50],[-2,-6],[-18,64],[-14,66],[-13,49],[-9,38],[-23,89],[-39,159],[-1,8],[-23,91],[-7,25],[-41,158],[7,12],[4,19],[8,18],[12,-2],[6,-7],[16,-3],[4,3],[3,11],[8,-2],[10,8],[10,5],[8,-5],[12,-14],[8,-10],[13,3],[9,6],[17,-2],[9,16],[21,66],[3,22]],[[2886,3980],[-6,30],[-3,12],[-6,32],[-2,24],[0,30],[2,18]],[[2871,4126],[6,23],[9,19],[7,8],[12,9]],[[3305,3399],[3,-37],[-3,-34],[5,-3],[91,15],[174,-557],[-5,-1],[-9,4],[-6,8],[-10,18],[-7,7],[-9,3],[-14,2],[-9,3],[-38,93],[-15,38],[-10,25],[-21,54],[-17,42],[-22,55],[-19,48],[-31,81],[-19,-25],[-36,-57],[-10,-12],[-3,1],[-5,14],[-23,84],[-11,38],[-4,17],[-7,25],[-13,42],[-26,91],[-28,98],[-26,97],[-11,36]],[[2319,4356],[-3,-24]],[[2316,4332],[-8,3],[-23,2],[-6,-2],[-15,-13],[-18,-8],[-12,2],[-11,5],[-11,-2],[-8,-6],[-13,-20],[-6,-14],[-7,-11],[-5,1],[-6,9],[-5,12],[-8,12],[-8,9],[-16,10],[-10,2],[-12,-5],[-6,0],[-9,11],[-1,6]],[[2092,4335],[6,27]],[[2098,4362],[7,-10],[9,-4],[4,1],[33,47],[43,21],[8,2],[15,0],[10,-4],[11,-10],[5,-8],[28,-31],[12,-11],[13,-2],[23,3]],[[1969,2545],[-1,-150]],[[1968,2395],[-16,1],[-13,9],[-7,12]],[[1969,2609],[0,-64]],[[2596,5067],[-8,-36],[-5,-16],[-8,-19],[-29,-50],[-27,-54]],[[2361,5433],[-2,8],[-3,36],[-7,-2],[-5,70],[8,3],[-3,14],[-22,64],[-6,39],[-5,12],[-3,4],[-12,-1],[-5,-3]],[[2417,4697],[-23,-68]],[[2394,4629],[-7,13],[-3,16],[-4,11],[-3,0],[-6,-7],[-9,-7]],[[2362,4655],[3,8],[-24,30],[5,6],[-7,4],[-5,8],[1,-10],[-7,5],[-13,13],[1,14],[-2,7],[-6,4],[-2,12],[2,4],[-16,36],[-4,29],[-4,6],[-6,0],[-3,5],[-1,10],[6,17],[-3,19],[3,6],[0,13],[8,9],[5,-3],[5,-14],[7,-2],[4,4],[3,13],[2,16],[12,-21],[4,11],[11,9],[0,20],[14,-1],[6,-4],[9,-16],[4,0],[4,-7],[2,-30],[-5,-20],[2,-18],[9,-18],[4,-42],[3,-15],[-4,-23],[0,-9],[6,-1],[1,-7],[5,-6],[8,-19],[8,-10]],[[4845,4565],[-13,-17],[-5,-13],[-15,-28],[-16,-24],[-7,-6],[-8,-2],[-16,1],[-17,3],[-12,-2],[-6,-4],[-22,-24],[-10,-6],[-11,-2]],[[4687,4441],[-1,66],[0,80]],[[2871,4126],[-16,-11],[-9,0],[-24,17],[-14,13]],[[2808,4145],[-2,10],[1,18],[-1,40],[-4,19],[-8,11],[-6,-1],[-9,-22],[-5,-5],[-6,0],[-6,11],[0,17],[3,9],[1,20],[-1,18],[-4,3],[-8,-4],[-10,2],[-12,22],[-4,14],[0,8],[2,23],[-1,11],[-8,15],[-5,-1],[-13,-12],[-7,-12],[-6,-19],[-6,-13],[-8,-11],[-12,-6],[-1,5],[0,19],[2,9],[6,10],[1,14],[-2,14],[-2,1],[-13,-9],[-7,4],[-8,-7],[-4,-13],[-1,-11],[-5,-22],[-7,2],[-8,14]],[[2498,4442],[-3,-5],[-2,4],[-3,14],[-4,1],[-5,-17],[-2,7],[-2,26],[-2,13],[3,29],[-4,3],[-10,-11],[-1,7],[-6,14],[-3,1]],[[2429,4530],[-4,10],[-5,2],[-7,8],[-13,6],[-3,10],[1,36],[-1,17],[-3,10]],[[2417,4697],[3,10],[11,26]],[[2808,4145],[-8,2],[-6,-3],[-6,-7],[-2,-7],[0,-11],[10,-20],[6,-20],[1,-16],[-3,-9],[-5,-11],[-8,-3],[-9,-7],[-6,-2],[-10,16],[-9,4],[-11,-8],[-5,-23],[-2,-19],[-8,-26],[0,-10],[3,-29]],[[2730,3936],[-4,-9],[-16,-1],[-17,3],[-20,-5],[-15,4],[-6,5],[-8,15],[-3,18],[-6,19],[-5,10],[-15,13],[-24,13],[-4,5]],[[2394,4629],[-11,-33],[-25,-89],[-19,-75],[-17,-65],[-3,-11]],[[2098,4362],[1,6],[5,-2],[3,10],[2,24],[4,9],[2,12],[0,12],[5,20]],[[2149,4491],[-5,-13],[-5,7],[-6,-25],[5,-12],[-1,-6],[-5,3],[-2,-18],[-7,-36],[-11,-34],[6,-6],[-1,11],[13,17],[-1,3],[17,22],[-2,4],[4,7],[-3,7],[5,4],[0,25],[12,-4],[11,1],[2,-6],[11,-2],[-1,13],[21,21],[2,-21],[8,6],[0,14],[18,1],[1,-7],[6,-1],[0,-4],[6,-1],[3,10],[7,-6],[10,-26],[20,-15],[1,9],[6,37],[3,-2],[-6,22],[-6,11],[-10,6],[-14,5],[-4,6],[-1,21],[8,28],[6,17],[7,-1],[10,2],[12,8],[13,-5],[19,-5],[8,-4],[5,1],[2,43],[0,17],[-1,20],[10,-5],[7,0]],[[2427,4504],[-15,-91],[-8,7],[-10,-39],[16,-21],[-28,-106],[9,-5],[3,-16]],[[2238,4010],[-14,-54]],[[2224,3956],[-10,11],[4,14],[3,24],[-6,-1],[-5,7],[-11,20],[-7,-2],[1,-11],[-17,-5],[-1,10],[10,3],[4,42],[1,-1],[4,27],[-8,17],[2,11],[-3,2],[-3,-7],[-10,1],[-9,10],[-12,7],[-9,9],[-6,16],[-4,6],[-9,18],[-9,4],[-5,-1],[-9,-6],[0,8],[-5,-1],[-25,24],[-1,11],[7,31],[7,1],[27,-9],[-2,8],[-12,15],[-5,9],[-10,22],[-5,5],[3,27],[-7,12],[-10,1],[-4,3],[-1,12],[8,8],[7,-6],[10,-14],[10,-13]],[[1992,2372],[-9,4],[-15,11],[0,8]],[[1969,2545],[7,8],[2,10],[6,12],[6,-3],[10,6],[8,0],[7,8]],[[2015,2586],[4,-18],[-1,-43],[-6,-53],[-3,-11],[-9,-23],[-3,-13],[-3,-29],[-1,-4],[-1,-20]],[[2660,3759],[-8,-3],[-9,-6],[-23,-21],[-21,-2],[-11,0],[-8,-3],[-16,-16],[-8,-16],[-9,-25],[-17,-17],[-20,-8],[-9,1],[-8,43],[-8,19],[-5,4],[-11,16]],[[2469,3725],[12,-5],[3,9],[-5,11],[4,16]],[[2498,4044],[31,-36],[2,-5],[7,-36],[1,-20],[0,-20],[-2,-71],[14,-4],[9,-9],[11,-18],[7,-1],[-3,-11],[5,-17],[10,-20],[4,-4],[9,13],[7,-1],[19,-14],[17,4],[5,-2],[7,-8],[2,-5]],[[2469,3725],[-16,21],[-13,15],[-18,17],[2,11],[-13,18],[-4,8],[-6,5],[-17,31],[-10,34],[-10,-36],[-1,-9],[-11,-2],[-11,5],[-8,7],[-3,-4],[-12,-41],[-15,-1],[-8,-8],[1,-5],[-7,-48],[-9,5],[-4,7],[-9,23],[-8,13],[-21,14],[-6,6],[-6,12],[-12,32],[-14,16],[-2,-8]],[[2127,3639],[-20,37],[-5,-1]],[[2102,3675],[-3,1],[-4,10],[-3,15],[-8,0],[-15,20],[-3,27],[4,10],[3,1],[18,31],[7,8],[6,-2],[2,-10],[6,-5],[17,16],[7,14],[1,9],[-3,16],[1,13],[6,13],[6,7],[10,0],[7,13],[-6,7],[-3,9],[-6,-9],[-7,2],[-8,14],[-42,16],[-23,32],[-7,5],[-7,-2],[-9,6],[-7,-3],[-6,3],[-2,-9],[-8,3],[-10,-5],[-4,-11],[-6,1],[-26,15],[1,16],[-9,11],[-8,6],[1,8],[6,-1],[-2,8],[4,-1],[18,4],[19,16],[4,1],[4,-6],[4,-13],[4,-9],[3,10],[6,-9],[9,-6],[17,-7],[6,-6],[2,-15],[8,2],[4,-6],[3,-14],[5,-7],[9,0],[6,2],[6,-13],[1,12],[8,-5],[8,9],[8,-2],[4,7],[5,-3],[0,-8],[-7,-2],[-8,-10],[-6,-2],[-2,5],[-7,-8],[8,-2],[5,-4],[7,-1],[21,5],[2,4],[9,-2],[3,3],[-1,6],[12,8],[8,-2],[7,-17],[7,-8],[8,3],[8,7],[9,36]],[[2104,3334],[-7,8],[-11,5],[-6,-5],[-3,-7],[-8,-31],[-1,-18]],[[2068,3286],[-12,-1],[-7,-32],[-6,-21],[-8,-14],[-13,-18],[-8,21],[-3,-4],[-1,10],[-7,20],[-4,18],[-2,17],[1,26],[3,20],[0,12],[-1,42],[-2,11],[91,160],[17,32],[17,43],[4,11]],[[2144,3594],[14,-31],[3,-10],[-9,-10],[-9,0],[-7,-4],[-4,4],[-10,-18],[7,-26],[7,-25],[6,-31],[4,-13],[-7,-21],[-4,-11],[-16,-25],[-6,-12],[-9,-27]],[[2015,2877],[-3,-11],[-12,-70],[0,-9],[0,-66],[2,-38],[3,-22],[8,-49],[2,-26]],[[1971,2828],[0,51]],[[1971,2879],[44,-2]],[[2730,3936],[6,5],[5,-20],[8,-17]],[[2784,3842],[-13,-24],[-12,-12],[-25,-10],[-18,-1],[-25,-7],[-11,-6],[-20,-23]],[[4687,4441],[-6,1],[-15,18],[-8,14],[-16,38],[-6,10],[-12,16],[-13,12],[0,135]],[[2068,3286],[-1,-24],[-3,-19],[-6,-23],[-5,-15],[-5,-8],[-19,-15],[2,-13],[0,-21],[-17,-5],[1,-33],[-15,-7],[4,-19],[1,-31],[3,0],[3,-25]],[[2022,2924],[-2,-6],[0,-16],[-5,-25]],[[1971,2879],[1,82],[0,70],[1,137]],[[1973,3168],[0,24],[-3,11],[-31,97],[-18,-31],[-36,-57],[-9,25],[0,11],[-9,36],[-2,29],[-3,10]],[[1862,3323],[-3,14],[1,10],[3,8],[11,8],[8,14],[9,30],[3,17],[19,30],[4,0],[7,13],[-6,10],[-7,16],[-3,19],[4,7],[8,5],[6,0],[9,-3],[14,9],[6,1],[12,13],[3,-8],[11,13],[5,-19],[23,25],[32,43],[2,7],[10,10],[8,16],[12,2],[14,-2],[2,5],[2,18],[4,6],[2,10],[5,5]],[[2273,3307],[0,-6],[-20,-22],[-3,13],[-1,-4],[-12,-19],[-10,-20],[-5,-13],[-9,-51],[-1,-3],[9,-42],[-1,-1],[15,-75]],[[2235,3064],[-3,-1],[13,-67],[4,-21],[-24,1],[0,20],[-48,4],[-1,-33]],[[2104,3334],[15,-30],[9,-15],[6,-5],[8,-2],[10,2],[7,7],[6,9],[7,30],[4,23],[6,37],[2,10],[7,13],[5,7],[18,9],[9,2],[23,-2],[26,1],[10,2],[9,6],[-24,-101],[7,-30],[-1,0]],[[2273,3307],[17,-76],[29,-126],[-35,-18],[-49,-23]],[[1875,2970],[5,17],[5,21],[4,35],[7,46],[5,27],[5,16]],[[1906,3132],[3,-6],[7,-8],[-2,-45],[-2,-243]],[[1906,3132],[11,24],[12,21],[11,12],[12,3],[6,-6],[6,-12],[9,-6]],[[51,1302],[7,-18],[10,-20],[0,-4],[21,-45],[21,-42],[1,0],[14,-29],[6,-10],[12,-26],[10,-16],[0,-20],[-6,-2],[-14,1],[-1,-2],[-2,-60],[-21,4],[-5,-1],[-11,20],[-6,6],[-6,2],[-5,6],[-14,10],[-8,8],[-10,18],[-17,5],[-3,29],[-24,-4],[0,41],[27,2],[-8,37],[-8,50],[-9,41],[5,10],[6,4],[14,13],[9,21],[10,-22],[5,-7]],[[2150,1963],[-9,50],[-4,22],[-1,4],[-4,21],[-15,75]],[[2117,2135],[8,8],[0,2],[21,20],[-12,36]],[[2134,2201],[5,3],[26,-1],[26,-5],[33,-8],[21,-7],[-3,-17],[2,-42],[0,-15],[-3,-4],[-16,-14],[-1,-17],[-4,-9],[-5,-24],[-5,-19],[-4,-26],[-9,-41],[-5,-11],[-8,-4],[-33,24],[-1,-1]],[[1992,2372],[1,-5],[0,-30],[-1,-25],[-7,-35],[-9,-34]],[[1976,2243],[-2,-6],[33,-88],[4,-18],[5,-13]],[[2016,2118],[-19,-31],[2,-5],[-22,-20],[-9,47],[-6,39],[0,3],[-18,6],[-3,-1],[-16,-19],[0,51],[1,20],[-38,-39],[-25,-21]],[[1863,2148],[-5,14],[-6,25],[-6,42],[-9,56]],[[2077,2221],[-5,-7],[-17,-29],[14,-42],[-47,-40],[-6,15]],[[1976,2243],[2,-5],[45,-8],[16,-1],[38,-8]],[[2117,2135],[-13,-10],[-3,-4],[-46,-39],[-19,-16]],[[1909,1952],[-18,50],[-11,45],[-4,19],[-4,33],[0,17],[-3,17],[-6,15]],[[2077,2221],[22,-4],[14,-36],[21,20]],[[1619,2565],[14,24],[12,25],[8,9],[17,13],[17,16],[15,20],[23,32],[20,32]],[[1753,2693],[-29,-29],[-6,-38],[-13,-94],[-2,5],[0,-17],[-6,-49],[-7,-75],[-7,-9],[-42,111],[-3,17],[-10,2],[-1,13],[-8,35]],[[1619,2565],[-15,-20],[-12,-6],[-14,-3],[-21,1],[-14,18],[4,19],[10,53],[8,-2],[-5,88],[-21,-2],[-1,79],[17,-3],[12,0],[8,3],[12,7],[12,11],[6,10],[1,9],[-28,-22],[-12,-3],[-2,35],[-4,16],[-8,6],[1,3],[5,1],[7,-11],[6,-3],[7,8],[7,13],[15,20],[14,-1],[18,-9],[10,3],[4,6],[4,16],[4,6],[5,2],[6,0],[8,-13],[3,-11],[11,10],[19,23],[28,45],[-5,14],[-22,69],[5,7],[1,7],[14,23],[1,-4],[4,6],[14,36],[30,-88],[1,-3],[24,38],[62,98],[-1,2],[-32,103],[32,48]],[[4171,5599],[1,-1],[-10,-147],[-12,-139],[-3,-36],[0,-2],[-4,-48],[-3,-4]],[[4075,4620],[-22,-31],[-10,-9],[-8,-10],[-14,5],[-8,-2],[-59,-74]],[[3954,4499],[-8,-11],[-13,-14],[-7,-1],[-17,5]],[[3909,4478],[-26,9],[-10,-2],[-17,-9],[-13,-4],[-13,-1],[-7,3],[-16,17],[-14,27],[-12,16],[-13,15],[-13,7],[-15,0],[-9,1],[9,-16],[-10,-25],[-25,46],[-5,-18],[-6,8],[-5,-13],[-24,46],[12,28],[-15,26]],[[2150,1963],[-8,7],[-13,-7],[-14,-14],[-3,-6],[-6,-7],[-6,2],[-6,-5],[-7,-9],[3,-8],[-4,2],[-8,-7],[-4,1],[-3,-6],[-4,0]],[[9974,641],[3,4],[5,-7],[-1,-4],[7,0],[11,-14],[-5,-5],[0,-8],[-9,-26],[-2,-2],[-14,-42],[0,-3],[-14,-41],[-8,-23],[2,-56],[3,2],[2,-30],[-3,-9],[-11,2],[-17,-2],[-3,-4],[-9,0],[-8,4],[-11,13],[-10,5],[-5,16],[-2,12],[-24,23],[2,12],[-10,13],[-7,6],[5,42],[18,-16],[4,12],[16,30],[4,-8],[28,48],[25,47],[22,41],[10,-21],[0,-5],[6,-6]],[[6978,223],[14,-3],[9,0],[1,-40],[25,1],[20,0],[24,-4],[2,1],[16,-1],[0,-15],[14,-1],[-1,-31],[3,-8],[-42,2],[-16,1],[1,-29],[2,-96],[-26,33],[-11,3],[-6,7],[-12,1],[-17,23],[1,8],[-1,37],[-4,71],[0,13],[3,28],[1,-1]],[[1659,8231],[4,-5],[7,-1],[4,-5],[-6,-10],[-4,-14],[10,-21],[6,1],[14,-2],[16,-18],[3,9],[19,-15],[2,-11],[6,-8],[6,-23],[2,4],[5,-12],[14,-15],[9,-1],[6,-4],[-4,-9],[5,1],[3,-10],[3,3],[5,-14],[-14,-17],[-1,2],[-18,-32],[-12,-13],[-4,15],[5,8],[-10,17],[-3,4],[-5,-4],[-11,-24],[-1,-8],[2,-18],[6,-4],[5,10],[2,-4],[6,4],[1,-18],[-12,-14],[1,-4],[-22,-34],[-3,-13],[-2,-16],[-6,-20],[-16,-48],[-2,2],[-4,-9],[-2,3],[-20,-35],[-14,-19],[-7,18],[3,7],[-5,11],[-4,-3],[-2,6],[-6,0],[-8,-16],[3,-3],[0,-21],[2,-6],[0,-24],[-5,-12],[4,-8],[-5,-18],[-1,-17],[-5,7],[-8,-23],[4,-9],[-5,-7],[3,-8],[-3,-10],[-14,6],[1,23],[9,51],[3,10],[1,25],[4,4],[-2,7],[5,6],[4,-5],[-3,17],[2,12],[6,18],[4,6],[-2,13],[-5,14],[4,7],[11,-19],[3,5],[34,64],[2,12],[1,13],[-1,15],[-4,1],[-2,17],[1,11],[3,4],[7,0],[-4,74],[-2,-2],[-5,-36],[-10,7],[4,7],[5,18],[-1,40],[0,9],[1,21],[1,9],[8,0],[1,26],[-1,15],[-4,13],[0,-18],[-2,-9],[-4,-6],[-11,2],[-4,6],[4,17],[5,-6],[3,7],[-3,14],[8,7],[-3,20],[-1,21],[2,13],[5,-1]],[[3954,4499],[-4,-60],[20,-45],[4,-17],[4,6],[5,-20],[12,-57],[-3,-5],[3,-14],[14,-42],[4,-11],[14,-28],[12,-18],[5,-14],[9,-34],[5,-14],[11,-23],[7,-16],[3,-10],[3,-72],[1,-41],[1,-44],[3,-22],[0,-11],[-7,13],[-64,112],[-30,54],[-14,24],[6,15],[-1,7],[12,31],[0,24],[4,36],[5,4],[4,-11],[3,0],[-1,23],[7,11],[-8,20],[-10,34],[-4,17],[2,3],[-8,40],[-8,31],[-41,-82],[-1,4],[-11,-21],[-25,-53],[-23,41],[3,15],[3,-1],[4,16],[5,0],[4,11],[13,-21],[14,33],[39,82],[2,5],[-8,18],[-1,6],[-8,12],[-6,16],[-5,5],[-25,6],[1,11]],[[3925,1920],[-7,-6],[-29,-41],[-7,-20],[1,-7],[-5,-27],[-9,-26],[-6,-24],[-7,-43],[-4,-33],[-1,-21],[-3,-56],[3,-31],[1,-35],[-1,-35],[-1,-5],[-1,-36],[-2,-44],[-3,-25],[1,0],[-3,-38],[-9,-62],[-4,-19],[-2,-26],[-7,-38],[-8,-31],[-8,-8],[0,-7],[-3,-11],[4,-60],[-3,-9],[-7,-3],[-2,43],[0,34],[7,27],[6,30],[14,34],[3,19],[6,58],[3,16],[-4,4],[2,14],[0,17],[3,15],[6,49],[3,-1],[-1,40],[-5,0],[1,56],[2,36],[-2,39],[-3,43],[0,11],[9,-2],[4,48],[8,52],[10,37],[15,71],[4,7],[11,13],[13,20],[13,19],[6,3],[5,13],[3,-5],[3,-15],[-13,-18]],[[3728,830],[-1,-36],[-2,-22],[-11,3],[1,23],[3,32],[5,6],[5,-6]],[[3715,959],[-3,0],[13,113],[12,1],[-2,-23],[-10,-89],[-10,-2]],[[3795,1061],[1,-16],[9,1],[0,-6],[10,2],[1,-38],[-13,-7],[-3,-4],[0,-11],[3,-1],[-1,-11],[-6,-25],[-5,-7],[-10,-10],[-7,-14],[-5,-1],[-3,5],[-19,-25],[-2,10],[-15,-39],[-6,-17],[-8,2],[24,114],[26,4],[14,3],[4,74],[3,36],[8,-1],[0,-18]],[[1300,9171],[-2,-11],[-2,-27],[3,-7],[-2,-5],[3,-7],[-6,-11],[-2,12],[-6,4],[-9,-5],[-4,-8],[-3,2],[-17,-27],[5,-14],[-7,-10],[-9,29],[8,8],[22,34],[4,4],[12,0],[2,14],[-2,6],[-2,20],[3,7],[5,-11],[0,24],[10,29],[-2,-17],[-5,-11],[1,-13],[2,-9]],[[1297,8967],[-3,-2],[-2,9],[3,29],[0,1],[4,28],[-1,2],[2,15],[6,9],[3,-6],[-4,-16],[-4,-24],[-1,-25],[-3,-20]],[[1238,9056],[-4,-8],[-9,-4],[-8,4],[-5,0],[-2,9],[24,22],[4,-23]],[[451,9894],[8,-12],[-4,-12],[7,-8],[12,-24],[23,-41],[11,-12],[11,-5],[48,-5],[12,-6],[12,-12],[16,-21],[20,-25],[3,-15],[6,-17],[8,-29],[9,-39],[-2,1],[-27,38],[0,1],[-20,29],[-9,-2],[-15,21],[-8,19],[-5,7],[-7,4],[-10,1],[-1,-12],[-11,1],[-1,-24],[-5,13],[-13,20],[-10,10],[-1,-3],[-12,13],[-7,10],[2,10],[-8,17],[-9,13],[-3,0],[-9,32],[-9,17],[-3,-7],[6,-13],[-4,-7],[-5,19],[-7,11],[1,3],[-14,29],[5,16],[10,-16],[-3,14],[-14,35],[3,4],[17,-18],[1,-17],[5,-6]],[[406,9971],[4,-4],[5,-19],[8,-29],[-5,-6],[-5,18],[-4,8],[-9,10],[-9,6],[-4,10],[-6,4],[-6,-25],[-3,-26],[-9,7],[-2,7],[3,8],[3,28],[-2,11],[-5,12],[3,8],[18,-12],[25,-16]],[[1071,2793],[0,-8],[-2,-14],[3,-8],[1,-9],[-17,-3],[-5,-5],[-7,22],[-1,23],[-5,-1],[0,15],[6,1],[1,31],[5,4],[-5,28],[7,5],[3,-1],[8,-17],[1,-12],[-1,-25],[6,-24],[2,-2]],[[9304,2000],[-26,-28],[20,-121],[-31,-23],[-38,-30],[-11,-8],[-57,7],[-21,-57],[-10,-25],[-45,99],[-13,29],[-7,10],[-4,-12],[-7,10],[-7,-3],[-4,16],[-4,0],[0,22],[16,2],[0,5],[7,2],[0,8],[5,-6],[6,-1],[0,13],[-3,27],[19,14],[21,14],[5,-82],[21,5],[2,37],[12,-1],[3,-33],[17,4],[-2,56],[34,29],[18,20],[13,16],[27,26],[10,-52],[12,15],[-7,38],[18,18],[14,12],[-4,23],[-4,48],[-6,60],[5,5],[6,-56],[5,-52],[18,-76],[-23,-24]],[[4243,2884],[9,-44],[21,17],[7,-60],[4,-48],[-17,-17],[-6,-16],[-3,-23],[5,-4],[21,-56],[-18,-31],[-15,35],[-19,-25],[5,-16],[-29,-26],[1,-13],[-8,-3],[-1,13],[-12,-20],[5,-13],[4,-14],[1,-79],[-3,-6],[-43,-3],[-1,2],[-6,37],[-2,20],[-24,-47],[2,-6],[30,-42],[-45,-81],[-12,19],[-17,27],[2,5],[-4,12],[23,52],[17,34],[-4,24],[1,17],[9,6],[17,18],[-13,107],[3,6],[16,20],[10,9],[1,-20],[6,-42],[4,-46],[3,-20],[13,23],[34,51],[-4,13],[-8,39],[-9,37],[-12,40],[-16,46],[42,59],[19,24],[1,-14],[15,23]],[[4033,2252],[2,-43],[-19,-28],[-7,-24],[-5,-20],[-13,-41],[3,-3],[-4,-10],[-2,3],[-5,-18],[2,-9],[-7,-1],[-17,-55],[-2,-24],[-4,-6],[0,-7],[-8,-5],[-12,-1],[-2,8],[3,9],[9,15],[9,29],[9,32],[7,22],[10,29],[4,17],[-7,18],[12,10],[-2,12],[5,4],[2,23],[3,-2],[5,16],[-5,2],[-53,1],[-8,2],[0,11],[33,-4],[12,-4],[17,-1],[8,21],[3,3],[20,50],[15,29],[4,-6],[-16,-35],[1,-19]],[[2795,9801],[-1,-8],[5,-32],[-1,-2],[10,-47],[2,-13],[14,15],[8,-28],[6,-22],[6,-22],[12,-46],[-10,-7],[-15,-1],[6,-40],[7,-30],[3,-17],[6,-23],[2,-22],[5,-32],[4,-17],[1,-38],[6,-64],[4,-48],[-5,-17],[1,-39],[9,-22],[-24,-60],[-19,34],[-12,-28],[-11,-23],[-3,-3],[-25,8],[-9,10],[14,26],[20,42],[4,14],[-10,8],[-15,12],[14,25],[-54,23],[2,10],[-5,3],[2,39],[1,14],[10,21],[7,22],[0,6],[-10,11],[-2,25],[-6,10],[0,11],[2,25],[0,15],[-2,39],[9,13],[4,2],[3,-39],[8,-1],[20,3],[-2,68],[-8,-1],[-2,4],[-11,-2],[-2,32],[-11,-3],[-1,9],[12,3],[0,12],[-3,44],[4,22],[9,26],[3,18],[-17,17],[-3,6],[0,25],[0,17],[-13,9],[1,8],[-2,10],[7,11],[16,-1],[12,-6],[10,-12],[3,-11]],[[6362,2179],[10,0],[6,5],[3,-16],[-15,-23],[-9,-7],[-2,-23],[-1,-17],[-2,-2],[-1,-23],[1,0],[-3,-42],[-3,-6],[44,19],[27,18],[54,30],[37,24],[10,-67],[-64,-58],[-8,-6],[-113,-104],[-7,-78],[12,-47],[50,49],[31,28],[-3,-44],[-5,-86],[-5,-62],[-10,-146],[-53,33],[-4,-56],[-3,-61],[-26,7],[8,126],[-41,27],[-60,37],[-40,23],[2,3],[26,42],[6,11],[-1,42],[2,28],[-3,91],[-2,63],[-1,50],[24,8],[2,-25],[4,0],[5,-7],[7,-1],[12,14],[0,17],[-7,76],[15,10],[5,-37],[43,51],[23,25],[-2,5],[6,78],[-22,-5],[-1,7],[12,10],[18,2],[9,-4],[3,-6]],[[3297,2874],[21,-54],[3,-15],[5,-11],[16,-15],[4,-10],[1,-20],[2,-6],[11,-12],[1,-19],[0,-13],[7,-10],[2,-12],[-11,0],[-4,-8],[-4,3],[-4,-6],[-3,5],[-1,-10],[4,-3],[0,-6],[-3,-9],[4,-10],[-4,-15],[-5,4],[-1,-8],[-7,4],[-3,-4],[-6,0],[-4,-7],[-6,-3],[-7,-8],[-9,0],[-2,29],[-5,5],[1,13],[-6,5],[-6,10],[0,13],[-2,7],[-7,7],[0,22],[-2,11],[-7,11],[-6,3],[-10,9],[4,10],[-1,11],[3,10],[-1,9],[-21,64],[27,37],[12,-32],[6,0],[1,11],[4,8],[10,8],[5,8],[4,-11]],[[6934,3661],[-1,-19],[-11,4],[-23,5],[-27,8],[-10,-101],[-27,3],[3,36],[-22,38],[-5,3],[-6,-10],[-4,-23],[-1,-10],[6,-20],[1,-12],[-2,-9],[-4,-7],[-13,7],[-5,7],[-6,-3],[1,-37],[-32,-26],[-6,11],[-8,36],[-10,59],[12,8],[-5,37],[21,14],[6,-36],[15,11],[31,19],[15,11],[24,11],[14,2],[23,0],[14,-2],[42,-15]],[[855,2634],[7,7],[28,-95],[15,20],[12,-39],[1,-25],[23,-14],[-6,-44],[-10,-86],[-35,34],[-47,38],[-12,-3],[-10,23],[-2,14],[1,11],[-13,56],[-8,15],[7,17],[25,34],[-11,42],[24,33],[11,-38]]]}