{"type":"Topology","bbox":[-73.78660406743387,3.892923166965398,-73.4654345683926,4.019212292101761],"transform":{"scale":[0.00003212016192031956,0.000012630175531189411],"translate":[-73.78660406743387,3.892923166965398]},"objects":{"municipios":{"type":"GeometryCollection","geometries":[{"type":"Polygon","arcs":[[0,1,2]]},{"type":"Polygon","arcs":[[3]]},{"type":"Polygon","arcs":[[4]]},{"type":"Polygon","arcs":[[5,6,7,8]]},{"type":"Polygon","arcs":[[9,10,11]]},{"type":"Polygon","arcs":[[12,13]]},{"type":"Polygon","arcs":[[14,15,16]]},{"type":"Polygon","arcs":[[17]]},{"type":"Polygon","arcs":[[18]]},{"type":"Polygon","arcs":[[19]]},{"type":"Polygon","arcs":[[-1,20,21]]},{"type":"Polygon","arcs":[[-21,-3,22]]},{"type":"MultiPolygon","arcs":[[[23]],[[24]]]},{"type":"Polygon","arcs":[[25]]},{"type":"Polygon","arcs":[[26,27,28,29,30]]},{"type":"Polygon","arcs":[[31]]},{"type":"Polygon","arcs":[[32,33,34]]},{"type":"Polygon","arcs":[[35,36,37,-8,38]]},{"type":"Polygon","arcs":[[39,40]]},{"type":"Polygon","arcs":[[41,42,43,44,45]]},{"type":"Polygon","arcs":[[46,47,48,49]]},{"type":"Polygon","arcs":[[50,51,52,53,54]]},{"type":"Polygon","arcs":[[55,56]]},{"type":"Polygon","arcs":[[57,58,59,60,61,62]]},{"type":"Polygon","arcs":[[63]]},{"type":"Polygon","arcs":[[64,65,66,67]]},{"type":"Polygon","arcs":[[68,69,70,71]]},{"type":"Polygon","arcs":[[72,73,-34,74,75,76,77,78]]},{"type":"Polygon","arcs":[[-56,79]]},{"type":"Polygon","arcs":[[-79,80,81,82]]},{"type":"Polygon","arcs":[[83,84,85,86,-16]]},{"type":"Polygon","arcs":[[-73,-83,87,88]]},{"type":"MultiPolygon","arcs":[[[89]],[[90]]]},{"type":"Polygon","arcs":[[-54,91,92]]},{"type":"Polygon","arcs":[[-92,-53,93]]},{"type":"Polygon","arcs":[[94]]},{"type":"Polygon","arcs":[[95,-51]]},{"type":"MultiPolygon","arcs":[[[96]],[[97]]]},{"type":"Polygon","arcs":[[98,99,100,101,102,103]]},{"type":"Polygon","arcs":[[104,105,-47,106,-70]]},{"type":"Polygon","arcs":[[107,108,109,110,-84,-15,111,112]]},{"type":"Polygon","arcs":[[113,114]]},{"type":"Polygon","arcs":[[-39,-7,115,116]]},{"type":"Polygon","arcs":[[117,118,119,-85,-111,120,-48,-106]]},{"type":"Polygon","arcs":[[121,122,123,-116,124,125,-42]]},{"type":"Polygon","arcs":[[-88,-82,126,127,-27,128,129,130]]},{"type":"Polygon","arcs":[[131,-102,132,133,-105]]},{"type":"Polygon","arcs":[[134,135]]},{"type":"Polygon","arcs":[[-130,136,-10,-49,-121,-110,137]]},{"type":"Polygon","arcs":[[138,-86,-120,139]]},{"type":"Polygon","arcs":[[-61,140,141]]},{"type":"Polygon","arcs":[[-134,142,143,144,145,146,-118]]},{"type":"Polygon","arcs":[[147,-103,148,-76]]},{"type":"Polygon","arcs":[[-77,-149,-132,-69,149]]},{"type":"Polygon","arcs":[[150,-122,-46,151,-145,152]]},{"type":"Polygon","arcs":[[-135,-141,-60,153,-66,154]]},{"type":"Polygon","arcs":[[155,156,-28,-128]]},{"type":"MultiPolygon","arcs":[[[157]],[[-108,158]]]},{"type":"Polygon","arcs":[[159,-153,-144,160]]},{"type":"Polygon","arcs":[[-123,-151,-160,161,-40,162]]},{"type":"Polygon","arcs":[[163,-36,-117,-124,-163,-41,-162,-161,-143,-133,-101]]},{"type":"Polygon","arcs":[[-127,-81,-78,164,-156]]},{"type":"Polygon","arcs":[[-38,165,166,-9]]},{"type":"Polygon","arcs":[[-33,167,-104,-148,-75]]},{"type":"Polygon","arcs":[[-126,168,-63,169,-43]]},{"type":"Polygon","arcs":[[-152,-45,170,-13,171,-146]]},{"type":"Polygon","arcs":[[-30,-71,-107,-50,-12,172]]},{"type":"Polygon","arcs":[[-157,-165,-150,-72,-29]]},{"type":"Polygon","arcs":[[173,-140,-119,-147,-172,-14,-171,-44,-170,-62,-142,-136,-155,-65]]},{"type":"Polygon","arcs":[[-31,-173,-11,-137,-129]]},{"type":"Polygon","arcs":[[-125,-6,-167,174,175,-58,-169]]},{"type":"Polygon","arcs":[[-100,176,-175,-166,-37,-164]]},{"type":"Polygon","arcs":[[-17,-87,-139,-174,-68,177,-115,178,-112]]}]}},"arcs":[[[9879,259],[82,157]],[[9961,416],[6,-17],[-2,-13],[7,-45],[5,-10],[7,-40],[-3,-13],[7,-56],[8,-17],[2,-43],[-30,-57],[-9,33],[-8,-21]],[[9951,117],[-47,114],[-25,28]],[[4641,2366],[1,-1],[-29,-134],[-27,-134],[-8,13],[5,34],[-6,9],[-1,21],[5,11],[-7,39],[-135,-46],[-3,88],[3,35],[79,25],[65,22],[58,18]],[[74,9964],[-4,23],[22,-8],[28,7],[41,-1],[7,-78],[4,-113],[13,-95],[-2,-41],[-20,-149],[-15,48],[-27,94],[-10,60],[-37,253]],[[155,7106],[-4,81],[6,0],[-5,55],[97,-7]],[[249,7235],[-2,-34],[1,-78],[-2,-53]],[[246,7070],[-3,-25],[-28,3]],[[215,7048],[2,24],[-23,2],[-1,30],[-38,2]],[[755,8340],[14,117],[69,-50]],[[838,8407],[-14,-118]],[[824,8289],[-69,51]],[[419,7671],[-83,22]],[[336,7693],[4,111],[28,-6],[1,33],[55,-15],[-5,-145]],[[524,8684],[49,-258]],[[573,8426],[-10,-24],[-17,60]],[[546,8462],[-8,31],[-6,-13],[-9,25],[-18,-43],[9,-24],[-60,-139],[-33,118],[-33,129],[11,17],[8,-34],[28,43],[11,13],[-8,38],[2,3],[73,13],[11,45]],[[404,4155],[10,0],[-1,-117],[-20,4],[-2,46],[-29,24],[-4,29],[30,-5],[1,16],[15,3]],[[8759,5316],[11,15],[21,-92],[-14,-10],[-13,-16],[-34,-24],[-25,-11],[-1,13],[-14,-7],[-2,20],[-7,1],[-10,35],[-7,-8],[-2,19],[31,22],[-1,6],[20,19],[2,-16],[28,23],[8,24],[9,-13]],[[4506,1480],[0,-32],[-4,1],[-9,-158],[6,-70],[0,-18],[-31,20],[8,66],[1,47],[3,43],[-11,5],[5,81],[-39,13],[64,153],[-14,228],[43,-30],[-8,-48],[-3,-32],[-10,-166],[-1,-103]],[[9879,259],[-17,24]],[[9862,283],[11,18],[-8,29],[9,16],[-15,52],[-4,-9],[-11,30],[-9,32],[7,13],[-25,80],[-2,12],[1,46],[-6,26],[-1,34],[8,17],[-16,57],[14,28],[17,-63],[3,-2],[28,54],[11,-42],[10,-22],[25,-74],[31,-134],[2,-15],[19,-50]],[[9951,117],[-2,-7],[11,-26],[-7,-53],[-11,9],[-6,-40],[-85,70],[-16,16],[27,197]],[[3201,1796],[7,-18],[-9,-28],[18,-27],[-9,-47],[-8,9],[-22,-57],[-17,86],[-5,-11],[-28,43],[3,14],[-12,18],[-21,-29],[-68,-78],[-34,-5],[-10,16],[5,16],[18,28],[11,58],[16,53],[6,10],[36,32],[-2,6],[12,54],[26,93],[39,-20],[0,-135],[2,0],[46,-81]],[[3227,1679],[21,-73],[-16,-32],[-21,69],[5,15],[-4,17],[15,4]],[[677,5470],[-6,-46],[-42,26],[-21,17],[-13,-48],[-9,1],[1,30],[6,310],[33,4],[26,-1],[2,-57],[-4,-22],[38,-31],[17,-18],[-28,-165]],[[947,8252],[-11,-198],[-10,-166]],[[926,7888],[0,-12]],[[926,7876],[-20,8],[-4,-3],[-22,13],[3,31],[-33,18]],[[850,7943],[-2,4],[-52,32],[7,65],[18,-11],[7,74],[7,-5],[11,107],[4,-3],[7,63]],[[857,8269],[12,-1],[47,-12],[31,-4]],[[1190,6046],[-1,-11],[-14,9],[-53,129],[2,9],[55,-99],[13,-16],[-2,-21]],[[922,6678],[14,11]],[[936,6689],[20,21],[18,24]],[[974,6734],[8,-72],[7,-111],[5,-30],[48,-99],[10,24],[-7,19],[6,14],[16,-4],[5,-33],[-38,-88],[-50,95],[-8,23],[-19,105],[-14,74],[-22,-10],[1,37]],[[309,7065],[-2,-146]],[[307,6919],[-20,5],[-39,-15],[-29,25]],[[219,6934],[-2,15],[0,71],[-2,28]],[[246,7070],[63,-5]],[[504,7128],[0,4]],[[504,7132],[8,-6],[29,-33],[19,-11],[-1,-64],[-4,-57],[-23,4],[-49,53],[21,104],[0,6]],[[375,7318],[-48,11],[-36,10],[1,31],[-16,-2],[-5,63]],[[271,7431],[6,136]],[[277,7567],[25,-8]],[[302,7559],[82,-23]],[[384,7536],[-9,-218]],[[677,8039],[-15,19],[6,-39],[-15,-17]],[[653,8002],[-27,145]],[[626,8147],[38,163],[21,95],[8,-14],[17,-16],[45,-35]],[[755,8340],[-13,-69],[-43,-151],[-22,-81]],[[1235,8737],[-2,70],[0,74],[17,116],[-9,9]],[[1241,9006],[11,78],[6,20],[2,41]],[[1260,9145],[10,-6],[29,-102],[7,-16]],[[1306,9021],[78,-194],[10,-35]],[[1394,8792],[-12,-18],[-24,-90],[-8,1],[-14,22],[-27,-3],[-12,22],[-6,-3],[-28,4],[-10,14],[-18,-4]],[[718,9680],[-36,2]],[[682,9682],[1,67],[-24,144],[-17,50],[-12,29],[0,27],[37,-2],[35,-62],[11,-12],[19,-81],[10,-54],[-3,-4],[-21,-104]],[[134,7391],[-17,-20],[-17,-45],[-25,-57],[-13,-39]],[[62,7230],[-17,78],[36,80],[-17,14],[-11,-5],[-42,64],[-11,23],[67,148],[11,29],[37,80],[23,54]],[[138,7795],[2,3],[23,-36]],[[163,7762],[40,-77]],[[203,7685],[30,-64]],[[233,7621],[-85,-196],[-14,-34]],[[1272,5992],[17,-1],[22,-32],[13,-27],[-1,-21],[-19,23],[-17,-1],[-26,30],[-15,48],[26,-19]],[[272,8254],[-22,-51],[-17,36],[7,22],[-3,8],[-18,7],[-18,-53],[11,-21],[6,18],[11,-25],[-23,-69],[-12,22],[-14,-48]],[[180,8100],[-26,-82],[-38,-118],[-23,-75]],[[93,7825],[-39,23],[0,9],[106,332],[-8,6],[3,56],[20,-14],[5,16],[2,69],[8,25],[11,-1]],[[201,8346],[30,-23],[29,-4],[7,-11],[5,-54]],[[820,7618],[-18,-6],[-14,21],[-10,2],[-22,-7]],[[756,7628],[10,40],[21,216]],[[787,7884],[2,27],[13,2],[15,-9],[-4,-37],[14,-9],[7,64],[3,20],[13,1]],[[850,7943],[-28,-289],[-2,-36]],[[1201,7494],[27,-10]],[[1228,7484],[8,-41],[-14,-303],[-8,-17],[12,-92],[12,0],[25,-10],[1,-20],[-14,-6],[-9,-10],[-12,-30],[-15,-15],[-18,-7],[-22,-1],[-66,-24],[-22,-4],[-18,7],[-13,-1],[-13,-8],[-24,-46],[-24,-81],[-20,-41]],[[936,6689],[-6,39],[-9,90],[-15,208],[-1,42],[-10,82]],[[895,7150],[0,17],[5,152]],[[900,7319],[5,172],[4,74]],[[909,7565],[38,4],[25,-27],[13,-6]],[[985,7536],[9,8],[15,34],[25,17],[0,-29],[4,-6],[34,-12],[48,-11],[24,-14],[13,-15],[44,-14]],[[718,9680],[-3,-79],[7,-96],[0,-24],[4,-53],[12,-36],[1,-27],[-36,-14],[-10,115],[-9,82],[-5,85],[3,49]],[[985,7536],[6,79],[9,20],[37,13]],[[1037,7648],[27,16],[27,22],[44,42],[10,13]],[[1145,7741],[8,-9],[-2,-140],[50,-14],[0,-84]],[[573,8426],[14,-73]],[[587,8353],[-85,-200]],[[502,8153],[-22,53],[-18,61]],[[462,8267],[84,195]],[[1145,7741],[26,61],[48,105],[57,131]],[[1276,8038],[18,-25],[7,-37],[-19,-37],[-2,-52],[2,-18],[-15,2],[48,-65],[-13,-22],[-28,-27],[-18,-1],[-2,-29],[9,-12],[-7,-22],[2,-27],[-6,-19],[5,-57],[11,1],[3,-25],[-4,-24],[10,-12],[6,-27],[0,-30],[-55,11]],[[696,5218],[4,-25],[10,22],[2,-25],[-38,-58],[-21,-43],[2,-17],[7,-1],[0,-47],[-7,-56],[-16,-5],[-18,1],[-37,-33],[-8,-2],[2,134],[28,47],[35,74],[7,25],[13,73],[27,-10],[8,-54]],[[773,5076],[-12,31],[-4,29],[4,51],[16,59],[10,41],[51,-20],[-28,-80],[-1,-7],[-36,-104]],[[1306,9021],[39,126],[-1,-39],[103,-231],[33,-96],[-7,-16],[29,-76]],[[1502,8689],[-25,-53],[-8,16],[-33,52],[-42,88]],[[1260,9145],[-1,47],[7,-11],[47,93],[16,36],[10,-5],[10,-54],[121,-199],[27,-46],[-28,-63],[-19,-58],[32,-81],[19,45],[34,-90],[-33,-70]],[[1428,5739],[26,-55],[22,28],[5,-26],[30,36],[16,-139],[-10,5],[-45,5],[-6,39],[-7,18],[-26,44],[0,-2],[-27,47],[-3,-5],[-19,48],[-6,39],[-12,28],[2,9],[33,-67],[27,-52]],[[1235,8737],[-10,-9],[-28,5],[-7,18],[-18,29],[-14,31],[1,23],[-19,23],[-7,26],[-12,3],[-14,14],[-10,-21],[-25,10],[-29,21],[-9,-11],[-22,17],[-3,7],[7,38],[30,3],[10,-4],[14,14],[120,23],[40,17],[11,-8]],[[27,8783],[-18,-3],[-9,30],[2,33],[7,20],[-3,15],[87,173],[-9,36],[4,8],[13,-64],[-4,-5],[8,-39],[-20,-87],[-58,-117]],[[132,8931],[48,-72],[-4,-11],[-32,47],[-15,25],[-8,22],[11,-11]],[[767,6521],[-61,-53],[-34,-38],[-17,-15],[-22,-7],[1,-86],[8,-64],[15,-43],[-40,-34],[-16,-2]],[[601,6179],[3,118],[4,227],[4,196]],[[612,6720],[3,168],[4,132],[15,370]],[[634,7390],[119,-30]],[[753,7360],[-4,-102],[-11,-37],[-15,-68]],[[723,7153],[-36,-163],[-27,-117],[-11,-50],[8,-40],[7,-127],[22,-47],[16,2],[47,-60],[10,-10],[8,-20]],[[756,7628],[-7,6],[-7,22],[-6,52],[-6,1],[-4,-47],[-22,36],[-15,-36],[-10,18],[-11,41],[-12,27]],[[656,7748],[9,74],[2,61],[-4,50],[-10,69]],[[677,8039],[3,-9],[-5,-73],[112,-73]],[[490,9202],[2,-8],[30,38],[2,-2],[29,-139],[5,-33],[29,40]],[[587,9098],[-2,-18],[-19,-84],[-13,-12],[4,-28],[-1,-30],[10,7],[1,31],[5,5],[13,-66],[7,-2],[25,16],[7,-20],[8,-4],[16,18],[9,22],[8,-30],[10,-17],[13,28],[6,-4],[0,-36],[4,-4],[6,19],[10,-1],[5,-34],[16,-26]],[[735,8828],[-24,-125],[-16,-107],[-7,-36],[-34,-130],[-23,-162],[-16,-68]],[[615,8200],[-28,153]],[[524,8684],[-82,434]],[[442,9118],[-11,62],[-27,146],[6,13],[28,-5],[39,-14],[-14,-81],[21,-33],[6,-4]],[[346,8696],[-10,26],[-28,86]],[[308,8808],[81,81],[20,-84],[-1,-17],[12,-76],[-39,-7],[-5,19],[-30,-28]],[[249,7235],[51,-6]],[[300,7229],[-1,-79],[11,-1],[-1,-84]],[[656,7748],[-8,12],[-15,-3],[-6,11],[-4,58],[-11,7],[-12,-21],[-7,10],[10,56],[1,16],[-5,30],[-9,5],[-14,-11],[-18,-50]],[[558,7868],[-6,20],[-2,54],[3,47],[-14,53],[-18,59]],[[521,8101],[-19,52]],[[615,8200],[11,-53]],[[375,7318],[-1,-48]],[[374,7270],[-1,-23]],[[373,7247],[-1,-14],[-27,8],[0,14],[-34,9],[-2,-36],[-9,1]],[[249,7235],[-4,32],[2,82],[-6,3]],[[241,7352],[18,66],[6,25],[6,-12]],[[1037,7648],[-29,17],[0,32]],[[1008,7697],[-2,169],[2,12],[-30,18],[-27,1],[-25,-9]],[[947,8252],[4,72]],[[951,8324],[6,136],[0,38],[-3,125]],[[954,8623],[8,7],[5,24],[5,-2],[7,-24],[35,117],[3,3],[13,-35],[-41,-97],[0,-37],[-16,-9],[6,-19],[22,-37],[4,-30],[-11,-84],[14,-45],[11,-13],[6,-36],[13,-29],[25,-16],[3,-11],[-11,-32],[0,-34],[4,1],[8,-31],[2,-54],[4,-17],[23,-47],[17,5],[16,38],[20,-6],[24,-27],[16,-26],[7,-1],[-3,18],[4,52],[-5,38],[-6,75],[8,-4],[44,-39],[-3,-36],[15,-25],[-20,-58],[5,-20],[31,35],[14,-9],[-4,-8]],[[756,7628],[-11,-42],[15,-9],[-2,-71],[-4,-91],[-1,-55]],[[634,7390],[2,78]],[[636,7468],[4,110],[4,65],[12,105]],[[272,8027],[-21,26],[-8,6]],[[243,8059],[21,69],[11,27],[31,-59],[-2,-10],[33,-17],[1,-7],[34,1],[-2,-36],[-9,-62],[-3,-3],[-37,26],[1,12],[-30,14],[-16,27],[-4,-14]],[[951,8324],[-113,83]],[[735,8828],[5,-4],[10,18],[6,-8],[-1,-36],[24,-2],[9,-40],[19,-3],[11,-42],[1,-36],[-3,-36],[4,-12],[21,38],[15,-11],[9,11],[5,29],[19,9],[29,-10],[14,0],[5,-46],[17,-24]],[[379,8096],[57,-9],[6,131],[20,49]],[[521,8101],[-25,-64],[8,-40],[23,-11],[11,-17],[-1,-16],[-8,-35],[2,-49],[-21,-5],[-23,-50],[-4,-27],[-6,4],[-23,-47],[-3,-1],[2,66],[-16,6],[2,29],[-42,10],[4,116],[-10,3],[3,16],[-18,5],[3,102]],[[163,7762],[18,50],[49,132],[7,-16],[22,58],[13,41]],[[272,8027],[15,-38],[13,-9],[38,-10],[13,-14],[11,4],[-20,-105],[-6,-7],[-13,24],[-20,-64],[-11,21],[-23,-79],[-29,56],[-37,-121]],[[636,7468],[-82,22]],[[554,7490],[-83,23]],[[471,7513],[-30,7]],[[441,7520],[6,88]],[[447,7608],[28,-8],[2,56],[29,-9],[6,141],[27,-7],[2,35],[14,-3],[11,28],[-8,27]],[[895,7150],[-11,3],[-13,-40],[-37,12],[-26,4],[-51,13],[-34,11]],[[753,7360],[93,-27],[54,-14]],[[820,7618],[24,15],[14,-24],[8,-1],[12,28],[7,2],[2,-31],[-2,-50],[4,-15],[9,-3],[11,26]],[[460,7248],[-86,22]],[[384,7536],[57,-16]],[[471,7513],[-5,-93],[-6,-172]],[[138,7795],[-45,30]],[[180,8100],[57,-62],[6,21]],[[1008,7697],[-43,29],[-2,-32],[-45,29]],[[918,7723],[8,153]],[[663,9031],[-10,-27],[-22,43],[-22,39],[4,29],[-14,28],[32,75],[14,22],[15,40],[25,-50],[20,-33],[9,-26],[-51,-140]],[[490,9202],[21,45],[30,-30],[33,-18],[15,-13],[8,-34],[-10,-54]],[[489,7240],[-29,8]],[[554,7490],[-11,-263],[-54,13]],[[489,7240],[-2,-33],[19,-5],[-2,-70]],[[504,7128],[-35,-20],[-24,-19],[-10,-40],[-54,12],[7,175],[-15,11]],[[612,6720],[-25,-71],[-13,27],[-20,68],[-8,55],[-11,7],[-30,86],[-16,53],[-15,36],[-44,43],[-12,-45],[-13,-19],[-47,-25],[-40,-16],[-11,0]],[[909,7565],[9,158]],[[219,6934],[-10,-3],[-43,-29]],[[166,6902],[-1,45],[-3,5],[-4,73],[-3,81]],[[922,6678],[-29,-4],[-11,4],[-17,-7],[-18,-19],[-32,-49],[-48,-82]],[[241,7352],[-6,3],[-46,52],[-9,13],[-8,-45],[-16,29],[-8,-34],[-13,2],[-1,19]],[[233,7621],[24,-47],[20,-7]],[[302,7559],[4,44],[3,71],[3,26],[24,-7]],[[419,7671],[30,-7],[-2,-56]],[[824,8289],[33,-20]],[[272,8254],[11,-81],[13,-30],[25,-27],[24,-5],[12,-12],[22,-3]],[[166,6902],[-12,-16],[-17,-47]],[[137,6839],[3,41],[-4,42],[-2,47],[-8,6],[-8,24],[-1,25],[-10,20],[-6,21],[2,43],[-19,17],[2,24],[-5,17],[-1,29],[-18,35]],[[601,6179],[-1,-63],[-34,-2],[-41,1],[-8,47],[10,21],[16,17],[15,41],[-2,37],[19,79],[-23,-6],[-9,18],[-11,56],[-12,100],[-1,56],[4,21],[-4,38],[-14,12],[-9,16],[-13,76],[-5,1],[-16,-26],[-32,-38],[-11,-9],[-26,-6],[-20,8],[-21,26],[-22,-22],[-18,10],[-26,31],[-34,13],[-21,16],[-22,31],[-41,34],[-14,3],[-11,-7],[-9,7],[-3,17],[6,6]],[[201,8346],[4,2],[9,38],[33,129],[18,76],[-25,103],[3,5],[30,-106],[92,16],[8,4],[-27,83]],[[308,8808],[-32,135],[166,175]]]}