{"type":"Topology","bbox":[-73.9558310606426,3.5563896508094155,-73.78947892207748,3.6327396827069856],"transform":{"scale":[0.000016636877544266082,0.000007635766766433648],"translate":[-73.9558310606426,3.5563896508094155]},"objects":{"municipios":{"type":"GeometryCollection","geometries":[{"type":"Polygon","arcs":[[0,1,2]],"properties":{"codigo":"50251100000000000103","sector":"502511000000000001","pcode":"CO50251","area_m2":482593}},{"type":"Polygon","arcs":[[3,4]],"properties":{"codigo":"50251200101001000101","sector":"502512001010010001","pcode":"CO50251","area_m2":221536}},{"type":"Polygon","arcs":[[-4,5]],"properties":{"codigo":"50251200101001000102","sector":"502512001010010001","pcode":"CO50251","area_m2":229885}},{"type":"Polygon","arcs":[[6]],"properties":{"codigo":"50251200402003000101","sector":"502512004020030001","pcode":"CO50251","area_m2":56266}},{"type":"Polygon","arcs":[[-2,7,8]],"properties":{"codigo":"50251100000000000101","sector":"502511000000000001","pcode":"CO50251","area_m2":375032}},{"type":"Polygon","arcs":[[-1,9,-8]],"properties":{"codigo":"50251100000000000102","sector":"502511000000000001","pcode":"CO50251","area_m2":183904}},{"type":"MultiPolygon","arcs":[[[10]],[[11]]],"properties":{"codigo":"50251200309004000101","sector":"502512003090040001","pcode":"CO50251","area_m2":49713}}]}},"arcs":[[[9587,11],[-2,45],[-50,54],[-54,150],[-7,113],[25,159],[238,525]],[[9737,1057],[60,131],[120,66]],[[9917,1254],[-11,-43],[3,-107],[15,-132],[56,-122],[-28,-53],[-75,-95],[-38,-82],[51,-67],[2,-60],[-36,-38],[-55,-93],[-69,-49],[6,-32],[-34,-203],[-62,-50],[-55,-17]],[[9090,9934],[-16,-230],[42,-61],[-39,-219],[47,-42],[-21,-112],[192,-162]],[[9295,9108],[-26,-69],[8,-136],[-62,-49],[-16,101],[-80,38],[-52,52],[15,80],[-81,73],[-8,100],[-32,2],[2,63],[64,-21],[-7,165],[-18,128],[-15,54],[-55,32],[-14,88],[5,71],[31,46],[8,73],[128,-65]],[[9090,9934],[15,-5],[206,-177],[15,-53],[-23,-100],[20,-130],[8,-215],[-6,-61],[-30,-85]],[[91,2833],[20,-100],[-14,-27],[10,-62],[18,29],[4,-50],[-17,-62],[8,-63],[-21,-29],[6,-44],[-31,-27],[6,-96],[-25,-5],[2,98],[-20,117],[3,156],[-26,64],[8,17],[-22,53],[40,52],[17,-41],[31,52],[3,-32]],[[9737,1057],[-105,242]],[[9632,1299],[-35,18],[11,155],[-13,6],[19,221],[58,-26],[5,46],[-22,177],[48,135],[56,36],[28,-108],[108,-137],[-20,-117],[115,-14],[9,-166],[-14,-106],[-17,-68],[-43,-4],[-8,-93]],[[9587,11],[-49,11],[-29,79],[-53,76],[-20,143],[20,167],[29,41],[10,152],[-37,97],[6,67],[33,70],[9,130],[25,39],[6,87],[55,19],[10,59],[30,51]],[[4788,9514],[23,39],[52,-98],[-10,-22],[75,-131],[0,-50],[-23,-38],[-47,90],[-16,-30],[-12,31],[-93,163],[17,55],[-27,59],[5,32],[56,-100]],[[4858,9686],[46,-22],[19,-63],[-42,58],[-80,12],[23,31],[34,-16]]]}
