{"type":"Topology","bbox":[-73.86064606681492,3.4357438581760866,-73.68247683189998,3.5793084875280528],"transform":{"scale":[0.000017818705362030867,0.000014357898725069118],"translate":[-73.86064606681492,3.4357438581760866]},"objects":{"municipios":{"type":"GeometryCollection","geometries":[{"type":"Polygon","arcs":[[0,1,2]]},{"type":"Polygon","arcs":[[3,4,5,6]]},{"type":"Polygon","arcs":[[7,8,9,-5]]},{"type":"Polygon","arcs":[[10,11,12]]},{"type":"Polygon","arcs":[[-11,13,14,15]]},{"type":"Polygon","arcs":[[16,17,18,19,20,21]]},{"type":"Polygon","arcs":[[-22,22,23,24]]},{"type":"Polygon","arcs":[[25,26,27,-19,28]]},{"type":"Polygon","arcs":[[-24,29,30,31]]},{"type":"Polygon","arcs":[[32,33,34]]},{"type":"Polygon","arcs":[[35]]},{"type":"Polygon","arcs":[[36,37,38,39,40,41]]},{"type":"Polygon","arcs":[[42,43,44,45,46]]},{"type":"Polygon","arcs":[[-28,47,48,-20]]},{"type":"Polygon","arcs":[[-27,-2,49,50,-14,-13,51,52,-48]]},{"type":"Polygon","arcs":[[53,54,-50,-1,55,-10]]},{"type":"Polygon","arcs":[[-56,56,57,58,-6]]},{"type":"Polygon","arcs":[[59,-8,60]]},{"type":"Polygon","arcs":[[61,62,63,64]]},{"type":"Polygon","arcs":[[-44,65,66,67]]},{"type":"MultiPolygon","arcs":[[[68,69,70,71,-61,-4,72,73]],[[74]]]},{"type":"Polygon","arcs":[[75,76,-30,-23,-21,-49,-53,77]]},{"type":"Polygon","arcs":[[-17,78,-66,-43,79]]},{"type":"Polygon","arcs":[[-55,80,-15,-51]]},{"type":"Polygon","arcs":[[81,-71,82,83,84]]},{"type":"Polygon","arcs":[[-85,85,86]]},{"type":"Polygon","arcs":[[87,88,-18,-80,-47]]},{"type":"Polygon","arcs":[[89,-63,90,-29,-89]]},{"type":"Polygon","arcs":[[-3,-26,-91,-62,91,-57]]},{"type":"Polygon","arcs":[[92,-59,93,94]]},{"type":"Polygon","arcs":[[-74,95,-40,96]]},{"type":"Polygon","arcs":[[97,98,-95,99,100,101,102]]},{"type":"Polygon","arcs":[[-58,-92,-65,103,-100,-94]]},{"type":"Polygon","arcs":[[-45,-68,104,105]]},{"type":"Polygon","arcs":[[-105,-67,-79,-25,-32,106,107]]},{"type":"Polygon","arcs":[[108,-103,109,110,111]]},{"type":"Polygon","arcs":[[112,113,-42,114,-98,-109]]},{"type":"Polygon","arcs":[[-41,-96,-73,-7,-93,-99,-115]]},{"type":"Polygon","arcs":[[115,-69,-97,-39,116,117]]},{"type":"Polygon","arcs":[[-76,118,119]]},{"type":"Polygon","arcs":[[-107,-31,-77,-120,120]]},{"type":"Polygon","arcs":[[121,122,123]]},{"type":"Polygon","arcs":[[124,125,126,-123,127]]},{"type":"Polygon","arcs":[[128,129,-110,-102,130,-126]]},{"type":"Polygon","arcs":[[131,132,-129,-125,133]]},{"type":"Polygon","arcs":[[134]]},{"type":"Polygon","arcs":[[135,-134,-128,-122,136]]},{"type":"Polygon","arcs":[[-111,-130,-133,137,138]]},{"type":"Polygon","arcs":[[-113,-112,-139,139,140]]},{"type":"Polygon","arcs":[[141,-140,-138,-132,-136,142,143,144]]},{"type":"Polygon","arcs":[[-37,-114,-141,-142,145,146]]},{"type":"Polygon","arcs":[[147,-146,-145,148,149,150]]},{"type":"Polygon","arcs":[[-117,-38,-147,-148,151]]},{"type":"Polygon","arcs":[[152,-118,-152,-151,153]]},{"type":"Polygon","arcs":[[154,155,-83,-70,-116,-153]]},{"type":"Polygon","arcs":[[-149,-144,156,-33,157,158]]},{"type":"Polygon","arcs":[[-158,-35,159]]},{"type":"Polygon","arcs":[[-86,-84,-156,160]]},{"type":"Polygon","arcs":[[161]]},{"type":"Polygon","arcs":[[162]]},{"type":"Polygon","arcs":[[163]]},{"type":"Polygon","arcs":[[164]]},{"type":"MultiPolygon","arcs":[[[165]],[[166]]]}]}},"arcs":[[[8584,7487],[-44,-41],[-94,-89],[-40,-38],[-47,-42]],[[8359,7277],[-22,22],[-12,64],[2,31],[-22,65],[-1,33],[3,28],[5,11],[32,22],[141,129]],[[8485,7682],[59,-118],[40,-77]],[[9040,7335],[-54,-47],[10,-26],[-40,-25],[15,-52],[11,5],[8,-26],[26,15],[7,-24],[-34,-23],[1,-20],[-60,-36],[-103,-62]],[[8827,7014],[-98,191],[-41,77]],[[8688,7282],[52,40],[1,4],[96,80],[52,43],[34,31]],[[8923,7480],[9,-6],[46,-14],[14,-16],[10,-3],[12,-16],[15,-28],[11,-62]],[[8827,7014],[-164,-119],[30,-64],[-41,-26],[-47,-32]],[[8605,6773],[1,14],[-18,56],[-40,43],[-10,17],[0,29],[5,23],[-3,34],[-19,63],[-17,35],[-19,27],[-13,9]],[[8472,7123],[43,31],[2,-4],[74,52],[53,46],[44,34]],[[7971,7731],[-58,-10],[-132,-17]],[[7781,7704],[-14,78],[-20,80],[100,56],[1,2],[89,44],[8,6]],[[7945,7970],[26,-239]],[[7971,7731],[18,-171]],[[7989,7560],[-42,1]],[[7947,7561],[-18,3],[-54,1],[-72,-13],[-3,79],[-19,73]],[[8374,8372],[24,-122],[5,-2]],[[8403,8248],[70,-129],[34,-59]],[[8507,8060],[-107,-70],[-52,-35]],[[8348,7955],[-210,401]],[[8138,8356],[11,13],[44,70],[9,46],[14,14],[44,65],[25,14],[38,7]],[[8323,8585],[20,-83],[8,-44],[3,-57],[12,-7],[8,-22]],[[8323,8585],[-28,107],[-47,163]],[[8248,8855],[151,68]],[[8399,8923],[-3,-79],[-9,-170],[5,-205],[-6,-49],[-7,-41],[-5,-7]],[[8634,7820],[-49,-45],[0,-3],[-100,-90]],[[8485,7682],[-31,59],[-5,15],[-63,124]],[[8386,7880],[-38,75]],[[8507,8060],[64,-119],[63,-121]],[[8248,8855],[-43,151]],[[8205,9006],[144,65],[50,20],[38,23]],[[8437,9114],[-11,-26],[-19,-85],[-6,-38],[-2,-42]],[[9795,7763],[-5,18],[-41,88]],[[9749,7869],[83,60],[89,60],[49,35],[19,-81],[10,-34],[-78,-54],[-36,-27]],[[9885,7828],[-90,-65]],[[9693,6727],[-3,-1],[-80,93],[-20,28],[76,25],[35,-48],[39,-49],[-47,-48]],[[9308,7504],[-2,-20],[-14,-22],[1,-54],[13,-24],[37,-24],[29,-31]],[[9372,7329],[32,-64]],[[9404,7265],[-74,-31],[-19,-27]],[[9311,7207],[-56,53],[-85,162]],[[9170,7422],[49,22]],[[9219,7444],[32,41],[27,18],[5,15],[8,-14],[17,0]],[[8691,8468],[12,47],[-11,49],[0,18]],[[8692,8582],[5,30]],[[8697,8612],[43,14],[40,10]],[[8780,8636],[5,-4],[4,-36],[-2,-138],[-3,-67],[4,-19],[-5,-14]],[[8783,8358],[-84,-26],[-6,5],[-8,37],[3,27],[0,56],[3,11]],[[8386,7880],[-115,-99],[-40,-32],[40,-65],[25,-46],[-80,-23],[-4,7],[-38,36],[-20,15],[-25,31],[-7,26],[-14,88],[-10,23],[-2,43],[-7,22],[-14,25],[-25,35],[-4,27],[8,41],[-20,-7],[-24,10],[-28,23],[-2,18],[-23,27]],[[7957,8105],[10,8],[58,31],[8,0],[-38,66],[-28,46],[24,22],[5,-8],[17,16],[23,9],[95,72],[7,-11]],[[8359,7277],[35,-56],[21,-28],[6,-40]],[[8421,7153],[-11,-4],[-46,20],[-26,17],[-34,74],[-12,55],[-32,11],[-15,23],[6,24],[12,16],[-15,19],[-27,5],[-15,8],[-11,26],[-14,12],[-20,7],[-24,-4],[-17,13],[-2,16],[-9,8],[-4,23],[13,26],[4,27],[-3,12],[-130,-27]],[[7945,7970],[-34,308]],[[7911,8278],[10,-5],[15,-24],[6,-26],[15,-27],[8,-26],[-1,-18],[-10,-25],[3,-22]],[[8472,7123],[-10,-28],[15,-16],[-4,-11],[33,-31],[-33,-55],[-47,46],[-15,19],[-33,-19],[-13,-34],[-26,-63],[-17,-52],[-10,6]],[[8312,6885],[38,122],[11,31],[14,30],[52,78],[-6,7]],[[8584,7487],[104,-205]],[[8584,7487],[107,97],[131,116]],[[8822,7700],[15,-76],[47,-89]],[[8884,7535],[1,-6],[24,-37],[14,-12]],[[9070,6434],[5,-12],[-57,-52],[-3,8],[-62,-41],[8,-20],[-8,-8],[47,-76],[-174,-120],[-4,21],[-18,34],[-8,22],[-3,39],[-48,71],[-29,37],[-8,20],[-8,45],[5,20],[2,65],[3,51],[-13,28],[-17,24],[-17,31],[-17,13],[-10,17],[-3,25],[-6,11],[-10,-6],[-14,30],[2,62]],[[8827,7014],[71,-135],[26,-60],[29,-79],[117,-306]],[[8796,7870],[-30,71]],[[8766,7941],[1,37],[10,19],[-9,30],[15,8],[68,61]],[[8851,8096],[12,-25],[3,-14],[11,-21],[117,92],[65,49],[0,5],[45,33],[29,-60],[-3,-9]],[[9130,8146],[-47,-35],[-149,-119],[-49,-41],[-89,-81]],[[8692,8582],[-15,-8],[-133,-91]],[[8544,8483],[-12,44],[-4,31],[-7,37],[11,8],[-20,51],[50,35],[63,41]],[[8625,8730],[22,-5],[10,-7],[22,-33],[1,-27],[9,-15],[8,-31]],[[9203,7175],[-159,-100],[-5,-12],[12,-32],[26,-28],[77,-32],[35,-23],[23,-7],[26,-39],[17,-16],[15,-34],[23,-33],[33,-36]],[[9326,6783],[1,-16]],[[9327,6767],[2,-67],[-2,-35],[-10,-47],[-26,-66],[-16,-27],[2,-17]],[[9277,6508],[-10,-1],[-85,-26],[-33,-12],[-79,-35]],[[9040,7335],[34,29]],[[9074,7364],[33,-58],[65,-91],[31,-40]],[[9218,6373],[-104,-54],[-22,57],[99,47],[27,-50]],[[8105,9590],[-13,-90],[1,-58],[9,-71],[15,-60],[53,-183]],[[8170,9128],[35,-122]],[[7911,8278],[-17,141],[-5,65],[-2,71],[16,338],[12,281],[-1,15],[-74,12],[-3,-16],[-19,10],[-2,56],[28,48],[87,144],[28,38],[37,71],[7,16],[-60,29],[-27,-3],[-21,99],[56,28],[1,21],[32,4],[28,228],[59,25],[73,-46],[10,-4],[-49,-359]],[[8374,8372],[170,111]],[[8691,8468],[-36,-20],[-45,-29],[16,-38],[-63,-37],[-160,-96]],[[8312,6885],[-63,-201],[36,-40],[-14,-24],[-31,34],[-14,-38],[10,-12],[-3,-6],[13,-17],[-11,-36],[17,-14],[1,-30],[-36,15],[8,46],[-21,27],[-26,-24],[1,-33],[-12,-4],[-19,-24],[9,-41],[-22,-20],[1,-14],[-14,-2],[3,-31],[33,6],[-1,-36],[-36,-13],[7,-67],[-130,-72],[-22,80],[146,96],[-14,118],[-56,-24],[3,-13],[-14,-10],[-18,55],[14,7],[-12,31],[-10,69],[44,16],[8,16],[25,5],[-30,263],[-38,331],[-9,86],[-24,208],[-45,3],[1,10]],[[9339,6432],[-42,11],[-1,33],[-5,33],[-14,-1]],[[9327,6767],[78,24]],[[9405,6791],[4,-198]],[[9409,6593],[-37,-2],[1,-56],[-55,-3],[2,-56],[18,0],[1,-44]],[[9409,6593],[2,-81],[7,-1]],[[9418,6511],[5,-112],[-50,22],[-34,11]],[[8783,8358],[-4,-25],[75,41],[3,-27],[-11,-6],[-4,-16],[-4,-47],[1,-46]],[[8839,8232],[-64,-24],[-1,34],[-4,1],[-50,-35],[-18,-14],[-90,-63],[-105,-71]],[[8839,8232],[-1,-2],[35,-115],[-22,-19]],[[8766,7941],[-12,-16],[-78,-70],[-42,-35]],[[8796,7870],[7,-42],[-1,-38],[12,-45],[8,-45]],[[9036,7571],[-46,-38],[-67,-53]],[[8884,7535],[105,84],[-60,126],[-45,99],[33,31]],[[8917,7875],[27,-53],[49,31],[20,-46],[-23,-16],[20,-46],[-23,-17],[67,-142],[-18,-15]],[[9074,7364],[50,40],[46,18]],[[9311,7207],[11,-16],[-74,12],[-45,-28]],[[9155,7656],[4,-8],[-20,-26],[-11,-6],[24,-43]],[[9152,7573],[-51,-22],[9,-17],[-47,-22],[-27,59]],[[8917,7875],[20,23],[13,10],[71,44],[24,13],[37,15],[78,48],[20,7]],[[9180,8035],[68,14]],[[9248,8049],[-6,-47],[3,-21],[20,-36],[25,-28],[5,-18]],[[9295,7899],[-105,-35],[17,-75],[8,-42],[-39,-10],[-40,-12],[21,-67],[-2,-2]],[[9130,8146],[50,-111]],[[8625,8730],[-12,29],[-15,17],[-9,19]],[[8589,8795],[94,61],[12,-18],[15,-35],[3,0],[35,-77],[32,-90]],[[8437,9114],[3,5]],[[8440,9119],[12,-13],[-4,-14],[16,-3],[7,-18],[10,2],[10,-26],[14,-11],[-1,-14],[17,-14],[-6,-11],[16,-26],[18,-18],[0,-29],[5,-20],[-2,-23],[15,-20],[-1,-13],[10,-2],[-4,-16],[4,-22],[13,-13]],[[9295,7617],[-12,10],[-37,-50],[-48,86],[-43,-7]],[[9295,7899],[1,-4]],[[9296,7895],[6,-35],[0,-84]],[[9302,7776],[7,-51],[1,-48],[-5,-8],[0,-27],[-10,-25]],[[9295,7617],[9,-29]],[[9304,7588],[5,-67],[-1,-17]],[[9219,7444],[-67,129]],[[9433,7155],[5,-29],[-2,-13],[-12,-16],[-18,-11],[-8,-23],[-12,-12],[-37,-11],[-9,-31],[0,-22],[14,-38],[-12,-52],[1,-14],[-14,-57],[-3,-43]],[[9404,7265],[7,-17]],[[9411,7248],[12,-33],[-2,-17],[12,-33],[0,-10]],[[8105,9590],[31,-9],[24,-33],[49,-34],[28,-33],[17,-51],[10,-16],[28,-31],[7,-21],[-5,-27],[3,-18],[17,-25],[6,-23],[20,-24],[10,-33]],[[8350,9212],[-104,-48],[-76,-36]],[[8350,9212],[41,-37],[22,-45],[27,-11]],[[9626,8106],[-42,-12],[-3,4]],[[9581,8098],[-35,67],[-6,15],[-58,108],[-31,53],[-11,12]],[[9440,8353],[23,43],[40,68],[34,60],[16,-41],[21,-30],[8,-27],[3,-33],[15,-11],[10,-27],[9,-37],[-3,-40],[-6,-19],[8,-41],[-7,-18],[6,-15],[-3,-14],[9,-13],[-1,-33],[4,-19]],[[9534,8086],[-3,9],[-59,-26],[-16,7]],[[9456,8076],[-74,-14],[-52,-18],[-26,29],[-5,-5],[-10,13]],[[9289,8081],[32,50],[77,147],[42,75]],[[9581,8098],[-47,-12]],[[9456,8076],[7,-50],[8,-81]],[[9471,7945],[-175,-50]],[[9248,8049],[22,10],[19,22]],[[9571,7849],[-68,-17],[-20,-3]],[[9483,7829],[-12,116]],[[9534,8086],[6,-35],[8,-63],[17,-96],[6,-43]],[[3654,1279],[28,5],[9,-6],[9,-27],[19,-8],[8,-21],[29,-13],[29,-2],[18,-9],[-8,-28],[36,-14],[-7,-15],[-14,-13],[2,-27],[-8,-10],[-19,-7],[-12,29],[-12,-12],[-5,-25],[-23,-18],[-23,-2],[-13,6],[-15,55],[-49,-17],[-23,62],[27,10],[31,1],[24,9],[-68,66],[-48,-18],[41,43],[6,17],[12,10],[16,-8],[3,-13]],[[9572,7849],[-1,0]],[[9626,8106],[13,-32],[-4,-11],[23,-56],[-10,-31],[-12,-8],[-15,0],[-7,-18],[-1,-44],[-13,-28],[-14,-6],[3,-7],[-17,-16]],[[9483,7829],[0,-6]],[[9483,7823],[-181,-47]],[[9483,7823],[2,-27],[0,-73]],[[9485,7723],[-69,-20],[7,-80],[-119,-35]],[[9494,7624],[-6,40],[-3,59]],[[9572,7849],[1,-24],[-5,-13],[-1,-31],[5,-12],[-1,-24]],[[9571,7745],[-17,-39],[-4,-24],[2,-40]],[[9552,7642],[-58,-18]],[[9494,7624],[6,-73],[3,-50],[8,-12],[-1,-27]],[[9510,7462],[-117,-34],[9,-86],[-30,-13]],[[9510,7278],[-3,79],[0,42],[3,63]],[[9552,7642],[10,-40]],[[9562,7602],[-3,-17],[11,-30],[5,-70],[11,-33],[3,-29],[-2,-38],[-22,-48],[3,-43]],[[9568,7294],[-58,-16]],[[9510,7278],[-99,-30]],[[9586,7119],[-59,-18],[-21,-10],[-10,80],[-63,-16]],[[9568,7294],[1,-18],[-10,-49],[3,-25],[6,-9],[8,-32],[6,-8],[4,-34]],[[9586,7119],[7,-46],[1,-31],[10,-20],[-6,-8],[3,-25],[-5,-2],[16,-32],[-17,-42],[-11,-13],[-8,-59],[-24,-5]],[[9552,6836],[-147,-45]],[[9571,7745],[7,2],[80,58],[91,64]],[[9795,7763],[-169,-120]],[[9626,7643],[-52,-35],[-12,-6]],[[9885,7828],[15,-36],[46,-96],[-131,-95],[-126,-95],[-18,51],[-16,36],[-12,17],[-17,33]],[[9552,6836],[1,-133],[5,-95],[2,-97],[-142,0]],[[5497,636],[6,3],[13,-21],[-7,-27],[-1,-22],[22,-16],[1,-41],[7,5],[22,-26],[36,6],[-1,11],[31,2],[4,-47],[14,-4],[-3,-20],[-40,13],[-36,-6],[4,-38],[13,-7],[-22,-46],[-55,31],[-5,-39],[26,-21],[-24,-39],[-13,4],[-3,-23],[-40,10],[-31,12],[2,13],[-23,2],[9,82],[7,13],[-13,1],[-11,-9],[1,15],[-41,7],[1,43],[-25,2],[-1,-21],[-16,-15],[-39,13],[4,29],[-74,15],[1,18],[16,18],[27,-1],[8,-8],[0,-20],[48,-3],[19,-5],[-3,52],[8,8],[30,1],[8,-21],[63,7],[-2,24],[6,19],[10,7],[7,24],[19,25],[13,12],[23,-1]],[[6583,4998],[7,-12],[-13,-9],[17,-35],[10,-1],[18,-45],[26,-19],[6,-11],[27,-8],[18,-25],[32,-20],[8,-2],[0,-14],[-112,19],[-22,-14],[-10,-27],[-10,2],[-32,39],[-5,21],[9,57],[-11,41],[-59,-16],[-2,13],[-64,-21],[-55,-48],[19,-33],[7,6],[7,-14],[-16,-14],[-9,16],[-11,-10],[-19,30],[7,8],[-16,2],[-5,22],[9,7],[-4,13],[20,6],[45,26],[-7,22],[30,14],[4,-8],[22,11],[-10,17],[27,10],[13,9],[4,-24],[79,28],[11,11],[10,-20]],[[7732,3242],[15,7],[47,-51],[40,-42],[11,-62],[5,-46],[33,-43],[-17,-31],[-22,0],[-20,-28],[-117,119],[-25,-35],[-60,60],[9,14],[-8,7],[11,25],[39,55],[10,-12],[39,58],[5,14],[5,-9]],[[99,2731],[0,-6],[20,-11],[27,-10],[-5,-19],[13,-12],[-6,-36],[3,-10],[20,-3],[-1,-8],[17,-6],[3,15],[9,-2],[-2,-15],[14,-5],[-1,-23],[-25,7],[-10,-41],[10,-4],[-1,-15],[12,-2],[12,-27],[-1,-11],[-24,-3],[-27,3],[-21,-13],[-4,15],[-19,9],[-5,-20],[-11,0],[-47,16],[0,-11],[-16,19],[-18,7],[-12,17],[16,74],[-19,6],[7,31],[45,-12],[2,17],[7,-2],[12,35],[-10,5],[12,7],[0,21],[9,23],[15,0]],[[5863,312],[-20,-41],[12,-10],[10,20],[40,-33],[-21,-40],[20,-14],[-12,-20],[-13,-29],[-14,-21],[37,-32],[22,38],[18,-13],[26,-42],[-13,-19],[11,0],[12,-9],[14,25],[11,-10],[-23,-36],[-54,45],[-66,-71],[-15,12],[-29,14],[-11,-3],[-6,9],[-25,-26],[-4,6],[18,16],[-4,10],[13,16],[0,14],[-44,69],[-18,19],[-12,-12],[-15,21],[-35,-54],[-41,41],[30,27],[19,-20],[17,12],[13,22],[6,24],[-28,29],[-7,-1],[-34,44],[12,14],[-37,46],[-33,32],[10,16],[15,-15],[24,-34],[19,-13],[36,-32],[18,16],[8,-11],[19,9],[10,-2],[4,-14],[15,-15],[23,36],[12,-12],[38,55],[-12,14],[-14,6],[-2,12],[21,34],[-4,16],[20,19],[34,-33],[-8,-13],[21,-9],[-32,-58],[15,-10],[-17,-31]],[[6006,573],[62,-19],[11,5],[11,-12],[25,-10],[25,-15],[30,-11],[-4,-15],[-32,14],[-7,-40],[-70,30],[-1,-11],[-28,10],[-6,-30],[-5,-8],[-57,13],[-18,9],[-14,14],[56,86],[22,-10]]]}