{"type":"Topology","bbox":[-72.8102564131346,2.6177872163448974,-72.58008504569136,2.835742674653064],"transform":{"scale":[0.00002301943868819217,0.00002179772560337698],"translate":[-72.8102564131346,2.6177872163448974]},"objects":{"municipios":{"type":"GeometryCollection","geometries":[{"type":"Polygon","arcs":[[0]],"properties":{"codigo":"50450200318003000101","sector":"504502003180030001","pcode":"CO50450","area_m2":128511}},{"type":"Polygon","arcs":[[1,2,3]],"properties":{"codigo":"50450100000000000101","sector":"504501000000000001","pcode":"CO50450","area_m2":468099}},{"type":"Polygon","arcs":[[-3,4,5]],"properties":{"codigo":"50450100000000000102","sector":"504501000000000001","pcode":"CO50450","area_m2":177814}},{"type":"Polygon","arcs":[[-5,-2,6]],"properties":{"codigo":"50450100000000000103","sector":"504501000000000001","pcode":"CO50450","area_m2":227506}},{"type":"Polygon","arcs":[[7]],"properties":{"codigo":"50450200209001000101","sector":"504502002090010001","pcode":"CO50450","area_m2":123731}},{"type":"Polygon","arcs":[[8]],"properties":{"codigo":"50450200323002000101","sector":"504502003230020001","pcode":"CO50450","area_m2":82961}}]}},"arcs":[[[9986,5494],[13,-53],[-97,-15],[9,-85],[-76,-6],[-3,37],[-76,-12],[-11,43],[3,45],[12,14],[58,5],[-6,-18],[137,21],[-2,16],[39,8]],[[2412,240],[-86,7],[-163,19]],[[2163,266],[-106,13],[2,19],[-37,4]],[[2022,302],[-3,113],[2,102],[20,1],[0,48],[12,50],[41,-1],[-12,-107],[53,-5],[9,67],[80,-8],[-13,-102],[8,-2],[-11,-53],[87,-21],[0,-10],[57,-30],[36,-54],[24,-50]],[[2163,266],[-11,-178]],[[2152,88],[-80,-4],[9,-84],[-72,11],[4,29],[19,22],[-2,83],[6,61],[-14,96]],[[2412,240],[-1,-15],[-34,-4],[-6,-59],[-15,-57],[-148,-12],[4,-69],[-36,-2],[-14,67],[-10,-1]],[[95,9953],[24,39],[39,-19],[-45,-79],[104,-97],[-15,-19],[-31,28],[-25,-43],[-60,51],[-2,32],[-43,37],[10,11],[-34,31],[8,10],[-25,23],[22,41],[73,-46]],[[3814,4236],[43,-61],[24,32],[26,-24],[-33,-51],[-30,24],[-34,5],[-1,-25],[16,-41],[-44,2],[1,24],[-26,-8],[-8,86],[37,-3],[2,31],[-16,2],[3,61],[16,-2],[-1,-27],[26,-2],[-1,-23]]]}
