{"type":"Topology","bbox":[-73.10971366565991,4.279098613427351,-72.78587121208926,4.403247532134822],"transform":{"scale":[0.000032387484105475406,0.0000124161334840955],"translate":[-73.10971366565991,4.279098613427351]},"objects":{"municipios":{"type":"GeometryCollection","geometries":[{"type":"Polygon","arcs":[[0,1,2]],"properties":{"codigo":"50124100000000000101","sector":"501241000000000001","pcode":"CO50124","area_m2":148762}},{"type":"Polygon","arcs":[[3]],"properties":{"codigo":"50124200305002000101","sector":"501242003050020001","pcode":"CO50124","area_m2":72597}},{"type":"Polygon","arcs":[[4]],"properties":{"codigo":"50124200801004000101","sector":"501242008010040001","pcode":"CO50124","area_m2":35318}},{"type":"Polygon","arcs":[[5,-3,6,7,8]],"properties":{"codigo":"50124100000000000102","sector":"501241000000000001","pcode":"CO50124","area_m2":451468}},{"type":"Polygon","arcs":[[9,-1,-6]],"properties":{"codigo":"50124100000000000103","sector":"501241000000000001","pcode":"CO50124","area_m2":379083}},{"type":"Polygon","arcs":[[-8,10]],"properties":{"codigo":"50124100000000000104","sector":"501241000000000001","pcode":"CO50124","area_m2":109491}},{"type":"Polygon","arcs":[[11,12]],"properties":{"codigo":"50124200403003000101","sector":"501242004030030001","pcode":"CO50124","area_m2":126413}},{"type":"Polygon","arcs":[[13,-12]],"properties":{"codigo":"50124200403003000102","sector":"501242004030030001","pcode":"CO50124","area_m2":252803}}]}},"arcs":[[[9750,393],[-47,-221]],[[9703,172],[-64,83],[12,64],[-4,31],[8,58],[24,32],[7,56],[11,9],[15,73],[0,55],[-10,-25],[-18,27],[23,97]],[[9707,732],[46,-165],[8,-6],[-16,-78],[-15,20],[-10,-56],[30,-54]],[[9205,9968],[-8,-80],[-8,-19],[7,-41],[-20,-16],[7,-45],[-32,-22],[-13,39],[-6,65],[-14,44],[-24,-11],[-11,41],[38,11],[50,43],[36,22],[-2,-31]],[[2,4477],[-2,71],[17,2],[1,-25],[23,55],[35,-120],[-25,-50],[-12,43],[-18,-31],[-19,55]],[[9918,630],[-12,-17],[-12,-93],[-19,16],[17,64],[-67,118],[-27,-102],[-48,-223]],[[9707,732],[-18,38],[21,122],[12,41],[12,-70],[22,34],[14,-17]],[[9770,880],[17,-29],[12,40],[9,-18],[28,111],[15,-28],[38,153],[63,-120]],[[9952,989],[5,-21],[-19,-71],[14,-25],[36,129],[11,-19],[-54,-198],[33,-63],[1,-35],[-17,-58],[-36,46],[-8,-44]],[[9918,630],[8,-30],[13,-114],[-41,35],[-5,-21],[-34,-329],[-17,5],[-11,-176],[-128,172]],[[9770,880],[-15,30],[32,45],[12,46],[9,-13],[69,95],[-34,62],[22,73],[100,-51],[-24,-84],[23,-45],[-12,-49]],[[9733,5742],[-7,22],[-58,90],[-19,19],[-99,66]],[[9550,5939],[1,9],[85,128],[26,-52],[17,-49],[18,-22],[32,-68],[41,-62],[-37,-81]],[[9733,5742],[-151,-261],[-6,76],[-12,-12],[-11,220],[-22,50],[-16,-4],[0,81],[35,47]]]}
