{"type":"Topology","bbox":[-74.0335781499926,3.2141540037749836,-73.62848077292358,3.476686298708831],"transform":{"scale":[0.000040513789085809786,0.000026255855078892622],"translate":[-74.0335781499926,3.2141540037749836]},"objects":{"municipios":{"type":"GeometryCollection","geometries":[{"type":"Polygon","arcs":[[0]],"properties":{"codigo":"50683200603011000101","sector":"506832006030110001","pcode":"CO50683","area_m2":95122}},{"type":"Polygon","arcs":[[1,2,3,4]],"properties":{"codigo":"50683100000000000103","sector":"506831000000000001","pcode":"CO50683","area_m2":125962}},{"type":"MultiPolygon","arcs":[[[5]],[[6]]],"properties":{"codigo":"50683200402015000101","sector":"506832004020150001","pcode":"CO50683","area_m2":23373}},{"type":"Polygon","arcs":[[7]],"properties":{"codigo":"50683200805012000101","sector":"506832008050120001","pcode":"CO50683","area_m2":39492}},{"type":"Polygon","arcs":[[8]],"properties":{"codigo":"50683200305013000101","sector":"506832003050130001","pcode":"CO50683","area_m2":37878}},{"type":"Polygon","arcs":[[-3,9,10,11,12]],"properties":{"codigo":"50683100000000000101","sector":"506831000000000001","pcode":"CO50683","area_m2":250395}},{"type":"Polygon","arcs":[[13,-4,-13,14,15]],"properties":{"codigo":"50683100000000000102","sector":"506831000000000001","pcode":"CO50683","area_m2":248563}},{"type":"Polygon","arcs":[[16,-10,-2,17]],"properties":{"codigo":"50683100000000000104","sector":"506831000000000001","pcode":"CO50683","area_m2":207329}},{"type":"Polygon","arcs":[[-12,18,-15]],"properties":{"codigo":"50683100000000000105","sector":"506831000000000001","pcode":"CO50683","area_m2":364934}},{"type":"Polygon","arcs":[[19,-18,20]],"properties":{"codigo":"50683100000000000201","sector":"506831000000000002","pcode":"CO50683","area_m2":192273}},{"type":"Polygon","arcs":[[-21,-5,-14,21]],"properties":{"codigo":"50683100000000000202","sector":"506831000000000002","pcode":"CO50683","area_m2":94428}},{"type":"Polygon","arcs":[[22]],"properties":{"codigo":"50683200102001000101","sector":"506832001020010001","pcode":"CO50683","area_m2":73524}},{"type":"MultiPolygon","arcs":[[[23]],[[24]]],"properties":{"codigo":"50683200104005000101","sector":"506832001040050001","pcode":"CO50683","area_m2":123940}}]}},"arcs":[[[9998,151],[-37,-77],[17,-22],[-4,-31],[6,-21],[-47,72],[-25,21],[11,9],[38,100],[41,-51]],[[3973,5936],[-57,2]],[[3916,5938],[-8,62],[-19,75]],[[3889,6075],[86,3]],[[3975,6078],[-2,-142]],[[5872,7032],[-13,-11],[-11,12],[9,42],[23,-10],[4,-11],[-12,-22]],[[5866,7204],[-17,-11],[-1,-17],[-17,0],[3,25],[32,3]],[[4412,535],[6,2],[33,-65],[-5,-7],[-43,35],[-9,-1],[16,39],[-3,8],[14,31],[40,-16],[-10,-26],[-33,11],[-6,-11]],[[3273,1566],[11,0],[5,-73],[-24,1],[-16,72],[-31,18],[16,18],[19,-12],[-2,-15],[22,-9]],[[3916,5938],[-44,-17]],[[3872,5921],[-9,89],[-16,0],[-32,-30],[-10,62],[0,33],[19,5],[-53,91]],[[3771,6171],[18,-1],[0,26],[67,1]],[[3856,6197],[33,-122]],[[3995,6076],[-20,2]],[[3856,6197],[-19,71]],[[3837,6268],[5,4],[30,-68],[83,57],[16,-31],[29,-119],[5,-31],[-10,-4]],[[3946,5775],[-18,-12],[-6,-77],[-21,6],[1,50],[-24,118],[-6,61]],[[3973,5936],[-2,-124],[-22,1],[-3,-38]],[[3771,6171],[-23,7],[-9,24],[-11,0],[-15,28],[1,52],[9,52],[-11,0],[16,94],[28,51],[41,-56],[40,-155]],[[4045,5969],[20,-12],[33,-36],[4,-12],[-54,-59],[-53,-63],[-25,0],[-24,-12]],[[3973,5936],[44,-1],[0,33],[28,1]],[[3995,6076],[0,-19],[17,6],[12,-12],[8,-37],[8,-10],[5,-35]],[[1293,9963],[14,13],[17,-23],[-8,-13],[14,-18],[-4,-17],[15,-19],[-13,-32],[-11,22],[-10,-18],[-17,29],[-4,28],[-31,41],[1,20],[12,22],[25,-35]],[[85,9326],[11,-8],[22,-90],[-4,-2],[13,-63],[32,-40],[-9,-14],[-45,44],[-9,-3],[-21,88],[5,3],[-12,52],[-13,15],[8,25],[18,14],[4,-21]],[[39,9165],[-29,-47],[1,33],[-11,48],[34,6],[5,-40]]]}
