{"type":"Topology","bbox":[-74.36000293238124,2.9841701166851458,-74.21409818086141,3.244244477109065],"transform":{"scale":[0.000014591934345416761,0.000026010037046096517],"translate":[-74.36000293238124,2.9841701166851458]},"objects":{"municipios":{"type":"GeometryCollection","geometries":[{"type":"Polygon","arcs":[[0,1,2]],"properties":{"codigo":"50370100000000000101","sector":"503701000000000001","pcode":"CO50370","area_m2":112752}},{"type":"Polygon","arcs":[[3,4,-1,5]],"properties":{"codigo":"50370100000000000102","sector":"503701000000000001","pcode":"CO50370","area_m2":108698}},{"type":"Polygon","arcs":[[6,-2,-5,7]],"properties":{"codigo":"50370100000000000104","sector":"503701000000000001","pcode":"CO50370","area_m2":284089}},{"type":"Polygon","arcs":[[-8,-4,8]],"properties":{"codigo":"50370100000000000103","sector":"503701000000000001","pcode":"CO50370","area_m2":349517}},{"type":"Polygon","arcs":[[9]],"properties":{"codigo":"50370201505001000101","sector":"503702015050010001","pcode":"CO50370","area_m2":368359}},{"type":"Polygon","arcs":[[10]],"properties":{"codigo":"50370200706002000101","sector":"503702007060020001","pcode":"CO50370","area_m2":86548}}]}},"arcs":[[[186,9970],[141,-111]],[[327,9859],[-73,-28],[-36,6]],[[218,9837],[-95,27],[-20,25],[-31,9],[23,21],[-95,23],[9,12],[78,45],[23,-12],[-20,-13],[65,-22],[31,18]],[[586,9961],[-72,-34],[-111,-40]],[[403,9887],[-76,-28]],[[186,9970],[48,-10],[70,-5],[60,23],[30,1],[81,-17],[67,13],[44,-14]],[[1225,9628],[-17,-22],[-122,33],[-324,62],[-194,22],[-80,12],[-59,-1],[19,29],[-32,2],[-26,-55],[12,-12],[-40,6],[13,16],[-58,39],[-20,35],[-19,3],[-60,40]],[[403,9887],[38,-31],[74,-32],[334,-97],[376,-99]],[[586,9961],[64,1],[36,-9],[11,-27],[57,-24],[-10,-24],[61,-2],[23,-40],[54,-6],[-37,-59],[45,-12],[22,21],[55,-14],[-18,-23],[338,-91],[-27,-33],[-35,9]],[[9820,309],[27,-11],[69,5],[4,-13],[59,0],[19,-98],[-41,-2],[-1,-60],[10,-45],[-9,-1],[18,-50],[24,-32],[-47,-1],[-24,47],[-83,-7],[-10,29],[57,4],[-15,35],[-158,-4],[-14,-11],[-48,-5],[-33,8],[-25,-12],[-6,21],[-91,-5],[53,20],[-3,16],[-30,0],[-22,76],[121,3],[4,-5],[139,10],[-1,8],[83,-1],[-33,51],[-64,-12],[-20,40],[-30,6],[52,9],[3,29],[40,5],[26,-47]],[[7214,4912],[41,-26],[-59,-24],[22,-24],[35,9],[31,-20],[-6,-19],[-61,-13],[-48,2],[-13,13],[-119,-41],[-12,25],[38,24],[-1,16],[34,24],[11,38],[40,0],[58,22],[9,-6]]]}
