{"type":"Topology","bbox":[-78.1411136366309,2.100070825305954,-78.05841857783707,2.6628754445063847],"transform":{"scale":[0.0000082703329126744,0.00005628609052909599],"translate":[-78.1411136366309,2.100070825305954]},"objects":{"municipios":{"type":"GeometryCollection","geometries":[{"type":"Polygon","arcs":[[0,1,2,3]]},{"type":"Polygon","arcs":[[4,-2,5]]},{"type":"Polygon","arcs":[[6,7,-4,8,9]]},{"type":"Polygon","arcs":[[-10,10]]},{"type":"Polygon","arcs":[[-6,-1,-8,11]]},{"type":"Polygon","arcs":[[12]]},{"type":"Polygon","arcs":[[13]]},{"type":"MultiPolygon","arcs":[[[14]],[[15]]]}]}},"arcs":[[[3650,6734],[114,4],[30,-3]],[[3794,6735],[-139,-36],[-47,5],[-45,-9],[8,-2],[-48,-16]],[[3523,6677],[-44,4],[-122,13],[-21,5]],[[3336,6699],[81,10],[144,21],[52,9],[37,-5]],[[4200,6712],[10,-4],[-44,-7],[-20,-6],[72,-8],[-24,-9],[15,-2],[-36,-5],[14,-4],[99,-16],[-15,-2],[39,-7],[-14,-3],[-40,1],[-22,-2],[-168,-5],[-106,10],[-253,21],[-96,6],[-88,7]],[[3794,6735],[30,7],[107,-8],[-28,-8],[37,-3],[28,7],[167,-20],[65,2]],[[3650,6806],[-22,-9],[-18,-2],[1,-8],[-46,-4],[43,0],[7,3],[44,-1],[24,-6],[-5,-5],[-24,-3],[29,-3],[29,-8],[-39,-1],[5,-8],[-54,-3],[-3,-5],[40,-7]],[[3661,6736],[-11,-2]],[[3336,6699],[-66,13],[-23,18],[5,12],[11,11],[35,10],[41,33],[10,12]],[[3349,6808],[185,0],[116,-2]],[[3349,6808],[20,24],[46,25],[51,16],[89,24],[166,-8],[-15,-6],[14,-2],[-61,-16],[-1,-9],[10,-3],[-15,-6],[45,-2],[20,4],[30,0],[-4,-4],[32,-8],[59,0],[23,-7],[-63,1],[-9,-7],[-74,2],[-30,8],[-18,-3],[-29,3],[-29,-23],[52,0],[-8,-5]],[[3661,6736],[40,9],[85,11],[-14,2],[47,6],[21,-2],[56,12],[39,5],[39,7],[16,6],[-18,2],[15,6],[-31,6],[23,3],[75,-10],[14,3],[96,-12],[-1,-5],[50,0],[20,-6],[-41,-5],[1,-5],[34,2],[5,-6],[-59,-1],[-39,-3],[-19,1],[56,-37],[29,-13]],[[9526,5828],[47,-11],[114,5],[32,6],[-4,2],[48,0],[-6,-4],[23,-3],[88,4],[74,2],[31,-2],[26,-7],[-11,-7],[-79,-4],[-33,0],[-82,3],[-88,0],[-64,-4],[-146,-13],[-83,-3],[-85,-10],[-40,3],[1,6],[64,6],[98,11],[-27,7],[35,-2],[5,6],[52,2],[-27,12],[14,1],[23,-6]],[[1468,15],[13,-3],[21,2],[31,-6],[-50,-8],[-41,6],[-33,0],[-57,7],[-55,0],[-52,-1],[-42,1],[-76,4],[57,19],[28,4],[84,6],[82,1],[62,-14],[-27,-2],[20,-8],[35,-8]],[[583,9998],[148,-15],[88,-14],[-2,-7],[-65,-14],[23,-1],[-46,-4],[23,-2],[-15,-5],[-27,3],[-69,-12],[-50,-5],[-21,3],[-22,-7],[-27,2],[-12,-3],[16,-5],[-61,8],[14,6],[-126,0],[-41,-18],[-23,1],[15,19],[24,12],[25,20],[32,7],[79,3],[41,-2],[20,7],[25,0],[-20,8],[0,14],[54,1]],[[142,9879],[-28,-6],[-71,-9],[-43,4],[4,3],[101,22],[31,1],[75,9],[29,-4],[-71,-9],[-27,-11]]]}
