{"type":"Topology","bbox":[-77.97770469928565,1.1381067768614823,-77.86109633940129,1.1997291811461614],"transform":{"scale":[0.000011662002188655567,0.000006162856714139327],"translate":[-77.97770469928565,1.1381067768614823]},"objects":{"municipios":{"type":"GeometryCollection","geometries":[{"type":"Polygon","arcs":[[0,1,2]],"properties":{"codigo":"52435100000000000101","sector":"524351000000000001","pcode":"CO52435","area_m2":131464}},{"type":"Polygon","arcs":[[3,4,-2]],"properties":{"codigo":"52435100000000000102","sector":"524351000000000001","pcode":"CO52435","area_m2":128802}},{"type":"Polygon","arcs":[[5,6]],"properties":{"codigo":"52435200601002000101","sector":"524352006010020001","pcode":"CO52435","area_m2":59028}},{"type":"Polygon","arcs":[[7]],"properties":{"codigo":"52435200601008000101","sector":"524352006010080001","pcode":"CO52435","area_m2":134279}},{"type":"Polygon","arcs":[[-3,-5,8,9,10]],"properties":{"codigo":"52435200205009000101","sector":"524352002050090001","pcode":"CO52435","area_m2":549160}},{"type":"Polygon","arcs":[[-10,11]],"properties":{"codigo":"52435200205010000101","sector":"524352002050100001","pcode":"CO52435","area_m2":194365}},{"type":"Polygon","arcs":[[-6,12]],"properties":{"codigo":"52435200601011000101","sector":"524352006010110001","pcode":"CO52435","area_m2":73467}}]}},"arcs":[[[9540,1026],[62,-179],[58,64],[98,-213],[51,-80],[64,107],[20,-107],[46,-101],[-56,-127],[15,-37],[90,40],[11,-85],[-38,-130],[-33,-29]],[[9928,149],[0,131],[-39,27],[-57,-81],[-159,315],[-91,111],[-43,119],[-92,182]],[[9447,953],[93,73]],[[9928,149],[-46,41],[-44,-89],[-134,-67],[-14,-34],[-38,131],[-89,75],[-84,163],[48,82],[-20,315],[-60,136]],[[9447,902],[0,51]],[[284,8981],[35,31]],[[319,9012],[56,-98],[34,-208],[73,-218],[153,-28],[-41,-126],[-100,74],[-97,-14],[-55,111],[17,159],[-49,166],[35,36],[-61,115]],[[2495,8465],[130,-6],[-28,-134],[6,-97],[-31,-86],[-83,-110],[-22,110],[-129,-51],[-147,40],[-3,-167],[-42,-5],[-37,138],[103,162],[46,12],[-30,167],[27,45],[88,-47],[40,55],[112,-26]],[[9447,902],[-68,-49],[-25,26],[-59,262],[-29,54],[-2,121],[-67,176],[-64,50],[-42,141],[-38,36],[-116,-5],[-36,42],[-96,325],[-7,95],[-47,93],[5,109],[-46,144],[-32,37],[52,199]],[[8730,2758],[47,73],[66,168]],[[8843,2999],[98,-272],[41,-223],[33,-25],[53,-123],[5,-95],[93,53],[20,-140],[34,28],[30,-79],[87,-121],[-22,-152],[44,-97],[37,24],[52,-212],[55,-133],[-48,-50],[49,-214],[22,30],[41,-147],[-27,-25]],[[8730,2758],[-88,8],[-109,100],[21,46],[-68,71],[-2,70],[-72,40],[-137,142],[25,57],[-131,141],[-106,54],[-14,105],[25,59],[180,-109],[87,-71],[143,-166],[151,-91],[39,14],[82,-143],[57,-22],[30,-64]],[[284,8981],[-40,167],[-62,119],[-166,580],[-14,95],[56,47],[66,0],[46,-134],[-13,-25],[-46,138],[-12,-143],[62,-292],[78,-49],[37,-256],[59,-151],[-16,-65]]]}
