{"type":"Topology","bbox":[-77.58300411180011,1.015895765616379,-77.55874788018627,1.0630867251581093],"transform":{"scale":[0.0000024258657479581237,0.000004719567910964132],"translate":[-77.58300411180011,1.015895765616379]},"objects":{"municipios":{"type":"GeometryCollection","geometries":[{"type":"Polygon","arcs":[[0,1,2,3]],"properties":{"codigo":"52506100000000000101","sector":"525061000000000001","pcode":"CO52506","area_m2":249924}},{"type":"Polygon","arcs":[[4,-1,5]],"properties":{"codigo":"52506100000000000102","sector":"525061000000000001","pcode":"CO52506","area_m2":87765}},{"type":"Polygon","arcs":[[6,7,-2,-5]],"properties":{"codigo":"52506100000000000103","sector":"525061000000000001","pcode":"CO52506","area_m2":112891}},{"type":"Polygon","arcs":[[-8,8,-3]],"properties":{"codigo":"52506100000000000104","sector":"525061000000000001","pcode":"CO52506","area_m2":88955}},{"type":"Polygon","arcs":[[9]],"properties":{"codigo":"52506200102002000101","sector":"525062001020020001","pcode":"CO52506","area_m2":66836}},{"type":"Polygon","arcs":[[10]],"properties":{"codigo":"52506200103005000101","sector":"525062001030050001","pcode":"CO52506","area_m2":61043}}]}},"arcs":[[[8043,9280],[-613,-325]],[[7430,8955],[-195,95],[-480,-233]],[[6755,8817],[-636,248],[-224,108],[-234,73]],[[5661,9246],[-169,120],[-406,213],[315,136],[380,-203],[165,25],[220,-118],[122,38],[161,-42],[161,141],[-15,139],[338,144],[219,-112],[145,55],[277,182],[134,33],[158,-27],[5,-81],[134,-121],[223,-50],[-208,-162],[272,-145],[-249,-131]],[[7398,8352],[374,167],[202,173],[-544,263]],[[8043,9280],[188,-127],[-190,-126],[293,-135],[68,39],[287,-113],[-79,-124],[293,23],[71,-44],[-188,-83],[-160,33],[-175,-49],[-416,-50],[151,-80],[-244,-91],[-325,-157],[-219,156]],[[7398,8352],[-167,103],[-229,-5],[-144,-95],[-318,-112],[-208,70],[-186,-108],[-73,39],[17,112]],[[6090,8356],[-97,48],[200,129],[562,284]],[[6090,8356],[-352,-149],[-259,120],[-160,110],[304,16],[200,-53],[-262,213],[13,119],[308,174],[-264,21],[112,145],[-245,102],[176,72]],[[9688,1135],[159,-19],[152,-137],[-400,-2],[-181,-71],[-71,-84],[55,-159],[78,0],[-37,-105],[190,-358],[113,-105],[226,-65],[-218,17],[-219,159],[-91,-30],[-128,187],[-209,-37],[-103,102],[-99,-117],[-34,79],[-143,87],[201,241],[-50,30],[148,172],[254,107],[120,-33],[69,65],[218,76]],[[526,5753],[331,111],[137,-48],[229,-10],[40,118],[285,-38],[26,-144],[360,-55],[100,82],[38,-254],[-102,-157],[-246,-9],[-9,114],[-134,180],[-416,-51],[-60,84],[-55,-81],[-249,47],[32,40],[-384,-43],[-267,-238],[-68,14],[75,117],[154,97],[-32,165],[-311,140],[138,-16],[388,-165]]]}
