{"type":"Topology","bbox":[-77.558198280576,1.1233914777373804,-77.54331847733386,1.147136901720023],"transform":{"scale":[0.0000014881291371275351,0.0000023747798762518927],"translate":[-77.558198280576,1.1233914777373804]},"objects":{"municipios":{"type":"GeometryCollection","geometries":[{"type":"Polygon","arcs":[[0,1,2]],"properties":{"codigo":"52320100000000000101","sector":"523201000000000001","pcode":"CO52320","area_m2":273311}},{"type":"Polygon","arcs":[[3,4,5,-1,6]],"properties":{"codigo":"52320100000000000102","sector":"523201000000000001","pcode":"CO52320","area_m2":177031}},{"type":"Polygon","arcs":[[-6,7,8,-2]],"properties":{"codigo":"52320100000000000103","sector":"523201000000000001","pcode":"CO52320","area_m2":199477}},{"type":"Polygon","arcs":[[9,10,11,-8,-5,12]],"properties":{"codigo":"52320100000000000201","sector":"523201000000000002","pcode":"CO52320","area_m2":285702}},{"type":"Polygon","arcs":[[-13,-4,13]],"properties":{"codigo":"52320100000000000202","sector":"523201000000000002","pcode":"CO52320","area_m2":133728}},{"type":"Polygon","arcs":[[14,-11]],"properties":{"codigo":"52320100000000000203","sector":"523201000000000002","pcode":"CO52320","area_m2":120538}},{"type":"Polygon","arcs":[[15]],"properties":{"codigo":"52320200104016000101","sector":"523202001040160001","pcode":"CO52320","area_m2":45338}}]}},"arcs":[[[7285,4696],[-232,-219],[-605,-407],[-679,-482],[9,-85],[-201,-208]],[[5577,3295],[-1034,276],[-955,277],[-378,82],[-62,-47]],[[3148,3883],[-367,-50],[-398,-278],[-355,-165],[-542,185],[127,181],[-568,100],[-589,165],[-257,-146],[-199,211],[612,165],[154,-83],[905,17],[102,-39],[178,98],[389,-124],[370,59],[527,208],[283,-18],[177,77],[280,13],[155,57],[151,-26],[199,51],[289,-75],[175,113],[164,-67],[269,74],[156,122],[113,276],[-344,-56],[-25,240],[-230,112],[-81,114],[313,79],[302,599],[1071,-232],[207,-89],[-350,-234],[-127,-206],[-223,-113],[-13,-199],[598,24],[233,-244],[271,164],[58,136],[225,-61],[-248,-322]],[[9397,3279],[-196,2],[-1585,-194],[-595,-210],[-88,63],[-403,-154]],[[6530,2786],[-33,40],[-256,-102],[-1089,-497]],[[5152,2227],[-114,164],[24,135],[956,397],[-136,157],[-63,159],[-242,56]],[[7285,4696],[82,-38],[-172,-123],[312,-578],[323,50],[-46,-195],[212,-8],[91,164],[256,-37],[166,-153],[134,23],[48,194],[169,64],[63,-126],[315,77],[228,-105],[135,-304],[398,-246],[-415,-115],[-187,39]],[[5152,2227],[-1339,-545],[-666,-323],[-431,-228],[-203,-149],[-124,-198],[-170,-21],[-438,156],[-250,-45],[-197,-239]],[[1334,635],[-140,-20],[-554,95],[-291,87],[382,283],[211,-54],[211,266],[881,-168],[74,254],[295,239],[54,172],[362,135],[29,79],[240,117],[310,77],[500,226],[385,139],[147,116],[-404,243],[-576,564],[54,61],[-356,337]],[[8530,1327],[351,-249],[-44,-394],[-442,-219],[-426,293],[-788,-294],[-90,117],[-327,226],[-525,-599],[-435,240]],[[5804,448],[-72,412],[-219,520],[-102,350],[-329,-101],[-99,74],[-205,-39],[-219,-125],[-97,-252],[-646,-2],[52,98],[291,173],[48,77],[-214,-71],[-281,-151],[-181,10],[34,-151],[-252,-199]],[[3313,1071],[-208,-50],[-155,52],[-153,-71],[-54,-173],[-360,-190],[-284,-72],[-86,-92],[-364,-17],[-349,127],[34,50]],[[6530,2786],[307,-346],[416,-338],[-115,-51],[396,-136],[181,-127],[815,-461]],[[9397,3279],[162,-369],[-403,-5],[-1,-163],[-324,-88],[-81,-69],[-411,-63],[-5,-51],[667,-272],[-157,-236],[459,-145],[-70,-83],[-703,-408]],[[5804,448],[-367,-200],[-228,-78],[-592,-136],[-358,-34],[-129,292],[-42,199],[-211,93],[-63,101],[-151,-22],[-338,39],[-64,221],[52,148]],[[7916,9208],[-106,-348],[30,-123],[112,21],[204,-345],[166,-44],[74,-155],[-9,-210],[72,-49],[68,-728],[-98,-278],[48,-173],[194,14],[-184,-390],[-24,-221],[-579,-170],[-733,-349],[-237,87],[381,238],[789,294],[157,227],[66,408],[45,861],[-58,391],[-54,144],[-325,250],[-206,-47],[-40,82],[198,40],[-65,112],[-143,-16],[-122,226],[144,76],[140,159],[-50,198],[-94,134],[-14,194],[-99,148],[24,97],[137,36],[179,-41],[-61,-272],[128,-237],[-55,-241]]]}
