{"type":"Topology","bbox":[-77.55068704637631,0.8479982270924902,-77.51284916527698,0.8783916907352985],"transform":{"scale":[0.0000037841665265861977,0.0000030396503293137685],"translate":[-77.55068704637631,0.8479982270924902]},"objects":{"municipios":{"type":"GeometryCollection","geometries":[{"type":"Polygon","arcs":[[0,1,2,3]],"properties":{"codigo":"52215100000000000104","sector":"522151000000000001","pcode":"CO52215","area_m2":82475}},{"type":"Polygon","arcs":[[4]],"properties":{"codigo":"52215200101001000101","sector":"522152001010010001","pcode":"CO52215","area_m2":98681}},{"type":"Polygon","arcs":[[5,-4,6]],"properties":{"codigo":"52215100000000000101","sector":"522151000000000001","pcode":"CO52215","area_m2":321764}},{"type":"Polygon","arcs":[[-2,7,8]],"properties":{"codigo":"52215100000000000102","sector":"522151000000000001","pcode":"CO52215","area_m2":200013}},{"type":"Polygon","arcs":[[-1,-6,9,-8]],"properties":{"codigo":"52215100000000000103","sector":"522151000000000001","pcode":"CO52215","area_m2":74281}},{"type":"Polygon","arcs":[[10]],"properties":{"codigo":"52215200101004000101","sector":"522152001010040001","pcode":"CO52215","area_m2":273985}},{"type":"Polygon","arcs":[[11]],"properties":{"codigo":"52215200104005000101","sector":"522152001040050001","pcode":"CO52215","area_m2":83586}}]}},"arcs":[[[8288,1817],[538,-482]],[[8826,1335],[-364,-558]],[[8462,777],[-165,162],[-73,-119],[-329,359],[86,73],[-100,106],[212,239],[91,168],[-115,69],[70,106]],[[8139,1940],[149,-123]],[[1844,4461],[29,-233],[-198,57],[-274,2],[-250,-176],[89,-271],[-4,-245],[-72,-272],[-135,39],[53,310],[-3,326],[-172,-79],[-76,-129],[-193,0],[-20,-76],[-182,-37],[-263,-161],[-111,-137],[-61,202],[106,-19],[88,146],[202,113],[9,241],[65,102],[385,-35],[4,309],[321,-116],[261,172],[182,402],[129,-128],[91,-307]],[[8872,2614],[-348,-501],[-236,-296]],[[8139,1940],[-42,57],[-14,346],[-113,117],[-311,-462],[-97,185],[152,190],[-148,193],[-116,-71],[21,412],[99,-12],[-104,329],[78,223],[442,-95],[406,47],[26,418],[170,306],[322,-153],[146,150],[217,-237],[-86,-332],[-116,-613],[-199,-324]],[[8826,1335],[375,607]],[[9201,1942],[172,449],[392,-262],[-84,-123],[136,-183],[-63,-107],[167,-118],[-150,-212],[-209,-114],[-100,-276],[128,-37],[-6,-128],[-144,-159],[13,-228],[-45,-188],[-130,-234],[-44,20],[-10,437],[-249,234],[-197,-338],[-41,138],[-275,264]],[[8872,2614],[112,-101],[-180,-246],[397,-325]],[[2467,9916],[50,50],[364,-289],[74,287],[145,-43],[221,24],[190,-167],[211,-266],[210,-175],[87,72],[81,-213],[135,166],[125,-157],[434,580],[114,-131],[76,-309],[-6,-264],[104,-274],[41,-278],[-436,0],[-232,-202],[187,-280],[-105,-176],[-86,70],[-128,262],[-63,-25],[-139,217],[-115,-106],[-173,255],[0,302],[-66,298],[-573,511],[-96,-149],[-71,-339],[-221,64],[32,176],[-599,373],[99,200],[129,-64]],[[9999,5265],[-407,-468],[-127,132],[-71,-157],[102,-113],[74,110],[130,-196],[-239,-241],[-87,-183],[-143,91],[58,206],[-328,224],[222,356],[143,118],[51,130],[229,-20],[85,242],[-85,73],[42,128],[201,-88],[77,-129],[-64,-91],[137,-124]]]}
