{"type":"Topology","bbox":[-78.08326243477751,2.0908405547443754,-77.80786875562688,2.6464337194725993],"transform":{"scale":[0.000027542122127275213,0.00005556487296011841],"translate":[-78.08326243477751,2.0908405547443754]},"objects":{"municipios":{"type":"GeometryCollection","geometries":[{"type":"Polygon","arcs":[[0]],"properties":{"codigo":"52696200503022000101","sector":"526962005030220001","pcode":"CO52696","area_m2":9551}},{"type":"Polygon","arcs":[[1]],"properties":{"codigo":"52696200104013000101","sector":"526962001040130001","pcode":"CO52696","area_m2":14779}},{"type":"Polygon","arcs":[[2]],"properties":{"codigo":"52696200402021000101","sector":"526962004020210001","pcode":"CO52696","area_m2":33278}},{"type":"Polygon","arcs":[[3]],"properties":{"codigo":"52696200106023000101","sector":"526962001060230001","pcode":"CO52696","area_m2":263775}},{"type":"Polygon","arcs":[[4,5]],"properties":{"codigo":"52696100000000000101","sector":"526961000000000001","pcode":"CO52696","area_m2":165892}},{"type":"Polygon","arcs":[[-5,6]],"properties":{"codigo":"52696100000000000102","sector":"526961000000000001","pcode":"CO52696","area_m2":211961}},{"type":"Polygon","arcs":[[7]],"properties":{"codigo":"52696200804009000101","sector":"526962008040090001","pcode":"CO52696","area_m2":10848}},{"type":"Polygon","arcs":[[8]],"properties":{"codigo":"52696200102012000101","sector":"526962001020120001","pcode":"CO52696","area_m2":11917}},{"type":"Polygon","arcs":[[9]],"properties":{"codigo":"52696200301014000101","sector":"526962003010140001","pcode":"CO52696","area_m2":26234}},{"type":"Polygon","arcs":[[10]],"properties":{"codigo":"52696200203015000101","sector":"526962002030150001","pcode":"CO52696","area_m2":16878}},{"type":"Polygon","arcs":[[11]],"properties":{"codigo":"52696201006017000101","sector":"526962010060170001","pcode":"CO52696","area_m2":13733}},{"type":"Polygon","arcs":[[12]],"properties":{"codigo":"52696200305018000101","sector":"526962003050180001","pcode":"CO52696","area_m2":137511}},{"type":"Polygon","arcs":[[13]],"properties":{"codigo":"52696200302019000101","sector":"526962003020190001","pcode":"CO52696","area_m2":19251}},{"type":"Polygon","arcs":[[14]],"properties":{"codigo":"52696200305020000101","sector":"526962003050200001","pcode":"CO52696","area_m2":205098}},{"type":"Polygon","arcs":[[15]],"properties":{"codigo":"52696200905024000101","sector":"526962009050240001","pcode":"CO52696","area_m2":25087}}]}},"arcs":[[[1301,6595],[12,-2],[-21,-9],[-8,-15],[-15,-2],[1,8],[16,18],[11,5],[4,-3]],[[1007,9377],[-12,-3],[-10,16],[-22,44],[14,1],[19,-41],[11,-17]],[[3804,7183],[-14,1],[-15,12],[38,34],[28,-4],[-8,-14],[10,-1],[-3,-8],[-13,0],[-23,-20]],[[1072,8528],[7,2],[23,-1],[6,-4],[41,-7],[11,2],[21,-2],[7,-5],[12,0],[13,-7],[5,5],[10,-6],[17,-2],[7,-4],[-8,-41],[-95,7],[-130,18],[-41,13],[-5,19],[1,19],[7,4],[91,-10]],[[3756,6492],[-13,-13],[-34,-40],[-6,-21]],[[3703,6418],[-6,-23],[-21,-79],[-20,2],[33,123],[-17,9],[9,10],[-22,7],[16,6],[-21,10],[-5,11],[-10,-3],[-8,3],[-17,1],[-2,8],[8,4],[18,-1],[-9,7],[2,6],[-13,7],[18,3],[5,4],[15,2],[51,-28],[23,-10],[26,-5]],[[3756,6492],[34,-3],[32,0],[49,0],[40,6],[25,5],[11,-10],[-2,-7],[-37,-3],[0,-7],[-8,3],[-14,-3],[-10,-11],[1,-7],[7,-2],[-6,-7],[-12,-2],[-7,-5],[-26,-8],[1,-8],[-19,-4],[-43,3],[-11,0],[-20,4],[-11,-23],[-10,2],[-1,11],[-16,2]],[[9201,878],[-19,-12],[-10,5],[-14,-5],[-14,8],[16,6],[6,-3],[16,9],[19,-8]],[[1777,9973],[-9,10],[37,13],[15,3],[2,-9],[-45,-17]],[[66,9647],[-3,-3],[-29,6],[-19,21],[-15,21],[22,2],[30,-33],[19,-5],[-5,-9]],[[4468,9815],[23,-9],[14,9],[2,-5],[-13,-8],[18,-5],[-2,-3],[24,-6],[-5,-4],[-16,3],[-4,-3],[-20,8],[-7,0],[-3,5],[-21,9],[-2,5],[12,4]],[[9963,23],[7,-4],[29,-8],[-7,-7],[-7,2],[-7,-6],[-14,4],[-11,6],[-11,12],[8,0],[-4,5],[13,1],[4,-5]],[[3910,7422],[-11,-2],[-25,36],[-10,8],[-28,32],[-8,11],[-8,6],[-29,29],[56,11],[18,-17],[22,-27],[26,-35],[34,-44],[-37,-8]],[[515,8546],[8,-6],[9,3],[10,0],[9,-5],[6,-19],[-33,-9],[-8,8],[14,1],[8,6],[-10,7],[-14,-4],[-17,13],[18,5]],[[2751,7776],[104,-54],[-46,-30],[-15,7],[-20,6],[-36,18],[-16,0],[2,5],[-11,4],[-45,20],[-59,31],[69,22],[73,-29]],[[6281,2049],[-8,-5],[-6,-14],[-21,0],[-9,-5],[-18,1],[-4,6],[-17,5],[1,7],[8,4],[29,0],[20,-4],[7,6],[8,0],[10,10],[0,-11]]]}
