{"type":"Topology","bbox":[-77.23857553526125,1.286268461986481,-77.04101664086517,1.4210912046432218],"transform":{"scale":[0.000019757865226130767,0.00001348362262793687],"translate":[-77.23857553526125,1.286268461986481]},"objects":{"municipios":{"type":"GeometryCollection","geometries":[{"type":"Polygon","arcs":[[0]],"properties":{"codigo":"52110200201006000101","sector":"521102002010060001","pcode":"CO52110","area_m2":171587}},{"type":"Polygon","arcs":[[1]],"properties":{"codigo":"52110200202022000101","sector":"521102002020220001","pcode":"CO52110","area_m2":49208}},{"type":"MultiPolygon","arcs":[[[2]],[[3]]],"properties":{"codigo":"52110200301030000101","sector":"521102003010300001","pcode":"CO52110","area_m2":9192}},{"type":"Polygon","arcs":[[4,5,6,7]],"properties":{"codigo":"52110100000000000102","sector":"521101000000000001","pcode":"CO52110","area_m2":115139}},{"type":"Polygon","arcs":[[8,9,10,-5]],"properties":{"codigo":"52110100000000000101","sector":"521101000000000001","pcode":"CO52110","area_m2":429009}},{"type":"Polygon","arcs":[[11,-7,12,13]],"properties":{"codigo":"52110100000000000103","sector":"521101000000000001","pcode":"CO52110","area_m2":148636}},{"type":"Polygon","arcs":[[-14,14]],"properties":{"codigo":"52110100000000000104","sector":"521101000000000001","pcode":"CO52110","area_m2":386287}},{"type":"Polygon","arcs":[[15]],"properties":{"codigo":"52110200204001000101","sector":"521102002040010001","pcode":"CO52110","area_m2":9143}},{"type":"Polygon","arcs":[[16]],"properties":{"codigo":"52110200505002000101","sector":"521102005050020001","pcode":"CO52110","area_m2":174674}},{"type":"Polygon","arcs":[[17]],"properties":{"codigo":"52110200103003000101","sector":"521102001030030001","pcode":"CO52110","area_m2":104558}},{"type":"Polygon","arcs":[[18]],"properties":{"codigo":"52110200301009000101","sector":"521102003010090001","pcode":"CO52110","area_m2":11794}},{"type":"Polygon","arcs":[[19]],"properties":{"codigo":"52110200403004000101","sector":"521102004030040001","pcode":"CO52110","area_m2":29935}},{"type":"Polygon","arcs":[[20]],"properties":{"codigo":"52110200301005000101","sector":"521102003010050001","pcode":"CO52110","area_m2":66939}},{"type":"MultiPolygon","arcs":[[[21]],[[22]]],"properties":{"codigo":"52110200104007000101","sector":"521102001040070001","pcode":"CO52110","area_m2":134184}},{"type":"Polygon","arcs":[[23,-10]],"properties":{"codigo":"52110200501008000101","sector":"521102005010080001","pcode":"CO52110","area_m2":104350}}]}},"arcs":[[[5769,8888],[11,-13],[25,-102],[14,6],[24,-53],[-43,-50],[3,-52],[26,-11],[-1,-24],[-18,-4],[-5,-34],[4,-64],[28,-3],[45,35],[7,-42],[12,8],[3,-42],[-50,-28],[-8,24],[-22,-17],[22,-67],[-10,-30],[-52,11],[5,-60],[-18,-23],[-17,51],[-2,32],[16,103],[-27,5],[-23,-18],[5,71],[10,9],[-9,79],[2,76],[-11,17],[26,6],[-26,76],[6,56],[17,-17],[-3,42],[24,55],[10,-8]],[[6135,9992],[-35,-57],[8,-7],[-20,-36],[-34,-36],[-9,-30],[2,-58],[14,6],[-5,-87],[-13,45],[-49,-101],[-14,26],[19,14],[22,39],[-25,67],[-32,28],[11,19],[15,-10],[24,8],[7,34],[-24,19],[0,21],[27,-31],[8,14],[15,82],[11,-3],[-12,-48],[45,58],[16,-4],[9,27],[19,1]],[[9553,6923],[3,-27],[-15,-51],[7,-18],[-31,-1],[29,102],[8,71],[8,-1],[-9,-75]],[[9491,6795],[0,0]],[[4155,6773],[-9,-18],[-68,45]],[[4078,6800],[18,53],[15,73],[21,226]],[[4132,7152],[84,-33],[-3,-24]],[[4213,7095],[-7,-40],[13,-20],[-1,-63],[10,-14],[-15,-58],[-26,-24],[-5,-46],[12,-9],[-19,-32],[-20,-16]],[[4155,6773],[1,-34],[19,-24],[1,-23],[-33,2],[-16,-101],[30,-22],[11,-51],[-15,-37],[-15,24],[-40,-59],[-8,8],[2,-59],[-13,-113],[-29,2],[6,-43],[-12,-52],[-32,-25],[9,-88],[12,-16],[-47,-22],[8,-61],[-18,-9],[2,-21],[-39,-14],[-3,33],[-73,39]],[[3863,6007],[-35,19],[-36,-36]],[[3792,5990],[-11,13],[11,35],[-32,-16],[-17,-40],[-14,-2],[0,52],[14,7],[83,137],[27,31],[44,11],[20,18],[0,46],[41,53],[-50,59],[36,58],[12,-15],[39,80],[28,37],[11,-10],[3,32],[-11,6],[-4,51],[-21,3],[38,119],[39,45]],[[4253,7337],[-15,-74],[51,-9],[-34,-9],[10,-38],[-10,-71],[-15,-46],[-1,-25],[-26,30]],[[4132,7152],[-17,63],[-33,18],[5,84],[10,41],[-10,51],[42,95],[0,57],[10,-2]],[[4139,7559],[-2,-34],[48,-68],[-12,-27],[-15,12],[-18,-40],[64,-54],[5,7],[44,-18]],[[4139,7559],[15,17],[7,-31],[18,-19],[29,36],[-6,20],[21,45],[38,43],[-17,10],[6,116],[32,13],[4,69],[-10,48],[46,-12],[-4,24],[16,44],[14,13],[21,72],[-24,29],[22,30],[-27,99],[21,40],[25,-58],[20,-14],[16,39],[3,52],[15,65],[33,-13],[-19,-94],[-11,-16],[30,-46],[24,37],[20,-19],[-45,-79],[34,-47],[8,-34],[-28,-51],[-25,-19],[-5,-35],[-21,-26],[-14,-50],[-54,-81],[-28,-16],[-4,-44],[29,-21],[20,-56],[-25,-23],[-13,-41],[-44,-18],[8,-28],[-24,-8],[9,-12],[-12,-33],[12,-10],[-21,-58],[6,-30],[-19,-6],[-8,-35]],[[8423,7641],[28,-75],[-26,-41],[-11,14],[-6,52],[15,50]],[[3254,468],[18,-15],[0,-24],[16,3],[1,-27],[-16,-5],[4,-54],[48,8],[-5,-30],[-59,-145],[-6,-34],[8,-87],[-9,11],[-23,-50],[-36,-19],[-9,25],[3,40],[26,50],[-52,71],[-30,-9],[-6,17],[17,66],[20,21],[3,35],[-18,8],[15,47],[6,47],[-24,6],[13,17],[47,-11],[-10,87],[3,60],[41,-7],[7,-15],[7,-87]],[[49,8469],[10,-15],[-8,-48],[8,-44],[18,-38],[21,20],[30,-49],[22,24],[19,-34],[41,-22],[39,40],[12,-29],[27,9],[-8,-20],[-1,-51],[-52,-3],[-21,-32],[-13,4],[-44,-50],[-34,74],[-16,-11],[-16,20],[-25,-11],[-11,21],[10,36],[-9,27],[-40,-11],[27,24],[-13,37],[-4,132],[31,0]],[[8216,4680],[-4,-51],[-15,-36],[-21,42],[-25,-32],[-3,17],[23,30],[17,36],[5,-12],[24,61],[8,-18],[-9,-37]],[[5102,1165],[1,-26],[38,46],[12,-21],[-9,-39],[-81,-5],[-19,-7],[-37,-90],[-18,14],[-2,34],[13,49],[46,42],[22,-7],[8,23],[35,27],[-9,-40]],[[9942,5654],[16,-9],[31,-74],[-17,-36],[-32,-20],[-7,-18],[24,-28],[-15,-37],[-23,20],[-24,-54],[-9,-37],[26,-8],[35,3],[0,27],[16,9],[1,-27],[35,-6],[0,-19],[-26,14],[-52,-13],[-41,9],[-26,46],[1,91],[-8,28],[17,18],[23,0],[25,30],[6,58],[15,55],[9,-22]],[[2025,2915],[-3,-31],[90,-34],[-14,-58],[-22,6],[-20,-23],[7,-20],[-10,-47],[2,-52],[20,-71],[-85,17],[-62,20],[8,59],[17,235],[33,-15],[10,45],[33,-4],[-4,-27]],[[1922,2945],[-17,1],[1,35],[26,39],[9,-13],[-19,-62]],[[3863,6007],[-6,-31],[-32,-40],[-4,-88],[-24,-36],[-5,-43],[-11,-22],[-5,-40],[-25,-40],[-20,-85],[-20,-30],[-20,-88],[-22,-21],[-27,27],[37,72],[21,62],[-7,41],[31,126],[21,4],[8,30],[-30,19],[19,26],[10,47],[40,93]]]}
