{"type":"Topology","bbox":[-77.61683170905269,0.751132300775582,-77.52092344597912,0.8328335930001376],"transform":{"scale":[0.000009591785485905382,0.000008170946317087266],"translate":[-77.61683170905269,0.751132300775582]},"objects":{"municipios":{"type":"GeometryCollection","geometries":[{"type":"Polygon","arcs":[[0]],"properties":{"codigo":"52560200101006000101","sector":"525602001010060001","pcode":"CO52560","area_m2":44803}},{"type":"Polygon","arcs":[[1]],"properties":{"codigo":"52560200108001000101","sector":"525602001080010001","pcode":"CO52560","area_m2":31183}},{"type":"Polygon","arcs":[[2]],"properties":{"codigo":"52560200102002000101","sector":"525602001020020001","pcode":"CO52560","area_m2":26541}},{"type":"Polygon","arcs":[[3,4,5,6]],"properties":{"codigo":"52560100000000000102","sector":"525601000000000001","pcode":"CO52560","area_m2":76495}},{"type":"Polygon","arcs":[[7,8,-5,9]],"properties":{"codigo":"52560100000000000104","sector":"525601000000000001","pcode":"CO52560","area_m2":117349}},{"type":"Polygon","arcs":[[10,-10,-4]],"properties":{"codigo":"52560100000000000103","sector":"525601000000000001","pcode":"CO52560","area_m2":96987}},{"type":"Polygon","arcs":[[-6,-9,11]],"properties":{"codigo":"52560100000000000101","sector":"525601000000000001","pcode":"CO52560","area_m2":48225}}]}},"arcs":[[[5960,9833],[-5,-35],[-50,17],[-72,-63],[-6,-31],[-29,27],[-93,-146],[96,-75],[-42,-62],[-69,56],[-71,-132],[26,-43],[-56,-66],[-19,61],[-33,20],[62,57],[-20,30],[56,76],[99,174],[113,135],[-10,24],[30,40],[-11,25],[62,77],[11,-13],[-23,-72],[30,-64],[24,-17]],[[263,233],[-114,-76],[50,-87],[-29,-48],[-27,49],[-73,-71],[-12,17],[37,59],[-25,11],[13,46],[-38,132],[-45,21],[108,23],[6,-51],[60,-37],[91,83],[-2,-71]],[[9847,8386],[11,-73],[54,22],[31,-9],[54,-56],[-8,-23],[-164,-41],[-123,15],[-23,61],[39,34],[47,4],[24,-65],[42,-14],[-22,154],[38,-9]],[[4814,6735],[-16,-25],[-181,167]],[[4617,6877],[30,50]],[[4647,6927],[113,158],[30,60],[-58,51],[30,50]],[[4762,7246],[35,22],[62,-55],[-42,-35],[37,-38],[-34,-26],[59,-60],[42,45],[46,-56],[-75,-15],[-34,-71],[48,-43],[-64,-110],[-28,-69]],[[4408,6433],[-44,32],[-141,44],[32,135],[-70,18],[36,129],[40,29],[12,35],[52,0],[63,-44],[138,203]],[[4526,7014],[12,19],[109,-106]],[[4617,6877],[-142,-213],[-27,-55],[1,-42],[-23,-100],[-18,-34]],[[4814,6735],[13,-9],[-60,-114],[-19,16],[-17,-47],[-27,31],[26,32],[-50,51],[-78,-92],[15,-55],[40,8],[-27,-41],[-10,25],[-56,24],[-15,-145],[-41,-14],[-3,-69],[38,-25],[-18,-52],[-24,0],[-98,96],[-48,-54],[-57,42],[34,44],[76,46]],[[4526,7014],[-14,68],[24,28],[30,-24],[83,107],[69,132],[38,0],[6,-79]]]}
