{"type":"Topology","bbox":[-77.40260286076443,1.074132030621224,-77.31487849540292,1.0995067411128134],"transform":{"scale":[0.000008773313867537716,0.000002537724821641099],"translate":[-77.40260286076443,1.074132030621224]},"objects":{"municipios":{"type":"GeometryCollection","geometries":[{"type":"Polygon","arcs":[[0]],"properties":{"codigo":"52788200202001000101","sector":"527882002020010001","pcode":"CO52788","area_m2":61236}},{"type":"Polygon","arcs":[[1,2]],"properties":{"codigo":"52788100000000000101","sector":"527881000000000001","pcode":"CO52788","area_m2":252434}},{"type":"Polygon","arcs":[[3,4,-2,5,6]],"properties":{"codigo":"52788100000000000102","sector":"527881000000000001","pcode":"CO52788","area_m2":82563}},{"type":"Polygon","arcs":[[7,8,-4]],"properties":{"codigo":"52788100000000000103","sector":"527881000000000001","pcode":"CO52788","area_m2":66603}},{"type":"Polygon","arcs":[[-8,-7,9]],"properties":{"codigo":"52788100000000000104","sector":"527881000000000001","pcode":"CO52788","area_m2":352398}}]}},"arcs":[[[9875,1036],[37,-97],[2,-500],[85,-376],[-314,-63],[-7,529],[41,244],[53,65],[13,299],[90,-101]],[[664,8469],[-68,-95],[25,-71],[94,6],[84,-843]],[[799,7466],[-13,-90],[-83,-91],[-12,165],[-88,-199],[5,250],[-64,-162],[-26,97],[-51,-145],[-11,-169],[-100,-441],[13,-165],[-143,1],[-45,-203],[-68,201],[88,507],[-73,272],[-105,-65],[-23,83],[155,465],[42,76],[-20,374],[29,187],[213,176],[178,-12],[67,-109]],[[1048,8673],[-163,-203],[99,-860]],[[984,7610],[-162,-185],[-23,41]],[[664,8469],[144,323],[145,195]],[[953,8987],[38,-207],[57,-107]],[[1048,8673],[99,-864],[56,-34],[16,-575],[30,-97]],[[1249,7103],[-28,-69],[-52,462],[-61,-113],[-95,1],[-8,265],[-21,-39]],[[953,8987],[174,207],[93,-37],[231,-302],[117,16],[-46,222],[3,272],[-49,76],[3,304],[38,254],[114,-204],[56,-160],[10,-281],[123,-81],[-19,-112],[38,-61],[114,-403],[-40,-318],[-5,-204],[-80,-207],[-70,15],[-23,-103],[-121,7],[-15,-176],[-74,35],[-15,-173],[-90,-26],[-5,167],[-79,23],[-14,-136],[-56,-13],[4,-263],[46,-212],[-67,-10]]]}
