{"type":"Topology","bbox":[-77.592018047208,0.9077323037715495,-77.56265432139838,0.9245753128506486],"transform":{"scale":[0.000002936666247586447,0.0000016844693548454036],"translate":[-77.592018047208,0.9077323037715495]},"objects":{"municipios":{"type":"GeometryCollection","geometries":[{"type":"Polygon","arcs":[[0,1,2,3]],"properties":{"codigo":"52323100000000000102","sector":"523231000000000001","pcode":"CO52323","area_m2":97551}},{"type":"Polygon","arcs":[[4,5,6]],"properties":{"codigo":"52323100000000000104","sector":"523231000000000001","pcode":"CO52323","area_m2":97402}},{"type":"Polygon","arcs":[[-6,7,8,9,10,-2]],"properties":{"codigo":"52323100000000000105","sector":"523231000000000001","pcode":"CO52323","area_m2":60850}},{"type":"Polygon","arcs":[[-7,-1,11]],"properties":{"codigo":"52323100000000000103","sector":"523231000000000001","pcode":"CO52323","area_m2":105271}},{"type":"Polygon","arcs":[[-3,-11,12]],"properties":{"codigo":"52323100000000000101","sector":"523231000000000001","pcode":"CO52323","area_m2":173520}},{"type":"Polygon","arcs":[[-9,13]],"properties":{"codigo":"52323100000000000106","sector":"523231000000000001","pcode":"CO52323","area_m2":214805}},{"type":"Polygon","arcs":[[14]],"properties":{"codigo":"52323200201001000101","sector":"523232002010010001","pcode":"CO52323","area_m2":367506}}]}},"arcs":[[[9447,7133],[-582,-163],[-287,-132]],[[8578,6838],[-191,1185]],[[8387,8023],[659,325]],[[9046,8348],[631,335],[267,-789],[-537,-218],[40,-543]],[[9074,5065],[-432,-216],[-444,-129],[-123,420],[32,445],[-60,391],[-106,-90],[-136,543]],[[7805,6429],[773,409]],[[8578,6838],[164,-1003],[236,74],[96,-844]],[[7805,6429],[-348,43]],[[7457,6472],[-132,-39],[-65,209]],[[7260,6642],[24,210]],[[7284,6852],[325,294],[594,284],[-81,452],[265,141]],[[9447,7133],[518,174],[11,-123],[-190,-227],[69,-430],[-184,-65],[157,-481],[-111,-243],[-643,-673]],[[7284,6852],[-19,480],[356,56],[99,582],[-291,108],[-11,235],[320,-115],[-173,944],[62,601],[195,-279],[320,137],[-19,151],[311,95],[20,-413],[294,158],[130,173],[345,234],[-56,-328],[66,-182],[-151,-142],[-77,-575],[95,36],[-54,-460]],[[7457,6472],[48,-1360],[-67,26],[-6,604],[-108,-14],[21,-313],[-244,-42],[-142,90],[3,-228],[-193,-51],[-100,252],[-167,-101],[-153,561],[-246,-205],[15,-107],[-397,-116],[-26,508],[-386,-148],[-40,170],[-258,-94],[-348,432],[-110,-128],[-76,359],[-145,190],[58,122],[414,-608],[325,-264],[174,74],[-15,355],[-147,33],[131,138],[-63,508],[170,-620],[103,-129],[367,226],[-45,200],[135,83],[-165,1313],[-202,183],[-44,-163],[-205,201],[19,219],[112,-234],[701,187],[66,-675],[135,-807],[137,31],[142,-550],[194,109],[431,-47]],[[2960,3645],[392,461],[13,-179],[186,-311],[-577,-889],[-171,-164],[-43,-405],[-140,-579],[-310,-777],[-296,54],[-226,288],[-370,-695],[-160,122],[-158,279],[-349,-289],[37,-329],[-109,-232],[-350,972],[-209,665],[-120,259],[273,170],[-60,387],[260,25],[40,-704],[267,200],[415,549],[406,288],[127,402],[454,-291],[135,580],[164,276],[-175,255],[308,638],[278,-335],[-162,-312],[230,-379]]]}
