{"type":"Topology","bbox":[-77.43127740662368,1.2891325871436985,-77.31386793122545,1.3742465171733913],"transform":{"scale":[0.00001174212175199851,0.00000851224422739202],"translate":[-77.43127740662368,1.2891325871436985]},"objects":{"municipios":{"type":"GeometryCollection","geometries":[{"type":"Polygon","arcs":[[0]],"properties":{"codigo":"52381200101011000101","sector":"523812001010110001","pcode":"CO52381","area_m2":38070}},{"type":"Polygon","arcs":[[1]],"properties":{"codigo":"52381200201003000101","sector":"523812002010030001","pcode":"CO52381","area_m2":358639}},{"type":"Polygon","arcs":[[2,3]],"properties":{"codigo":"52381100000000000101","sector":"523811000000000001","pcode":"CO52381","area_m2":359053}},{"type":"Polygon","arcs":[[4,5,-3,6]],"properties":{"codigo":"52381100000000000102","sector":"523811000000000001","pcode":"CO52381","area_m2":283791}},{"type":"Polygon","arcs":[[-5,7]],"properties":{"codigo":"52381100000000000103","sector":"523811000000000001","pcode":"CO52381","area_m2":264246}},{"type":"Polygon","arcs":[[8]],"properties":{"codigo":"52381200202001000101","sector":"523812002020010001","pcode":"CO52381","area_m2":177833}},{"type":"Polygon","arcs":[[9]],"properties":{"codigo":"52381200101002000101","sector":"523812001010020001","pcode":"CO52381","area_m2":68840}},{"type":"Polygon","arcs":[[10]],"properties":{"codigo":"52381200103008000101","sector":"523812001030080001","pcode":"CO52381","area_m2":53052}},{"type":"Polygon","arcs":[[11]],"properties":{"codigo":"52381200103012000101","sector":"523812001030120001","pcode":"CO52381","area_m2":59765}}]}},"arcs":[[[935,6327],[11,-2],[4,-63],[15,3],[30,-53],[29,-116],[29,6],[26,-46],[42,3],[21,32],[40,-13],[25,-37],[-44,-37],[-81,-29],[-31,50],[-12,-20],[-51,27],[-23,-31],[-29,60],[9,129],[-12,85],[-17,-3],[-17,41],[36,14]],[[9965,7963],[-8,-45],[-37,-34],[-40,-69],[-6,-42],[-61,-66],[-22,7],[-34,-41],[-45,-25],[-29,-41],[-50,-38],[-45,-9],[-28,-40],[-47,-45],[-31,-44],[-42,51],[-61,-9],[-85,-31],[-111,11],[-62,-69],[-53,-10],[-34,-29],[-18,38],[24,53],[83,93],[30,22],[-17,32],[-54,-40],[-27,53],[62,80],[97,39],[-13,39],[18,24],[28,-6],[10,-58],[21,-40],[12,25],[39,0],[52,33],[36,40],[65,36],[59,16],[42,58],[53,32],[26,-3],[0,71],[55,-23],[23,7],[17,75],[41,63],[12,47],[59,29],[52,82],[78,-83],[-40,-84],[-22,-15],[61,-45],[-33,-72]],[[1989,1375],[-1,-67],[-82,-66],[16,-15],[37,29],[40,-13],[60,23],[54,-7],[24,-20],[5,-106],[-54,-5],[-1,-73],[44,-8],[53,16],[3,-67],[98,4],[-4,-31]],[[2281,969],[-4,-19],[-59,-3],[-33,18],[-131,5],[-107,-18],[25,-191],[51,-41],[-37,-80],[-82,-147],[-72,81],[-34,50],[-48,44],[-15,84],[-34,7],[-26,47],[-27,129],[-47,99],[-27,34],[26,17],[10,48],[-22,35],[-26,-4],[-6,-42],[-41,35],[18,2],[8,69],[27,4],[46,-45],[14,24],[40,-35],[-9,-27],[24,-20],[16,47],[20,121],[-44,-9],[-21,35],[17,15],[-9,44],[49,18],[9,-91],[73,35],[95,0],[101,31]],[[2801,1067],[29,-42],[-63,-86],[86,-2],[142,-115],[157,-78],[6,-19]],[[3158,725],[-81,5],[-62,34],[-176,133],[-81,-25],[-63,5],[-93,34],[-41,66],[-12,-52],[-15,33],[-46,-19],[-34,39],[-58,22],[-19,-45],[-29,22],[-21,-24],[4,-53],[-19,-19],[-27,-77],[41,-16],[3,-42],[-44,21],[-12,23],[20,133],[-12,46]],[[1989,1375],[15,38],[42,-17],[50,5],[87,-34],[65,-12],[64,-60],[92,-43],[58,-10],[22,-49],[54,-7],[69,-43],[44,5],[18,-45],[30,-17],[62,-3],[40,-16]],[[2801,1067],[26,82],[-6,22],[-39,29],[-14,31],[40,37],[9,32],[32,-12],[7,-23],[45,-31],[14,36],[13,-13],[-14,-35],[92,-87],[13,-128],[121,-60],[70,-24],[43,9],[67,-69],[144,-64],[32,-28],[45,4],[58,-58],[-57,-132],[-18,-65],[-89,43],[-42,37],[-8,-32],[11,-44],[-17,-89],[-21,9],[-39,104],[-20,-15],[2,44],[-41,-10],[-52,122],[-50,36]],[[8420,9921],[3,-21],[-86,-65],[-18,1],[-10,47],[-42,-9],[6,-40],[-37,20],[5,-22],[-57,-6],[-7,25],[-60,-49],[25,-30],[0,-36],[-31,-18],[-55,-135],[9,-40],[44,-10],[69,-50],[-27,-36],[-8,-56],[-26,-70],[4,48],[-13,33],[-53,-56],[-12,-62],[-44,20],[-1,37],[-68,39],[-36,-27],[-18,35],[9,65],[28,43],[-15,121],[13,85],[-23,8],[8,52],[-11,27],[16,50],[-13,22],[35,37],[0,28],[41,-23],[57,19],[10,-38],[57,-58],[48,50],[144,57],[6,-31],[40,31],[100,53],[42,13],[11,-35],[-59,-43]],[[911,7178],[-14,-32],[16,-23],[28,1],[-2,-63],[-12,-3],[6,-70],[11,-9],[-26,-49],[-15,-57],[25,-49],[25,-5],[5,-35],[-65,-10],[-32,34],[-25,-25],[-65,26],[-39,75],[-8,49],[72,35],[27,68],[17,1],[25,107],[-30,33],[19,68],[47,25],[19,-13],[-9,-79]],[[67,2711],[60,-10],[38,-42],[15,18],[19,-22],[25,18],[28,-127],[-6,-26],[42,-43],[42,-25],[0,-104],[27,-61],[2,-46],[-39,-33],[-2,51],[-57,36],[5,32],[-59,82],[16,60],[-24,23],[-18,119],[-34,33],[-16,-39],[-35,26],[-33,-25],[-19,16],[-28,-29],[-16,28],[67,90]],[[2056,542],[12,-64],[22,-55],[4,-64],[43,-120],[30,-51],[63,-33],[67,-13],[-11,-69],[-26,-14],[4,-41],[-35,-17],[-29,10],[2,32],[-46,-2],[-6,41],[-38,44],[14,39],[-32,31],[-25,64],[-17,-28],[-45,141],[-41,50],[63,83],[2,40],[25,-4]]]}
