{"type":"Topology","bbox":[-77.36012573358266,1.5525596533224555,-77.2755707133075,1.6791436129565436],"transform":{"scale":[0.000008456347662282333,0.000012659661929601768],"translate":[-77.36012573358266,1.5525596533224555]},"objects":{"municipios":{"type":"GeometryCollection","geometries":[{"type":"Polygon","arcs":[[0]],"properties":{"codigo":"52786200106006000101","sector":"527862001060060001","pcode":"CO52786","area_m2":38099}},{"type":"Polygon","arcs":[[1]],"properties":{"codigo":"52786200105022000101","sector":"527862001050220001","pcode":"CO52786","area_m2":48259}},{"type":"Polygon","arcs":[[2]],"properties":{"codigo":"52786200202023000101","sector":"527862002020230001","pcode":"CO52786","area_m2":21527}},{"type":"Polygon","arcs":[[3]],"properties":{"codigo":"52786200103024000101","sector":"527862001030240001","pcode":"CO52786","area_m2":23348}},{"type":"MultiPolygon","arcs":[[[4]],[[5]],[[6]]],"properties":{"codigo":"52786200203003000101","sector":"527862002030030001","pcode":"CO52786","area_m2":79794}},{"type":"Polygon","arcs":[[7,8,9]],"properties":{"codigo":"52786100000000000102","sector":"527861000000000001","pcode":"CO52786","area_m2":107757}},{"type":"Polygon","arcs":[[10,11,-8,12,13]],"properties":{"codigo":"52786100000000000103","sector":"527861000000000001","pcode":"CO52786","area_m2":94975}},{"type":"Polygon","arcs":[[-14,14]],"properties":{"codigo":"52786100000000000104","sector":"527861000000000001","pcode":"CO52786","area_m2":15960}},{"type":"Polygon","arcs":[[15]],"properties":{"codigo":"52786200202002000101","sector":"527862002020020001","pcode":"CO52786","area_m2":175820}},{"type":"Polygon","arcs":[[16]],"properties":{"codigo":"52786200105007000101","sector":"527862001050070001","pcode":"CO52786","area_m2":98849}},{"type":"Polygon","arcs":[[17]],"properties":{"codigo":"52786200204014000101","sector":"527862002040140001","pcode":"CO52786","area_m2":58444}},{"type":"Polygon","arcs":[[18]],"properties":{"codigo":"52786200105018000101","sector":"527862001050180001","pcode":"CO52786","area_m2":82763}},{"type":"Polygon","arcs":[[19]],"properties":{"codigo":"52786200101019000101","sector":"527862001010190001","pcode":"CO52786","area_m2":660283}},{"type":"Polygon","arcs":[[20]],"properties":{"codigo":"52786200203021000101","sector":"527862002030210001","pcode":"CO52786","area_m2":20104}},{"type":"MultiPolygon","arcs":[[[21]],[[22]]],"properties":{"codigo":"52786200202025000101","sector":"527862002020250001","pcode":"CO52786","area_m2":60039}},{"type":"Polygon","arcs":[[-9,-12,23]],"properties":{"codigo":"52786100000000000101","sector":"527861000000000001","pcode":"CO52786","area_m2":149330}}]}},"arcs":[[[6721,765],[45,-108],[-66,-14],[-49,105],[-124,-41],[-31,50],[128,42],[-18,29],[-64,22],[-30,50],[62,21],[31,-49],[59,-15],[57,-92]],[[5481,1637],[15,-21],[45,0],[5,-30],[134,3],[-7,-60],[-122,-2],[-67,-17],[-47,-36],[-33,-45],[-81,-11],[-74,-24],[-35,50],[76,23],[64,5],[61,67],[-20,60],[26,22],[60,16]],[[684,2230],[-71,-110],[-51,3],[-35,-37],[-97,-50],[-39,-40],[-26,36],[32,16],[-66,14],[86,6],[-5,-11],[93,47],[78,89],[9,32],[29,-3],[14,24],[49,-16]],[[1651,5000],[25,-66],[55,13],[30,-27],[-45,-10],[-31,-31],[-45,0],[-61,-44],[15,27],[-57,73],[65,42],[44,47],[59,36],[20,-13],[-74,-47]],[[4015,391],[33,-12],[23,24],[52,-34],[-4,-15],[58,-35],[-23,-12],[69,-51],[-29,-31],[-63,-33],[-46,28],[-32,-28],[-9,-92],[-62,82],[-67,23],[-18,40],[-53,36],[41,43],[38,-18],[1,81],[34,0],[14,21],[43,-17]],[[4379,247],[80,-30],[-22,-23],[-72,28],[-18,26],[32,-1]],[[3948,428],[-59,12],[3,28],[44,4],[12,-44]],[[9604,1565],[-63,-4],[21,-192],[-21,1],[-43,-84]],[[9498,1286],[-280,65],[-5,74],[98,-14],[-65,67],[-72,48],[69,107]],[[9243,1633],[38,-8],[4,-25],[-36,-38],[-53,-1],[41,-34],[66,-3],[79,29],[88,13],[63,23],[8,23],[39,19],[24,-66]],[[9797,1454],[23,-35],[-36,-18],[35,-28],[-47,-25],[19,-19],[-37,-39],[10,-27],[-84,-14],[9,-52],[-99,0],[-116,13]],[[9474,1210],[24,76]],[[9604,1565],[-1,-12]],[[9603,1553],[46,-74],[43,17],[38,-33],[-17,-24],[20,-19],[64,34]],[[9603,1553],[69,16],[113,-88],[12,-27]],[[589,915],[93,-2],[-56,-145],[-44,-22],[-83,-15],[-41,-20],[44,-20],[-18,-25],[-25,9],[-55,-73],[37,-14],[-6,-22],[-72,1],[34,-33],[-32,-27],[-14,-40],[-71,-55],[-109,48],[-42,-32],[-30,-5],[-92,29],[17,68],[99,34],[-31,80],[29,32],[70,15],[-32,32],[72,37],[-7,34],[46,8],[26,-27],[63,43],[17,25],[79,-30],[47,-28],[53,34],[-10,43],[31,43],[-11,18],[-61,-1],[-21,21],[90,-2],[16,-16]],[[207,2756],[45,-3],[-19,-45],[38,-45],[87,-26],[52,13],[-13,28],[41,11],[-3,44],[25,2],[51,-46],[77,13],[3,12],[123,-28],[-19,-26],[56,0],[31,15],[61,-19],[-44,-5],[-31,-23],[-14,-49],[30,-24],[-49,-1],[-35,19],[-16,-22],[-36,2],[5,-20],[-48,-12],[-71,30],[-32,-18],[77,-66],[-50,-8],[-20,29],[-59,29],[-24,32],[-66,20],[-56,64],[-68,23],[-53,7],[-3,106],[27,-13]],[[9732,433],[39,2],[15,-29],[46,14],[2,46],[83,-16],[-20,-29],[9,-38],[-40,-44],[-44,-16],[96,-125],[81,-129],[-42,-59],[-30,-10],[-48,30],[40,33],[-10,35],[-34,32],[-20,54],[-34,49],[27,0],[-7,38],[-81,41],[-41,41],[-60,26],[6,18],[44,-6],[8,19],[-34,91],[-5,40],[22,2],[32,-110]],[[1848,2162],[35,22],[32,-2],[7,-26],[71,-4],[-15,-14],[48,-38],[-46,-14],[-59,-54],[60,-61],[-26,-20],[-22,15],[-41,-35],[-54,12],[-128,81],[-55,-27],[-73,65],[-34,4],[43,20],[47,-6],[23,-32],[13,30],[78,46],[-42,28],[74,47],[64,-37]],[[3696,9982],[57,-10],[2,-65],[22,-99],[24,2],[9,-35],[37,16],[97,17],[35,-25],[-17,-54],[-58,-16],[-76,-1],[-51,-56],[41,-38],[-22,-9],[61,-32],[17,-30],[66,0],[9,-62],[-72,-36],[-57,-8],[-43,31],[-28,-1],[-60,28],[-80,-53],[-28,20],[-80,-91],[16,-11],[-72,-59],[-35,16],[23,21],[-44,26],[-93,-92],[-54,21],[-35,-42],[-46,18],[-63,-69],[97,-41],[-114,-169],[-72,-34],[-16,-23],[-56,-30],[-13,82],[21,38],[-132,70],[45,44],[-4,41],[79,91],[-68,26],[-3,105],[134,46],[8,17],[69,22],[4,53],[44,89],[-17,7],[37,48],[48,33],[82,38],[49,33],[-16,15],[32,35],[-18,14],[85,37],[192,104],[60,1],[41,-14]],[[3239,1275],[33,-3],[-27,-22],[-83,-41],[-116,-8],[-35,-10],[-9,-66],[-52,4],[7,72],[-16,15],[52,23],[149,5],[78,42],[19,-11]],[[1398,1496],[-37,-103],[91,1],[10,-24],[29,1],[-11,-56],[-101,-1],[5,-43],[-77,-44],[-16,9],[-102,-67],[-50,41],[59,53],[36,-2],[36,23],[6,29],[-31,67],[101,46],[-8,35],[16,57],[42,-1],[2,-21]],[[926,1028],[-30,31],[83,23],[127,70],[28,-18],[-69,-43],[-139,-63]],[[9474,1210],[-15,-22],[-60,7],[7,21],[-87,2],[-14,-19],[-44,15],[16,17],[-48,3],[-66,27],[-82,14],[-27,-9],[-10,33],[-42,55],[-39,29],[-33,-45],[-5,24],[-56,28],[66,32],[22,26],[60,126],[97,2],[57,62],[21,52],[90,61],[6,-7],[-71,-61],[-35,-41],[56,18],[5,-27]]]}
