{"type":"Topology","bbox":[-77.60381067612491,1.6205346285584197,-77.38556199758574,1.8306600232507204],"transform":{"scale":[0.000021827050558972783,0.000021014640933323405],"translate":[-77.60381067612491,1.6205346285584197]},"objects":{"municipios":{"type":"GeometryCollection","geometries":[{"type":"Polygon","arcs":[[0]],"properties":{"codigo":"52540200603008000101","sector":"525402006030080001","pcode":"CO52540","area_m2":25643}},{"type":"Polygon","arcs":[[1]],"properties":{"codigo":"52540200201006000101","sector":"525402002010060001","pcode":"CO52540","area_m2":38242}},{"type":"Polygon","arcs":[[2]],"properties":{"codigo":"52540200603007000101","sector":"525402006030070001","pcode":"CO52540","area_m2":32732}},{"type":"Polygon","arcs":[[3,4,5]],"properties":{"codigo":"52540100000000000101","sector":"525401000000000001","pcode":"CO52540","area_m2":102079}},{"type":"Polygon","arcs":[[6,-5]],"properties":{"codigo":"52540100000000000102","sector":"525401000000000001","pcode":"CO52540","area_m2":105344}},{"type":"MultiPolygon","arcs":[[[7]],[[8]],[[9]],[[-4,10]]],"properties":{"codigo":"52540100000000000103","sector":"525401000000000001","pcode":"CO52540","area_m2":63012}},{"type":"Polygon","arcs":[[11]],"properties":{"codigo":"52540200604001000101","sector":"525402006040010001","pcode":"CO52540","area_m2":50172}},{"type":"Polygon","arcs":[[12]],"properties":{"codigo":"52540200403002000101","sector":"525402004030020001","pcode":"CO52540","area_m2":122409}},{"type":"Polygon","arcs":[[13]],"properties":{"codigo":"52540200501003000101","sector":"525402005010030001","pcode":"CO52540","area_m2":11303}},{"type":"MultiPolygon","arcs":[[[14]],[[15]]],"properties":{"codigo":"52540200202004000101","sector":"525402002020040001","pcode":"CO52540","area_m2":73687}},{"type":"Polygon","arcs":[[16]],"properties":{"codigo":"52540200403005000101","sector":"525402004030050001","pcode":"CO52540","area_m2":166708}},{"type":"Polygon","arcs":[[17]],"properties":{"codigo":"52540200603009000101","sector":"525402006030090001","pcode":"CO52540","area_m2":35860}},{"type":"Polygon","arcs":[[18]],"properties":{"codigo":"52540200602010000101","sector":"525402006020100001","pcode":"CO52540","area_m2":21146}}]}},"arcs":[[[5541,2882],[-13,-55],[3,-6],[-26,-45],[-16,-34],[-6,-6],[-26,25],[13,10],[0,23],[19,24],[10,33],[9,9],[20,3],[6,21],[7,-2]],[[2567,9999],[39,-12],[-14,-43],[-10,-63],[-13,-17],[0,-34],[13,-17],[-4,-10],[-11,20],[-27,-14],[-9,9],[9,38],[-5,36],[7,24],[5,-2],[7,26],[-3,10],[7,22],[26,-8],[11,12],[-32,18],[4,5]],[[6645,2710],[-9,-11],[-44,-36],[-22,-28],[10,-7],[-9,-12],[-15,-5],[-41,12],[-7,9],[7,15],[33,28],[18,-2],[23,29],[24,7],[22,22],[10,-21]],[[6719,347],[-5,-4]],[[6714,343],[-30,2],[-5,-9],[-57,17],[-17,12],[19,28],[-16,10],[-38,-21],[-9,-12],[-10,8],[-20,-13],[-21,10],[-42,10],[-28,-2]],[[6440,383],[2,7],[60,3],[30,-11],[24,2],[32,16],[31,23],[-17,17],[-6,14],[14,24],[16,7],[-2,25],[42,8],[-20,-15],[1,-33],[8,14],[33,-15],[2,12],[10,-4],[-1,-23],[19,-6],[12,-19],[13,-58],[-18,-9],[-6,-15]],[[6714,343],[-9,-13],[-37,-37],[-24,3],[-18,-11],[-4,6],[-24,-17],[-22,8],[-20,-31],[-12,3],[6,12],[-9,19],[-13,10],[9,11],[-21,20],[-16,-11],[-18,7],[-40,7],[1,15],[-9,37],[6,2]],[[6825,56],[-9,-29],[-44,-7],[-6,19],[-23,0],[-12,12],[8,22],[31,5],[4,-24],[13,2],[-1,18],[11,10],[33,1],[-5,-29]],[[6804,1],[-26,7],[18,6],[8,-13]],[[6809,170],[5,-54],[7,-6],[-11,-15],[-28,0],[-10,11],[-3,57],[18,-1],[22,8]],[[6719,347],[12,-7],[5,-17],[-10,-4],[19,-27],[22,0],[3,-31],[5,-10],[35,-35],[-25,-27],[-6,25],[-36,30],[-3,17],[6,18],[-14,7],[-6,14],[-5,37],[-7,6]],[[9913,2410],[19,-58],[32,-55],[29,-21],[-9,-8],[9,-12],[-54,-2],[-12,11],[-33,48],[-3,41],[-21,-11],[-1,25],[30,25],[-6,16],[-12,-3],[10,29],[11,5],[11,-30]],[[4230,6237],[56,-49],[9,3],[10,-15],[22,-16],[31,-13],[-3,-8],[54,-16],[11,-6],[-2,22],[21,-18],[23,-1],[27,-14],[-5,-13],[50,-32],[6,-12],[12,3],[13,-33],[14,-20],[-3,-13],[-17,10],[-15,-20],[-6,27],[10,32],[-18,10],[-34,10],[-35,4],[-31,8],[-23,18],[-5,-29],[15,-1],[21,-24],[-5,-12],[12,-26],[-11,-14],[-17,11],[-7,22],[-14,10],[1,16],[-21,39],[-33,27],[-24,6],[-25,15],[-26,22],[5,10],[-54,45],[-59,40],[5,11],[20,-18],[21,30],[13,-1],[-10,-13],[21,-14]],[[1898,7442],[-14,-16],[-18,-3],[-10,-17],[-2,-19],[-9,-5],[-12,-24],[-8,12],[17,33],[-2,6],[9,37],[13,-8],[27,16],[9,-12]],[[28,8340],[19,-7],[10,-19],[35,-28],[-5,-20],[15,-12],[30,-10],[32,-18],[-5,-16],[-40,13],[-21,13],[-47,16],[-20,19],[-31,65],[22,10],[6,-6]],[[225,8386],[11,-1],[15,-17],[29,-22],[18,-20],[-17,-12],[19,-20],[22,12],[2,-22],[-20,7],[-13,-12],[-7,5],[-18,-11],[-24,11],[-17,14],[-12,-23],[-10,6],[18,22],[-22,15],[37,42],[-17,23],[6,3]],[[4142,4778],[-17,-20],[16,-31],[3,-39],[12,8],[8,-16],[25,11],[12,-26],[9,-1],[14,-25],[20,60],[14,-9],[-10,-5],[-11,-34],[2,-12],[18,-7],[19,16],[2,35],[58,0],[-4,-63],[-59,-13],[10,-17],[-9,-13],[20,12],[17,-42],[-30,-15],[-14,-11],[7,-19],[-9,-4],[13,-15],[3,-36],[-13,-13],[7,-37],[-34,25],[10,5],[-4,44],[-8,27],[-19,39],[-25,-20],[-19,8],[32,18],[-3,18],[-19,24],[-16,-12],[-25,51],[-11,5],[-26,25],[-11,40],[5,19],[-7,37],[-20,12],[15,11],[17,-18],[35,23]],[[5662,2408],[13,-56],[-1,-21],[-13,1],[3,-58],[16,-5],[2,-23],[-1,-94],[-28,1],[-1,16],[12,-2],[8,25],[-14,21],[-2,30],[-30,-2],[0,33],[24,9],[0,39],[-7,8],[18,10],[-5,21],[-11,-4],[-9,20],[8,11],[1,19],[17,1]],[[6610,4961],[21,-17],[-10,-9],[-2,-20],[6,-22],[-6,-3],[-9,-38],[1,-39],[8,-21],[-5,-7],[-16,17],[-11,35],[-13,-9],[27,69],[1,48],[-6,14],[14,2]]]}
