{"type":"Topology","bbox":[-77.21443786518967,1.5818976082417011,-77.10245925618756,1.6581783485346193],"transform":{"scale":[0.000011198980798290627,0.000007628836912983119],"translate":[-77.21443786518967,1.5818976082417011]},"objects":{"municipios":{"type":"GeometryCollection","geometries":[{"type":"MultiPolygon","arcs":[[[0]],[[1]]],"properties":{"codigo":"52399200101001000101","sector":"523992001010010001","pcode":"CO52399","area_m2":45343}},{"type":"MultiPolygon","arcs":[[[2]],[[3]]],"properties":{"codigo":"52399200105012000101","sector":"523992001050120001","pcode":"CO52399","area_m2":19905}},{"type":"Polygon","arcs":[[4]],"properties":{"codigo":"52399200103018000101","sector":"523992001030180001","pcode":"CO52399","area_m2":18951}},{"type":"Polygon","arcs":[[5,6,7,8]],"properties":{"codigo":"52399100000000000102","sector":"523991000000000001","pcode":"CO52399","area_m2":127604}},{"type":"Polygon","arcs":[[-9,9,10,11]],"properties":{"codigo":"52399100000000000103","sector":"523991000000000001","pcode":"CO52399","area_m2":161910}},{"type":"Polygon","arcs":[[-10,-8,12,13,14,15,16,17,18]],"properties":{"codigo":"52399100000000000101","sector":"523991000000000001","pcode":"CO52399","area_m2":536122}},{"type":"Polygon","arcs":[[-11,-19,19,20,21]],"properties":{"codigo":"52399100000000000104","sector":"523991000000000001","pcode":"CO52399","area_m2":368597}},{"type":"Polygon","arcs":[[22,-15]],"properties":{"codigo":"52399100000000000105","sector":"523991000000000001","pcode":"CO52399","area_m2":51644}},{"type":"Polygon","arcs":[[23,-17]],"properties":{"codigo":"52399100000000000106","sector":"523991000000000001","pcode":"CO52399","area_m2":13141}},{"type":"Polygon","arcs":[[-13,-7,24]],"properties":{"codigo":"52399100000000000107","sector":"523991000000000001","pcode":"CO52399","area_m2":72104}},{"type":"MultiPolygon","arcs":[[[25]],[[26]],[[27]]],"properties":{"codigo":"52399200104003000101","sector":"523992001040030001","pcode":"CO52399","area_m2":106409}},{"type":"MultiPolygon","arcs":[[[-21,28]],[[29]]],"properties":{"codigo":"52399200104029000101","sector":"523992001040290001","pcode":"CO52399","area_m2":17207}},{"type":"Polygon","arcs":[[30]],"properties":{"codigo":"52399200105030000101","sector":"523992001050300001","pcode":"CO52399","area_m2":59481}},{"type":"Polygon","arcs":[[31]],"properties":{"codigo":"52399200101035000101","sector":"523992001010350001","pcode":"CO52399","area_m2":10866}},{"type":"Polygon","arcs":[[32]],"properties":{"codigo":"52399200104036000101","sector":"523992001040360001","pcode":"CO52399","area_m2":11536}}]}},"arcs":[[[9869,8833],[12,-26],[30,41],[20,61],[12,-10],[-19,-70],[21,-52],[-124,-92],[11,-32],[-76,-172],[-19,16],[-23,-54],[-35,35],[39,88],[35,-33],[30,66],[-22,11],[27,72],[-24,13],[-32,-16],[-19,50],[52,53],[-28,68],[85,67],[47,-84]],[[9983,8958],[-13,7],[29,43],[-16,-50]],[[5175,6537],[2,-26],[57,-35],[26,2],[-3,36],[57,2],[3,-36],[26,-31],[-114,-7],[-42,-19],[-24,15],[-3,41],[-79,0],[-18,32],[83,7],[-2,29],[31,-10]],[[5078,6629],[8,-77],[-33,-5],[-10,129],[30,2],[5,-49]],[[291,9864],[2,-36],[-25,0],[3,-85],[-81,4],[4,77],[-21,38],[-40,6],[-86,62],[-33,11],[-13,58],[46,-11],[-3,-28],[94,-66],[152,-25],[1,-5]],[[7723,2651],[40,-57],[-35,-107],[-15,6]],[[7713,2493],[14,103],[-70,-96],[-37,-90],[-52,-8],[-91,-51],[-41,-55]],[[7436,2296],[-35,-7],[-77,83],[-16,127],[9,237]],[[7317,2736],[93,3],[-1,-56],[45,49],[39,5],[40,-54],[-9,-63],[20,-36],[25,3],[95,75],[59,-11]],[[7317,2736],[1,111],[-6,220]],[[7312,3067],[72,-4],[168,7],[35,36],[107,-1]],[[7694,3105],[55,8],[15,-20],[-39,-114],[-94,-16],[-69,52],[9,-142],[20,0],[1,-41],[35,-51],[62,59],[44,21],[52,5],[46,-84],[-77,-45],[-30,6],[-16,-42],[15,-50]],[[7436,2296],[57,-71],[62,-21],[38,8],[41,33],[65,-4],[56,62],[57,-6],[8,-45]],[[7820,2252],[-75,-2],[-50,-54],[-141,-110],[54,-93],[41,-27],[37,0],[3,78],[39,-117],[-10,-51],[-77,-47],[-52,6],[-109,33],[-27,-47],[-27,4],[8,-111],[48,-95],[26,-23],[-30,-72],[-22,-21],[-46,19],[-30,40],[-26,-46],[11,-94],[47,-200],[48,-87],[7,-93],[-97,-119],[-23,-19],[29,-19],[1,-75],[24,-163],[-14,-15],[19,-134],[-21,-38],[32,-121],[-31,-24],[17,-75],[23,19],[-11,-134],[52,-3],[-2,-31],[43,-42],[-18,-26],[-23,31],[-53,30],[-3,-28],[-66,39],[-28,-34],[-25,-61],[-16,9],[31,100],[-10,63]],[[7297,172],[5,50],[32,69],[1,73],[-26,107],[-13,124],[-2,137],[17,56],[-8,106],[11,197],[-79,9],[-32,-56],[9,-56]],[[7212,988],[-41,66],[-19,-40],[30,-101],[-30,19],[-43,-17],[-10,48],[33,23],[-21,61],[-24,-73],[-50,-48],[-29,-74],[-34,-57],[-12,18],[-49,-54],[-43,0],[-4,183],[17,39],[26,-2],[24,36],[73,-8],[38,-66],[25,23]],[[7069,964],[34,138],[39,-42],[33,7],[23,53],[-59,100]],[[7139,1220],[-12,20],[19,53],[69,92],[6,106],[-21,-35],[-3,43],[40,92],[69,61],[-6,108],[-12,30],[15,175],[-8,49],[14,22],[-10,96],[-15,27],[-18,102],[20,29],[12,133],[-17,0],[5,53],[-32,0],[-3,50],[34,6],[11,88],[-32,6],[26,31],[8,65],[-31,5],[1,48],[28,0],[-18,108],[-5,179],[-16,1],[3,58],[-22,67],[36,27],[-42,60],[-5,81],[17,5],[-24,62],[24,8],[8,100],[-19,66],[-16,106],[10,122],[-34,101],[-6,42]],[[7187,3968],[36,-17],[-4,-36],[26,-59],[-9,-156],[28,-175],[19,-156],[4,-86],[22,-155],[3,-61]],[[7187,3968],[-3,14]],[[7184,3982],[-2,16]],[[7182,3998],[46,38],[36,61],[11,105],[69,28],[32,42],[12,46],[53,-31],[21,19],[13,-38],[-61,-12],[-25,-81],[6,-42],[48,-62],[48,-86],[-2,-47],[-24,-19],[39,-47],[30,9],[16,-62],[32,-55],[4,-51],[-59,-15],[-15,-20],[-57,-6],[-43,14],[-27,-101],[13,-45],[-27,-67],[66,-113],[94,148],[53,126],[-3,31],[34,81],[17,-8],[53,160],[23,41],[7,69],[47,-8],[56,-86],[69,-5],[49,-26],[-19,-63],[-19,8],[2,40],[-83,20],[-45,27],[1,-78],[-27,-57],[-8,-85],[-23,-73],[-24,-9],[-28,-71],[-29,41],[-33,-99],[-17,13],[-23,-54],[37,-34],[-8,-20],[24,-66],[-24,-60],[8,-95],[24,11],[-8,32],[29,14],[-2,-89],[50,10],[3,-41]],[[7297,172],[-10,55],[29,92],[-52,-58],[-21,5],[40,103],[-7,47],[24,6],[-29,107],[-12,122],[-26,1],[15,41],[-2,145],[-22,91],[15,-2],[0,60],[-27,1]],[[7069,964],[-17,10],[38,119],[-10,32],[62,74],[-3,21]],[[7713,2493],[-13,-63],[10,-40],[60,32],[30,-5],[22,-45],[10,-66],[29,-48],[41,-10],[44,17],[-34,-35],[-79,-2],[-13,24]],[[6936,6678],[23,-65],[-26,-73],[13,-69],[-74,-165],[-26,-31],[-51,26],[-5,-29],[-36,10],[33,95],[2,47],[80,143],[11,63],[-13,40],[33,-4],[6,50],[30,-38]],[[6794,6238],[23,-38],[49,26],[20,-61],[-66,-32],[4,-87],[-78,-94],[-37,-69],[0,-86],[-22,-7],[-22,40],[-12,62],[14,73],[42,57],[31,-2],[21,30],[13,174],[20,14]],[[7000,6930],[45,24],[38,-87],[-34,-35],[-19,37],[-56,-2],[-20,-59],[1,-67],[-84,39],[-3,165],[40,-33],[21,16],[-11,70],[47,28],[15,-75],[20,-21]],[[7184,3982],[-35,-26],[-6,-49],[-15,78],[18,5],[-12,63],[-83,39],[-44,7],[4,37],[70,-28],[26,71],[16,-12],[-29,-74],[29,-7],[41,17],[29,51],[27,-48],[-45,-62],[7,-46]],[[7007,4077],[-1,-16],[-56,3],[4,18],[53,-5]],[[3535,5791],[40,-23],[-14,-100],[-4,-98],[-16,-37],[40,-12],[56,-44],[9,20],[85,-44],[18,-89],[31,32],[22,-13],[-3,-33],[-43,-55],[-36,49],[-20,-28],[-49,23],[-35,-19],[-14,31],[25,75],[-110,69],[-39,-90],[-40,-2],[0,68],[-62,34],[51,113],[17,16],[45,-83],[20,48],[5,53],[21,68],[0,71]],[[9746,9183],[164,-13],[-1,-43],[-64,27],[-4,-16],[-66,1],[-14,-39],[-10,43],[-73,30],[26,76],[19,-6],[-3,-52],[26,-8]],[[6990,4319],[-20,8],[6,65],[-24,51],[-46,48],[-25,87],[16,56],[91,-200],[2,-115]]]}
