{"type":"Topology","bbox":[-77.08420846556152,1.468228327208778,-77.06178056302775,1.4917346293537375],"transform":{"scale":[0.0000022430145548318533,0.0000023508653010260548],"translate":[-77.08420846556152,1.468228327208778]},"objects":{"municipios":{"type":"GeometryCollection","geometries":[{"type":"Polygon","arcs":[[0,1]],"properties":{"codigo":"52019200101009000101","sector":"520192001010090001","pcode":"CO52019","area_m2":20727}},{"type":"Polygon","arcs":[[2,3]],"properties":{"codigo":"52019100000000000103","sector":"520191000000000001","pcode":"CO52019","area_m2":40259}},{"type":"Polygon","arcs":[[-3,4,5]],"properties":{"codigo":"52019100000000000102","sector":"520191000000000001","pcode":"CO52019","area_m2":82916}},{"type":"Polygon","arcs":[[6,-5,7,-1]],"properties":{"codigo":"52019100000000000101","sector":"520191000000000001","pcode":"CO52019","area_m2":298029}},{"type":"Polygon","arcs":[[8]],"properties":{"codigo":"52019200101004000101","sector":"520192001010040001","pcode":"CO52019","area_m2":19941}},{"type":"Polygon","arcs":[[9]],"properties":{"codigo":"52019200101013000101","sector":"520192001010130001","pcode":"CO52019","area_m2":12843}}]}},"arcs":[[[3120,5625],[-139,36]],[[2981,5661],[-21,157],[222,210],[-40,80],[252,67],[-7,236],[88,2],[-68,269],[90,60],[66,-93],[425,43],[1,-87],[-291,-10],[139,-224],[228,78],[58,-255],[-234,-38],[-160,277],[-145,117],[-5,-358],[-54,-172],[-67,80],[-222,-46],[10,-202],[-126,-227]],[[1500,1136],[208,75],[453,-78]],[[2161,1133],[24,-690],[-294,-17],[81,-426],[-362,154],[-112,530],[2,452]],[[1500,1136],[-157,302],[79,152],[-121,291],[-194,-19],[112,316],[-10,74],[171,507],[-101,24],[117,242],[297,254]],[[1693,3279],[126,-323],[156,-169],[-65,-49],[190,-279],[-200,-265],[-123,9],[-25,-326],[99,-4],[89,-133],[204,-166],[17,-441]],[[3120,5625],[85,-205],[-166,-227],[-67,-280],[-149,-267],[-92,-384],[16,-179],[92,-82],[-332,-103],[-303,-300],[-81,-152],[-135,-91],[-295,-76]],[[1500,1136],[-174,-53],[-206,-192],[-79,-131],[-309,319],[-88,254],[131,30],[42,303],[-167,7],[-7,201],[-165,-2],[-142,251],[-9,174],[116,385],[-116,7],[67,203],[-57,71],[-299,139],[3,170],[140,98],[48,164],[363,-61],[70,-67],[82,236],[201,352],[128,-90],[182,73],[248,-157],[112,-193],[89,38],[-31,365],[103,163],[-158,123],[-4,346],[115,143],[237,180],[304,37],[234,199],[288,377],[189,63]],[[9693,9820],[198,-4],[108,-144],[-380,-96],[-49,128],[-165,-11],[-34,-73],[-161,-9],[-67,208],[-126,24],[19,-98],[-283,-34],[-177,128],[-149,-71],[-187,-343],[88,461],[209,113],[39,-85],[212,8],[577,-51],[212,-71],[116,20]],[[1577,6750],[-112,-13],[-183,-256],[-138,10],[-27,232],[-77,30],[207,307],[-10,103],[116,68],[90,-166],[-108,-33],[237,-223],[5,-59]]]}
