{"type":"Topology","bbox":[-77.13806340268764,1.4511094048618487,-77.09048167029442,1.509955625532393],"transform":{"scale":[0.0000047586491042316185,0.000005885210588113235],"translate":[-77.13806340268764,1.4511094048618487]},"objects":{"municipios":{"type":"GeometryCollection","geometries":[{"type":"Polygon","arcs":[[0]],"properties":{"codigo":"52051100000000000101","sector":"520511000000000001","pcode":"CO52051","area_m2":263435}},{"type":"Polygon","arcs":[[1]],"properties":{"codigo":"52051200102012000101","sector":"520512001020120001","pcode":"CO52051","area_m2":31818}},{"type":"Polygon","arcs":[[2]],"properties":{"codigo":"52051200102005000101","sector":"520512001020050001","pcode":"CO52051","area_m2":88293}},{"type":"Polygon","arcs":[[3]],"properties":{"codigo":"52051200102007000101","sector":"520512001020070001","pcode":"CO52051","area_m2":53689}},{"type":"Polygon","arcs":[[4]],"properties":{"codigo":"52051200102015000101","sector":"520512001020150001","pcode":"CO52051","area_m2":30748}}]}},"arcs":[[[730,9999],[21,-59],[-27,-88],[-82,-40],[-6,-183],[-34,-97],[49,-41],[12,-70],[122,41],[15,-59],[100,-43],[-103,-109],[-75,-15],[-4,-124],[57,-27],[-17,-56],[62,-24],[-17,-42],[62,-18],[6,-41],[-107,-39],[49,-42],[291,-176],[-8,-49],[-165,2],[-21,37],[-77,-38],[37,-60],[-248,-96],[1,-45],[-54,-182],[95,4],[13,-63],[-74,-15],[-72,-96],[-28,-73],[-125,59],[-84,-33],[-172,49],[-7,37],[-115,41],[10,27],[131,17],[177,80],[185,104],[-107,141],[-104,66],[-117,159],[95,218],[-23,64],[113,-10],[49,90],[-41,40],[53,21],[-28,95],[115,35],[-95,45],[35,106],[-33,427],[64,72],[105,55],[146,21]],[[6959,2250],[-95,-79],[96,-33],[-81,-135],[-134,-109],[-57,22],[-152,-114],[-46,-110],[-139,0],[-26,64],[106,-23],[80,111],[-8,57],[175,143],[162,187],[63,43],[56,-24]],[[6027,161],[176,13],[53,49],[246,2],[-1,119],[133,207],[118,-20],[123,76],[0,65],[63,16],[8,-55],[-92,-124],[-82,-59],[281,-80],[10,-50],[-67,-6],[-83,-149],[-74,-47],[-9,-99],[-90,58],[-89,24],[-94,-41],[2,-53],[-101,0],[-8,68],[-195,36],[-220,-20],[-8,70]],[[5819,729],[82,-54],[-3,-79],[-125,-125],[-150,118],[72,79],[-111,39],[-110,86],[158,118],[141,71],[164,38],[80,-21],[-58,-135],[70,-22],[-88,-96],[23,-44],[-106,63],[-39,-36]],[[9031,5853],[100,20],[0,37],[148,-26],[9,19],[183,-6],[7,-56],[123,20],[6,103],[266,24],[99,26],[27,-116],[-83,-29],[-9,-38],[-81,75],[-81,2],[12,-66],[-135,-63],[-16,36],[-92,-16],[-123,75],[-138,-19],[-44,-98],[-208,41],[30,55]]]}
