{"type":"Topology","bbox":[-77.40178398823821,1.4002160988083507,-77.38206426410244,1.415764339883872],"transform":{"scale":[0.000001972169630539904,0.0000015549796055126732],"translate":[-77.40178398823821,1.4002160988083507]},"objects":{"municipios":{"type":"GeometryCollection","geometries":[{"type":"Polygon","arcs":[[0,1,2]],"properties":{"codigo":"52260100000000000104","sector":"522601000000000001","pcode":"CO52260","area_m2":115504}},{"type":"Polygon","arcs":[[3,4,5,6,7,-1,8]],"properties":{"codigo":"52260100000000000101","sector":"522601000000000001","pcode":"CO52260","area_m2":317248}},{"type":"Polygon","arcs":[[-7,9,10,11]],"properties":{"codigo":"52260100000000000102","sector":"522601000000000001","pcode":"CO52260","area_m2":188306}},{"type":"Polygon","arcs":[[-2,-8,-12,12]],"properties":{"codigo":"52260100000000000103","sector":"522601000000000001","pcode":"CO52260","area_m2":143015}},{"type":"Polygon","arcs":[[-4,13]],"properties":{"codigo":"52260100000000000105","sector":"522601000000000001","pcode":"CO52260","area_m2":53867}},{"type":"Polygon","arcs":[[14,-10,-6]],"properties":{"codigo":"52260100000000000106","sector":"522601000000000001","pcode":"CO52260","area_m2":207774}}]}},"arcs":[[[4707,9050],[-95,-289],[-120,-279],[-258,-746],[-445,-924]],[[3789,6812],[-357,307],[-325,310],[-147,92],[-229,0]],[[2731,7521],[-101,25],[-33,266],[-52,153],[146,108],[236,243],[-42,-335],[73,-31],[131,152],[79,31],[150,236],[201,198],[19,195],[-37,81],[25,229],[52,149],[96,-58],[1,211],[180,476],[80,122],[80,12],[491,-485],[97,-310],[104,-139]],[[8444,5460],[-38,-112],[-2,-324],[83,-88],[-156,-238],[-69,-34],[13,-148],[-104,-175],[115,-264],[108,99],[190,-300],[54,14],[190,281]],[[8828,4171],[45,22],[-112,-496],[-187,-35],[-139,36],[-223,-146],[-291,-233],[-168,-49],[-109,16],[-201,-67],[-326,-216]],[[7117,3003],[-76,-108],[-86,-39],[-147,-170],[-41,52]],[[6767,2738],[-103,156],[-74,175],[-203,673],[-136,277],[-486,415],[-1070,1017],[-470,366],[-78,44],[-610,442]],[[3537,6303],[252,509]],[[4707,9050],[155,-62],[22,-217],[77,-13],[248,-181],[-64,-220],[-246,-173],[74,-342],[131,30],[39,-107],[29,-331],[-246,-9],[-227,63],[-37,-87],[-105,31],[-34,160],[-49,-195],[-64,-89],[24,-73],[-77,-381],[-54,-53],[83,-114],[58,50],[218,38],[102,-325],[80,-144],[-190,-171],[37,-90],[204,175],[193,-504],[270,328],[328,-7],[60,-47],[187,24],[89,-247],[159,-34],[93,-379],[221,-269],[140,-9],[72,-93],[107,54],[122,192],[153,-353],[23,-217],[236,112],[-61,144],[-98,424],[216,26],[217,-382],[105,-11],[253,242],[56,94],[186,-188],[105,8],[-86,270],[-25,374],[282,-104],[-54,-208]],[[6767,2738],[-225,-210],[-140,-194],[-74,-46]],[[6328,2288],[-186,25],[-98,83],[-148,62],[-64,74],[-63,211],[-72,359],[-137,254],[-46,186],[-57,53],[-135,-161],[-305,-1],[86,282],[-67,37],[-149,227],[-74,58],[-114,246],[-301,172],[-100,169],[-150,93],[-240,280],[-358,184],[-54,-129],[-447,87],[-169,82],[48,118],[108,94],[-519,284]],[[2517,5717],[119,138],[205,42],[332,675],[364,-269]],[[2517,5717],[-132,-319],[-11,-181],[57,-444],[-301,-136],[-184,-37],[-89,26],[63,235],[-179,33],[115,89],[30,143],[71,76],[-5,237],[288,92],[-33,145],[126,289],[-41,86],[-177,41],[-14,79],[95,226],[9,234],[-127,91],[-3,133],[-284,89],[39,129],[-61,51],[-227,-37],[-55,157],[-138,119],[-169,64],[-273,50],[-63,149],[-143,191],[-193,-82],[-293,-12],[-106,-26],[-109,85],[8,142],[231,38],[191,-65],[187,62],[155,-7],[126,418],[-228,97],[-134,103],[-83,141],[-11,146],[45,184],[75,85],[130,-19],[133,-249],[93,-58],[159,12],[72,-56],[137,-435],[518,-278],[-15,-433],[-73,-151],[186,-332],[105,76],[195,-33],[179,-105],[136,19],[72,91],[142,346]],[[8444,5460],[129,-60],[163,208],[74,-9],[240,344],[43,-112],[92,-62],[-59,-170],[46,-184],[201,38],[238,-9],[86,-136],[169,80],[121,8],[-69,-88],[-327,-77],[-114,-106],[-108,-193],[-134,-375],[-100,-51],[-151,22],[-213,-132],[73,-109],[-16,-116]],[[7117,3003],[43,-27],[263,-533],[281,234],[86,-160],[300,145],[363,-367],[163,287],[52,13],[193,-163],[387,-399],[232,-408],[138,19],[107,95],[84,-137],[-15,-82],[-197,-292],[-252,-298],[-144,44],[-185,-7],[-19,-321],[-97,-164],[-81,46],[-158,-20],[156,-373],[-147,-104],[-177,-24],[-69,193],[-472,250],[-341,293],[-37,92],[-70,-145],[-401,244],[-60,54],[-203,69],[-55,308],[-158,144],[-220,125],[53,76],[20,269],[43,60],[-70,67],[-70,-58],[-55,240]]]}
