{"type":"Topology","bbox":[-77.49980800827416,1.1903686691375992,-77.45714248805751,1.2519111628241624],"transform":{"scale":[0.000004266978719536392,0.000006154864855141832],"translate":[-77.49980800827416,1.1903686691375992]},"objects":{"municipios":{"type":"GeometryCollection","geometries":[{"type":"Polygon","arcs":[[0,1]],"properties":{"codigo":"52207100000000000101","sector":"522071000000000001","pcode":"CO52207","area_m2":198701}},{"type":"Polygon","arcs":[[2,-1,3,4]],"properties":{"codigo":"52207100000000000102","sector":"522071000000000001","pcode":"CO52207","area_m2":149951}},{"type":"Polygon","arcs":[[-5,5]],"properties":{"codigo":"52207100000000000103","sector":"522071000000000001","pcode":"CO52207","area_m2":211803}},{"type":"Polygon","arcs":[[6]],"properties":{"codigo":"52207200105004000101","sector":"522072001050040001","pcode":"CO52207","area_m2":372049}},{"type":"Polygon","arcs":[[7]],"properties":{"codigo":"52207200101013000101","sector":"522072001010130001","pcode":"CO52207","area_m2":199658}},{"type":"Polygon","arcs":[[8]],"properties":{"codigo":"52207200101023000101","sector":"522072001010230001","pcode":"CO52207","area_m2":136413}}]}},"arcs":[[[7480,2935],[-60,-28],[-3,-98],[-342,-48],[30,-176]],[[7105,2585],[-212,-37],[-13,35],[-108,-49],[-153,-4],[-124,-72],[-59,156],[-284,-53],[-21,57],[172,32],[-84,134],[-322,-66],[-34,64],[161,34],[7,38],[180,44],[57,-95],[81,-3],[-150,185],[380,39],[-78,183],[382,0],[179,-40],[104,-70],[314,-162]],[[8923,2655],[-34,28],[-173,5],[-201,-23],[-236,-47],[-255,6],[-18,-43],[-345,-66],[-86,-49],[-109,10],[-31,83],[-163,55],[-167,-29]],[[7480,2935],[-1,-20],[333,58],[109,67],[276,16]],[[8197,3056],[25,-138],[-54,-3],[34,-208],[615,51],[106,-103]],[[8197,3056],[438,88],[224,-35],[8,-59],[368,39],[147,48],[153,22],[12,-72],[89,-1],[52,-132],[142,24],[48,-95],[87,7],[34,-112],[-95,-27],[-171,2],[9,-53],[-82,-7],[-11,66],[-125,-18],[9,-61],[-273,-54],[-82,14],[-11,67],[-64,0],[28,-70],[-208,18]],[[8527,1558],[-1,-102],[123,-5],[-1,-47],[90,40],[211,-23],[206,7],[18,197],[79,-1],[22,-132],[-75,-45],[17,-128],[-71,8],[-50,-440],[-9,-167],[127,-2],[-55,-91],[-10,-117],[174,-68],[113,20],[61,-23],[31,-82],[4,-165],[49,-76],[81,-41],[16,-73],[-242,176],[55,105],[-59,35],[3,88],[-144,-13],[-99,29],[-68,64],[-296,19],[23,144],[-206,96],[-38,-342],[-89,99],[32,41],[3,142],[-270,43],[-23,36],[-497,26],[10,164],[41,60],[1,163],[27,28],[16,162],[27,20],[24,197],[21,-95],[376,-18],[19,194],[108,-2],[-5,-98],[100,-7]],[[845,9830],[16,-27],[171,100],[103,-51],[89,-5],[-35,-182],[50,-22],[222,99],[66,-94],[-148,-144],[-155,-9],[-27,-98],[168,-15],[31,-91],[226,43],[86,-44],[-112,-6],[23,-41],[-239,-9],[-10,-28],[-200,81],[-74,-83],[-139,34],[52,55],[-105,19],[-241,90],[-45,-93],[-176,79],[-53,-71],[-91,22],[29,37],[-123,63],[-65,-60],[-139,141],[139,71],[80,96],[153,82],[212,4],[155,100],[-39,27],[160,99],[-15,-169]],[[2891,7267],[102,-17],[-221,-29],[-84,-135],[2,-50],[97,-34],[-83,-29],[14,-137],[151,-92],[-64,-97],[-51,13],[-128,-157],[-6,-55],[73,-130],[-105,-67],[-43,58],[58,30],[-54,41],[-140,0],[-114,-227],[-18,-107],[46,-73],[-114,-68],[-84,131],[48,181],[96,169],[160,111],[-30,59],[52,84],[70,-18],[-33,129],[-312,70],[-131,88],[-28,121],[77,-1],[-1,51],[297,-12],[100,-18],[155,211],[246,6]]]}
