{"type":"Topology","bbox":[-78.30316217859882,2.3928188996726103,-78.18469065383823,2.664543653250938],"transform":{"scale":[0.000011848337309790343,0.00002717519287712047],"translate":[-78.30316217859882,2.3928188996726103]},"objects":{"municipios":{"type":"GeometryCollection","geometries":[{"type":"Polygon","arcs":[[0]]},{"type":"Polygon","arcs":[[1]]},{"type":"Polygon","arcs":[[2]]},{"type":"Polygon","arcs":[[3,4]]},{"type":"Polygon","arcs":[[-4,5]]},{"type":"MultiPolygon","arcs":[[[6]],[[7]]]},{"type":"Polygon","arcs":[[8]]},{"type":"MultiPolygon","arcs":[[[9]],[[10]]]},{"type":"MultiPolygon","arcs":[[[11]],[[12]]]},{"type":"Polygon","arcs":[[13]]},{"type":"Polygon","arcs":[[14]]}]}},"arcs":[[[6614,8421],[-84,-2],[-49,144],[66,4],[11,-9],[47,-92],[9,-45]],[[4770,5286],[29,-11],[-11,-14],[57,2],[7,-12],[-86,-16],[7,-11],[-112,-20],[-42,24],[-29,31],[119,24],[61,3]],[[1644,9648],[108,-25],[58,-50],[-28,7],[-33,-5],[-41,32],[-108,23],[94,-52],[-27,-18],[-79,48],[-44,2],[-124,-16],[-51,7],[14,44],[86,1],[123,15],[52,-13]],[[9541,183],[109,25],[-48,37],[121,28]],[[9723,273],[34,6],[45,-73],[32,-40],[-49,-10],[13,-12],[170,29],[31,3],[-3,-49],[-25,-37],[-3,-30],[-115,-17],[-127,-43],[-44,0],[-45,17],[-30,32],[-15,34],[-14,69],[-37,31]],[[9541,183],[-109,65],[-25,8],[-191,21],[-70,21],[-13,32],[17,20],[96,83],[85,49],[67,-13],[13,-23],[-37,-34],[10,-16],[35,-6],[-9,-30],[73,-11],[25,10],[89,-28],[36,-23],[32,16],[58,-51]],[[119,9142],[74,0],[49,-6],[-49,-84],[14,-17],[-156,-4],[-42,38],[50,42],[28,31],[32,0]],[[63,9256],[85,-9],[-69,-51],[39,20],[22,-7],[33,19],[27,-8],[-97,-67],[-41,11],[7,20],[-58,0],[-9,16],[-2,61],[63,-5]],[[9707,2233],[62,-7],[48,1],[95,22],[32,-33],[-71,-13],[-99,-12],[-46,0],[-68,12],[-55,21],[-95,103],[54,12],[96,-101],[47,-5]],[[7444,5632],[25,-6],[16,-19],[54,3],[15,9],[7,-23],[-36,9],[-74,-6],[-23,29],[16,4]],[[7582,5635],[39,-44],[-31,5],[-29,36],[21,3]],[[7940,485],[-34,17],[15,17],[3,30],[45,0],[-2,-42],[-27,-22]],[[7911,474],[-66,-11],[-30,18],[80,17],[16,-24]],[[5238,9990],[43,8],[42,-39],[-54,-20],[0,-15],[32,11],[61,-12],[-15,-15],[26,-4],[-20,-20],[-13,12],[-53,11],[-80,-56],[-44,-1],[14,-20],[-50,-40],[-19,5],[20,17],[-44,13],[45,32],[13,44],[-22,37],[25,6],[-24,19],[40,20],[66,16],[11,-9]],[[5486,5347],[15,-25],[-86,-19],[167,0],[-130,-22],[-144,0],[68,16],[-85,1],[-17,4],[40,41],[88,11],[84,-7]]]}