{"type":"Topology","bbox":[-77.69692593821048,1.0189535389570714,-77.61374671494042,1.0503228621352487],"transform":{"scale":[0.000008318754202426742,0.0000031372460424219733],"translate":[-77.69692593821048,1.0189535389570714]},"objects":{"municipios":{"type":"GeometryCollection","geometries":[{"type":"MultiPolygon","arcs":[[[0]],[[1]]],"properties":{"codigo":"52720200104002000101","sector":"527202001040020001","pcode":"CO52720","area_m2":42955}},{"type":"Polygon","arcs":[[2,3,4]],"properties":{"codigo":"52720100000000000101","sector":"527201000000000001","pcode":"CO52720","area_m2":99631}},{"type":"Polygon","arcs":[[5,-3,6]],"properties":{"codigo":"52720100000000000102","sector":"527201000000000001","pcode":"CO52720","area_m2":258633}},{"type":"Polygon","arcs":[[7,-4,-6]],"properties":{"codigo":"52720100000000000103","sector":"527201000000000001","pcode":"CO52720","area_m2":115758}},{"type":"Polygon","arcs":[[8]],"properties":{"codigo":"52720200101001000101","sector":"527202001010010001","pcode":"CO52720","area_m2":314025}}]}},"arcs":[[[5651,542],[-30,-117],[-22,41],[-102,-321],[-93,-40],[-37,57],[-100,-132],[-68,-30],[-18,140],[-82,103],[33,91],[19,-69],[97,-8],[81,124],[41,-89],[197,272],[-2,75],[80,123],[-36,-124],[42,-96]],[[5081,171],[-107,79],[40,237],[67,-316]],[[9339,6357],[-50,-57],[-79,-317]],[[9210,5983],[-91,135],[-66,50],[-52,-312],[-186,281]],[[8815,6137],[-26,46],[33,87],[-57,201],[26,64],[60,-69],[48,34],[-9,-83],[63,-52],[69,478],[19,65],[68,-5],[7,-57],[186,-216],[37,-181],[0,-92]],[[8879,4879],[22,134],[118,511],[74,-133],[52,318],[65,274]],[[9339,6357],[32,-9],[81,96],[63,177],[53,216],[109,121],[84,136],[58,51],[2,-303],[45,-209],[13,105],[101,146],[19,-89],[-35,-70],[6,-322],[-106,-42],[-131,-9],[-75,35],[-86,-382],[5,-111],[-153,-249],[29,-86],[-22,-87],[-94,-215],[-68,-193],[-55,49],[-47,-136],[9,-101],[-67,-75],[-64,15],[-44,-199],[-93,103],[-29,159]],[[8879,4879],[-109,-72],[25,162],[-106,12],[-9,65],[55,295],[-23,155],[31,183],[44,143],[-20,79],[48,236]],[[1414,9902],[1,-62],[-162,-22],[-17,-135],[-84,25],[-50,-122],[-17,-165],[-27,102],[-56,7],[-75,-130],[16,-49],[-114,-188],[123,-503],[-163,-361],[-15,48],[-24,-169],[-83,167],[-62,348],[-72,-96],[-37,10],[14,-235],[-87,-89],[-100,68],[-37,206],[-74,-120],[-42,-319],[-27,-78],[45,-534],[-32,-51],[-91,15],[3,254],[-68,231],[6,234],[34,-48],[69,258],[38,66],[-3,139],[32,248],[88,2],[55,-67],[58,174],[-50,221],[70,87],[-60,324],[-39,376],[35,2],[20,-245],[31,22],[15,-107],[64,61],[9,-72],[-59,-59],[41,-175],[112,110],[33,178],[97,35],[61,102],[27,-109],[55,-13],[81,-217],[33,63],[-19,72],[47,83],[17,-71],[86,135],[-12,64],[218,166],[49,5],[-1,-81],[76,-16]]]}
