{"type":"Topology","bbox":[-77.36146355697389,1.284482556777847,-77.3543585781004,1.292084852371926],"transform":{"scale":[7.105689442429622e-7,7.603055899668845e-7],"translate":[-77.36146355697389,1.284482556777847]},"objects":{"municipios":{"type":"GeometryCollection","geometries":[{"type":"Polygon","arcs":[[0,1]],"properties":{"codigo":"52480100000000000101","sector":"524801000000000001","pcode":"CO52480","area_m2":97058}},{"type":"Polygon","arcs":[[2,-2,3,4]],"properties":{"codigo":"52480100000000000102","sector":"524801000000000001","pcode":"CO52480","area_m2":121814}},{"type":"Polygon","arcs":[[-5,5]],"properties":{"codigo":"52480100000000000103","sector":"524801000000000001","pcode":"CO52480","area_m2":117844}}]}},"arcs":[[[4778,3525],[-465,-75],[-237,247],[-338,-25],[-270,282],[-737,289],[-236,-3],[-102,202],[-221,-261],[-485,-346],[-152,110],[-553,1148],[66,139],[-240,804],[-608,-252],[115,294],[35,790],[-350,221],[175,942],[266,-41],[-13,560],[636,59],[448,239],[527,546],[613,-344]],[[2652,9050],[590,-433],[-97,-221],[-455,-141],[1215,-2929],[873,-1801]],[[6812,3229],[-273,-1893],[131,-91],[501,73],[395,-822],[-1290,-125],[-495,-290],[-294,-71],[-907,27],[-464,159],[375,572],[134,329],[-205,55],[-504,385],[19,214],[1266,617],[255,50],[106,1172],[-330,85],[-454,-150]],[[2652,9050],[385,198],[448,-13],[731,313]],[[4216,9548],[200,-845],[118,-123],[644,-1434],[398,-1021],[214,-383],[1039,-2416],[-17,-97]],[[4216,9548],[-71,323],[392,128],[434,-1166],[281,-88],[1304,502],[159,-193],[360,47],[594,344],[551,-8],[279,-599],[275,273],[564,-1487],[92,-363],[569,-478],[-205,-132],[114,-250],[-405,-265],[-40,159],[-953,-333],[-167,-285],[-196,23],[137,-316],[-700,-190],[-45,-467],[214,-101],[-315,-174],[-776,-117],[187,-367],[512,-596],[325,-277],[-161,-282],[-386,68],[-327,348]]]}
