{"type":"Topology","bbox":[-77.12228947498795,1.4999133356973413,-77.0812134629495,1.5547122556138457],"transform":{"scale":[0.000004108012005045029,0.000005480440035654008],"translate":[-77.12228947498795,1.4999133356973413]},"objects":{"municipios":{"type":"GeometryCollection","geometries":[{"type":"MultiPolygon","arcs":[[[0]],[[1]]],"properties":{"codigo":"52694100000000000101","sector":"526941000000000001","pcode":"CO52694","area_m2":161339}},{"type":"Polygon","arcs":[[2]],"properties":{"codigo":"52694200102001000101","sector":"526942001020010001","pcode":"CO52694","area_m2":22269}}]}},"arcs":[[[1059,9645],[-43,-71],[109,-37],[8,-70],[80,-27],[-36,-76],[-264,-80],[-70,-94],[131,1],[86,-90],[0,-73],[-372,-55],[-157,16],[76,45],[-52,67],[-175,102],[46,61],[-12,95],[103,223],[-164,9],[-230,-21],[7,47],[299,20],[66,90],[147,43],[27,229],[297,-34],[-41,-107],[56,-10],[-42,-72],[156,-71],[-36,-60]],[[157,9001],[67,-67],[-211,15],[15,169],[200,107],[50,-131],[-121,-93]],[[9743,86],[-84,-70],[-118,60],[-113,-76],[-62,71],[197,134],[362,156],[74,-62],[-240,-104],[31,-50],[-47,-59]]]}
