{"type":"Topology","bbox":[-77.6147911501227,1.2968729898395768,-77.57329924113247,1.3944200840264396],"transform":{"scale":[0.000004149605859608376,0.000009755684987184999],"translate":[-77.6147911501227,1.2968729898395768]},"objects":{"municipios":{"type":"GeometryCollection","geometries":[{"type":"Polygon","arcs":[[0,1,2,3]],"properties":{"codigo":"52678100000000000102","sector":"526781000000000001","pcode":"CO52678","area_m2":40210}},{"type":"MultiPolygon","arcs":[[[4]],[[5]],[[6]]],"properties":{"codigo":"52678200407012000101","sector":"526782004070120001","pcode":"CO52678","area_m2":8517}},{"type":"Polygon","arcs":[[7]],"properties":{"codigo":"52678200502015000101","sector":"526782005020150001","pcode":"CO52678","area_m2":117012}},{"type":"Polygon","arcs":[[8,-4,9,10]],"properties":{"codigo":"52678100000000000101","sector":"526781000000000001","pcode":"CO52678","area_m2":540686}},{"type":"Polygon","arcs":[[-3,11,12,13,14,-10]],"properties":{"codigo":"52678100000000000103","sector":"526781000000000001","pcode":"CO52678","area_m2":587156}},{"type":"Polygon","arcs":[[15]],"properties":{"codigo":"52678200406007000101","sector":"526782004060070001","pcode":"CO52678","area_m2":69792}},{"type":"Polygon","arcs":[[16,-12,-2,17]],"properties":{"codigo":"52678100000000000104","sector":"526781000000000001","pcode":"CO52678","area_m2":141920}},{"type":"Polygon","arcs":[[18]],"properties":{"codigo":"52678200503013000101","sector":"526782005030130001","pcode":"CO52678","area_m2":72008}},{"type":"Polygon","arcs":[[19,-18,-1,-9]],"properties":{"codigo":"52678100000000000105","sector":"526781000000000001","pcode":"CO52678","area_m2":521493}},{"type":"Polygon","arcs":[[20,-14]],"properties":{"codigo":"52678100000000000106","sector":"526781000000000001","pcode":"CO52678","area_m2":393089}},{"type":"Polygon","arcs":[[21]],"properties":{"codigo":"52678200502017000101","sector":"526782005020170001","pcode":"CO52678","area_m2":202408}},{"type":"Polygon","arcs":[[22]],"properties":{"codigo":"52678200406024000101","sector":"526782004060240001","pcode":"CO52678","area_m2":59368}},{"type":"Polygon","arcs":[[23]],"properties":{"codigo":"52678200501025000101","sector":"526782005010250001","pcode":"CO52678","area_m2":27127}},{"type":"Polygon","arcs":[[24]],"properties":{"codigo":"52678200309029000101","sector":"526782003090290001","pcode":"CO52678","area_m2":41528}},{"type":"MultiPolygon","arcs":[[[25]],[[26]]],"properties":{"codigo":"52678200406030000101","sector":"526782004060300001","pcode":"CO52678","area_m2":5984}}]}},"arcs":[[[5465,4203],[-13,-45],[-61,-22]],[[5391,4136],[-107,-40]],[[5284,4096],[-235,120],[-159,102]],[[4890,4318],[199,82],[339,-184],[37,-13]],[[1178,9901],[77,-14],[-137,-20],[-63,-29],[-54,22],[66,31],[111,10]],[[1473,9945],[-59,-77],[-50,29],[56,47],[53,1]],[[1124,9999],[23,-46],[-58,-20],[-30,59],[65,7]],[[5688,2288],[117,-9],[29,-66],[-108,-27],[-63,-40],[-62,-88],[-34,-186],[-34,-52],[-92,-32],[-64,-98],[34,-74],[-46,-71],[-75,-35],[-108,-11],[-67,21],[-20,153],[12,47],[88,71],[-94,51],[40,44],[-55,42],[75,7],[103,89],[92,54],[141,117],[153,62],[38,31]],[[6271,4292],[-36,-60],[-7,61],[-144,84],[-70,9],[-180,55],[-54,-33],[-1,-68],[41,-42],[-216,-4],[-66,36],[-86,-33],[13,-94]],[[4890,4318],[-31,-63],[-69,-2],[-78,62],[42,70],[-44,11],[55,117],[-11,111]],[[4754,4624],[162,90],[-32,45],[26,70],[210,122],[263,35],[141,51],[379,-61],[440,100],[285,37],[108,-26],[-37,-59],[48,-100],[-38,-62],[-67,10],[-148,-116],[-107,-17],[-30,-52],[-183,-166],[-15,-46],[109,-140],[-63,-7],[66,-40]],[[5284,4096],[-78,-31],[-36,-88],[-102,-35],[105,-58],[-141,-67],[-211,-78],[-9,-35]],[[4812,3704],[-214,2],[-77,-57],[-247,-54],[-86,-31],[-29,-45],[-252,8],[-43,-47]],[[3864,3480],[-48,-18],[-60,37],[-126,32],[-230,21],[-241,36],[66,109],[-58,39],[66,66],[-32,82],[-83,36]],[[3118,3920],[85,17],[123,70],[-29,82],[-137,85],[291,47],[78,-22],[65,-66],[6,-98],[108,-23],[38,35],[100,-11],[47,62],[207,65],[301,77],[111,56],[43,177],[71,109],[74,4],[54,38]],[[7573,8328],[72,10],[40,-73],[124,-21],[69,-100],[144,-146],[-200,-121],[57,-52],[-172,-39],[-123,56],[251,152],[-96,103],[-66,102],[-105,5],[-87,46],[-93,-36],[-71,34],[-55,-21],[-66,31],[151,59],[71,4],[-72,49],[144,58],[91,-42],[-62,-25],[54,-33]],[[5832,3743],[-319,-1],[-163,-33],[-64,-62],[-182,-37],[32,44],[-186,-55],[-138,105]],[[5391,4136],[350,-183],[91,-82],[40,-71],[-40,-57]],[[8620,2306],[215,-136],[45,-47],[-77,-31],[-84,22],[-50,-54],[-66,-20],[25,-61],[-102,15],[15,60],[-314,44],[-61,24],[-133,-2],[-6,50],[86,90],[234,-19],[31,52],[242,13]],[[6271,4292],[188,18],[84,-91],[-74,-13],[52,-55],[140,24],[131,-87],[-214,-31],[-40,-27],[-72,11],[-7,-53],[-103,-5],[56,-112],[134,-4],[-8,-31],[108,-12],[131,-121],[48,-6],[3,-118],[106,-164],[-45,-9],[93,-39],[194,9],[78,-24],[-78,-25],[22,-83],[187,-2],[160,-38],[-27,-16],[-327,-18],[-257,60],[-157,-31],[-33,-41],[-138,63],[-172,52],[-62,51],[-170,71],[2,65],[-73,-51],[4,62],[-121,26],[-219,-17],[-2,62],[58,98],[-35,21],[16,82]],[[3864,3480],[36,-88],[-31,-50],[-143,-60],[-21,-84],[-210,-126],[-59,-15],[-181,7],[-146,-76],[36,-60],[-22,-37],[-136,-57],[-118,-27],[-60,-53],[-138,11],[-95,-94],[-280,-78],[-167,64],[161,109],[-28,50],[64,76],[207,29],[68,101],[156,105],[-120,122],[154,53],[110,91],[43,97],[-63,11],[59,50],[-92,31],[57,73],[125,116],[-16,121],[104,28]],[[1936,2101],[-38,-81],[-117,-82],[42,-89],[75,-89],[-63,-89],[-183,-69],[-76,-88],[102,-67],[0,-43],[-104,-77],[-24,-57],[-11,-127],[-97,-51],[-203,-41],[-113,-78],[-120,8],[110,98],[-115,51],[70,107],[-18,28],[106,111],[105,191],[176,108],[64,130],[188,261],[84,40],[73,-21],[119,59],[-32,-43]],[[9542,6596],[-88,-15],[-18,-48],[86,32],[177,-66],[295,-211],[5,-20],[-176,5],[-169,43],[68,21],[-116,68],[-88,29],[-282,121],[0,37],[129,14],[107,112],[152,32],[66,-46],[3,-78],[-129,-6],[-22,-24]],[[7362,2733],[95,20],[83,-30],[-37,-44],[130,42],[70,-35],[-134,-43],[229,-118],[-116,-35],[-9,45],[-181,108],[-185,78],[-49,-16],[-218,127],[93,32],[229,-131]],[[359,292],[81,-5],[-3,-67],[56,-33],[39,-75],[-45,-46],[-118,-17],[-92,-34],[-149,-15],[-128,66],[133,18],[67,41],[28,129],[-25,46],[137,11],[19,-19]],[[5284,5244],[-39,-16],[-61,64],[102,31],[86,-43],[-88,-36]],[[5417,5197],[-24,85],[28,2],[-4,-87]]]}
