{"type":"Topology","bbox":[-77.29356684841554,1.3520670142856852,-77.27450050274427,1.4237047355691337],"transform":{"scale":[0.0000019068252496512403,0.000007164488577202568],"translate":[-77.29356684841554,1.3520670142856852]},"objects":{"municipios":{"type":"GeometryCollection","geometries":[{"type":"MultiPolygon","arcs":[[[0,1]],[[2]],[[3]]],"properties":{"codigo":"52240200104004000101","sector":"522402001040040001","pcode":"CO52240","area_m2":176694}},{"type":"Polygon","arcs":[[4]],"properties":{"codigo":"52240200104006000101","sector":"522402001040060001","pcode":"CO52240","area_m2":254735}},{"type":"Polygon","arcs":[[5,6]],"properties":{"codigo":"52240200105005000101","sector":"522402001050050001","pcode":"CO52240","area_m2":128600}},{"type":"Polygon","arcs":[[7,8,9,10]],"properties":{"codigo":"52240100000000000101","sector":"522401000000000001","pcode":"CO52240","area_m2":378924}},{"type":"MultiPolygon","arcs":[[[11]],[[12,13,-1,14]]],"properties":{"codigo":"52240200104001000101","sector":"522402001040010001","pcode":"CO52240","area_m2":275255}},{"type":"Polygon","arcs":[[15]],"properties":{"codigo":"52240200104002000101","sector":"522402001040020001","pcode":"CO52240","area_m2":80979}},{"type":"Polygon","arcs":[[16,17,18,19]],"properties":{"codigo":"52240200105003000101","sector":"522402001050030001","pcode":"CO52240","area_m2":163699}},{"type":"Polygon","arcs":[[-8,20]],"properties":{"codigo":"52240100000000000102","sector":"522401000000000001","pcode":"CO52240","area_m2":461293}},{"type":"Polygon","arcs":[[-10,21,22,23]],"properties":{"codigo":"52240100000000000104","sector":"522401000000000001","pcode":"CO52240","area_m2":125758}},{"type":"Polygon","arcs":[[-23,24,-6,25]],"properties":{"codigo":"52240200105008000101","sector":"522402001050080001","pcode":"CO52240","area_m2":120896}},{"type":"Polygon","arcs":[[26]],"properties":{"codigo":"52240200105011000101","sector":"522402001050110001","pcode":"CO52240","area_m2":332443}},{"type":"Polygon","arcs":[[-18,27]],"properties":{"codigo":"52240200105012000101","sector":"522402001050120001","pcode":"CO52240","area_m2":339672}},{"type":"Polygon","arcs":[[-13,28,-20,29]],"properties":{"codigo":"52240200104013000101","sector":"522402001040130001","pcode":"CO52240","area_m2":616664}}]}},"arcs":[[[4202,8703],[-24,-77]],[[4178,8626],[-1637,-16],[-504,-9],[-96,87],[608,6],[-49,202],[1176,15],[15,-101],[537,-1],[-26,-106]],[[3111,9986],[1457,-140],[-43,-133],[344,-26],[-21,-56],[-853,90],[-762,44],[99,51],[-547,37],[207,146],[119,-13]],[[3008,9353],[1400,-33],[-73,-200],[-566,29],[-873,56],[112,148]],[[6992,6867],[75,-43],[237,-19],[-34,-37],[-238,20],[-76,-80],[312,-16],[-31,-49],[-101,5],[-186,-211],[-14,-89],[-205,-58],[-42,-79],[-116,-54],[86,-41],[-207,-125],[5,-51],[153,-11],[130,-47],[-175,-16],[-99,-78],[-162,-23],[266,-88],[-268,-46],[103,-34],[-121,-38],[-165,42],[-355,-71],[-160,-66],[-328,62],[201,147],[-541,91],[205,93],[-15,66],[-240,46],[58,26],[283,-47],[10,110],[-162,3],[-39,56],[182,134],[863,-66],[80,58],[-229,103],[129,108],[-238,18],[181,104],[189,141],[252,-11],[43,48],[-261,7],[99,109],[266,-5],[43,21],[357,-19]],[[5626,2932],[-256,-59],[69,-56],[152,-37],[21,-79],[-70,-58],[-135,-2]],[[5407,2641],[-460,153],[-175,-32],[-158,77],[-104,93],[-260,95],[-218,-11],[-300,12],[-5,35],[527,0],[125,85],[380,46],[51,53],[-254,24],[61,54],[-110,54],[-60,88],[292,24],[-32,85],[121,66],[317,-58],[142,-5],[-18,-66],[-84,-16],[266,-32],[-146,-253],[-7,-120],[79,-22],[-170,-17],[11,-39],[313,-5],[95,-77]],[[6784,1204],[-410,-25],[2,84],[-127,1],[-214,59],[-440,-155],[-896,-278],[315,-13]],[[5014,877],[-73,-28],[-356,-7],[-174,14],[-112,57],[-292,35],[-191,50],[28,24],[-203,7],[63,50],[-151,88],[266,88],[160,93],[-259,171],[-230,-27],[-35,87],[160,41],[30,41],[-259,47],[18,63],[-405,-13],[60,67],[369,37],[-24,29],[-192,-13],[-7,40],[357,11],[78,84]],[[3640,2013],[111,-77],[153,-59],[178,-153],[6,-59],[-169,-17],[145,-87],[149,-122],[397,58],[187,-75],[331,-47],[227,109],[19,59],[-76,69],[-580,222],[-45,76],[178,41],[444,15],[153,35],[60,63],[240,22],[48,-20],[-185,-179],[438,22],[29,78],[-223,-11],[39,76],[240,77]],[[6134,2129],[218,-45],[-65,-96],[92,-141],[111,-34],[-126,-79],[29,-60],[-72,-69],[281,-127],[333,-16],[106,-96],[-93,-134],[-164,-28]],[[6742,8990],[170,12],[-407,-186],[-229,27],[-62,-33],[-340,35],[-321,49],[233,128],[-369,49],[-433,42],[367,196],[-916,99],[36,196],[294,-24],[853,-93],[545,-22],[363,-43],[-373,-201],[847,-99],[-258,-132]],[[4033,8218],[71,170]],[[4104,8388],[74,238]],[[4202,8703],[866,-83],[212,124],[957,-133],[-382,-213],[-482,73],[-162,-72],[584,-82],[-127,-54],[-215,30],[-121,-59],[-846,107],[-453,-123]],[[5084,4111],[186,-120],[13,-40],[-226,-10],[-554,12],[-59,-38],[-206,19],[139,59],[-17,84],[-130,44],[-2,61],[-243,64],[-4,121],[-44,36],[12,183],[173,143],[126,2],[74,-248],[77,-73],[249,-61],[183,-65],[253,-173]],[[4762,6398],[-121,-21],[-254,50],[-41,-62],[-248,15],[-95,-67],[26,-69],[-355,3],[72,-58],[6,-83],[-144,-2],[-22,-83],[-246,12],[-221,-256]],[[3119,5777],[-164,126]],[[2955,5903],[31,70],[-101,58],[105,102],[-140,-11],[-73,66],[-350,-54],[-311,-3],[-118,20],[29,106],[303,286]],[[2330,6543],[1214,-45],[31,99],[422,-9],[248,-43],[181,-10],[376,-83],[-40,-54]],[[6784,1204],[443,-38],[75,116],[409,4],[271,43],[347,-31],[20,-67],[-359,-48],[519,-38],[192,-40],[353,26],[129,-46],[-91,-43],[349,-69],[68,-48],[-254,-11],[-308,-66],[130,51],[-9,38],[-315,18],[-292,-47],[158,-26],[-176,-45],[-223,8],[-244,-18],[-10,-23],[570,-69],[263,25],[193,59],[-65,-105],[-164,-48],[-30,-49],[-235,-25],[-180,-54],[-663,-60],[-303,-15],[200,-55],[79,-49],[270,-61],[565,-27],[131,12],[227,-18],[-66,-43],[256,-35],[288,47],[117,-62],[279,22],[301,-22],[-395,-81],[189,-27],[25,-33],[-369,-30],[-210,89],[-350,-27],[-74,-23],[-256,9],[-360,57],[-323,37],[-173,41],[-15,40],[-450,-9],[-137,81],[307,37],[-120,89],[-211,-39],[-350,106],[-11,46],[-107,22],[26,52],[-462,27],[-27,94],[-215,56],[-348,-34],[-79,30],[40,51],[-75,32],[-406,31],[-49,-19]],[[3640,2013],[-72,110],[181,53],[157,-26],[-13,-110],[177,1],[-10,-91],[468,-37],[120,9],[-143,78],[103,24],[-206,36],[144,35],[85,59],[397,-77],[-38,-66],[95,-50],[221,10],[173,53],[18,41]],[[5497,2065],[286,9],[260,63],[113,140],[59,0]],[[6215,2277],[12,-46],[-93,-102]],[[5497,2065],[-223,134],[102,123],[-316,97],[-38,55],[352,118],[33,49]],[[5626,2932],[80,15],[232,-27],[158,-59],[53,-51],[162,-32],[-253,-49],[-15,-61],[108,-105],[195,-50],[-12,-77],[142,4],[42,-67],[229,4],[47,-36],[-514,-14],[-65,-50]],[[3032,4973],[372,-11],[-124,-112],[-205,-147],[273,-3],[16,-157],[85,-114],[110,-44],[-45,-154],[124,-86],[37,-173],[-121,-6],[47,-177],[-302,29],[-395,0],[-96,20],[-473,20],[-209,-38],[-211,-12],[14,-21],[-319,-30],[-95,59],[-257,-32],[-380,9],[-73,45],[-155,-28],[-214,11],[-250,-27],[-34,49],[-98,1],[14,97],[-68,138],[72,14],[-54,91],[454,19],[399,-21],[86,-149],[234,-3],[4,-27],[440,-2],[-92,165],[86,5],[591,-32],[194,23],[81,47],[-111,91],[-71,139],[-155,2],[23,116],[185,0],[69,98],[93,215],[166,99],[338,4]],[[3119,5777],[-165,-241],[15,-63],[87,-45],[312,-94],[-413,-53],[-340,-8],[-116,-21],[-296,-204],[-253,-82],[-426,21],[-121,-90],[469,-7],[-195,-244],[-277,-161],[-438,18],[-176,-141],[-362,66],[217,176],[-352,33],[283,136],[185,188],[215,-8],[212,196],[19,70],[-188,7],[306,328],[364,360],[141,32],[344,2],[281,-28],[504,-17]],[[4033,8218],[-32,-236],[2347,-69],[-52,-86],[-343,11],[-170,-309],[289,-1],[3,-43],[-131,0],[-170,-72],[-147,6],[-106,-114],[-375,10],[-15,65],[-181,76],[44,66],[243,17],[60,160],[-519,40],[-92,71],[-244,1],[-337,-101],[-216,-19],[-23,-121],[203,-6],[-30,-51],[77,-37],[137,-2],[29,-106],[-91,-35],[9,-67],[238,48],[413,-62],[416,-8],[-37,-71],[-179,-4],[-568,29],[-341,-3],[-80,-105],[249,-16],[36,-66],[-239,-10],[184,-30],[279,11],[-6,-36],[-141,-12],[21,-40],[-504,-20],[-190,-60],[325,-43],[64,58],[771,20],[72,-85],[98,-14],[-21,-52],[-365,1],[-91,-63],[435,-15],[-70,-48],[233,-5],[-133,-108],[-146,-68],[-161,9]],[[2330,6543],[77,67],[356,381],[141,-21],[38,54],[219,-13],[-24,44],[132,30],[8,39],[-337,8],[-2,56],[276,-7],[-35,91],[244,-5],[24,49],[-341,20],[90,100],[145,101],[26,89],[267,233],[-254,53],[-735,52],[-390,13],[-480,106],[-230,99],[80,10],[-129,58],[70,16],[-105,129],[191,25],[360,-3],[52,32],[1196,-55],[844,-6]]]}
