{"type":"Topology","bbox":[-77.09985520429206,1.3929204927882897,-77.01404633430701,1.479979495248685],"transform":{"scale":[0.000008581745173021713,0.000008706770923131857],"translate":[-77.09985520429206,1.3929204927882897]},"objects":{"municipios":{"type":"GeometryCollection","geometries":[{"type":"Polygon","arcs":[[0]],"properties":{"codigo":"52258200103001000101","sector":"522582001030010001","pcode":"CO52258","area_m2":108829}},{"type":"Polygon","arcs":[[1]],"properties":{"codigo":"52258200102005000101","sector":"522582001020050001","pcode":"CO52258","area_m2":23028}},{"type":"Polygon","arcs":[[2]],"properties":{"codigo":"52258200101015000101","sector":"522582001010150001","pcode":"CO52258","area_m2":143112}},{"type":"Polygon","arcs":[[3]],"properties":{"codigo":"52258100000000000101","sector":"522581000000000001","pcode":"CO52258","area_m2":219856}},{"type":"Polygon","arcs":[[4]],"properties":{"codigo":"52258200102002000101","sector":"522582001020020001","pcode":"CO52258","area_m2":35599}},{"type":"Polygon","arcs":[[5]],"properties":{"codigo":"52258200201003000101","sector":"522582002010030001","pcode":"CO52258","area_m2":400597}}]}},"arcs":[[[8838,497],[42,-6],[-3,-36],[-92,-59],[-56,-126],[98,76],[148,65],[33,-21],[-108,-34],[-21,-38],[-46,14],[-72,-68],[17,-53],[-57,-23],[10,47],[-98,-20],[-27,-36],[-33,-106],[87,42],[-7,-68],[-102,-31],[-42,111],[-23,-17],[-37,68],[-68,75],[-89,13],[50,60],[6,-27],[96,-26],[-71,58],[-46,155],[-113,26],[10,22],[114,-21],[29,-61],[43,15],[61,-78],[-5,64],[27,2],[-19,68],[57,-3],[26,-90],[4,-84],[29,-24],[135,12],[34,19],[0,61],[103,47],[-76,35],[-51,56],[51,31],[6,-75],[46,-11]],[[3378,3755],[-55,-57],[-33,-70],[-179,-61],[72,-76],[-56,5],[22,-71],[-59,84],[-36,79],[21,12],[-109,74],[12,16],[71,-48],[16,14],[101,-52],[102,36],[44,86],[-31,17],[80,29],[9,49],[38,-35],[-30,-31]],[[9002,9032],[11,-101],[-106,-316],[20,-19],[-28,-68],[-27,17],[-79,-185],[-84,-166],[-88,66],[-93,109],[110,83],[70,23],[-43,76],[104,220],[-17,25],[22,74],[87,109],[74,41],[67,12]],[[173,4274],[95,-44],[39,55],[80,-71],[35,16],[43,-38],[51,-4],[47,-82],[83,21],[-10,-61],[-131,-20],[-46,-34],[33,-20],[-52,-72],[112,-49],[-50,-33],[-40,-58],[59,12],[9,-59],[56,-52],[-57,-40],[-58,22],[-16,-25],[-63,4],[-84,-26],[-177,136],[20,28],[-47,33],[-12,-24],[-92,62],[53,27],[26,83],[50,-10],[-8,69],[43,87],[-26,42],[22,83],[-25,10],[15,56],[23,-24]],[[3332,2871],[22,-1],[66,-83],[83,-28],[-32,-74],[-105,-52],[-43,4],[-85,68],[-21,58],[106,44],[-34,56],[43,8]],[[9806,9877],[-33,-22],[13,-144],[111,-8],[99,-61],[-272,-204],[-35,-17],[-198,187],[-62,-29],[-80,-100],[-32,-98],[-96,-171],[-52,-52],[-164,-113],[-63,-16],[19,83],[-41,18],[-72,78],[-11,93],[80,4],[42,40],[81,172],[93,47],[-65,77],[61,163],[40,35],[-45,36],[23,28],[85,-18],[125,53],[40,-65],[76,-32],[79,64],[81,-31],[203,125],[2,-54],[-55,-32],[23,-36]]]}
