{"type":"Topology","bbox":[-77.02527196592769,1.6456589253801712,-76.96230115968058,1.6747020179538432],"transform":{"scale":[0.000006297710395750391,0.000002904599717338933],"translate":[-77.02527196592769,1.6456589253801712]},"objects":{"municipios":{"type":"GeometryCollection","geometries":[{"type":"MultiPolygon","arcs":[[[0]],[[1]],[[2]]],"properties":{"codigo":"52693200105002000101","sector":"526932001050020001","pcode":"CO52693","area_m2":126865}},{"type":"Polygon","arcs":[[3,4,5,6]],"properties":{"codigo":"52693100000000000104","sector":"526931000000000001","pcode":"CO52693","area_m2":36878}},{"type":"Polygon","arcs":[[7,-7,8,9]],"properties":{"codigo":"52693100000000000101","sector":"526931000000000001","pcode":"CO52693","area_m2":167456}},{"type":"Polygon","arcs":[[-9,-6,10,11,12]],"properties":{"codigo":"52693100000000000102","sector":"526931000000000001","pcode":"CO52693","area_m2":58115}},{"type":"Polygon","arcs":[[-11,-5,13]],"properties":{"codigo":"52693100000000000103","sector":"526931000000000001","pcode":"CO52693","area_m2":50306}},{"type":"Polygon","arcs":[[-12,-14,-4,-8,14,15,16,17]],"properties":{"codigo":"52693100000000000105","sector":"526931000000000001","pcode":"CO52693","area_m2":244024}},{"type":"Polygon","arcs":[[-17,18,19]],"properties":{"codigo":"52693100000000000106","sector":"526931000000000001","pcode":"CO52693","area_m2":79755}},{"type":"Polygon","arcs":[[-16,20,-19]],"properties":{"codigo":"52693100000000000107","sector":"526931000000000001","pcode":"CO52693","area_m2":224984}},{"type":"Polygon","arcs":[[21]],"properties":{"codigo":"52693200103004000101","sector":"526932001030040001","pcode":"CO52693","area_m2":95539}},{"type":"Polygon","arcs":[[22]],"properties":{"codigo":"52693200104017000101","sector":"526932001040170001","pcode":"CO52693","area_m2":81765}}]}},"arcs":[[[9457,1970],[55,-158],[87,-407],[29,26],[27,-97],[-39,-44],[36,-149],[22,-159],[58,-5],[18,-96],[56,53],[11,-127],[60,-187],[7,-284],[88,104],[27,-274],[-50,-35],[-103,-21],[-116,-104],[-53,283],[-44,73],[-33,-24],[-117,683],[-24,-11],[22,-126],[-57,-51],[-31,71],[-31,186],[108,101],[-47,-4],[-17,70],[-50,-37],[-8,77],[71,58],[-55,245],[0,94],[55,183],[33,-32],[5,125]],[[9155,1180],[-17,-7],[12,-162],[-112,-33],[-23,53],[24,115],[10,183],[105,-33],[1,-116]],[[9168,2188],[50,-176],[82,-154],[-25,-75],[-50,11],[-107,324],[-114,-57],[-38,127],[163,153],[39,-153]],[[2035,7248],[-47,-77],[-89,92],[-113,-4],[-117,140],[103,8],[43,307]],[[1815,7714],[224,-158],[39,270]],[[2078,7826],[116,-78]],[[2194,7748],[-54,-361],[-46,-37],[-59,-102]],[[2193,7204],[-40,70],[-58,16],[-60,-42]],[[2194,7748],[109,-74],[181,919],[-112,98],[-2,59]],[[2370,8750],[59,266],[56,33],[44,102],[118,-33],[17,-107],[-41,-181],[-8,-267],[15,-140],[17,118],[31,3],[25,-236],[83,-193],[32,-39],[123,29],[-46,-214],[-21,-357],[-106,22],[-71,-58],[-94,-40],[-72,-101],[-51,-246],[-91,-23],[-91,149],[-66,16],[-39,-49]],[[2078,7826],[102,707],[18,96]],[[2198,8629],[23,149]],[[2221,8778],[39,-77],[110,49]],[[1815,7714],[74,475],[1,136],[111,97],[17,103],[46,-8],[33,177],[101,-65]],[[2193,7204],[-6,-217],[-43,-93],[-171,-59],[-75,-6],[-214,66],[-118,50],[-111,85],[-145,73],[-46,236],[-17,260],[-27,97],[-62,40],[-105,-66]],[[1053,7670],[35,135],[52,95],[52,46],[32,104],[49,-10],[9,142],[42,42],[10,129],[113,54],[43,-37],[57,97]],[[1547,8467],[29,-60],[58,-34],[81,104],[96,47],[114,147],[76,-53],[90,80],[-2,57],[-47,-5],[0,83],[-49,1],[18,249]],[[2011,9083],[210,-305]],[[1547,8467],[7,83],[34,32],[16,138],[-21,103],[-2,296],[18,139],[-1,134],[100,155]],[[1698,9547],[91,-152],[42,-145],[98,-44],[82,-123]],[[1053,7670],[-108,29],[-41,54],[-132,497],[-42,88],[-29,208],[-46,188],[39,21],[45,-59],[31,55],[114,97],[40,-51],[44,60],[41,134],[184,-83],[26,128],[55,12],[36,106],[-4,195],[42,151],[17,274],[-48,180],[85,45],[39,-40],[45,-118],[78,-97],[134,-197]],[[715,6201],[9,-83],[125,-3],[-2,92],[28,-87],[88,35],[66,71],[5,-123],[91,19],[27,84],[63,67],[93,-67],[84,128],[68,-91],[43,-22],[105,24],[6,-95],[-51,-22],[-134,38],[-10,77],[-129,-122],[3,-93],[-144,5],[-2,-275],[-45,6],[-6,89],[-150,7],[19,52],[-139,-82],[-7,45],[-120,6],[-117,-57],[19,-82],[-84,-46],[-90,-112],[-95,-91],[-27,-94],[-63,-68],[-90,-10],[-7,61],[-57,18],[-42,-85],[-46,41],[53,172],[129,46],[36,-8],[163,222],[-6,67],[116,132],[-53,225],[61,54],[50,-70],[75,31],[21,51],[15,161],[50,95],[8,-108],[33,-117],[-36,-108]],[[6220,8396],[102,-149],[48,44],[57,-125],[16,137],[73,-149],[-19,-63],[87,-119],[34,23],[152,-120],[-104,-363],[-71,100],[-50,-33],[-61,29],[4,-104],[-40,62],[-19,-31],[-75,92],[-34,-102],[-61,76],[-66,131],[-44,7],[-40,103],[12,65],[-66,47],[9,99],[-36,92],[62,-21],[48,204],[66,-84],[26,73],[-10,79]]]}
