{"type":"Topology","bbox":[-77.52294832929493,0.8027899282178752,-77.3034540439935,0.9175801037010112],"transform":{"scale":[0.00002195162369251293,0.000011480165564870084],"translate":[-77.52294832929493,0.8027899282178752]},"objects":{"municipios":{"type":"GeometryCollection","geometries":[{"type":"Polygon","arcs":[[0]],"properties":{"codigo":"52573200209014000101","sector":"525732002090140001","pcode":"CO52573","area_m2":19424}},{"type":"Polygon","arcs":[[1,2,3,4]],"properties":{"codigo":"52573100000000000104","sector":"525731000000000001","pcode":"CO52573","area_m2":88363}},{"type":"Polygon","arcs":[[5]],"properties":{"codigo":"52573200210002000101","sector":"525732002100020001","pcode":"CO52573","area_m2":106078}},{"type":"Polygon","arcs":[[6]],"properties":{"codigo":"52573200101003000101","sector":"525732001010030001","pcode":"CO52573","area_m2":144828}},{"type":"Polygon","arcs":[[7,8,9]],"properties":{"codigo":"52573100000000000101","sector":"525731000000000001","pcode":"CO52573","area_m2":337433}},{"type":"Polygon","arcs":[[10,11,-8]],"properties":{"codigo":"52573100000000000102","sector":"525731000000000001","pcode":"CO52573","area_m2":94888}},{"type":"Polygon","arcs":[[12,-5,13,14,-9,-12]],"properties":{"codigo":"52573100000000000103","sector":"525731000000000001","pcode":"CO52573","area_m2":134329}},{"type":"Polygon","arcs":[[-14,-4,15,16]],"properties":{"codigo":"52573100000000000105","sector":"525731000000000001","pcode":"CO52573","area_m2":105145}},{"type":"Polygon","arcs":[[-3,17,-16]],"properties":{"codigo":"52573100000000000106","sector":"525731000000000001","pcode":"CO52573","area_m2":266672}},{"type":"Polygon","arcs":[[18]],"properties":{"codigo":"52573200102005000101","sector":"525732001020050001","pcode":"CO52573","area_m2":239280}},{"type":"Polygon","arcs":[[19]],"properties":{"codigo":"52573200102006000101","sector":"525732001020060001","pcode":"CO52573","area_m2":156641}},{"type":"Polygon","arcs":[[20]],"properties":{"codigo":"52573200101010000101","sector":"525732001010100001","pcode":"CO52573","area_m2":42724}},{"type":"Polygon","arcs":[[21]],"properties":{"codigo":"52573200102013000101","sector":"525732001020130001","pcode":"CO52573","area_m2":241568}}]}},"arcs":[[[9079,93],[27,-51],[1,-42],[-52,30],[-21,56],[-42,25],[-1,38],[88,-56]],[[1030,7025],[9,-6],[-1,-78],[-41,-13],[2,-110],[10,-5],[12,-95],[-15,-10]],[[1006,6708],[-23,25],[-26,188],[-89,-16]],[[868,6905],[-10,148]],[[858,7053],[91,9],[4,-44],[77,7]],[[9992,426],[-19,-1],[-4,-136],[-15,-85],[-13,6],[-6,-45],[-14,-2],[-6,-60],[-43,16],[-7,31],[-60,-18],[31,94],[-8,119],[22,31],[41,23],[47,-20],[7,37],[22,-12],[5,34],[20,-12]],[[1851,9807],[45,22],[30,-34],[33,-10],[8,17],[49,-42],[-1,-55],[30,-58],[-12,-70],[-63,18],[-6,45],[-51,33],[-19,-26],[0,-36],[17,-9],[0,-40],[13,-10],[-20,-99],[-37,93],[-24,41],[-17,-67],[-4,33],[11,93],[-38,9],[3,25],[41,16],[-18,105],[-25,6],[-6,44],[62,-6],[-1,-38]],[[965,7472],[-42,-30],[-32,34],[-9,-46],[26,-2],[1,-38],[-67,-11],[3,-67]],[[845,7312],[-73,-13]],[[772,7299],[-19,131],[47,10],[5,76],[-56,-19],[-35,5],[-9,116],[-44,-34],[-34,57],[-11,80],[-18,2],[-21,-40],[-19,45],[-33,4],[10,25],[117,50],[40,-29],[6,-44],[84,45],[-5,23],[50,23],[31,30],[2,-28],[33,-97],[15,35],[3,-37],[17,-25],[-3,-50],[18,17],[5,-100],[-13,-76],[33,24],[-3,-46]],[[965,7472],[12,-28],[-19,-11],[5,-70],[44,13],[9,-98],[-26,0]],[[990,7278],[-78,-25],[2,-89],[-61,-8],[-8,156]],[[990,7278],[3,-104],[9,1],[3,-67],[21,9],[4,-92]],[[858,7053],[-54,-5],[-6,60],[29,4],[-3,68],[-29,27],[-38,-14],[-13,60],[37,10]],[[781,7263],[-9,36]],[[868,6905],[-46,-9],[-12,95],[-64,-21],[-16,-59]],[[730,6911],[-36,-52],[-18,121],[25,19],[20,45],[-9,81],[35,27],[-13,107],[47,4]],[[1006,6708],[-28,-80],[10,-89],[-13,-110],[-66,-1],[-2,28],[-45,-28],[-7,90],[-12,-7],[-11,75],[-16,-7],[-7,77],[-8,-3],[-13,131],[24,30],[-14,73],[-45,-29],[-23,53]],[[718,9564],[27,-34],[-23,-42],[-20,-107],[-19,-41],[46,-28],[-23,-41],[22,-9],[-10,-24],[-12,-96],[10,-15],[-16,-44],[-22,8],[-35,-86],[-88,11],[-14,31],[-52,-23],[16,84],[17,3],[4,98],[23,0],[7,66],[-27,12],[13,22],[2,63],[10,42],[52,-30],[36,58],[19,59],[0,38],[19,-10],[16,34],[22,1]],[[430,7997],[4,-72],[12,-39],[-41,-39],[-23,17],[-4,-29],[-41,-26],[-11,12],[6,71],[-25,1],[-4,-37],[-28,9],[-90,-3],[-63,-13],[2,-21],[-91,-41],[-1,60],[-32,0],[5,72],[32,7],[3,-26],[23,-5],[-6,46],[29,-6],[0,35],[128,13],[67,-11],[26,-18],[65,-7],[6,37],[39,-2],[13,15]],[[1645,9984],[46,-45],[-41,-85],[-8,-57],[-20,23],[11,39],[-62,35],[-18,25],[32,79],[13,-17],[36,18],[11,-15]],[[692,8880],[-4,-116],[-23,0],[6,-98],[36,1],[-9,-162],[8,-3],[-12,-152],[2,-63],[27,-101],[16,9],[37,-212],[-35,-41],[-16,-42],[-19,-11],[-24,64],[4,22],[-18,91],[-14,126],[-18,80],[-17,-1],[6,56],[44,16],[7,36],[2,99],[-32,-8],[-66,-55],[-3,96],[14,95],[2,121],[12,98],[12,39],[23,-12],[52,28]]]}
