{"type":"Topology","bbox":[-77.64311979760947,1.4470118029033625,-77.57606583432505,1.5330125980989946],"transform":{"scale":[0.000006706066935135762,0.00000860093961352456],"translate":[-77.64311979760947,1.4470118029033625]},"objects":{"municipios":{"type":"GeometryCollection","geometries":[{"type":"Polygon","arcs":[[0]],"properties":{"codigo":"52385200112015000101","sector":"523852001120150001","pcode":"CO52385","area_m2":25125}},{"type":"Polygon","arcs":[[1,2,3,4,5]],"properties":{"codigo":"52385100000000000101","sector":"523851000000000001","pcode":"CO52385","area_m2":159390}},{"type":"Polygon","arcs":[[6,7,-2]],"properties":{"codigo":"52385100000000000102","sector":"523851000000000001","pcode":"CO52385","area_m2":136931}},{"type":"Polygon","arcs":[[8,-3,-8]],"properties":{"codigo":"52385100000000000103","sector":"523851000000000001","pcode":"CO52385","area_m2":74321}},{"type":"Polygon","arcs":[[-5,9]],"properties":{"codigo":"52385100000000000104","sector":"523851000000000001","pcode":"CO52385","area_m2":59863}},{"type":"Polygon","arcs":[[10]],"properties":{"codigo":"52385200110001000101","sector":"523852001100010001","pcode":"CO52385","area_m2":50054}}]}},"arcs":[[[8197,256],[32,-55],[-31,-64],[77,-40],[-31,-41],[53,-30],[-29,-26],[-118,62],[-45,-1],[-87,43],[-33,-4],[-22,42],[39,23],[75,-10],[23,61],[60,9],[37,31]],[[9600,3104],[-65,-22],[-33,52],[-195,-64],[25,-48],[-125,-36]],[[9207,2986],[-42,45],[-24,-30],[-106,-75],[-84,-74]],[[8951,2852],[-52,4],[27,50],[2,97],[-53,-17],[-9,44],[-70,108]],[[8796,3138],[6,17],[189,95],[-16,41]],[[8975,3291],[79,-43],[7,-44],[78,35],[23,-42],[61,54],[115,54],[-41,42],[-26,68],[23,56],[39,0],[38,60],[56,-48],[150,5],[27,97],[78,-29],[40,54],[111,29],[-24,-87],[12,-39],[-56,-4],[8,65],[-38,13],[-120,-138],[-111,-44],[-80,-2],[-58,-72],[75,-42],[60,-73],[38,-10],[8,-43],[53,-59]],[[9600,3104],[43,-35],[-16,-178],[103,-48],[43,-82],[38,-25],[-82,-46],[49,-32],[-29,-36],[3,-75],[34,14],[87,-91],[-20,-48],[123,-20],[5,-69],[-91,-44],[-50,25],[-18,83],[-115,120],[-54,17],[-62,-49],[-40,45],[47,26],[12,181],[-44,29],[-85,-40],[-107,26]],[[9374,2752],[33,62],[-59,22],[10,64],[-49,28],[-64,-6],[-38,64]],[[9374,2752],[-35,-49],[-5,-67],[-30,-3],[-5,-120],[-92,-37],[-63,61],[48,120],[-16,31],[42,68],[-48,10],[50,63],[-69,-22],[-116,-2],[-54,-48],[-30,95]],[[8796,3138],[-41,-14],[-57,24],[-53,83],[-26,-10],[-42,112],[44,95],[-4,43],[147,-31],[-5,-23],[98,-56],[25,-32],[59,31],[34,-69]],[[383,9893],[40,-20],[-120,-160],[-48,-51],[-85,38],[-22,-19],[-112,51],[-36,30],[72,9],[85,106],[-25,12],[82,110],[132,-60],[-15,-21],[52,-25]]]}
