{"type":"Topology","bbox":[-77.54715991909518,0.9639557085220005,-77.47670809799865,1.0243322643974504],"transform":{"scale":[0.000007045886698322447,0.000006038259413486336],"translate":[-77.54715991909518,0.9639557085220005]},"objects":{"municipios":{"type":"GeometryCollection","geometries":[{"type":"Polygon","arcs":[[0]],"properties":{"codigo":"52352200101010000101","sector":"523522001010100001","pcode":"CO52352","area_m2":64659}},{"type":"Polygon","arcs":[[1]],"properties":{"codigo":"52352200101006000101","sector":"523522001010060001","pcode":"CO52352","area_m2":64422}},{"type":"Polygon","arcs":[[2]],"properties":{"codigo":"52352200102003000101","sector":"523522001020030001","pcode":"CO52352","area_m2":182916}},{"type":"Polygon","arcs":[[3,4,5]],"properties":{"codigo":"52352100000000000101","sector":"523521000000000001","pcode":"CO52352","area_m2":93420}},{"type":"Polygon","arcs":[[6,7,-4,8]],"properties":{"codigo":"52352100000000000102","sector":"523521000000000001","pcode":"CO52352","area_m2":88778}},{"type":"Polygon","arcs":[[9,10,-7]],"properties":{"codigo":"52352100000000000103","sector":"523521000000000001","pcode":"CO52352","area_m2":73848}},{"type":"Polygon","arcs":[[11,-5,-8,-11]],"properties":{"codigo":"52352100000000000104","sector":"523521000000000001","pcode":"CO52352","area_m2":118716}},{"type":"Polygon","arcs":[[12]],"properties":{"codigo":"52352200101009000101","sector":"523522001010090001","pcode":"CO52352","area_m2":57552}}]}},"arcs":[[[9524,9674],[37,-28],[140,23],[42,-44],[86,14],[-28,-173],[-140,-138],[-12,-124],[-76,22],[-41,109],[52,114],[-71,-88],[-55,-144],[-71,63],[50,42],[44,107],[-31,69],[-66,-11],[4,69],[60,26],[76,92]],[[9756,7571],[81,-238],[-44,-54],[69,-12],[8,-76],[51,-49],[77,-151],[1,-82],[-78,-37],[30,-66],[-92,-68],[-135,296],[-26,136],[-30,36],[91,82],[-78,257],[75,26]],[[294,5366],[18,-105],[131,-19],[7,-92],[104,-68],[114,-19],[99,-55],[-54,-65],[5,-116],[-87,75],[-147,60],[-6,-46],[46,-132],[20,-245],[-46,-65],[-17,68],[-83,-39],[-158,1],[-143,185],[-19,53],[169,111],[-119,325],[-71,122],[-57,-6],[28,69],[58,-13],[6,169],[166,-59],[36,-94]],[[3755,1222],[-33,22],[21,-105],[-22,-52]],[[3721,1087],[-192,103],[-54,-236]],[[3475,954],[-30,13],[65,341],[-52,15],[-3,70],[48,7],[7,66],[55,-21],[58,143],[-28,141],[33,85],[132,-10],[4,58],[95,-54],[-42,-99],[-31,23],[-92,-192],[41,-135],[183,138],[-76,60],[76,56],[92,-132],[-254,-261],[-1,-44]],[[3966,648],[-86,85],[128,51],[7,55],[-342,145]],[[3673,984],[48,103]],[[3755,1222],[139,-70],[270,-168],[52,-70],[98,-66],[-14,-110],[-150,-13],[-101,-91],[-83,14]],[[3966,648],[-234,37],[-25,-69],[45,-51],[-61,-118],[-83,54],[-51,-17],[-120,32]],[[3437,516],[0,67],[63,25],[56,85],[117,291]],[[3437,516],[-25,-433],[-49,-83],[-23,129],[-105,-31],[-121,12],[84,57],[60,95],[33,-7],[24,106],[-48,128],[18,159],[-117,32],[-39,101],[167,-4],[49,67],[112,68],[18,42]],[[9030,9999],[60,-5],[36,-87],[145,9],[57,-85],[124,-88],[-93,-30],[-229,-1],[43,-173],[-84,-5],[-79,37],[-31,320],[10,94],[41,14]]]}
