{"type":"Topology","bbox":[-77.05168111244694,1.5068508010945243,-77.02975746971828,1.5420665418061945],"transform":{"scale":[0.00000219258353121972,0.000003521926263793401],"translate":[-77.05168111244694,1.5068508010945243]},"objects":{"municipios":{"type":"GeometryCollection","geometries":[{"type":"Polygon","arcs":[[0]],"properties":{"codigo":"52685100000000000101","sector":"526851000000000001","pcode":"CO52685","area_m2":262338}},{"type":"Polygon","arcs":[[1]],"properties":{"codigo":"52685200102001000101","sector":"526852001020010001","pcode":"CO52685","area_m2":108020}},{"type":"Polygon","arcs":[[2]],"properties":{"codigo":"52685200102002000101","sector":"526852001020020001","pcode":"CO52685","area_m2":24317}}]}},"arcs":[[[3757,3416],[-106,-111],[-250,-115],[-50,-45],[-53,-129],[-222,-187],[54,-13],[-86,-173],[115,-36],[46,-62],[110,-74],[184,-55],[-114,-135],[-206,22],[-165,58],[-292,9],[64,-61],[-261,-176],[-155,-174],[-175,-128],[-57,-5],[-336,-282],[-44,-92],[-96,-42],[-270,-219],[-48,23],[-53,-47],[102,-46],[-142,-107],[-76,-96],[-55,11],[-529,-458],[85,-44],[-64,-92],[-46,-144],[-90,-117],[-139,-74],[-162,15],[-114,64],[-58,66],[-1,98],[53,54],[18,93],[167,153],[8,72],[99,93],[118,29],[75,67],[86,121],[-30,43],[27,250],[122,109],[39,104],[165,65],[109,111],[170,59],[126,4],[226,81],[19,127],[-41,87],[3,127],[-41,60],[12,81],[-34,79],[22,116],[316,77],[155,77],[61,85],[-101,34],[115,56],[21,56],[129,140],[125,10],[171,65],[129,7],[213,128],[298,207],[35,-22],[132,83],[64,-24],[221,74],[72,179],[-51,15],[119,94],[68,154],[70,-14],[-43,-120],[55,-31],[-89,-165],[21,-156],[-69,-21]],[[9675,9759],[-141,-113],[50,-73],[-126,-75],[12,-91],[-32,-115],[-178,-173],[-61,-130],[-8,-126],[-196,-158],[-73,-174],[36,-89],[-211,-134],[-90,-108],[-132,-57],[-79,-141],[5,-124],[-31,-42],[-114,-23],[-93,-159],[-69,-17],[-188,-176],[-113,68],[-53,93],[27,109],[-101,109],[12,99],[44,56],[143,27],[82,-25],[25,61],[-27,80],[90,40],[208,47],[65,45],[56,113],[-32,62],[152,169],[61,185],[-13,110],[70,58],[36,160],[64,111],[185,-26],[139,186],[78,75],[44,94],[-107,34],[39,49],[-186,58],[-7,58],[100,18],[214,-81],[103,85],[107,-55],[346,206],[71,60],[121,-41],[-117,-126],[-78,-9],[-129,-64]],[[6149,6231],[98,-102],[-224,-137],[-28,9],[-118,-122],[-258,-133],[71,-38],[-151,-93],[-4,-123],[-60,-56],[101,-77],[-138,-78],[-184,81],[-7,66],[92,78],[-179,-2],[54,125],[95,-25],[232,112],[-78,109],[126,7],[-64,52],[49,55],[48,-30],[76,38],[61,-38],[108,76],[-4,36],[-175,46],[30,90],[157,-13],[51,93],[223,-6]]]}
