{"type":"Topology","bbox":[-77.49724366733574,1.2602269027820008,-77.417169784137,1.3424192648378355],"transform":{"scale":[0.000008008189138787477,0.000008220058211404609],"translate":[-77.49724366733574,1.2602269027820008]},"objects":{"municipios":{"type":"GeometryCollection","geometries":[{"type":"Polygon","arcs":[[0,1,2,3]],"properties":{"codigo":"52683100000000000103","sector":"526831000000000001","pcode":"CO52683","area_m2":251344}},{"type":"Polygon","arcs":[[4]],"properties":{"codigo":"52683200103027000101","sector":"526832001030270001","pcode":"CO52683","area_m2":69751}},{"type":"Polygon","arcs":[[5,6]],"properties":{"codigo":"52683100000000000101","sector":"526831000000000001","pcode":"CO52683","area_m2":744073}},{"type":"Polygon","arcs":[[7,-6,8,-2,9]],"properties":{"codigo":"52683100000000000102","sector":"526831000000000001","pcode":"CO52683","area_m2":169985}},{"type":"Polygon","arcs":[[-10,-1,10,11]],"properties":{"codigo":"52683100000000000104","sector":"526831000000000001","pcode":"CO52683","area_m2":216037}},{"type":"Polygon","arcs":[[-11,-4,12]],"properties":{"codigo":"52683100000000000105","sector":"526831000000000001","pcode":"CO52683","area_m2":373110}},{"type":"Polygon","arcs":[[13]],"properties":{"codigo":"52683200101001000101","sector":"526832001010010001","pcode":"CO52683","area_m2":103416}},{"type":"Polygon","arcs":[[14]],"properties":{"codigo":"52683200102009000101","sector":"526832001020090001","pcode":"CO52683","area_m2":30986}},{"type":"Polygon","arcs":[[15]],"properties":{"codigo":"52683200101010000101","sector":"526832001010100001","pcode":"CO52683","area_m2":109921}},{"type":"Polygon","arcs":[[16]],"properties":{"codigo":"52683200102002000101","sector":"526832001020020001","pcode":"CO52683","area_m2":239475}},{"type":"MultiPolygon","arcs":[[[17]],[[18]]],"properties":{"codigo":"52683200101003000101","sector":"526832001010030001","pcode":"CO52683","area_m2":68705}},{"type":"Polygon","arcs":[[19]],"properties":{"codigo":"52683200104004000101","sector":"526832001040040001","pcode":"CO52683","area_m2":98743}},{"type":"Polygon","arcs":[[20]],"properties":{"codigo":"52683200102005000101","sector":"526832001020050001","pcode":"CO52683","area_m2":66080}},{"type":"Polygon","arcs":[[21]],"properties":{"codigo":"52683200103007000101","sector":"526832001030070001","pcode":"CO52683","area_m2":26339}},{"type":"Polygon","arcs":[[22]],"properties":{"codigo":"52683200103011000101","sector":"526832001030110001","pcode":"CO52683","area_m2":34583}},{"type":"Polygon","arcs":[[23]],"properties":{"codigo":"52683200103012000101","sector":"526832001030120001","pcode":"CO52683","area_m2":116175}},{"type":"MultiPolygon","arcs":[[[24]],[[25]]],"properties":{"codigo":"52683200102014000101","sector":"526832001020140001","pcode":"CO52683","area_m2":16433}},{"type":"Polygon","arcs":[[26]],"properties":{"codigo":"52683200103016000101","sector":"526832001030160001","pcode":"CO52683","area_m2":86079}},{"type":"Polygon","arcs":[[27]],"properties":{"codigo":"52683200102017000101","sector":"526832001020170001","pcode":"CO52683","area_m2":135898}},{"type":"Polygon","arcs":[[28]],"properties":{"codigo":"52683200102018000101","sector":"526832001020180001","pcode":"CO52683","area_m2":197651}},{"type":"MultiPolygon","arcs":[[[29]],[[30]]],"properties":{"codigo":"52683200102022000101","sector":"526832001020220001","pcode":"CO52683","area_m2":17487}},{"type":"MultiPolygon","arcs":[[[31]],[[32]]],"properties":{"codigo":"52683200103023000101","sector":"526832001030230001","pcode":"CO52683","area_m2":83555}}]}},"arcs":[[[3391,3332],[-93,-226],[-75,-203]],[[3223,2903],[-244,95],[-31,-61]],[[2948,2937],[-37,28],[-21,55],[-83,69],[-78,25],[-36,-6],[-25,38],[-48,-19],[-9,16],[-30,-15],[-68,3],[28,16],[7,41],[48,10],[45,108],[33,44],[5,49],[15,35],[-108,21],[-11,61],[23,23],[119,-7],[-6,91],[90,0]],[[2801,3623],[24,-116],[40,-92],[159,-67],[42,98],[222,-82],[103,-32]],[[1944,1597],[171,-79],[57,-20],[-37,-46],[-9,-49],[-55,-70],[-42,-37],[-43,-23],[-129,-26],[-58,270],[64,58],[55,39],[26,-17]],[[2835,2788],[42,-23],[-4,-80],[-40,-42],[43,-26],[74,-57],[32,91],[301,-111]],[[3283,2540],[-27,-61],[-2,-28],[21,-15],[-45,-6],[-14,-21],[-39,-5],[-26,-71],[-37,3],[-12,-92],[5,-64],[-7,-58],[112,-24],[4,-40],[-121,21],[-1,-99],[-25,-115],[9,-76],[-24,-44],[4,-99],[-8,-7],[-47,42],[-74,-19],[-62,-27],[-22,-52],[-27,16],[-26,-15],[-147,-53],[-48,-3],[-131,48],[-25,16],[-12,36],[-43,80],[4,20],[34,-9],[32,138],[-16,3],[48,88],[19,17],[18,58],[-14,11],[21,55],[67,71],[-55,112],[-63,-5],[-45,-46],[-22,2],[19,123],[-185,21],[-26,-18],[-49,-7],[-99,-75],[-27,-8],[-25,24],[26,47],[26,72],[-50,59],[-6,53],[3,82],[10,3],[4,72],[-13,8],[45,43],[66,88],[68,23],[129,-33],[10,38],[-33,50],[44,14],[10,-15],[-4,-53],[28,-19],[23,7],[46,-31],[30,-62],[108,20],[44,-36],[10,-25],[58,28],[36,51],[67,-35],[28,56]],[[3545,2709],[-4,-13],[-73,22],[-3,-74],[63,-12],[-72,-39],[-9,-29],[-78,-79],[-17,41],[-69,14]],[[2835,2788],[25,32],[-4,51],[79,45],[13,21]],[[3223,2903],[342,-137],[-20,-57]],[[3391,3332],[135,-46],[227,-65],[44,120]],[[3797,3341],[79,10],[38,14],[-6,-128],[12,-1],[-95,-197],[-22,-107],[-30,1],[-20,-41],[-60,-85],[-29,-64],[-39,9],[-24,-39],[-4,-32],[-52,28]],[[2801,3623],[5,37],[157,44],[-26,57],[90,67],[32,51],[-9,66],[89,13],[34,16],[19,-128],[43,15],[72,85],[53,-74],[36,-5],[19,-36],[43,-15],[74,22],[-5,21],[26,6],[-4,30],[59,11],[23,-27],[76,25],[6,-40],[30,-53],[-90,-43],[21,-42],[12,-106],[25,-15],[12,-77],[-13,-48],[34,-12],[75,-52],[-25,-31],[3,-44]],[[2259,7742],[56,-75],[-19,-83],[55,-22],[-40,-39],[41,-15],[33,49],[27,-20],[-17,-24],[32,-43],[-20,-15],[33,-39],[37,0],[16,-22],[-40,-46],[82,-98],[17,-36],[23,-90],[32,-13],[51,-52],[-58,-45],[-41,-17],[0,-51],[-51,-13],[-30,26],[-81,41],[9,20],[-23,17],[46,61],[-43,104],[-27,28],[-24,60],[-29,-15],[-56,102],[-36,84],[32,7],[-10,114],[-26,2],[11,46],[26,22],[-44,61],[56,29]],[[4859,6771],[4,-54],[23,-2],[9,-29],[-23,-39],[-43,7],[-25,-58],[-38,-36],[-9,-26],[6,-54],[-35,-14],[-38,-45],[-7,-35],[-41,23],[-24,-11],[-50,2],[-3,30],[19,26],[106,83],[-13,33],[13,19],[51,29],[30,40],[11,77],[29,32],[48,2]],[[2978,9936],[0,-22],[71,-51],[-30,-32],[32,-35],[-80,-65],[-16,-76],[-46,-43],[5,-75],[-78,0],[-48,15],[-98,-4],[-44,37],[-28,-44],[-21,-3],[-33,30],[-15,32],[6,45],[22,27],[63,16],[5,29],[36,57],[-2,38],[40,29],[-11,69],[45,29],[73,10],[20,29],[30,-8],[30,-38],[61,67],[19,-16],[-8,-47]],[[5041,5918],[16,1],[72,-99],[-14,-14],[26,-42],[45,-100],[23,13],[13,-30],[68,-108],[30,-34],[-20,-4],[14,-42],[-34,8],[-2,-18],[31,-20],[11,-36],[58,3],[7,-34],[30,-13],[21,-39],[-51,-11],[-2,39],[-27,3],[-57,-19],[22,-91],[22,10],[26,-49],[52,10],[15,18],[-16,55],[28,9],[10,-77],[-34,-29],[-30,6],[-58,-33],[0,-116],[103,43],[45,-26],[35,17],[10,-13],[-44,-28],[26,-52],[20,12],[11,-42],[30,-5],[12,-32],[-46,23],[-15,25],[-43,-19],[-20,39],[-41,-9],[-34,51],[-70,-18],[3,84],[-21,55],[-16,7],[-51,59],[-33,5],[-1,-41],[30,-7],[-5,-38],[24,-5],[13,-108],[44,-81],[42,-43],[14,17],[34,-61],[-13,-30],[21,-4],[3,-67],[-18,1],[-1,-40],[-40,-2],[1,27],[-66,-18],[24,22],[6,38],[-20,10],[4,51],[28,17],[-38,27],[-13,32],[-87,43],[21,44],[-22,13],[-12,-31],[-10,27],[-32,20],[-83,-8],[0,35],[-69,-10],[-54,-61],[-34,-7],[-44,-64],[94,-81],[31,-33],[-50,-12],[12,20],[-26,38],[-35,-16],[-61,95],[-24,-1],[-16,42],[-51,-13],[27,-88],[-2,-37],[-17,3],[5,37],[-15,45],[-20,7],[-97,-33],[5,-30],[95,-7],[-6,-30],[-36,-12],[-2,36],[-19,1],[30,-61],[-37,-7],[-27,30],[-36,-14],[-29,46],[-135,-37],[3,29],[44,1],[59,16],[-39,7],[-5,30],[-49,34],[-42,-6],[-4,29],[-32,-31],[-5,56],[44,5],[-12,43],[35,11],[17,-50],[66,47],[-35,64],[62,16],[-7,-22],[17,-40],[33,9],[-6,30],[27,8],[-4,124],[39,-18],[-5,35],[18,29],[25,-26],[2,37],[44,35],[11,-20],[57,1],[-20,-22],[43,-9],[0,-24],[-78,5],[-54,-43],[49,-62],[-21,-17],[53,-63],[29,7],[34,-87],[38,7],[-17,20],[58,25],[70,54],[64,28],[-21,55],[-41,-6],[3,-16],[-90,17],[21,26],[-26,31],[-22,-24],[-21,30],[12,33],[74,-13],[34,72],[-25,10],[18,20],[-30,39],[29,27],[-18,46],[-18,104],[26,6],[22,42],[22,-1],[-21,-94],[15,0],[13,-113],[14,4],[33,-84],[-24,6],[-28,-59],[0,-24],[26,-43],[39,-17],[56,1],[113,55],[62,-26],[37,-4],[-4,49],[-29,6],[1,53],[18,15],[-9,32],[-19,-3],[-13,109],[15,47],[-26,51],[-56,-6],[-5,31],[26,9],[-10,43],[-18,-4],[-22,106],[-22,37],[-26,-8],[-6,22],[25,9],[-69,95],[-35,19],[4,30],[29,-23]],[[2050,6148],[60,-4],[51,-71],[19,-78],[-17,-35],[-28,-11],[42,-37],[-10,-29],[40,0],[130,49],[38,-42],[-45,-41],[-69,-21],[-52,4],[-47,21],[-70,58],[-28,46],[-60,18],[10,35],[-41,5],[-2,-25],[-24,-14],[-47,-117],[4,-47],[-67,-42],[-69,-16],[22,60],[56,59],[43,59],[74,123],[-60,21],[-28,-13],[-10,32],[40,5],[61,-7],[50,42],[28,37],[-37,35],[25,60],[57,-38],[-39,-81]],[[1610,6123],[51,-20],[19,-45],[-59,-39],[-43,-39],[22,75],[28,30],[-47,14],[-105,-15],[-16,4],[27,38],[19,-15],[104,12]],[[9739,2641],[35,1],[32,-58],[130,-34],[42,-19],[21,-63],[-32,-3],[-28,-38],[-20,-73],[-26,6],[-10,-31],[8,-40],[22,-27],[0,-35],[-43,-48],[-40,1],[-3,26],[-70,-39],[-23,37],[-34,-11],[-111,94],[-17,-14],[-32,25],[43,22],[-4,70],[19,35],[75,-1],[-23,76],[44,1],[48,31],[-11,37],[-43,37],[-17,-13],[-44,57],[37,42],[75,-51]],[[7243,3544],[60,-13],[-10,-35],[41,-23],[-18,-34],[3,-30],[62,-30],[-34,-54],[4,-43],[32,-58],[25,13],[29,-27],[5,-41],[-46,-53],[-26,-15],[-81,8],[-32,17],[0,97],[-69,13],[-18,-32],[-56,-11],[74,166],[-56,18],[16,38],[-28,21],[44,48],[4,36],[47,12],[-26,36],[-41,7],[5,18],[93,-32],[-3,-17]],[[78,2524],[45,-8],[37,-38],[-5,-97],[48,-56],[34,-8],[-10,-48],[-43,-8],[-26,-39],[3,-54],[-107,58],[-5,20],[-29,-10],[-20,35],[2,29],[33,-2],[11,-22],[44,-10],[48,15],[-21,18],[34,61],[-48,-11],[-30,44],[9,23],[-22,16],[2,95],[16,-3]],[[2929,4955],[-1,-18],[-69,-16],[44,-82],[98,21],[7,-26],[48,7],[59,21],[15,-56],[-67,-15],[12,-45],[-34,-18],[47,-50],[4,-22],[-78,-26],[-18,63],[-32,-4],[-24,28],[-39,19],[-1,47],[-46,34],[-15,43],[-17,7],[-27,62],[35,40],[8,-15],[80,18],[11,-17]],[[2327,611],[-27,-83],[22,-33],[58,-42],[25,42],[57,-42],[-16,-29],[-47,9],[-47,-20],[1,-33],[108,0],[66,-10],[43,20],[42,33],[-3,81],[117,9],[39,-82],[22,8],[-13,-103],[-15,-54],[-65,16],[27,70],[-74,26],[-58,-55],[-29,11],[-35,-52],[167,-36],[-17,-107],[24,-4],[-27,-56],[-23,-95],[-119,39],[8,33],[-15,22],[4,42],[-63,-2],[-81,19],[10,16],[21,94],[-63,7],[-25,19],[-97,-1],[-41,26],[2,66],[26,-2],[108,60],[-36,11],[-79,48],[-4,30],[21,36],[64,40],[37,8]],[[3474,4622],[-13,-35],[15,-53],[22,-12],[10,-34],[-20,-22],[2,-62],[26,-8],[12,-102],[22,-49],[-24,-11],[-20,54],[-40,2],[15,51],[-16,83],[-14,1],[-44,68],[21,12],[11,36],[-10,21],[45,60]],[[3401,4805],[46,-122],[-11,-22],[-55,142],[20,2]],[[1166,2727],[16,-20],[30,10],[25,-25],[-51,-31],[31,-17],[3,-53],[28,-22],[-39,-12],[-16,42],[-48,-32],[-1,-18],[44,-33],[119,-39],[89,-62],[65,-61],[-37,-14],[-23,21],[-18,-15],[-26,25],[1,27],[-23,4],[-7,39],[-72,7],[3,-21],[30,-20],[0,-20],[-38,-46],[18,-35],[-27,-58],[-58,49],[-34,5],[-68,-33],[-27,13],[-5,26],[13,56],[27,29],[-27,20],[5,33],[-52,7],[-5,25],[32,26],[-32,25],[10,28],[-42,39],[-28,-22],[-1,53],[26,-1],[10,22],[-30,35],[25,40],[76,4],[21,39],[88,-39]],[[4171,8024],[-16,-25],[79,-72],[-4,-39],[-43,-59],[-30,-95],[-10,-148],[-29,-79],[-63,-82],[-43,-2],[-7,71],[-103,81],[-16,-54],[-35,-64],[-5,-33],[-32,-53],[-65,-61],[-99,-48],[-15,51],[-33,-10],[-19,-27],[-34,52],[74,9],[120,124],[37,21],[-6,19],[-44,42],[26,38],[9,47],[65,13],[-10,55],[14,11],[104,14],[0,87],[106,-52],[8,61],[-4,55],[-20,42],[-36,15],[40,70],[-63,4],[-15,35],[124,-24],[23,32],[70,-22]],[[3423,6679],[17,7],[72,-26],[70,-10],[-68,-35],[-54,-42],[-17,-35],[153,-6],[-71,-96],[30,-22],[-22,-44],[-160,59],[-36,-77],[-28,-38],[40,-21],[-81,-112],[-37,-118],[-52,-57],[-13,-158],[-24,0],[-7,-97],[32,-152],[-147,-24],[-13,73],[-40,99],[-7,100],[7,24],[55,54],[-23,66],[20,40],[4,43],[-30,37],[-73,57],[27,0],[61,-33],[9,86],[-21,112],[65,1],[23,22],[-9,27],[86,43],[56,13],[75,-18],[50,146],[-47,37],[-25,33],[-15,49],[85,11],[83,-18]],[[4076,5578],[30,-6],[-16,-74],[-31,-28],[44,-57],[-24,-7],[4,-33],[-17,-37],[-35,-9],[-53,25],[5,36],[45,-30],[8,61],[-25,29],[-29,7],[-10,31],[19,13],[31,-10],[30,17],[9,28],[-17,41],[32,3]],[[4291,5709],[-19,-1],[-29,-76],[-27,-7],[0,-62],[-44,8],[69,102],[0,44],[57,17],[-7,-25]],[[1564,1017],[-6,-25],[54,-92],[-24,22],[-35,-75],[-30,3],[-21,-55],[-52,-49],[-77,-122],[19,-41],[-16,-59],[12,-88],[-9,-15],[-60,1],[-17,-33],[-38,-1],[-23,29],[70,31],[4,40],[-43,3],[31,47],[-6,47],[-37,-10],[-35,7],[1,21],[48,21],[44,101],[60,43],[-4,-61],[62,61],[-18,29],[51,3],[25,75],[16,11],[-3,49],[11,19],[-6,52],[23,28],[-39,29],[-1,33],[19,24],[61,-63],[-11,-40]],[[1435,1000],[-8,-56],[-57,-76],[-83,5],[19,36],[-65,29],[6,36],[-16,-1],[-35,-40],[11,-58],[-21,3],[-30,48],[-16,52],[17,75],[51,-1],[41,-36],[40,-9],[29,13],[-5,38],[30,-9],[30,-49],[-2,32],[-26,47],[1,38],[45,41],[72,25],[-28,-183]]]}
