{"type":"Topology","bbox":[-77.85952308625116,0.8059339246232468,-77.78386691362948,0.9168221900002361],"transform":{"scale":[0.00000756637389955769,0.000011089935531252062],"translate":[-77.85952308625116,0.8059339246232468]},"objects":{"municipios":{"type":"GeometryCollection","geometries":[{"type":"Polygon","arcs":[[0]],"properties":{"codigo":"52227200406010000101","sector":"522272004060100001","pcode":"CO52227","area_m2":144478}},{"type":"MultiPolygon","arcs":[[[1]],[[2]],[[3]],[[4]]],"properties":{"codigo":"52227200303001000101","sector":"522272003030010001","pcode":"CO52227","area_m2":390954}},{"type":"Polygon","arcs":[[5]],"properties":{"codigo":"52227200304004000101","sector":"522272003040040001","pcode":"CO52227","area_m2":181069}},{"type":"Polygon","arcs":[[6]],"properties":{"codigo":"52227200304006000101","sector":"522272003040060001","pcode":"CO52227","area_m2":265133}},{"type":"Polygon","arcs":[[7,8,9,10,11]],"properties":{"codigo":"52227100000000000107","sector":"522271000000000001","pcode":"CO52227","area_m2":107630}},{"type":"Polygon","arcs":[[12,13,14,15]],"properties":{"codigo":"52227100000000000202","sector":"522271000000000002","pcode":"CO52227","area_m2":246089}},{"type":"Polygon","arcs":[[-12,16,17,18]],"properties":{"codigo":"52227100000000000104","sector":"522271000000000001","pcode":"CO52227","area_m2":101118}},{"type":"Polygon","arcs":[[19,-14]],"properties":{"codigo":"52227200405009000101","sector":"522272004050090001","pcode":"CO52227","area_m2":142555}},{"type":"Polygon","arcs":[[20,21,22,23]],"properties":{"codigo":"52227100000000000101","sector":"522271000000000001","pcode":"CO52227","area_m2":307454}},{"type":"Polygon","arcs":[[-17,-11,24,25]],"properties":{"codigo":"52227100000000000105","sector":"522271000000000001","pcode":"CO52227","area_m2":130606}},{"type":"Polygon","arcs":[[-18,26,-22,27]],"properties":{"codigo":"52227100000000000103","sector":"522271000000000001","pcode":"CO52227","area_m2":98874}},{"type":"Polygon","arcs":[[-27,-26,28,29,-23]],"properties":{"codigo":"52227100000000000102","sector":"522271000000000001","pcode":"CO52227","area_m2":240281}},{"type":"Polygon","arcs":[[30,-8,-19,-28,-21,31]],"properties":{"codigo":"52227100000000000108","sector":"522271000000000001","pcode":"CO52227","area_m2":366578}},{"type":"Polygon","arcs":[[-25,-10,32,33,-29]],"properties":{"codigo":"52227100000000000106","sector":"522271000000000001","pcode":"CO52227","area_m2":123545}},{"type":"Polygon","arcs":[[-9,-31,34,-16,35,-33]],"properties":{"codigo":"52227100000000000201","sector":"522271000000000002","pcode":"CO52227","area_m2":312934}}]}},"arcs":[[[6956,4074],[32,-9],[-46,-69],[-146,71],[-47,-71],[-129,-20],[-177,14],[-97,-100],[-142,-209],[-43,-116],[37,-70],[-28,-41],[-41,25],[-41,98],[-50,75],[-114,-24],[68,117],[158,-10],[21,24],[-85,20],[45,98],[28,-10],[83,94],[96,87],[168,-20],[47,46],[66,-24],[45,41],[-47,29],[10,62],[89,-22],[-4,-17],[244,-69]],[[1370,824],[-3,-28],[216,-68],[64,-30],[141,14],[35,-56],[72,-9],[33,23],[81,-8],[66,48],[36,-39],[17,-70],[-36,-16],[45,-45],[54,-15],[-11,-57],[-158,51],[-20,-46],[-90,0],[-50,-159],[-106,15],[-287,85],[40,68],[-23,33],[-230,64],[-45,-23],[-127,86],[-69,-66],[-107,42],[37,34],[32,-17],[63,33],[72,94],[47,32],[67,-16],[59,76],[85,-30]],[[651,229],[-37,-39],[-82,9],[-63,-67],[11,-102],[-157,-30],[101,84],[26,57],[84,119],[227,133],[21,-10],[-107,-83],[-24,-71]],[[2514,370],[-24,-32],[-98,10],[-22,19],[49,53],[110,-30],[-15,-20]],[[168,1024],[103,-2],[178,-24],[23,-30],[39,49],[46,-23],[-33,-53],[91,12],[254,-118],[202,-36],[37,-20],[-63,-29],[-219,59],[-186,97],[-21,-24],[-196,75],[-16,-10],[-114,36],[-138,2],[-155,17],[10,26],[158,-4]],[[5312,3300],[35,-15],[63,49],[67,-19],[2,-44],[91,-21],[89,2],[46,20],[76,-24],[63,7],[-44,33],[-4,52],[38,3],[48,-98],[94,-16],[71,-45],[-37,-28],[-116,46],[-103,-123],[-117,67],[-87,33],[48,12],[-28,43],[-19,-28],[-133,1],[7,23],[-82,38],[-64,-13],[-70,41],[-13,-28],[160,-87],[-6,-50],[-70,-15],[-85,19],[-51,-30],[141,-80],[-73,3],[-131,-114],[35,91],[-4,54],[-126,-34],[-24,-39],[-54,8],[-38,39],[52,41],[-32,17],[38,44],[-67,37],[-35,-32],[-24,28],[-107,13],[36,28],[101,-33],[4,19],[84,-7],[82,50],[8,26],[-111,-3],[-92,40],[-108,26],[20,35],[68,-38],[125,-43],[109,-8],[98,42],[27,-21],[52,84],[32,-28],[-18,-43],[63,-7]],[[3183,2262],[58,-57],[109,-33],[6,-40],[-63,1],[-83,43],[-67,-14],[-147,98],[-43,-39],[59,-38],[-99,-70],[142,-82],[51,-51],[-122,-71],[103,-66],[-74,-43],[-43,-1],[-130,-52],[-124,-85],[34,-25],[-35,-34],[69,-49],[23,12],[47,-48],[-63,-36],[95,-108],[-182,-52],[-154,-115],[-21,77],[-84,-1],[4,77],[48,-5],[63,142],[-105,40],[88,55],[65,95],[133,95],[22,41],[-85,64],[35,51],[107,-75],[68,35],[46,63],[-16,60],[-122,62],[35,90],[-80,59],[127,62],[153,30],[83,-19],[69,-43]],[[9084,8907],[-207,-154]],[[8877,8753],[-69,17],[-62,41],[-56,78],[49,56]],[[8739,8945],[12,67],[122,-9],[17,154]],[[8890,9157],[228,-16]],[[9118,9141],[-34,-234]],[[8754,8344],[-313,-189],[-83,-57],[-32,8]],[[8326,8106],[-58,30],[17,26],[-38,41]],[[8247,8203],[-49,82],[-134,147],[-1,93],[-50,15],[81,84],[94,-45],[36,50],[-59,21],[27,40],[-122,53],[56,71],[-34,72],[41,11],[90,-92]],[[8223,8805],[-9,-46],[81,-83],[50,-71],[77,-38],[332,-223]],[[9118,9141],[21,154]],[[9139,9295],[492,-34]],[[9631,9261],[-210,-141],[-337,-213]],[[8326,8106],[-88,-45],[-115,-117],[-44,-103],[68,-34],[-21,-21],[-59,29],[-21,-36],[98,-48],[-73,-113],[-55,-45],[-62,-16],[-68,18],[107,144],[-137,5],[-92,62],[-4,60],[79,53],[191,173],[125,52],[-15,38],[107,41]],[[9978,9484],[-114,-74]],[[9864,9410],[-251,13],[-447,30]],[[9166,9453],[-684,43],[-4,37],[-391,73],[-12,-30],[-52,10]],[[8023,9586],[-72,23],[44,63],[48,-5],[52,28],[468,-54],[7,16],[179,-26],[37,79],[79,123],[50,166],[119,-8],[-21,-58],[-53,3],[-37,-107],[-40,-54],[-26,-103],[506,-79],[-6,-27],[96,0],[216,-33],[12,28],[318,-64],[-21,-13]],[[8890,9157],[-454,32],[-10,-70],[-77,17],[-76,89],[-20,51]],[[8253,9276],[193,-12],[14,78],[679,-47]],[[9139,9295],[27,158]],[[9864,9410],[-233,-149]],[[8253,9276],[-80,72],[-136,99],[-146,82]],[[7891,9529],[-100,44],[25,22],[172,-54],[35,45]],[[9043,8523],[-63,48],[19,84],[-26,50],[-96,48]],[[9978,9484],[-46,-89],[-32,10],[-18,-80],[73,-15],[-211,-293],[-138,-171],[-208,-201],[21,-37],[100,-76],[-50,-26],[-111,94],[27,29],[-83,45],[-259,-151]],[[8739,8945],[-49,58],[-119,44],[-72,-64],[-95,-46]],[[8404,8937],[-67,47],[92,29],[44,39],[-89,60],[-89,38],[-21,49],[-82,18],[-12,48],[-164,62],[50,35],[-48,54],[-21,-19],[-167,72],[61,60]],[[9043,8523],[-103,-56],[-186,-123]],[[8223,8805],[181,132]]]}
