{"type":"Topology","bbox":[-77.21851797693574,1.4752237250048388,-77.17339215424823,1.59835703010061],"transform":{"scale":[0.0000045130335721081865,0.000012314561965773703],"translate":[-77.21851797693574,1.4752237250048388]},"objects":{"municipios":{"type":"GeometryCollection","geometries":[{"type":"Polygon","arcs":[[0]],"properties":{"codigo":"52687200102001000101","sector":"526872001020010001","pcode":"CO52687","area_m2":82279}},{"type":"Polygon","arcs":[[1,2]],"properties":{"codigo":"52687100000000000101","sector":"526871000000000001","pcode":"CO52687","area_m2":139561}},{"type":"Polygon","arcs":[[3,-2]],"properties":{"codigo":"52687100000000000102","sector":"526871000000000001","pcode":"CO52687","area_m2":154036}},{"type":"Polygon","arcs":[[4]],"properties":{"codigo":"52687200102005000101","sector":"526872001020050001","pcode":"CO52687","area_m2":26552}},{"type":"Polygon","arcs":[[5]],"properties":{"codigo":"52687200303003000101","sector":"526872003030030001","pcode":"CO52687","area_m2":64499}},{"type":"Polygon","arcs":[[6,7]],"properties":{"codigo":"52687200102008000101","sector":"526872001020080001","pcode":"CO52687","area_m2":81896}},{"type":"Polygon","arcs":[[-7,8]],"properties":{"codigo":"52687200102002000101","sector":"526872001020020001","pcode":"CO52687","area_m2":92384}}]}},"arcs":[[[6783,9690],[-20,-40],[60,-19],[-60,-26],[-10,-46],[-71,-55],[-21,-27],[-134,-32],[-69,-35],[-44,11],[-100,-14],[-88,-35],[-85,-12],[-11,24],[-69,-26],[-94,43],[122,50],[27,80],[-46,-1],[-7,28],[131,-32],[51,31],[91,-15],[40,45],[26,-10],[172,41],[-26,11],[63,20],[25,25],[60,4],[55,22],[32,-10]],[[1065,2281],[-544,0],[-180,-4],[-26,16]],[[315,2293],[-82,50],[39,19],[103,13],[0,47],[55,32],[109,-19],[36,44],[-26,47],[69,-4],[63,-26],[10,-63],[75,-1],[-14,21],[47,24],[-24,6],[-84,81],[-78,2],[-6,24],[-72,18],[129,38],[88,-37],[163,0],[101,-61],[30,-40],[57,1],[61,-30],[3,-27],[69,-55],[-14,-23],[-98,-3],[-71,-37],[12,-53]],[[1065,2281],[40,-1],[10,-19],[108,-4],[5,-74],[-110,-6],[-12,-15],[-97,-55],[-131,-13],[-18,-24],[-119,-3],[-115,-22],[28,-28],[-17,-23],[-230,-22],[-18,66],[-29,13],[-124,-57],[-117,-20],[-107,2],[-12,23],[29,15],[77,0],[76,-13],[74,31],[-5,8],[81,24],[-25,15],[67,15],[-18,54],[-174,-19],[-35,10],[0,33],[28,9],[-55,58],[-75,26],[-21,18],[203,-6],[88,16]],[[6217,9999],[43,-23],[-29,-110],[-115,-29],[-80,-11],[-26,-36],[-130,13],[24,43],[128,81],[185,72]],[[9137,229],[-39,-21],[36,-9],[-28,-17],[41,-23],[29,9],[44,-20],[100,4],[77,-11],[0,13],[162,3],[-1,-9],[94,7],[121,-7],[100,4],[90,25],[36,0],[-2,-37],[-119,-11],[-111,4],[-128,-31],[-31,24],[-87,3],[1,16],[-89,-4],[1,-20],[-170,9],[0,-11],[-92,0],[-54,-18],[91,-41],[-58,-24],[-35,-28],[-44,-6],[-126,53],[-46,-12],[-97,42],[65,22],[-57,-2],[-1,16],[-150,-2],[-36,12],[22,28],[147,-17],[-57,47],[64,27],[43,-19],[47,22],[27,-10],[62,29],[44,-9],[54,10],[60,-10]],[[836,6747],[-210,-20]],[[626,6727],[-110,6],[-49,14],[36,26],[94,21],[-120,46],[-105,22],[-38,30],[-95,49],[-20,19],[-80,-23],[-11,46],[75,21],[109,12],[62,-20],[125,34],[136,99],[52,-3],[-23,-17],[57,-10],[-68,-34],[71,-22],[69,-40],[-8,-20],[-69,-13],[-5,-22],[-140,3],[15,-34],[135,11],[45,-32],[-97,1],[-102,-28],[11,-43],[98,-9],[116,19],[84,-2],[40,-33],[-106,-22],[26,-32]],[[836,6747],[48,-10],[52,7],[60,23],[27,-12],[34,14],[46,-17],[71,23],[106,22],[-2,-38],[100,-29],[60,24],[74,-23],[-36,-11],[133,-51],[93,-6],[-1,-34],[-90,8],[12,-31],[-127,4],[25,-10],[-164,-53],[-79,10],[-68,19],[-90,53],[-173,-26],[-43,17],[-55,42],[-79,-19],[-33,33],[-104,-3],[12,17],[-82,30],[63,7]]]}
