{"type":"Topology","bbox":[-77.61302285280595,1.232108252830833,-77.59315726460972,1.3007194127629664],"transform":{"scale":[0.000001986757495373489,0.0000068618021734306945],"translate":[-77.61302285280595,1.232108252830833]},"objects":{"municipios":{"type":"GeometryCollection","geometries":[{"type":"Polygon","arcs":[[0]],"properties":{"codigo":"52565100000000000101","sector":"525651000000000001","pcode":"CO52565","area_m2":269607}},{"type":"Polygon","arcs":[[1]],"properties":{"codigo":"52565200101001000101","sector":"525652001010010001","pcode":"CO52565","area_m2":48865}}]}},"arcs":[[[6663,1445],[196,42],[147,-39],[74,23],[51,-23],[25,-92],[18,56],[499,-93],[-44,-13],[150,-38],[-65,-23],[124,-25],[80,26],[151,-56],[89,24],[148,-51],[-1,-47],[70,-25],[-26,-42],[107,-28],[152,-75],[73,-70],[154,-88],[216,27],[138,-32],[140,-71],[203,-18],[-26,-61],[76,-27],[66,-61],[126,-61],[-22,-25],[-143,-47],[129,-7],[54,-45],[25,-95],[-127,-28],[-41,-62],[174,-9],[163,26],[13,-57],[-177,-44],[-38,-32],[-364,-10],[-29,-49],[-87,1],[-48,44],[-101,0],[18,129],[36,28],[73,130],[-53,6],[21,50],[60,6],[-37,79],[-123,79],[58,18],[-230,63],[-127,-24],[30,-84],[-27,-56],[-161,-32],[-127,-63],[94,-17],[-89,-37],[-88,39],[-198,36],[-93,55],[-136,22],[-156,3],[10,55],[-111,38],[97,32],[-79,21],[84,52],[-272,13],[233,125],[0,20],[-222,2],[99,40],[-211,37],[-33,-11],[-94,57],[78,16],[-157,44],[-297,111],[-69,-21],[-69,20],[152,43],[-131,16],[53,20],[143,0],[-221,42],[-47,-22],[-170,1],[-56,42],[92,31],[-182,20],[-63,40],[-310,37],[-30,19],[-207,-6],[-96,117],[518,34],[136,-30],[52,-53],[143,-32]],[[969,9999],[303,-138],[97,18],[97,-29],[172,-130],[46,-72],[-126,-14],[-158,62],[-77,-9],[-241,10],[-32,-38],[-210,37],[-140,62],[-142,-6],[-195,15],[-303,-36],[-47,83],[225,12],[122,25],[13,82],[323,-7],[7,39],[157,8],[109,26]]]}
