{"type":"Topology","bbox":[-77.66170455607318,1.051223311635696,-77.56950206209541,1.2137675820962914],"transform":{"scale":[0.000009221171514928062,0.00001625605265132468],"translate":[-77.66170455607318,1.051223311635696]},"objects":{"municipios":{"type":"GeometryCollection","geometries":[{"type":"Polygon","arcs":[[0]],"properties":{"codigo":"52838200301001000101","sector":"528382003010010001","pcode":"CO52838","area_m2":125837}},{"type":"Polygon","arcs":[[1,2,3,4,5]],"properties":{"codigo":"52838100000000000102","sector":"528381000000000001","pcode":"CO52838","area_m2":74179}},{"type":"Polygon","arcs":[[6,7,8,-2,9]],"properties":{"codigo":"52838100000000000104","sector":"528381000000000001","pcode":"CO52838","area_m2":120915}},{"type":"Polygon","arcs":[[10,11,12,13,14]],"properties":{"codigo":"52838100000000000106","sector":"528381000000000001","pcode":"CO52838","area_m2":251935}},{"type":"Polygon","arcs":[[15,16,17]],"properties":{"codigo":"52838100000000000201","sector":"528381000000000002","pcode":"CO52838","area_m2":45133}},{"type":"Polygon","arcs":[[18,19,20,21,-16,-4]],"properties":{"codigo":"52838100000000000203","sector":"528381000000000002","pcode":"CO52838","area_m2":429485}},{"type":"Polygon","arcs":[[-3,22,23,-19]],"properties":{"codigo":"52838100000000000204","sector":"528381000000000002","pcode":"CO52838","area_m2":101666}},{"type":"Polygon","arcs":[[24,-14,25,26,-23,-9]],"properties":{"codigo":"52838100000000000205","sector":"528381000000000002","pcode":"CO52838","area_m2":133652}},{"type":"Polygon","arcs":[[27,28]],"properties":{"codigo":"52838100000000000206","sector":"528381000000000002","pcode":"CO52838","area_m2":79322}},{"type":"Polygon","arcs":[[-5,-18,29,30,31]],"properties":{"codigo":"52838100000000000101","sector":"528381000000000001","pcode":"CO52838","area_m2":124316}},{"type":"Polygon","arcs":[[-13,32,-26]],"properties":{"codigo":"52838100000000000107","sector":"528381000000000001","pcode":"CO52838","area_m2":62461}},{"type":"Polygon","arcs":[[33,-10,-6,-32,34]],"properties":{"codigo":"52838100000000000103","sector":"528381000000000001","pcode":"CO52838","area_m2":708873}},{"type":"Polygon","arcs":[[35]],"properties":{"codigo":"52838200301002000101","sector":"528382003010020001","pcode":"CO52838","area_m2":256404}},{"type":"Polygon","arcs":[[-28,36,-21,37,38]],"properties":{"codigo":"52838100000000000207","sector":"528381000000000002","pcode":"CO52838","area_m2":387834}},{"type":"Polygon","arcs":[[39,40,-15,-25,-8,41]],"properties":{"codigo":"52838100000000000105","sector":"528381000000000001","pcode":"CO52838","area_m2":557789}},{"type":"Polygon","arcs":[[-42,-7,-34,42]],"properties":{"codigo":"52838100000000000108","sector":"528381000000000001","pcode":"CO52838","area_m2":401135}},{"type":"Polygon","arcs":[[43,-11,-41]],"properties":{"codigo":"52838100000000000109","sector":"528381000000000001","pcode":"CO52838","area_m2":69087}},{"type":"Polygon","arcs":[[-30,-17,-22,-37,-29,-39,44]],"properties":{"codigo":"52838100000000000202","sector":"528381000000000002","pcode":"CO52838","area_m2":329975}},{"type":"MultiPolygon","arcs":[[[45]],[[46]]],"properties":{"codigo":"52838200303004000101","sector":"528382003030040001","pcode":"CO52838","area_m2":149125}},{"type":"MultiPolygon","arcs":[[[47]],[[48]]],"properties":{"codigo":"52838200102009000101","sector":"528382001020090001","pcode":"CO52838","area_m2":114264}},{"type":"Polygon","arcs":[[49]],"properties":{"codigo":"52838200301012000101","sector":"528382003010120001","pcode":"CO52838","area_m2":164180}},{"type":"MultiPolygon","arcs":[[[50]],[[51]],[[52]]],"properties":{"codigo":"52838200303023000101","sector":"528382003030230001","pcode":"CO52838","area_m2":111791}},{"type":"Polygon","arcs":[[53]],"properties":{"codigo":"52838200302007000101","sector":"528382003020070001","pcode":"CO52838","area_m2":374442}}]}},"arcs":[[[9862,2657],[50,-92],[-9,-17],[26,-39],[-164,-45],[27,-47],[59,-57],[-183,-43],[-52,52],[-17,40],[-205,-55],[-29,36],[132,40],[-24,33],[288,89],[71,25],[31,-1],[-23,33],[-18,-1],[-25,36],[65,13]],[[4890,2204],[-23,-32],[67,-45],[-37,-20],[55,-44],[-68,-24]],[[4884,2039],[-144,142]],[[4740,2181],[-99,137]],[[4641,2318],[138,41]],[[4779,2359],[66,-72],[19,-41],[-44,-27],[70,-15]],[[5244,2103],[-22,-14],[46,-30],[-9,-24],[-131,-87]],[[5128,1948],[-83,-66],[-18,17]],[[5027,1899],[-143,140]],[[4890,2204],[147,-33],[128,-84],[47,21],[32,-5]],[[5466,1593],[-276,-55]],[[5190,1538],[-116,-37],[-29,-30],[-67,9],[-78,40],[-44,46],[-58,21]],[[4798,1587],[91,50],[-31,28],[-150,98],[32,20]],[[4740,1783],[153,28]],[[4893,1811],[42,16],[86,-90],[81,32],[51,29],[89,-57],[207,-142],[17,-6]],[[4641,2318],[-131,-38]],[[4510,2280],[-119,166],[96,7],[55,13]],[[4542,2466],[41,-73],[58,-75]],[[4740,2181],[-56,-18],[-14,19],[-161,-51],[38,-31],[-5,-37],[25,-42],[-17,-42],[-11,-74]],[[4539,1905],[-70,-30],[-58,23],[-248,20],[-67,46],[14,13],[-68,56],[-116,31],[-81,-25],[-16,19],[-67,12],[-35,24],[-97,-51],[-58,81],[2,40]],[[3574,2164],[64,41],[52,13],[30,-5],[80,-44],[50,-4],[103,38],[73,1]],[[4026,2204],[53,-41],[75,-2],[167,59],[189,60]],[[4884,2039],[-149,-42],[-38,-16],[-127,-72],[-32,-7]],[[4538,1902],[1,3]],[[5027,1899],[-24,-21],[-193,3],[83,-70]],[[4740,1783],[-91,3],[-69,-9]],[[4580,1777],[18,45],[-58,50],[-2,30]],[[4053,2291],[-58,8],[-87,-12],[-47,6],[-65,-10],[-36,11],[-83,53],[-14,48],[15,23]],[[3678,2418],[96,36],[63,-39],[47,25],[142,-88],[27,-61]],[[4542,2466],[88,23]],[[4630,2489],[10,-13],[83,24],[79,-16],[64,11],[57,-68],[81,18],[83,10],[6,37],[90,12],[8,65],[43,11]],[[5234,2580],[48,-73],[-26,-57],[-130,-18],[-64,-19],[-58,-3],[-225,-51]],[[4798,1587],[-143,67],[16,16],[-61,22],[-70,47],[7,27],[33,11]],[[5909,2131],[-340,-13],[78,-116],[-83,-24],[-26,41],[-31,5],[-4,29],[-45,48],[-36,4],[-178,-2]],[[5234,2580],[103,11],[40,13],[31,-8],[35,39],[62,-18],[18,-63],[69,23],[3,-33],[44,-119],[-33,-2],[-9,-44],[81,7],[9,-36],[104,5],[-1,15],[61,14],[12,-42],[56,22],[-18,40],[79,14],[32,-30],[-35,-24],[100,11],[4,-17],[-150,-60],[25,-3],[-15,-54],[25,-36],[-73,-9],[0,-26],[26,-18],[-10,-21]],[[7838,3009],[-94,-133],[-16,-130],[-73,-77],[83,8],[10,-24],[-38,-79],[-69,-56],[-112,-12],[-11,-47],[-29,-31],[-288,-25],[-44,110],[-111,-17],[0,27],[190,44],[20,9],[-53,45],[29,12],[24,-20],[33,12],[29,-20],[71,35],[44,12],[129,14],[60,97],[17,127],[45,71],[60,-11],[50,58],[44,1]],[[4053,2291],[38,-9],[57,-31],[4,-18],[-126,-29]],[[3574,2164],[-57,48],[-73,-2],[-33,21],[-3,30],[-82,11],[-97,68],[1,10],[68,27],[33,26],[-58,38],[-26,37],[-57,47],[11,42],[31,31],[77,15],[139,17],[54,1],[3,16]],[[3505,2647],[72,-15],[50,-41],[70,-101],[-19,-72]],[[6055,1800],[46,-51],[67,-40],[-5,-58],[-23,-42],[-41,-38],[-35,-95],[-38,-38],[-85,36],[-51,-35],[95,-52],[-39,-40],[5,-11],[-80,13],[9,15],[-40,47],[-75,-24],[-52,9]],[[5713,1396],[-20,19],[-9,68],[-73,86],[-36,17],[-56,-6],[-53,13]],[[5128,1948],[42,-35],[138,-134],[32,12],[150,27],[54,24],[57,-9],[32,-17],[83,-12],[37,11],[52,41],[51,-18],[88,-75],[111,37]],[[5909,2131],[25,-68],[-8,-54],[91,-134],[5,-41],[33,-34]],[[5713,1396],[-33,-3],[-46,59],[38,9],[-12,22],[-86,84],[-121,0],[24,-36],[-130,-21],[70,-71],[-45,-5],[18,-21],[-47,-15],[-37,40],[-72,-7],[-45,93],[1,14]],[[3505,2647],[-26,19],[33,0],[11,47],[39,2],[31,-17],[68,10],[31,-20],[-52,-14],[21,-32],[91,-49],[19,9],[29,-19],[45,10],[42,-45],[68,-7],[50,-30],[-34,-38],[83,-31],[72,13],[15,12],[118,7],[30,27],[75,-26],[7,11],[95,-7],[49,27],[45,-25],[73,21],[-3,-13]],[[7308,2191],[28,5],[-36,-50],[20,-46],[46,-3],[10,-56],[-21,-1],[-1,-29],[79,-12],[39,-27],[36,-7],[212,10],[1,-22],[-360,-12],[-153,5],[-1,14],[-129,43],[-100,13],[-28,21],[-69,-14],[-12,16],[53,18],[67,-8],[44,19],[-31,12],[47,53],[11,59],[76,-11],[-55,-61],[47,1],[35,-15],[-5,20],[66,5],[3,20],[-42,1],[-4,42],[44,-9],[5,15],[78,-9]],[[7398,1899],[18,-23],[-48,-4],[-1,33],[31,-6]],[[2318,9886],[16,-24],[49,-7],[30,-22],[-37,-33],[28,-44],[28,6],[118,-5],[9,-14],[-39,-45],[-50,1],[-18,-23],[10,-24],[-25,-7],[7,-24],[-36,-38],[-36,-9],[-21,26],[-58,11],[4,16],[-57,15],[-16,-10],[-16,52],[-43,22],[10,52],[81,26],[46,35],[-39,87],[21,20],[-10,28],[20,7],[38,-44],[-14,-31]],[[2305,9986],[-40,-17],[-30,21],[66,9],[4,-13]],[[9999,1883],[-82,-50],[-105,49],[-42,-50],[-161,8],[-109,136],[-70,40],[3,29],[-159,39],[282,23],[201,-38],[-17,-80],[68,-15],[191,-91]],[[4481,285],[28,-9],[33,21],[55,-7],[30,-25],[-24,-33],[42,-22],[48,28],[130,-68],[-2,-16],[134,-88],[57,-48],[-49,-18],[-11,26],[-126,90],[-104,53],[-62,-1],[-73,19],[-51,28],[-69,8],[-109,41],[36,-1],[42,38],[45,-16]],[[4316,523],[11,1],[-16,-71],[17,-24],[56,36],[15,-6],[-73,-53],[64,-29],[-42,-27],[16,-12],[-40,-21],[-63,38],[-38,-34],[12,-21],[65,-9],[-76,-1],[-37,36],[-22,-20],[-47,-2],[3,23],[-47,-17],[16,28],[60,3],[11,-12],[72,24],[35,27],[41,5],[-15,60],[-5,64],[-18,69],[17,2],[28,-57]],[[4812,593],[-134,-27],[-69,-27],[14,-11],[-134,-43],[-20,-20],[-44,14],[66,52],[-7,30],[39,-30],[-7,-12],[239,90],[57,-16]],[[67,1494],[46,-49],[-3,-50],[46,8],[8,-61],[29,-36],[40,-1],[7,-33],[35,-36],[101,5],[3,44],[42,-3],[117,-24],[14,-16],[86,-29],[86,-53],[-11,-15],[115,-27],[41,24],[40,-3],[-11,-45],[-46,-24],[41,-30],[-81,-37],[51,-18],[-69,-53],[114,-31],[-31,-41],[-107,-42],[-61,23],[7,29],[-34,2],[-4,18],[-106,-11],[4,16],[-76,58],[-52,-13],[-62,9],[6,71],[-51,35],[-92,18],[-29,-33],[-40,-9],[-67,37],[58,11],[217,11],[-97,115],[-100,-46],[-65,62],[58,23],[-38,41],[-56,15],[-22,-8],[-32,17],[45,19],[-45,22],[52,26],[-88,66],[55,27],[-53,30],[35,22],[30,-27]]]}
