{"type":"Topology","bbox":[-72.49977781233525,7.295547573907187,-72.49282458059372,7.302230823062942],"transform":{"scale":[6.953927134247152e-7,6.683917547510106e-7],"translate":[-72.49977781233525,7.295547573907187]},"objects":{"municipios":{"type":"GeometryCollection","geometries":[{"type":"Polygon","arcs":[[0,1]],"properties":{"codigo":"54377100000000000101","sector":"543771000000000001","pcode":"CO54377","area_m2":122274}},{"type":"Polygon","arcs":[[-1,2]],"properties":{"codigo":"54377100000000000102","sector":"543771000000000001","pcode":"CO54377","area_m2":133096}}]}},"arcs":[[[7087,8413],[697,-1351],[-737,-532],[508,-854],[-716,-428],[-1539,-1022],[-1111,-721],[-1158,-589],[332,-888],[-921,-428],[161,-962]],[[2603,638],[58,-373],[-188,-142],[-1015,-123],[-62,754],[-1168,-158],[-228,1388],[717,279],[-33,228],[452,74],[49,-237],[854,147],[142,87],[-464,1562],[56,32],[903,125],[393,481],[877,255],[-632,1828],[608,228],[1036,691],[185,-368],[217,112],[146,184],[41,-88],[290,151],[57,186],[-175,315],[300,128],[92,-222],[262,-68],[-140,315],[745,373],[109,-369]],[[7087,8413],[479,309],[1383,746],[199,83],[754,448],[97,-177],[-1200,-694],[-500,-233],[550,-921],[-413,-263],[420,-668],[129,82],[306,-499],[-145,-91],[110,-194],[-319,-353],[353,-932],[-109,-320],[248,-479],[-246,-110],[210,-492],[-451,-263],[-462,-1333],[-284,-922],[-1178,-120],[-44,868],[282,15],[-42,1173],[-185,-1],[-955,-424],[-104,10],[-904,-300],[-76,-119],[380,-1426],[-2712,-191],[-55,16]]]}
