{"type":"Topology","bbox":[-73.3977963206188,8.41524739950539,-73.26562054690004,8.702881489343802],"transform":{"scale":[0.000013218899261801857,0.00002876628561240253],"translate":[-73.3977963206188,8.41524739950539]},"objects":{"municipios":{"type":"GeometryCollection","geometries":[{"type":"Polygon","arcs":[[0,1,2]],"properties":{"codigo":"54206100000000000205","sector":"542061000000000002","pcode":"CO54206","area_m2":47048}},{"type":"Polygon","arcs":[[3,4,5]],"properties":{"codigo":"54206100000000000103","sector":"542061000000000001","pcode":"CO54206","area_m2":24377}},{"type":"Polygon","arcs":[[-5,6,7,8,-3,9,10,11,12]],"properties":{"codigo":"54206100000000000106","sector":"542061000000000001","pcode":"CO54206","area_m2":40644}},{"type":"Polygon","arcs":[[13,14,-11,15,16]],"properties":{"codigo":"54206100000000000203","sector":"542061000000000002","pcode":"CO54206","area_m2":33230}},{"type":"Polygon","arcs":[[17]],"properties":{"codigo":"54206200404011000101","sector":"542062004040110001","pcode":"CO54206","area_m2":13751}},{"type":"Polygon","arcs":[[18]],"properties":{"codigo":"54206200102012000101","sector":"542062001020120001","pcode":"CO54206","area_m2":59787}},{"type":"Polygon","arcs":[[19]],"properties":{"codigo":"54206200202016000101","sector":"542062002020160001","pcode":"CO54206","area_m2":20400}},{"type":"Polygon","arcs":[[20,-14,21,22]],"properties":{"codigo":"54206100000000000201","sector":"542061000000000002","pcode":"CO54206","area_m2":88628}},{"type":"MultiPolygon","arcs":[[[-16,-10,-2,23,24,25]],[[26,27]]],"properties":{"codigo":"54206100000000000204","sector":"542061000000000002","pcode":"CO54206","area_m2":56426}},{"type":"Polygon","arcs":[[28,-7,-4,29,30]],"properties":{"codigo":"54206100000000000101","sector":"542061000000000001","pcode":"CO54206","area_m2":37762}},{"type":"Polygon","arcs":[[31,32,33,-8,-29]],"properties":{"codigo":"54206100000000000102","sector":"542061000000000001","pcode":"CO54206","area_m2":33567}},{"type":"Polygon","arcs":[[-17,-26,34,-22]],"properties":{"codigo":"54206100000000000202","sector":"542061000000000002","pcode":"CO54206","area_m2":57644}},{"type":"Polygon","arcs":[[-30,-6,-13,35,36]],"properties":{"codigo":"54206100000000000104","sector":"542061000000000001","pcode":"CO54206","area_m2":138554}},{"type":"Polygon","arcs":[[-36,-12,-15,-21,37]],"properties":{"codigo":"54206100000000000105","sector":"542061000000000001","pcode":"CO54206","area_m2":154965}},{"type":"Polygon","arcs":[[38]],"properties":{"codigo":"54206200104005000101","sector":"542062001040050001","pcode":"CO54206","area_m2":50694}},{"type":"Polygon","arcs":[[39,40,-33]],"properties":{"codigo":"54206100000000000206","sector":"542061000000000002","pcode":"CO54206","area_m2":84995}},{"type":"Polygon","arcs":[[41,-24,-1,-9,-34,-41,42,-27]],"properties":{"codigo":"54206100000000000207","sector":"542061000000000002","pcode":"CO54206","area_m2":80371}},{"type":"Polygon","arcs":[[43]],"properties":{"codigo":"54206200204002000101","sector":"542062002040020001","pcode":"CO54206","area_m2":42323}},{"type":"Polygon","arcs":[[44]],"properties":{"codigo":"54206200101004000101","sector":"542062001010040001","pcode":"CO54206","area_m2":77296}},{"type":"Polygon","arcs":[[45]],"properties":{"codigo":"54206200101013000101","sector":"542062001010130001","pcode":"CO54206","area_m2":30955}},{"type":"MultiPolygon","arcs":[[[46]],[[47]]],"properties":{"codigo":"54206200301015000101","sector":"542062003010150001","pcode":"CO54206","area_m2":50341}}]}},"arcs":[[[4600,1820],[-67,-9],[-39,-25],[-23,-8]],[[4471,1778],[-21,5],[-6,23],[-19,18],[-28,7],[-6,4],[15,12],[150,23]],[[4556,1870],[44,-50]],[[4733,1903],[-18,-17],[11,-13],[-5,-9],[-26,-22],[-10,-24]],[[4685,1818],[-65,80]],[[4620,1898],[98,12],[15,-7]],[[4685,1818],[1,-3]],[[4686,1815],[-16,-5],[-54,-10]],[[4616,1800],[-16,20]],[[4556,1870],[-30,34]],[[4526,1904],[0,0]],[[4526,1904],[81,12]],[[4607,1916],[13,-18]],[[4448,1936],[34,-1],[26,-11]],[[4508,1924],[18,-20]],[[4526,1904],[-26,-6],[-69,-11],[-45,-2],[8,21],[-8,9],[-18,-7],[-18,5],[-9,15]],[[4341,1928],[18,12],[-20,7],[15,4],[20,-6],[27,-2],[29,1],[1,-9],[17,1]],[[8402,9999],[25,-10],[5,-7],[1,-21],[-42,-6],[0,14],[-75,-7],[-1,10],[28,8],[21,2],[8,9],[30,8]],[[2660,2044],[17,-9],[40,-9],[23,-21],[56,-21],[23,-3],[9,-8],[30,-9],[13,3],[22,-2],[24,-8],[24,-28],[28,-7],[-35,-11],[-39,14],[-21,-1],[-49,5],[-27,5],[-47,14],[2,26],[-21,1],[-74,35],[-34,18],[-7,11],[28,8],[15,-3]],[[4720,5817],[38,-2],[26,-10],[-4,-3],[-27,6],[-10,-3],[-13,5],[5,6],[-33,-3],[7,-7],[-39,-19],[-28,-2],[-27,-10],[-14,-19],[28,-8],[-16,-6],[-16,-16],[-11,-4],[-30,9],[-31,-2],[12,11],[42,-2],[14,7],[-18,22],[5,10],[28,14],[51,13],[29,12],[19,0],[3,8],[10,-7]],[[4490,2067],[30,-20],[40,-16],[-19,-21],[-33,-22],[-30,-5],[9,-29],[21,-30]],[[4448,1936],[-14,32],[-47,11],[6,14],[-30,-1],[-45,12],[-14,18],[-27,2]],[[4277,2024],[-8,7],[26,1],[24,-8],[31,12],[-47,14],[16,15],[30,10],[18,1],[17,-6],[43,-21],[41,7],[22,11]],[[4471,1778],[-17,-3],[-10,4],[-22,26],[-24,9],[-22,0],[-46,-6],[-16,-17],[-8,-14],[-10,-2],[-13,15]],[[4283,1790],[11,0],[13,14],[3,11],[14,0],[21,16],[-7,8],[18,5],[25,-1],[19,4],[-13,15],[-23,17],[-7,12],[18,2],[3,9],[-35,7],[-7,12],[-44,0],[8,6]],[[4300,1927],[41,1]],[[4279,1805],[-13,20],[-22,10],[7,15],[-45,-5],[-33,2]],[[4173,1847],[-33,8],[14,4],[24,-8],[32,-1],[30,10],[12,-1],[9,-9],[2,-16],[14,-7],[11,-21],[-9,-1]],[[4752,1776],[-18,5],[-27,-6],[-23,23],[2,17]],[[4733,1903],[-1,12],[28,6],[5,9],[44,19],[28,3],[52,15],[17,10],[24,6],[24,14],[43,7],[21,17],[-5,17],[20,12],[-15,33],[-3,20]],[[5015,2103],[12,2],[12,-9],[-11,-13],[11,-22],[3,-15],[-17,-12],[3,-16],[-22,-14],[3,-4],[-56,-12],[-73,-28],[-48,-14],[-20,2],[-33,-20],[-16,-11],[-12,-3],[1,-16],[-20,-18],[17,-7],[-15,-4],[-5,-9],[-30,-30],[10,-19],[11,-4],[37,-1],[26,19],[8,-3],[1,-13],[11,-18],[-7,-15],[-44,0]],[[4752,1776],[2,-12],[-8,-4],[4,-17]],[[4750,1743],[-36,-5],[32,-35],[-26,-1],[-23,4],[-67,78]],[[4630,1784],[-14,16]],[[4300,1927],[-21,8],[-15,12],[-44,8],[1,26],[25,27],[14,3],[17,13]],[[4607,1916],[-11,14],[18,21],[18,11],[-1,16],[14,11],[3,12],[14,11],[43,16],[11,11],[2,25],[17,4],[33,-1],[27,14],[23,7],[12,8],[-1,15],[42,15],[7,10],[-6,8],[5,12],[-31,31]],[[4846,2187],[22,1],[12,6],[28,-9],[-7,-5],[11,-9],[3,-19],[-27,1],[-8,-29],[-11,-8],[-30,-10],[1,-12],[-14,-8],[-57,-23],[-32,-4],[-13,-20],[1,-14],[21,-9],[38,-5],[9,7],[-25,8],[8,5],[53,-5],[22,-6],[-5,-9],[16,-15],[0,-14],[14,-2],[71,21],[37,6],[20,11],[-5,16],[23,20],[-18,47],[-26,-4],[-13,3],[17,6],[19,33],[23,-19],[1,-10],[-10,-7]],[[4490,2067],[10,5],[19,-17],[44,-18],[23,3],[-20,-21],[-14,-8],[-6,-14],[17,-10],[35,22],[29,-1],[29,19],[24,8],[-4,10],[-22,13],[-3,11],[14,1],[10,10],[30,11],[-4,23],[-25,3],[-25,9],[20,26],[62,12],[23,0],[0,6],[25,12],[11,18],[28,2],[18,-6],[8,-9]],[[4310,65],[-5,-6],[27,-6],[48,8],[94,4],[26,3],[-9,-10],[66,-7],[17,2],[2,-8],[-41,-8],[-46,-11],[-21,1],[-3,12],[-66,-4],[3,-12],[-41,-1],[7,-21],[-33,15],[-13,-3],[-41,28],[-22,-4],[-10,7],[0,16],[23,1],[-1,8],[18,2],[32,17],[-13,16],[36,4],[5,-11],[-8,-9],[-31,-23]],[[4750,1743],[-10,-8],[5,-7],[77,15],[29,-20],[-4,-21],[-49,-14],[-16,-11],[22,-24],[24,-13],[24,-17],[23,-13],[-26,-2],[-25,19],[-44,30],[-16,27],[-21,14],[-19,0],[-50,6],[-30,6],[-32,24],[-34,1],[-22,-9],[-39,3],[-3,-4],[-25,1],[-3,-7],[-22,-12],[-12,-17],[-19,-4],[-20,1],[-14,6]],[[4399,1693],[32,0],[15,8],[-3,17],[17,12],[2,17],[68,29],[100,8]],[[4279,1805],[4,-15]],[[4399,1693],[-14,9],[-40,9],[-12,-11],[-29,-8],[-26,12],[-14,2],[-3,-7],[-10,7],[6,11],[26,13],[17,-1],[38,-11],[19,0],[24,-6],[10,-8],[17,3],[20,23],[3,15],[14,2],[-11,7],[-22,-4],[-27,24],[-30,6],[-54,-18],[-18,2],[-12,12],[2,7],[-10,19],[-20,7],[12,7],[-24,14],[-3,13],[-57,-3],[2,7]],[[2342,4446],[5,-17],[-7,-11],[-31,-14],[0,-15],[-10,-8],[-16,-26],[27,-5],[-7,-10],[-21,-10],[-40,-5],[-11,6],[-20,3],[16,36],[8,5],[1,19],[14,31],[23,20],[22,-1],[15,11],[32,-9]],[[796,2161],[8,-4],[-9,-14],[45,-15],[34,-5],[24,13],[28,1],[52,11],[5,13],[12,4],[-11,-23],[-25,-9],[5,-5],[38,-14],[22,-1],[9,14],[-12,22],[17,3],[2,-15],[13,-19],[-16,-10],[17,-7],[-31,-23],[-23,3],[13,15],[-23,-2],[-5,6],[-92,1],[-43,-17],[-21,11],[-11,-25],[-10,-4],[-48,16],[-16,-1],[-29,13],[32,15],[11,-4],[28,8],[3,7],[-35,1],[-26,8],[-29,15],[-10,-5],[-20,6],[-3,14],[27,1],[13,5],[37,-5],[23,13],[30,-12]],[[17,2645],[40,-2],[5,-11],[27,-5],[-5,-29],[10,3],[21,-11],[28,-6],[12,-8],[1,-13],[14,-10],[-16,-5],[-19,8],[-22,1],[-35,14],[-24,5],[-1,-8],[-17,-6],[-34,17],[7,8],[44,0],[1,22],[-31,10],[-22,20],[2,7],[14,-1]],[[9999,9277],[-18,-6],[-9,2],[-46,-13],[-53,-13],[-36,-11],[-11,-8],[6,-5],[-25,-10],[3,-7],[-30,5],[-25,-5],[-44,-2],[-45,-6],[20,11],[22,5],[83,10],[-16,15],[2,17],[40,-1],[37,13],[31,5],[60,15],[24,15],[7,-11],[23,-15]],[[9608,9183],[-38,-10],[-71,-1],[-22,-3],[-7,-6],[-56,-24],[-11,-19],[-8,1],[-13,-17],[-25,-15],[5,-3],[-27,-10],[4,11],[34,15],[12,12],[8,22],[8,-1],[18,23],[36,17],[35,10],[47,-2],[46,0],[36,7],[-5,5],[26,6],[3,-9],[-35,-9]]]}
