{"type":"Topology","bbox":[-72.41988446280476,8.352660361041984,-72.40318294029174,8.379018572144897],"transform":{"scale":[0.0000016703192832300384,0.0000026360847187631795],"translate":[-72.41988446280476,8.352660361041984]},"objects":{"municipios":{"type":"GeometryCollection","geometries":[{"type":"Polygon","arcs":[[0,1,2]],"properties":{"codigo":"54553100000000000101","sector":"545531000000000001","pcode":"CO54553","area_m2":133099}},{"type":"Polygon","arcs":[[3,-1,4]],"properties":{"codigo":"54553100000000000102","sector":"545531000000000001","pcode":"CO54553","area_m2":78540}},{"type":"Polygon","arcs":[[5,6]],"properties":{"codigo":"54553100000000000105","sector":"545531000000000001","pcode":"CO54553","area_m2":125968}},{"type":"Polygon","arcs":[[7,8,9,-2,-4]],"properties":{"codigo":"54553100000000000103","sector":"545531000000000001","pcode":"CO54553","area_m2":278911}},{"type":"Polygon","arcs":[[10,-6,11,-9]],"properties":{"codigo":"54553100000000000104","sector":"545531000000000001","pcode":"CO54553","area_m2":263766}},{"type":"Polygon","arcs":[[12]],"properties":{"codigo":"54553200101001000101","sector":"545532001010010001","pcode":"CO54553","area_m2":23521}}]}},"arcs":[[[9392,4740],[-2219,-776]],[[7173,3964],[-255,116],[-498,605]],[[6420,4685],[676,577],[160,169],[296,165],[174,-25],[563,-336],[481,-257],[622,-238]],[[6982,3148],[-67,457],[-152,204],[410,155]],[[9392,4740],[517,-93],[90,-112],[-278,-217],[-671,-214],[-685,-149],[-611,-209],[-369,-251],[-289,-360],[-114,13]],[[3519,2349],[1033,-327],[-812,-1032]],[[3740,990],[-1007,317],[321,428],[-579,180],[-240,5],[71,182],[-473,152],[-176,189],[330,365],[1523,-471],[9,12]],[[6982,3148],[-51,-162],[51,-141],[-253,-113],[-409,-333],[-420,-275],[-326,-257]],[[5574,1867],[70,109],[7,235],[-43,381],[-439,174],[-333,-391],[-1007,336]],[[3829,2711],[-53,36],[244,294],[264,228],[-157,125],[73,400],[-124,236],[744,129],[762,167],[712,252],[126,107]],[[5574,1867],[-551,-368],[-305,-447],[-277,-338],[261,-94],[107,-106],[-133,-94],[-383,106],[-256,-354],[71,-22],[-93,-150],[-936,159],[-993,254],[-291,-408],[-1795,434],[357,510],[482,-115],[67,73],[424,761],[624,-158],[-521,-820],[1104,-282],[242,301],[586,-197],[375,478]],[[3519,2349],[310,362]],[[1018,9775],[23,-256],[-60,-13],[173,-244],[324,-359],[-39,-369],[55,-146],[-200,20],[-305,899],[-148,-43],[-33,193],[115,43],[-395,5],[-26,120],[155,119],[226,255],[65,-87],[-87,-111],[157,-26]]]}
