{"type":"Topology","bbox":[-72.5740546854177,7.711339171177489,-72.48898274896328,7.869183216967643],"transform":{"scale":[0.0000085080444498876,0.00001578598317733311],"translate":[-72.5740546854177,7.711339171177489]},"objects":{"municipios":{"type":"GeometryCollection","geometries":[{"type":"Polygon","arcs":[[0]],"properties":{"codigo":"54405200103001000101","sector":"544052001030010001","pcode":"CO54405","area_m2":44404}},{"type":"Polygon","arcs":[[1]],"properties":{"codigo":"54405200104010000101","sector":"544052001040100001","pcode":"CO54405","area_m2":190618}},{"type":"Polygon","arcs":[[2,3]],"properties":{"codigo":"54405200104007000101","sector":"544052001040070001","pcode":"CO54405","area_m2":244665}},{"type":"Polygon","arcs":[[4,5]],"properties":{"codigo":"54405200104008000101","sector":"544052001040080001","pcode":"CO54405","area_m2":167180}},{"type":"Polygon","arcs":[[-5,6,-3,7]],"properties":{"codigo":"54405200104009000101","sector":"544052001040090001","pcode":"CO54405","area_m2":726595}},{"type":"Polygon","arcs":[[8]],"properties":{"codigo":"54405200102003000101","sector":"544052001020030001","pcode":"CO54405","area_m2":137415}},{"type":"Polygon","arcs":[[9]],"properties":{"codigo":"54405200101004000101","sector":"544052001010040001","pcode":"CO54405","area_m2":42416}},{"type":"Polygon","arcs":[[10]],"properties":{"codigo":"54405200104006000101","sector":"544052001040060001","pcode":"CO54405","area_m2":81204}},{"type":"Polygon","arcs":[[11]],"properties":{"codigo":"54405200104011000101","sector":"544052001040110001","pcode":"CO54405","area_m2":97286}},{"type":"Polygon","arcs":[[12,13,14,15,16,17]],"properties":{"codigo":"54405100000000001301","sector":"544051000000000013","pcode":"CO54405","area_m2":893741}},{"type":"Polygon","arcs":[[18,19,20,21]],"properties":{"codigo":"54405100000000002001","sector":"544051000000000020","pcode":"CO54405","area_m2":58397}},{"type":"Polygon","arcs":[[22,23,24,25]],"properties":{"codigo":"54405100000000002401","sector":"544051000000000024","pcode":"CO54405","area_m2":189233}},{"type":"Polygon","arcs":[[26,27,28,-25,29,30]],"properties":{"codigo":"54405100000000002403","sector":"544051000000000024","pcode":"CO54405","area_m2":208463}},{"type":"Polygon","arcs":[[31,32,33,34,35]],"properties":{"codigo":"54405100000000001801","sector":"544051000000000018","pcode":"CO54405","area_m2":35535}},{"type":"Polygon","arcs":[[36,37,-21,38,39,40,41,-33,42,43]],"properties":{"codigo":"54405100000000001102","sector":"544051000000000011","pcode":"CO54405","area_m2":300581}},{"type":"Polygon","arcs":[[44,45,46,47,48]],"properties":{"codigo":"54405100000000002201","sector":"544051000000000022","pcode":"CO54405","area_m2":100051}},{"type":"Polygon","arcs":[[49,50,51]],"properties":{"codigo":"54405100000000000702","sector":"544051000000000007","pcode":"CO54405","area_m2":158556}},{"type":"Polygon","arcs":[[52,53,54]],"properties":{"codigo":"54405100000000001202","sector":"544051000000000012","pcode":"CO54405","area_m2":136543}},{"type":"Polygon","arcs":[[-20,55,56,-39]],"properties":{"codigo":"54405100000000002002","sector":"544051000000000020","pcode":"CO54405","area_m2":27730}},{"type":"Polygon","arcs":[[-18,57,-26,-29,58]],"properties":{"codigo":"54405100000000002402","sector":"544051000000000024","pcode":"CO54405","area_m2":172412}},{"type":"Polygon","arcs":[[59,60,61,62,63,64,65]],"properties":{"codigo":"54405100000000000303","sector":"544051000000000003","pcode":"CO54405","area_m2":690646}},{"type":"Polygon","arcs":[[66,-54,67,68,69,70]],"properties":{"codigo":"54405100000000001401","sector":"544051000000000014","pcode":"CO54405","area_m2":146244}},{"type":"Polygon","arcs":[[71,72]],"properties":{"codigo":"54405100000000000101","sector":"544051000000000001","pcode":"CO54405","area_m2":125126}},{"type":"Polygon","arcs":[[73,74,75,76,77]],"properties":{"codigo":"54405100000000000801","sector":"544051000000000008","pcode":"CO54405","area_m2":121391}},{"type":"Polygon","arcs":[[78,79,-48,80,81]],"properties":{"codigo":"54405100000000000401","sector":"544051000000000004","pcode":"CO54405","area_m2":161860}},{"type":"Polygon","arcs":[[82,-75,83,84,85]],"properties":{"codigo":"54405100000000000603","sector":"544051000000000006","pcode":"CO54405","area_m2":135236}},{"type":"Polygon","arcs":[[86,87,-68,88,89,90]],"properties":{"codigo":"54405100000000002602","sector":"544051000000000026","pcode":"CO54405","area_m2":186959}},{"type":"Polygon","arcs":[[-14,91,-27,92,93]],"properties":{"codigo":"54405100000000002101","sector":"544051000000000021","pcode":"CO54405","area_m2":282682}},{"type":"Polygon","arcs":[[94,95,96,97,-50]],"properties":{"codigo":"54405100000000000701","sector":"544051000000000007","pcode":"CO54405","area_m2":164495}},{"type":"Polygon","arcs":[[98,99]],"properties":{"codigo":"54405100000000001205","sector":"544051000000000012","pcode":"CO54405","area_m2":176394}},{"type":"Polygon","arcs":[[100,-71,101,102,103]],"properties":{"codigo":"54405100000000001204","sector":"544051000000000012","pcode":"CO54405","area_m2":83906}},{"type":"Polygon","arcs":[[104,-84,-74,105]],"properties":{"codigo":"54405100000000000802","sector":"544051000000000008","pcode":"CO54405","area_m2":119749}},{"type":"Polygon","arcs":[[106,-35,107,108,109,110,-16]],"properties":{"codigo":"54405100000000002501","sector":"544051000000000025","pcode":"CO54405","area_m2":160981}},{"type":"Polygon","arcs":[[-92,-13,-59,-28]],"properties":{"codigo":"54405100000000002404","sector":"544051000000000024","pcode":"CO54405","area_m2":142582}},{"type":"Polygon","arcs":[[111,-43,-32,112,113]],"properties":{"codigo":"54405100000000001601","sector":"544051000000000016","pcode":"CO54405","area_m2":53506}},{"type":"Polygon","arcs":[[-37,114,-114,115]],"properties":{"codigo":"54405100000000001901","sector":"544051000000000019","pcode":"CO54405","area_m2":154595}},{"type":"Polygon","arcs":[[116,-81,-47,117,118]],"properties":{"codigo":"54405100000000000305","sector":"544051000000000003","pcode":"CO54405","area_m2":492994}},{"type":"Polygon","arcs":[[119,-108,-34,-42,120,121]],"properties":{"codigo":"54405100000000001101","sector":"544051000000000011","pcode":"CO54405","area_m2":185733}},{"type":"Polygon","arcs":[[122,-60,123,124,-72]],"properties":{"codigo":"54405100000000000301","sector":"544051000000000003","pcode":"CO54405","area_m2":263693}},{"type":"Polygon","arcs":[[125,-65]],"properties":{"codigo":"54405100000000000302","sector":"544051000000000003","pcode":"CO54405","area_m2":21805}},{"type":"Polygon","arcs":[[126,127,-99,128,129,-55,-67,-101,130]],"properties":{"codigo":"54405100000000001201","sector":"544051000000000012","pcode":"CO54405","area_m2":284644}},{"type":"Polygon","arcs":[[131,-91,132,133]],"properties":{"codigo":"54405100000000002603","sector":"544051000000000026","pcode":"CO54405","area_m2":100529}},{"type":"Polygon","arcs":[[134,-97,135,136,-45]],"properties":{"codigo":"54405100000000000601","sector":"544051000000000006","pcode":"CO54405","area_m2":117081}},{"type":"Polygon","arcs":[[137,-62,138]],"properties":{"codigo":"54405100000000000306","sector":"544051000000000003","pcode":"CO54405","area_m2":247899}},{"type":"Polygon","arcs":[[-88,139,-69]],"properties":{"codigo":"54405100000000001402","sector":"544051000000000014","pcode":"CO54405","area_m2":150123}},{"type":"Polygon","arcs":[[140,-85,-105,141,-110]],"properties":{"codigo":"54405100000000000803","sector":"544051000000000008","pcode":"CO54405","area_m2":141389}},{"type":"Polygon","arcs":[[-111,-142,-106,-78,142,-17]],"properties":{"codigo":"54405100000000002301","sector":"544051000000000023","pcode":"CO54405","area_m2":87821}},{"type":"Polygon","arcs":[[143,-89,-53,-130,144]],"properties":{"codigo":"54405100000000001203","sector":"544051000000000012","pcode":"CO54405","area_m2":238805}},{"type":"Polygon","arcs":[[145,-134,146]],"properties":{"codigo":"54405100000000002604","sector":"544051000000000026","pcode":"CO54405","area_m2":111603}},{"type":"Polygon","arcs":[[-41,-103,147,-121]],"properties":{"codigo":"54405100000000001501","sector":"544051000000000015","pcode":"CO54405","area_m2":96176}},{"type":"Polygon","arcs":[[-138,148,149,150,-82,-117,-63]],"properties":{"codigo":"54405100000000000304","sector":"544051000000000003","pcode":"CO54405","area_m2":714746}},{"type":"Polygon","arcs":[[-96,151,-76,-83,152,153,-136]],"properties":{"codigo":"54405100000000000602","sector":"544051000000000006","pcode":"CO54405","area_m2":96703}},{"type":"Polygon","arcs":[[154,-51,-98,-135,-49,-80,155]],"properties":{"codigo":"54405100000000000402","sector":"544051000000000004","pcode":"CO54405","area_m2":173342}},{"type":"Polygon","arcs":[[-44,-112,-115]],"properties":{"codigo":"54405100000000001701","sector":"544051000000000017","pcode":"CO54405","area_m2":34417}},{"type":"Polygon","arcs":[[-104,-40,-57,156,-131]],"properties":{"codigo":"54405100000000002004","sector":"544051000000000020","pcode":"CO54405","area_m2":40531}},{"type":"Polygon","arcs":[[-66,-126,-64,-119,157,-124]],"properties":{"codigo":"54405100000000000201","sector":"544051000000000002","pcode":"CO54405","area_m2":264370}},{"type":"Polygon","arcs":[[158,-30,159,-150,160]],"properties":{"codigo":"54405100000000000501","sector":"544051000000000005","pcode":"CO54405","area_m2":218192}},{"type":"Polygon","arcs":[[-141,-109,-120,161,-153,-86]],"properties":{"codigo":"54405100000000000604","sector":"544051000000000006","pcode":"CO54405","area_m2":312029}},{"type":"Polygon","arcs":[[-127,-157,-56,-19,162]],"properties":{"codigo":"54405100000000002003","sector":"544051000000000020","pcode":"CO54405","area_m2":27158}},{"type":"Polygon","arcs":[[-24,-156,-79,-151,-160]],"properties":{"codigo":"54405100000000000502","sector":"544051000000000005","pcode":"CO54405","area_m2":191895}},{"type":"Polygon","arcs":[[-143,-77,-152,-95,-52,-155,-23,-58]],"properties":{"codigo":"54405100000000000703","sector":"544051000000000007","pcode":"CO54405","area_m2":193973}},{"type":"MultiPolygon","arcs":[[[-93,-31,-159,163]],[[164]]],"properties":{"codigo":"54405100000000000503","sector":"544051000000000005","pcode":"CO54405","area_m2":271648}},{"type":"Polygon","arcs":[[165,-147,-133,-90,-144]],"properties":{"codigo":"54405100000000002601","sector":"544051000000000026","pcode":"CO54405","area_m2":284502}}]}},"arcs":[[[3479,2042],[19,2],[42,-21],[-26,-23],[17,-5],[-22,-25],[-31,9],[-38,-35],[-18,-59],[0,-31],[-55,10],[6,27],[-58,8],[15,27],[-42,20],[13,20],[-35,-2],[-44,-29],[-49,25],[235,66],[59,23],[12,-7]],[[2070,848],[-12,-10],[-171,121],[139,88],[43,26],[0,8],[-161,110],[-35,22],[126,48],[32,23],[65,11],[92,-73],[75,-54],[108,-83],[-51,-22],[-51,-28],[-80,-34],[116,-87],[-88,-13],[-62,-13],[-41,-15],[-44,-25]],[[22,527],[234,86],[74,24],[132,52]],[[462,689],[8,-5],[-41,-35],[-24,-29],[-46,-29],[102,-36],[-54,-42],[74,-42],[121,-55],[101,-43],[92,-36],[51,-25],[-197,-83],[99,-70],[-39,-18],[-94,-33],[-20,-12],[-44,-67],[-50,-28],[-40,0],[12,23],[6,36],[-12,88],[27,16],[-29,11],[16,37],[7,46],[-11,57],[7,62],[-10,13],[-199,90],[-18,-3],[-69,-45],[-30,-1],[-56,24],[-40,33],[8,8],[-48,31]],[[558,724],[169,64],[107,47],[59,42],[97,33]],[[990,910],[109,-66],[-50,-58],[139,-73],[-208,-82],[-114,-47],[-76,28],[-133,59],[-99,53]],[[558,724],[-96,-35]],[[22,527],[-22,10],[20,9],[36,49],[41,87],[39,33],[23,36],[-7,13],[17,24],[59,30],[30,-3],[35,-24],[52,12],[11,16],[-6,35],[-44,56],[22,19],[84,35],[22,19],[81,60],[18,6],[35,-8],[37,-18],[49,27],[38,55],[15,-5],[49,44],[85,50],[47,33],[70,35],[95,79],[44,23],[61,44],[27,38],[34,31],[23,-9],[59,-50],[202,-156],[40,-39],[-46,-30],[-121,-94],[-47,-34],[38,-17],[-97,-36],[-191,-80],[-89,-22]],[[5965,4025],[45,-3],[-35,-109],[-76,-232],[-29,-65],[-67,-48],[-96,13],[-25,59],[-26,16],[34,64],[25,74],[-7,48],[15,23],[49,-5],[9,22],[33,-4],[3,23],[-55,14],[38,49],[77,-18],[25,31],[26,9],[37,39]],[[7199,4409],[14,-40],[63,-26],[44,-3],[-13,-46],[-27,-9],[-72,4],[-99,24],[-45,-18],[-45,2],[-55,19],[54,3],[-36,28],[15,9],[24,-7],[3,23],[34,-3],[15,19],[42,4],[84,22],[0,-5]],[[3026,2038],[37,-36],[-53,-3],[-7,-34],[16,-55],[-80,-47],[-87,-74],[-13,-18],[-17,-53],[-38,5],[-76,19],[-59,50],[25,6],[34,50],[-14,2],[26,16],[50,12],[29,-10],[13,9],[33,-3],[16,13],[-39,11],[-5,20],[38,-2],[11,49],[20,18],[-13,14],[41,13],[-4,19],[102,-2],[14,11]],[[2610,1268],[45,-37],[23,3],[39,-21],[-18,-8],[-10,-54],[-81,-24],[17,-19],[55,-10],[-27,-39],[-48,-45],[-14,3],[-55,63],[-53,51],[-16,5],[-33,46],[-69,55],[-45,31],[18,-1],[103,65],[38,8],[131,-72]],[[8729,7668],[220,-27]],[[8949,7641],[218,-27],[34,-8]],[[9201,7606],[-18,-63],[0,-38],[-17,-13],[5,-19],[25,-13],[-23,-10],[-68,2],[8,-15],[42,-22],[77,-16],[71,-25],[33,-4],[37,5],[35,-17],[16,-26],[-68,-22],[-95,-8],[-68,-39],[-159,-33],[-81,0],[-21,8],[-14,-21],[-199,-122],[-339,30],[-29,78],[-89,6],[-3,40],[-27,1],[-10,19],[34,67],[-189,37]],[[8067,7373],[-33,10],[-86,12]],[[7948,7395],[43,75],[94,-15],[22,28],[41,70],[-105,16],[35,65]],[[8078,7634],[93,-15],[31,62],[21,-3],[35,61],[103,-15],[368,-56]],[[7344,6514],[-157,-14]],[[7187,6500],[45,92]],[[7232,6592],[26,53],[293,-56]],[[7551,6589],[38,-56],[3,-17],[-89,-3],[-6,17],[-113,-9],[-40,-7]],[[8209,7880],[128,234],[39,76]],[[8376,8190],[347,-55]],[[8723,8135],[-50,-88],[-83,-160]],[[8590,7887],[-29,-61],[-221,36],[-131,18]],[[9300,7987],[-13,-21],[15,-15],[69,-41],[50,-23],[15,-26],[-42,-7],[-67,32],[-56,15],[-63,23]],[[9208,7924],[0,9],[-49,-1],[-107,12],[-202,27],[-17,-52],[-29,-64]],[[8804,7855],[-214,32]],[[8723,8135],[155,-23],[184,-29],[21,63],[87,-10],[108,-27]],[[9278,8109],[-44,-22],[-17,-24],[28,-46],[49,-16],[6,-14]],[[7237,6984],[-21,-42],[58,-11],[-23,-41]],[[7251,6890],[-96,15],[-23,-40],[-137,27]],[[6995,6892],[52,82]],[[7047,6974],[110,13],[39,8]],[[7196,6995],[41,-11]],[[7475,6741],[89,-10],[53,13],[81,15]],[[7698,6759],[7,-9],[-24,-20],[-40,-11],[-16,-33],[32,-35],[-23,-46],[13,-14],[-23,-15],[-73,13]],[[7232,6592],[-70,9],[-44,11],[-7,-12],[-47,6],[-41,-92]],[[7023,6514],[-242,26]],[[6781,6540],[48,81]],[[6829,6621],[34,59],[132,212]],[[7251,6890],[114,-19]],[[7365,6871],[-66,-107],[50,-8],[8,11],[45,-7],[32,-13],[41,-6]],[[7858,8275],[-43,31],[-67,33],[-30,-43],[-6,35]],[[7712,8331],[-5,45],[40,8],[50,73],[14,-2],[-24,-42],[23,-5],[-1,19],[18,39],[23,18],[-15,15],[54,49],[-2,33],[29,51],[23,28],[17,43],[16,13]],[[7972,8716],[37,12],[64,-14],[26,-18]],[[8099,8696],[-27,-42],[-77,-133]],[[7995,8521],[-137,-246]],[[7916,7792],[34,62],[-93,18],[23,56],[9,35],[22,-3],[44,118],[36,111],[23,58]],[[8014,8247],[116,-20],[135,-21]],[[8265,8206],[-74,-132],[-26,-40],[-48,-99],[-88,-159],[-113,16]],[[7013,6089],[-4,-10],[-58,-34],[-45,-15],[-99,8],[-38,24],[-31,-3],[-97,6],[-11,-41],[-29,-42],[-46,-30],[-62,-24]],[[6493,5928],[-96,72],[-14,30],[59,29],[77,9],[23,20],[-22,28],[-12,37],[33,28]],[[6541,6181],[30,-16],[15,-42],[67,-8],[29,106],[182,-16],[83,-9],[1,-27],[18,-27],[-8,-42],[55,-11]],[[7187,6500],[-31,-2],[-83,9]],[[7073,6507],[-50,7]],[[8078,7634],[34,61],[97,185]],[[8804,7855],[-24,-66],[-51,-121]],[[8888,9853],[13,-53],[25,-44],[18,-54],[38,-40],[6,-16],[-7,-63],[13,-31],[42,-42]],[[9036,9510],[32,-35],[198,-21],[157,-74],[53,45],[156,-59],[-43,-37],[26,-59],[-53,-14],[-21,-37],[-31,-27],[-80,12],[-17,11],[-57,12],[-117,-21],[-13,-34],[-22,-13],[-102,-308]],[[9102,8851],[-106,36],[-18,3],[-18,-71],[-18,-94],[-45,-206]],[[8897,8519],[-47,-12],[-23,9],[3,30],[-23,53],[-50,12],[-43,-6],[1,19],[38,28],[-5,20],[-85,27],[14,10],[51,-6],[35,2],[15,19],[-31,25],[17,8],[56,5],[10,22],[-17,23],[21,17],[84,18],[19,13],[-3,30],[-28,47],[-22,11],[-76,13],[-10,36],[10,28],[30,22],[25,31],[-6,44],[-22,9],[-73,13],[12,20],[73,28],[-5,26],[-43,29],[-1,20],[25,18],[10,36],[-58,31],[-27,33],[-52,20],[-42,33]],[[8654,9433],[61,66]],[[8715,9499],[90,-14],[80,-1],[36,6],[12,21],[-44,39],[-107,34],[-14,-3],[3,-28],[-17,-34],[-19,3]],[[8735,9522],[16,35],[-2,28],[-26,65],[-4,38],[20,50],[22,23],[90,72],[18,19],[19,1]],[[6570,6412],[-57,-32],[-9,-18],[5,-22],[22,-31],[35,-24],[71,-21],[16,-19],[-19,-17],[-93,-47]],[[6493,5928],[-46,-19]],[[6447,5909],[-54,28],[-58,71],[-2,37],[106,43],[21,5],[12,44],[-155,12],[-21,-45],[-6,-32],[-48,4]],[[6242,6076],[35,37],[18,29],[20,94],[-35,32],[-2,20],[29,78],[40,43],[17,-3],[5,29]],[[6369,6435],[104,-7],[63,-19],[34,3]],[[9297,9682],[-45,-1],[-60,4],[-33,14],[-124,67],[-8,18],[19,74],[-24,48]],[[9022,9906],[97,31],[31,17],[60,45],[46,-24],[19,-23],[-3,-18],[-20,-17],[90,-11],[0,-20],[-17,-5],[23,-26],[25,-10],[17,-41],[20,-14],[-19,-16],[-58,-20],[8,-24],[-44,-48]],[[7891,7491],[-301,49],[-172,32]],[[7418,7572],[87,137]],[[7505,7709],[35,56]],[[7540,7765],[117,-21],[11,-27],[182,-22],[9,-17]],[[7859,7678],[-8,-32],[-23,-35],[-25,-14],[-23,-35],[95,-34],[22,-22],[-6,-15]],[[8566,8530],[-22,-32],[-67,-125]],[[8477,8373],[-101,17],[-249,37],[-104,15],[-26,23],[18,52],[-20,4]],[[8099,8696],[60,21],[5,-5]],[[8164,8712],[32,-45],[4,-19],[-31,-54],[10,-19],[26,-8],[26,16],[23,-2],[312,-51]],[[7284,7748],[221,-39]],[[7418,7572],[-107,-176]],[[7311,7396],[-11,-16]],[[7300,7380],[-229,43],[35,52],[27,23],[22,37],[-9,2],[26,49],[13,7],[30,51],[-12,8],[41,54],[-7,1],[47,41]],[[6453,5342],[-31,-4],[-81,6],[-43,7],[-99,3],[-2,73],[43,165]],[[6240,5592],[37,84],[83,132],[47,67],[40,34]],[[6493,5928],[55,-39],[3,-17],[-10,-62]],[[6541,5810],[1,-19],[19,-57]],[[6561,5734],[-12,-37],[-68,-72],[-67,-82],[-39,-37],[-4,-21],[13,-38],[69,-105]],[[8949,7641],[34,121],[222,-28],[-1,9],[-49,5],[-37,31],[-128,31],[-13,13],[6,24],[31,-2],[24,-26],[18,-6],[43,8],[55,-20],[29,-5],[37,14],[0,17],[-25,8],[-44,1],[-33,19],[-6,31],[13,13],[45,7],[38,18]],[[9300,7987],[119,-37],[35,-17],[152,0],[-2,-4]],[[9604,7929],[-29,-78],[-65,-163],[-18,-22],[36,-7],[109,-13],[-12,-32],[50,-8],[55,-65],[-139,19],[-5,7],[-70,4],[-151,17],[-133,22],[-31,-4]],[[7916,7792],[-86,21],[-205,26],[-35,7]],[[7590,7846],[73,114]],[[7663,7960],[79,124],[113,188]],[[7855,8272],[159,-25]],[[7134,6067],[14,14],[-19,27],[6,47],[104,1],[84,7],[-15,25],[-33,2],[-67,-9],[-44,1],[-31,18],[-73,8],[-91,31],[-55,14],[64,6],[34,30],[72,3],[47,29],[59,6],[95,-8]],[[7285,6319],[81,-14],[108,38],[39,-15],[-9,-23],[-67,-5],[39,-25],[-1,-16],[30,18],[38,-21],[15,-37],[41,-20],[-27,-17],[-58,10],[-33,-3],[20,-44],[-11,-30],[18,-13],[36,-5],[74,-33],[-43,-25],[-80,4],[-118,-11],[-38,6],[18,21],[32,10],[-1,26],[-38,15],[-29,1],[-187,-44]],[[6758,6476],[-33,-98],[-84,35],[-71,-1]],[[6369,6435],[-36,0],[-47,-14],[-16,13],[10,13],[-17,34]],[[6263,6481],[119,5],[66,-6],[27,5],[30,83],[276,-28]],[[6781,6540],[-23,-64]],[[7849,7416],[-172,36],[-51,-107],[-9,-4],[-306,55]],[[7891,7491],[4,-3],[-46,-72]],[[8067,7373],[-92,-41],[-125,-41],[-396,-179],[-162,-73],[-96,-44]],[[7047,6974],[-13,5]],[[7034,6979],[-2,25],[40,21],[24,29],[81,125]],[[7177,7179],[190,-36],[44,33],[32,-15],[39,30],[62,59],[45,28],[12,21],[57,15],[25,26],[68,0],[27,27],[31,10],[42,1],[50,27]],[[7901,7405],[47,-10]],[[7553,6841],[-188,30]],[[7237,6984],[429,-71]],[[7666,6913],[-48,-21],[-65,-51]],[[7475,6741],[81,92],[-3,8]],[[7666,6913],[70,11],[40,-2],[79,-17],[307,-62],[41,0],[41,-15],[51,-11],[-53,-33],[10,-19],[-19,-53],[-28,-18],[-42,25],[-11,19],[-52,-13],[3,19],[-34,16],[-59,-1],[-43,-11],[-16,17],[-76,14],[-99,25],[-1,-16],[-27,-18],[-50,-11]],[[8654,9433],[-37,-54],[-51,-93],[-8,-8],[-86,-136],[-84,-143],[-23,-31],[-117,-190],[-29,-37],[-55,-29]],[[7972,8716],[-7,36],[17,22],[1,34],[21,21],[-5,23],[19,37],[-5,38],[-11,7],[-4,44],[-55,61],[-34,26],[6,55],[11,17],[9,48],[-15,12],[64,39],[21,26],[34,16],[49,42],[12,80],[25,34],[43,27],[27,0]],[[8195,9461],[19,-60],[55,-36],[20,-22],[43,14],[84,20],[94,79],[22,2],[122,-25]],[[6694,6982],[137,-29],[203,26]],[[6829,6621],[-146,17],[-146,15],[1,4]],[[6538,6657],[30,14],[30,40],[9,49],[26,51],[-83,14],[53,88],[38,14],[25,33],[28,22]],[[9297,9682],[44,-14],[29,4],[98,-11],[13,-6],[59,-2],[36,-11],[5,-35],[58,-24],[100,-33],[118,-32],[7,-10],[-23,-10],[-59,-38],[-171,61],[-49,-42],[-79,-49],[-186,71],[-52,14],[-28,0],[-65,-19],[-49,1],[-67,13]],[[8888,9853],[13,17]],[[8901,9870],[121,36]],[[8715,9499],[20,23]],[[7051,6444],[123,-12],[17,-9],[53,-6]],[[7244,6417],[32,0],[115,-12],[59,-11],[58,2],[-29,-28],[-54,1],[-2,-12],[-60,11],[-13,-14],[-25,7],[-70,-16],[2,-14],[32,-2],[-4,-10]],[[7134,6067],[-20,-6],[14,-12],[-44,4]],[[7084,6053],[-6,16],[-28,14],[-37,6]],[[6758,6476],[70,-7],[-8,-23],[182,-20],[34,-10],[15,28]],[[6580,5211],[-100,81],[-27,50]],[[6561,5734],[92,4],[-23,-60],[-30,-32],[-22,-56],[-39,-67],[-3,-37],[8,-77]],[[6544,5409],[8,-19],[23,2],[4,-41],[16,-95],[0,-37],[-15,-8]],[[7858,8275],[-3,-3]],[[7663,7960],[-132,26],[4,5],[-88,17]],[[7447,8008],[-8,7],[28,27],[34,14],[41,32],[15,51],[43,17],[25,31],[-27,6],[-4,18],[18,39],[61,42],[27,35],[12,4]],[[9090,8475],[-26,24],[-47,-1],[-23,-35],[-40,-12],[-30,8],[14,48],[-18,14],[-23,-2]],[[9102,8851],[51,-17],[116,54],[56,-8],[44,-36],[-13,-17],[73,-14],[12,-9],[-59,-47],[-22,-86],[-20,-23],[-45,-37],[-20,-54],[-110,-58],[-51,-22],[-24,-2]],[[6240,5592],[-25,2],[-41,73],[-12,14],[-24,59],[-2,67],[-8,17],[38,59],[9,32],[13,1],[11,32],[-21,2],[4,25],[23,44],[37,57]],[[7177,7179],[123,201]],[[7849,7416],[52,-11]],[[7859,7678],[60,-18],[159,-26]],[[7093,5727],[-119,-3],[4,46],[-25,12],[-31,1],[-68,-9],[-74,-1],[-47,12],[-84,-13],[-21,44],[-87,-6]],[[7084,6053],[-13,-11],[-42,-9],[26,-26],[-67,-14],[32,-16],[45,-4],[4,-43],[22,0],[4,-29],[-41,-17],[51,-11],[-4,-18],[36,-13],[10,-20],[-21,-13],[-23,5],[-44,-20],[35,1],[26,-18],[-22,-21],[-5,-29]],[[6800,5392],[-33,-40],[196,-42],[24,-17],[-149,0],[-81,-45],[-55,27],[-26,-22],[23,-8],[-3,-19],[-27,-26],[44,-9],[-32,-33],[-26,-43],[31,-12],[0,-40],[-31,-60],[-169,88],[116,71],[17,27],[-39,22]],[[6544,5409],[221,17],[44,-22],[-9,-12]],[[6263,6481],[-36,24],[-3,24],[38,22],[35,33],[63,29],[31,0],[58,26],[72,21],[17,-3]],[[9090,8475],[-39,-21],[0,-13],[90,-32],[15,-21]],[[9156,8388],[-42,-90],[-128,65],[-38,-62],[-114,18]],[[8834,8319],[23,61],[-117,18],[38,64],[-49,48],[-163,20]],[[7590,7846],[-50,-81]],[[7284,7748],[-6,18]],[[7278,7766],[22,32],[36,25],[-13,8],[58,21],[23,32],[38,36],[26,4],[-23,12],[-41,4],[-2,16],[24,-3],[25,34],[-16,4],[12,17]],[[8376,8190],[-111,16]],[[8477,8373],[-101,-183]],[[7073,6507],[-22,-63]],[[8195,9461],[36,3],[35,12],[70,49],[61,51],[45,45],[20,38],[68,108],[48,82],[96,80],[96,-18],[113,-30],[18,-11]],[[9553,8282],[-28,-26],[-62,-38],[-65,-19],[-71,-38],[-32,2],[-23,-15],[6,-39]],[[8723,8135],[70,120],[41,64]],[[9156,8388],[59,-28],[5,-31],[64,6],[-18,-29],[61,-30],[67,6],[71,31],[56,7],[34,-21],[-2,-17]],[[6694,6982],[-50,14],[77,80],[59,-5],[-19,37],[6,51],[29,42],[36,11],[21,19],[3,25],[28,34],[4,31],[25,30],[36,31],[55,78],[31,33],[37,85],[33,46],[75,57],[45,62],[53,23]],[[7344,6514],[-62,-52],[-32,-18],[-6,-27]],[[9553,8282],[22,-11],[29,4],[15,13],[36,8],[158,-33],[-110,-103],[44,-12],[-68,-50],[-18,-21],[-31,-81],[81,-14],[121,-24],[-3,-19],[-27,-28],[-60,6],[-45,-8],[-74,12],[-19,8]],[[9788,8392],[-88,74],[-61,40],[10,9],[184,36],[17,-12],[149,-53],[-56,-16],[-33,-29],[-88,-46],[-34,-3]],[[7093,5727],[-3,-32],[7,-31],[-26,-5],[44,-41],[0,-22],[-34,-33],[3,-8],[-78,-49],[-32,-37],[-7,-28],[10,-16],[-12,-11],[-33,9],[-45,-19],[-87,-12]]]}
