{"type":"Topology","bbox":[-72.68329144893471,7.018976765733521,-72.50048641387752,7.175592323969474],"transform":{"scale":[0.00001828233173889246,0.000015663122135808878],"translate":[-72.68329144893471,7.018976765733521]},"objects":{"municipios":{"type":"GeometryCollection","geometries":[{"type":"Polygon","arcs":[[0,1,2,3]],"properties":{"codigo":"54174100000000000102","sector":"541741000000000001","pcode":"CO54174","area_m2":71676}},{"type":"Polygon","arcs":[[4,5,6,-1]],"properties":{"codigo":"54174100000000000104","sector":"541741000000000001","pcode":"CO54174","area_m2":78905}},{"type":"Polygon","arcs":[[7,8,-6]],"properties":{"codigo":"54174100000000000105","sector":"541741000000000001","pcode":"CO54174","area_m2":203291}},{"type":"MultiPolygon","arcs":[[[9]],[[10]]],"properties":{"codigo":"54174200401006000101","sector":"541742004010060001","pcode":"CO54174","area_m2":22343}},{"type":"Polygon","arcs":[[-3,11,12]],"properties":{"codigo":"54174100000000000101","sector":"541741000000000001","pcode":"CO54174","area_m2":116987}},{"type":"Polygon","arcs":[[-12,-2,-7,-9,13]],"properties":{"codigo":"54174100000000000103","sector":"541741000000000001","pcode":"CO54174","area_m2":166223}},{"type":"Polygon","arcs":[[14]],"properties":{"codigo":"54174200106002000101","sector":"541742001060020001","pcode":"CO54174","area_m2":36141}},{"type":"Polygon","arcs":[[15]],"properties":{"codigo":"54174200204005000101","sector":"541742002040050001","pcode":"CO54174","area_m2":21237}}]}},"arcs":[[[1256,7585],[-38,2],[-60,16],[7,45],[-125,34]],[[1040,7682],[8,48]],[[1048,7730],[10,47],[41,-12],[3,18]],[[1102,7783],[42,-12],[13,-38],[15,-19],[50,-41],[14,-15],[11,-32],[21,-19],[-12,-22]],[[1256,7585],[-23,-15],[-17,-32],[18,-13],[-26,-7],[-2,9],[-53,5],[-14,5],[-38,-19],[-6,31],[-26,-6],[-13,-14]],[[1056,7529],[-37,5],[5,50]],[[1024,7584],[16,98]],[[1056,7529],[-3,-51],[-16,-25],[15,-24],[-21,-15],[-6,-45],[5,-40],[-14,-45],[-11,0],[9,-29],[21,-24],[29,-12],[6,-57],[-12,-2],[-4,22],[-30,16],[-52,43],[-18,66],[-15,30],[-17,10],[2,30],[-69,-14],[-15,31],[-28,14],[-21,25],[1,25]],[[792,7458],[8,60],[25,28],[59,9],[49,-4],[7,50],[84,-17]],[[39,129],[-2,-19],[58,-7],[21,29],[10,-15],[16,21],[9,-15],[-13,-17],[-24,9],[-26,-53],[-37,-22],[15,-40],[-20,13],[-16,-10],[-5,41],[13,-2],[13,18],[-28,5],[0,22],[-23,2],[4,12],[22,4],[2,36],[11,-12]],[[182,159],[0,0]],[[1048,7730],[-80,22],[-69,22],[-2,-7],[-98,21]],[[799,7788],[18,106],[63,-30],[22,-5],[10,8],[7,70],[10,27],[51,-41],[15,-2],[2,-19],[26,-59],[25,-22],[22,-30],[25,10],[7,-18]],[[792,7458],[-26,10],[5,37],[-20,73],[8,35],[61,-20],[8,56],[-4,23],[16,9],[27,-4],[20,32],[-99,16],[-6,9],[4,44],[13,10]],[[9996,6541],[3,-82],[-12,-2],[2,-28],[-37,4],[0,-18],[-17,-8],[-12,58],[-35,1],[-2,64],[110,11]],[[1672,9985],[5,-9],[-38,-80],[-13,8],[-11,-26],[0,19],[-23,5],[-1,14],[-25,8],[21,31],[42,25],[28,10],[15,-5]]]}
