{"type":"Topology","bbox":[-73.52245566158325,7.607078065901664,-73.223461593364,7.827272312735041],"transform":{"scale":[0.000029902397061631986,0.00002202162684602231],"translate":[-73.52245566158325,7.607078065901664]},"objects":{"municipios":{"type":"GeometryCollection","geometries":[{"type":"Polygon","arcs":[[0]],"properties":{"codigo":"54385200102010000101","sector":"543852001020100001","pcode":"CO54385","area_m2":91416}},{"type":"Polygon","arcs":[[1,2,3]],"properties":{"codigo":"54385100000000000101","sector":"543851000000000001","pcode":"CO54385","area_m2":150840}},{"type":"Polygon","arcs":[[4,-4,5]],"properties":{"codigo":"54385100000000000102","sector":"543851000000000001","pcode":"CO54385","area_m2":54535}},{"type":"Polygon","arcs":[[-6,-3,6]],"properties":{"codigo":"54385100000000000103","sector":"543851000000000001","pcode":"CO54385","area_m2":177052}},{"type":"Polygon","arcs":[[7,8]],"properties":{"codigo":"54385200504001000101","sector":"543852005040010001","pcode":"CO54385","area_m2":158725}},{"type":"Polygon","arcs":[[9,-8]],"properties":{"codigo":"54385200504001000102","sector":"543852005040010001","pcode":"CO54385","area_m2":62342}},{"type":"Polygon","arcs":[[10]],"properties":{"codigo":"54385200404002000101","sector":"543852004040020001","pcode":"CO54385","area_m2":77772}},{"type":"Polygon","arcs":[[11]],"properties":{"codigo":"54385200301003000101","sector":"543852003010030001","pcode":"CO54385","area_m2":113917}},{"type":"Polygon","arcs":[[12]],"properties":{"codigo":"54385200102005000101","sector":"543852001020050001","pcode":"CO54385","area_m2":60373}},{"type":"Polygon","arcs":[[13]],"properties":{"codigo":"54385200502007000101","sector":"543852005020070001","pcode":"CO54385","area_m2":21453}},{"type":"Polygon","arcs":[[14]],"properties":{"codigo":"54385200305008000101","sector":"543852003050080001","pcode":"CO54385","area_m2":31626}},{"type":"Polygon","arcs":[[15]],"properties":{"codigo":"54385200204009000101","sector":"543852002040090001","pcode":"CO54385","area_m2":23758}}]}},"arcs":[[[118,3190],[7,-4],[-43,-127],[-5,8],[-20,-21],[-46,75],[-11,-2],[47,78],[7,-8],[20,32],[44,-31]],[[6565,1371],[-19,-44],[-68,53],[-6,-7],[28,-39],[7,1],[9,-26],[-25,-21],[-59,2],[-3,18],[11,11],[-10,6],[1,16],[-14,-9],[-25,-6],[-17,6],[3,56],[5,26],[30,-2],[1,19],[24,-3],[-1,-13],[28,28],[17,5]],[[6482,1448],[2,-2]],[[6484,1446],[28,-24],[7,-18],[16,12],[6,-14],[18,-9],[6,-22]],[[6537,1491],[17,-23],[26,1],[11,-18],[40,-6],[5,-11],[-33,10],[-24,-1],[-6,-62],[-8,-10]],[[6484,1446],[10,27],[11,-7],[17,31],[15,-6]],[[6482,1448],[-24,11],[-12,15],[10,24],[6,75],[37,118],[10,4],[-8,64],[14,7],[3,-20],[10,3],[-1,-48],[22,42],[1,30],[-15,22],[30,8],[10,-31],[-2,-44],[-14,-23],[-12,-42],[-7,-10],[1,-35],[18,0],[8,-80],[-16,7],[2,-16],[-12,-2],[-10,12],[6,-48]],[[4523,6480],[-2,8],[30,21],[-35,85]],[[4516,6594],[-13,44],[-26,-8],[-9,47],[-9,-4],[-7,25],[-14,-5],[-3,12],[24,10],[-2,9],[62,29],[31,-145],[3,-8],[32,18],[-3,-20],[12,-41],[38,11],[10,-7],[-5,-38],[-20,-25],[-18,-15],[6,-17],[-8,-10],[-19,27],[-19,-3],[-3,12],[-29,-20],[-4,8]],[[4523,6480],[-18,-9],[3,-16],[-35,-12],[-21,-2],[-8,18],[-30,-4],[-3,10],[22,20],[7,-16],[3,16],[13,3],[46,38],[-9,28],[9,25],[14,15]],[[9967,6233],[12,-4],[9,10],[11,-19],[-146,-165],[-19,30],[30,33],[-8,15],[112,125],[6,-10],[-7,-15]],[[8185,3956],[14,-18],[-15,-60],[-14,-18],[-4,-20],[11,-22],[-1,-12],[-23,-23],[-3,-14],[10,-19],[2,-29],[-27,-66],[1,-19],[-17,-2],[10,47],[-6,3],[1,67],[7,18],[-11,2],[-12,18],[-3,27],[10,12],[-6,21],[8,1],[12,48],[2,26],[6,-1],[0,44],[14,-11],[6,12],[28,-12]],[[217,3376],[-12,-18],[-11,17],[-18,-37],[-10,-30],[7,-4],[-18,-42],[-3,-25],[-14,21],[7,20],[-30,15],[-30,30],[24,8],[22,-10],[71,119],[19,-23],[-6,-8],[13,-17],[-11,-16]],[[7012,9995],[17,-16],[-23,-46],[3,-17],[-13,-5],[-19,17],[-3,13],[9,17],[8,35],[9,-8],[12,10]],[[6959,154],[-10,-41],[-12,0],[-23,-35],[-11,-6],[-5,12],[-40,-14],[4,-9],[-16,-15],[-13,-1],[-17,-22],[-14,13],[-12,-11],[-19,-2],[-15,-23],[-3,6],[14,21],[27,14],[34,29],[28,14],[54,16],[17,11],[22,39],[10,4]],[[2852,391],[3,-20],[48,12],[1,-13],[-58,-9],[3,-10],[-47,-14],[-8,8],[-9,-18],[-8,18],[3,13],[37,16],[6,14],[29,3]]]}
