{"type":"Topology","bbox":[-72.72093343067064,7.8615051250627666,-72.71222447713808,7.869602563452848],"transform":{"scale":[8.709824515013237e-7,8.098248214903303e-7],"translate":[-72.72093343067064,7.8615051250627666]},"objects":{"municipios":{"type":"GeometryCollection","geometries":[{"type":"Polygon","arcs":[[0,1,2,3]],"properties":{"codigo":"54680100000000000102","sector":"546801000000000001","pcode":"CO54680","area_m2":44325}},{"type":"Polygon","arcs":[[-4,4]],"properties":{"codigo":"54680100000000000101","sector":"546801000000000001","pcode":"CO54680","area_m2":149712}},{"type":"Polygon","arcs":[[5,-2]],"properties":{"codigo":"54680100000000000103","sector":"546801000000000001","pcode":"CO54680","area_m2":53060}}]}},"arcs":[[[6075,3536],[-1231,-1256]],[[4844,2280],[-731,115],[-1164,742]],[[2949,3137],[1088,2229]],[[4037,5366],[1627,-1650],[411,-180]],[[4037,5366],[1953,3432],[1615,1179],[1779,-294],[615,-531],[-606,-1281],[-1072,-919],[-854,-322],[267,-767],[-1253,-438],[101,-824],[-507,-1065]],[[4844,2280],[-745,-180],[-536,-725],[-380,232],[-1620,-1607],[-228,603],[-672,-421],[-663,400],[174,757],[2326,1281],[449,517]]]}
