{"type":"Topology","bbox":[-72.78280029638535,7.533544280715063,-72.74475752557612,7.610908290390979],"transform":{"scale":[0.00000380465754667737,0.000007737174685060134],"translate":[-72.78280029638535,7.533544280715063]},"objects":{"municipios":{"type":"GeometryCollection","geometries":[{"type":"Polygon","arcs":[[0,1]],"properties":{"codigo":"54223100000000000101","sector":"542231000000000001","pcode":"CO54223","area_m2":86530}},{"type":"Polygon","arcs":[[2,3,4,-1,5]],"properties":{"codigo":"54223100000000000102","sector":"542231000000000001","pcode":"CO54223","area_m2":97746}},{"type":"Polygon","arcs":[[6,7,-4]],"properties":{"codigo":"54223100000000000103","sector":"542231000000000001","pcode":"CO54223","area_m2":35229}},{"type":"Polygon","arcs":[[8,-7,-3]],"properties":{"codigo":"54223100000000000104","sector":"542231000000000001","pcode":"CO54223","area_m2":100459}},{"type":"Polygon","arcs":[[9]],"properties":{"codigo":"54223200201004000101","sector":"542232002010040001","pcode":"CO54223","area_m2":218288}},{"type":"MultiPolygon","arcs":[[[10]],[[11]]],"properties":{"codigo":"54223200201002000101","sector":"542232002010020001","pcode":"CO54223","area_m2":18056}}]}},"arcs":[[[2631,1261],[-50,-99],[12,-56],[71,-60],[-30,-46],[-215,-100]],[[2419,900],[-50,15],[-4,66],[-45,17],[-42,93],[56,4],[-89,134],[-108,56],[-185,-3],[-125,26],[109,102],[68,32],[-9,42],[207,79],[223,-94],[65,-43],[-34,-56],[175,-109]],[[3078,521],[-116,78]],[[2962,599],[-3,46],[-67,62],[-83,13],[-249,5],[-162,15]],[[2398,740],[-57,83],[-3,53],[81,24]],[[2631,1261],[102,-43],[120,-87],[18,-95],[74,-40],[150,-35],[117,-88],[-95,-71],[-10,-138],[-29,-143]],[[2962,599],[-114,-18],[6,-24],[-333,-1],[-58,-129]],[[2463,427],[-99,26],[81,61],[-69,139],[22,87]],[[3078,521],[82,-91],[10,-78],[-54,-73],[-222,24],[-96,-83],[60,-11],[-95,-51],[-82,-140],[-154,-18],[-64,21],[41,37],[55,107],[-201,38],[-76,100],[97,31],[84,93]],[[726,8659],[105,-40],[248,18],[161,-25],[141,-107],[122,-173],[201,-47],[74,-35],[15,-57],[256,-38],[-16,-151],[-73,-43],[-157,-25],[-297,0],[-99,76],[50,95],[-71,53],[-43,76],[-150,39],[-394,-71],[-33,23],[-452,133],[-153,6],[-161,51],[92,52],[133,22],[100,-13],[107,53],[-51,44],[137,66],[81,19],[127,-1]],[[9934,9832],[30,-32],[-121,-55],[-27,-99],[-47,-63],[-139,-75],[-26,36],[58,46],[130,61],[7,34],[-166,77],[-54,54],[227,9],[101,27],[27,-20]],[[9956,9905],[-32,-4],[-15,93],[90,-37],[-43,-52]]]}
