{"type":"Topology","bbox":[-72.48596388887495,7.502761065607714,-72.48088722039279,7.509440249883541],"transform":{"scale":[5.077176199781018e-7,6.679852261052805e-7],"translate":[-72.48596388887495,7.502761065607714]},"objects":{"municipios":{"type":"GeometryCollection","geometries":[{"type":"Polygon","arcs":[[0,1]],"properties":{"codigo":"54347100000000000101","sector":"543471000000000001","pcode":"CO54347","area_m2":80989}},{"type":"Polygon","arcs":[[-1,2]],"properties":{"codigo":"54347100000000000102","sector":"543471000000000001","pcode":"CO54347","area_m2":82135}}]}},"arcs":[[[2609,7179],[1572,-336],[-345,-824],[2892,-699]],[[6728,5320],[40,-995],[-1836,-2319],[1591,-1644],[-1003,-362],[-1189,1145],[163,587],[-2139,558],[748,1912],[-1200,-550],[-613,1230],[-34,1032],[1099,536],[254,729]],[[2609,7179],[-1865,-190],[-713,703],[332,1472],[1245,49],[-259,617],[1181,169],[134,-516],[-924,-102],[-276,-655],[718,-805],[1969,-520],[380,732],[626,-463],[2740,949],[2102,258],[-1471,-2272],[909,-38],[-365,-1333],[-2344,86]]]}
