{"type":"Topology","bbox":[-72.64618649128334,7.265200627761829,-72.6383415704189,7.2727451867899555],"transform":{"scale":[7.845705434986382e-7,7.545313559482178e-7],"translate":[-72.64618649128334,7.265200627761829]},"objects":{"municipios":{"type":"GeometryCollection","geometries":[{"type":"Polygon","arcs":[[0,1]],"properties":{"codigo":"54125100000000000101","sector":"541251000000000001","pcode":"CO54125","area_m2":120227}},{"type":"Polygon","arcs":[[-1,2]],"properties":{"codigo":"54125100000000000102","sector":"541251000000000001","pcode":"CO54125","area_m2":157275}}]}},"arcs":[[[5760,1179],[-444,2307],[788,441],[-396,909],[-881,1599]],[[4827,6435],[271,418],[731,-665],[333,255],[772,1364],[434,-764],[173,-608],[-32,-605],[-561,-365],[294,-402],[-328,-230],[726,-1415],[232,-736],[587,41],[660,597],[880,-1348],[-2983,-1843],[-983,-129],[-67,884],[-206,295]],[[5760,1179],[-621,34],[-854,-211],[-486,1448],[-646,964],[302,176],[-632,1150],[-153,-48],[-719,1235],[-335,1065],[-289,282],[-27,466],[-692,123],[-407,276],[-130,752],[255,-591],[740,-340],[796,6],[333,391],[367,-197],[849,-115],[419,1118],[64,836],[1198,-109],[743,-928],[-471,-462],[213,-235],[-1032,-824],[-21,-839],[303,-167]]]}
