{"type":"Topology","bbox":[-72.64295847358574,7.43274953254121,-72.63135924312047,7.566213903726823],"transform":{"scale":[0.0000011600390504315441,0.000013347771895750869],"translate":[-72.64295847358574,7.43274953254121]},"objects":{"municipios":{"type":"GeometryCollection","geometries":[{"type":"Polygon","arcs":[[0]],"properties":{"codigo":"54520200201001000101","sector":"545202002010010001","pcode":"CO54520","area_m2":89375}},{"type":"MultiPolygon","arcs":[[[1]],[[2]]],"properties":{"codigo":"54520200101002000101","sector":"545202001010020001","pcode":"CO54520","area_m2":51076}},{"type":"Polygon","arcs":[[3]],"properties":{"codigo":"54520100000000000101","sector":"545201000000000001","pcode":"CO54520","area_m2":446229}}]}},"arcs":[[[9999,9933],[-16,-41],[-420,-12],[-98,-18],[-687,0],[-3,-42],[170,-29],[189,-1],[33,-24],[189,-10],[-198,-33],[99,-6],[-152,-28],[-37,-65],[-299,3],[-13,-94],[-567,11],[100,98],[-225,61],[-531,50],[-116,18],[52,86],[293,3],[857,35],[191,17],[23,19],[557,23],[308,31],[207,10],[94,-62]],[[6037,9979],[464,-26],[469,-52],[154,-10],[-521,-45],[-185,15],[138,13],[-1014,1],[-238,22],[184,77],[237,25],[312,-20]],[[5197,9910],[-222,-4],[-239,-33],[-59,-34],[-278,-17],[-275,2],[-48,13],[404,14],[-685,52],[-118,14],[303,29],[424,16],[371,21],[321,-41],[101,-32]],[[2354,573],[-28,-33],[348,-15],[705,-45],[1441,33],[105,-4],[358,-46],[400,35],[397,-53],[-151,-61],[143,-41],[224,-17],[138,-43],[-206,-40],[31,-14],[431,-14],[-413,-75],[-9,-37],[-119,-35],[390,-24],[-250,-20],[-96,3],[-81,30],[-316,20],[-219,-27],[-153,7],[42,18],[-392,11],[35,34],[-137,90],[-417,0],[-192,-83],[-900,-12],[47,-27],[-110,-18],[-330,3],[70,-43],[-261,-6],[-260,4],[-578,-28],[-271,9],[-3,25],[206,42],[-231,42],[-556,38],[18,18],[-203,50],[-365,20],[-364,6],[-235,34],[-23,44],[279,41],[274,53],[178,60],[-113,28],[343,10],[194,21],[329,-1],[292,13],[187,-6],[39,28],[338,-2]]]}
