{"type":"Topology","bbox":[-72.79977739170448,7.865786022112826,-72.7557418425697,7.922824805838663],"transform":{"scale":[0.000004403995313008893,0.000005704448817465406],"translate":[-72.79977739170448,7.865786022112826]},"objects":{"municipios":{"type":"GeometryCollection","geometries":[{"type":"Polygon","arcs":[[0]],"properties":{"codigo":"54313200105005000101","sector":"543132001050050001","pcode":"CO54313","area_m2":22316}},{"type":"Polygon","arcs":[[1]],"properties":{"codigo":"54313200106006000101","sector":"543132001060060001","pcode":"CO54313","area_m2":42186}},{"type":"Polygon","arcs":[[2]],"properties":{"codigo":"54313200106007000101","sector":"543132001060070001","pcode":"CO54313","area_m2":87776}},{"type":"Polygon","arcs":[[3,4,5,6]],"properties":{"codigo":"54313100000000000102","sector":"543131000000000001","pcode":"CO54313","area_m2":91384}},{"type":"Polygon","arcs":[[-5,7,8,9]],"properties":{"codigo":"54313100000000000103","sector":"543131000000000001","pcode":"CO54313","area_m2":105186}},{"type":"Polygon","arcs":[[10,11,12,-8]],"properties":{"codigo":"54313100000000000201","sector":"543131000000000002","pcode":"CO54313","area_m2":114803}},{"type":"Polygon","arcs":[[13,-11,-4,14]],"properties":{"codigo":"54313100000000000202","sector":"543131000000000002","pcode":"CO54313","area_m2":152893}},{"type":"Polygon","arcs":[[-12,-14,15]],"properties":{"codigo":"54313100000000000203","sector":"543131000000000002","pcode":"CO54313","area_m2":262344}},{"type":"Polygon","arcs":[[-6,-10,16]],"properties":{"codigo":"54313100000000000101","sector":"543131000000000001","pcode":"CO54313","area_m2":112382}}]}},"arcs":[[[178,4622],[47,-40],[65,-167],[111,3],[-7,-54],[-212,-86],[-69,3],[-113,159],[61,41],[-2,112],[119,29]],[[2844,1885],[-11,-36],[81,-95],[26,-73],[-79,5],[82,-47],[9,-71],[-111,59],[-155,-26],[-241,259],[0,68],[266,137],[33,34],[100,-214]],[[9911,343],[88,-313],[-293,-30],[-177,4],[-79,39],[-304,6],[-61,53],[-71,139],[131,48],[441,53],[231,135],[94,-134]],[[3582,9371],[-327,-138],[-121,-85],[-158,-24],[-81,-73],[-173,-46]],[[2722,9005],[-25,30],[95,22],[67,62],[-72,120],[9,59],[-102,78],[26,99]],[[2720,9475],[76,-9],[81,85],[227,54],[52,-11],[162,101]],[[3318,9695],[126,-203],[138,-121]],[[2722,9005],[-148,-18],[-137,-51],[-202,100],[-140,-86],[-110,-20]],[[1985,8930],[-25,24],[139,74],[72,7],[69,139],[-66,74],[-133,-1],[-51,192]],[[1990,9439],[213,20],[138,57],[147,-28],[102,23],[130,-36]],[[2722,9005],[223,-186],[286,-185],[101,2]],[[3332,8636],[-239,-100],[-202,2],[-250,113],[-318,-20],[-72,33],[-126,8],[-163,69],[-67,2]],[[1895,8743],[0,40],[140,117],[-50,30]],[[3966,8936],[-23,-52],[-187,-54],[-120,-8],[-172,-89],[-77,-85],[-55,-12]],[[3582,9371],[50,-79],[213,-109],[80,31],[2,-144],[-55,-67],[94,-67]],[[3966,8936],[207,-208],[-104,-107],[-17,-90],[-63,-67],[-223,-41],[-94,-58],[-168,1],[-298,53],[-211,-44],[-146,-64],[-4,-47],[-92,-22],[-98,-82],[-130,-6],[-106,-64],[-189,14],[-57,-71],[-48,1],[-88,320],[-152,68],[-81,153],[-9,69],[42,75],[58,24]],[[1990,9439],[-32,92],[-87,118],[195,62],[143,127],[411,161],[82,-153],[58,18],[205,-259],[243,41],[89,71],[21,-22]]]}
