{"type":"Topology","bbox":[-73.29177717769,8.43299409561586,-73.17900355004474,8.610372296811846],"transform":{"scale":[0.000011278490613586737,0.000017739594079006424],"translate":[-73.29177717769,8.43299409561586]},"objects":{"municipios":{"type":"GeometryCollection","geometries":[{"type":"Polygon","arcs":[[0,1,2,3,4,5,6]],"properties":{"codigo":"54800100000000000101","sector":"548001000000000001","pcode":"CO54800","area_m2":91966}},{"type":"Polygon","arcs":[[7,-4,8]],"properties":{"codigo":"54800100000000000102","sector":"548001000000000001","pcode":"CO54800","area_m2":42654}},{"type":"Polygon","arcs":[[-6,9]],"properties":{"codigo":"54800100000000000106","sector":"548001000000000001","pcode":"CO54800","area_m2":14485}},{"type":"Polygon","arcs":[[10,-1,11]],"properties":{"codigo":"54800100000000000105","sector":"548001000000000001","pcode":"CO54800","area_m2":61094}},{"type":"Polygon","arcs":[[12,13]],"properties":{"codigo":"54800200203022000102","sector":"548002002030220001","pcode":"CO54800","area_m2":36542}},{"type":"Polygon","arcs":[[14,-9,-3,15]],"properties":{"codigo":"54800100000000000103","sector":"548001000000000001","pcode":"CO54800","area_m2":65119}},{"type":"Polygon","arcs":[[-16,-2,-11,16]],"properties":{"codigo":"54800100000000000104","sector":"548001000000000001","pcode":"CO54800","area_m2":53152}},{"type":"Polygon","arcs":[[17]],"properties":{"codigo":"54800200202011000101","sector":"548002002020110001","pcode":"CO54800","area_m2":20958}},{"type":"Polygon","arcs":[[18,19,-13,20]],"properties":{"codigo":"54800200203022000101","sector":"548002002030220001","pcode":"CO54800","area_m2":154995}},{"type":"Polygon","arcs":[[-19,21]],"properties":{"codigo":"54800200203022000103","sector":"548002002030220001","pcode":"CO54800","area_m2":38462}},{"type":"MultiPolygon","arcs":[[[22]],[[23]],[[24]],[[25]],[[26]]],"properties":{"codigo":"54800200203025000101","sector":"548002002030250001","pcode":"CO54800","area_m2":26750}},{"type":"MultiPolygon","arcs":[[[27]],[[28]]],"properties":{"codigo":"54800200201026000101","sector":"548002002010260001","pcode":"CO54800","area_m2":58263}},{"type":"Polygon","arcs":[[29]],"properties":{"codigo":"54800200201026000102","sector":"548002002010260001","pcode":"CO54800","area_m2":45195}}]}},"arcs":[[[387,378],[66,-28]],[[453,350],[-76,-58],[40,-19]],[[417,273],[-64,-51],[-38,18],[-32,-25],[79,-39]],[[362,176],[-30,-26],[40,-20],[-35,-33],[1,-35]],[[338,62],[-7,-3],[-39,27],[36,24],[-38,22],[-1,22],[-28,-9],[-5,33],[-12,16],[16,13],[-57,26],[-24,19],[-32,14],[-2,-8],[-43,-3],[-91,-14],[-11,24],[7,15],[37,6],[53,-3],[96,2],[27,13],[38,-22],[54,-14],[30,22],[-36,19],[12,11],[-83,16],[-36,0],[-59,19]],[[140,349],[26,22],[-21,7],[27,33]],[[172,411],[15,-35],[30,-28],[14,8],[24,-13],[36,1],[38,-17],[27,33],[31,18]],[[506,56],[-26,5],[2,-23],[-34,-11],[6,-12],[-49,-13],[-43,-2],[-5,14],[16,22],[-35,26]],[[362,176],[127,-64],[-35,-26],[52,-30]],[[140,349],[-89,21],[52,63],[69,-22]],[[732,510],[-26,-9],[-77,-13],[-42,-12],[-48,-57],[-47,-29],[-39,-40]],[[387,378],[19,19],[31,0],[50,41],[-15,8],[67,55],[3,7],[-50,22],[-9,25],[28,4],[83,29],[21,0],[60,-45],[57,-33]],[[4836,6972],[-31,-28],[-50,4],[-70,1]],[[4685,6949],[2,30],[36,39],[5,20],[29,-12],[-17,27],[23,15],[17,-10],[32,9],[26,-12],[-12,-8],[51,-22],[-50,-47],[9,-6]],[[513,246],[44,-24],[-5,-36],[-36,-7],[-62,-34],[39,6],[70,-27],[28,-34],[-85,-34]],[[417,273],[82,-40],[14,13]],[[732,510],[13,9],[30,-23],[-34,-20],[-41,-7],[-2,-19],[-64,-8],[-32,-31],[-72,-49],[-4,2],[-74,-63],[74,-39],[-13,-16]],[[9823,9973],[66,-3],[29,-16],[6,7],[75,-20],[-23,-11],[-8,-19],[-26,-13],[-51,12],[-7,-11],[-45,14],[20,0],[-8,30],[-35,16],[-22,31],[18,9],[20,-14],[-9,-12]],[[4905,6639],[1,12]],[[4906,6651],[-17,17],[-81,23],[34,13],[-21,5],[3,15],[-24,-1],[-8,-18],[-37,13],[0,29],[-75,25],[-12,26],[-27,11],[0,11],[59,-4],[2,15],[-62,0],[9,22],[20,-1],[-15,17],[9,41],[7,1],[3,38],[12,0]],[[4836,6972],[25,21],[29,3],[16,25],[1,-26],[-15,-15],[14,-3],[23,-42],[-20,13],[-55,0],[-8,-13],[34,-1],[10,-45],[28,-2],[-9,-26],[30,-123],[-26,-3],[1,-14],[58,-5],[95,-27],[6,-10],[-36,-4],[-36,16],[-93,2],[-22,7],[20,-39],[16,-11],[-17,-11]],[[4905,6639],[28,-34],[-12,-18],[31,1],[-43,-33],[15,-13],[-3,-17],[-42,-35],[-21,3],[-9,-20],[-34,4],[-48,-29],[-5,19],[47,51],[26,21],[-21,7],[9,28],[17,9],[22,-9],[18,17],[-32,12],[30,19],[-42,15],[-8,12],[35,14],[43,-12]],[[4196,5909],[-55,-36],[-25,15],[0,15],[-30,25],[38,21],[49,-41],[42,34],[-10,4],[66,76],[18,-10],[-50,-66],[-43,-37]],[[4045,5834],[26,-12],[-28,-16],[-29,25],[19,11],[12,-8]],[[4125,5841],[27,-6],[-30,-24],[-57,30],[27,19],[33,-19]],[[4359,5993],[0,0]],[[4373,6022],[-14,4],[73,64],[14,-5],[-73,-63]],[[5678,9685],[85,-11],[2,-15],[-163,-21],[-30,3],[3,-16],[-40,-7],[-8,10],[-23,-19],[-15,-38],[-15,0],[-7,-40],[-14,1],[-10,50],[-28,31],[23,17],[-26,16],[15,34],[33,8],[61,0],[25,-5],[4,10],[28,4],[93,-7],[7,-5]],[[5361,9678],[-28,20],[29,8],[22,19],[30,-25],[-20,-17],[-33,-5]],[[5301,9622],[87,-104],[-82,-73],[-18,-10],[-44,22],[-26,7],[40,18],[2,21],[-23,51],[-10,41],[20,27],[35,7],[19,-7]]]}
