{"type":"Topology","bbox":[-72.65110697585078,7.600556158791114,-72.60203000096715,7.695296434093395],"transform":{"scale":[0.000004908188307194003,0.000009474975027730896],"translate":[-72.65110697585078,7.600556158791114]},"objects":{"municipios":{"type":"GeometryCollection","geometries":[{"type":"Polygon","arcs":[[0,1]],"properties":{"codigo":"54099100000000000101","sector":"540991000000000001","pcode":"CO54099","area_m2":210842}},{"type":"Polygon","arcs":[[-1,2,3,4]],"properties":{"codigo":"54099100000000000102","sector":"540991000000000001","pcode":"CO54099","area_m2":224351}},{"type":"Polygon","arcs":[[-4,5]],"properties":{"codigo":"54099100000000000103","sector":"540991000000000001","pcode":"CO54099","area_m2":276613}},{"type":"Polygon","arcs":[[6,7,8,9]],"properties":{"codigo":"54099200102002000101","sector":"540992001020020001","pcode":"CO54099","area_m2":129939}},{"type":"Polygon","arcs":[[-7,10]],"properties":{"codigo":"54099200102002000102","sector":"540992001020020001","pcode":"CO54099","area_m2":51407}},{"type":"Polygon","arcs":[[-9,11]],"properties":{"codigo":"54099200102002000103","sector":"540992001020020001","pcode":"CO54099","area_m2":66165}},{"type":"Polygon","arcs":[[12]],"properties":{"codigo":"54099200204005000101","sector":"540992002040050001","pcode":"CO54099","area_m2":124867}}]}},"arcs":[[[116,815],[161,152],[177,183],[328,-83],[463,-142],[115,-44]],[[1360,881],[-132,-70],[-37,6],[-162,-85],[-63,-9],[-87,-45],[-51,-7],[-41,43],[-44,-43],[-70,-7],[6,38],[-92,18],[-136,-20],[-119,-32],[-115,-4],[-107,-24],[-110,14],[67,76],[38,24],[11,61]],[[116,815],[-41,16],[12,21],[-5,90],[15,137],[28,45],[123,-27],[30,25],[50,102],[52,74],[33,97],[36,12]],[[449,1407],[35,-47],[126,-40],[526,-138],[74,65],[211,208]],[[1421,1455],[91,101],[21,-5],[67,66],[85,-33],[-53,-56],[33,-75],[-17,-26],[53,-21],[-60,-73],[11,-23],[-42,-52],[-109,-24],[-37,-29],[-154,-177],[-22,5],[-25,-72],[18,-18],[111,-39],[-32,-23]],[[449,1407],[-13,14],[-144,61],[-60,-44],[-116,47],[-38,54],[92,-4],[98,69],[226,9],[84,27],[22,40],[94,47],[28,25],[211,24],[53,25],[130,38],[50,59],[176,29],[68,-2],[13,-26],[-69,-44],[-41,-112],[35,-29],[-28,-51],[-52,-53],[-10,-116],[163,-39]],[[8474,9918],[14,-74],[63,-27],[169,-51],[122,-30],[68,-30],[103,-19],[56,35],[1,55]],[[9070,9777],[56,1],[20,-31],[-27,-29],[77,-27],[90,-61],[-100,-49],[-120,-36]],[[9066,9545],[-43,-19],[-52,-78],[-14,-42],[77,-23],[-115,-72],[2,-51]],[[8921,9260],[17,-21],[-108,-34],[-59,-9],[-40,55],[-69,38],[-22,-8],[-80,52],[71,22],[15,46],[-48,45],[-58,13],[40,26],[31,59],[51,67],[-73,16],[113,118],[-172,44],[-91,33],[-14,95],[49,1]],[[8474,9918],[-65,61],[43,20],[70,-10],[40,-35],[-1,-24],[-46,-30],[4,-38],[87,-36],[107,-25],[81,8],[105,-23],[-5,-38],[131,-51],[40,24],[-7,84],[48,23],[115,-38],[0,17],[-79,39],[-35,55],[93,1],[57,-51],[157,-68],[99,33],[87,-3],[100,-18],[85,21],[135,-31],[79,15],[-53,-49],[-117,21],[-25,-24],[-124,-3],[-85,-21],[-27,11],[-67,-34],[-46,26],[-40,-34],[-102,49],[34,18],[-52,2],[-199,66],[-29,-19],[3,-32]],[[9066,9545],[101,-23],[65,7],[-109,-44],[42,-17],[88,34],[118,28],[44,43],[35,-7],[33,31],[21,-22],[-69,-81],[12,-11],[-42,-67],[-14,-55],[-91,-76],[-34,-63],[-179,2],[33,56],[-53,-16],[-30,12],[-68,-19],[-48,3]],[[918,594],[49,-1],[34,-26],[6,-39],[50,-57],[-10,-31],[-81,-2],[-48,-28],[29,-26],[-103,-17],[-134,-105],[-68,-17],[58,-77],[-47,-19],[-97,-83],[-187,42],[-33,-29],[-65,-1],[-14,-49],[-35,-29],[-20,15],[17,66],[37,29],[22,85],[-53,-11],[17,29],[-57,17],[20,19],[-10,44],[32,-6],[289,166],[143,37],[-26,22],[87,46],[72,-1],[74,37],[52,0]]]}
