{"type":"Topology","bbox":[-73.28013493495627,8.367072963606773,-73.20320774311108,8.448392488599456],"transform":{"scale":[0.000007693488533371974,0.000008132765775845864],"translate":[-73.28013493495627,8.367072963606773]},"objects":{"municipios":{"type":"GeometryCollection","geometries":[{"type":"Polygon","arcs":[[0,1,2]],"properties":{"codigo":"54670100000000000101","sector":"546701000000000001","pcode":"CO54670","area_m2":80280}},{"type":"Polygon","arcs":[[-2,3,4,5]],"properties":{"codigo":"54670100000000000102","sector":"546701000000000001","pcode":"CO54670","area_m2":121737}},{"type":"Polygon","arcs":[[6,7,-5]],"properties":{"codigo":"54670100000000000103","sector":"546701000000000001","pcode":"CO54670","area_m2":48431}},{"type":"Polygon","arcs":[[8]],"properties":{"codigo":"54670200205017000101","sector":"546702002050170001","pcode":"CO54670","area_m2":64635}},{"type":"Polygon","arcs":[[-1,9,-7,-4]],"properties":{"codigo":"54670100000000000104","sector":"546701000000000001","pcode":"CO54670","area_m2":211046}},{"type":"Polygon","arcs":[[10]],"properties":{"codigo":"54670200203010000101","sector":"546702002030100001","pcode":"CO54670","area_m2":36810}},{"type":"Polygon","arcs":[[11]],"properties":{"codigo":"54670200103004000101","sector":"546702001030040001","pcode":"CO54670","area_m2":63398}},{"type":"Polygon","arcs":[[12]],"properties":{"codigo":"54670200203016000101","sector":"546702002030160001","pcode":"CO54670","area_m2":22385}}]}},"arcs":[[[9790,4008],[-44,30],[-61,18],[-12,25],[-62,52],[-16,46],[43,77]],[[9638,4256],[53,77],[-92,13],[-3,31],[-47,50],[-107,21],[-60,36],[-167,77],[-71,16],[-94,45],[-60,47],[-54,150],[-58,41],[-51,62],[-111,94],[2,94],[18,113],[-43,98],[-76,67]],[[8617,5388],[12,22],[71,-39],[69,-85],[-27,-28],[39,-23],[11,-34],[37,-24],[30,3],[-37,-76],[-53,-24],[-1,-66],[121,-115],[69,-54],[32,-44],[0,-45],[29,-54],[-10,-22],[51,-39],[130,-54],[59,-1],[33,-29],[146,-76],[33,6],[8,27],[36,4],[93,-32],[26,-20],[67,48],[17,-15],[-81,-48],[40,3],[131,-66],[-86,-68],[-60,-86],[49,-61],[-13,-13],[41,-42],[-4,-20],[109,-53],[-44,-37]],[[9638,4256],[-80,16],[-6,24],[-55,1],[8,-34],[-50,16],[-43,33],[-51,3],[-26,36]],[[9335,4351],[35,9],[37,36],[-228,110],[-108,40],[-166,36],[-22,26],[-2,57],[-34,8]],[[8847,4673],[-59,35],[-109,-96],[-78,74],[-73,32],[8,78],[98,-34],[16,38],[211,-72],[10,38],[-50,65],[29,22],[-61,71],[-95,76],[15,29],[-63,-7],[-33,-41],[-20,36],[-4,90],[67,29],[-2,22],[39,32],[-25,110],[-70,72],[19,16]],[[9335,4351],[-52,-41],[-18,-42],[-46,-47],[-10,-29],[-47,-11],[-1,19]],[[9161,4200],[18,107],[38,39],[-78,87],[20,45],[-83,-13],[-60,38],[-11,21],[-120,35],[-28,-70],[-103,41],[11,22],[74,22],[43,30],[-61,-13],[-34,29],[60,53]],[[8260,8123],[28,-48],[64,34],[53,-102],[23,-6],[-67,-68],[0,-47],[20,-55],[-148,-40],[9,36],[-67,12],[-47,-29],[-90,165],[-52,27],[70,71],[36,-28],[86,18],[-10,44],[45,-8],[47,24]],[[9790,4008],[29,-47],[100,-23],[23,-58],[57,-16],[-8,-42],[-43,-9],[-48,48],[-12,55],[-24,-53],[7,-41],[-60,-70],[0,-39],[-66,7],[3,75],[-47,-54],[-43,-4],[-1,-52],[-41,-7],[-29,-36],[-30,21],[34,29],[-47,58],[-80,37],[-48,8],[-47,-21],[-9,23],[-118,-42],[-16,-35],[-4,-67],[-59,-72],[1,-28],[-57,2],[68,164],[-26,74],[-91,13],[-9,17],[148,45],[69,13],[26,41],[56,56],[36,68],[-9,111],[23,10],[26,60],[19,0],[0,43],[-27,16],[-64,2],[0,-70],[-29,-6],[-23,-64],[-28,44],[-59,-86],[-45,32],[-112,20],[7,24],[51,32],[47,-14]],[[2398,9996],[71,-25],[18,-43],[50,1],[60,-40],[-33,-64],[41,-7],[87,-41],[20,23],[53,-30],[-36,-44],[-79,17],[-7,43],[-41,30],[-21,-31],[-12,-56],[-23,34],[-61,-53],[-33,47],[-52,14],[11,67],[-65,129],[52,29]],[[96,875],[38,-28],[-32,-43],[51,-1],[-18,-53],[41,3],[67,-70],[87,-2],[57,-32],[-13,-54],[-91,-5],[-27,23],[-24,-59],[-5,-79],[-84,-30],[-18,-25],[-55,-32],[-10,-51],[27,-55],[-23,-38],[7,-28],[54,-89],[76,-26],[-91,-101],[-18,99],[21,5],[-47,92],[-34,-2],[-13,28],[-19,107],[9,69],[28,11],[28,57],[52,64],[-6,43],[36,-2],[44,80],[2,26],[-47,12],[-99,0],[-34,65],[44,17],[-44,37],[6,48],[52,48],[25,-29]],[[5648,8221],[21,3],[71,-146],[23,-74],[-3,-79],[-33,-78],[3,-39],[78,-47],[21,-42],[-44,-44],[8,80],[-103,42],[14,30],[-10,53],[41,5],[-3,56],[-45,27],[-2,57],[-52,15],[1,55],[24,32],[-29,63],[-22,3],[2,43],[39,-15]]]}
