{"type":"Topology","bbox":[-72.6346854162141,7.564366480041897,-72.5852199277453,7.691686809064209],"transform":{"scale":[0.000004947043551234874,0.000012733306232854546],"translate":[-72.6346854162141,7.564366480041897]},"objects":{"municipios":{"type":"GeometryCollection","geometries":[{"type":"Polygon","arcs":[[0,1,2]],"properties":{"codigo":"54172100000000000108","sector":"541721000000000001","pcode":"CO54172","area_m2":69560}},{"type":"Polygon","arcs":[[3,4]],"properties":{"codigo":"54172100000000000112","sector":"541721000000000001","pcode":"CO54172","area_m2":117715}},{"type":"Polygon","arcs":[[-4,5,6,7,8,9]],"properties":{"codigo":"54172100000000000109","sector":"541721000000000001","pcode":"CO54172","area_m2":723521}},{"type":"Polygon","arcs":[[10,11,12,13,14,15,16]],"properties":{"codigo":"54172100000000000102","sector":"541721000000000001","pcode":"CO54172","area_m2":287896}},{"type":"Polygon","arcs":[[17,-16,18,19,-8]],"properties":{"codigo":"54172100000000000101","sector":"541721000000000001","pcode":"CO54172","area_m2":205511}},{"type":"Polygon","arcs":[[-14,20,21,22,23]],"properties":{"codigo":"54172100000000000103","sector":"541721000000000001","pcode":"CO54172","area_m2":492366}},{"type":"Polygon","arcs":[[-19,-15,-24,24]],"properties":{"codigo":"54172100000000000104","sector":"541721000000000001","pcode":"CO54172","area_m2":165197}},{"type":"Polygon","arcs":[[-20,-25,-23,25,-9]],"properties":{"codigo":"54172100000000000105","sector":"541721000000000001","pcode":"CO54172","area_m2":376627}},{"type":"Polygon","arcs":[[26,27,28]],"properties":{"codigo":"54172100000000000111","sector":"541721000000000001","pcode":"CO54172","area_m2":513420}},{"type":"Polygon","arcs":[[-13,29,-2,30,31,-29,32,-21]],"properties":{"codigo":"54172100000000000106","sector":"541721000000000001","pcode":"CO54172","area_m2":930680}},{"type":"Polygon","arcs":[[-3,-30,-12,33]],"properties":{"codigo":"54172100000000000107","sector":"541721000000000001","pcode":"CO54172","area_m2":172338}},{"type":"Polygon","arcs":[[-17,-18,-7,34]],"properties":{"codigo":"54172100000000000110","sector":"541721000000000001","pcode":"CO54172","area_m2":124282}},{"type":"Polygon","arcs":[[35]],"properties":{"codigo":"54172200101001000101","sector":"541722001010010001","pcode":"CO54172","area_m2":84637}},{"type":"Polygon","arcs":[[36]],"properties":{"codigo":"54172200102005000101","sector":"541722001020050001","pcode":"CO54172","area_m2":14986}},{"type":"Polygon","arcs":[[37,38]],"properties":{"codigo":"54172200103006000101","sector":"541722001030060001","pcode":"CO54172","area_m2":617531}},{"type":"Polygon","arcs":[[39]],"properties":{"codigo":"54172200201007000101","sector":"541722002010070001","pcode":"CO54172","area_m2":606986}},{"type":"Polygon","arcs":[[-38,40,-27,-32,41]],"properties":{"codigo":"54172200203008000101","sector":"541722002030080001","pcode":"CO54172","area_m2":566126}}]}},"arcs":[[[7280,2360],[12,-10]],[[7292,2350],[-12,-38],[74,-75],[39,-67],[-413,-54],[-31,50],[-14,70],[-121,0],[-18,62]],[[6796,2298],[51,6],[-30,39],[68,17],[41,-47],[354,47]],[[7942,4099],[-166,16],[93,127],[-1,20],[-150,17],[64,72],[32,160],[34,37]],[[7848,4548],[113,96],[163,-22],[-5,-38],[227,-3],[-123,-131],[-27,4],[-157,-157],[-51,4],[-20,-52],[38,-24],[-64,-126]],[[7942,4099],[-59,-17],[-2,-77],[-27,-59],[-132,-59]],[[7722,3887],[-176,2]],[[7546,3889],[-589,0]],[[6957,3889],[19,130],[-64,0],[-90,-30],[-269,24],[-121,5],[16,-41],[-176,24],[-93,-3]],[[6179,3998],[-54,33],[-28,88],[-65,39],[45,42],[268,27],[161,49],[99,112],[111,27],[97,42],[66,127],[22,81],[36,20],[162,-2],[83,-20],[105,6],[123,35],[79,-23],[-46,-12],[-14,-34],[26,-37],[251,-40],[142,-10]],[[7415,3206],[-97,4],[-105,-59],[-62,-65],[-101,-22],[6,-49],[87,-77],[-37,-41],[45,-71],[234,-29],[-100,-30],[-14,-49],[96,-2],[28,-69]],[[7395,2647],[-235,-49],[-39,43],[-349,-46],[-106,-40]],[[6666,2555],[-14,1],[-55,177],[25,48]],[[6622,2781],[117,144],[159,13],[67,284]],[[6965,3222],[61,250]],[[7026,3472],[450,-27],[45,-10]],[[7521,3435],[-53,-44],[-37,-63],[11,-27],[-42,-21],[15,-74]],[[7546,3889],[-41,-144],[-11,-80],[64,-44],[43,-1],[24,-80],[-85,-21],[-19,-84]],[[7026,3472],[-143,6]],[[6883,3478],[74,411]],[[6622,2781],[-272,11],[-266,4],[-29,58],[-33,14],[48,24],[-25,56],[86,39],[-40,48],[-35,-49],[-83,-15],[-120,2],[-185,-117],[-49,-61],[-283,-8]],[[5336,2787],[-31,57],[73,38],[128,40],[-114,92],[6,44],[172,110],[53,57],[98,62],[16,70],[-36,55],[27,61],[-19,71]],[[5709,3544],[237,-38]],[[5946,3506],[3,-79],[96,-91],[108,-27],[-5,-43],[75,-36],[8,-51],[168,-1],[11,64],[555,-20]],[[5946,3506],[279,-45],[-2,-8],[647,-34],[13,59]],[[5709,3544],[65,39],[204,95],[30,32],[1,84],[75,19],[158,18],[89,37],[25,32],[-51,41],[-126,57]],[[7319,1472],[-14,-28],[-245,-37],[-36,-29],[54,-51],[-46,-82],[-48,0],[-30,50],[-60,-9],[-24,-56],[10,-36],[77,-89],[-47,-98],[-41,-11]],[[6869,996],[-32,31],[-30,71],[34,52],[-71,93],[-24,50],[0,66],[-132,70],[-29,98],[-57,52],[-215,107],[-55,16],[-148,10],[-6,43],[49,39],[98,42],[-29,36],[-57,24],[8,19],[-202,77],[-20,17],[-146,39],[-3,47]],[[5802,2095],[172,63],[174,51],[403,64],[100,-20],[55,-63],[90,-23],[72,-57],[-48,-86],[7,-59],[47,-92],[176,-211],[-207,-36],[-55,48],[-180,-23],[-8,-32],[124,-55],[21,-39],[168,29],[81,71],[89,14],[236,-167]],[[6666,2555],[28,-124],[102,-133]],[[7292,2350],[54,25],[85,5],[-101,-58],[78,-77],[3,-49],[96,-30],[162,26],[105,-87],[34,-9],[-398,-98],[-64,-21],[45,-51],[144,16],[89,-34],[-20,-17],[-118,-33],[43,-25],[83,-14],[79,-27],[46,-50],[-79,-10],[145,-124],[-225,-61]],[[7578,1547],[-259,-75]],[[5802,2095],[-72,66],[-1,39],[182,65],[-39,30],[-182,9],[-107,24],[-37,43],[57,55],[88,63],[-44,50],[-216,71],[-27,34],[62,46],[-12,43],[-118,54]],[[7395,2647],[96,-31],[183,-35],[-175,-49],[54,-89],[-97,-39],[-153,-27],[-23,-17]],[[7722,3887],[6,-159],[231,6],[-40,-73],[-60,-7],[-77,-73],[2,-32],[89,-24],[97,-41],[-38,-22],[-133,-8],[-88,-31],[-92,-63],[-53,-51],[24,-39],[-83,-22],[-92,-42]],[[6915,9992],[56,-40],[2,-26],[-136,-23],[4,26],[-89,6],[-234,-4],[-152,-32],[-70,1],[-91,-23],[-98,-99],[50,-11],[9,-47],[-107,-71],[-66,5],[-116,-54],[-54,5],[24,65],[60,81],[90,56],[33,70],[54,45],[94,45],[105,12],[149,-10],[186,9],[106,13],[191,1]],[[128,116],[60,-21],[95,-72],[-126,-23],[-66,43],[-69,-3],[-22,61],[128,15]],[[7496,863],[49,6],[78,44],[-32,7],[102,65],[69,22],[-15,19],[266,113],[138,-18]],[[8151,1121],[-52,-54],[197,-50],[212,95],[121,-56],[73,-12],[116,0],[94,13],[-4,-20],[192,-2],[-21,-23],[-90,-14],[-37,-51],[-79,-31],[29,-42],[-114,2],[-110,-59],[156,-14],[149,7],[69,-19],[24,-27],[-37,-23],[77,-37],[163,21],[111,6],[65,-22],[-19,-30],[56,-27],[161,63],[204,-64],[47,3],[-75,-37],[41,-17],[-65,-59],[64,-10],[35,-30],[68,-8],[27,-28],[-196,-4],[-93,11],[-168,35],[-80,27],[139,60],[-138,-9],[-123,36],[-36,26],[-129,-76],[65,-25],[-112,-46],[-246,64],[-203,-46],[-137,-52],[-124,1],[-88,46],[-171,44],[-19,40],[-69,20],[-126,-9],[-27,19],[32,47],[-104,61],[-181,13],[-156,-2],[-29,22],[35,33],[-19,62]],[[7689,7980],[124,-28],[22,16],[139,-13],[162,-49],[55,-107],[141,17],[-6,16],[82,4],[47,-105],[-131,-24],[-92,-4],[-154,-46],[-59,-86],[66,-34],[91,6],[-1,-30],[-122,2],[22,-52],[-57,-34],[10,-52],[-99,-32],[-14,-24],[-108,-24],[68,-152],[467,-91],[-60,-77],[-211,-101],[179,-105],[0,-27],[-395,6],[-148,28],[-123,0],[-18,25],[-12,180],[-16,103],[-55,60],[-77,52],[100,13],[93,-3],[24,129],[52,-1],[3,42],[-134,29],[43,24],[-196,51],[59,31],[119,-36],[63,96],[-173,63],[-206,6],[39,61],[47,1],[-37,42],[-22,61],[202,95],[55,80],[-76,19],[14,72],[-100,45],[-131,32],[188,54],[104,56],[105,-26],[-25,-44],[0,-87],[83,-89],[-10,-34]],[[7496,863],[-34,41],[-45,16],[-159,-1],[-115,30],[-155,26],[-88,1],[-31,20]],[[7578,1547],[105,-72],[2,-35],[143,7],[119,53],[82,9],[168,-13],[126,10],[37,22],[142,22],[169,-9],[48,6],[99,-22],[19,-30],[-69,-46],[70,-54],[-42,-24],[-137,18],[-100,3],[68,28],[-77,-6],[-25,-37],[-81,-2],[95,-52],[23,-26],[-230,-109],[-28,9],[-153,-76]]]}
