{"type":"Topology","bbox":[-72.76395997240957,7.253600663372737,-72.72558409434941,7.318621841751736],"transform":{"scale":[0.0000038379716031754255,0.000006502768114711406],"translate":[-72.76395997240957,7.253600663372737]},"objects":{"municipios":{"type":"GeometryCollection","geometries":[{"type":"Polygon","arcs":[[0,1]],"properties":{"codigo":"54480100000000000101","sector":"544801000000000001","pcode":"CO54480","area_m2":94248}},{"type":"Polygon","arcs":[[-2,2]],"properties":{"codigo":"54480100000000000102","sector":"544801000000000001","pcode":"CO54480","area_m2":73244}},{"type":"Polygon","arcs":[[3]],"properties":{"codigo":"54480200104001000101","sector":"544802001040010001","pcode":"CO54480","area_m2":26686}},{"type":"Polygon","arcs":[[4]],"properties":{"codigo":"54480200102003000101","sector":"544802001020030001","pcode":"CO54480","area_m2":22620}}]}},"arcs":[[[4666,7211],[-140,-195],[-78,-260],[-128,-132],[-75,-53],[-70,-15],[-62,-78],[-154,-79],[-116,112],[-25,59],[61,30],[280,1],[36,25],[-148,88],[20,43],[-36,135],[83,-1],[105,108],[-29,157],[-6,149],[-25,57],[72,10],[192,78]],[[4423,7450],[-134,-162],[319,-76],[58,-1]],[[4423,7450],[53,115],[-106,6],[13,26],[-62,124],[24,99],[-96,119],[74,21],[167,84],[101,-39],[-18,-83],[13,-96],[78,-203],[13,-112],[36,-43],[103,-34],[-38,-33],[-112,-190]],[[57,211],[141,-20],[369,-97],[114,-10],[19,95],[22,-36],[157,-68],[18,15],[178,9],[61,34],[51,-15],[-77,-90],[-273,-28],[-708,129],[-126,70],[54,12]],[[9999,9959],[-277,-235],[-78,-48],[-19,64],[-62,16],[6,130],[-83,46],[62,17],[81,-22],[162,27],[77,45],[131,-40]]]}
