{"type":"Topology","bbox":[-72.93710584491379,8.365719685587138,-72.57225497668543,9.00398590126372],"transform":{"scale":[0.00003648873569640555,0.00006383300486814503],"translate":[-72.93710584491379,8.365719685587138]},"objects":{"municipios":{"type":"GeometryCollection","geometries":[{"type":"Polygon","arcs":[[0,1,2]],"properties":{"codigo":"54810201901002000103","sector":"548102019010020001","pcode":"CO54810","area_m2":117298}},{"type":"Polygon","arcs":[[3,4,5,6]],"properties":{"codigo":"54810201901002000101","sector":"548102019010020001","pcode":"CO54810","area_m2":110052}},{"type":"Polygon","arcs":[[7,-3,8,-6]],"properties":{"codigo":"54810201901002000102","sector":"548102019010020001","pcode":"CO54810","area_m2":119554}},{"type":"Polygon","arcs":[[9]],"properties":{"codigo":"54810200302011000101","sector":"548102003020110001","pcode":"CO54810","area_m2":83817}},{"type":"Polygon","arcs":[[10,11,12,13,14]],"properties":{"codigo":"54810100000000000104","sector":"548101000000000001","pcode":"CO54810","area_m2":217682}},{"type":"Polygon","arcs":[[15,16,17]],"properties":{"codigo":"54810100000000000101","sector":"548101000000000001","pcode":"CO54810","area_m2":107104}},{"type":"Polygon","arcs":[[18,19,-18,20,21]],"properties":{"codigo":"54810100000000000102","sector":"548101000000000001","pcode":"CO54810","area_m2":132407}},{"type":"Polygon","arcs":[[-22,22,-13,23]],"properties":{"codigo":"54810100000000000103","sector":"548101000000000001","pcode":"CO54810","area_m2":104890}},{"type":"Polygon","arcs":[[24,-11,25,26]],"properties":{"codigo":"54810100000000000105","sector":"548101000000000001","pcode":"CO54810","area_m2":169835}},{"type":"Polygon","arcs":[[-27,27,28,29]],"properties":{"codigo":"54810100000000000106","sector":"548101000000000001","pcode":"CO54810","area_m2":184644}},{"type":"Polygon","arcs":[[30,-29,31,32]],"properties":{"codigo":"54810100000000000107","sector":"548101000000000001","pcode":"CO54810","area_m2":292072}},{"type":"Polygon","arcs":[[-32,-28,-26,-15,33,34,35]],"properties":{"codigo":"54810100000000000108","sector":"548101000000000001","pcode":"CO54810","area_m2":248872}},{"type":"Polygon","arcs":[[-34,-14,-23,36,37]],"properties":{"codigo":"54810100000000000109","sector":"548101000000000001","pcode":"CO54810","area_m2":127497}},{"type":"Polygon","arcs":[[38]],"properties":{"codigo":"54810201806016000101","sector":"548102018060160001","pcode":"CO54810","area_m2":21286}},{"type":"Polygon","arcs":[[-19,-24,-12,-25,-30,-31,39]],"properties":{"codigo":"54810100000000000110","sector":"548101000000000001","pcode":"CO54810","area_m2":217906}},{"type":"Polygon","arcs":[[40,41,42]],"properties":{"codigo":"54810100000000000201","sector":"548101000000000002","pcode":"CO54810","area_m2":102007}},{"type":"Polygon","arcs":[[43,44,45,-41,46,47]],"properties":{"codigo":"54810100000000000202","sector":"548101000000000002","pcode":"CO54810","area_m2":140856}},{"type":"Polygon","arcs":[[48,49,-45,50,51]],"properties":{"codigo":"54810100000000000203","sector":"548101000000000002","pcode":"CO54810","area_m2":170645}},{"type":"Polygon","arcs":[[-46,-50,52,53,-42]],"properties":{"codigo":"54810100000000000204","sector":"548101000000000002","pcode":"CO54810","area_m2":223303}},{"type":"Polygon","arcs":[[54,-35,-38,55,56,-53,-49]],"properties":{"codigo":"54810100000000000205","sector":"548101000000000002","pcode":"CO54810","area_m2":359189}},{"type":"Polygon","arcs":[[-21,-17,57,-56,-37]],"properties":{"codigo":"54810100000000000206","sector":"548101000000000002","pcode":"CO54810","area_m2":227744}},{"type":"Polygon","arcs":[[58,-48,59]],"properties":{"codigo":"54810100000000000207","sector":"548101000000000002","pcode":"CO54810","area_m2":87291}},{"type":"Polygon","arcs":[[-51,-44,-59,60]],"properties":{"codigo":"54810100000000000208","sector":"548101000000000002","pcode":"CO54810","area_m2":97423}},{"type":"Polygon","arcs":[[61,62,63,-1,-8,-5,64,65]],"properties":{"codigo":"54810201901002000104","sector":"548102019010020001","pcode":"CO54810","area_m2":279534}},{"type":"Polygon","arcs":[[66,67,-65,-4,68]],"properties":{"codigo":"54810201901002000105","sector":"548102019010020001","pcode":"CO54810","area_m2":174166}},{"type":"Polygon","arcs":[[69,-67,70]],"properties":{"codigo":"54810201901002000106","sector":"548102019010020001","pcode":"CO54810","area_m2":131034}},{"type":"Polygon","arcs":[[-70,71,-66,-68]],"properties":{"codigo":"54810201901002000107","sector":"548102019010020001","pcode":"CO54810","area_m2":150347}},{"type":"Polygon","arcs":[[-63,72]],"properties":{"codigo":"54810201901002000108","sector":"548102019010020001","pcode":"CO54810","area_m2":78307}},{"type":"Polygon","arcs":[[73]],"properties":{"codigo":"54810200803003000101","sector":"548102008030030001","pcode":"CO54810","area_m2":148273}},{"type":"Polygon","arcs":[[74]],"properties":{"codigo":"54810201105006000101","sector":"548102011050060001","pcode":"CO54810","area_m2":56060}},{"type":"Polygon","arcs":[[75]],"properties":{"codigo":"54810200301008000101","sector":"548102003010080001","pcode":"CO54810","area_m2":113750}},{"type":"Polygon","arcs":[[76]],"properties":{"codigo":"54810201407009000101","sector":"548102014070090001","pcode":"CO54810","area_m2":114130}},{"type":"MultiPolygon","arcs":[[[77]],[[78]]],"properties":{"codigo":"54810200104013000101","sector":"548102001040130001","pcode":"CO54810","area_m2":19283}},{"type":"Polygon","arcs":[[79,80]],"properties":{"codigo":"54810200302017000101","sector":"548102003020170001","pcode":"CO54810","area_m2":284080}},{"type":"Polygon","arcs":[[81,-81,82,83]],"properties":{"codigo":"54810200302017000102","sector":"548102003020170001","pcode":"CO54810","area_m2":275920}},{"type":"Polygon","arcs":[[-84,84]],"properties":{"codigo":"54810200302017000103","sector":"548102003020170001","pcode":"CO54810","area_m2":174699}},{"type":"Polygon","arcs":[[85]],"properties":{"codigo":"54810201105018000101","sector":"548102011050180001","pcode":"CO54810","area_m2":87906}}]}},"arcs":[[[1061,9901],[11,-18],[-70,-12],[-27,-2],[-6,-2],[-22,0]],[[947,9867],[3,30],[6,25]],[[956,9922],[19,0],[0,-11],[10,5],[13,3],[14,-20],[19,3],[10,-4],[20,3]],[[1082,9971],[-28,-6],[17,-21]],[[1071,9944],[-11,-2]],[[1060,9942],[-10,10],[-45,-16],[-7,4],[3,5],[-29,10]],[[972,9955],[6,7],[20,17],[17,9],[29,7],[29,4],[8,-10],[-7,-6],[-9,1],[17,-13]],[[1060,9942],[12,-18],[5,-22],[-16,-1]],[[956,9922],[7,19],[9,14]],[[7497,1190],[-20,-10],[-10,7],[-32,-16],[32,-23],[-34,7],[-10,4],[-16,-10],[-18,-4],[-4,9],[8,4],[-11,9],[15,7],[-21,14],[9,4],[26,-17],[70,37],[18,-12],[-8,-4],[6,-6]],[[5597,4254],[7,-13],[15,3],[4,-5],[25,-14],[9,-13],[4,1],[6,-13],[-31,-1],[7,-8],[11,-20]],[[5654,4171],[-107,-6]],[[5547,4165],[-7,13],[19,4],[-5,7],[15,4],[-8,8],[6,3],[-2,6],[-19,1],[-12,33]],[[5534,4244],[16,3]],[[5550,4247],[47,7]],[[5378,4184],[-18,0],[-11,21],[1,4],[-10,-2],[-10,6],[-10,-2],[2,6]],[[5322,4217],[26,-6],[10,0],[19,5],[49,9],[32,7]],[[5458,4232],[1,-3],[-22,-12],[19,-16],[13,-13],[-12,0],[2,-6],[-21,-1],[-4,-9],[-39,22],[-17,-10]],[[5513,4163],[-12,-2],[-9,4],[-15,-6],[-18,-3]],[[5459,4156],[-21,-1],[-12,13],[-10,7],[-18,7],[-20,2]],[[5458,4232],[33,5]],[[5491,4237],[2,-3],[15,-56],[5,-15]],[[5491,4237],[43,7]],[[5547,4165],[-34,-2]],[[5712,4176],[-13,-2],[-45,-3]],[[5597,4254],[18,3],[20,0],[68,6]],[[5703,4263],[4,-31],[4,-15],[-6,-1],[2,-23],[5,-17]],[[5703,4263],[50,2]],[[5753,4265],[28,1],[6,-24],[-14,-64]],[[5773,4178],[-51,-3],[-10,1]],[[5817,4182],[-32,-2],[-12,-2]],[[5753,4265],[-5,13],[-10,-3],[-6,9]],[[5732,4284],[-6,9],[15,2],[2,-4],[28,5],[7,-5],[33,3],[12,-6],[2,-6],[22,-1],[4,-8],[15,0],[22,7],[20,1],[13,-3],[24,3],[2,-3],[57,1],[16,6],[13,-4],[0,-8],[21,-6],[54,-12],[45,-8],[-8,-5],[-27,5],[-34,9],[-40,9],[-11,-12],[-12,9],[-16,6],[-9,-3],[-14,2],[-32,-3],[-6,-3],[-15,0],[-5,3],[-27,-4],[9,-12],[-19,1],[0,12],[-13,3],[-13,-3],[-3,-5],[-12,5],[-25,0],[-9,-4],[3,-12],[7,-10],[10,-3],[2,-9],[-5,-3],[-5,-20],[-7,-18]],[[5550,4247],[-12,29],[14,2],[-4,13],[7,17]],[[5555,4308],[21,14],[6,29],[-11,10],[13,5],[8,0]],[[5592,4366],[13,-12],[0,-6],[-11,-10],[3,-6],[27,-12],[13,-12],[-2,-3],[9,-16],[-1,-3],[28,-13],[26,-2],[1,10],[20,3],[14,0]],[[5491,4237],[-15,21],[-2,12],[8,1],[-1,14],[-9,7],[-6,25]],[[5466,4317],[26,2],[25,-31],[14,2],[-4,6],[5,6],[23,6]],[[2397,8266],[10,-10],[11,-2],[17,-27],[4,0],[3,-17],[-12,-3],[-5,13],[-6,-1],[-3,15],[-14,19],[4,3],[-9,10]],[[5817,4182],[32,1],[4,-13],[-32,-2],[-97,-5],[-35,-5],[0,-5],[-23,1],[0,-17],[-65,0],[-20,-2],[-1,13],[-43,-3],[-22,0],[-48,-4],[-9,9],[1,6]],[[5347,4469],[22,-3],[10,1],[14,-22],[2,-18]],[[5395,4427],[-43,-4]],[[5352,4423],[-5,8],[-11,1],[-5,11],[-11,2],[2,4],[-16,1],[-36,-3],[-4,16],[28,2],[4,4],[11,3],[9,-3],[29,0]],[[5433,4485],[14,-8],[1,-4],[14,-5],[0,-5]],[[5462,4463],[5,-37]],[[5467,4426],[-38,-3],[-34,-1],[0,5]],[[5347,4469],[17,6],[13,-1],[-9,17],[-5,3],[9,3]],[[5372,4497],[10,-4],[14,0],[20,-11],[17,3]],[[5561,4397],[-9,3],[1,7],[-20,-3],[-12,-18],[5,-5],[-2,-11],[9,-2],[-7,-10],[-11,-11],[-18,12],[-22,-3]],[[5475,4356],[-5,32],[-3,38]],[[5462,4463],[10,-2]],[[5472,4461],[4,-17],[5,-11],[11,3],[12,-3],[10,2],[8,5],[22,-4],[20,-14],[-3,-25]],[[5475,4356],[-72,-2],[-68,-3]],[[5335,4351],[-4,20],[24,1],[-1,4],[13,1],[3,-8],[15,1],[-5,10],[8,1],[-29,23],[1,5],[-8,14]],[[5561,4397],[10,1],[7,-14],[0,-10],[14,-8]],[[5466,4317],[-35,-4],[0,-9],[-18,-2]],[[5413,4302],[-1,4],[-15,13],[-36,-1],[-2,13],[-39,-1],[-4,12],[19,1],[0,8]],[[5322,4217],[5,5],[15,-5],[17,11],[-1,19],[3,8],[13,4],[14,0],[0,3],[15,1],[10,39]],[[5437,4489],[-4,-4]],[[5372,4497],[-13,7],[30,3],[-3,4],[-4,26],[6,5],[30,-3],[1,8],[22,0],[-6,-14],[1,-27],[-3,-11],[4,-6]],[[5437,4489],[20,10],[16,5],[1,4],[17,2],[5,5],[26,13],[15,-16],[-2,-12],[-15,1],[-10,-17],[9,-5],[-9,-9],[-7,3],[-7,-7],[-24,-5]],[[1240,9832],[3,-2],[19,-1],[3,-9]],[[1265,9820],[-16,7],[-37,3],[-50,10],[-12,1]],[[1150,9841],[-19,-1],[-11,-9],[-26,7],[-16,-6],[-20,-5],[4,-5],[-10,-7],[-14,-3],[-14,19],[-39,-8],[-10,2],[-3,-9],[-30,7],[5,44]],[[1071,9944],[25,-31]],[[1096,9913],[7,-8],[-21,0],[3,-17],[10,-8],[-8,-1],[3,-20],[11,-8],[19,2],[4,-5],[25,-3],[8,4],[3,-5],[7,2],[44,-9],[29,-5]],[[1207,9947],[-24,-20],[-23,-22],[-13,-9]],[[1147,9896],[-3,4],[-16,1],[-16,10],[-16,2]],[[1082,9971],[28,-4],[63,-13],[34,-7]],[[1154,9890],[-7,6]],[[1207,9947],[14,-4],[21,-28],[-2,-9],[12,-9],[12,-7],[-10,-1],[-2,-12],[-7,-16],[-7,2],[4,17],[-5,2],[-13,-4],[-32,1],[-19,5],[-4,4],[-15,2]],[[1154,9890],[9,-6],[-11,3],[-12,-6],[18,-2],[19,-20],[4,4],[17,-3],[14,2],[-1,-7],[29,-5],[-9,-12],[9,-6]],[[1265,9820],[5,-3],[-62,-27],[-14,1],[-7,12],[7,1],[-7,9],[-20,10],[-17,18]],[[71,2960],[3,-8],[10,-15],[15,-7],[28,-1],[-4,-2],[21,-11],[-17,-11],[5,-4],[-11,-5],[-18,15],[-29,-15],[1,-6],[-15,6],[-18,11],[-10,2],[2,12],[-12,13],[-14,10],[-5,9],[5,3],[-8,4],[9,4],[23,-8],[23,12],[14,1],[2,-9]],[[7631,4039],[8,0],[12,-6],[-3,-2],[9,-7],[2,-5],[21,7],[5,-8],[15,2],[10,-11],[-4,-10],[-6,0],[-13,-10],[-20,-2],[7,5],[-25,18],[-8,8],[-16,-7],[-3,2],[14,8],[-12,10],[6,2],[-9,7],[10,-1]],[[9918,1641],[23,-6],[9,7],[13,-3],[7,4],[9,0],[-3,-20],[7,2],[1,9],[15,1],[-2,-10],[-18,-6],[-19,-1],[2,-7],[-6,-10],[-14,-2],[-9,15],[-28,-7],[-12,0],[-27,-5],[-2,8],[-18,0],[-4,-4],[7,-6],[-11,-6],[-18,16],[-18,5],[4,5],[14,-3],[12,2],[6,8],[17,-7],[46,0],[5,10],[-11,10],[8,5],[15,-4]],[[674,4347],[6,-4],[9,0],[-1,-9],[17,-12],[-2,17],[22,2],[39,-5],[-2,-10],[7,-6],[-1,-10],[17,-1],[-4,-3],[-20,0],[-10,-3],[-34,0],[1,3],[-60,2],[-7,6],[5,2],[-11,6],[-2,9],[13,16],[18,0]],[[9267,21],[-7,-14],[12,-6],[-5,-1],[-18,6],[-12,0],[-1,8],[-11,1],[20,4],[1,3],[21,-1]],[[9262,30],[-6,13],[15,0],[3,-13],[-12,0]],[[8387,1911],[-4,-4],[-15,4],[-64,13],[-5,-10],[-23,4],[4,7],[-11,2],[-6,-9],[-10,-8],[-9,2],[7,8],[-8,7],[4,8],[-31,6],[-6,5],[-22,3],[-7,4],[-17,-10],[-13,1],[-21,7],[-9,-2],[-29,7],[10,0],[7,5],[-6,9],[-20,0],[-7,3],[-36,6],[6,-4],[-18,-29],[-19,-16],[-24,-34],[-34,-2],[-42,2],[-3,5],[9,14],[18,21],[10,16],[10,-3],[18,-1],[3,-3],[26,1],[3,7],[13,15],[-36,8],[-14,-16],[-18,1],[17,18],[16,12],[-48,11],[1,4]],[[7934,2006],[10,-2],[166,-35],[49,-8],[14,-4],[110,-23],[104,-23]],[[8042,2029],[23,-5],[-7,-13],[-4,1],[-4,-8],[6,-1],[-1,-11],[-8,-6],[29,-7],[68,-12],[16,-4],[-10,8],[9,1],[14,33],[-8,1],[-10,12],[17,4],[22,-8],[-2,-10],[-18,-35],[-8,1],[8,-8],[22,-6],[7,5],[12,-2],[0,7],[30,24],[3,-5],[-34,-33],[22,-3],[22,18],[7,-5],[24,-11],[-7,-12],[9,2],[15,-6],[25,-3],[-1,-3],[18,-5],[11,20],[7,16],[32,-6],[15,17],[7,11],[5,0],[-2,-8],[-8,-14],[7,-2],[-35,-47]],[[7934,2006],[-32,7],[10,8]],[[7912,2021],[63,-11],[3,6],[10,-2],[9,3],[9,15],[13,-3],[22,-3],[1,3]],[[7912,2021],[11,9],[2,5],[-11,24],[4,16],[66,-6],[55,-4],[5,-14],[-2,-22]],[[6672,4248],[10,-7],[14,6],[9,-2],[0,-5],[18,-13],[-10,-11],[-12,-1],[-6,4],[-26,-19],[-14,5],[-9,-13],[-5,2],[9,18],[5,-1],[5,10],[-31,4],[-10,-3],[2,19],[11,0],[20,9],[6,7],[14,-9]]]}
