{"type":"Topology","bbox":[-75.7381517719524,4.5524127997253405,-75.61447482577233,4.636089703531353],"transform":{"scale":[0.000012368931511158023,0.00000836852723332461],"translate":[-75.7381517719524,4.5524127997253405]},"objects":{"municipios":{"type":"GeometryCollection","geometries":[{"type":"Polygon","arcs":[[0]]},{"type":"Polygon","arcs":[[1]]},{"type":"Polygon","arcs":[[2]]},{"type":"Polygon","arcs":[[3]]},{"type":"Polygon","arcs":[[4]]},{"type":"Polygon","arcs":[[5]]},{"type":"Polygon","arcs":[[6]]},{"type":"Polygon","arcs":[[7]]},{"type":"Polygon","arcs":[[8]]},{"type":"Polygon","arcs":[[9]]},{"type":"Polygon","arcs":[[10]]},{"type":"Polygon","arcs":[[11]]},{"type":"Polygon","arcs":[[12]]},{"type":"Polygon","arcs":[[13]]},{"type":"Polygon","arcs":[[14,15,16]]},{"type":"Polygon","arcs":[[17,18,19,20]]},{"type":"Polygon","arcs":[[21,22]]},{"type":"Polygon","arcs":[[23,24]]},{"type":"Polygon","arcs":[[25]]},{"type":"Polygon","arcs":[[26]]},{"type":"Polygon","arcs":[[27]]},{"type":"Polygon","arcs":[[28,29,30]]},{"type":"Polygon","arcs":[[-24,31]]},{"type":"Polygon","arcs":[[32]]},{"type":"Polygon","arcs":[[33,34,-15,35,36,37]]},{"type":"Polygon","arcs":[[38,39,40,41,42]]},{"type":"Polygon","arcs":[[43,44,45,46]]},{"type":"Polygon","arcs":[[-19,47,48,-43,49,50,51]]},{"type":"Polygon","arcs":[[52,53,54]]},{"type":"Polygon","arcs":[[55,56,-45,57]]},{"type":"Polygon","arcs":[[-57,58,-38,59,-46]]},{"type":"Polygon","arcs":[[60,-20,-52,61,62,-55,63]]},{"type":"Polygon","arcs":[[-36,-17,64,-18,65,66]]},{"type":"Polygon","arcs":[[67,68,-39,-49]]},{"type":"Polygon","arcs":[[69,70,-68,-48,-65,-16,-35]]},{"type":"Polygon","arcs":[[-44,71,-22,72,-58]]},{"type":"Polygon","arcs":[[73,-40,-69,-71]]},{"type":"Polygon","arcs":[[-63,74,75,76,-53]]},{"type":"Polygon","arcs":[[-76,77,78]]},{"type":"Polygon","arcs":[[-51,79,-29,80,-78,-75,-62]]},{"type":"Polygon","arcs":[[-66,-21,-61,81]]},{"type":"Polygon","arcs":[[-42,82,-30,-80,-50]]}]}},"arcs":[[[7557,3640],[-101,-61],[-63,58],[18,222],[53,67],[90,-117],[-10,-89],[32,-67],[-19,-13]],[[4465,2374],[24,24],[62,-12],[-57,-114],[-5,-118],[-32,-54],[12,-78],[-70,-77],[14,-22],[-86,-134],[-82,131],[49,149],[12,121],[13,13],[33,123],[11,93],[-11,47],[36,79],[92,100],[36,75],[75,-56],[31,-53],[-52,-125],[-18,-70],[-63,18],[-24,-60]],[[2932,4560],[12,-66],[104,0],[19,-79],[-3,-67],[21,-60],[-143,-8],[-32,-37],[-49,-5],[-180,-87],[-100,-74],[-39,-71],[-47,-56],[-52,-86],[-54,-66],[-101,54],[-76,-3],[-49,90],[-13,60],[59,15],[2,63],[62,-16],[46,14],[44,75],[55,24],[21,56],[42,4],[-10,45],[35,36],[-31,95],[72,8],[43,68],[62,27],[49,-25],[79,63],[70,-34],[82,43]],[[3277,2123],[85,-25],[-20,-134],[-45,-51],[-21,-77],[-52,-68],[10,-59],[63,-47],[11,-114],[26,-83],[-14,-172],[-40,-8],[26,-88],[9,-239],[22,-51],[6,-74],[-13,-92],[4,-58],[-36,-3],[-64,-44],[-48,58],[-15,-91],[-24,-29],[7,-139],[-34,34],[-26,-38],[-14,-69],[-45,-37],[-96,-11],[-4,73],[13,105],[32,112],[37,71],[29,25],[-15,34],[32,69],[48,31],[11,50],[-7,115],[25,96],[-26,133],[7,86],[50,35],[-20,93],[59,32],[-68,184],[-63,139],[44,40],[18,67],[41,21],[31,50],[-3,76],[20,69],[39,-22],[8,25]],[[2057,756],[59,-84],[-57,-54],[-38,-62],[-124,-52],[10,-42],[-10,-74],[-59,35],[-22,-44],[-28,13],[-20,-150],[-47,-28],[-83,-157],[-65,-3],[-37,-29],[-53,37],[-55,-53],[-30,46],[-38,16],[-34,-20],[-12,49],[-75,11],[-60,-35],[-41,10],[-36,-81],[-32,48],[-40,5],[-11,44],[60,46],[59,-1],[73,31],[78,-7],[26,67],[43,46],[15,-40],[53,-12],[81,51],[-17,35],[46,64],[26,-20],[78,29],[37,67],[194,174],[60,98],[43,19],[36,-23],[47,30]],[[2964,1703],[-9,-65],[-50,3],[-52,-34],[-36,-78],[-49,-34],[-50,-5],[-45,70],[-5,53],[27,33],[35,-4],[51,41],[19,70],[-19,49],[83,122],[117,213],[13,112],[27,44],[46,-92],[43,-48],[-22,-28],[-30,-131],[-121,-249],[27,-42]],[[5966,7540],[21,50],[61,14],[7,-43],[-73,-40],[-63,-105],[-22,4],[-34,59],[37,82],[-45,32],[17,32],[94,-85]],[[5186,1176],[-18,-110],[25,-224],[-23,-42],[-6,-66],[26,-108],[12,-146],[17,-83],[3,-110],[-75,-26],[-13,61],[26,23],[-4,72],[-41,-5],[8,52],[-13,104],[-58,-22],[-11,61],[-31,-11],[3,-66],[-54,-29],[-5,42],[22,57],[-11,69],[72,38],[26,107],[-1,58],[-50,281],[58,-17],[86,123],[44,134],[28,-23],[-42,-194]],[[6266,5763],[-52,-99],[-53,-7],[-19,52],[-44,4],[-122,-29],[-18,41],[75,43],[55,-4],[70,47],[25,74],[64,54],[88,180],[28,35],[38,-74],[-159,-230],[41,-64],[-17,-23]],[[7512,5219],[-6,-46],[-33,5],[-52,79],[7,126],[17,99],[26,36],[53,8],[-23,-86],[20,-106],[-9,-115]],[[7835,5626],[15,-67],[29,-25],[31,-74],[34,-19],[-38,-41],[-26,-90],[-39,40],[-26,72],[-62,-15],[-27,72],[21,99],[28,5],[22,48],[38,-5]],[[7674,3984],[-83,-74],[-20,32],[-99,36],[-84,-33],[-133,-78],[-153,-182],[-9,-26],[6,-103],[-71,24],[-9,57],[-32,-65],[14,-20],[-23,-86],[-32,-48],[-8,-46],[-72,-31],[-42,-50],[-24,-99],[-35,31],[21,42],[15,81],[40,40],[50,86],[19,85],[-11,16],[40,91],[87,55],[78,186],[64,64],[163,32],[118,62],[20,57],[141,55],[64,-60],[9,-123],[-9,-8]],[[7789,4515],[6,-6],[-68,-179],[-56,89],[-76,4],[-22,46],[-53,28],[11,72],[38,57],[17,-12],[42,-109],[115,-52],[24,80],[22,-18]],[[6926,4287],[41,15],[103,152],[-32,75],[11,95],[-29,166],[22,26],[9,69],[33,16],[-2,55],[-77,-15],[-28,73],[76,72],[28,-11],[13,136],[21,85],[31,40],[34,-49],[-21,-117],[-7,-108],[58,-30],[-12,-71],[45,-79],[-80,1],[-16,-80],[6,-66],[-38,-24],[-7,-39],[57,-146],[-24,-2],[17,-207],[13,-17],[-23,-110],[-32,3],[-34,-73],[-66,39],[-17,90],[-20,-29],[-53,65]],[[8514,8465],[1,-157],[60,-3],[-9,-440]],[[8566,7865],[-116,5]],[[8450,7870],[7,592],[57,3]],[[8344,8442],[-8,-182],[-6,-384]],[[8330,7876],[-119,5],[2,87]],[[8213,7968],[6,349],[-4,77]],[[8215,8394],[54,-3],[75,51]],[[9939,9669],[-72,103],[-69,14],[-62,57],[-43,6],[-60,-30],[-73,-11],[27,60]],[[9587,9868],[33,43],[53,1],[67,36],[75,-17],[55,39],[27,-30],[-20,-66],[122,-73],[-60,-132]],[[6405,4510],[25,42]],[[6430,4552],[53,-47],[6,-33],[-33,-62],[31,-39],[22,-127],[-32,-68],[-55,-42],[-2,-88],[-38,-54],[1,-209],[-43,-31],[-12,-41],[3,-143],[-15,-72],[-49,-20],[-6,-28],[63,-176],[-11,-50],[-61,-60],[-12,-41],[5,-120],[-41,57],[-96,-123],[-7,-74],[-37,-69],[-68,-20],[-68,108],[8,134],[18,37],[50,14],[39,37],[6,77],[-13,29],[13,86],[30,28],[38,88],[-39,61],[1,90],[23,56],[91,22],[-2,30],[45,26],[-36,48],[16,104],[37,77],[38,-7],[9,95],[59,154],[53,182],[-19,82],[12,80]],[[3564,3516],[53,-137],[-50,-24],[-35,-78],[-80,34],[-34,-97],[-24,21],[-86,9],[-48,-60],[-39,52],[-74,-45],[-4,-78],[-67,-86],[-120,-74],[-99,-31],[-21,-80],[-38,-28],[-55,33],[-87,-116],[-24,-63],[-185,-161],[-145,-61],[-26,-146],[-36,-46],[3,-81],[-24,-56],[8,-60],[-56,-105],[-15,-49],[-35,-17],[-23,-48],[16,-52],[-34,-65],[-69,-26],[-25,-76],[-83,49],[-48,1],[-39,-44],[-92,-50],[-13,228],[114,51],[103,133],[-28,70],[111,193],[13,195],[245,258],[126,-26],[179,167],[55,36],[12,106],[34,8],[40,87],[78,55],[20,44],[-18,50],[33,29],[85,-28],[29,40],[45,-12],[29,60],[76,47],[12,71],[34,13],[35,72],[100,-32],[73,7],[24,54],[81,48],[97,-59],[16,-24]],[[7876,6211],[81,-28],[1,-105],[-35,-64],[-48,-55],[18,-79],[-21,1],[-6,-62],[-80,-15],[-68,-48],[-81,79],[-12,71],[29,-10],[26,99],[53,108],[21,97],[-28,31],[-5,77],[26,24],[30,-25],[28,-71],[71,-25]],[[1264,3905],[80,-66],[108,-30],[135,-1],[98,-48],[122,-24],[35,40],[88,15],[9,-147],[-67,-21],[-73,3],[-49,-14],[-114,112],[-50,-23],[-102,-3],[-3,-22],[-55,-25],[-15,47],[-44,6],[11,81],[-30,15],[-9,-45],[-90,44],[43,27],[-55,36],[-77,14],[-11,-107],[31,-66],[-27,-48],[-24,7],[-56,-70],[-71,108],[-23,-4],[-24,78],[-86,-44],[18,-48],[-46,-63],[50,-119],[-50,-39],[-80,125],[14,62],[36,60],[90,113],[69,-2],[4,-35],[52,34],[38,72],[21,0],[131,51],[48,-36]],[[7599,7015],[96,-28]],[[7695,6987],[41,-33],[65,131]],[[7801,7085],[49,-13],[32,-43],[18,-60],[-85,-21],[-67,-68],[-88,-52],[-92,-76],[-48,-15],[-8,186],[-23,41],[79,0],[31,51]],[[6405,4510],[-32,-2],[-40,-89],[-50,-37],[-22,23],[19,100],[-22,31],[44,14],[46,51],[63,17],[19,-66]],[[807,3423],[14,5],[-21,-157],[-29,13],[-13,48],[-42,-69],[-30,-145],[-25,61],[-37,20],[-4,-30],[-56,78],[-79,-61],[-6,-151],[-62,22],[-41,-26],[-22,74],[-42,-42],[-86,-152],[-74,-104],[-15,16],[-41,-34],[-52,92],[-24,-19],[-18,65],[92,98],[52,165],[45,18],[66,61],[17,66],[30,-79],[75,-30],[77,59],[49,111],[76,53],[110,132],[38,28],[16,-63],[62,-123]],[[9268,8437],[-150,-148],[-42,-65],[-115,-303]],[[8961,7921],[-47,44],[-78,13],[-40,-30],[-75,5],[-61,-55],[-39,-2],[-22,-32],[-33,1]],[[8514,8465],[43,11],[1,36],[40,-10]],[[8598,8502],[35,6],[45,45],[-3,31],[40,7],[41,-22],[41,20],[48,87],[67,-11],[11,-19]],[[8923,8646],[38,-16],[74,70],[110,-30],[21,7],[102,-240]],[[8091,7716],[17,-15],[1,-82],[34,-118],[-34,-129],[42,-23]],[[8151,7349],[-14,-60],[-44,-53],[-29,3],[-20,-53],[-31,-20]],[[8013,7166],[-47,-8]],[[7966,7158],[31,103],[-56,-34],[50,114],[3,111],[61,35],[-38,55],[-26,72],[9,29]],[[8000,7643],[33,72],[58,1]],[[9305,9700],[-9,-79],[-25,-82],[47,-37],[55,-66],[-6,-30]],[[9367,9406],[-45,-109],[11,-34],[-29,-21]],[[9304,9242],[-33,-26],[-51,36],[3,90],[-34,33],[-78,38]],[[9111,9413],[33,54],[-2,49],[-48,-33],[-11,49],[31,43],[-45,74],[19,46],[38,-17],[-9,49],[7,112],[47,94],[-10,51],[53,-7],[60,22],[36,-94],[-22,-125],[17,-80]],[[8330,7876],[-2,-177]],[[8328,7699],[-119,8],[-66,-5],[-52,14]],[[8000,7643],[-19,93],[-43,19]],[[7938,7755],[17,119],[38,39],[34,66]],[[8027,7979],[186,-11]],[[7966,8081],[-88,115],[-17,1],[-42,-67],[-29,17],[-69,96],[-7,-10],[-68,105]],[[7646,8338],[82,54],[82,-2],[64,22]],[[7874,8412],[68,-84],[13,19],[85,-124],[-2,-74],[-20,1],[-52,-69]],[[9879,9473],[-60,-217],[-30,-88]],[[9789,9168],[-58,-15],[-111,-89],[-36,-13],[-102,-132],[-52,48],[-13,82],[-76,23],[-8,113],[-29,57]],[[9367,9406],[18,-45],[87,-69],[59,-3],[36,-41],[79,48],[46,119],[52,69],[106,-19],[29,8]],[[9789,9168],[-72,-204],[-43,-96],[-66,-96],[-173,-173],[-167,-162]],[[8923,8646],[28,175],[6,82],[-15,36],[9,111],[37,40],[73,-11],[-30,99],[-54,57],[17,78],[52,22],[65,78]],[[8141,8427],[74,-33]],[[8027,7979],[-82,0],[-26,29]],[[7919,8008],[47,73]],[[7874,8412],[49,26],[189,11],[29,-22]],[[8450,7870],[-120,6]],[[8344,8442],[-44,-8],[-18,78],[49,60],[51,38],[-31,87],[-33,48],[-53,40],[-6,64],[89,19],[-11,54],[45,21]],[[8382,8943],[11,-1],[67,-140],[80,62],[-5,-74],[25,-162],[48,-87],[-10,-39]],[[8328,7699],[-6,-348]],[[8322,7351],[-171,-2]],[[8961,7921],[-187,-517],[-31,-118]],[[8743,7286],[-125,92],[-150,136],[-25,-40],[-61,-34],[27,-87],[-87,-2]],[[9305,9700],[14,105],[93,41],[57,-10],[118,32]],[[9939,9669],[-60,-196]],[[8743,7286],[-38,-180],[-32,-117],[-82,-140],[-66,-92],[-35,-28],[-126,-67],[-81,-89],[-22,17],[-6,-114],[-71,5],[24,106],[-36,113],[26,97],[-3,35],[-42,39],[17,35],[-2,70],[29,-26],[4,86],[-46,76],[-40,12],[-28,-36],[-74,78]],[[7919,8008],[-71,-96],[-71,-38],[-72,0],[-78,89]],[[7627,7963],[-84,62]],[[7543,8025],[62,106],[-29,96],[-16,9],[37,58],[49,44]],[[7627,7963],[-40,-26],[-37,8],[-24,-35],[-108,-35],[-129,-206]],[[7289,7669],[-68,-96],[-48,37],[-17,147],[4,111],[181,291],[68,-118],[87,1],[47,-17]],[[7938,7755],[-17,-36],[-60,-9],[-10,-30],[-31,22],[-50,-130],[-14,-91],[5,-90],[-22,-56],[41,-133],[-29,-82],[-33,-2],[-23,-131]],[[7599,7015],[-159,6],[-55,-15],[10,45],[79,167],[-26,13],[-31,80],[-56,227],[-27,65],[-45,66]],[[8141,8427],[5,77],[-11,53],[57,28],[-26,143],[60,12],[-34,142],[3,74],[133,19],[54,-32]],[[7966,7158],[-83,-64],[-41,39],[-41,-48]]]}
