{"type":"Topology","bbox":[-75.85215095774345,4.577316188066256,-75.69916855412276,4.63550978306115],"transform":{"scale":[0.000015299770339102237,0.000005819941493638804],"translate":[-75.85215095774345,4.577316188066256]},"objects":{"municipios":{"type":"GeometryCollection","geometries":[{"type":"Polygon","arcs":[[0,1,2,3,4]]},{"type":"Polygon","arcs":[[-4,5,6,7,8]]},{"type":"Polygon","arcs":[[-3,9,10,11,-6]]},{"type":"Polygon","arcs":[[12,13,14]]},{"type":"Polygon","arcs":[[15,16,17,18,19]]},{"type":"Polygon","arcs":[[20,21,22,23,-12]]},{"type":"Polygon","arcs":[[24,25,26,27,28,29]]},{"type":"Polygon","arcs":[[30,31,-30,32,-17,33]]},{"type":"Polygon","arcs":[[-18,-33,-29,-1,34]]},{"type":"Polygon","arcs":[[35]]},{"type":"Polygon","arcs":[[36,37]]},{"type":"Polygon","arcs":[[38]]},{"type":"Polygon","arcs":[[39,40,-23]]},{"type":"Polygon","arcs":[[41,-34,-16,42,43]]},{"type":"Polygon","arcs":[[-43,-20,-15,44]]},{"type":"Polygon","arcs":[[-8,45,46,47]]},{"type":"Polygon","arcs":[[48,-21,-11,49,-27]]},{"type":"Polygon","arcs":[[-42,50,51,-31]]},{"type":"Polygon","arcs":[[-32,-52,52,-25]]},{"type":"Polygon","arcs":[[-50,-10,-2,-28]]},{"type":"Polygon","arcs":[[53]]},{"type":"Polygon","arcs":[[-13,-19,-35,-5,-9,-48,54]]},{"type":"Polygon","arcs":[[-46,-7,-24,-41,55]]},{"type":"Polygon","arcs":[[-37,56]]},{"type":"Polygon","arcs":[[57]]}]}},"arcs":[[[5898,8144],[-12,-348]],[[5886,7796],[-173,43]],[[5713,7839],[4,112]],[[5717,7951],[45,-9],[4,117],[-45,12],[5,119]],[[5726,8190],[172,-46]],[[5717,7951],[-178,52]],[[5539,8003],[2,61]],[[5541,8064],[15,413],[0,31],[24,34]],[[5580,8542],[72,-101],[78,-130],[-4,-121]],[[5713,7839],[-5,-111]],[[5708,7728],[-178,44]],[[5530,7772],[9,231]],[[5988,8773],[-20,21],[4,73],[-28,30],[-21,-74],[-14,1],[-14,41],[-17,-7],[-11,-34],[-24,-3]],[[5843,8821],[-11,100],[8,90],[46,118],[8,67],[-3,77],[13,-2]],[[5904,9271],[10,-56],[28,-108],[16,-16],[146,82],[58,-10],[6,-51],[37,-33],[8,-31],[-36,-36],[-42,-9],[0,-53],[-53,-15],[-12,-50],[-30,-46],[-44,-30],[-8,-36]],[[6116,8088],[-9,-233]],[[6107,7855],[-131,32]],[[5976,7887],[16,471],[-43,12]],[[5949,8370],[13,377],[19,-5],[-3,-133],[12,96],[-2,68]],[[5988,8773],[29,-59],[-2,-99],[20,-2],[47,-67],[0,-74],[-12,-80],[15,-67],[35,48],[7,-106],[-6,-36],[-5,-143]],[[5530,7772],[-11,-333],[-18,-69],[-70,-65],[-28,-68],[-13,-65],[-25,-200],[-15,-55],[2,-39],[-71,-459]],[[5281,6419],[-45,173],[-42,-31],[-15,-74],[-14,12],[6,-45],[-77,-30],[-18,137],[48,34],[25,2],[-6,70],[10,36],[-28,28],[27,122],[8,-13],[29,80],[-60,115],[0,58],[30,105],[-4,24],[-69,189],[21,39]],[[5107,7450],[12,16],[49,5],[18,36],[45,42],[13,28],[40,29],[26,73],[36,6],[18,-24],[44,47],[33,-16],[1,99],[10,270]],[[5452,8061],[37,-47],[50,-11]],[[5959,7451],[-42,15],[4,94],[-17,5],[-19,-82],[-9,-79],[-24,-132],[13,-56]],[[5865,7216],[-10,-19],[-21,-103],[-11,-15],[-15,27],[-15,139],[-13,10],[-18,-29],[-24,-74],[-46,-105],[-14,-4]],[[5678,7043],[-6,48],[4,134],[10,56],[30,85],[-1,136]],[[5715,7502],[156,-40],[5,57],[10,277]],[[5886,7796],[85,-21]],[[5971,7775],[-12,-324]],[[6166,7687],[-3,-29],[-47,18],[-12,65],[-47,12],[-3,-78],[-14,-41],[-12,-90],[7,-114]],[[6035,7430],[-76,21]],[[5971,7775],[5,112]],[[6107,7855],[90,-19],[-1,-76],[-28,-11],[-2,-62]],[[5898,8144],[7,120],[-27,116],[71,-10]],[[1828,5754],[15,-107],[30,-21],[45,-58],[50,14],[43,-15],[-2,-25],[81,-7],[1,-99],[-75,-3],[-1,-13],[-59,-54],[-28,-48],[-91,-76],[-45,6],[-89,60],[-22,45],[-9,49],[1,59],[-17,26],[-21,84],[-12,-5],[-23,85],[27,37],[44,17],[47,39],[53,1],[30,27],[27,-18]],[[9784,6569],[0,-156],[-21,-64],[-53,18],[1,-103],[-29,-22],[0,-18]],[[9682,6224],[-37,14],[1,36],[-35,-86],[-20,-7],[-53,25],[-25,37],[-22,-10],[-16,31],[5,57],[16,-19],[31,34],[-23,34],[4,21],[-16,49],[44,-47],[6,82],[23,-23],[33,-10],[16,61],[24,53],[23,21],[53,-21],[70,13]],[[3523,997],[8,-49],[64,-265],[-10,-34],[-111,64],[-14,-12],[-15,56],[7,68],[-16,64],[-12,92],[9,16],[13,-40],[59,49],[18,-9]],[[5107,7450],[-33,347],[14,11],[-14,114],[35,26],[68,142]],[[5177,8090],[24,28],[44,21],[23,34],[73,-25],[69,-36],[42,-51]],[[6193,7630],[-27,57]],[[6116,8088],[25,-2],[18,-26],[44,-9],[21,15],[70,-19],[4,116],[22,26]],[[6320,8189],[25,15],[7,-42],[36,40],[6,-78],[-35,-87],[-43,-94],[17,-56],[-21,-41],[-2,-108],[-22,-142],[-22,-19],[-21,33],[-16,65],[-36,-45]],[[5904,9271],[-15,95],[-38,118],[-53,104],[-46,80],[-28,91],[13,104],[16,38],[28,98],[20,-85],[-4,-55],[-28,-124],[9,-18],[45,36],[17,58],[27,-4],[-2,-68],[-17,-80],[17,-13],[34,93],[18,1],[15,-66],[47,-36],[47,-6],[13,14],[-16,110],[6,70],[2,98],[10,3],[40,-130],[34,-54],[33,-69],[1,-128],[-5,-39],[16,-57],[28,23],[24,-34],[24,-88],[50,-70],[6,-78],[15,-61],[2,-77],[-36,-117],[51,-139],[23,-42],[-7,-33],[-48,-142],[-13,-92],[-20,-41],[34,-9],[2,-58],[20,-203],[5,0]],[[5541,8064],[-22,5],[-14,37],[-41,61],[-35,69],[-56,74],[-35,62],[-20,48],[1,37],[16,68],[-13,70],[-18,42],[-45,68],[-20,1],[-56,100]],[[5183,8806],[15,148]],[[5198,8954],[24,-58],[123,-63],[11,7],[95,-91],[42,-65],[25,62],[46,-89],[-23,-50],[39,-65]],[[5678,7043],[-10,4],[-27,-37],[-20,-7],[-43,51],[-12,-15],[-5,-48],[6,-58],[-5,-103],[-9,-26],[-34,-27],[-8,-57],[9,-69],[-14,-84],[-26,-67],[-35,-6],[-14,78],[6,122],[-14,25],[-27,-54],[-14,-110],[-2,-54],[10,-104],[-14,-42],[-44,-3],[-35,-44],[-16,-82],[-15,11],[-42,67],[41,57],[16,58]],[[5708,7728],[-4,-112],[29,-7],[-18,-107]],[[6193,7630],[-11,-25],[-16,-131],[-30,-45],[-36,-91],[24,-27],[61,-10],[15,-17],[20,-52],[13,-75],[-11,-9],[-10,56],[-24,-23],[-3,-48],[-26,-17],[-1,-62],[-44,18],[-24,30],[-47,2],[-34,43],[-18,-3]],[[5991,7144],[-6,22],[-38,-10],[-12,19],[-2,46],[35,7],[23,39],[35,32],[9,131]],[[5991,7144],[-41,-59],[-27,23],[-24,116],[-34,-8]],[[67,7954],[2,-8],[54,113],[14,-58],[-19,-21],[-48,-100],[-21,-17],[-22,8],[0,31],[-27,65],[39,71],[9,99],[-21,121],[-12,101],[23,16],[25,-165],[13,-62],[0,-75],[-11,-71],[2,-48]],[[5198,8954],[-6,65],[48,30],[31,-15],[65,6],[21,-10],[84,-84],[35,-43],[30,22],[31,7],[21,35],[13,47],[20,7],[23,-57],[65,-20],[22,12],[19,-32],[50,-52],[37,-88],[36,37]],[[5177,8090],[-43,46],[-57,251],[7,94],[-5,93],[-25,31],[-51,249],[4,38],[15,38],[39,-59],[37,-29],[22,-33],[40,33],[23,-36]],[[9784,6569],[22,-24],[43,35],[18,-13],[23,-48],[16,5],[18,97],[-34,41],[-29,20],[-59,-7],[-24,-19],[-31,149],[19,27],[10,-40],[22,12],[3,-54],[28,-17],[-2,28],[26,0],[3,-28],[28,0],[13,46],[48,-48],[46,-75],[8,-84],[-44,-84],[6,-75],[-11,-48],[2,-148],[-22,-5],[-11,-45],[-14,43],[10,42],[0,75],[11,45],[-27,25],[1,36],[-34,-7],[3,-144],[-21,-126],[-21,12],[7,45],[-45,42],[-30,-62],[-40,-107],[-15,-58],[-2,-62],[14,-43],[-20,-41],[-19,21],[-3,44],[13,12],[2,81],[35,117],[-45,21],[3,46]],[[6724,1121],[15,-115],[25,16],[6,-63],[-23,-35],[-145,-88],[3,-61],[14,-59],[11,-91],[-49,-53],[15,-264],[-33,-2],[-5,-86],[-24,-156],[12,-11],[-8,-53],[-34,57],[11,70],[-11,72],[-10,7],[-32,-162],[-72,100],[-14,-88],[-16,20],[-48,-17],[-5,42],[-11,-2],[-2,41],[-38,31],[16,32],[0,100],[60,30],[2,-119],[40,6],[37,24],[24,203],[-22,8],[-27,-17],[-123,40],[-30,29],[-27,0],[-1,44],[30,5],[26,74],[58,-104],[6,28],[25,24],[58,16],[27,62],[33,-5],[17,14],[29,58],[0,23],[-24,29],[-38,-25],[-26,1],[-5,173],[-8,63],[68,19],[32,54],[34,0],[64,-20],[29,26],[0,-45],[12,11],[24,73],[48,16]]]}