{"type":"Topology","bbox":[-75.7921681077176,4.337345163252121,-75.62610306016632,4.54364742745667],"transform":{"scale":[0.000016608165571685696,0.00002063228964941983],"translate":[-75.7921681077176,4.337345163252121]},"objects":{"municipios":{"type":"GeometryCollection","geometries":[{"type":"Polygon","arcs":[[0,1,2,3,4]],"properties":{"codigo":"63130100000000000301","sector":"631301000000000003","pcode":"CO63130","area_m2":79082}},{"type":"Polygon","arcs":[[5,6,7,8,9]],"properties":{"codigo":"63130100000000000203","sector":"631301000000000002","pcode":"CO63130","area_m2":62381}},{"type":"Polygon","arcs":[[-9,10,11,12]],"properties":{"codigo":"63130100000000000102","sector":"631301000000000001","pcode":"CO63130","area_m2":102226}},{"type":"Polygon","arcs":[[13,14,15,-7,16]],"properties":{"codigo":"63130100000000000205","sector":"631301000000000002","pcode":"CO63130","area_m2":79422}},{"type":"Polygon","arcs":[[17,18,19,-1,20,-15]],"properties":{"codigo":"63130100000000000206","sector":"631301000000000002","pcode":"CO63130","area_m2":58148}},{"type":"Polygon","arcs":[[-21,-5,21,22,23]],"properties":{"codigo":"63130100000000000201","sector":"631301000000000002","pcode":"CO63130","area_m2":68291}},{"type":"Polygon","arcs":[[-16,-24,-11,-8]],"properties":{"codigo":"63130100000000000202","sector":"631301000000000002","pcode":"CO63130","area_m2":79249}},{"type":"Polygon","arcs":[[-19,24,25,26,27]],"properties":{"codigo":"63130100000000000303","sector":"631301000000000003","pcode":"CO63130","area_m2":72103}},{"type":"Polygon","arcs":[[28,29,-25,-18,30]],"properties":{"codigo":"63130100000000000401","sector":"631301000000000004","pcode":"CO63130","area_m2":67664}},{"type":"Polygon","arcs":[[31,32,33,-29,34]],"properties":{"codigo":"63130100000000000402","sector":"631301000000000004","pcode":"CO63130","area_m2":79310}},{"type":"Polygon","arcs":[[35,36,37]],"properties":{"codigo":"63130200103001000105","sector":"631302001030010001","pcode":"CO63130","area_m2":115860}},{"type":"Polygon","arcs":[[-37,38,39,40]],"properties":{"codigo":"63130200103001000101","sector":"631302001030010001","pcode":"CO63130","area_m2":277286}},{"type":"Polygon","arcs":[[-36,41,42,43,-39]],"properties":{"codigo":"63130200103001000102","sector":"631302001030010001","pcode":"CO63130","area_m2":112019}},{"type":"Polygon","arcs":[[-44,44,45,-40]],"properties":{"codigo":"63130200103001000103","sector":"631302001030010001","pcode":"CO63130","area_m2":104775}},{"type":"Polygon","arcs":[[46]],"properties":{"codigo":"63130200102003000101","sector":"631302001020030001","pcode":"CO63130","area_m2":199375}},{"type":"Polygon","arcs":[[47]],"properties":{"codigo":"63130200202004000101","sector":"631302002020040001","pcode":"CO63130","area_m2":99833}},{"type":"Polygon","arcs":[[48]],"properties":{"codigo":"63130200202004000102","sector":"631302002020040001","pcode":"CO63130","area_m2":16482}},{"type":"Polygon","arcs":[[49]],"properties":{"codigo":"63130200103018000101","sector":"631302001030180001","pcode":"CO63130","area_m2":95340}},{"type":"Polygon","arcs":[[50]],"properties":{"codigo":"63130200102019000101","sector":"631302001020190001","pcode":"CO63130","area_m2":76393}},{"type":"Polygon","arcs":[[-12,-23,51,52,53,54]],"properties":{"codigo":"63130100000000000103","sector":"631301000000000001","pcode":"CO63130","area_m2":66270}},{"type":"Polygon","arcs":[[55,-45,-43]],"properties":{"codigo":"63130200103001000104","sector":"631302001030010001","pcode":"CO63130","area_m2":84903}},{"type":"Polygon","arcs":[[56]],"properties":{"codigo":"63130200101008000101","sector":"631302001010080001","pcode":"CO63130","area_m2":209644}},{"type":"Polygon","arcs":[[-20,-28,57,58,59,-2]],"properties":{"codigo":"63130100000000000302","sector":"631301000000000003","pcode":"CO63130","area_m2":101102}},{"type":"Polygon","arcs":[[60,-59,61]],"properties":{"codigo":"63130100000000000309","sector":"631301000000000003","pcode":"CO63130","area_m2":395553}},{"type":"Polygon","arcs":[[62,63,64,65]],"properties":{"codigo":"63130100000000000406","sector":"631301000000000004","pcode":"CO63130","area_m2":70793}},{"type":"MultiPolygon","arcs":[[[66]],[[67]],[[68]]],"properties":{"codigo":"63130200205005000101","sector":"631302002050050001","pcode":"CO63130","area_m2":25697}},{"type":"Polygon","arcs":[[69]],"properties":{"codigo":"63130200101010000101","sector":"631302001010100001","pcode":"CO63130","area_m2":78031}},{"type":"MultiPolygon","arcs":[[[70]],[[71]]],"properties":{"codigo":"63130200104013000101","sector":"631302001040130001","pcode":"CO63130","area_m2":68906}},{"type":"Polygon","arcs":[[72,73]],"properties":{"codigo":"63130200104015000101","sector":"631302001040150001","pcode":"CO63130","area_m2":49607}},{"type":"Polygon","arcs":[[-74,74]],"properties":{"codigo":"63130200104016000101","sector":"631302001040160001","pcode":"CO63130","area_m2":50481}},{"type":"Polygon","arcs":[[-34,75,76,77,78,79,80,-26,-30]],"properties":{"codigo":"63130100000000000304","sector":"631301000000000003","pcode":"CO63130","area_m2":446796}},{"type":"Polygon","arcs":[[81,82,83,84,85]],"properties":{"codigo":"63130100000000000408","sector":"631301000000000004","pcode":"CO63130","area_m2":172210}},{"type":"Polygon","arcs":[[86,87,88,-63,89,90]],"properties":{"codigo":"63130100000000000405","sector":"631301000000000004","pcode":"CO63130","area_m2":298429}},{"type":"Polygon","arcs":[[91,92,93,94,95,96]],"properties":{"codigo":"63130100000000000505","sector":"631301000000000005","pcode":"CO63130","area_m2":472530}},{"type":"Polygon","arcs":[[97,-80,98]],"properties":{"codigo":"63130100000000000507","sector":"631301000000000005","pcode":"CO63130","area_m2":54968}},{"type":"Polygon","arcs":[[99,-10,-13,-55,100,101]],"properties":{"codigo":"63130100000000000101","sector":"631301000000000001","pcode":"CO63130","area_m2":186411}},{"type":"Polygon","arcs":[[102,103,-92,104,105,106]],"properties":{"codigo":"63130100000000000504","sector":"631301000000000005","pcode":"CO63130","area_m2":912543}},{"type":"Polygon","arcs":[[-97,107,108,-78,109,-105]],"properties":{"codigo":"63130100000000000307","sector":"631301000000000003","pcode":"CO63130","area_m2":221959}},{"type":"Polygon","arcs":[[110,-85,111,-17,-6,-100,112]],"properties":{"codigo":"63130100000000000204","sector":"631301000000000002","pcode":"CO63130","area_m2":228902}},{"type":"Polygon","arcs":[[-108,-96,113,114]],"properties":{"codigo":"63130100000000000506","sector":"631301000000000005","pcode":"CO63130","area_m2":180922}},{"type":"Polygon","arcs":[[115,116,117,-90,-66,118,-32]],"properties":{"codigo":"63130100000000000404","sector":"631301000000000004","pcode":"CO63130","area_m2":213470}},{"type":"Polygon","arcs":[[-86,-111,119]],"properties":{"codigo":"63130100000000000407","sector":"631301000000000004","pcode":"CO63130","area_m2":331589}},{"type":"Polygon","arcs":[[-65,120,121,-76,-33,-119]],"properties":{"codigo":"63130100000000000306","sector":"631301000000000003","pcode":"CO63130","area_m2":143453}},{"type":"Polygon","arcs":[[122,-117,123,-83]],"properties":{"codigo":"63130100000000000409","sector":"631301000000000004","pcode":"CO63130","area_m2":181460}},{"type":"Polygon","arcs":[[124,-53,125,126,127]],"properties":{"codigo":"63130100000000000107","sector":"631301000000000001","pcode":"CO63130","area_m2":150635}},{"type":"Polygon","arcs":[[-22,-4,128,-126,-52]],"properties":{"codigo":"63130100000000000105","sector":"631301000000000001","pcode":"CO63130","area_m2":110977}},{"type":"Polygon","arcs":[[-109,-115,129,-99,-79]],"properties":{"codigo":"63130100000000000508","sector":"631301000000000005","pcode":"CO63130","area_m2":65409}},{"type":"Polygon","arcs":[[-129,-3,-60,-61,130,-127]],"properties":{"codigo":"63130100000000000104","sector":"631301000000000001","pcode":"CO63130","area_m2":499970}},{"type":"Polygon","arcs":[[-116,-35,-31,-14,-112,-84,-124]],"properties":{"codigo":"63130100000000000403","sector":"631301000000000004","pcode":"CO63130","area_m2":109431}},{"type":"Polygon","arcs":[[131,-87,132,-103,133]],"properties":{"codigo":"63130100000000000503","sector":"631301000000000005","pcode":"CO63130","area_m2":188159}},{"type":"Polygon","arcs":[[-94,134]],"properties":{"codigo":"63130100000000000509","sector":"631301000000000005","pcode":"CO63130","area_m2":185940}},{"type":"Polygon","arcs":[[-101,-54,-125,135]],"properties":{"codigo":"63130100000000000106","sector":"631301000000000001","pcode":"CO63130","area_m2":109949}},{"type":"Polygon","arcs":[[-132,136,-88]],"properties":{"codigo":"63130100000000000502","sector":"631301000000000005","pcode":"CO63130","area_m2":48842}},{"type":"Polygon","arcs":[[-137,-134,-107,137,-121,-64,-89]],"properties":{"codigo":"63130100000000000501","sector":"631301000000000005","pcode":"CO63130","area_m2":244007}},{"type":"Polygon","arcs":[[-138,-106,-110,-77,-122]],"properties":{"codigo":"63130100000000000305","sector":"631301000000000003","pcode":"CO63130","area_m2":127104}}]}},"arcs":[[[9033,9305],[-4,2]],[[9029,9307],[-152,46],[-22,6],[13,31],[22,30],[-10,34]],[[8880,9454],[-2,4]],[[8878,9458],[42,-14],[155,-45]],[[9075,9399],[-42,-94]],[[9443,9273],[-24,-28],[-82,-47]],[[9337,9198],[-19,9],[-1,13],[-53,16]],[[9264,9236],[27,64],[36,-12],[29,64]],[[9356,9352],[77,-23]],[[9433,9329],[-23,-53],[33,-3]],[[9356,9352],[-152,43]],[[9204,9395],[44,94],[5,-1]],[[9253,9488],[8,-5],[136,-39],[42,-6],[38,-18],[-44,-91]],[[9258,9130],[-76,25],[-77,23]],[[9105,9178],[43,93]],[[9148,9271],[116,-35]],[[9337,9198],[-42,-42],[-37,-26]],[[9105,9178],[-153,46]],[[8952,9224],[14,32]],[[8966,9256],[35,-12],[28,63]],[[9033,9305],[115,-34]],[[9075,9399],[15,31]],[[9090,9430],[114,-35]],[[9204,9395],[-56,-124]],[[8952,9224],[-28,-61]],[[8924,9163],[-93,-31],[-9,17],[-54,5],[-27,-4]],[[8741,9150],[42,17],[-2,60],[35,-3],[58,18],[-22,13]],[[8852,9255],[11,30],[103,-29]],[[9062,9085],[-152,46]],[[8910,9131],[14,32]],[[9105,9178],[-43,-93]],[[9087,9044],[-39,11],[-6,-14],[-39,12],[-30,-66],[-38,11],[-7,-15]],[[8928,8983],[-76,22],[25,60]],[[8877,9065],[33,66]],[[9062,9085],[39,-11],[-14,-30]],[[4642,4266],[-50,-10],[-39,-28],[-65,55]],[[4488,4283],[24,0],[9,29],[-31,25],[34,-7],[37,33],[-20,15],[51,44],[10,18]],[[4602,4440],[51,-40],[16,11],[68,-54],[-29,-33],[13,-42],[-33,5],[-46,-21]],[[4488,4283],[-128,101]],[[4360,4384],[-25,19],[-13,-4]],[[4322,4399],[-40,11],[-12,34],[119,31],[18,11],[32,37],[-40,14],[6,20],[-16,3],[24,33],[12,-4],[29,39],[-70,11],[3,12],[91,-14],[10,36],[22,25],[-23,15],[33,27],[16,-8],[-3,-22],[-18,-35],[-12,-37],[39,1],[-5,-34],[10,-14],[22,-1],[-10,-11],[49,-28],[34,-4],[-2,-19],[-53,5],[0,-17],[12,-1],[-4,-61],[7,-14]],[[4642,4266],[3,-20],[-96,-63],[7,-22],[-11,-2],[4,-41],[-18,0],[0,31],[-12,20],[-27,-22],[-45,28]],[[4447,4175],[30,25],[-51,43],[-17,-9],[-90,80]],[[4319,4314],[18,38],[23,32]],[[4319,4314],[-47,-100],[-39,-94]],[[4233,4120],[-12,-30],[-40,13],[7,77],[-15,0],[7,62],[34,38],[18,-12],[26,26],[-81,57],[-34,3],[5,25],[40,0],[33,-38],[-4,-15],[41,21],[-2,12],[24,17],[24,7],[18,16]],[[7317,7929],[3,-5],[-29,-41],[-45,-16],[12,-23],[11,2],[7,-17],[-36,-8],[-9,32],[-15,16],[-33,-32],[-16,7],[-5,-25],[14,-24],[18,6],[24,-35],[11,6],[19,-36],[-45,-16],[-29,58],[-24,25],[-19,5],[-22,17],[59,25],[-20,17],[-97,-30],[15,-12],[-11,-22],[3,-27],[-35,-1],[-3,54],[-32,-9],[-14,-14],[10,-39],[10,0],[-4,-26],[-22,18],[-30,-37],[-28,-4],[-2,-43],[-18,-2],[-17,51],[-3,62],[-48,-15],[-11,16],[-14,-3],[1,30],[48,-5],[25,38],[1,15],[-12,44],[2,21],[14,29],[53,-36],[4,-29],[-39,-22],[2,-29],[19,2],[-6,-44],[38,12],[-12,23],[1,20],[46,-2],[9,6],[-12,34],[98,5],[-17,29],[19,0],[21,-35],[21,-4],[56,13],[-2,-10],[28,5],[39,20],[-4,12],[34,14],[-17,12],[12,11],[51,-12],[-14,-9],[13,-13]],[[9008,7521],[-36,-15],[-10,7],[-27,-17],[46,-57],[16,7],[28,24],[11,-4],[48,29],[25,-20],[-3,23],[-27,26],[64,7],[18,-27],[-4,-34],[-49,3],[-48,-23],[39,-20],[-14,-27],[-42,-40],[-22,13],[-32,0],[5,-34],[-3,-37],[-12,9],[1,23],[-25,27],[-46,1],[-37,-16],[-11,21],[20,-5],[59,23],[-4,24],[-61,71],[30,21],[9,-13],[46,24],[0,18],[14,8],[34,-20]],[[8806,7617],[32,19],[58,-60],[-22,2],[-40,-20],[-14,12],[-14,28],[0,19]],[[4977,5458],[55,-3],[15,-48],[-6,-14],[-45,5],[-17,-23],[-39,-29],[9,-17],[-84,-26],[-20,-11],[3,40],[-34,33],[34,27],[1,71],[128,-5]],[[6166,7402],[-34,-4],[-21,-29],[-12,6],[-61,61],[47,54],[24,12],[74,26],[53,-42],[33,-20],[-17,-18],[-50,-6],[-21,-13],[-1,-23],[-14,-4]],[[9090,9430],[55,119],[-5,11]],[[9140,9560],[45,-17]],[[9185,9543],[40,-12],[23,-38]],[[9248,9493],[5,-5]],[[4447,4175],[-9,-6],[38,-42],[-43,-11],[-10,11],[17,8],[-25,24],[21,12],[-18,24],[-30,-28],[0,-9],[-28,-1],[-3,46],[-16,24],[-6,-42],[-23,-11],[-18,-34],[-21,-7],[-6,-21],[-34,8]],[[9937,9993],[14,5],[48,-2],[-6,-35],[-10,-12],[-37,12],[-22,-52],[-29,-18],[-5,-27],[-27,28],[-7,-2],[-13,-68],[-9,-6],[-87,5],[-20,-4],[-24,-24],[-28,-9],[-22,1],[-14,16],[-31,-12],[-14,-14],[-29,3],[-45,-24],[-27,-1],[-16,19],[-54,24],[-15,19],[31,-1],[42,22],[42,-8],[50,20],[19,-7],[24,7],[2,40],[23,8],[33,-2],[19,44],[15,3],[35,-8],[76,12],[34,21],[31,-2],[12,27],[18,8],[23,-6]],[[8852,9255],[-13,0],[3,19],[-12,9],[-57,10],[-4,20],[22,12],[-8,26],[-20,10],[7,34],[-5,29]],[[8765,9424],[12,-10],[1,-40],[22,1],[14,29],[21,23],[6,33]],[[8841,9460],[39,-6]],[[8886,9771],[1,-35],[-26,-38],[-11,-28],[15,-18],[7,-23],[-11,-13],[16,-51],[-8,-24],[-34,-11],[-20,-17],[3,-29],[23,-24]],[[8765,9424],[7,14],[-11,22],[-35,23],[-8,15],[3,44],[-17,25],[-47,98],[-15,15],[-29,10],[-13,23],[-21,17],[-9,-4],[-27,52],[-8,-3],[-16,32],[-31,-22],[-22,12],[21,23],[68,34],[-5,24],[17,25],[27,-2],[-11,-24],[40,40],[36,5],[45,-15],[-8,-36],[5,-8],[35,-9],[5,-15],[-13,-25],[18,-18],[42,-6],[16,-8],[39,13],[30,-27],[13,3]],[[9022,8620],[-40,1],[-13,27],[-16,10],[-58,-18]],[[8895,8640],[-30,51],[13,38],[14,80]],[[8892,8809],[6,3]],[[8898,8812],[20,33],[1,52],[20,23],[19,8],[7,-11],[-27,-30],[-3,-21],[27,-21],[-28,-45],[8,-45],[15,-23],[9,-49],[30,-22],[26,-41]],[[7446,5262],[43,-10],[-8,-29],[-20,-15],[-27,-5],[-43,19],[-16,-6],[-21,19],[23,12],[10,-9],[44,-23],[7,14],[-14,17],[22,16]],[[7372,5141],[0,0]],[[7359,5208],[17,-15],[37,0],[10,-11],[-9,-27],[-16,-4],[11,20],[-65,11],[0,26],[15,0]],[[7874,9475],[-6,-20],[-21,2],[-24,-59],[-28,-25],[-40,-13],[-22,0],[-30,-44],[4,-19],[25,-24],[14,-42],[-15,-19],[-16,-2],[-14,-29],[-40,-3],[-23,13],[-10,18],[29,6],[10,22],[-21,85],[62,34],[59,25],[28,20],[8,34],[-10,59],[9,8],[38,5],[31,-9],[3,-23]],[[7,2],[0,24],[23,45],[6,34],[-4,40],[32,11],[24,31],[31,-18],[4,-53],[-9,-24],[-52,-67],[-55,-23]],[[228,260],[11,5],[24,-29],[-22,-32],[-22,17],[-47,-33],[-31,0],[68,54],[-23,-6],[4,47],[14,5],[24,-28]],[[284,307],[-39,-29],[-21,16],[-14,37],[-37,78],[-5,25],[-19,17],[2,17],[62,21]],[[213,489],[21,-103],[13,-12],[15,2],[12,-57],[10,-12]],[[213,489],[59,17],[21,-30],[29,-140],[-38,-29]],[[8877,9065],[-66,-23],[-102,-66]],[[8709,8976],[-77,-60],[-121,-100]],[[8511,8816],[-88,-31],[-86,-47],[-63,-29],[-21,-4]],[[8253,8705],[-54,-7]],[[8199,8698],[-38,14],[-27,18],[-27,-2],[-2,-38],[-7,-9],[-25,0],[7,39],[-5,6]],[[8075,8726],[31,16],[34,43],[7,24],[20,-1],[21,-21],[17,18],[36,2],[10,10],[-18,22],[8,6],[49,-4],[8,24],[16,2],[-17,39],[19,4],[18,41],[12,-16],[34,30],[52,-13],[35,18],[15,-15],[25,-4],[-6,29],[8,22],[18,14],[37,-21],[3,27],[27,1],[22,21],[40,-13],[17,13],[2,20],[-11,20],[30,28],[34,-10],[38,9],[26,17],[-36,8],[-15,14]],[[9218,8684],[-53,-56],[-52,-39],[-47,17],[-10,12]],[[9056,8618],[14,43],[20,30],[-21,10],[18,5],[39,-4],[1,26],[-15,6],[1,21],[45,64],[20,11],[32,5],[-1,23],[-12,21],[16,30],[26,-4],[40,33],[-3,28],[-29,26],[5,22],[16,3],[25,31],[-3,13]],[[9290,9061],[28,18],[17,27]],[[9335,9106],[16,-24],[-11,-26],[8,-14]],[[9348,9042],[-10,-16],[-1,-31],[7,-22],[-9,-29],[-4,-52],[-8,-13],[-31,-19],[-46,-36],[-54,-70],[-4,-14],[14,-20],[-8,-31],[24,-5]],[[8772,8014],[7,68],[7,33],[32,68],[11,50],[-3,31]],[[8826,8264],[15,4],[-6,21],[6,38],[-12,4],[25,39],[0,22],[-24,33],[-3,18]],[[8827,8443],[19,51],[4,29],[-8,24],[17,27],[35,27],[8,19],[-7,20]],[[9022,8620],[5,-5]],[[9027,8615],[13,-31],[-26,-13],[3,-24],[-10,-19],[-29,-27],[-11,-57],[4,-17],[-8,-22],[-39,-61],[-25,-26],[-15,-48],[7,-25],[0,-56],[-10,-25],[-16,-20],[-4,-67],[52,-62],[-22,-30],[-38,-21],[-61,-16],[-26,1],[6,65]],[[8420,8464],[-5,-39],[-41,-114],[-15,-24],[-46,-41],[-133,-90],[-93,-50],[-78,-38],[-31,-10]],[[7978,8058],[-84,-25],[5,-21],[-19,-2],[-2,18],[-60,-21],[-93,-54],[-39,-15],[-46,-4],[17,-57],[-18,-54],[-8,2],[-47,45],[-91,26],[-42,0],[-35,10],[-58,29],[142,0],[1,37],[14,15],[37,5],[48,-8],[21,-20],[40,55],[28,3]],[[7689,8022],[26,2],[24,41],[25,7],[33,-9],[49,20],[43,2],[24,6],[42,29],[31,51]],[[7986,8171],[-1,18],[23,37],[6,61]],[[8014,8287],[8,-12],[78,-74],[8,12],[-11,12],[26,0],[27,38],[8,27],[46,-10],[55,125],[23,65]],[[8282,8470],[38,-4],[31,-13],[69,11]],[[8113,8583],[-40,-16],[-37,3],[-1,40],[51,19],[-24,33],[-1,17],[12,24],[2,23]],[[8199,8698],[-22,-8],[-22,-34],[0,-34],[-12,-20],[-30,-19]],[[9570,9321],[-30,0],[-44,-13],[-53,-35]],[[9248,9493],[12,25]],[[9260,9518],[95,-34],[7,5],[22,-13],[31,25],[16,-33],[101,-16],[26,-9],[33,50],[3,19],[25,18],[64,-24],[31,-38],[14,-51],[-47,-23],[-20,-17],[-1,-12],[-44,10],[-9,-16],[-16,1],[-22,-18],[1,-21]],[[8579,8291],[-12,-5],[35,-21],[8,3],[14,-23]],[[8624,8245],[-6,-37],[-40,-30],[-7,-33],[-12,-14],[-21,22],[-40,19],[-34,1],[-9,-8],[-8,-32],[5,-26],[-63,-66],[-21,-11],[-13,7],[5,13],[-14,31],[-47,0],[-6,12],[-39,17],[-38,-4],[-26,-15],[-3,9],[-39,-8],[-59,-42],[-30,-13],[-47,-8],[-34,29]],[[8420,8464],[-6,82],[9,47],[40,144],[14,22],[1,23]],[[8478,8782],[46,-10],[104,36],[25,5],[166,-26]],[[8819,8787],[-26,-15],[-22,-30],[3,-14],[48,-27],[-4,-34],[8,-24],[-8,-41],[-11,-26],[-36,-21],[-14,0],[-31,-32],[-39,-8],[-7,-30],[-47,-31],[-10,-25],[-25,-22],[-24,-9],[-25,-22],[12,-71],[18,-14]],[[8282,8470],[11,33],[-6,17],[-70,17]],[[8217,8537],[11,58],[39,66],[-14,44]],[[8511,8816],[-33,-34]],[[9500,9091],[-9,-16],[-39,-19],[-52,5],[-17,-14],[-35,-5]],[[9335,9106],[-77,24]],[[9570,9321],[66,-13],[24,-16],[-5,-15],[-27,-27],[57,-1],[-4,-18],[-124,-49],[-55,-10],[-2,-81]],[[8014,8287],[42,20],[11,28],[25,16],[21,33],[39,48],[13,-3],[4,35],[-22,13],[-32,10],[-28,29],[39,32]],[[8126,8548],[7,-5],[77,-19],[7,13]],[[9087,9044],[-6,-12],[85,-12]],[[9166,9020],[-7,-8],[-2,-36],[-8,-29],[-22,-1],[-41,-71],[4,-7],[-41,-80],[-40,10],[9,-16],[-11,-13],[-2,-43],[11,-40],[2,-35],[12,-33]],[[9030,8618],[-3,-3]],[[8898,8812],[7,110],[23,61]],[[9500,9091],[14,17],[46,-11],[20,9],[30,-9],[50,-6],[29,-9],[36,4],[-1,-19],[66,-27],[47,0],[-10,-49],[-27,3],[-50,-16],[-24,-3],[-29,15],[-43,9],[21,32],[-59,14],[1,-21],[-20,-1],[-24,-16],[-25,-46],[4,-31],[58,0],[20,-16],[-19,-4],[-56,11],[-25,-5],[-36,-18],[-41,-47],[-23,-14],[-68,-12],[-46,-23],[-47,-51],[-32,-27],[-19,-40]],[[8892,8809],[-37,-16]],[[8855,8793],[-21,5],[3,18],[-47,33],[-49,11],[14,33],[-37,10],[24,53],[-33,20]],[[9056,8618],[-26,0]],[[9166,9020],[36,9],[88,32]],[[9307,9751],[-35,-7],[-61,-145],[-26,-56]],[[9140,9560],[12,17],[-16,42]],[[9136,9619],[-11,39],[7,12],[-3,33],[26,23],[20,32],[-22,14],[44,7],[76,48],[15,3],[15,22],[-4,64]],[[9299,9916],[21,8],[-5,15],[27,9],[5,-13],[15,6],[-18,-36],[3,-28],[32,27],[42,4],[5,-15],[-69,-21],[-39,-31],[50,-22],[7,-10],[-16,-13],[4,-21],[-38,-12],[-18,-12]],[[8878,9458],[9,28],[32,23],[42,20],[134,26],[13,9],[27,38],[1,17]],[[8126,8548],[20,10],[-33,25]],[[8886,9771],[19,5],[24,-15],[26,17],[19,41],[28,41],[2,51],[14,44],[12,2],[0,-25],[15,-15],[6,43],[75,-5],[26,-24],[13,-26],[51,16],[31,43],[34,21],[60,13],[0,-17],[-29,-17],[-13,-48]],[[8700,8351],[39,-41],[50,28],[21,-4],[-7,-65],[23,-5]],[[8772,8014],[-30,-27],[3,31],[-37,29],[16,16],[-80,84],[8,36],[-1,31],[12,9],[-32,26],[-7,-4]],[[8579,8291],[17,10],[41,-7],[12,28],[34,-4],[7,18],[-28,24],[11,6],[20,-22],[7,7]],[[7689,8022],[-66,54],[-27,-8],[-12,-23],[-39,18],[-46,45],[50,17],[101,80],[49,27],[38,-53],[22,-22],[29,-19],[5,-33],[32,22],[42,13],[34,54],[44,-18],[41,-5]],[[9307,9751],[30,3],[29,-7],[31,9],[34,-12],[-3,-18],[-29,-5],[-32,19],[-33,-34],[40,-34],[-6,-25],[15,-35],[-50,-5],[-8,-20],[-42,-18],[-29,-35],[6,-16]],[[8700,8351],[108,64],[19,28]],[[8819,8787],[36,6]]]}
