{"type":"Topology","bbox":[-75.79652610902673,4.198831298541939,-75.78264208188409,4.2138001213058995],"transform":{"scale":[0.00000138854156842059,0.0000014970319795940203],"translate":[-75.79652610902673,4.198831298541939]},"objects":{"municipios":{"type":"GeometryCollection","geometries":[{"type":"Polygon","arcs":[[0,1,2]],"properties":{"codigo":"63302100000000000104","sector":"633021000000000001","pcode":"CO63302","area_m2":26436}},{"type":"Polygon","arcs":[[3,4,5,6]],"properties":{"codigo":"63302100000000000102","sector":"633021000000000001","pcode":"CO63302","area_m2":38211}},{"type":"Polygon","arcs":[[7,-3,-5,8]],"properties":{"codigo":"63302100000000000103","sector":"633021000000000001","pcode":"CO63302","area_m2":68250}},{"type":"Polygon","arcs":[[9,10,11]],"properties":{"codigo":"63302100000000000204","sector":"633021000000000002","pcode":"CO63302","area_m2":80805}},{"type":"Polygon","arcs":[[12,-9,-4,13,14,15,-10]],"properties":{"codigo":"63302100000000000205","sector":"633021000000000002","pcode":"CO63302","area_m2":51195}},{"type":"Polygon","arcs":[[-15,16,17,18]],"properties":{"codigo":"63302100000000000202","sector":"633021000000000002","pcode":"CO63302","area_m2":39479}},{"type":"Polygon","arcs":[[-16,-19,19,-11]],"properties":{"codigo":"63302100000000000203","sector":"633021000000000002","pcode":"CO63302","area_m2":58697}},{"type":"Polygon","arcs":[[20,-6,-2,21]],"properties":{"codigo":"63302100000000000101","sector":"633021000000000001","pcode":"CO63302","area_m2":109923}},{"type":"Polygon","arcs":[[-7,-21,22,-17,-14]],"properties":{"codigo":"63302100000000000201","sector":"633021000000000002","pcode":"CO63302","area_m2":45326}}]}},"arcs":[[[2291,2878],[-185,16],[-18,132],[-476,-258],[-590,-161],[-176,-202],[-51,100],[-376,-411],[-129,86]],[[290,2180],[421,474],[886,642],[515,345],[531,236]],[[2643,3877],[39,-313],[-312,-339],[-79,-347]],[[4205,4725],[-905,-602]],[[3300,4123],[-504,-329],[-153,83]],[[2643,3877],[-88,198],[220,554],[255,191],[70,232],[-11,394],[225,370]],[[3314,5816],[537,-699],[62,2],[292,-394]],[[3476,3884],[-180,-213],[80,-564],[-165,-454],[30,-429],[158,-150],[-67,-81],[249,-606],[331,-898],[122,-89],[84,-376],[-455,-24],[-108,60],[-57,394],[-410,269],[-128,543],[16,369],[-291,385],[47,291],[-103,277],[-253,118],[-85,172]],[[3300,4123],[176,-239]],[[7481,6486],[-178,235]],[[7303,6721],[-527,735],[225,160],[-114,142],[-173,-113],[-134,173]],[[6580,7818],[601,97],[186,102],[502,486],[365,110],[305,-69],[545,197],[133,166],[16,362],[265,527],[1,200],[335,-74],[165,-209],[-466,-412],[-207,-649],[-12,-300],[-116,-198],[-229,-154],[-400,-508],[-479,-334],[-423,-230],[175,-133],[-361,-309]],[[7481,6486],[-125,-269],[15,-174],[-193,-27],[-928,-495],[-558,-373],[-503,-251],[-104,-98],[-475,-200],[72,-92],[-665,-416],[-100,128],[-441,-335]],[[4205,4725],[876,574]],[[5081,5299],[930,585]],[[6011,5884],[1292,837]],[[5081,5299],[-1082,1447]],[[3999,6746],[565,237],[159,-74]],[[4723,6909],[-3,-138],[204,-329],[438,234],[649,-792]],[[4723,6909],[392,-4],[637,413],[489,128],[339,372]],[[3840,6630],[-263,-342],[-263,-472]],[[290,2180],[-290,95],[147,226],[-75,122],[119,131],[158,379],[499,370],[-65,441],[269,175],[240,502],[714,337],[-43,456],[152,223],[468,241],[674,254],[168,174],[108,336],[307,-12]],[[3840,6630],[159,116]]]}
