{"type":"Topology","bbox":[-75.863362602584,4.492720792082884,-75.7368451704321,4.576607361945038],"transform":{"scale":[0.000012653008516041585,0.00000838949593580894],"translate":[-75.863362602584,4.492720792082884]},"objects":{"municipios":{"type":"GeometryCollection","geometries":[{"type":"Polygon","arcs":[[0,1,2,3,4]]},{"type":"Polygon","arcs":[[5,6,7,8,9]]},{"type":"Polygon","arcs":[[10,11,12]]},{"type":"Polygon","arcs":[[13,-4,14,-6,15,16]]},{"type":"Polygon","arcs":[[17,18,19,-5,-14,20,21]]},{"type":"Polygon","arcs":[[22,23,24,25,26]]},{"type":"Polygon","arcs":[[27,28,29,-22,30,-24]]},{"type":"Polygon","arcs":[[31,32,33,-18,-30,34]]},{"type":"Polygon","arcs":[[35,-32,36,37]]},{"type":"MultiPolygon","arcs":[[[38]],[[39]]]},{"type":"Polygon","arcs":[[40]]},{"type":"Polygon","arcs":[[41]]},{"type":"Polygon","arcs":[[42]]},{"type":"Polygon","arcs":[[43]]},{"type":"Polygon","arcs":[[44,45,46,47,48]]},{"type":"Polygon","arcs":[[-2,49,-49,50]]},{"type":"Polygon","arcs":[[51,-9,52,-13,53]]},{"type":"Polygon","arcs":[[-8,54,-47,55,56,-11,-53]]},{"type":"Polygon","arcs":[[-15,-3,-51,-48,-55,-7]]},{"type":"Polygon","arcs":[[57,58,59,60,61,62,-45,-50,-1,-20]]},{"type":"Polygon","arcs":[[63,-16,-10,-52,64]]},{"type":"Polygon","arcs":[[-31,-21,-17,-64,65,66,-25]]},{"type":"Polygon","arcs":[[-58,-19,-34,67]]},{"type":"Polygon","arcs":[[-26,-67,68,69]]},{"type":"Polygon","arcs":[[-27,-70,70,71]]},{"type":"Polygon","arcs":[[72,73,-56,-46,-63]]},{"type":"Polygon","arcs":[[-37,-35,-29,74,75,76]]},{"type":"Polygon","arcs":[[77,-59,-68,-33,-36]]},{"type":"Polygon","arcs":[[-60,-78,-38,-77,78]]},{"type":"Polygon","arcs":[[79,-73,-62]]},{"type":"Polygon","arcs":[[80]]},{"type":"Polygon","arcs":[[81,82]]},{"type":"Polygon","arcs":[[83]]},{"type":"Polygon","arcs":[[-82,84]]},{"type":"Polygon","arcs":[[-75,-28,-23,-72,85]]}]}},"arcs":[[[8826,8383],[-14,54]],[[8812,8437],[-5,25]],[[8807,8462],[-33,176]],[[8774,8638],[151,66]],[[8925,8704],[14,-71],[-73,-88],[14,-101],[-54,-61]],[[8737,8829],[24,-127]],[[8761,8702],[-101,-45],[-13,65],[-102,-43]],[[8545,8679],[-27,140]],[[8518,8819],[49,9],[155,60]],[[8722,8888],[15,-59]],[[8269,8670],[-28,-174],[-26,-51]],[[8215,8445],[-74,133],[-131,-6],[-197,-92],[-98,-85],[-73,51],[-9,113],[79,16],[128,99],[137,138],[91,57],[-8,62],[94,37]],[[8154,8968],[17,-86],[40,18],[15,-76],[-22,-41],[39,-43],[-15,-31],[41,-39]],[[8901,8830],[24,-126]],[[8774,8638],[-13,64]],[[8737,8829],[153,65]],[[8890,8894],[11,-64]],[[9052,8560],[17,-96],[-7,-74]],[[9062,8390],[-44,-88],[-93,-83],[-6,-55]],[[8919,8164],[-93,219]],[[8901,8830],[95,41]],[[8996,8871],[56,-311]],[[9135,9002],[30,-127]],[[9165,8875],[-29,57],[-91,-39]],[[9045,8893],[-34,188]],[[9011,9081],[98,46]],[[9109,9127],[26,-125]],[[9165,8875],[10,-6]],[[9175,8869],[86,-61],[16,-57],[-16,-69]],[[9261,8682],[-108,-57],[-40,-79],[-24,30],[-37,-16]],[[8996,8871],[49,22]],[[9276,8543],[-5,-3]],[[9271,8540],[-43,-20],[9,-31],[-54,-53]],[[9183,8436],[-99,-80],[-22,34]],[[9261,8682],[15,-139]],[[9292,8377],[8,44],[-29,119]],[[9276,8543],[70,67]],[[9346,8610],[52,-184],[-38,-33],[-14,33],[-54,-49]],[[6161,2787],[12,-61],[73,52],[17,-141],[112,-31],[-43,-196],[-45,-6],[-7,-96],[-43,-124],[-47,18],[-36,-19],[-16,-56],[68,-35],[-37,-133],[-34,23],[-20,-108],[20,-20],[-34,-120],[-28,-151],[-44,51],[47,141],[19,164],[-62,32],[65,252],[-20,40],[67,-24],[27,136],[-30,25],[-91,26],[6,155],[-119,-15],[7,57],[47,-7],[29,38],[27,116],[33,-36],[80,53]],[[5863,2458],[49,-23],[20,-195],[-91,-23],[-10,59],[42,37],[0,69],[-45,20],[-2,53],[37,3]],[[4173,2385],[-43,7],[110,81],[137,88],[6,-28],[-144,-90],[-66,-58]],[[386,270],[8,-97],[69,-123],[-25,-23],[-75,-2],[9,30],[-33,52],[24,101],[-79,-23],[-51,-123],[-84,44],[-7,97],[56,-32],[60,74],[128,25]],[[2403,5805],[3,231],[12,159],[215,93],[-15,48],[44,29],[243,62],[70,-21],[182,31],[59,-5],[108,48],[39,32],[129,-3],[9,64],[149,126],[107,144],[84,-58],[20,24],[80,-170],[160,32],[100,4],[0,28],[309,24],[-2,34],[81,-11],[65,-42],[74,3],[57,-40],[32,61],[46,-73],[-58,-66],[-95,-44],[-52,7],[-4,-170],[-120,7],[-109,25],[-385,-30],[-124,-54],[-13,57],[-56,-4],[6,-29],[-92,-62],[9,-65],[51,7],[116,-100],[-47,-116],[-69,82],[-236,69],[-108,-6],[-76,22],[-1,-170],[-123,21],[-19,-48],[-69,24],[-27,-61],[-36,29],[-53,-11],[-18,-51],[-113,126],[-45,7],[-97,-18],[-72,-73],[-62,5],[-17,-48],[34,-26],[-54,-221],[-37,-94],[-108,134],[-34,75],[-47,16]],[[6462,3232],[-17,-2],[1,112],[-16,37],[174,154],[35,-43],[30,84],[102,-103],[-30,-103],[-42,-26],[-50,-66],[35,-56],[-40,-68],[-117,-61],[-26,9],[-39,132]],[[8742,8274],[73,-53]],[[8815,8221],[-81,-75],[-61,-31],[-65,30],[-28,44],[-81,-11],[-54,20]],[[8445,8198],[31,74],[-11,90]],[[8465,8362],[39,23],[-13,82],[19,43],[32,-70],[51,84]],[[8593,8524],[27,-64],[-18,-15],[22,-72],[118,-99]],[[8812,8437],[-70,-163]],[[8593,8524],[59,-21],[32,-77],[76,37],[47,-1]],[[8591,9211],[-39,-93],[44,-38],[87,-167],[39,-25]],[[8518,8819],[-157,-23],[-71,-80],[-21,-46]],[[8154,8968],[62,-30],[-16,72],[48,139],[21,-41],[47,-23],[43,16],[2,149],[50,12],[23,-151],[69,58],[88,42]],[[8545,8679],[-102,-43],[-33,-79],[27,-65],[-9,-66],[37,-64]],[[8445,8198],[-49,20],[-2,-65],[-31,-59]],[[8363,8094],[-34,67],[-37,-18],[-26,59],[32,91],[-42,21],[-41,131]],[[8919,8164],[72,-89]],[[8991,8075],[74,-127]],[[9065,7948],[46,-104]],[[9111,7844],[-91,-109],[-48,-16],[-141,87],[-18,-181],[-99,104],[-35,52]],[[8679,7781],[30,92],[59,233]],[[8768,8106],[91,111],[-6,51],[-38,-47]],[[8874,8991],[16,-97]],[[8591,9211],[45,-104],[80,18],[-11,-96],[50,-36],[24,30],[-13,97],[22,9],[40,-83],[46,-55]],[[8874,8991],[31,36]],[[8905,9027],[14,-42],[52,24],[6,55],[34,17]],[[9183,8436],[25,-83],[-20,-17],[25,-72],[-73,-97],[-10,55],[-18,-53],[-55,-24],[16,-100],[-42,71],[-40,-41]],[[8905,9027],[-20,139],[34,43],[53,-33],[69,30],[-4,117],[13,119],[17,41],[39,-5],[40,-56],[47,143]],[[9193,9565],[57,-113],[37,-36],[-50,-125],[-59,-45],[-69,-119]],[[9193,9565],[101,20],[9,184],[54,-87],[58,-46],[77,29],[78,96],[53,-88],[84,25],[58,67],[59,122],[72,112],[19,-29]],[[9915,9970],[-124,-226],[-78,-70],[-79,-39],[-88,-64],[-89,-102],[-107,-159],[-71,-119],[-21,32],[-51,-53],[16,-57],[-52,-25],[12,-64],[-48,-22]],[[8768,8106],[-38,-19],[-155,-139],[-21,30],[-101,-66],[-4,14],[-118,-43],[8,-38]],[[8339,7845],[-66,98],[29,85],[61,66]],[[9175,8869],[68,56],[39,71],[10,76],[90,207],[117,121]],[[9499,9400],[-3,-152],[73,-29],[50,-88],[-11,-51]],[[9608,9080],[-43,-41],[-47,-124],[-124,-267],[-48,-38]],[[9292,8377],[2,-61],[53,48],[-67,-169],[-49,-50],[-54,-5],[-29,-57],[-59,-55],[-24,-80]],[[9608,9080],[25,-44],[-14,-62],[37,-108],[13,35],[89,45],[130,-107],[83,-56],[0,-69],[-35,-101],[35,-99],[-53,-21],[-45,-72],[0,-59],[-54,-8],[-64,-47],[-87,-105],[-62,-8],[-23,98],[-45,22],[-80,-290],[-100,-189],[-31,72],[-72,-69],[-23,-77],[-46,-85],[-75,168]],[[8679,7781],[-70,104],[-30,-106],[-164,-44],[-76,110]],[[46,6263],[73,-196],[138,-221],[220,-29],[4,47],[47,6],[12,-56],[147,-14],[185,35],[2,52],[56,-9],[-2,-38],[68,-2],[139,-32],[4,53],[80,-21],[-8,-46],[242,-57],[85,-69],[-20,-82],[126,-76],[14,59],[123,-69],[-28,-120],[-4,-70],[-292,181],[-48,142],[-94,7],[-147,30],[-158,43],[-126,2],[-140,-41],[-203,-13],[-72,25],[-230,13],[-49,52],[-130,200],[-60,203],[5,82],[41,29]],[[7689,7520],[31,-38],[-29,-78],[-33,34]],[[7658,7438],[-118,118],[-32,17],[-108,-2],[-351,-71],[-209,0],[-84,-48],[-148,-53],[-67,1],[-72,34],[-79,10],[-7,-45],[-90,-5],[-8,59],[-69,6],[1,50],[-29,54],[30,11],[138,-11],[12,65],[87,-20],[-2,-73],[123,-35],[99,23],[186,87],[174,11],[216,45],[184,24],[111,-22],[143,-148]],[[3807,8636],[39,7],[13,-108],[-104,-4],[23,48],[-4,59],[33,-2]],[[7689,7520],[91,123],[-19,44],[76,56],[18,-46],[67,56],[32,73],[-29,37],[31,44],[13,140],[74,-43],[-17,-176],[18,-24],[-23,-70],[-56,-90],[-5,26],[-74,-59],[-130,-126],[-63,-226],[6,-26],[-58,-61],[-42,-144],[38,-24],[-18,-84],[-48,27],[-47,-138],[-25,-113],[-46,-132],[47,-36],[-24,-81],[-37,28],[5,-181],[-23,-186],[-19,-61],[30,-19],[-17,-55],[-32,23],[-74,-165],[-42,11],[-45,58],[-16,97],[85,53],[6,93],[53,10],[15,148],[-8,279],[68,108],[35,156],[-31,54],[68,42],[80,272],[44,96],[37,130]],[[9915,9970],[23,19],[61,-110],[-19,-26],[-50,85],[-116,-218],[-101,-90],[-104,-56],[-9,-44],[-83,-125],[-18,-5]]]}
