{"type":"Topology","bbox":[-75.9639651955788,5.101499210137539,-75.93622682075579,5.146453391585465],"transform":{"scale":[0.000002774114893789602,0.00000449586773156573],"translate":[-75.9639651955788,5.101499210137539]},"objects":{"municipios":{"type":"GeometryCollection","geometries":[{"type":"Polygon","arcs":[[0,1,2,3]]},{"type":"Polygon","arcs":[[4,5]]},{"type":"Polygon","arcs":[[-3,6,-5,7]]},{"type":"Polygon","arcs":[[8,9,10,-1,11]]},{"type":"Polygon","arcs":[[12,13,-9]]},{"type":"Polygon","arcs":[[14,-10,-14]]},{"type":"Polygon","arcs":[[15]]},{"type":"Polygon","arcs":[[16]]}]}},"arcs":[[[8727,1538],[-901,-335],[-222,-89],[-593,-215],[-222,-57],[-71,81],[-70,5],[-98,-55],[-68,38]],[[6482,911],[290,73],[-68,64],[10,67]],[[6714,1115],[16,30],[633,232],[114,-126],[742,268]],[[8219,1519],[193,56],[52,-54],[100,28],[163,-11]],[[7906,1649],[-147,56],[-89,-46],[-410,-144],[-232,-97],[-103,4],[-118,-84],[-45,-88],[-73,22],[-37,-87]],[[6652,1185],[-365,33],[-90,-9],[-80,-58],[-99,31],[25,-83],[-53,-36],[-103,155],[155,154],[83,-19],[49,96],[61,26],[25,127],[70,68],[-37,100],[-132,147],[-131,63],[110,155],[122,-17],[104,63],[103,-41],[282,52],[437,33],[370,57],[101,-86],[-70,-64],[-320,9],[-85,-26],[64,-102],[20,-201],[106,-45],[332,-6],[230,-86],[-30,-26]],[[6714,1115],[-62,70]],[[7906,1649],[-22,-73],[151,22],[82,-64],[102,-15]],[[9689,1250],[-53,-20],[-180,49],[-246,15],[-302,-61],[-130,-42],[-37,81],[-307,-6],[-85,-32],[126,-136],[-412,-149],[-123,124],[-617,-239]],[[7323,834],[-199,-73],[-57,62],[-181,-12],[149,-157],[165,-37]],[[7200,617],[-183,-37],[-116,-58],[-424,-62],[-144,26],[54,181],[-68,60],[-181,23],[10,62],[79,59],[157,-30],[98,70]],[[8727,1538],[236,68],[129,93],[382,149],[73,95],[70,-59],[-118,-126],[-361,-139],[15,-60],[-129,-29],[-20,-71],[-102,-79],[98,-17],[224,138],[280,21],[83,-33],[102,-239]],[[9689,1250],[56,-100],[123,-80],[16,-84]],[[9884,986],[-205,-10],[-368,-95],[-264,11],[-158,-18],[-35,33],[-130,-60],[-79,91],[-258,-42],[-819,-309],[-245,247]],[[9884,986],[29,-94],[86,-28],[-98,-74],[81,-87],[-126,-51],[-166,43],[-135,0],[-196,-145],[-123,-50],[-126,101],[-114,-78],[-138,-28],[-108,-54],[-180,30],[-168,-89],[-108,-1],[-141,-72],[-99,36],[-313,-96],[10,-70],[-97,-45],[-244,-6],[-36,-119],[-243,12],[-119,24],[-88,59],[-31,69],[40,76],[147,149],[99,138],[21,81]],[[287,9996],[17,-67],[80,53],[47,-92],[-86,-34],[180,-140],[184,-68],[-77,-24],[-22,-115],[-142,-28],[143,-80],[-139,-147],[38,123],[-28,39],[-183,77],[-299,-28],[73,54],[170,53],[2,108],[-108,36],[-68,127],[116,138],[102,15]],[[6069,4466],[46,-4],[101,-108],[-63,-47],[-31,45],[-157,2],[-108,33],[73,-148],[11,-82],[-77,-69],[-293,-80],[-82,119],[75,117],[221,-1],[78,54],[-128,122],[87,0],[176,70],[71,-23]]]}