{"type":"Topology","bbox":[-75.81475766401229,4.905873490881481,-75.71698195468838,4.995745446826514],"transform":{"scale":[0.000009778548787269927,0.000008988094403943688],"translate":[-75.81475766401229,4.905873490881481]},"objects":{"municipios":{"type":"GeometryCollection","geometries":[{"type":"Polygon","arcs":[[0]],"properties":{"codigo":"66440200103013000101","sector":"664402001030130001","pcode":"CO66440","area_m2":9138}},{"type":"Polygon","arcs":[[1]],"properties":{"codigo":"66440200201003000101","sector":"664402002010030001","pcode":"CO66440","area_m2":7444}},{"type":"Polygon","arcs":[[2]],"properties":{"codigo":"66440200201009000101","sector":"664402002010090001","pcode":"CO66440","area_m2":16518}},{"type":"Polygon","arcs":[[3]],"properties":{"codigo":"66440200203008000101","sector":"664402002030080001","pcode":"CO66440","area_m2":21379}},{"type":"Polygon","arcs":[[4]],"properties":{"codigo":"66440200103001000101","sector":"664402001030010001","pcode":"CO66440","area_m2":79517}},{"type":"Polygon","arcs":[[5]],"properties":{"codigo":"66440200104002000101","sector":"664402001040020001","pcode":"CO66440","area_m2":32342}},{"type":"Polygon","arcs":[[6,7,8]],"properties":{"codigo":"66440100000000000104","sector":"664401000000000001","pcode":"CO66440","area_m2":255944}},{"type":"Polygon","arcs":[[9,10,11]],"properties":{"codigo":"66440100000000000102","sector":"664401000000000001","pcode":"CO66440","area_m2":97276}},{"type":"Polygon","arcs":[[-8,12,13,14,-11,15,16]],"properties":{"codigo":"66440100000000000103","sector":"664401000000000001","pcode":"CO66440","area_m2":108016}},{"type":"Polygon","arcs":[[17,18,-14,19]],"properties":{"codigo":"66440100000000000106","sector":"664401000000000001","pcode":"CO66440","area_m2":107460}},{"type":"Polygon","arcs":[[20,21,-12,-15,-19,22]],"properties":{"codigo":"66440100000000000108","sector":"664401000000000001","pcode":"CO66440","area_m2":223263}},{"type":"Polygon","arcs":[[-23,-18,23,24]],"properties":{"codigo":"66440100000000000107","sector":"664401000000000001","pcode":"CO66440","area_m2":399648}},{"type":"Polygon","arcs":[[-24,-20,-13,-7,25]],"properties":{"codigo":"66440100000000000105","sector":"664401000000000001","pcode":"CO66440","area_m2":370132}},{"type":"Polygon","arcs":[[-22,26,-16,-10]],"properties":{"codigo":"66440100000000000101","sector":"664401000000000001","pcode":"CO66440","area_m2":804031}}]}},"arcs":[[[9995,7415],[-14,-2],[4,-75],[-10,-19],[-10,32],[-45,16],[-12,26],[39,16],[-14,74],[49,20],[17,-32],[-4,-56]],[[2454,1102],[8,-16],[61,-17],[5,21],[41,-20],[8,-16],[-53,12],[-25,-59],[-23,-5],[-21,22],[20,27],[-29,11],[-7,20],[-29,8],[-8,28],[52,-16]],[[91,245],[-26,-121],[11,-2],[-11,-36],[12,-43],[23,-11],[-28,-24],[-32,-8],[-36,27],[16,30],[-20,14],[30,44],[20,99],[-2,25],[18,79],[-2,47],[20,1],[10,-80],[-3,-41]],[[8512,1412],[27,-15],[45,-43],[-3,-63],[25,-20],[10,-26],[25,-15],[38,-69],[25,-26],[27,2],[2,-21],[22,-16],[15,-46],[-23,1],[-14,38],[-28,36],[-50,28],[-38,50],[-25,-51],[-33,7],[-30,64],[-5,82],[24,1],[1,35],[-67,74],[11,14],[19,-21]],[[7350,9860],[36,-72],[14,-13],[64,-112],[17,12],[19,-19],[21,-73],[24,24],[28,-8],[-37,-27],[3,-62],[17,-2],[18,-181],[-36,0],[19,-86],[16,-97],[-36,-2],[-18,125],[28,6],[-13,73],[-23,-2],[-2,36],[19,0],[-36,200],[-50,-20],[-9,22],[0,55],[-19,28],[5,30],[-56,89],[-78,-74],[-48,-54],[-22,-44],[-26,27],[14,40],[-41,-6],[-7,38],[-82,55],[31,15],[85,-35],[13,17],[-29,34],[-53,38],[0,16],[29,10],[45,-7],[34,5],[24,38],[26,77],[-3,20],[21,5],[24,-37],[21,-96],[9,-6]],[[2237,6138],[17,-44],[19,2],[27,-118],[8,-64],[-33,3],[4,-44],[-33,10],[-79,45],[-14,162],[4,35],[33,23],[29,-6],[-10,25],[14,7],[14,-36]],[[7599,4113],[19,-58],[70,-114],[74,-59],[-23,-170],[-66,10],[10,49],[-14,17],[-30,-4],[-49,-48],[-18,-155]],[[7572,3581],[-71,8],[-14,-74],[-5,-89],[42,-80],[-31,-16],[-51,10],[-33,48],[-22,1],[-36,-47],[-26,21],[-36,11]],[[7289,3374],[14,21],[-11,18],[3,40],[-8,44],[-32,27],[2,22],[-36,37],[-21,37],[18,28],[22,8],[21,36],[31,14],[-22,12],[-30,60],[-28,35],[-32,21],[-48,-56],[-53,37],[48,88],[76,-62],[37,-37],[70,42],[8,34],[34,41],[68,-11],[-15,27],[-35,26],[-10,27],[36,37],[6,41],[21,16],[14,-23],[39,12],[24,27],[41,8],[27,-20],[31,25]],[[7736,3078],[-87,7],[-27,-78],[-66,25],[-72,58],[-59,-3],[-9,37],[-35,15],[-8,22],[-102,92],[23,16]],[[7294,3269],[33,3],[91,-24],[64,16],[51,2],[16,51],[36,16],[176,-20]],[[7761,3313],[-9,-111],[-16,-124]],[[7572,3581],[221,-29]],[[7793,3552],[-10,-82]],[[7783,3470],[-22,-157]],[[7294,3269],[-57,-1]],[[7237,3268],[-10,34],[-40,12],[18,31],[45,24],[39,5]],[[8006,3875],[-25,-114],[-21,-154],[145,-18],[40,1],[-5,-62],[25,-2],[-18,-18],[-13,-53],[-36,5],[-5,-29],[-14,2]],[[8079,3433],[-296,37]],[[7793,3552],[27,205],[25,154],[26,-5],[40,-28],[2,-14],[42,33],[1,18],[55,-27],[-5,-13]],[[8210,3105],[34,4],[8,-14],[-18,-64],[11,-39],[-12,-58],[-43,-50],[-28,-59],[-41,26],[12,29],[-12,20],[-21,-16],[-38,18],[-19,28],[14,-84],[-8,-45],[-36,6]],[[8013,2807],[-40,84],[-28,20],[-62,67],[21,38],[-3,51],[14,66],[-99,10],[-4,-43],[9,-32],[-69,2],[-16,8]],[[8079,3433],[-7,-94],[12,-43],[63,-27],[13,-26],[-3,-29],[35,-11],[20,-36],[-2,-62]],[[8006,3875],[58,-19],[44,-5],[30,77],[4,35],[18,38],[-5,25],[20,41],[35,27],[14,28]],[[8224,4122],[42,10],[23,-23],[28,-70],[34,-27],[47,-12],[11,-18],[91,56],[-3,78],[21,-9],[26,-36],[10,-43],[-25,-15],[6,-30],[-10,-55],[11,-50],[-16,-30],[-26,-15],[-51,-112],[-103,-67],[13,-21],[52,-41],[22,-54],[22,-4],[-7,-39],[43,12],[40,-22],[20,-26],[62,24],[37,-4],[18,-26],[61,-15],[43,-25],[64,9],[31,18],[55,12],[22,-22],[-20,-39],[-27,-1],[-18,-36],[-20,-8],[-68,19],[-38,-25],[-34,11],[-21,-10],[-39,-57],[-16,12],[23,70],[-39,-15],[-47,-2],[-20,41],[-50,-20],[12,-36],[-35,9],[-38,-12],[-11,-45],[-21,-19],[-116,-39],[-2,-34],[-50,-34],[-22,-23],[-11,-32]],[[7599,4113],[50,142],[34,-1],[33,12],[29,30],[41,29],[-6,30],[1,65],[16,40],[42,-49],[46,6],[35,52],[39,-7],[17,66],[42,-48],[59,-30],[66,3],[56,-22],[34,-38],[8,-41],[-35,-57],[34,-33],[-16,-140]],[[8013,2807],[-18,3],[-33,45],[-30,3],[-11,-29],[29,-62],[43,-58],[-43,-11],[-8,20],[-46,-82],[-2,-84],[22,-78],[20,-26],[80,-138],[-21,-20],[-38,-10],[-37,-48],[-33,-22],[-44,-15],[-49,34],[-30,10],[-40,-8],[-76,46],[2,-34],[25,-55],[-11,-32],[5,-42],[-10,-11],[-32,7],[-37,36],[-16,28],[-16,78],[-89,76],[-13,25],[-5,-26],[-25,-37],[-39,12],[-42,39],[-59,-15],[-15,-22],[-31,-14],[-56,23],[-40,31],[-29,0],[-18,21],[-55,-42],[-15,3],[23,78],[14,85],[48,32],[6,26],[-11,36],[15,46],[-58,40],[22,58],[28,30],[7,25],[39,-7],[-28,54],[7,40],[2,75],[-19,37],[-22,21],[-69,3],[-11,-16],[-39,-5],[-21,21],[23,48],[30,28],[7,57],[45,47],[15,38],[157,45]]]}
