{"type":"Topology","bbox":[-75.97509858631594,4.881853070811662,-75.95482778214517,4.9639834149275215],"transform":{"scale":[0.0000020272831453909157,0.00000821385579716568],"translate":[-75.97509858631594,4.881853070811662]},"objects":{"municipios":{"type":"GeometryCollection","geometries":[{"type":"Polygon","arcs":[[0]]},{"type":"Polygon","arcs":[[1]]},{"type":"MultiPolygon","arcs":[[[2]],[[3]],[[4]]]},{"type":"Polygon","arcs":[[5,6,7]]},{"type":"Polygon","arcs":[[8,9,10]]},{"type":"Polygon","arcs":[[-7,11,-11,12,13]]},{"type":"Polygon","arcs":[[-10,14,15,-13]]},{"type":"Polygon","arcs":[[-6,16,-15,-9,-12]]}]}},"arcs":[[[913,415],[71,-23],[-193,-92],[-81,5],[-437,-140],[-88,-96],[-80,-64],[-87,9],[199,162],[149,45],[-38,12],[182,68],[68,7],[253,104],[82,3]],[[1758,4479],[26,-91],[196,-46],[22,-29],[-81,-8],[99,-69],[71,71],[58,6],[199,-42],[-72,-90],[-86,4],[-182,-11],[-31,-45],[-87,-51],[13,60],[-81,126],[-64,2],[-119,46],[-85,13],[-32,27],[71,59],[10,35],[65,1],[-3,32],[-68,0],[-2,94],[54,3],[37,-55],[89,-2],[-17,-40]],[[7124,9998],[57,-7],[-147,-71],[-121,-32],[-348,-48],[-34,-47],[-144,15],[-143,-26],[-66,32],[221,47],[424,59],[157,51],[144,27]],[[6637,9480],[-56,-15],[-178,142],[136,24],[99,-69],[147,-63],[-148,-19]],[[6623,9722],[0,0]],[[8773,8142],[-175,-2],[77,18],[8,29],[85,14],[-64,32],[-137,33],[-219,19]],[[8348,8285],[71,47],[119,16],[248,-2],[153,35]],[[8939,8381],[101,-29],[127,13],[135,-40],[283,31],[39,-8],[10,-71],[115,-5],[237,8],[-69,-22],[-34,-48],[-169,0],[-450,-15],[63,-31],[-286,-32],[-85,19],[-183,-9]],[[8135,8334],[-119,-10]],[[8016,8324],[-170,-4],[-121,199]],[[7725,8519],[315,11],[51,-90],[-32,-20],[58,-32],[18,-54]],[[8348,8285],[-213,49]],[[7725,8519],[-21,28],[-239,15],[-126,48],[223,18],[177,71],[78,10]],[[7817,8709],[58,-28],[-45,-13],[366,-24],[128,-41],[108,-60],[52,-5],[-23,-83],[-88,-3],[79,-38],[244,-1],[202,-16],[41,-16]],[[8016,8324],[-4,-61],[26,-58]],[[8038,8205],[-170,3],[-111,53],[-52,62],[-119,-5],[-73,148],[-63,-3],[-171,63],[44,15],[-101,30],[43,35],[-127,26],[247,92],[213,108],[10,-38],[263,-20],[11,-51],[-65,-14]],[[8773,8142],[-146,-20],[34,-62],[-1,-54],[96,-17],[-8,-47],[283,-32],[115,-31],[-151,-65],[35,-46],[-414,-9],[-174,-34],[-445,7],[-182,14],[-168,-12],[-301,-35],[-108,34],[-115,-37],[-92,-14],[-137,9],[115,46],[173,28],[-43,17],[-256,8],[-302,2],[-69,27],[39,14],[-42,36],[65,85],[77,26],[99,3],[142,24],[12,-19],[217,5],[94,-62],[58,-59],[175,7],[37,44],[125,27],[91,-2],[169,-59],[22,-35],[161,-19],[104,-47],[227,18],[-88,24],[-123,4],[-172,67],[161,22],[272,-77],[209,5],[-81,40],[-98,7],[-267,74],[80,19],[-18,36],[-106,56],[-93,27],[86,19],[-1,39],[-107,37]]]}
