{"type":"Topology","bbox":[-75.70062896890187,4.787240456992804,-75.58378853716374,4.957989151685851],"transform":{"scale":[0.000011685211694982095,0.000017076577127017377],"translate":[-75.70062896890187,4.787240456992804]},"objects":{"municipios":{"type":"GeometryCollection","geometries":[{"type":"MultiPolygon","arcs":[[[0]],[[1]]],"properties":{"codigo":"66682200110008000101","sector":"666822001100080001","pcode":"CO66682","area_m2":16673}},{"type":"Polygon","arcs":[[2]],"properties":{"codigo":"66682200404010000101","sector":"666822004040100001","pcode":"CO66682","area_m2":24274}},{"type":"Polygon","arcs":[[3]],"properties":{"codigo":"66682200107012000101","sector":"666822001070120001","pcode":"CO66682","area_m2":18648}},{"type":"Polygon","arcs":[[4]],"properties":{"codigo":"66682200116020000101","sector":"666822001160200001","pcode":"CO66682","area_m2":19892}},{"type":"MultiPolygon","arcs":[[[5]],[[6]],[[7]],[[8]],[[9]]],"properties":{"codigo":"66682200106024000101","sector":"666822001060240001","pcode":"CO66682","area_m2":99700}},{"type":"Polygon","arcs":[[10]],"properties":{"codigo":"66682200104006000101","sector":"666822001040060001","pcode":"CO66682","area_m2":317051}},{"type":"MultiPolygon","arcs":[[[11]],[[12]],[[13]],[[14]]],"properties":{"codigo":"66682200112016000101","sector":"666822001120160001","pcode":"CO66682","area_m2":31041}},{"type":"MultiPolygon","arcs":[[[15]],[[16]],[[17]],[[18]],[[19]],[[20]],[[21]],[[22]]],"properties":{"codigo":"66682200401019000101","sector":"666822004010190001","pcode":"CO66682","area_m2":23395}},{"type":"MultiPolygon","arcs":[[[23]],[[24]],[[25]],[[26]],[[27]],[[28]]],"properties":{"codigo":"66682200103003000101","sector":"666822001030030001","pcode":"CO66682","area_m2":26585}},{"type":"MultiPolygon","arcs":[[[29]],[[30]]],"properties":{"codigo":"66682200101017000101","sector":"666822001010170001","pcode":"CO66682","area_m2":35811}},{"type":"MultiPolygon","arcs":[[[31]],[[32]],[[33]],[[34]]],"properties":{"codigo":"66682200102009000101","sector":"666822001020090001","pcode":"CO66682","area_m2":20099}},{"type":"Polygon","arcs":[[35]],"properties":{"codigo":"66682200110025000101","sector":"666822001100250001","pcode":"CO66682","area_m2":24192}},{"type":"Polygon","arcs":[[36,37,38]],"properties":{"codigo":"66682100000000000111","sector":"666821000000000001","pcode":"CO66682","area_m2":29616}},{"type":"Polygon","arcs":[[39,40,41,42]],"properties":{"codigo":"66682100000000000506","sector":"666821000000000005","pcode":"CO66682","area_m2":82898}},{"type":"Polygon","arcs":[[43,44,45,46,47,48,49,50,51,52,53,54,55,56,57,58]],"properties":{"codigo":"66682100000000000401","sector":"666821000000000004","pcode":"CO66682","area_m2":636453}},{"type":"Polygon","arcs":[[59,60,61,62]],"properties":{"codigo":"66682100000000000302","sector":"666821000000000003","pcode":"CO66682","area_m2":84668}},{"type":"Polygon","arcs":[[63,64,65,66,67]],"properties":{"codigo":"66682100000000000504","sector":"666821000000000005","pcode":"CO66682","area_m2":68768}},{"type":"Polygon","arcs":[[68,69,70,-54]],"properties":{"codigo":"66682100000000000408","sector":"666821000000000004","pcode":"CO66682","area_m2":41434}},{"type":"Polygon","arcs":[[71,72]],"properties":{"codigo":"66682100000000000109","sector":"666821000000000001","pcode":"CO66682","area_m2":86239}},{"type":"Polygon","arcs":[[73,74,75]],"properties":{"codigo":"66682100000000000410","sector":"666821000000000004","pcode":"CO66682","area_m2":109841}},{"type":"Polygon","arcs":[[76,77,-48,78,79]],"properties":{"codigo":"66682100000000000204","sector":"666821000000000002","pcode":"CO66682","area_m2":92826}},{"type":"Polygon","arcs":[[80,-42,81,82]],"properties":{"codigo":"66682100000000000502","sector":"666821000000000005","pcode":"CO66682","area_m2":55274}},{"type":"Polygon","arcs":[[83,84,85,86,87]],"properties":{"codigo":"66682100000000000105","sector":"666821000000000001","pcode":"CO66682","area_m2":167203}},{"type":"Polygon","arcs":[[88,89,90]],"properties":{"codigo":"66682100000000000505","sector":"666821000000000005","pcode":"CO66682","area_m2":92688}},{"type":"Polygon","arcs":[[-86,91,92,-46,93]],"properties":{"codigo":"66682100000000000104","sector":"666821000000000001","pcode":"CO66682","area_m2":135964}},{"type":"MultiPolygon","arcs":[[[94,-83,95,96,-90]],[[97]]],"properties":{"codigo":"66682100000000000501","sector":"666821000000000005","pcode":"CO66682","area_m2":129736}},{"type":"Polygon","arcs":[[98,99]],"properties":{"codigo":"66682100000000000110","sector":"666821000000000001","pcode":"CO66682","area_m2":275909}},{"type":"Polygon","arcs":[[100,-67,101,-59,102,-96,-82,-41]],"properties":{"codigo":"66682100000000000107","sector":"666821000000000001","pcode":"CO66682","area_m2":134625}},{"type":"Polygon","arcs":[[103,104,-51]],"properties":{"codigo":"66682100000000000409","sector":"666821000000000004","pcode":"CO66682","area_m2":28023}},{"type":"Polygon","arcs":[[105,106]],"properties":{"codigo":"66682200101022000101","sector":"666822001010220001","pcode":"CO66682","area_m2":92657}},{"type":"Polygon","arcs":[[-66,107,-44,-102]],"properties":{"codigo":"66682100000000000102","sector":"666821000000000001","pcode":"CO66682","area_m2":126636}},{"type":"Polygon","arcs":[[108,109,-79,-47,-93]],"properties":{"codigo":"66682100000000000201","sector":"666821000000000002","pcode":"CO66682","area_m2":199380}},{"type":"Polygon","arcs":[[-38,110,-88,111,-64,112,113]],"properties":{"codigo":"66682100000000000108","sector":"666821000000000001","pcode":"CO66682","area_m2":213057}},{"type":"Polygon","arcs":[[-113,-68,-101,-40,114]],"properties":{"codigo":"66682100000000000503","sector":"666821000000000005","pcode":"CO66682","area_m2":164474}},{"type":"Polygon","arcs":[[-112,-87,-94,-45,-108,-65]],"properties":{"codigo":"66682100000000000103","sector":"666821000000000001","pcode":"CO66682","area_m2":198496}},{"type":"Polygon","arcs":[[-73,115,-91,-97,-103,-58,116,-100,117,-106,118]],"properties":{"codigo":"66682100000000000101","sector":"666821000000000001","pcode":"CO66682","area_m2":860596}},{"type":"Polygon","arcs":[[119,120,121,122,123,124]],"properties":{"codigo":"66682100000000000601","sector":"666821000000000006","pcode":"CO66682","area_m2":223581}},{"type":"Polygon","arcs":[[125,126,-60,127,128,129]],"properties":{"codigo":"66682100000000000301","sector":"666821000000000003","pcode":"CO66682","area_m2":142716}},{"type":"Polygon","arcs":[[130,131,132,133,-126]],"properties":{"codigo":"66682100000000000308","sector":"666821000000000003","pcode":"CO66682","area_m2":241431}},{"type":"Polygon","arcs":[[-129,134]],"properties":{"codigo":"66682100000000000307","sector":"666821000000000003","pcode":"CO66682","area_m2":56086}},{"type":"Polygon","arcs":[[135,-127,-134,136,-78,137]],"properties":{"codigo":"66682100000000000205","sector":"666821000000000002","pcode":"CO66682","area_m2":143674}},{"type":"Polygon","arcs":[[138,139,140,-84,-111,-37,141]],"properties":{"codigo":"66682100000000000602","sector":"666821000000000006","pcode":"CO66682","area_m2":156490}},{"type":"Polygon","arcs":[[142,143,-131,-130,-135,-128,-63,144]],"properties":{"codigo":"66682100000000000306","sector":"666821000000000003","pcode":"CO66682","area_m2":264085}},{"type":"Polygon","arcs":[[-143,145,146,147]],"properties":{"codigo":"66682100000000000305","sector":"666821000000000003","pcode":"CO66682","area_m2":324311}},{"type":"Polygon","arcs":[[-141,148,-109,-92,-85]],"properties":{"codigo":"66682100000000000106","sector":"666821000000000001","pcode":"CO66682","area_m2":164720}},{"type":"Polygon","arcs":[[-147,149,-62,150,151,-120,152]],"properties":{"codigo":"66682100000000000303","sector":"666821000000000003","pcode":"CO66682","area_m2":376044}},{"type":"Polygon","arcs":[[153,-70,154,155,-56]],"properties":{"codigo":"66682100000000000402","sector":"666821000000000004","pcode":"CO66682","area_m2":101738}},{"type":"Polygon","arcs":[[-123,156,-110,-149,-140,157]],"properties":{"codigo":"66682100000000000202","sector":"666821000000000002","pcode":"CO66682","area_m2":116670}},{"type":"Polygon","arcs":[[158,-49,-137,-133,159,160,-76,161,162]],"properties":{"codigo":"66682100000000000405","sector":"666821000000000004","pcode":"CO66682","area_m2":364156}},{"type":"Polygon","arcs":[[-74,-161,163]],"properties":{"codigo":"66682100000000000701","sector":"666821000000000007","pcode":"CO66682","area_m2":107005}},{"type":"Polygon","arcs":[[-152,164,-138,-77,165,-121]],"properties":{"codigo":"66682100000000000206","sector":"666821000000000002","pcode":"CO66682","area_m2":101146}},{"type":"Polygon","arcs":[[-69,-53,166,167,-163,168,-155]],"properties":{"codigo":"66682100000000000403","sector":"666821000000000004","pcode":"CO66682","area_m2":299107}},{"type":"Polygon","arcs":[[-150,-146,-145]],"properties":{"codigo":"66682100000000000304","sector":"666821000000000003","pcode":"CO66682","area_m2":94560}},{"type":"Polygon","arcs":[[-166,-80,-157,-122]],"properties":{"codigo":"66682100000000000203","sector":"666821000000000002","pcode":"CO66682","area_m2":89895}},{"type":"Polygon","arcs":[[-136,-165,-151,-61]],"properties":{"codigo":"66682100000000000207","sector":"666821000000000002","pcode":"CO66682","area_m2":75201}},{"type":"Polygon","arcs":[[-168,169,-104,-50,-159]],"properties":{"codigo":"66682100000000000406","sector":"666821000000000004","pcode":"CO66682","area_m2":85278}},{"type":"Polygon","arcs":[[-124,-158,-139,170]],"properties":{"codigo":"66682100000000000603","sector":"666821000000000006","pcode":"CO66682","area_m2":22970}},{"type":"Polygon","arcs":[[-105,-170,-167,-52]],"properties":{"codigo":"66682100000000000404","sector":"666821000000000004","pcode":"CO66682","area_m2":78077}},{"type":"Polygon","arcs":[[171]],"properties":{"codigo":"66682100000000000112","sector":"666821000000000001","pcode":"CO66682","area_m2":23362}},{"type":"Polygon","arcs":[[-71,-154,-55]],"properties":{"codigo":"66682100000000000407","sector":"666821000000000004","pcode":"CO66682","area_m2":58960}}]}},"arcs":[[[5005,9984],[15,3],[-46,-97],[-13,-12],[-12,10],[1,23],[-9,20],[-16,-3],[-36,13],[9,15],[37,-13],[34,7],[21,49],[15,-15]],[[4868,9964],[-6,-10],[-39,3],[-14,-7],[1,-18],[-13,2],[-11,23],[9,22],[50,-4],[23,-11]],[[5072,161],[34,-13],[-9,-13],[22,-16],[1,-18],[-36,-6],[-14,-17],[-9,-54],[13,-14],[-20,-10],[-39,3],[-73,24],[14,7],[25,-7],[17,13],[-23,2],[3,10],[-18,19],[65,-13],[16,24],[-16,6],[51,23],[-5,27],[-14,15],[15,8]],[[9563,7501],[8,-22],[23,4],[-4,-18],[-25,1],[-67,-21],[-38,2],[-7,-15],[-48,-4],[-3,12],[-33,-10],[-38,-16],[-28,12],[16,17],[-3,11],[56,-12],[16,12],[-36,18],[-24,0],[14,12],[15,-8],[12,9],[54,-27],[9,11],[44,-14],[21,4],[36,17],[30,25]],[[1150,7432],[7,-13],[16,7],[13,-17],[27,-11],[8,25],[14,5],[45,-12],[14,-20],[20,-9],[-4,-16],[26,-5],[-6,-15],[-21,-2],[-30,22],[-21,-7],[-71,18],[-23,-17],[-14,35],[-28,11],[16,20],[-9,19],[10,3],[11,-21]],[[9004,4500],[55,-18],[51,-3],[108,-52],[72,-39],[23,-18],[53,35],[22,-23],[26,1],[5,-27],[14,-34],[31,4],[36,-20],[-17,-30],[56,-15],[-10,37],[33,-1],[1,7],[49,-6],[-21,-46],[-34,4],[-6,-33],[-24,-13],[-75,23],[27,44],[-45,12],[-9,-16],[30,-8],[-7,-15],[-73,18],[10,19],[19,10],[-16,24],[-69,46],[-23,-12],[-58,34],[-85,40],[-5,20],[-23,11],[-50,5],[-20,-2],[-56,19],[5,8],[-35,9],[-12,-9],[-38,16],[17,2],[16,14],[52,-22]],[[9989,4095],[-38,-23],[-18,-27],[-10,-2],[52,-27],[-6,-8],[-26,3],[-60,32],[1,10],[-57,-1],[-11,-15],[-32,16],[17,15],[45,2],[28,16],[29,-2],[25,7],[-3,14],[32,12],[42,-13],[-10,-9]],[[9686,4124],[45,-5],[28,-20],[-25,-5],[0,-15],[-22,-9],[-37,23],[8,7],[-49,17],[24,9],[28,-2]],[[9769,4140],[-20,3],[-8,26],[33,-3],[-5,-26]],[[9668,4190],[30,-15],[-4,-8],[-58,14],[-37,12],[34,14],[-9,23],[12,1],[15,-28],[17,-13]],[[7051,6610],[10,-19],[27,10],[57,-53],[66,30],[19,-20],[-71,-33],[8,-11],[-11,-9],[19,-19],[-3,-54],[-15,-9],[42,-9],[15,21],[14,33],[16,-5],[-10,-25],[15,-5],[-13,-25],[7,-12],[-19,-32],[64,4],[23,6],[-6,11],[44,24],[18,-22],[90,2],[-7,10],[23,11],[-9,15],[55,10],[-6,18],[-99,47],[-3,13],[21,7],[82,-18],[-18,-21],[45,-18],[9,-15],[45,4],[20,-14],[-31,3],[-21,-26],[-12,3],[-35,-15],[42,-20],[16,11],[28,-27],[-22,-20],[52,-17],[12,17],[41,-8],[14,41],[-27,11],[5,13],[26,14],[23,-22],[30,23],[17,-12],[-10,-14],[53,-16],[41,-19],[-8,-19],[-13,-5],[-43,-34],[-33,-32],[40,-12],[32,39],[36,-15],[4,11],[47,-10],[-11,-15],[29,-2],[29,-11],[11,8],[37,-24],[50,-18],[33,23],[57,-25],[17,-26],[-4,-6],[36,-16],[28,-2],[0,18],[-12,5],[-7,18],[61,-14],[-2,-12],[14,-21],[-33,-26],[12,-8],[52,-60],[-29,-16],[-43,38],[-62,26],[-6,-10],[-55,8],[-59,18],[-45,-16],[-5,7],[-22,-3],[-39,13],[59,5],[38,9],[24,13],[-43,43],[-41,16],[-49,11],[-10,6],[-6,-21],[-38,2],[-37,-3],[-3,9],[-27,3],[-14,10],[-52,-5],[-28,-18],[-53,14],[-1,9],[-39,-12],[-21,0],[-5,11],[44,7],[18,9],[28,4],[22,33],[-52,-3],[-59,19],[-21,-3],[-13,13],[2,37],[-12,8],[-6,-22],[-17,-10],[-19,14],[-43,11],[-47,-1],[1,-8],[-33,7],[-38,-15],[-18,9],[-28,-7],[-23,-14],[-12,17],[-57,-5],[-11,-8],[-25,7],[0,15],[-64,16],[-46,-2],[3,-54],[-16,-18],[-30,-7],[16,33],[-44,9],[-28,11],[19,26],[71,13],[-20,19],[-40,13],[-16,36],[-28,10],[44,11],[21,-24],[45,8],[4,-20],[24,10],[-15,17],[-4,20],[-36,43],[-21,30],[11,4],[-11,15],[27,7],[-24,29],[23,7]],[[3132,6835],[-4,-12],[-44,2],[-26,-52],[21,-5],[-27,-8],[-4,-17],[18,-9],[-31,-25],[-13,-38],[10,-33],[7,-47],[14,-21],[10,-64],[-10,5],[-4,35],[-20,34],[-14,0],[12,14],[-7,51],[-17,15],[13,42],[-14,4],[23,37],[3,20],[33,68],[24,-4],[7,28],[35,-4],[5,-16]],[[3097,6903],[-12,-29],[-14,3],[3,19],[23,7]],[[3157,7010],[-33,-49],[-8,-2],[6,-41],[-20,0],[-1,16],[-13,23],[15,35],[-14,10],[29,31],[39,-23]],[[3150,7041],[-13,-1],[15,36],[20,-12],[-22,-23]],[[7372,3455],[17,-2],[8,-35],[-1,-25],[-15,-18],[-26,9],[-22,-3],[-3,9],[31,2],[14,25],[-3,21],[-13,19],[4,20],[23,22],[-6,67],[11,-1],[0,-26],[11,-28],[-17,-50],[-13,-6]],[[7457,3147],[87,17],[-1,-8],[-71,-18],[-13,0],[-45,17],[6,19],[37,-27]],[[7383,3190],[-21,13],[-2,32],[13,0],[-3,-25],[13,-20]],[[7351,3256],[0,0]],[[7312,3292],[-18,18],[-4,43],[19,9],[-9,-21],[12,-49]],[[7397,3584],[-10,1],[-4,25],[20,-7],[-6,-19]],[[7318,3724],[31,-11],[-2,-6],[-73,28],[-22,22],[9,28],[13,2],[12,-29],[32,-34]],[[7263,3811],[-29,15],[29,7],[0,-22]],[[42,8593],[19,-12],[23,6],[40,-9],[-7,-8],[25,-12],[-11,-6],[35,-15],[-7,-7],[-55,17],[-4,-4],[-54,22],[-46,42],[17,13],[13,-6],[12,-21]],[[495,8223],[0,0]],[[489,8237],[-21,19],[-21,33],[-14,12],[9,6],[59,-59],[-12,-11]],[[425,8307],[0,-7],[-41,10],[-2,19],[43,-22]],[[272,8451],[27,5],[55,-27],[26,-34],[-4,-20],[-44,-6],[1,32],[9,18],[-50,24],[-6,-7],[-20,8],[-24,20],[30,-13]],[[213,8501],[25,-9],[-20,-21],[-28,18],[-2,20],[12,6],[13,-14]],[[5983,7940],[18,-21],[-15,2],[-23,-18],[-6,-15],[-1,-34],[-6,-33],[8,-40],[10,3],[24,-33],[-27,-24],[13,-21],[-29,-16],[-3,-13],[-15,-4],[-12,31],[-66,5],[10,21],[14,-2],[22,18],[29,-17],[9,21],[-7,53],[-11,3],[-19,55],[36,1],[9,31],[-55,9],[27,34],[20,-4],[18,10],[28,-2]],[[5786,7727],[-2,38],[58,-27],[-56,-11]],[[2378,8404],[45,-8],[2,-32],[14,-19],[-10,-10],[-55,-20],[-16,10],[30,28],[1,21],[-23,27],[12,3]],[[2268,8118],[12,-24],[-34,1],[12,21],[7,34],[-9,12],[-37,27],[15,7],[14,-11],[46,-10],[-26,-49],[0,-8]],[[2334,8257],[12,-11],[-1,-19],[-35,11],[30,60],[15,-5],[-21,-36]],[[2474,8379],[-20,5],[21,24],[19,-1],[-20,-28]],[[4559,9483],[21,-10],[-11,-5],[8,-46],[-34,-4],[4,-12],[17,0],[6,-30],[16,-39],[-19,-8],[13,-12],[37,-2],[7,-36],[17,-31],[21,-15],[13,-20],[-21,-8],[-7,15],[-20,3],[-7,13],[-33,-12],[-7,20],[24,9],[-22,15],[26,9],[-24,35],[-17,-9],[-17,19],[-37,14],[29,17],[5,50],[-26,1],[2,27],[16,-1],[13,52],[7,1]],[[7063,5206],[-14,-7]],[[7049,5199],[-42,24],[-16,5],[-40,-10],[-23,12],[-34,5],[-16,40],[62,13]],[[6940,5288],[90,20],[14,-8],[13,-20],[-24,-35],[49,-21],[-19,-18]],[[6783,5758],[-30,-8],[-275,-56]],[[6478,5694],[-37,47],[51,16],[70,39],[19,-14],[59,41]],[[6640,5823],[62,38],[33,-4],[16,16],[21,9]],[[6772,5882],[34,10],[11,-5],[21,-38],[-15,-11],[-30,0],[-7,-19],[55,-31],[-23,-10],[-2,-11],[-33,-9]],[[6266,5717],[32,-50],[6,-27],[1,-48],[13,-23],[-27,-42],[-16,-10],[-34,-4],[-21,-23],[-2,-27],[18,-60]],[[6236,5403],[13,-41],[-3,-34],[34,-81],[-1,-14]],[[6279,5233],[-4,-36],[5,-29],[20,-33],[8,-32],[67,-29],[19,-22],[0,-35],[-19,-32]],[[6375,4985],[-43,-43],[-7,-27],[14,-20],[2,-37],[-14,-49],[13,-24],[33,-16],[18,-21],[9,-55],[28,-30]],[[6428,4663],[37,-31],[46,-45]],[[6511,4587],[-37,-19],[-23,-1],[-33,9],[-15,15],[-16,61],[-10,16],[-28,27],[-69,43],[-62,0]],[[6218,4738],[-32,100]],[[6186,4838],[66,10],[5,22],[-2,54],[-23,21],[-10,0],[-8,27],[10,4],[-9,29],[-8,-9],[-43,-6],[8,-25],[-25,-3]],[[6147,4962],[-33,102]],[[6114,5064],[-13,42]],[[6101,5106],[89,15],[12,-1],[-21,70],[40,5],[-13,65]],[[6208,5260],[12,2],[-21,65],[-22,-3],[-34,103],[-52,-6],[1,-17],[-15,-11],[-62,-10]],[[6015,5383],[-18,67],[-59,21],[-86,36],[-89,30],[-72,19]],[[5691,5556],[19,13],[26,9],[49,5],[27,8],[19,16],[30,43],[8,28],[-7,17],[62,28],[-19,30],[11,5],[41,-11],[9,5],[13,41],[-40,4],[-2,22],[13,13],[26,9],[22,-1],[78,-36],[14,5],[-2,32],[27,15],[1,32],[-15,23],[-7,31],[18,22]],[[6112,5964],[34,-56],[22,-48],[-4,-21]],[[6164,5839],[5,-37],[28,-22],[29,-16],[40,-47]],[[7005,4358],[-67,146]],[[6938,4504],[215,45]],[[7153,4549],[66,-147]],[[7219,4402],[-214,-44]],[[6648,5506],[17,-14],[1,-26],[18,3],[2,-31],[24,2],[8,-13],[20,1],[10,-13]],[[6748,5415],[-36,-22],[-59,-13],[-14,-14],[-15,36],[26,5],[-21,52],[-27,-6]],[[6602,5453],[-18,41],[-81,-17],[-31,69],[-12,42]],[[6460,5588],[18,45]],[[6478,5633],[37,-19],[31,2],[65,-24],[22,-38],[0,-26],[15,-22]],[[6101,5106],[-25,81]],[[6076,5187],[-19,51]],[[6057,5238],[151,22]],[[6542,7157],[32,-16],[6,-27],[12,-13],[-35,-65],[-20,5],[-48,-4],[-52,-12],[-39,12],[-16,-1],[-59,186]],[[6323,7222],[18,35],[19,1],[26,-25],[14,-3],[-2,-15],[28,-22],[32,-6],[16,-12],[51,-19],[17,1]],[[6220,4587],[-23,-2]],[[6197,4585],[-42,-2],[-53,6],[-16,-5],[-45,-29],[-34,-2],[-36,8],[-29,-4],[-56,-36],[-9,-19],[15,-26],[-12,-6],[14,-22],[-60,-16],[-34,27],[-28,-23],[20,-7],[-2,-22],[-12,-21],[-55,-70],[-22,13],[-15,0],[-39,17]],[[5647,4346],[91,68],[-3,93],[20,10],[36,-5],[17,7],[-17,17],[2,16],[63,-6],[10,6],[23,69],[16,-1],[34,16],[21,2],[68,20],[32,-15],[35,5],[30,-21],[51,-11],[44,-29]],[[6873,4654],[0,-3]],[[6873,4651],[-289,-59],[-25,52],[-9,4],[1,-25],[-11,-21],[-29,-15]],[[6428,4663],[93,21],[20,-29],[5,16],[-12,29],[24,-8],[54,12],[218,45]],[[6830,4749],[43,-95]],[[6606,5970],[22,-6],[46,-1],[21,-18],[26,-13],[42,-11],[12,-12],[-3,-27]],[[6640,5823],[-82,41],[-46,18]],[[6512,5882],[57,59],[37,29]],[[6789,5098],[-6,-34],[42,-29]],[[6825,5035],[-33,-5],[-47,9],[-19,-14],[10,-27],[-82,-18],[-200,-40],[-13,45]],[[6441,4985],[-4,42],[3,17],[-1,52],[-10,52],[61,12],[222,48]],[[6712,5208],[79,14]],[[6791,5222],[7,-21],[-15,-8],[-65,2],[-11,-9],[-1,-21],[37,-42],[39,-2],[7,-23]],[[6407,6414],[11,-1],[31,-25],[-11,-25],[30,-8],[16,-12],[50,-12],[-30,-13],[1,-10],[-20,-13],[6,-8]],[[6491,6287],[-19,2],[0,-13],[-16,-21],[-12,-5],[-58,-3]],[[6386,6247],[-116,-8],[-26,138],[8,62],[104,-26],[15,6],[22,-11],[14,6]],[[6441,4985],[-23,-4]],[[6418,4981],[-43,4]],[[6279,5233],[120,1],[9,14],[66,16],[249,53],[23,-15],[-73,-15],[39,-79]],[[6491,6287],[40,-18],[-6,-21],[-32,-26],[5,-17],[19,7],[8,-10],[-20,-7],[-1,-14],[32,-22],[-5,-15],[53,-30],[38,-13],[35,3],[-5,-16],[21,-23],[17,15],[21,-1],[-47,-28],[-11,-14],[8,-21],[-6,-12],[-49,-34]],[[6512,5882],[-14,-18]],[[6498,5864],[-40,203],[-1,25],[-13,32],[-32,-1],[-9,74],[-6,5],[-11,45]],[[6769,6088],[-38,-13],[-14,9],[3,28],[17,1],[37,-17],[-5,-8]],[[6068,6461],[-27,34],[-50,21],[-13,10],[41,48],[11,35],[-14,48],[0,76],[-5,31],[2,58],[-3,28],[3,56],[-8,25],[5,24],[29,33],[18,33],[65,58],[35,-45]],[[6157,7034],[41,-18],[37,3],[37,-31],[15,-23],[5,-22],[-32,-10],[-4,-19],[-21,-17],[-45,-21],[22,-25],[34,-6],[2,-19],[13,-5],[-10,-22],[15,-9],[-43,-73],[-28,-68],[-5,-52],[2,-52],[-4,-16],[-18,29],[-27,-6],[-25,-71],[-15,-11],[-35,-9]],[[6478,5694],[12,-36],[-12,-25]],[[6460,5588],[-113,19],[-4,50],[20,51],[-26,-5],[-20,18],[-51,-4]],[[6164,5839],[48,-4],[26,8],[106,12],[41,-55],[45,-49],[15,31],[53,82]],[[6186,4838],[-15,50]],[[6171,4888],[-24,74]],[[6377,7342],[1,8],[-45,88],[-52,4]],[[6281,7442],[-2,20],[13,5],[-18,33],[-99,41],[15,31],[41,54],[50,-20],[-2,-17],[75,-1],[13,29],[47,-23],[41,-15],[-4,-23],[-12,-8],[-36,-3],[-16,-11],[-6,-49],[14,-5],[46,-49],[1,-24],[-31,-18],[25,-26],[24,-8],[-16,-23],[-12,7],[-24,-19],[-31,22]],[[6602,5453],[9,-18],[-81,-16],[-7,17],[-137,-29],[-18,47],[-22,-5],[-17,-30],[-14,-11],[-79,-5]],[[6418,4981],[4,-30],[-45,-7],[20,-36],[-21,-39],[94,19],[16,-48],[117,23],[162,33],[20,-47]],[[6785,4849],[45,-100]],[[7049,5199],[-63,-50],[-29,7],[-23,-15],[72,-72],[-80,-36],[-56,17],[-55,48],[-26,0]],[[6791,5222],[-39,15],[-5,23],[40,35],[6,13],[-9,12],[-45,8],[-8,14],[27,0],[26,35],[-17,13],[-22,-1],[10,10],[-7,16]],[[6648,5506],[186,40],[60,17]],[[6894,5563],[-17,-23],[-15,-38],[5,-11],[52,-29],[10,-19],[-28,-10],[-23,2],[-10,-25],[-14,-6],[15,-51],[22,-17],[30,-13],[19,-35]],[[6783,5758],[40,-87],[23,-12],[81,6],[32,-53],[-52,-28],[-13,-21]],[[6323,7222],[-4,1],[-21,-62],[4,-19],[18,-38],[2,-44],[8,-20],[39,-31],[13,-27],[-6,-30],[-19,-39],[-43,-62],[-17,-36],[-20,-80],[23,-8],[46,-107],[-19,-4],[-4,-28],[-16,-3],[5,-15],[16,-13],[-9,-25],[36,-8],[21,-14],[30,-4],[-10,-56],[3,-28],[8,-8]],[[6112,5964],[-22,48],[13,47],[28,53],[32,80],[-2,19],[-12,12],[-20,3],[-42,-14],[-21,1],[-3,9],[16,24],[7,32],[-1,90],[-24,39],[9,36],[-2,18]],[[6157,7034],[18,21],[37,55],[16,-13],[64,-2],[-14,17],[-29,60],[7,13],[25,12],[12,19],[16,-17],[3,31],[-28,57],[-91,156],[88,-1]],[[6377,7342],[-25,-14],[0,-15],[29,-5],[35,-16],[37,18],[22,30],[16,148],[63,26],[19,-2],[8,-14],[1,-42],[14,-20],[-6,-34],[5,-44],[44,-30],[0,-22],[-23,-9],[-26,-46],[-12,-11],[46,-33],[66,-33],[31,-22],[88,19],[5,-20],[-28,-4],[-23,-22],[20,-11],[-23,-4],[-2,-17],[8,-25],[37,1],[-8,-15],[3,-23],[-12,-6],[-22,7],[-22,-1],[-5,17],[-28,2],[-13,12],[-10,38],[-19,17],[-9,21],[35,11],[-8,13],[-60,6],[-25,-9],[-32,16],[-26,-18]],[[7498,4742],[-8,3]],[[7490,4745],[-52,43],[-28,-9],[-5,10],[-60,-6],[-76,-15],[8,-20],[20,-18],[-5,-13],[-31,-14]],[[7261,4703],[12,13],[-22,9],[-14,42],[-37,-2],[-5,10],[-32,12],[-14,0],[-33,12],[-2,10]],[[7114,4809],[13,20],[12,4],[-15,32],[73,15],[4,13],[55,25],[-6,9],[-34,10]],[[7216,4937],[78,5],[2,37]],[[7296,4979],[10,-5],[-1,-21],[19,-1],[2,11],[29,7],[29,-1],[6,28],[15,4],[-7,12],[71,-1],[1,-18],[24,-11],[16,-22],[106,44],[35,-7],[39,-30],[17,-21],[-11,-29],[-17,-13],[-55,-1],[-97,-15],[60,-34],[-15,-19],[-26,-19],[14,-41],[-49,-20],[-13,-14]],[[6815,4166],[-27,24],[-15,22],[-25,91],[-35,36],[-20,10],[-77,27],[-14,11]],[[6602,4387],[32,8],[8,48],[84,17],[212,44]],[[7005,4358],[-63,-14],[-90,-16],[-2,-45]],[[6850,4283],[-26,-82],[-3,-26]],[[6821,4175],[-6,-9]],[[6815,4166],[21,-9],[42,-4],[48,-11],[33,-13]],[[6959,4129],[6,-15],[31,-17],[6,-14],[-21,-28],[8,-14],[15,-2],[57,3],[15,-8],[1,-14],[-15,0],[0,-32],[-21,17],[-50,6],[-28,32],[2,37],[-36,13],[19,-19],[2,-22],[-9,-14],[13,-8],[2,-23],[24,-32],[4,-17],[24,-5],[-14,-8],[-5,-18],[36,11],[58,12],[16,-2],[78,20],[23,-10],[-3,-39],[-23,-39],[11,-31],[23,-22],[17,-5],[-16,-28],[-49,-16],[-44,0],[-48,-8],[-45,-3],[-25,7],[-18,-14],[-12,-20],[-16,5],[-38,-31],[-10,9],[37,33],[15,8],[16,21],[-9,36],[-10,14],[22,7],[-15,43],[2,30],[-9,6],[8,36],[-5,17],[-18,20],[-23,43],[9,21],[-18,9],[-19,-2],[-9,-33],[-19,-9],[-7,14],[8,16],[-2,43],[-26,9],[5,14],[-37,30],[7,14],[-45,30],[-16,16],[-9,38],[-30,-4],[-26,-19],[-15,-1],[-3,34],[-36,-10],[-16,2],[-36,17],[-8,-9],[-41,-2],[-18,-16],[-43,6],[-10,19],[-30,-10],[-17,8],[-27,-4],[-19,-14],[-40,9],[-41,3],[-27,-15],[-30,-7],[-5,-19],[-19,-33],[-48,-27],[23,-23],[-28,-18],[-30,21],[-18,-11],[-27,-28],[-6,-19],[-29,-23],[-54,-23],[-5,21],[40,14],[20,30],[20,3],[11,24],[55,30],[32,7],[-1,8],[32,36],[23,14],[3,19],[17,19],[21,1],[12,14],[51,3],[39,-6],[23,6],[53,4],[-5,11],[25,8],[6,-12],[41,-1],[52,26],[29,-9],[31,43],[-14,9],[5,17],[-14,17]],[[6585,4387],[13,0]],[[6598,4387],[4,0]],[[6850,4283],[75,7],[-18,-26],[26,-28],[7,-18],[20,-9],[1,-11],[152,-24],[73,1],[56,-2],[5,-35],[-107,0],[-41,11],[-25,1],[-79,13],[-17,-21],[-38,12],[-119,21]],[[6895,4603],[43,-99]],[[6598,4387],[-26,81],[4,37],[-12,37],[-53,45]],[[6873,4651],[22,-48]],[[7208,5067],[-10,-14],[-3,-32],[-9,-13],[-55,-16],[-7,-7]],[[7124,4985],[-24,-12],[-12,-22],[-82,-40]],[[7006,4911],[-67,48],[-22,-8],[-24,18],[-7,19],[8,25],[-22,16],[-47,6]],[[7063,5206],[67,-6],[41,8],[42,-20],[-18,-77],[-8,-15],[7,-25],[14,-4]],[[7404,4334],[15,-36],[-1,-16],[18,-14],[29,-52]],[[7465,4216],[5,-28],[20,-8],[-12,-12],[-42,-10],[-63,-32],[-18,-4],[-68,3],[-43,-4],[-48,9],[-75,2],[-63,9],[-68,-12],[-31,0]],[[7219,4402],[44,-99],[141,31]],[[7404,4334],[74,15],[17,8],[64,61],[50,20],[61,16],[67,49]],[[7737,4503],[17,8]],[[7754,4511],[38,5],[22,8],[25,26],[15,8],[47,3],[26,12],[-1,12],[16,23],[21,6],[2,15],[24,8],[-6,18],[18,17],[44,18],[45,34],[-11,13],[58,29],[11,10],[7,-21],[22,5],[43,-39],[-101,-45],[30,-53],[-17,-19],[-3,-15],[13,-8],[-54,-12],[-36,-26],[10,-11],[-6,-21],[26,-11],[120,-62],[80,-35],[-7,-15],[-46,-7],[-41,-13],[-29,1],[-51,-5],[-22,-9],[-24,5],[-59,-15],[-28,7],[-36,-6],[-32,14],[-51,-1],[-11,10],[27,24],[-47,9],[22,43],[15,18],[39,4],[44,-21],[16,12],[-50,26],[-61,-2],[-10,-9],[-27,1],[-54,-23],[-6,-10],[19,-8],[-1,-9],[-50,-34],[-9,-18],[-38,-14],[-42,6],[-51,-40],[23,-25],[1,-11],[-16,-9],[-42,-7],[-18,-18],[-18,-1],[-38,-26],[-8,-11]],[[7006,4911],[-14,-19],[-207,-43]],[[7737,4503],[-48,-3],[-245,-53],[-225,-45]],[[7153,4549],[72,14],[-22,49]],[[7203,4612],[72,15],[71,31],[-11,22],[28,13],[7,22],[44,20],[37,-3],[39,13]],[[7498,4742],[4,-4],[87,25],[56,-3],[26,14],[24,-15],[-5,-14],[-35,-4],[-44,-48],[29,-21],[67,-30],[22,26],[32,26],[24,9],[45,-18],[-8,17],[126,36],[28,-7],[3,-18],[-17,-1],[-44,-69],[-30,9],[-29,-2],[-36,20],[-16,-28],[-11,-35],[13,-49],[-5,-16],[-50,-31]],[[6015,5383],[5,-25],[37,-120]],[[6076,5187],[-82,-12],[-22,75],[-36,-5],[4,15],[23,4],[-3,10],[20,3],[-11,33],[-16,-2],[-23,-19]],[[5930,5289],[-7,11],[-23,11],[-33,-1],[-7,9],[15,9],[8,34],[-11,10],[8,48],[-23,9],[-22,-20],[-3,20],[19,20],[-35,23],[2,26],[-13,5],[-27,-6],[-21,3],[-13,14],[-45,9],[-15,21],[7,12]],[[7114,4809],[-40,-8],[3,-9],[-28,3],[-219,-46]],[[7124,4985],[28,0],[10,-30],[31,-21],[23,3]],[[5944,4753],[70,-22],[204,7]],[[6585,4387],[-29,22],[-17,47],[-110,85]],[[6429,4541],[-57,23],[-33,29],[-24,4],[-95,-10]],[[5647,4346],[-34,-25],[-72,-67],[-10,-27],[-16,11],[3,20],[-16,7],[29,18],[61,47],[6,39],[-35,9],[-16,10],[18,12],[55,47],[4,34],[-16,4],[-5,15],[-32,20],[9,14],[34,17],[4,14],[-26,2],[5,25],[25,0],[10,14],[-17,27],[18,-8],[18,9],[21,26],[15,-9],[36,39],[3,-20],[17,20],[23,6],[-12,13],[20,2],[-4,32],[28,-1],[-5,40]],[[5793,4782],[82,-1],[33,-7],[36,-21]],[[6429,4541],[-2,-20],[-16,-21],[7,-19],[-25,-28],[6,-6],[-20,-26],[9,-16],[49,3],[13,-23],[7,-47],[-28,-23],[-19,-2],[-13,-22],[-46,0],[-28,22],[13,34],[-19,4],[9,27],[-15,25],[-51,39],[-5,13],[-21,7],[8,15],[-41,81],[-4,27]],[[7203,4612],[-24,50],[-284,-59]],[[6873,4654],[260,54],[72,13],[45,-24],[11,6]],[[6114,5064],[-222,-33],[3,-19],[-38,25],[-22,-1],[-3,-18],[22,-22],[24,-14],[15,-42],[165,22],[27,-86]],[[6085,4876],[-159,-22],[21,-72],[-3,-29]],[[5793,4782],[-17,-9],[-108,-12],[-10,28],[-27,-21],[-15,17],[-12,-6],[-44,12],[-19,-3],[-28,16],[5,28],[-26,-3],[1,11],[61,-5],[39,-18],[43,8],[-4,-21],[26,0],[2,17],[23,39],[23,-6],[8,8],[-9,19],[15,1],[18,38],[34,11],[12,-26],[35,23],[-8,29],[14,22],[-3,15],[-37,19],[23,15],[6,12],[-42,50],[-19,4],[26,6],[7,12],[-31,12],[-19,24],[21,33],[0,19],[-14,22],[21,2],[33,14],[42,-22],[14,8],[21,-2],[38,26],[3,26],[15,15]],[[6085,4876],[86,12]],[[7208,5067],[32,4],[27,13],[1,-27],[-46,2],[-14,-10],[5,-57],[83,-13]],[[7257,5363],[48,-20],[3,-15],[-103,-17],[-9,-29],[-45,-2],[-4,18],[-53,-4],[-8,39],[49,3],[10,-7],[45,6],[-7,19],[67,11],[7,-2]]]}
