{"type":"Topology","bbox":[-76.02625415393072,5.271123732425276,-75.8634975583933,5.460041771923689],"transform":{"scale":[0.000016277287282469908,0.000018893693319173184],"translate":[-76.02625415393072,5.271123732425276]},"objects":{"municipios":{"type":"GeometryCollection","geometries":[{"type":"MultiPolygon","arcs":[[[0]],[[1]],[[2]]]},{"type":"MultiPolygon","arcs":[[[3]],[[4]]]},{"type":"Polygon","arcs":[[5]]},{"type":"Polygon","arcs":[[6]]},{"type":"Polygon","arcs":[[7]]},{"type":"Polygon","arcs":[[8,9]]},{"type":"Polygon","arcs":[[10,11,12,-9,13]]},{"type":"Polygon","arcs":[[-12,14,15]]},{"type":"Polygon","arcs":[[16,-15,-11]]},{"type":"Polygon","arcs":[[17]]},{"type":"Polygon","arcs":[[18]]}]}},"arcs":[[[1616,5887],[20,-23],[-19,5],[-7,14],[-11,-4],[11,-19],[-5,-9],[-27,5],[8,24],[18,3],[5,29],[7,-2],[0,-23]],[[1613,5932],[-9,-3],[-6,29],[13,3],[2,-29]],[[1596,5975],[-28,3],[-2,20],[27,-8],[3,-15]],[[8471,491],[13,-9],[-27,-19],[-12,-2],[-24,14],[-38,-15],[5,-7],[-32,-4],[-2,9],[75,33],[8,-8],[21,18],[-4,2],[26,40],[9,-5],[-22,-28],[16,-8],[-12,-11]],[[8296,436],[49,9],[-19,-19],[-14,-6],[-8,13],[-30,-8],[-20,-15],[-12,5],[1,26],[14,11],[23,-3],[16,-13]],[[8824,4629],[40,6],[15,-1],[13,-11],[-6,-11],[3,-20],[10,-15],[-12,-13],[-3,-14],[-27,0],[-39,19],[4,11],[-21,-1],[-1,18],[19,13],[-14,27],[13,5],[6,-13]],[[9955,154],[14,-1],[-18,-40],[25,-32],[15,3],[8,-7],[-15,-13],[-26,-2],[-16,-30],[14,-18],[-18,-14],[-13,40],[17,76],[13,38]],[[8473,975],[-10,-24],[15,4],[14,-10],[-15,-11],[-21,-3],[-24,-12],[-28,31],[-21,-19],[-7,-32],[-14,3],[-14,14],[-35,6],[21,11],[-4,7],[28,15],[44,30],[-4,4],[9,23],[13,-21],[13,-5],[5,-12],[10,25],[-8,10],[10,14],[23,-9],[-12,-6],[-4,-16],[16,-17]],[[8814,1681],[-52,-24],[15,-27],[-2,-9],[-28,-14],[27,-37],[-7,-75],[-8,-8],[-84,-65],[89,-87],[-14,-12]],[[8750,1323],[-34,33],[-49,53],[-16,-1],[-12,14],[6,5],[-15,16],[15,10],[-14,25],[33,38],[20,11],[0,12],[37,38],[-8,8],[8,9],[0,20],[-29,-1],[-4,36],[-21,17],[2,17],[10,6],[16,-6],[32,26],[-18,27],[-27,21],[9,15],[1,32],[5,6],[11,-19],[16,-9],[4,-27],[8,-9],[27,-1],[14,-11],[25,-30],[12,-23]],[[8932,1355],[-10,-8],[-49,24],[-70,-63]],[[8803,1308],[-19,-16],[-7,-19],[8,-10],[-32,-21],[-9,12]],[[8744,1254],[25,19],[8,24],[-27,26]],[[8814,1681],[0,-6],[-17,-43],[-1,-22],[-12,-57],[0,-51],[17,-20],[34,-20],[12,-13],[28,-58],[28,-26],[29,-10]],[[8803,1308],[19,-20],[-5,-3],[30,-31]],[[8847,1254],[-30,-17],[-22,13],[-8,-11],[-24,-11],[-31,-21],[-5,-13],[-37,-32],[-19,2],[-21,-5],[-58,-43],[-27,-17],[-32,-41],[-24,-14],[-16,7],[14,12],[-25,17],[14,19],[32,13],[12,21],[17,13],[59,36],[30,10],[-10,8],[8,19],[27,1],[54,39],[8,-9],[11,4]],[[8932,1355],[20,-1],[38,-35],[44,-35],[19,-21],[9,-19],[63,30],[21,23],[10,-21],[-20,-8],[5,-9],[-11,-10],[16,-29],[-17,-19],[-10,-2],[-34,5],[-42,-17],[0,-8],[-35,-5],[-23,-9],[-28,-23],[-14,1],[-5,19],[-26,15],[-17,-12],[-16,15],[5,16],[17,14],[-12,46],[-8,8],[-14,-10],[-2,-18],[-18,18]],[[61,9987],[11,-2],[-20,-17],[9,-19],[-17,-13],[-8,7],[-36,-8],[7,18],[-7,4],[47,42],[14,-12]],[[7588,7737],[16,5],[3,-24],[-4,-31],[-21,-13],[-30,-42],[-49,-23],[-22,-5],[-9,14],[-14,-5],[-17,24],[-30,-2],[-18,46],[-1,13],[-19,-3],[-13,36],[23,0],[38,9],[26,-11],[26,5],[50,-2],[66,18],[-1,-9]]]}
