{"type":"Topology","bbox":[-73.45073393158174,6.064893966051472,-73.33677594076585,6.162350253965562],"transform":{"scale":[0.000011396938775466622,0.000009746603451754186],"translate":[-73.45073393158174,6.064893966051472]},"objects":{"municipios":{"type":"GeometryCollection","geometries":[{"type":"Polygon","arcs":[[0]],"properties":{"codigo":"68770200301001000101","sector":"687702003010010001","pcode":"CO68770","area_m2":120304}},{"type":"Polygon","arcs":[[1,2]],"properties":{"codigo":"68770200102002000101","sector":"687702001020020001","pcode":"CO68770","area_m2":121472}},{"type":"Polygon","arcs":[[3,4]],"properties":{"codigo":"68770200203003000102","sector":"687702002030030001","pcode":"CO68770","area_m2":158727}},{"type":"Polygon","arcs":[[5,6,7,8]],"properties":{"codigo":"68770100000000000104","sector":"687701000000000001","pcode":"CO68770","area_m2":43832}},{"type":"Polygon","arcs":[[9,10,11]],"properties":{"codigo":"68770100000000000101","sector":"687701000000000001","pcode":"CO68770","area_m2":65737}},{"type":"Polygon","arcs":[[12,-8,-10,13]],"properties":{"codigo":"68770100000000000102","sector":"687701000000000001","pcode":"CO68770","area_m2":52411}},{"type":"Polygon","arcs":[[-9,-13,14]],"properties":{"codigo":"68770100000000000103","sector":"687701000000000001","pcode":"CO68770","area_m2":128168}},{"type":"Polygon","arcs":[[-7,15,-11]],"properties":{"codigo":"68770100000000000105","sector":"687701000000000001","pcode":"CO68770","area_m2":316431}},{"type":"Polygon","arcs":[[16,-2]],"properties":{"codigo":"68770200102002000102","sector":"687702001020020001","pcode":"CO68770","area_m2":79238}},{"type":"Polygon","arcs":[[17,-4]],"properties":{"codigo":"68770200203003000101","sector":"687702002030030001","pcode":"CO68770","area_m2":86039}},{"type":"Polygon","arcs":[[18]],"properties":{"codigo":"68770200201008000101","sector":"687702002010080001","pcode":"CO68770","area_m2":143672}}]}},"arcs":[[[9847,9328],[78,-133],[54,46],[20,-14],[-18,-47],[-81,-93],[7,-38],[-55,-61],[55,-58],[-17,-38],[-84,-3],[-71,-152],[-4,-121],[-48,37],[-63,31],[35,96],[21,22],[-21,22],[25,34],[2,39],[-24,27],[-45,-28],[-10,33],[38,8],[26,43],[-34,38],[-28,-19],[2,74],[-23,25],[44,5],[7,-58],[19,24],[37,-32],[13,17],[28,-28],[83,108],[82,82],[-48,64],[-2,48]],[[362,9610],[-20,-26],[-29,13],[-58,-26],[-22,48],[-25,-34],[-41,-4],[-35,-27]],[[132,9554],[-64,56],[35,29],[-26,44],[18,32],[-47,-22],[-37,36],[37,94],[62,11],[-25,103],[-20,47],[20,15],[45,-58],[22,24],[1,-53],[63,28],[45,-39],[-14,-17],[81,-128],[39,-14],[-34,-28],[16,-46],[32,1],[8,-28],[-27,-31]],[[3032,159],[27,-42],[58,158],[73,112],[63,37],[119,48],[218,102],[139,143],[18,57]],[[3747,774],[2,51],[68,-26],[14,-20],[-40,-5],[-6,-48],[-20,15],[-17,-37],[-72,-78],[10,-54],[-55,-32],[-28,-75],[-55,-30],[-43,-57],[-80,78],[-57,-27],[15,-30],[37,8],[28,-39],[-50,-37],[39,-29],[-36,-38],[-33,5],[-21,-38],[1,-44],[27,-34],[3,-44],[-26,-16],[-29,15],[-20,73],[-65,59],[-51,-26],[-28,-57],[-32,-12],[-30,-63],[-58,-22],[-37,-60],[-53,85],[83,74]],[[1223,3747],[-7,-25],[-153,61],[-27,33],[-86,-8],[-36,-13],[-27,-90],[-24,15],[-16,52]],[[847,3772],[-16,98]],[[831,3870],[62,17],[41,-4],[60,17]],[[994,3900],[57,-6],[77,16],[10,-41],[-58,-17],[-14,-54],[33,-4],[124,-47]],[[801,4168],[39,-60],[-19,-65],[10,-173]],[[831,3870],[-53,-13],[-8,68],[-33,-1]],[[737,3924],[-6,97],[15,30],[41,-8],[5,41],[-51,22],[-120,-5],[-23,40],[-5,50],[-67,13],[-1,24],[38,24],[67,-17],[74,25],[17,-35],[31,0],[49,-57]],[[974,4182],[20,-58],[-5,-70],[11,-24],[-6,-130]],[[801,4168],[20,18],[43,-71],[0,-63],[41,34],[70,8],[-17,20],[1,66],[15,2]],[[974,4182],[33,49],[42,-84],[64,15],[18,21],[92,28],[12,-62],[-88,-25],[43,-49],[98,-27],[3,-50],[41,-8],[-21,-19],[5,-47],[-74,-72],[-19,-105]],[[847,3772],[-53,-34],[23,-49],[56,-50],[79,-51],[-96,-109],[-34,33],[-74,-76],[-14,18],[-52,-96],[39,-9],[42,-40],[-42,-45],[-41,18],[-3,-42],[-107,-157],[-67,72],[-32,-55],[-120,74],[24,29],[-48,38],[48,71],[48,34],[37,-50],[63,89],[-77,41],[22,44],[-15,29],[55,118],[45,-29],[72,77],[-146,33],[-27,16],[46,121],[44,-20],[59,-51],[48,-12],[25,41],[-32,78],[8,37],[87,16]],[[362,9610],[49,-27],[-18,-26],[-36,5],[-66,-28],[12,-48],[-77,-8],[47,-26],[74,-11],[8,-32],[-80,-80],[8,-52],[-29,-33],[-20,57],[-23,-37],[43,-76],[-16,-26],[-41,-11],[-5,21],[-93,-15],[-37,36],[30,69],[60,16],[28,43],[68,34],[-2,33],[-41,-1],[22,26],[-20,28],[-31,-6],[-12,81],[-32,38]],[[3032,159],[-49,86],[48,-21],[44,32],[-25,57],[39,-16],[29,59],[16,-15],[34,44],[-6,103],[31,66],[22,11],[10,102],[46,-12],[15,-63],[54,4],[13,-37],[21,20],[23,-56],[11,20],[92,31],[44,-17],[25,39],[-16,29],[45,-14],[78,83],[28,43],[43,37]],[[7497,5969],[57,-46],[-58,-50],[-46,2],[2,-43],[50,-11],[70,-33],[37,-50],[-5,-74],[-55,-14],[-56,-59],[-45,35],[-42,-15],[67,-109],[-44,16],[-52,-3],[-110,19],[-36,59],[11,69],[-16,93],[110,40],[41,126],[94,96],[26,-48]]]}
