{"type":"Topology","bbox":[-73.07538727575337,6.600144516127246,-73.06370639644854,6.6091308480807545],"transform":{"scale":[0.0000011682047509584482,8.987230676576055e-7],"translate":[-73.07538727575337,6.600144516127246]},"objects":{"municipios":{"type":"GeometryCollection","geometries":[{"type":"Polygon","arcs":[[0,1,2,3,4]],"properties":{"codigo":"68229100000000000201","sector":"682291000000000002","pcode":"CO68229","area_m2":146984}},{"type":"Polygon","arcs":[[5,6,7,-1]],"properties":{"codigo":"68229100000000000202","sector":"682291000000000002","pcode":"CO68229","area_m2":31643}},{"type":"Polygon","arcs":[[-8,8,9,10,11,-2]],"properties":{"codigo":"68229100000000000204","sector":"682291000000000002","pcode":"CO68229","area_m2":81765}},{"type":"Polygon","arcs":[[12,13,14]],"properties":{"codigo":"68229100000000000101","sector":"682291000000000001","pcode":"CO68229","area_m2":108814}},{"type":"Polygon","arcs":[[15,-13,16,-4]],"properties":{"codigo":"68229100000000000102","sector":"682291000000000001","pcode":"CO68229","area_m2":61385}},{"type":"Polygon","arcs":[[-12,17,-14,-16,-3]],"properties":{"codigo":"68229100000000000103","sector":"682291000000000001","pcode":"CO68229","area_m2":209312}},{"type":"Polygon","arcs":[[18,19,-9,-7]],"properties":{"codigo":"68229100000000000203","sector":"682291000000000002","pcode":"CO68229","area_m2":47394}},{"type":"Polygon","arcs":[[20,-10,-20]],"properties":{"codigo":"68229100000000000205","sector":"682291000000000002","pcode":"CO68229","area_m2":101141}}]}},"arcs":[[[9209,5684],[-521,7],[-243,172],[-157,563],[-117,155],[-682,190],[-95,-797]],[[7394,5974],[-1791,145]],[[5603,6119],[30,774]],[[5633,6893],[24,757],[102,1433],[325,180],[193,307]],[[6277,9570],[541,-74],[106,-86],[-70,390],[82,191],[229,-78],[485,-504],[311,-137],[783,-521],[269,0],[56,-448],[-1,-527],[78,-383],[-106,-431],[475,-591],[360,-105],[-19,-582],[-216,122],[-431,-122]],[[9209,5684],[790,-129],[-31,-607],[-94,-12]],[[9874,4936],[-1547,200],[-1011,81]],[[7316,5217],[78,757]],[[7316,5217],[-135,-1161]],[[7181,4056],[-527,56],[-21,-485],[-352,127],[-135,-763],[-299,91],[-56,-398],[31,-466],[-340,-290],[-107,190],[-413,27],[-20,-383],[-162,-186]],[[4780,1576],[-23,632],[-577,221],[-40,732],[71,813]],[[4211,3974],[800,53],[963,-155],[166,1448],[-560,47],[23,752]],[[3867,8919],[36,-1922]],[[3903,6997],[-77,-791],[-195,95],[-345,-11],[-141,-724],[-443,134],[56,243],[-255,-156],[-308,327],[-26,-135],[-790,293],[-107,-816],[-803,16],[-222,187]],[[247,5659],[-247,20],[42,597],[579,164],[132,152],[352,90],[76,271],[427,-39],[-282,244],[-127,437],[-556,30],[-43,449],[226,1065],[390,141],[185,375],[104,-231],[304,-91],[-147,-413],[216,-210],[-92,-98],[469,-636],[778,-80],[834,1023]],[[5633,6893],[-1730,104]],[[3867,8919],[555,643],[402,168],[745,-287],[371,-82],[109,73],[0,354],[149,89],[79,-307]],[[4211,3974],[-406,175],[-229,-69],[-256,-475],[-922,-461],[-797,-501],[-349,-56],[-490,-214],[-255,-415],[-71,584],[-142,407],[-65,418],[-31,711],[-166,773],[-22,503],[194,114],[43,191]],[[9874,4936],[-110,-1314],[-88,-242],[-171,342],[-549,118],[-58,-390],[-188,55]],[[8710,3505],[-392,86],[-604,9],[-222,61],[41,268],[-352,127]],[[8710,3505],[-140,-463],[103,-352],[-81,-89],[-375,16],[-283,199],[-21,-434],[-154,-681],[-90,-1074],[-20,372],[-500,267],[-26,151],[-426,-130],[-183,91],[-178,308],[240,-748],[0,-501],[-305,-358],[-443,-42],[-193,676],[-289,24],[-474,300],[-205,235],[113,304]]]}
