{"type":"Topology","bbox":[-73.09764668025673,6.731782433018295,-73.09433592316401,6.733537605938199],"transform":{"scale":[3.31108820154015e-7,1.7553484547498215e-7],"translate":[-73.09764668025673,6.731782433018295]},"objects":{"municipios":{"type":"GeometryCollection","geometries":[{"type":"Polygon","arcs":[[0]],"properties":{"codigo":"68370100000000000101","sector":"683701000000000001","pcode":"CO68370","area_m2":47734}}]}},"arcs":[[[3211,9674],[6191,-1430],[562,-2323],[-245,-2608],[-2159,-575],[-3455,-2738],[-103,1606],[-1359,247],[-1682,-966],[-961,4701],[1145,375],[-327,4036],[2393,-325]]]}
