{"type":"Topology","bbox":[-72.86036051534609,6.871206817351358,-72.81532498239972,6.980284684035849],"transform":{"scale":[0.0000045040036950066864,0.00001090887755620467],"translate":[-72.86036051534609,6.871206817351358]},"objects":{"municipios":{"type":"GeometryCollection","geometries":[{"type":"Polygon","arcs":[[0,1,2,3]],"properties":{"codigo":"68318100000000000102","sector":"683181000000000001","pcode":"CO68318","area_m2":68058}},{"type":"Polygon","arcs":[[4,-3,5]],"properties":{"codigo":"68318100000000000103","sector":"683181000000000001","pcode":"CO68318","area_m2":193701}},{"type":"Polygon","arcs":[[6]],"properties":{"codigo":"68318200104001000101","sector":"683182001040010001","pcode":"CO68318","area_m2":18777}},{"type":"Polygon","arcs":[[-1,7,8]],"properties":{"codigo":"68318100000000000101","sector":"683181000000000001","pcode":"CO68318","area_m2":79376}},{"type":"Polygon","arcs":[[9,10,-8,-4,-5,11]],"properties":{"codigo":"68318100000000000104","sector":"683181000000000001","pcode":"CO68318","area_m2":129350}},{"type":"Polygon","arcs":[[-10,12]],"properties":{"codigo":"68318100000000000105","sector":"683181000000000001","pcode":"CO68318","area_m2":119728}}]}},"arcs":[[[1327,453],[-60,-53],[-151,17],[-171,-158],[34,-8],[-31,-40]],[[948,211],[-60,10],[-54,-30],[34,-44],[-70,2],[-66,-40]],[[732,109],[4,71],[-29,22],[-38,80],[158,15],[-121,30],[46,30],[52,95],[-17,2],[81,106]],[[868,560],[218,-60],[241,-47]],[[532,646],[39,-2],[297,-84]],[[732,109],[-51,-50],[-89,-59],[-170,52],[75,30],[-149,-36],[-81,40],[-29,41],[-238,86],[143,126],[102,39],[78,-15],[-2,38],[-92,26],[28,28],[-60,24],[126,105],[209,62]],[[9845,9992],[149,-7],[5,-27],[-58,-77],[-72,13],[-76,-20],[-8,-29],[-50,2],[-13,44],[-124,16],[97,25],[37,32],[86,35],[27,-7]],[[1327,453],[157,-28]],[[1484,425],[-12,-8],[94,-108],[-136,-132],[-98,-62],[-159,31],[-225,65]],[[762,818],[9,-10],[232,-103],[304,-87],[114,-22],[50,42],[56,20]],[[1527,658],[96,-24],[-139,-209]],[[532,646],[-99,48],[-19,52],[46,37],[17,47],[45,38],[240,-50]],[[762,818],[35,40],[103,-39],[70,63],[-152,32],[35,35],[94,-6],[92,16],[-20,23],[172,-17],[84,13],[159,-4],[19,-37],[-34,-78],[156,-29],[-61,-39],[74,-39],[16,-75],[-77,-19]]]}
