{"type":"Topology","bbox":[-73.33367115944708,6.179084143701845,-73.29471521269454,6.2709237045378785],"transform":{"scale":[0.000003895984273681101,0.00000918487457106049],"translate":[-73.33367115944708,6.179084143701845]},"objects":{"municipios":{"type":"GeometryCollection","geometries":[{"type":"Polygon","arcs":[[0]],"properties":{"codigo":"68500200203006000101","sector":"685002002030060001","pcode":"CO68500","area_m2":44737}},{"type":"Polygon","arcs":[[1,2,3]],"properties":{"codigo":"68500100000000000102","sector":"685001000000000001","pcode":"CO68500","area_m2":166033}},{"type":"Polygon","arcs":[[4,-3,5,6]],"properties":{"codigo":"68500100000000000103","sector":"685001000000000001","pcode":"CO68500","area_m2":107274}},{"type":"Polygon","arcs":[[7,-6,-2,8,9]],"properties":{"codigo":"68500100000000000101","sector":"685001000000000001","pcode":"CO68500","area_m2":214612}},{"type":"Polygon","arcs":[[10,-10,11]],"properties":{"codigo":"68500100000000000201","sector":"685001000000000002","pcode":"CO68500","area_m2":163455}},{"type":"Polygon","arcs":[[-7,-8,-11,12]],"properties":{"codigo":"68500100000000000202","sector":"685001000000000002","pcode":"CO68500","area_m2":108765}}]}},"arcs":[[[506,268],[92,-23],[26,12],[105,-19],[34,14],[62,-18],[-26,-31],[-64,-33],[164,-40],[-37,-18],[-74,11],[-218,-17],[-49,-14],[-120,-78],[-54,-14],[-174,66],[90,24],[-1,38],[108,33],[-92,16],[-156,46],[-122,9],[20,36],[183,-28],[145,-35],[105,78],[53,-15]],[[8037,9636],[31,-5],[265,-114],[83,-9],[89,-71],[-104,-1],[-88,41],[-64,-70],[233,-38],[-79,-61],[-63,-91]],[[8340,9217],[-34,-55],[2,-41],[-64,4],[-68,-92],[-319,33],[-46,-40],[-28,-2]],[[7783,9024],[-10,50],[-27,3],[37,63],[-86,53],[-34,45],[-88,10],[33,38],[85,49],[30,70],[69,63],[-33,30],[-193,100],[-28,25],[-21,81],[112,-24],[152,-3],[81,-26],[175,-15]],[[8383,8755],[-129,-2],[-34,-26],[-49,78],[18,39],[-241,25],[-52,-16],[-141,1],[56,158],[-28,12]],[[8340,9217],[435,-58]],[[8775,9159],[9,-2],[-116,-113],[-76,-66],[-41,-55],[-168,-168]],[[8974,9399],[-65,-95],[-61,-55],[-73,-90]],[[8037,9636],[27,2],[144,49],[43,43],[36,-6],[6,61],[-15,17],[127,56],[51,-27],[115,-1],[-6,-27],[118,-14],[132,1],[126,-16],[-65,39],[8,40],[100,23],[76,4],[7,36],[128,-2],[-8,62]],[[9187,9976],[53,-11],[34,-35],[10,-40],[-16,-31],[-119,-118],[8,-80],[-47,-77],[-136,-185]],[[9528,9227],[-101,16],[104,90],[-557,66]],[[9187,9976],[6,23],[178,-6],[0,-106],[82,-6],[4,-49],[-80,-51],[199,-46],[143,-28],[89,2],[110,-19],[-43,-23],[59,-36],[8,-37],[30,-11],[-53,-62],[80,-68],[-166,-81],[-167,-48],[-44,-4],[-94,-93]],[[9528,9227],[35,-5],[-43,-53],[-191,32],[-68,-33],[-102,17],[12,-25],[-56,-46],[26,-10],[304,-25],[-25,-28],[-125,8],[-116,-41],[-194,13],[-111,14],[-35,-52],[-78,-65],[-126,-54],[28,-31],[-48,-20],[-33,7],[15,-41],[-16,-57],[-120,0],[-78,23]]]}
