{"type":"Topology","bbox":[-72.97646814940049,6.468313476567581,-72.90737145236301,6.58983430085024],"transform":{"scale":[0.000006910360739822005,0.000012153297758041646],"translate":[-72.97646814940049,6.468313476567581]},"objects":{"municipios":{"type":"GeometryCollection","geometries":[{"type":"Polygon","arcs":[[0,1,2,3,4,5]],"properties":{"codigo":"68464100000000000102","sector":"684641000000000001","pcode":"CO68464","area_m2":78463}},{"type":"Polygon","arcs":[[6,7,-4,8,9]],"properties":{"codigo":"68464100000000000202","sector":"684641000000000002","pcode":"CO68464","area_m2":138772}},{"type":"Polygon","arcs":[[10]],"properties":{"codigo":"68464200303016000101","sector":"684642003030160001","pcode":"CO68464","area_m2":9121}},{"type":"Polygon","arcs":[[-6,11,12]],"properties":{"codigo":"68464100000000000101","sector":"684641000000000001","pcode":"CO68464","area_m2":77642}},{"type":"Polygon","arcs":[[13,14,-9,-3,15]],"properties":{"codigo":"68464100000000000103","sector":"684641000000000001","pcode":"CO68464","area_m2":202793}},{"type":"Polygon","arcs":[[-16,-2,16]],"properties":{"codigo":"68464100000000000104","sector":"684641000000000001","pcode":"CO68464","area_m2":77183}},{"type":"Polygon","arcs":[[17,-12,-5,-8]],"properties":{"codigo":"68464100000000000201","sector":"684641000000000002","pcode":"CO68464","area_m2":74827}},{"type":"Polygon","arcs":[[-10,-15,18]],"properties":{"codigo":"68464100000000000203","sector":"684641000000000002","pcode":"CO68464","area_m2":299198}},{"type":"Polygon","arcs":[[19]],"properties":{"codigo":"68464200302002000101","sector":"684642003020020001","pcode":"CO68464","area_m2":44461}}]}},"arcs":[[[502,990],[48,-10],[45,18],[39,1],[66,-13],[81,-57]],[[781,929],[53,-33]],[[834,896],[-130,-185]],[[704,711],[-3,0]],[[701,711],[-301,69]],[[400,780],[124,169],[-22,41]],[[926,102],[-52,1],[-66,17],[-50,33],[-8,22],[112,106],[22,-5],[1,31],[15,0],[15,27],[-165,57],[-9,-9],[-193,54]],[[548,436],[39,34],[36,17],[-64,30],[86,115],[56,79]],[[704,711],[307,-73]],[[1011,638],[-61,-79],[-66,-73],[-84,-65],[296,-112],[-189,-157],[19,-50]],[[9984,9412],[4,-15],[-32,-6],[-24,-23],[-58,-113],[-50,-1],[-23,11],[28,11],[38,36],[-24,13],[34,14],[23,50],[-15,18],[26,2],[13,-20],[10,22],[37,10],[13,-9]],[[400,780],[-99,22]],[[301,802],[-301,69],[41,57],[7,-2],[54,60],[53,-5],[76,1],[-5,17],[27,9],[48,-13],[81,15],[7,-23],[24,-11],[89,14]],[[920,878],[80,-9],[49,-47],[39,-17],[13,-31],[74,-15],[36,-27],[-2,-39],[39,-16],[18,-26],[30,-5],[64,8],[75,-39],[71,-15],[62,-44],[6,-51],[54,-16],[-16,-40],[24,-14],[41,-1],[29,-71],[31,4],[33,21],[23,-17],[-7,-15],[-127,-85]],[[1659,271],[-268,136],[-200,118],[-89,86],[-91,27]],[[834,896],[37,-15],[49,-3]],[[781,929],[55,47],[4,45],[-138,24],[9,19],[-11,61],[45,35],[10,-2],[65,52],[166,85],[67,28],[5,-4],[65,22],[14,-29],[26,-17],[33,-3],[-4,-18],[-32,1],[-21,-45],[-57,8],[-22,-20],[-67,-39],[85,-41],[-45,-34],[-67,31],[-43,-19],[-18,9],[-28,-10],[35,-18],[-16,-9],[-45,22],[-9,-28],[63,-33],[10,-19],[-11,-37],[-41,-61],[50,-38],[7,-16]],[[548,436],[-91,34],[-93,25],[52,60],[-44,18],[88,125],[-200,46],[41,58]],[[1659,271],[109,-52],[-202,-127],[-29,14],[-80,-62],[-101,6],[-64,-50],[-82,22],[-21,31],[-29,8],[-94,10],[-82,33],[-58,-2]],[[1823,9960],[-14,-38],[149,-26],[-8,-44],[-29,2],[6,28],[-86,13],[-3,-13],[-36,4],[-13,-70],[3,-46],[19,-17],[28,-2],[11,-50],[-21,-17],[130,-41],[22,-27],[-27,-9],[-32,9],[-89,-8],[-20,10],[-13,32],[-18,-1],[-14,55],[-73,2],[-20,22],[-57,3],[2,10],[-53,8],[2,16],[123,-4],[-6,36],[5,37],[33,-2],[13,56],[26,71],[31,-4],[13,37],[32,3],[-16,-35]]]}
