{"type":"Topology","bbox":[-73.13307746973516,7.023670367120294,-73.05779548884664,7.1222340981008365],"transform":{"scale":[0.000007528950983950318,0.000009857358833937621],"translate":[-73.13307746973516,7.023670367120294]},"objects":{"municipios":{"type":"GeometryCollection","geometries":[{"type":"Polygon","arcs":[[0,1,2,3]],"properties":{"codigo":"68276100000000000402","sector":"682761000000000004","pcode":"CO68276","area_m2":79254}},{"type":"Polygon","arcs":[[4,5,6,7]],"properties":{"codigo":"68276100000000000702","sector":"682761000000000007","pcode":"CO68276","area_m2":104008}},{"type":"Polygon","arcs":[[8,9,10,11,12]],"properties":{"codigo":"68276100000000000106","sector":"682761000000000001","pcode":"CO68276","area_m2":46218}},{"type":"Polygon","arcs":[[13,14,15,16,17,18]],"properties":{"codigo":"68276100000000001204","sector":"682761000000000012","pcode":"CO68276","area_m2":54997}},{"type":"Polygon","arcs":[[19,20,21]],"properties":{"codigo":"68276100000000001104","sector":"682761000000000011","pcode":"CO68276","area_m2":101782}},{"type":"Polygon","arcs":[[-11,22,23,24]],"properties":{"codigo":"68276100000000000104","sector":"682761000000000001","pcode":"CO68276","area_m2":65845}},{"type":"Polygon","arcs":[[25,-13,26,27]],"properties":{"codigo":"68276100000000000107","sector":"682761000000000001","pcode":"CO68276","area_m2":47792}},{"type":"Polygon","arcs":[[28,29,30,31,32]],"properties":{"codigo":"68276100000000000302","sector":"682761000000000003","pcode":"CO68276","area_m2":94786}},{"type":"Polygon","arcs":[[33,34,35,36]],"properties":{"codigo":"68276100000000000205","sector":"682761000000000002","pcode":"CO68276","area_m2":46467}},{"type":"Polygon","arcs":[[37,38,39,40]],"properties":{"codigo":"68276100000000000207","sector":"682761000000000002","pcode":"CO68276","area_m2":41393}},{"type":"Polygon","arcs":[[41,42,43]],"properties":{"codigo":"68276100000000000208","sector":"682761000000000002","pcode":"CO68276","area_m2":77972}},{"type":"Polygon","arcs":[[-31,44,45,46,47]],"properties":{"codigo":"68276100000000000301","sector":"682761000000000003","pcode":"CO68276","area_m2":66224}},{"type":"Polygon","arcs":[[48,49,50,51,-29,52]],"properties":{"codigo":"68276100000000000303","sector":"682761000000000003","pcode":"CO68276","area_m2":142774}},{"type":"Polygon","arcs":[[53,54,55,56,57,58]],"properties":{"codigo":"68276100000000000305","sector":"682761000000000003","pcode":"CO68276","area_m2":211274}},{"type":"Polygon","arcs":[[59,60,61,62,63,64]],"properties":{"codigo":"68276100000000000309","sector":"682761000000000003","pcode":"CO68276","area_m2":53766}},{"type":"Polygon","arcs":[[65,66,-64,67,-4,68,69,70]],"properties":{"codigo":"68276100000000000401","sector":"682761000000000004","pcode":"CO68276","area_m2":118543}},{"type":"Polygon","arcs":[[-49,71,72,73,74,75,76,77,78]],"properties":{"codigo":"68276100000000000306","sector":"682761000000000003","pcode":"CO68276","area_m2":456126}},{"type":"Polygon","arcs":[[-66,79,80]],"properties":{"codigo":"68276100000000000403","sector":"682761000000000004","pcode":"CO68276","area_m2":33425}},{"type":"Polygon","arcs":[[-63,81,82,83,-1,-68]],"properties":{"codigo":"68276100000000000404","sector":"682761000000000004","pcode":"CO68276","area_m2":129835}},{"type":"Polygon","arcs":[[84,85,86]],"properties":{"codigo":"68276100000000000502","sector":"682761000000000005","pcode":"CO68276","area_m2":75188}},{"type":"Polygon","arcs":[[-20,87,88,89,90,91]],"properties":{"codigo":"68276100000000001105","sector":"682761000000000011","pcode":"CO68276","area_m2":183006}},{"type":"Polygon","arcs":[[-69,-3,92,93,94,-85,95]],"properties":{"codigo":"68276100000000000503","sector":"682761000000000005","pcode":"CO68276","area_m2":125159}},{"type":"Polygon","arcs":[[-80,-71,96,97]],"properties":{"codigo":"68276100000000000410","sector":"682761000000000004","pcode":"CO68276","area_m2":22279}},{"type":"Polygon","arcs":[[-46,98,-60,99]],"properties":{"codigo":"68276100000000000411","sector":"682761000000000004","pcode":"CO68276","area_m2":126126}},{"type":"Polygon","arcs":[[100,-97,-70,-96,-87,101,102]],"properties":{"codigo":"68276100000000000501","sector":"682761000000000005","pcode":"CO68276","area_m2":105498}},{"type":"Polygon","arcs":[[-102,-86,-95,103,104,105,106]],"properties":{"codigo":"68276100000000000601","sector":"682761000000000006","pcode":"CO68276","area_m2":148174}},{"type":"Polygon","arcs":[[107,108,109,-91,110]],"properties":{"codigo":"68276100000000000605","sector":"682761000000000006","pcode":"CO68276","area_m2":50689}},{"type":"Polygon","arcs":[[111,112,113,114]],"properties":{"codigo":"68276100000000000802","sector":"682761000000000008","pcode":"CO68276","area_m2":86790}},{"type":"Polygon","arcs":[[115,116,117,-112]],"properties":{"codigo":"68276100000000000804","sector":"682761000000000008","pcode":"CO68276","area_m2":48418}},{"type":"Polygon","arcs":[[118,119,-115,120,121]],"properties":{"codigo":"68276100000000000808","sector":"682761000000000008","pcode":"CO68276","area_m2":94617}},{"type":"Polygon","arcs":[[122,123,124,125,126]],"properties":{"codigo":"68276100000000000902","sector":"682761000000000009","pcode":"CO68276","area_m2":230800}},{"type":"Polygon","arcs":[[-127,127,128]],"properties":{"codigo":"68276100000000000903","sector":"682761000000000009","pcode":"CO68276","area_m2":98925}},{"type":"Polygon","arcs":[[129,130,131,132,133]],"properties":{"codigo":"68276100000000000908","sector":"682761000000000009","pcode":"CO68276","area_m2":148401}},{"type":"Polygon","arcs":[[134,135,-17,136,137,-56]],"properties":{"codigo":"68276100000000001201","sector":"682761000000000012","pcode":"CO68276","area_m2":70890}},{"type":"Polygon","arcs":[[138,-135,-55,139]],"properties":{"codigo":"68276100000000001202","sector":"682761000000000012","pcode":"CO68276","area_m2":43336}},{"type":"Polygon","arcs":[[140,-18,-136,-139,141]],"properties":{"codigo":"68276100000000001203","sector":"682761000000000012","pcode":"CO68276","area_m2":46740}},{"type":"Polygon","arcs":[[142,143,144,145]],"properties":{"codigo":"68276100000000001206","sector":"682761000000000012","pcode":"CO68276","area_m2":59767}},{"type":"Polygon","arcs":[[-134,146,147]],"properties":{"codigo":"68276100000000001207","sector":"682761000000000012","pcode":"CO68276","area_m2":70902}},{"type":"Polygon","arcs":[[148,149,150,151,152,153,-39]],"properties":{"codigo":"68276100000000001401","sector":"682761000000000014","pcode":"CO68276","area_m2":108130}},{"type":"Polygon","arcs":[[-40,-154,154,155,156]],"properties":{"codigo":"68276100000000001402","sector":"682761000000000014","pcode":"CO68276","area_m2":109524}},{"type":"Polygon","arcs":[[157,158,159,160]],"properties":{"codigo":"68276100000000001404","sector":"682761000000000014","pcode":"CO68276","area_m2":54276}},{"type":"Polygon","arcs":[[161,162,163,-152]],"properties":{"codigo":"68276100000000001405","sector":"682761000000000014","pcode":"CO68276","area_m2":16203}},{"type":"Polygon","arcs":[[-74,164,-158,165]],"properties":{"codigo":"68276100000000001410","sector":"682761000000000014","pcode":"CO68276","area_m2":74477}},{"type":"Polygon","arcs":[[166,-50,-79]],"properties":{"codigo":"68276100000000001601","sector":"682761000000000016","pcode":"CO68276","area_m2":20307}},{"type":"Polygon","arcs":[[167]],"properties":{"codigo":"68276200101011000101","sector":"682762001010110001","pcode":"CO68276","area_m2":11975}},{"type":"Polygon","arcs":[[168]],"properties":{"codigo":"68276200104014000101","sector":"682762001040140001","pcode":"CO68276","area_m2":158107}},{"type":"MultiPolygon","arcs":[[[169,170]],[[171]]],"properties":{"codigo":"68276200103018000101","sector":"682762001030180001","pcode":"CO68276","area_m2":47900}},{"type":"Polygon","arcs":[[172]],"properties":{"codigo":"68276200102020000101","sector":"682762001020200001","pcode":"CO68276","area_m2":103788}},{"type":"Polygon","arcs":[[-170,173]],"properties":{"codigo":"68276200103021000101","sector":"682762001030210001","pcode":"CO68276","area_m2":486756}},{"type":"Polygon","arcs":[[174,175,-82,-62]],"properties":{"codigo":"68276100000000000405","sector":"682761000000000004","pcode":"CO68276","area_m2":79628}},{"type":"Polygon","arcs":[[-58,176,-119,177,-175,-61,-99,-45,-30,-52,178]],"properties":{"codigo":"68276100000000000304","sector":"682761000000000003","pcode":"CO68276","area_m2":362590}},{"type":"Polygon","arcs":[[179]],"properties":{"codigo":"68276200102019000101","sector":"682762001020190001","pcode":"CO68276","area_m2":27108}},{"type":"Polygon","arcs":[[180,181,-108,182,-105]],"properties":{"codigo":"68276100000000000602","sector":"682761000000000006","pcode":"CO68276","area_m2":39343}},{"type":"Polygon","arcs":[[-121,-114,183,184,185,186]],"properties":{"codigo":"68276100000000000801","sector":"682761000000000008","pcode":"CO68276","area_m2":137525}},{"type":"Polygon","arcs":[[187,-150,188,189]],"properties":{"codigo":"68276100000000001501","sector":"682761000000000015","pcode":"CO68276","area_m2":66704}},{"type":"Polygon","arcs":[[190,191]],"properties":{"codigo":"68276100000000001107","sector":"682761000000000011","pcode":"CO68276","area_m2":184392}},{"type":"Polygon","arcs":[[-130,-148,192,193,-143,194]],"properties":{"codigo":"68276100000000001205","sector":"682761000000000012","pcode":"CO68276","area_m2":351973}},{"type":"Polygon","arcs":[[195,-6,196,197]],"properties":{"codigo":"68276100000000000703","sector":"682761000000000007","pcode":"CO68276","area_m2":105902}},{"type":"Polygon","arcs":[[198,199]],"properties":{"codigo":"68276100000000001303","sector":"682761000000000013","pcode":"CO68276","area_m2":50487}},{"type":"Polygon","arcs":[[-122,-187,-83,-176,-178]],"properties":{"codigo":"68276100000000000308","sector":"682761000000000003","pcode":"CO68276","area_m2":117919}},{"type":"Polygon","arcs":[[-164,200,201,202,-155,-153]],"properties":{"codigo":"68276100000000001403","sector":"682761000000000014","pcode":"CO68276","area_m2":88245}},{"type":"Polygon","arcs":[[203,-181,-104,-94]],"properties":{"codigo":"68276100000000000504","sector":"682761000000000005","pcode":"CO68276","area_m2":128178}},{"type":"Polygon","arcs":[[204,-21,-92,-110,205,206]],"properties":{"codigo":"68276100000000001106","sector":"682761000000000011","pcode":"CO68276","area_m2":140586}},{"type":"Polygon","arcs":[[-76,207]],"properties":{"codigo":"68276100000000000310","sector":"682761000000000003","pcode":"CO68276","area_m2":45504}},{"type":"Polygon","arcs":[[208,-27,-12,-25,209,210,211,212]],"properties":{"codigo":"68276100000000000102","sector":"682761000000000001","pcode":"CO68276","area_m2":211102}},{"type":"Polygon","arcs":[[-10,213,214,215,216,-23]],"properties":{"codigo":"68276100000000000109","sector":"682761000000000001","pcode":"CO68276","area_m2":85753}},{"type":"Polygon","arcs":[[217,218,-210,-24]],"properties":{"codigo":"68276100000000000103","sector":"682761000000000001","pcode":"CO68276","area_m2":80892}},{"type":"Polygon","arcs":[[219]],"properties":{"codigo":"68276200104022000101","sector":"682762001040220001","pcode":"CO68276","area_m2":141689}},{"type":"Polygon","arcs":[[-186,-206,-109,-182,-204,-93,-2,-84]],"properties":{"codigo":"68276100000000000505","sector":"682761000000000005","pcode":"CO68276","area_m2":173944}},{"type":"Polygon","arcs":[[-113,-118,220,221,-8,222,-184]],"properties":{"codigo":"68276100000000000807","sector":"682761000000000008","pcode":"CO68276","area_m2":328893}},{"type":"Polygon","arcs":[[223,224,-124,225,226,227,-14,228,-132]],"properties":{"codigo":"68276100000000000906","sector":"682761000000000009","pcode":"CO68276","area_m2":666077}},{"type":"Polygon","arcs":[[229]],"properties":{"codigo":"68276200103012000101","sector":"682762001030120001","pcode":"CO68276","area_m2":47870}},{"type":"Polygon","arcs":[[230,231]],"properties":{"codigo":"68276100000000001305","sector":"682761000000000013","pcode":"CO68276","area_m2":341933}},{"type":"Polygon","arcs":[[-189,-149,-38,232,233]],"properties":{"codigo":"68276100000000001502","sector":"682761000000000015","pcode":"CO68276","area_m2":99172}},{"type":"Polygon","arcs":[[-43,234,235,236,-35,237,238]],"properties":{"codigo":"68276100000000000206","sector":"682761000000000002","pcode":"CO68276","area_m2":154876}},{"type":"Polygon","arcs":[[-227,239,240]],"properties":{"codigo":"68276100000000000907","sector":"682761000000000009","pcode":"CO68276","area_m2":71073}},{"type":"Polygon","arcs":[[241,-128,-126,242,243,244,245]],"properties":{"codigo":"68276100000000000901","sector":"682761000000000009","pcode":"CO68276","area_m2":492310}},{"type":"Polygon","arcs":[[246,247,248,249]],"properties":{"codigo":"68276100000000001304","sector":"682761000000000013","pcode":"CO68276","area_m2":838875}},{"type":"Polygon","arcs":[[250]],"properties":{"codigo":"68276200104013000101","sector":"682762001040130001","pcode":"CO68276","area_m2":1458124}},{"type":"Polygon","arcs":[[-72,-53,-33,251,252,253]],"properties":{"codigo":"68276100000000000407","sector":"682761000000000004","pcode":"CO68276","area_m2":68697}},{"type":"Polygon","arcs":[[254,-89,255,256,-216]],"properties":{"codigo":"68276100000000001102","sector":"682761000000000011","pcode":"CO68276","area_m2":191847}},{"type":"Polygon","arcs":[[257,258,-236,-156,-203]],"properties":{"codigo":"68276100000000001408","sector":"682761000000000014","pcode":"CO68276","area_m2":40572}},{"type":"Polygon","arcs":[[259,-233,-41,-157,-235,-42]],"properties":{"codigo":"68276100000000000201","sector":"682761000000000002","pcode":"CO68276","area_m2":146723}},{"type":"Polygon","arcs":[[260,261,-162,-151,-188]],"properties":{"codigo":"68276100000000001409","sector":"682761000000000014","pcode":"CO68276","area_m2":72106}},{"type":"Polygon","arcs":[[-16,262,-240,-226,-123,-129,-242,-137]],"properties":{"codigo":"68276100000000000904","sector":"682761000000000009","pcode":"CO68276","area_m2":281471}},{"type":"Polygon","arcs":[[263,264,265,266,-214,-9,-26]],"properties":{"codigo":"68276100000000000105","sector":"682761000000000001","pcode":"CO68276","area_m2":94766}},{"type":"Polygon","arcs":[[-144,-194,267,-142,-140,-54,268]],"properties":{"codigo":"68276100000000001209","sector":"682761000000000012","pcode":"CO68276","area_m2":126391}},{"type":"Polygon","arcs":[[-57,-138,-246,269,-116,-120,-177]],"properties":{"codigo":"68276100000000000803","sector":"682761000000000008","pcode":"CO68276","area_m2":138832}},{"type":"Polygon","arcs":[[-183,-111,-90,270,-106]],"properties":{"codigo":"68276100000000000603","sector":"682761000000000006","pcode":"CO68276","area_m2":107958}},{"type":"Polygon","arcs":[[-263,-15,-228,-241]],"properties":{"codigo":"68276100000000000905","sector":"682761000000000009","pcode":"CO68276","area_m2":98064}},{"type":"Polygon","arcs":[[271,272,-197,-5,-222,273]],"properties":{"codigo":"68276100000000000701","sector":"682761000000000007","pcode":"CO68276","area_m2":381470}},{"type":"Polygon","arcs":[[-219,274,-211]],"properties":{"codigo":"68276100000000000101","sector":"682761000000000001","pcode":"CO68276","area_m2":36761}},{"type":"Polygon","arcs":[[275,276,-248,277]],"properties":{"codigo":"68276100000000001306","sector":"682761000000000013","pcode":"CO68276","area_m2":256581}},{"type":"Polygon","arcs":[[278,-37,279,280,-213,281]],"properties":{"codigo":"68276100000000000203","sector":"682761000000000002","pcode":"CO68276","area_m2":54632}},{"type":"Polygon","arcs":[[-36,-237,-259,282,-265,283,-280]],"properties":{"codigo":"68276100000000000204","sector":"682761000000000002","pcode":"CO68276","area_m2":180019}},{"type":"Polygon","arcs":[[284,285,-198,-273]],"properties":{"codigo":"68276100000000000704","sector":"682761000000000007","pcode":"CO68276","area_m2":70401}},{"type":"Polygon","arcs":[[-34,-279,286,-238]],"properties":{"codigo":"68276100000000000202","sector":"682761000000000002","pcode":"CO68276","area_m2":41267}},{"type":"Polygon","arcs":[[-253,287,288,289,290]],"properties":{"codigo":"68276100000000000412","sector":"682761000000000004","pcode":"CO68276","area_m2":46235}},{"type":"Polygon","arcs":[[-147,-133,-229,-19,-141,-268,-193]],"properties":{"codigo":"68276100000000001208","sector":"682761000000000012","pcode":"CO68276","area_m2":80608}},{"type":"Polygon","arcs":[[291]],"properties":{"codigo":"68276200103016000101","sector":"682762001030160001","pcode":"CO68276","area_m2":64540}},{"type":"Polygon","arcs":[[292,293,-160,294,-283,-258,-202]],"properties":{"codigo":"68276100000000001407","sector":"682761000000000014","pcode":"CO68276","area_m2":110188}},{"type":"Polygon","arcs":[[-7,-196,-286,295,-278,-247,296,-191,297,-207,-185,-223]],"properties":{"codigo":"68276100000000000705","sector":"682761000000000007","pcode":"CO68276","area_m2":828408}},{"type":"Polygon","arcs":[[-78,298,-145,-269,-59,-179,-51,-167]],"properties":{"codigo":"68276100000000000307","sector":"682761000000000003","pcode":"CO68276","area_m2":185958}},{"type":"Polygon","arcs":[[-262,299,-293,-201,-163]],"properties":{"codigo":"68276100000000001406","sector":"682761000000000014","pcode":"CO68276","area_m2":31909}},{"type":"Polygon","arcs":[[300]],"properties":{"codigo":"68276200103023000101","sector":"682762001030230001","pcode":"CO68276","area_m2":498699}},{"type":"Polygon","arcs":[[-22,-205,-298,-192,-297,-250,301,-256,-88]],"properties":{"codigo":"68276100000000001103","sector":"682761000000000011","pcode":"CO68276","area_m2":989973}},{"type":"Polygon","arcs":[[302,303,304,305,-199]],"properties":{"codigo":"68276100000000001307","sector":"682761000000000013","pcode":"CO68276","area_m2":103889}},{"type":"Polygon","arcs":[[-270,-245,-274,-221,-117]],"properties":{"codigo":"68276100000000000805","sector":"682761000000000008","pcode":"CO68276","area_m2":121347}},{"type":"Polygon","arcs":[[-264,-28,-209,-281,-284]],"properties":{"codigo":"68276100000000000108","sector":"682761000000000001","pcode":"CO68276","area_m2":120984}},{"type":"Polygon","arcs":[[-267,306,-103,-107,-271,-255,-215]],"properties":{"codigo":"68276100000000000604","sector":"682761000000000006","pcode":"CO68276","area_m2":224080}},{"type":"Polygon","arcs":[[-243,-125,-225,307,-303,-200,-306,308]],"properties":{"codigo":"68276100000000001302","sector":"682761000000000013","pcode":"CO68276","area_m2":591369}},{"type":"Polygon","arcs":[[-244,-309,-305,309,-232,-276,-296,-285,-272]],"properties":{"codigo":"68276100000000001301","sector":"682761000000000013","pcode":"CO68276","area_m2":858567}},{"type":"Polygon","arcs":[[-290,310]],"properties":{"codigo":"68276100000000000413","sector":"682761000000000004","pcode":"CO68276","area_m2":22829}},{"type":"Polygon","arcs":[[-252,-32,-48,311,-288]],"properties":{"codigo":"68276100000000000406","sector":"682761000000000004","pcode":"CO68276","area_m2":82272}},{"type":"Polygon","arcs":[[-159,-165,-73,-254,-291,-311,-289,-312,-47,-100,-65,-67,-81,-98,-101,-307,-266,-295]],"properties":{"codigo":"68276100000000000408","sector":"682761000000000004","pcode":"CO68276","area_m2":733946}}]}},"arcs":[[[4549,5738],[-5,-21],[-52,-10],[24,-194],[-57,-17],[-165,-13],[9,-55]],[[4303,5428],[-29,-3]],[[4274,5425],[-27,15],[-15,26],[6,45],[27,111],[-9,82],[-21,91]],[[4235,5795],[295,24],[19,-81]],[[4061,4559],[-161,-27],[-223,-82]],[[3677,4450],[-265,182],[-4,12]],[[3408,4644],[70,37],[123,113],[17,41]],[[3618,4835],[337,-219],[106,-57]],[[4215,6554],[-79,-20],[-51,-39],[-30,-72],[-77,61]],[[3978,6484],[-59,69],[1,21]],[[3920,6574],[36,-2],[48,11],[95,50],[61,48],[36,57]],[[4196,6738],[18,29]],[[4214,6767],[12,-31],[45,-12],[14,-22],[27,-100],[-97,-48]],[[6811,4182],[-201,-66]],[[6610,4116],[-77,77],[-27,34],[-94,-27]],[[6412,4200],[-5,38],[11,25],[45,39]],[[6463,4302],[35,58]],[[6498,4360],[163,0]],[[6661,4360],[10,-56],[67,13],[23,-13],[-2,-33],[29,-5],[32,-51],[-22,-7],[13,-26]],[[2846,5276],[-5,-20],[74,-13],[-2,-28],[45,-44],[38,-65]],[[2996,5106],[-6,-151],[-12,-197],[-23,-31]],[[2955,4727],[-76,5],[-76,20],[8,220],[-9,16],[-102,-11],[-76,0],[57,67],[11,49],[38,35],[56,99],[34,45],[26,4]],[[3920,6574],[-75,13],[-42,40],[-65,127]],[[3738,6754],[147,58],[114,83],[20,-19],[43,21]],[[4062,6897],[13,-38],[-33,-17],[-26,-90],[31,-55],[70,-5],[79,46]],[[4521,6524],[-50,-32],[-66,-33],[-72,-25],[-144,89],[26,31]],[[4214,6767],[0,33]],[[4214,6800],[50,-3],[37,-31],[80,-51],[21,-88],[10,-14],[109,-89]],[[5984,5691],[-79,-72],[177,-124],[-99,-70]],[[5983,5425],[-32,-20],[-112,-40],[-58,-72],[-43,-45],[-44,-9],[-85,22],[-18,25]],[[5591,5286],[223,198],[-140,99]],[[5674,5583],[121,107],[27,-10],[8,45],[0,64],[12,1]],[[5842,5790],[142,-99]],[[4564,7326],[159,-9],[1,5],[154,-8],[-4,61],[36,-13]],[[4910,7362],[11,-57],[-63,-150],[-30,-6],[0,-90]],[[4828,7059],[-60,8]],[[4768,7067],[6,69],[-21,2],[5,70],[-228,13],[38,56],[-4,49]],[[5799,7060],[26,-11],[8,-25],[-96,-11],[29,-127]],[[5766,6886],[-76,-10],[-11,45],[-79,-10],[3,-16],[-75,-10]],[[5528,6885],[-26,120],[-16,53]],[[5486,7058],[88,9],[101,29],[19,-2],[33,-38],[60,-14],[12,18]],[[5765,7372],[-44,10],[-54,-47],[-10,-26],[4,-70],[-37,-19],[-54,7],[-63,-27],[-45,-7],[-37,28],[-55,18],[-64,-6],[5,-14],[-48,2],[-15,50],[-85,-15]],[[5163,7256],[24,21],[34,-2],[31,48],[48,107],[57,2],[9,-32]],[[5366,7400],[38,-2],[7,-21],[81,-29],[55,41],[53,82],[28,-14],[73,20],[17,-7],[-10,-31],[23,6],[66,-19],[-32,-54]],[[5591,5286],[-5,-3]],[[5586,5283],[-35,42],[-52,41],[-33,68],[-29,28],[-1,20],[59,46]],[[5495,5528],[30,26],[-42,62],[21,29]],[[5504,5645],[35,21],[48,-65],[41,13],[46,-31]],[[6290,5739],[-55,-94],[115,-39],[-69,-115],[-25,-18],[61,-73],[17,-46],[0,-69],[-31,-96],[23,-54]],[[6326,5135],[-5,-12],[-58,-12],[-21,-20]],[[6242,5091],[-54,60],[22,12],[-88,99]],[[6122,5262],[-139,163]],[[5984,5691],[82,68],[89,-63],[68,75],[67,-32]],[[6282,4774],[-8,-36],[-63,-64]],[[6211,4674],[-112,-86]],[[6099,4588],[-302,3],[-47,-9],[-55,-33]],[[5695,4549],[-16,67]],[[5679,4616],[15,15],[4,50],[-9,61],[-63,37],[-44,4],[-14,50],[5,51],[53,26],[-53,119],[-52,52],[218,74],[19,-32],[98,34]],[[5856,5157],[116,-186],[-52,-37],[58,-50],[-60,-64],[25,-17],[57,8],[68,41],[78,9],[15,59],[30,-1],[-8,-91],[-108,-59],[-81,-34],[-63,-15],[14,-26],[39,3],[80,27],[99,41],[74,15],[45,-6]],[[5024,5654],[107,-136],[123,-145],[89,-53]],[[5343,5320],[-61,11],[-90,8],[-73,42]],[[5119,5381],[-95,97],[-72,51],[-37,16]],[[4915,5545],[-30,33]],[[4885,5578],[-8,44],[-49,36],[104,78]],[[4932,5736],[72,-58],[20,-24]],[[4494,5947],[9,-24],[176,5],[2,-35],[-22,-14],[107,12]],[[4766,5891],[23,-52],[59,-21],[62,-53],[22,-29]],[[4885,5578],[-19,28],[-41,17],[-60,38],[-43,42],[-62,2],[-111,33]],[[4235,5795],[1,31],[35,24]],[[4271,5850],[19,9],[48,59],[-6,23],[-65,37],[-40,84]],[[4227,6062],[154,58],[46,-67],[18,-8],[13,-46],[36,-52]],[[6290,5739],[67,-3],[31,28],[6,37]],[[6394,5801],[-4,105],[32,39],[-28,82],[50,40],[-5,24]],[[6439,6091],[49,0],[16,-102],[72,7],[-9,53],[73,-71]],[[6640,5978],[98,-75],[3,-27],[37,-25],[8,94],[50,-23],[-18,-26],[4,-38],[-25,-83],[54,-28],[33,-92],[55,-32],[-37,-30],[22,-52],[-13,-26],[6,-38],[-23,-34],[14,-14],[14,-119],[-11,-21]],[[6911,5289],[-12,113],[-71,7],[14,44],[-23,10],[-62,-44],[-27,-45],[3,-121],[18,-57],[-35,-50],[-7,-44],[16,-8]],[[6725,5094],[54,-20],[38,7],[61,-29],[32,-7],[35,-38],[27,-10],[-1,-29],[-29,-22],[-134,-33],[-24,10],[-57,-28],[-63,0],[-25,-27],[-47,-6],[-30,8],[-38,-9],[-18,-86]],[[6506,4775],[-56,28],[-15,25],[40,32],[7,40],[46,31],[18,46],[20,10],[13,58],[-31,22],[-43,0]],[[6505,5067],[1,73],[-17,27],[-11,-26],[-18,15],[-21,-19],[-36,13],[-77,-15]],[[4494,5947],[2,35],[-7,142],[41,3],[2,14]],[[4532,6141],[46,-43],[97,-73],[28,-46],[56,-65],[7,-23]],[[4915,5545],[-48,-18],[9,-17],[-97,-36],[9,-10],[-29,-31],[0,-18],[-41,-10],[-100,-1],[2,-129],[-11,-35],[84,-22],[-9,-13]],[[4684,5205],[-64,-5]],[[4620,5200],[-22,16],[-84,5],[-109,32],[-20,32],[7,59],[16,19],[106,51],[0,42],[-42,9],[-169,-37]],[[4117,5891],[-75,-169],[-97,8],[-178,-13]],[[3767,5717],[-13,31],[-34,37],[-46,22],[-2,44],[-16,6],[31,41],[11,40]],[[3698,5938],[26,-8],[192,16],[217,-17],[-16,-38]],[[2846,5276],[24,104],[50,129],[22,85],[24,18],[79,34],[67,11],[112,64]],[[3224,5721],[61,32],[42,-2]],[[3327,5751],[-16,-230],[-5,-142]],[[3306,5379],[-7,-118]],[[3299,5261],[-43,-13],[-56,-32],[-204,-110]],[[4274,5425],[-88,-11],[-152,-11]],[[4034,5403],[-33,221],[-36,-83],[-193,48],[-15,-38],[-46,0]],[[3711,5551],[19,16],[48,92],[-11,58]],[[4117,5891],[154,-41]],[[4227,6062],[-9,34]],[[4218,6096],[56,39],[130,50],[27,-4],[101,-40]],[[5586,5283],[-161,30],[-82,7]],[[5024,5654],[67,50],[-10,9],[211,82],[143,1],[47,-16],[0,-15],[-135,1],[2,-104],[99,-6],[-3,-62],[28,0],[-9,-25],[-47,-39],[78,-2]],[[4314,6313],[-33,-45],[23,-67],[-10,-24],[-62,-44],[-14,-37]],[[3698,5938],[-41,53],[30,28],[49,3],[83,21],[71,1],[51,18],[87,71]],[[4028,6133],[65,22],[123,15],[9,56],[-24,70],[8,30],[33,4],[72,-17]],[[3711,5551],[-49,-39],[-19,-115],[-25,-40],[-6,-31]],[[3612,5326],[-43,15]],[[3569,5341],[28,76],[-23,55],[-38,15],[25,36],[-27,11],[12,44],[99,150],[17,9],[-23,40],[-145,60],[23,37]],[[3517,5874],[7,33],[-14,34],[15,68],[61,41],[14,34],[-30,21],[-16,55],[19,13],[-6,47],[43,11],[2,-57],[93,1],[23,10],[-4,65],[61,0],[12,-20],[125,-35],[43,5],[66,-14],[-3,-53]],[[3508,5352],[-28,-82],[-17,-108],[-19,37],[-56,-10],[32,-84],[42,-54],[54,-54]],[[3516,4997],[-41,-54]],[[3475,4943],[-70,55],[-38,43],[-37,62],[-21,54],[-10,104]],[[3306,5379],[158,-6],[44,-21]],[[4891,4651],[-174,3],[-17,-3]],[[4700,4651],[4,51],[-44,97],[-20,15],[-188,90]],[[4452,4904],[36,145]],[[4488,5049],[97,-42],[52,7],[45,-21],[48,-39],[29,36],[73,-34],[49,-37],[-20,-117],[-14,-38],[40,-49],[-15,-24],[19,-40]],[[4891,4651],[92,-132],[57,21],[61,-92]],[[5101,4448],[-85,-35],[-93,-24],[-87,132],[-59,-22],[-97,141]],[[4680,4640],[20,11]],[[5255,4792],[98,-75]],[[5353,4717],[-17,-20],[-67,5],[-55,14],[-45,-11],[-278,-54]],[[4488,5049],[-61,46],[1,21],[28,11],[53,1],[31,10]],[[4540,5138],[2,-28],[93,-55],[140,-45],[114,-21],[97,5],[18,-18],[70,-171],[40,-26],[72,16],[69,-3]],[[6390,3610],[70,-84],[69,-137],[71,-11]],[[6600,3378],[21,-6],[17,-42]],[[6638,3330],[-603,173],[-96,33],[-66,30],[-72,40],[-271,168],[-96,52]],[[5434,3826],[78,17],[94,-14],[68,-3],[65,11],[-60,139],[264,79]],[[5943,4055],[90,-169],[126,-262],[27,-38],[33,-27],[171,51]],[[5943,4055],[131,42]],[[6074,4097],[55,18],[125,-238],[33,-71],[103,-196]],[[7403,4175],[17,-8]],[[7420,4167],[12,-24],[62,-26],[70,13],[15,-59],[26,-8],[25,-37],[56,12],[2,-20],[29,-20],[-5,-24],[48,-18],[-6,-12],[-68,11],[-28,14],[-21,-12],[-58,-3],[-94,-21],[-73,11],[60,-37],[-19,-18],[-81,-5],[29,-43],[81,-6],[10,-20],[-32,-34]],[[7460,3781],[-77,3],[-40,-9],[-101,-44],[-59,19],[-61,37],[2,14],[51,20],[-123,174],[-14,48]],[[7038,4043],[71,47],[59,26]],[[7168,4116],[102,11],[50,16],[32,40],[51,-8]],[[6099,4588],[201,-151]],[[6300,4437],[95,-70],[34,-7],[69,0]],[[6463,4302],[-28,22],[-49,3],[-33,-20],[-99,7],[-30,70],[-46,36],[-60,13],[-31,-13],[-43,10],[-50,46],[-44,0],[-47,32],[-68,5],[-52,11],[-70,-28]],[[5713,4496],[-18,53]],[[6485,4574],[-185,-137]],[[6211,4674],[61,-28],[112,0],[101,-72]],[[6715,4399],[-54,-39]],[[6485,4574],[230,-175]],[[6895,4805],[5,-40],[-37,-216]],[[6863,4549],[-5,-42],[-189,144],[-111,42]],[[6558,4693],[-37,36]],[[6521,4729],[27,9],[13,39],[27,18],[33,-5],[32,15],[89,2],[1,19],[116,-9],[36,-12]],[[7168,4116],[-42,72],[31,11],[-16,31],[22,16],[8,30],[-83,-24],[-55,-4],[-37,-11],[-61,-3],[-15,28],[238,82],[94,42],[101,7]],[[7353,4393],[85,11],[20,-23],[-27,-74],[-26,-99],[-2,-33]],[[5766,6886],[-1,-18],[-32,-85],[-38,-70],[-84,-38],[-50,0],[-37,-39],[4,-49],[81,-8],[14,-12]],[[5623,6567],[-18,-48]],[[5605,6519],[-8,-5]],[[5597,6514],[-94,4]],[[5503,6518],[-56,54],[-111,42],[-17,22],[-69,22],[-174,77],[-43,23]],[[5033,6758],[60,49],[242,-104],[2,72],[82,40],[107,60],[2,10]],[[5033,6758],[-17,28],[-6,39],[14,54]],[[5024,6879],[56,88],[-12,104],[-18,36]],[[5050,7107],[78,-31],[32,-39],[15,-43],[60,-63],[76,28],[-71,81],[-35,17],[-13,39],[68,9],[14,-49],[66,-19],[146,21]],[[6193,6228],[-3,-40],[-21,-14],[-64,25],[-154,-129]],[[5951,6070],[-75,61],[29,25],[-18,28],[-45,41],[31,22],[-36,35],[-49,32],[5,54]],[[5793,6368],[57,36]],[[5850,6404],[130,-105],[42,33],[13,-65],[28,-1],[43,26],[26,1],[31,-48],[30,-17]],[[5597,6514],[50,-7],[67,6],[60,-12]],[[5774,6501],[-73,-31],[-64,-12],[-51,14],[-78,-27],[-22,12],[-73,-18],[-63,48]],[[5350,6487],[89,4],[64,27]],[[6439,6091],[-20,8],[-14,-40],[-29,-21],[-8,-70],[-55,2],[-22,14],[44,129],[-67,17],[-97,38],[-62,-50],[-95,-69],[-25,-7],[-38,28]],[[6193,6228],[54,-16],[18,-31],[51,-11],[42,3],[11,22],[92,-23],[-3,-10],[100,-20],[20,15],[-18,44],[19,3],[85,94],[28,-18],[-56,-37],[33,-14],[88,55],[65,-2],[10,-27],[-95,-7],[-42,-27],[5,-43],[-44,-8],[-26,26],[-58,-135],[39,-7],[2,25],[90,7],[9,-71],[-10,-33],[-62,-4]],[[6505,5067],[-11,-32],[-35,-31],[-56,55],[-90,-3],[-33,8],[-38,27]],[[9879,9962],[34,-12],[46,13],[33,-40],[-12,-14],[2,-47],[14,-70],[-54,12],[-31,66],[17,6],[-16,26],[-24,-4],[-5,61],[-24,-6],[-46,27],[56,19],[10,-37]],[[1954,1497],[12,-6],[50,26],[48,-5],[77,-65],[28,-60],[-77,-76],[-90,48],[-49,9],[11,-56],[-72,-36],[-11,-34],[-34,-9],[-18,14],[-72,-62],[-114,-21],[-72,-34],[-98,-116],[-72,1],[-35,-18],[-63,80],[45,66],[-54,16],[53,24],[112,30],[22,-19],[24,-48],[51,24],[12,36],[33,42],[150,29],[-52,7],[-112,26],[-74,53],[167,4],[79,57],[-47,52],[1,21],[-31,32],[-11,35],[7,70],[90,30],[0,-31],[63,-29],[-2,-43],[18,-47],[107,-17]],[[7874,2745],[74,56],[48,19]],[[7996,2820],[49,-1],[34,9],[-6,46],[53,31],[17,23],[4,39],[-69,28],[-30,41],[57,16],[15,-23],[69,22],[-31,34],[74,18],[43,-38],[-16,-36],[-62,-21],[7,-45],[-24,-13],[4,-21],[-31,-1],[-2,-26],[-43,-28],[-4,-36],[15,-33],[-10,-42],[-39,-20],[-1,25],[-69,5],[-71,-25],[-55,-3]],[[8489,2979],[-32,-8],[-51,-49],[24,-18],[-56,-37],[-11,-55],[-53,-10],[-15,-24],[-37,-5],[-1,43],[-71,24],[43,12],[43,-18],[29,69],[-18,12],[24,27],[33,0],[22,-32],[-2,31],[45,39],[84,35],[15,19],[23,-7],[-49,-36],[11,-12]],[[7588,9685],[44,-4],[10,-52],[27,-22],[80,-11],[104,5],[56,12],[46,-6],[126,50],[46,2],[25,-56],[-85,-37],[-79,-25],[-52,-28],[-46,-59],[-18,-35],[-33,-32],[-19,13],[-52,-51],[4,-24],[-37,-13],[-20,6],[-1,94],[7,49],[-91,7],[-53,-57],[-43,-14],[-54,15],[-26,31],[-9,56],[44,15],[31,50],[6,58],[-16,25],[-47,-6],[-6,19],[57,12],[7,47],[16,12],[51,-46]],[[7874,2745],[-273,-185],[-56,-16],[-51,0],[-158,19],[109,-71],[103,-114],[71,-99],[-41,-7],[-70,-25],[50,-88],[-46,-5],[-167,-44],[0,63],[-26,55],[-97,94],[-18,26],[-29,103],[-38,61],[-83,49],[-101,69],[-115,93],[-55,97],[-19,152],[309,24],[59,-16],[80,-2],[150,10],[98,11],[57,36],[41,9],[51,-2],[39,-31],[46,-109],[178,18],[26,-92],[73,5],[25,-13]],[[5119,5381],[-72,0],[-104,-12],[-37,4],[-25,-25],[1,-40],[-17,-17],[-4,-83]],[[4861,5208],[-42,-20],[-93,2],[-22,-5],[-20,20]],[[5679,4616],[-24,35],[-107,23],[-128,16],[-67,27]],[[5255,4792],[-48,31],[-70,-6],[-11,29],[22,14],[54,5],[12,39],[-77,48],[-6,26],[23,48],[-39,12],[-86,67],[-77,21],[60,5],[128,41],[-3,44],[-37,0],[-2,34],[-110,-12],[-62,-24],[-65,-6]],[[6122,5262],[-194,-79],[-72,-26]],[[6735,8845],[0,-43],[-23,-10],[-1,-50],[-24,-22],[-24,-71],[-8,-53],[39,-27],[-45,-12],[15,-32],[-27,-60],[-29,5],[-10,-30],[74,5],[6,-20],[-21,-30],[6,-23],[-46,-18],[23,-16],[-41,-17],[-31,27],[11,-25],[77,-54],[-133,39],[-45,25],[94,33],[8,110],[36,24],[13,24],[-5,78],[17,36],[0,31],[31,76],[6,72],[-15,25],[42,24],[30,-21]],[[3612,5326],[-3,-36],[15,-36],[-47,-99],[-4,-47],[-23,-32],[-3,-67]],[[3547,5009],[-31,-12]],[[3508,5352],[61,-11]],[[4452,4904],[-13,5],[-320,37],[-157,2],[-266,0],[-60,-10],[-33,6],[-78,-6],[-21,-13]],[[3504,4925],[-8,5]],[[3496,4930],[48,57],[127,32],[83,32],[10,12],[99,14],[61,21],[44,55],[48,1],[24,-15],[67,-9],[86,5],[53,-17],[44,4],[13,19],[161,6],[65,13],[15,18],[76,22]],[[4620,5200],[-1,-13],[-79,-49]],[[6132,6569],[-18,27],[-30,-17],[-32,6],[-115,-19],[-32,51],[-13,7],[-121,-38],[-36,-22],[-102,-45],[-28,0]],[[5623,6567],[36,17],[35,38],[27,-11],[50,70],[43,36],[62,12],[43,71],[15,73],[-1,46],[22,12],[92,123]],[[6047,7054],[23,24],[11,-18],[-38,-31],[3,-47],[41,-25],[-14,-24],[-34,11],[-60,-43],[-5,-67],[31,-82],[32,-15],[-55,-19],[31,-11],[68,-46],[30,-1],[42,16],[-4,-25],[-28,-46],[11,-36]],[[2366,4405],[-115,-18],[-80,-43],[-35,-50],[-62,-33],[-132,0],[-65,-22],[-83,-49],[-108,6],[-70,-8]],[[1616,4188],[-11,173],[5,51],[17,46],[25,33],[65,56],[58,18],[160,38],[180,38],[35,-90],[37,-42],[-7,-28],[46,-25],[-6,-10],[65,-17],[6,7],[74,-3],[1,-28]],[[7353,4393],[-9,32],[-154,-10]],[[7190,4415],[-69,29],[-44,28],[-15,-10],[-59,45],[-44,0],[-69,48],[-27,-6]],[[6895,4805],[126,-8],[4,28],[43,3],[28,16],[41,55],[55,-1],[-19,-24],[247,52],[70,-22],[10,-37],[64,-7],[23,11],[40,-65],[56,-20],[45,-34],[41,-1],[16,-20],[-21,-10],[-73,7],[-33,-10],[13,-19],[30,3],[121,-62],[42,13],[8,-17],[-14,-54],[41,-18],[-14,-12],[-52,-4],[-109,-41],[-72,33],[-34,-7],[-38,-93],[-5,-41],[-60,-72],[-23,-54],[-1,-39],[16,-23],[4,47],[21,49],[38,38],[28,-14],[-15,-20],[16,-46],[-35,-24],[1,-60],[-77,-19],[-68,5]],[[2959,4266],[-7,94],[151,36],[82,4],[64,24],[35,37],[18,72],[18,33],[46,53],[42,25]],[[3677,4450],[-82,-30],[-89,-43],[-79,-53],[-165,-41]],[[3262,4283],[-102,-12],[-201,-5]],[[4701,3611],[-71,22],[-4,155],[2,63]],[[4628,3851],[30,-1],[200,-36],[-10,-163],[26,-42],[-21,-10],[38,-31],[-30,-37],[-103,62],[-18,21],[-39,-3]],[[5350,6487],[-50,5],[-101,-1]],[[5199,6491],[-49,2],[-79,15],[-26,22],[-47,15],[-53,-3],[-44,-11],[-10,31],[14,29]],[[4905,6591],[42,43],[-5,27],[20,71],[-9,36],[32,61],[39,50]],[[4034,5403],[-124,8],[-45,-97],[-85,-193],[-26,-41],[-71,-42],[-136,-29]],[[3109,4748],[-62,-14],[-92,-7]],[[3475,4943],[21,-13]],[[3496,4930],[-84,-58],[-85,-36],[-95,-4],[-59,-28],[-69,-12],[5,-44]],[[6911,5289],[19,-46],[-41,-11],[-26,-54],[23,-38],[-44,9],[-43,-44],[-33,10],[-41,-21]],[[4413,7140],[-13,-12],[-20,-66],[-40,-22],[-49,-15],[-41,-45],[-48,-105],[12,-75]],[[4062,6897],[-34,70],[-98,45],[-64,34],[-121,50]],[[3745,7096],[-8,19]],[[3737,7115],[63,26],[332,102],[-1,53],[15,-1],[55,-60],[28,37],[-44,136],[83,19],[109,-31],[203,85],[8,-28]],[[4588,7453],[-84,-70],[-12,-36],[7,-67],[-28,-24],[-27,-44],[-31,-72]],[[3978,6484],[-151,-72]],[[3827,6412],[-13,51],[-22,11],[-89,3],[-30,9],[-45,35],[-141,-20],[-13,-22],[-70,-169],[-24,-12]],[[3380,6298],[-10,62],[-19,-12],[-15,104]],[[3336,6452],[58,4],[50,17],[37,81],[47,60],[-11,4],[34,49],[34,-8],[49,25],[11,41],[93,29]],[[3738,6754],[-82,133],[-11,44],[-6,91],[-24,42]],[[3615,7064],[104,43],[26,-11]],[[3447,2223],[33,-59],[-53,-18],[-167,2],[-117,-7],[-70,-14],[-112,-42],[-83,-19],[-142,-40],[-52,-25],[-1,-48],[72,16],[66,-30],[71,-71],[16,-32],[-52,-23],[-24,-44],[5,-28],[-43,23],[-47,53],[-37,21],[-37,-14],[-17,-21],[-49,19],[-103,94],[143,78],[31,11],[-1,39],[47,28],[-25,38],[-65,14],[23,82],[102,63],[51,14],[36,-2],[-3,-26],[24,8],[14,-23],[69,15],[50,-9],[10,31],[29,-24],[58,-27],[63,-16],[88,-5],[6,32],[33,1],[8,-39],[25,-18],[30,6],[25,-14],[38,10],[-47,42],[27,24],[-26,58],[46,0],[-4,-37],[38,-47]],[[4680,4640],[-165,-67],[-17,-11],[-47,-68],[-7,-66],[-23,-20],[-47,-16]],[[4374,4392],[-313,167]],[[3618,4835],[-114,90]],[[7460,3781],[67,9],[30,-49],[75,25],[37,-51],[32,-61],[46,29],[21,-11],[0,-42],[18,-53],[55,-12],[62,15],[0,-38],[-37,-57],[-95,10],[-31,-55],[24,-73],[-29,-29],[-59,-9],[-66,-31],[-34,-36],[-73,-22],[-104,-13],[-62,-42],[-63,-80],[-51,4],[-49,-24],[-52,16],[-75,-15],[-257,67],[-46,-5],[-43,61],[-10,64],[-17,28],[-36,26]],[[6638,3327],[0,3]],[[6600,3378],[104,126],[27,18],[62,19],[-8,19]],[[6785,3560],[33,5],[36,-14],[46,53],[33,19],[-13,25],[-67,7],[35,65],[-14,45],[-45,64],[-42,30],[-21,30]],[[6766,3889],[-101,166],[-55,61]],[[6811,4182],[85,25],[46,2],[96,-166]],[[8269,2347],[-19,3],[-40,46],[-42,30],[1,63],[21,42],[31,22],[153,57],[69,-8],[47,-63],[4,-24],[-26,-33],[-109,-65],[-90,-70]],[[3783,3368],[10,-45],[-26,-19],[-32,23],[-38,-48],[-77,-23],[-20,-99],[-33,-84],[-1,-32],[-81,-3],[-253,-31],[-107,14],[-53,87],[-48,267],[-124,-18],[-60,8],[-97,57],[8,105]],[[2751,3527],[125,-40],[92,4],[50,-6],[114,-33],[24,6],[17,42],[-56,58],[-27,38],[-25,69],[22,15],[183,-38],[119,-19],[59,-19],[54,-54],[36,-17],[84,-5],[79,-40],[17,-58],[-22,-23],[0,-24],[87,-15]],[[5799,7060],[21,36],[72,82]],[[5892,7178],[35,-19],[-24,-29],[10,-40],[-5,-50],[40,-27],[1,36],[26,62],[41,20],[52,1],[16,17],[-15,30],[50,31],[26,-28],[33,-2],[0,-28],[-74,-51],[-32,5],[2,22],[-28,-12],[-8,-35],[-30,11],[39,-38]],[[5163,7256],[-78,-57],[-42,-20],[7,-72]],[[5050,7107],[-62,-15],[-28,-39]],[[4960,7053],[-53,-3],[-79,9]],[[4910,7362],[21,49],[-5,74]],[[4926,7485],[200,55],[26,1],[23,-21],[4,22],[73,-4],[-12,58],[73,22],[2,-28],[47,6],[23,35],[38,10],[61,-132],[3,-35],[-13,-38],[-35,-21],[-73,-15]],[[6785,3560],[-84,-2],[-53,22],[-18,60],[-45,45],[-30,18],[-9,22]],[[6546,3725],[30,21],[13,49],[60,13],[47,41],[-8,19],[78,21]],[[5713,4496],[21,-59],[-13,-39],[-31,-28],[9,-42],[19,-13],[101,-27],[116,-4],[138,-33],[27,-25],[17,-89],[-43,-40]],[[5434,3826],[-381,203]],[[5053,4029],[-310,168],[-82,46]],[[4661,4243],[38,16],[19,75],[24,10],[96,-17],[68,24],[103,-4],[82,67],[131,-11],[54,34],[42,15]],[[5318,4452],[61,30],[79,11],[40,-19],[55,-6],[91,11],[69,17]],[[1616,4188],[16,-206],[-2,-31],[36,-20],[6,-32],[144,-36]],[[1816,3863],[-14,-44],[5,-65],[63,-150],[-109,-23]],[[1761,3581],[-29,61],[-144,-36],[-53,119],[-201,-55],[-175,-4],[-196,-89],[-255,-91],[-56,-1],[-81,-44],[-36,-3],[-80,-41],[-56,-12],[-112,-52],[-53,-17],[-73,1],[-74,25],[-48,-8],[-22,7],[-17,50],[2,79],[66,71],[77,37],[41,63],[-85,168],[26,5],[55,-35],[79,15],[39,43],[51,26],[45,14],[97,7],[100,36],[59,79],[25,18],[140,70],[45,29],[169,82],[45,33],[62,31],[66,-4],[33,8],[13,34],[53,74],[17,41]],[[1320,4415],[37,32],[35,14],[61,-2],[30,-37],[25,-123],[-3,-36],[44,-49],[67,-26]],[[6172,1870],[126,-73],[33,-27],[77,-42],[92,-97],[88,-73],[87,-33],[41,-37],[41,-51],[-10,-23],[24,-67],[-14,-29],[-1,-37],[49,-52],[-10,-22],[22,-4],[30,-33],[43,-28],[24,-47],[-6,-21],[26,-31],[42,-80],[18,-21],[7,-56],[-18,-40],[52,-22],[102,-90],[71,-125],[55,-67],[2,-47],[-38,-91],[58,-161],[-7,-40],[-34,-32],[28,-72],[5,-40],[-39,-59],[-68,20],[-5,38],[-81,45],[-69,-26],[-101,49],[-74,55],[-41,9],[-71,2],[-81,48],[-45,14],[-55,-2],[-30,9],[-52,64],[-65,-33],[-148,59],[-43,27],[20,98],[-71,19],[-47,28],[-38,65],[-71,24],[-61,-5],[-52,26],[11,17],[98,-6],[13,33],[29,0],[-24,109],[-20,5],[-22,39],[83,7],[210,57],[41,6],[-4,74],[110,55],[-60,106],[-92,-20],[-67,-3],[-16,-70],[-67,2],[-41,-14],[-62,131],[-109,-38],[82,-112],[22,-40],[-63,-24],[-119,18],[-46,-74],[-49,-53],[-66,8],[34,42],[15,39],[-28,35],[87,48],[21,-3],[-6,28],[-66,1],[2,63],[-18,25],[18,41],[-65,-10],[-35,-24],[-20,-34],[-54,8],[7,27],[-61,38],[-4,46],[54,21],[-44,34],[-9,28],[45,10],[-23,39],[15,41],[95,7],[39,19],[-2,75],[21,10],[-4,67],[-54,31],[-29,-22],[-10,49],[54,41],[21,-35],[36,4],[24,-17],[66,32],[14,53],[67,29],[64,3],[59,-19],[82,-45],[77,-21],[8,25],[-9,50],[12,31],[15,114]],[[5842,5790],[77,67],[-71,46]],[[5848,5903],[84,61]],[[5932,5964],[46,-27],[-1,-23],[121,-76],[32,-35],[8,22],[-26,79],[18,23],[264,-126]],[[3380,6298],[-3,-64],[-12,-49],[-12,-108],[-8,0],[-9,-120],[-9,-206]],[[3224,5721],[-14,11],[-141,-26],[-120,-32],[-38,-1]],[[2911,5673],[-55,41],[2,24],[26,21],[13,36],[-14,22],[44,65],[38,19],[82,95],[-4,38],[9,39],[39,34],[-3,41],[18,32],[6,47],[23,33],[79,75],[10,31],[112,86]],[[4905,6591],[4,32],[-20,20]],[[4889,6643],[4,31],[-20,92],[59,108],[-47,39],[63,35],[22,21],[-14,19],[4,65]],[[5765,7372],[32,-5],[-23,-27],[41,-29],[-9,-33],[52,-44],[34,-5],[0,-51]],[[6132,6569],[27,-68],[67,31],[34,-95],[22,-5],[8,-36],[38,-3],[47,21],[2,33],[35,-6],[-17,-27],[-6,-48],[8,-39],[-61,1],[-41,-16],[-54,3],[4,27],[-40,52],[-8,61],[-12,17],[-25,-34],[-23,1],[-2,-38],[-51,23],[39,18],[-37,47],[-49,-4],[15,-17],[-47,-55],[-72,11],[-37,20]],[[5896,6444],[44,39],[-51,14],[-62,-4],[-53,8]],[[6412,4200],[-91,-31],[211,-426],[14,-18]],[[4521,6524],[19,-6],[45,-46],[28,-2]],[[4613,6470],[1,-62]],[[4614,6408],[-112,-3],[-156,-38],[-40,-4]],[[4306,6363],[-69,39],[-35,9],[-34,-17],[-23,-85],[-23,-30],[-53,3],[-63,-23],[-78,-15],[-34,3],[-17,18],[-50,147]],[[7190,4415],[-4,-33],[-103,11],[-126,8],[-74,-22],[-5,-37],[-52,-26],[-96,84],[-15,-1]],[[6282,4774],[48,41],[80,-4],[8,-33],[41,-35],[30,-47],[5,-39],[64,36]],[[5318,4452],[-30,42],[-125,-37],[-54,-21],[-8,12]],[[3327,5751],[18,-1],[3,-54],[15,1],[10,58],[66,86],[49,29],[29,4]],[[4661,4243],[-55,-19],[-60,4],[-82,70],[-30,0],[-16,-28],[-47,3],[-81,-26],[-49,-8],[-118,-3],[-27,-8],[-103,-54],[-43,-58],[-53,-38],[-96,-15],[-93,5],[-107,-40],[-9,-17],[-59,-6],[-97,-27],[-89,4],[-126,-14],[-62,-47],[-22,-8]],[[3137,3913],[-11,205],[85,4],[70,12],[-19,149]],[[4374,4392],[287,-149]],[[3615,7064],[-58,87],[-27,32],[-73,106],[70,30],[1,48],[73,-18],[20,-18],[63,-135],[53,-81]],[[2521,3807],[18,-45],[18,-7],[46,-161],[56,4],[86,-17],[6,-54]],[[2751,3527],[-90,37],[-41,9],[-36,-20],[-46,-64],[-45,-17],[-79,-8],[-44,-23],[-45,-6],[-90,-27],[-60,-12],[-51,15],[-51,28],[-33,7],[-86,41],[-40,-11],[-49,-48],[-34,-7],[-70,160]],[[1816,3863],[182,-46],[153,-23],[77,-1],[293,14]],[[4597,7417],[-19,-44],[-17,1],[3,-48]],[[4768,7067],[-65,4],[-96,-10],[-45,4],[-45,30],[-36,10]],[[4481,7105],[-10,21],[-58,14]],[[4588,7453],[9,-36]],[[4889,6643],[-75,-54],[6,-34],[-20,9],[-54,-58],[-16,-42],[-39,-60],[-77,4]],[[4613,6470],[-1,66],[-64,131],[-18,52],[-3,41],[41,103],[7,64],[-12,26],[-69,67],[-13,85]],[[3137,3913],[-54,-7],[-46,11]],[[3037,3917],[-49,7],[-29,342]],[[4597,7417],[39,16],[16,35],[188,-14],[86,31]],[[5848,5903],[-4,78],[-123,-2]],[[5721,5979],[-1,38],[-113,-53],[-69,-15],[-28,27]],[[5510,5976],[-2,12],[-58,60]],[[5450,6048],[28,11],[92,11],[67,66],[21,0],[30,-32],[100,6],[24,-50],[34,10],[37,-19],[59,-77],[-10,-10]],[[8406,4300],[14,-7],[123,-6],[47,-28],[70,-66],[44,-16],[-123,-91],[105,27],[38,-19],[31,-47],[-2,-28],[-44,-13],[-7,-22],[-26,4],[6,28],[44,32],[-29,42],[-26,0],[-101,-45],[-42,-39],[-10,46],[-19,29],[-66,26],[-20,17],[-7,40],[-72,33],[-30,43],[-86,22],[43,55],[45,-28],[19,23],[29,0],[-1,20],[59,-18],[-6,-14]],[[5199,6491],[0,-14],[97,-29],[43,1],[73,-39],[41,-11],[63,-2],[110,21],[81,6],[30,-5],[74,21],[55,-22]],[[5866,6418],[-16,-14]],[[5793,6368],[-8,18],[-150,-1],[-130,-23],[-67,1],[-114,56],[-63,-1],[-318,-64],[-217,-39],[-59,1],[-43,22],[-10,70]],[[3037,3917],[-8,-25],[-32,-31],[52,-12],[8,-14],[-171,-12],[-365,-16]],[[1616,4188],[0,0]],[[2366,4405],[57,17],[75,10],[39,12],[112,14],[67,16],[107,38],[35,26],[54,57],[34,25],[71,16],[74,53],[23,37],[-5,22]],[[6506,4775],[15,-46]],[[5896,6444],[-30,-26]],[[8062,2197],[4,-7],[68,30],[109,35],[44,-57],[-63,-26],[49,-68],[44,12],[49,-75],[50,-172],[66,47],[148,-42],[-18,-80],[-111,20],[-42,0],[-4,17],[-58,17],[30,-113],[-22,-7],[-15,24],[-45,-19],[-40,50],[-58,20],[-50,32],[-47,6],[-51,-24],[-12,-16],[87,-31],[-41,-37],[143,-52],[26,-27],[54,2],[76,-35],[74,-21],[77,-38],[59,-47],[-3,-51],[-35,-15],[-49,-3],[-43,-16],[-85,-7],[-60,-33],[-35,1],[-77,-26],[-74,-3],[-62,-28],[-34,32],[-144,85],[-110,59],[-22,19],[-56,70],[-54,48],[-96,45],[-46,27],[-104,77],[22,16],[53,4],[50,-8],[-18,23],[51,32],[68,13],[26,25],[37,15],[8,52],[35,32],[76,-18],[120,-70],[28,-6],[-23,66],[-33,53],[-24,17],[-12,38],[-32,30],[-69,35],[-48,32],[-9,17],[73,33],[94,59],[78,41],[58,-130]],[[1320,4415],[-103,56],[-13,64],[5,34],[-14,73],[32,60],[16,55],[61,18],[44,3],[134,45],[78,33],[58,34],[43,33],[57,31],[83,59],[131,71],[45,3],[82,23],[108,50],[18,35],[85,27],[21,54],[77,26],[38,31],[61,25],[26,-1],[43,43],[38,23],[20,56],[69,56],[39,8],[50,32],[-11,54],[91,-7],[84,43],[-5,8]],[[4701,3611],[-13,-27]],[[4688,3584],[-124,-7],[-117,7],[-77,17]],[[4370,3601],[8,12],[-56,54],[-28,16],[-93,11],[-96,-4],[6,51],[-51,0],[-2,24],[-42,21],[15,35],[232,-2],[107,27],[66,5]],[[4436,3851],[192,0]],[[4306,6363],[20,-25],[-12,-25]],[[6638,3327],[-19,-71],[-46,-15],[-55,7],[-110,58],[-29,-27],[-24,-4],[-38,27],[-177,62],[-61,42],[-109,-15],[15,-41],[86,32],[20,-23],[-40,-46],[-2,-32],[-32,-4],[-77,-60],[-72,-46],[-16,10],[43,23],[7,17],[-80,18],[-126,-1],[-41,-18],[-87,-4],[-91,-10],[-117,-29],[-33,88],[5,19],[146,13],[136,-9],[-5,-52],[21,20],[9,42],[-59,69],[-72,17],[-103,35],[-78,10],[-41,-27],[-59,-1],[-39,23],[-63,49],[-33,14],[-35,-14],[-91,28],[-49,8],[-47,-5],[-60,37],[-57,15],[-65,28]],[[4436,3851],[79,30],[236,76],[16,80],[173,0],[95,-13],[18,5]],[[4370,3601],[-107,67],[-148,0],[-25,-25],[44,-40],[27,-42],[-3,-45],[-65,9],[-59,-16],[-80,1],[-41,-21],[-14,-98],[-23,5],[-22,-17],[-71,-11]],[[5510,5976],[-149,-79],[-65,58],[2,33],[-29,60],[-45,78],[83,-41],[75,-74],[68,37]],[[5504,5645],[23,48],[65,-1],[14,32],[5,46],[-94,1],[-2,51],[76,0],[66,20],[-47,46],[-8,61],[47,0],[3,17],[69,0],[0,13]]]}
