{"type":"Topology","bbox":[-72.94936144074427,7.346486721026241,-72.9150214081127,7.369846921056947],"transform":{"scale":[0.000003434346697827375,0.000002336253628433448],"translate":[-72.94936144074427,7.346486721026241]},"objects":{"municipios":{"type":"GeometryCollection","geometries":[{"type":"Polygon","arcs":[[0]],"properties":{"codigo":"68132200101002000101","sector":"681322001010020001","pcode":"CO68132","area_m2":35464}},{"type":"Polygon","arcs":[[1,2]],"properties":{"codigo":"68132100000000000101","sector":"681321000000000001","pcode":"CO68132","area_m2":48490}},{"type":"Polygon","arcs":[[-2,3]],"properties":{"codigo":"68132100000000000102","sector":"681321000000000001","pcode":"CO68132","area_m2":94178}}]}},"arcs":[[[9855,9999],[43,-441],[101,-61],[-175,-192],[-94,-51],[-121,-194],[-343,-235],[34,135],[-64,197],[122,64],[14,128],[127,15],[66,182],[-85,148],[66,83],[111,-25],[57,209],[141,38]],[[654,160],[27,123],[687,486]],[[1368,769],[116,95],[96,207],[118,-158],[44,-151],[44,10],[-82,-297],[-51,45],[-91,-315],[-221,-8],[8,-105],[-239,26],[-180,77],[-50,-117],[-60,138],[-166,-56]],[[654,160],[-65,-115],[-96,79],[-129,-124],[-225,274],[45,127],[-26,77],[31,190],[-91,22],[-22,210],[123,29],[-31,112],[-148,89],[-20,116],[194,101],[-18,60],[112,121],[93,-200],[10,-181],[163,-171],[212,-116],[106,37],[-60,47],[45,133],[87,-37],[19,101],[111,8],[0,103],[111,-8],[-6,-195],[130,-118],[59,-162]]]}
