{"type":"Topology","bbox":[-73.57314246634962,6.285110938482925,-73.46857220202583,6.304891147132686],"transform":{"scale":[0.000010458072239603695,0.0000019782186868448224],"translate":[-73.57314246634962,6.285110938482925]},"objects":{"municipios":{"type":"GeometryCollection","geometries":[{"type":"Polygon","arcs":[[0,1,2,3,4]],"properties":{"codigo":"68211100000000000101","sector":"682111000000000001","pcode":"CO68211","area_m2":137547}},{"type":"Polygon","arcs":[[5,6,-3]],"properties":{"codigo":"68211100000000000102","sector":"682111000000000001","pcode":"CO68211","area_m2":130161}},{"type":"MultiPolygon","arcs":[[[7]],[[8]]],"properties":{"codigo":"68211200204001000101","sector":"682112002040010001","pcode":"CO68211","area_m2":9822}},{"type":"Polygon","arcs":[[9,10,11,-6,-2]],"properties":{"codigo":"68211100000000000103","sector":"682111000000000001","pcode":"CO68211","area_m2":159670}},{"type":"Polygon","arcs":[[12,-5,13]],"properties":{"codigo":"68211100000000000201","sector":"682111000000000002","pcode":"CO68211","area_m2":234205}},{"type":"Polygon","arcs":[[14,-10,-1,-13,15]],"properties":{"codigo":"68211100000000000202","sector":"682111000000000002","pcode":"CO68211","area_m2":106420}},{"type":"Polygon","arcs":[[16,-11,-15]],"properties":{"codigo":"68211100000000000203","sector":"682111000000000002","pcode":"CO68211","area_m2":193684}}]}},"arcs":[[[9482,2991],[-15,-277],[-9,-481]],[[9458,2233],[-31,-12]],[[9427,2221],[-43,64],[-117,50],[-70,59],[-28,-3]],[[9169,2391],[-61,-43],[-45,36],[-37,-61],[-10,-57],[-28,-15],[-48,25],[36,947],[6,219],[15,-10]],[[8997,3432],[49,-37],[67,25],[54,67],[81,25],[1,85],[61,-100],[86,-325],[86,-181]],[[9427,2221],[-5,-91],[-54,-459],[-11,-306],[0,-145],[17,-502],[28,-331],[7,-272]],[[9409,115],[-29,-115],[-51,162],[-36,45],[5,180],[22,105],[7,184],[-85,-17],[-36,54],[-16,93],[-71,-7],[18,209],[-33,-80],[-108,382],[51,188],[44,110],[15,216],[23,181],[40,386]],[[35,9999],[50,-43],[-7,-107],[8,-96],[32,-43],[-5,-88],[-18,29],[-8,-91],[18,-60],[-12,-74],[-26,131],[-51,80],[1,-168],[-17,15],[16,441],[19,74]],[[138,9312],[-4,218],[15,31],[-2,-247],[-9,-2]],[[9458,2233],[92,-122]],[[9550,2111],[39,-71],[3,-210],[47,-67],[2,-66],[106,2],[25,-95],[18,-441],[30,-19],[7,-96],[47,-294]],[[9874,754],[-45,-179],[-10,-84],[-69,-20],[-18,-26],[-63,8],[-44,226],[-23,193],[-42,13],[-9,-377],[-20,45],[-56,-22],[-7,-313],[-46,-135],[-13,32]],[[9556,5339],[-23,-109],[-34,-271],[-22,-126],[-18,-321],[-9,-285],[-5,-359],[7,-429],[39,-270],[-9,-178]],[[8997,3432],[18,509],[-6,39],[9,604],[63,-23],[-25,366],[-32,95],[69,280],[56,1],[40,208],[-17,127],[56,292],[100,-480],[65,-216],[28,-158],[9,127],[48,225],[67,246],[11,-183],[0,-152]],[[9723,3979],[-24,-102],[-47,-259],[-3,-96],[-28,-204],[-41,-222],[-29,-395],[-9,-295],[13,-196],[-5,-99]],[[9556,5339],[0,-331],[8,-293],[55,-133],[-15,-266],[25,-82],[17,125],[47,-212],[37,-87],[-7,-81]],[[9723,3979],[17,-32],[-2,-235],[-55,-115],[43,-242],[-12,-21],[28,-161],[42,-150],[7,-130],[80,346],[43,129],[28,-317],[-3,-559],[14,-86],[30,-64],[-5,-254],[21,-125],[-13,-179],[8,-83],[-10,-292],[-7,-42],[-45,-1],[4,-72],[-28,-326],[0,-102],[53,-239],[-31,-56],[-27,122],[-29,61]]]}
