{"type":"Topology","bbox":[-74.50100029678094,6.145320379887036,-73.87585902761367,6.565497634022519],"transform":{"scale":[0.00006252037895462273,0.00004202192760630885],"translate":[-74.50100029678094,6.145320379887036]},"objects":{"municipios":{"type":"GeometryCollection","geometries":[{"type":"Polygon","arcs":[[0,1,2,3,4,5]],"properties":{"codigo":"68190100000000000104","sector":"681901000000000001","pcode":"CO68190","area_m2":90237}},{"type":"Polygon","arcs":[[6,7,8,-2,9]],"properties":{"codigo":"68190100000000000105","sector":"681901000000000001","pcode":"CO68190","area_m2":148224}},{"type":"Polygon","arcs":[[10,11]],"properties":{"codigo":"68190100000000000109","sector":"681901000000000001","pcode":"CO68190","area_m2":118834}},{"type":"Polygon","arcs":[[12]],"properties":{"codigo":"68190202205004000101","sector":"681902022050040001","pcode":"CO68190","area_m2":55035}},{"type":"Polygon","arcs":[[13]],"properties":{"codigo":"68190200701006000101","sector":"681902007010060001","pcode":"CO68190","area_m2":16162}},{"type":"Polygon","arcs":[[14]],"properties":{"codigo":"68190202301012000101","sector":"681902023010120001","pcode":"CO68190","area_m2":20780}},{"type":"Polygon","arcs":[[15]],"properties":{"codigo":"68190202504014000101","sector":"681902025040140001","pcode":"CO68190","area_m2":47379}},{"type":"Polygon","arcs":[[16]],"properties":{"codigo":"68190201604018000101","sector":"681902016040180001","pcode":"CO68190","area_m2":12628}},{"type":"MultiPolygon","arcs":[[[17]],[[18]]],"properties":{"codigo":"68190201103021000101","sector":"681902011030210001","pcode":"CO68190","area_m2":100324}},{"type":"Polygon","arcs":[[19]],"properties":{"codigo":"68190202001022000101","sector":"681902020010220001","pcode":"CO68190","area_m2":98705}},{"type":"Polygon","arcs":[[20]],"properties":{"codigo":"68190201804023000101","sector":"681902018040230001","pcode":"CO68190","area_m2":141809}},{"type":"Polygon","arcs":[[21]],"properties":{"codigo":"68190202203024000101","sector":"681902022030240001","pcode":"CO68190","area_m2":52394}},{"type":"Polygon","arcs":[[22]],"properties":{"codigo":"68190202102032000101","sector":"681902021020320001","pcode":"CO68190","area_m2":17158}},{"type":"MultiPolygon","arcs":[[[23]],[[24]],[[25]]],"properties":{"codigo":"68190202001030000101","sector":"681902020010300001","pcode":"CO68190","area_m2":12907}},{"type":"Polygon","arcs":[[26,27,-4]],"properties":{"codigo":"68190100000000000101","sector":"681901000000000001","pcode":"CO68190","area_m2":115800}},{"type":"Polygon","arcs":[[28,29,-5,-28,30]],"properties":{"codigo":"68190100000000000102","sector":"681901000000000001","pcode":"CO68190","area_m2":206399}},{"type":"Polygon","arcs":[[31,32,-6,-30,33]],"properties":{"codigo":"68190100000000000103","sector":"681901000000000001","pcode":"CO68190","area_m2":104123}},{"type":"Polygon","arcs":[[34,-7,35]],"properties":{"codigo":"68190100000000000106","sector":"681901000000000001","pcode":"CO68190","area_m2":167773}},{"type":"Polygon","arcs":[[-36,-10,-1,-33,36]],"properties":{"codigo":"68190100000000000107","sector":"681901000000000001","pcode":"CO68190","area_m2":218232}},{"type":"Polygon","arcs":[[-31,-27,-3,-9,37,-11,38,39,40,41,42,43,44,45]],"properties":{"codigo":"68190100000000000108","sector":"681901000000000001","pcode":"CO68190","area_m2":1686755}},{"type":"Polygon","arcs":[[-34,-29,-46,46]],"properties":{"codigo":"68190100000000000110","sector":"681901000000000001","pcode":"CO68190","area_m2":555010}},{"type":"MultiPolygon","arcs":[[[47,-44]],[[48,-40]],[[49,-42]]],"properties":{"codigo":"68190100000000000111","sector":"681901000000000001","pcode":"CO68190","area_m2":84278}},{"type":"Polygon","arcs":[[50]],"properties":{"codigo":"68190201203002000101","sector":"681902012030020001","pcode":"CO68190","area_m2":182835}},{"type":"Polygon","arcs":[[51]],"properties":{"codigo":"68190201604003000101","sector":"681902016040030001","pcode":"CO68190","area_m2":169510}},{"type":"Polygon","arcs":[[52]],"properties":{"codigo":"68190202701005000101","sector":"681902027010050001","pcode":"CO68190","area_m2":17394}},{"type":"Polygon","arcs":[[53]],"properties":{"codigo":"68190200405009000101","sector":"681902004050090001","pcode":"CO68190","area_m2":11797}},{"type":"Polygon","arcs":[[54]],"properties":{"codigo":"68190200504010000101","sector":"681902005040100001","pcode":"CO68190","area_m2":43934}},{"type":"Polygon","arcs":[[55]],"properties":{"codigo":"68190201802019000101","sector":"681902018020190001","pcode":"CO68190","area_m2":22799}},{"type":"Polygon","arcs":[[56]],"properties":{"codigo":"68190202701025000101","sector":"681902027010250001","pcode":"CO68190","area_m2":30730}},{"type":"Polygon","arcs":[[57]],"properties":{"codigo":"68190200603028000101","sector":"681902006030280001","pcode":"CO68190","area_m2":38387}}]}},"arcs":[[[8830,4021],[-1,-1]],[[8829,4020],[-54,-62]],[[8775,3958],[-15,22],[12,14]],[[8772,3994],[21,23],[-9,16],[16,19]],[[8800,4052],[8,9]],[[8808,4061],[22,-40]],[[8854,3972],[-40,-45],[4,-7],[-14,-19],[-17,28],[-2,-2]],[[8785,3927],[-9,1],[4,8],[-9,15]],[[8771,3951],[4,7]],[[8829,4020],[25,-45],[0,-3]],[[8721,4000],[28,-53],[-4,-5],[3,-8]],[[8748,3934],[-40,-43],[-12,1],[-2,8],[4,7],[-6,16],[6,8],[-4,14],[6,13],[2,14],[12,14],[-5,8],[4,13],[8,-7]],[[18,3030],[-8,-3],[-10,21],[5,34],[-2,16],[2,11],[10,-8],[21,-37],[0,-8],[-11,-13],[-2,4],[-5,-17]],[[6510,3490],[7,-13],[19,2],[-5,-13],[-15,1],[-9,5],[-9,-2],[9,9],[-1,6],[-7,-4],[2,17],[4,3],[5,-11]],[[3221,2814],[7,9],[9,-16],[7,8],[3,-8],[-5,-6],[-6,-21],[-15,-14],[0,11],[7,9],[1,10],[-8,18]],[[3787,2271],[2,-1],[-9,-49],[-13,-11],[-3,-12],[-7,2],[-4,14],[-17,2],[0,7],[12,1],[2,11],[9,0],[2,19],[14,-7],[7,24],[5,0]],[[1603,9179],[6,-1],[2,-23],[-13,-6],[-6,22],[11,8]],[[7129,9677],[-48,-61],[-4,8],[10,13],[-21,36],[39,50],[3,-9],[21,-37]],[[7115,9748],[-6,3],[6,8],[0,-11]],[[2196,8211],[-18,14],[-7,-6],[-23,-6],[-41,-4],[-2,6],[7,13],[-4,11],[9,5],[12,-15],[30,9],[4,5],[20,-12],[14,-17],[18,2],[15,9],[12,13],[6,14],[-5,-1],[-1,12],[4,16],[9,9],[4,-5],[10,3],[6,-9],[-2,-6],[-6,6],[-14,-6],[-4,-13],[7,-23],[-16,-19],[-18,-16],[-3,6],[-5,-6],[-4,9],[-14,2]],[[4222,7824],[64,-4],[42,-3],[-1,-21],[3,-8],[-3,-13],[-13,0],[-89,9],[-3,13],[0,27]],[[1063,4446],[-5,-7],[-1,-10],[7,-1],[-1,-8],[8,-1],[-3,-25],[-7,2],[-5,-24],[-7,-19],[-10,8],[-5,-11],[-4,4],[12,33],[3,13],[4,-2],[4,30],[-4,1],[0,14],[5,31],[3,0],[-2,-21],[8,-7]],[[3199,5257],[10,5],[1,-12],[-5,-7],[-1,-13],[-12,-4],[2,21],[-10,12],[0,11],[15,-13]],[[3789,6252],[-4,-11],[-17,-2],[-11,-7],[-3,4],[8,8],[27,8]],[[3792,6286],[3,-12],[-6,-3],[3,15]],[[3802,6296],[-5,-1],[12,15],[-7,-14]],[[8772,3994],[-9,15],[-6,0],[7,10],[-5,10],[-7,2],[-15,31],[12,6],[10,14],[7,20],[-5,14],[0,16]],[[8761,4132],[16,-36],[23,-44]],[[8798,4261],[1,-5],[15,0],[-7,-110]],[[8807,4146],[-2,-45],[-4,-19],[7,-21]],[[8761,4132],[8,16],[8,8],[-2,21],[1,23],[-1,18],[1,25],[11,18],[11,0]],[[8826,4137],[0,-17],[4,-20],[6,-13],[21,-33]],[[8857,4054],[-27,-33]],[[8807,4146],[5,-14],[14,5]],[[8884,3920],[-1,-5],[-17,-8],[-14,-14],[7,13],[-7,9],[-14,-14],[-6,3],[-8,-8],[4,14],[-5,1],[-14,-27],[6,-20],[-19,-29],[-9,7],[3,10],[-11,50],[6,25]],[[8854,3972],[8,9],[16,-32],[-7,-21],[13,-8]],[[8857,4054],[28,-36],[33,-47],[12,-15],[8,-5],[3,-27],[-7,-5],[0,-7],[-9,-9],[1,-12],[-5,-4],[0,12],[-6,6],[4,8],[-3,15],[-15,6],[-7,-12],[-10,-2]],[[8771,3951],[-4,5],[-19,-22]],[[8721,4000],[5,6],[-3,11],[10,19],[-11,18],[-18,-18],[-8,-16],[-9,11],[-24,81],[-44,142],[44,32],[-11,37],[-19,-13],[-13,49]],[[8620,4359],[21,14]],[[8641,4373],[13,7]],[[8654,4380],[14,10]],[[8668,4390],[21,20]],[[8689,4410],[14,16],[52,30]],[[8755,4456],[15,-46]],[[8770,4410],[9,-36],[11,-16],[11,-30],[1,-43],[-1,-20],[-3,-4]],[[8770,4410],[54,37],[10,-22],[10,-29],[12,-29],[11,5],[21,-12],[9,-3],[-17,-49],[1,-21],[-4,-13],[-27,-42],[-14,-30],[-4,-21],[-6,-44]],[[8689,4410],[-7,23],[24,16],[43,27],[6,-20]],[[8620,4359],[-6,-3],[-6,20],[12,8],[-3,9],[14,9],[10,-29]],[[8654,4380],[-4,13],[14,10],[4,-13]],[[6407,8938],[3,-3],[-7,-11],[5,-4],[-3,-24],[2,-3],[-5,-14],[17,5],[0,-54],[-2,-33],[-15,-2],[-6,6],[-3,-8],[-8,4],[1,47],[-8,10],[-5,21],[6,19],[-15,0],[-9,-7],[-12,8],[67,65],[-3,-22]],[[1680,8047],[8,11],[5,-10],[-7,-8],[9,-16],[5,9],[10,6],[2,-8],[54,30],[13,11],[2,-8],[-21,-14],[-46,-24],[-3,-8],[-10,-6],[-13,-15],[-6,-16],[-14,-21],[19,-21],[0,-13],[-23,25],[2,3],[-21,23],[24,22],[3,11],[-46,40],[15,43],[10,-8],[25,-30],[4,-8]],[[2573,48],[4,-1],[7,-15],[6,0],[-1,-20],[-4,-12],[-4,2],[-13,43],[5,3]],[[9996,6215],[-4,-8],[-9,-5],[-3,6],[7,10],[2,24],[10,-7],[-3,-20]],[[8722,6465],[15,16],[12,-15],[-4,-6],[-7,10],[-10,-14],[-29,-49],[-8,11],[22,40],[-5,6],[-4,-6],[-7,10],[16,26],[-4,-13],[13,-16]],[[5188,9984],[-43,-12],[-12,2],[10,20],[2,-11],[40,16],[3,-15]],[[2698,1127],[-5,-4],[-1,-43],[-3,0],[-4,23],[0,27],[-12,14],[-25,9],[-4,21],[6,4],[12,-20],[24,-14],[12,-17]],[[9015,3678],[-5,-14],[-10,-17],[-2,23],[-4,-9],[-8,4],[-6,-20],[-6,0],[2,20],[3,0],[4,15],[11,13],[11,3],[9,12],[-2,-28],[3,-2]]]}
