{"type":"Topology","bbox":[-73.54739233073616,6.078356928229928,-73.49334089776482,6.128962871978286],"transform":{"scale":[0.0000054056838655200155,0.000005061100484884258],"translate":[-73.54739233073616,6.078356928229928]},"objects":{"municipios":{"type":"GeometryCollection","geometries":[{"type":"Polygon","arcs":[[0]],"properties":{"codigo":"68673100000000000101","sector":"686731000000000001","pcode":"CO68673","area_m2":96647}},{"type":"Polygon","arcs":[[1]],"properties":{"codigo":"68673200101003000101","sector":"686732001010030001","pcode":"CO68673","area_m2":31820}},{"type":"Polygon","arcs":[[2]],"properties":{"codigo":"68673200103004000101","sector":"686732001030040001","pcode":"CO68673","area_m2":46223}},{"type":"Polygon","arcs":[[3]],"properties":{"codigo":"68673200102005000101","sector":"686732001020050001","pcode":"CO68673","area_m2":45410}}]}},"arcs":[[[7310,9953],[52,-113],[-29,-179],[-29,-111],[-31,-69],[1,-65],[-83,-97],[27,-101],[-121,-22],[-83,-56],[-118,112],[-26,-24],[-51,72],[-93,-50],[-42,76],[42,33],[37,79],[161,91],[66,161],[149,293],[32,-33],[60,43],[55,-1],[24,-39]],[[9752,8239],[106,-128],[22,26],[34,-33],[48,62],[23,-20],[-79,-70],[93,-104],[-62,-26],[-23,-34],[-51,3],[-27,-54],[-89,94],[-46,-31],[-65,39],[46,89],[-131,93],[-49,-50],[-11,20],[103,97],[109,49],[155,119],[-122,-123],[16,-18]],[[2368,2367],[-8,-47],[-54,-45],[52,-111],[69,6],[19,32],[32,-42],[-109,-17],[13,-33],[-38,-18],[-18,-98],[33,-55],[-78,-55],[-5,33],[-65,-1],[-43,-42],[64,-27],[-30,-82],[29,-37],[27,-89],[-62,-7],[-38,-53],[12,-19],[-91,-63],[18,-23],[-60,-65],[-28,95],[-71,-62],[-41,-11],[-101,-98],[-55,-120],[26,-5],[-10,-59],[61,5],[-36,-50],[-42,31],[-48,-6],[-42,-60],[-34,24],[117,159],[-8,63],[42,45],[16,67],[111,43],[8,-29],[115,120],[-3,44],[66,-13],[4,-31],[53,41],[40,105],[-15,114],[-44,1],[-35,72],[-34,-17],[-75,51],[5,35],[47,12],[46,-39],[63,-15],[129,29],[-3,48],[-44,78],[42,44],[6,47],[-47,70],[4,57],[-54,61],[51,33],[32,-22],[114,33],[3,-32]],[[105,785],[42,-71],[-13,-10],[87,-115],[20,19],[53,-39],[73,-28],[-55,-61],[111,-84],[146,-45],[101,-145],[-18,-42],[35,-27],[-82,-137],[-34,10],[-65,82],[-43,21],[-81,-7],[-20,131],[59,1],[38,77],[-47,52],[-125,82],[-57,-59],[-48,40],[-14,49],[-117,83],[-31,49],[23,22],[11,73],[-54,80],[61,28],[44,-29]]]}
