{"type":"Topology","bbox":[-72.87332714805353,7.306664417663333,-72.86858635273728,7.312722355339671],"transform":{"scale":[4.741269443196253e-7,6.058543530691624e-7],"translate":[-72.87332714805353,7.306664417663333]},"objects":{"municipios":{"type":"GeometryCollection","geometries":[{"type":"Polygon","arcs":[[0,1]],"properties":{"codigo":"68867100000000000102","sector":"688671000000000001","pcode":"CO68867","area_m2":100067}},{"type":"Polygon","arcs":[[-1,2]],"properties":{"codigo":"68867100000000000101","sector":"688671000000000001","pcode":"CO68867","area_m2":88452}}]}},"arcs":[[[8504,7210],[-145,-375],[-620,-411],[-552,-1119],[-430,16],[-637,-414],[-748,243],[-447,-959],[-257,-743],[-332,59],[-1582,612],[-582,514]],[[2172,4633],[863,606],[-240,314],[143,300],[-407,29],[66,-508],[-848,-13],[-763,151],[-903,306],[9,885],[-92,650],[1584,-130],[1334,17],[-373,278],[-68,354],[-594,127],[-69,1006],[428,-116],[826,252],[128,813],[706,3],[357,-443],[1105,-293],[468,-272],[994,-350],[14,-262],[-694,-173],[14,-144],[1312,-472],[1027,-10],[5,-328]],[[8504,7210],[598,-172],[875,-496],[-21,-197],[-774,-282],[-328,-608],[-52,-959],[-193,-583],[339,-970],[-210,-398],[-805,-706],[-918,-305],[-1698,127],[-483,244],[-614,873],[-731,-333],[-196,-270],[-82,-892],[-250,-31],[-125,-648],[-432,-249],[-258,-347],[-567,261],[-436,599],[346,1459],[400,784],[-865,249],[-202,482],[722,107],[43,390],[585,294]]]}
