{"type":"Topology","bbox":[-73.68585577656705,5.742660903995755,-73.65480183237247,5.888251758747678],"transform":{"scale":[0.000003105704989957203,0.000014560541529345313],"translate":[-73.68585577656705,5.742660903995755]},"objects":{"municipios":{"type":"GeometryCollection","geometries":[{"type":"Polygon","arcs":[[0,1,2,3]],"properties":{"codigo":"68572100000000000103","sector":"685721000000000001","pcode":"CO68572","area_m2":73061}},{"type":"Polygon","arcs":[[-4,4,5]],"properties":{"codigo":"68572100000000000202","sector":"685721000000000002","pcode":"CO68572","area_m2":82388}},{"type":"Polygon","arcs":[[6]],"properties":{"codigo":"68572200302004000101","sector":"685722003020040001","pcode":"CO68572","area_m2":37126}},{"type":"Polygon","arcs":[[-2,7,8,9]],"properties":{"codigo":"68572100000000000101","sector":"685721000000000001","pcode":"CO68572","area_m2":163952}},{"type":"Polygon","arcs":[[-3,-10,10,11]],"properties":{"codigo":"68572100000000000102","sector":"685721000000000001","pcode":"CO68572","area_m2":233268}},{"type":"Polygon","arcs":[[12]],"properties":{"codigo":"68572200303012000101","sector":"685722003030120001","pcode":"CO68572","area_m2":28991}},{"type":"Polygon","arcs":[[-5,-12,13,14]],"properties":{"codigo":"68572100000000000201","sector":"685721000000000002","pcode":"CO68572","area_m2":201612}},{"type":"Polygon","arcs":[[-8,-1,-6,-15,15]],"properties":{"codigo":"68572100000000000203","sector":"685721000000000002","pcode":"CO68572","area_m2":523185}},{"type":"Polygon","arcs":[[16]],"properties":{"codigo":"68572200201002000101","sector":"685722002010020001","pcode":"CO68572","area_m2":209458}},{"type":"Polygon","arcs":[[17]],"properties":{"codigo":"68572200301003000101","sector":"685722003010030001","pcode":"CO68572","area_m2":57360}}]}},"arcs":[[[2791,9174],[-275,-70]],[[2516,9104],[-126,-50],[-149,11],[-479,29]],[[1762,9094],[87,78],[66,32],[194,74]],[[2109,9278],[256,-35],[190,-31],[23,7],[213,-45]],[[2109,9278],[116,36],[270,70],[103,34]],[[2598,9418],[287,-48],[458,-81],[-498,-102],[-54,-13]],[[8243,4281],[81,7],[44,-37],[-52,-59],[166,-24],[60,22],[112,-20],[97,14],[39,-16],[41,0],[-158,-29],[31,-8],[-30,-21],[-77,13],[-94,-19],[67,-11],[-84,-27],[-106,24],[-49,-24],[-2,-37],[-35,-1],[11,23],[-59,13],[-71,-23],[-27,6],[103,33],[-65,41],[33,73],[-39,3],[82,38],[-60,35],[-90,38],[107,12],[24,-39]],[[2516,9104],[121,-11],[383,-40]],[[3020,9053],[-67,-49],[-128,-29],[-258,-13],[-2,-23],[-151,-3],[-115,-16],[85,-30],[-107,7],[-136,-16],[9,-14],[-82,4],[-80,-26],[-84,-5],[-23,15],[65,10],[-130,42],[-215,-6],[-155,1],[-130,20],[20,15],[-31,20],[46,12],[21,41],[-33,18],[39,34],[-93,27],[-89,11],[-202,-9],[11,-19],[72,-6],[-53,-6],[47,-15],[-26,-8],[-80,12],[-7,12],[-117,28],[-64,-1]],[[777,9088],[150,27],[207,5],[158,21],[144,-27],[326,-20]],[[777,9088],[-99,-28],[-217,-13],[-325,-8],[-134,46],[20,26],[79,20],[112,20],[372,54],[383,60],[-132,-2],[-89,11],[-26,17],[-62,9],[85,8],[97,17],[56,37],[99,50],[62,7],[91,35],[103,-14],[120,51],[8,11]],[[1380,9502],[24,0],[154,-67],[26,-17],[-6,-34],[112,-45],[-14,-5],[162,-23],[271,-33]],[[9283,103],[22,-20],[69,2],[64,-40],[6,-15],[-90,2],[-30,-19],[-35,8],[-138,-21],[-67,25],[-118,17],[-24,36],[-299,16],[-5,12],[98,23],[57,-23],[193,-13],[-40,23],[123,20],[82,3],[106,-6],[26,-30]],[[1380,9502],[-33,61],[198,22],[186,3],[83,-13],[209,-14],[47,-15],[127,-12],[173,-25],[122,2],[14,14],[-92,18],[79,9],[44,77],[84,1],[55,-31],[120,27],[59,-17],[135,51],[110,15],[42,13],[-41,29],[-107,17],[124,35],[96,-15],[48,22],[-45,8],[193,24],[-92,29],[23,18],[111,12],[-20,18],[-101,26],[183,27],[88,-19],[147,49],[59,9],[243,22],[44,-2],[-107,-28]],[[3988,9969],[-375,-120],[-171,-73],[-100,-48],[-64,-25],[-315,-80],[-250,-94],[-115,-111]],[[3988,9969],[106,-30],[82,4],[356,-102],[-404,-62],[-231,67],[-197,-32],[20,-8],[-132,-15],[-110,-46],[-84,3],[2,-48],[32,-38],[87,-49],[147,-22],[8,-31],[88,-7],[29,-23],[186,-55],[172,-29],[18,-10],[166,0],[55,-36],[125,3],[170,-3],[175,-9],[201,2],[327,22],[62,-37],[53,-14],[121,-20],[-136,-19],[-205,6],[-201,-29],[-441,-58],[-204,-14],[-100,-11],[-131,-42],[-61,-55],[-105,-29],[-130,-6],[-185,2],[-229,9],[-242,3],[-68,-5],[-137,-30],[-23,-13]],[[8666,8526],[87,-33],[57,-10],[110,17],[217,-9],[45,-20],[97,-14],[44,-36],[90,-17],[106,-8],[32,11],[107,-6],[278,-47],[63,-5],[-65,-10],[-38,-17],[-174,-142],[-128,73],[-465,-32],[-141,8],[-92,-2],[-251,3],[-90,22],[-252,85],[-158,13],[-193,22],[-123,28],[225,33],[163,-3],[144,9],[40,9],[-143,7],[-46,17],[21,17],[187,19],[118,3],[128,15]],[[8049,5883],[102,2],[-46,-46],[20,-32],[-172,-12],[-11,-9],[-105,-4],[-90,-14],[-127,-8],[-122,-26],[-275,29],[50,41],[-7,10],[-328,1],[19,34],[130,-2],[36,10],[102,5],[32,13],[145,3],[59,-8],[69,9],[55,-9],[-14,-13],[161,14],[11,-6],[152,-10],[96,37],[58,-9]]]}
