{"type":"Topology","bbox":[-73.78701983682475,5.872785462057637,-73.7806494648434,5.879582788362236],"transform":{"scale":[6.371009082255715e-7,6.798006105209581e-7],"translate":[-73.78701983682475,5.872785462057637]},"objects":{"municipios":{"type":"GeometryCollection","geometries":[{"type":"Polygon","arcs":[[0,1]],"properties":{"codigo":"68368100000000000101","sector":"683681000000000001","pcode":"CO68368","area_m2":80740}},{"type":"Polygon","arcs":[[2,-1]],"properties":{"codigo":"68368100000000000102","sector":"683681000000000001","pcode":"CO68368","area_m2":110897}}]}},"arcs":[[[9022,3224],[-1905,917],[-1423,1686],[107,1126],[-927,1285],[-998,649]],[[3876,8887],[757,774],[339,-682],[927,1020],[1344,-1013],[-550,-722],[-54,-741],[1063,-1005],[1241,192],[170,-421],[886,-160],[-491,-869],[283,-362],[-767,-500],[-2,-1174]],[[9022,3224],[119,-781],[-441,-729],[-1175,226],[174,242],[-762,826],[-1106,665],[-1223,-221],[-785,980],[-1142,-1339],[-432,620],[-375,-425],[-144,-1472],[-799,-673],[-48,-954],[-883,95],[650,1521],[513,149],[651,1232],[-328,211],[514,761],[-568,139],[1734,1778],[526,238],[607,1307],[-1059,769],[-1072,466],[661,445],[1047,-413]]]}
