{"type":"Topology","bbox":[-74.10180274658592,6.6149407310650865,-73.91455924895382,6.781972037843389],"transform":{"scale":[0.000018726222385448147,0.000016704801157946087],"translate":[-74.10180274658592,6.6149407310650865]},"objects":{"municipios":{"type":"GeometryCollection","geometries":[{"type":"Polygon","arcs":[[0]]},{"type":"Polygon","arcs":[[1]]},{"type":"Polygon","arcs":[[2,3,4]]},{"type":"Polygon","arcs":[[5,6,7]]},{"type":"Polygon","arcs":[[-4,8,-6,9]]},{"type":"Polygon","arcs":[[10,-7,-9,-3]]},{"type":"Polygon","arcs":[[11]]},{"type":"Polygon","arcs":[[12]]}]}},"arcs":[[[15,9913],[-15,22],[65,64],[108,-53],[-7,-16],[27,-19],[3,-34],[-25,-8],[-51,16],[-1,-35],[-55,12],[-26,20],[9,19],[-32,12]],[[8013,1877],[-15,12],[28,40],[-51,48],[23,30],[47,-35],[31,41],[11,-6],[63,88],[50,-37],[-113,-165],[-20,-58],[-46,26],[-8,16]],[[2327,1977],[-23,39],[70,59],[12,21]],[[2386,2096],[50,83],[108,-28],[6,19]],[[2550,2170],[37,-9],[23,40],[49,-41],[-21,-32],[105,-27],[38,-21],[-14,-30],[-53,31],[-34,-111],[-123,45],[-13,-22],[-77,64],[-44,-6],[-37,-24],[-59,-50]],[[2422,2272],[3,-4],[-63,-66],[-45,-55]],[[2317,2147],[-112,-111],[2,-60],[-34,1]],[[2173,1977],[-17,18],[-12,-12],[-31,15],[-32,71],[49,8],[5,-17],[22,17],[32,-47],[95,97],[-2,211],[93,-22],[47,-44]],[[2386,2096],[-40,24],[-29,27]],[[2422,2272],[217,227],[48,-12],[23,-19],[4,-27],[-12,-56],[4,-36],[-175,-45],[-12,-13],[-23,37],[-33,-35],[18,-38],[46,-71],[23,-14]],[[2327,1977],[8,-8],[-37,-55],[-29,-12],[-15,-28],[10,-37],[-51,6],[6,19],[-29,20],[-30,64],[13,31]],[[9722,537],[60,11],[15,-86],[28,-71],[-9,-26],[43,-18],[25,5],[3,-27],[35,0],[3,-21],[29,-11],[12,-106],[13,-71],[20,-23],[-74,-26],[-15,55],[-40,-34],[-18,3],[-50,-19],[31,-66],[-27,-6],[-31,41],[-4,24],[-58,33],[-16,-35],[-17,40],[-34,-24],[-19,10],[-15,50],[47,11],[-11,49],[48,18],[-10,39],[9,16],[-7,64],[-16,11],[4,43],[-8,50],[-17,-2],[-16,21],[-1,54],[47,14],[-7,50],[45,8],[3,-48]],[[3851,8504],[10,-28],[-13,-22],[-192,-66],[5,-15],[-50,-26],[-90,-33],[-50,-37],[-22,9],[12,21],[-32,-15],[-8,24],[-28,32],[71,51],[8,-9],[41,29],[-46,29],[59,36],[-10,-31],[22,7],[4,-16],[35,13],[21,-17],[12,-36],[80,31],[112,31],[30,12],[-3,20],[22,6]]]}