{"type":"Topology","bbox":[-73.7507972213183,5.976154516189237,-73.63799876960871,6.208243433450167],"transform":{"scale":[0.000011280973268284798,0.000023211212847377688],"translate":[-73.7507972213183,5.976154516189237]},"objects":{"municipios":{"type":"GeometryCollection","geometries":[{"type":"Polygon","arcs":[[0,1]],"properties":{"codigo":"68861100000000000106","sector":"688611000000000001","pcode":"CO68861","area_m2":96937}},{"type":"Polygon","arcs":[[2]],"properties":{"codigo":"68861200403017000101","sector":"688612004030170001","pcode":"CO68861","area_m2":268904}},{"type":"Polygon","arcs":[[3]],"properties":{"codigo":"68861200401022000101","sector":"688612004010220001","pcode":"CO68861","area_m2":210912}},{"type":"Polygon","arcs":[[4]],"properties":{"codigo":"68861200403026000101","sector":"688612004030260001","pcode":"CO68861","area_m2":56741}},{"type":"Polygon","arcs":[[5,6,7,8,9]],"properties":{"codigo":"68861100000000000105","sector":"688611000000000001","pcode":"CO68861","area_m2":295076}},{"type":"Polygon","arcs":[[10,11,-6]],"properties":{"codigo":"68861100000000000107","sector":"688611000000000001","pcode":"CO68861","area_m2":319775}},{"type":"Polygon","arcs":[[12]],"properties":{"codigo":"68861200302001000101","sector":"688612003020010001","pcode":"CO68861","area_m2":90688}},{"type":"Polygon","arcs":[[13,14,15,16,17,-1]],"properties":{"codigo":"68861100000000000101","sector":"688611000000000001","pcode":"CO68861","area_m2":539212}},{"type":"Polygon","arcs":[[-7,-12,18,-14,-2,-18,19,20]],"properties":{"codigo":"68861100000000000102","sector":"688611000000000001","pcode":"CO68861","area_m2":219745}},{"type":"Polygon","arcs":[[-8,-21,21,22]],"properties":{"codigo":"68861100000000000103","sector":"688611000000000001","pcode":"CO68861","area_m2":152143}},{"type":"Polygon","arcs":[[-9,-23,23]],"properties":{"codigo":"68861100000000000104","sector":"688611000000000001","pcode":"CO68861","area_m2":340791}},{"type":"Polygon","arcs":[[-16,24]],"properties":{"codigo":"68861100000000000108","sector":"688611000000000001","pcode":"CO68861","area_m2":507341}},{"type":"Polygon","arcs":[[25]],"properties":{"codigo":"68861200302002000101","sector":"688612003020020001","pcode":"CO68861","area_m2":23463}},{"type":"Polygon","arcs":[[26]],"properties":{"codigo":"68861200403024000101","sector":"688612004030240001","pcode":"CO68861","area_m2":185143}},{"type":"Polygon","arcs":[[27]],"properties":{"codigo":"68861200501025000101","sector":"688612005010250001","pcode":"CO68861","area_m2":94257}}]}},"arcs":[[[6802,1425],[25,-26],[-95,29],[-42,21],[-53,16],[18,20],[-71,-12],[-28,-23],[-1,23],[15,26],[-20,44]],[[6550,1543],[42,0],[77,12],[31,40],[85,-26],[-68,-36],[108,-27],[48,-24],[15,-27],[-86,-30]],[[7545,882],[78,-11],[69,-15],[50,1],[95,-7],[3,-22],[-39,-97],[-34,-37],[-7,-25],[40,-11],[71,-28],[-13,-36],[-24,-8],[-6,-21],[-85,12],[-197,42],[35,28],[-92,24],[31,59],[-34,86],[-25,20],[46,23],[20,24],[18,-1]],[[9242,2020],[18,-16],[56,-14],[-9,-11],[35,-8],[156,-21],[170,-11],[73,13],[88,6],[153,4],[17,-10],[-40,-23],[-68,-19],[-91,-9],[-16,4],[-146,-22],[-21,5],[-75,-22],[1,18],[-49,6],[-40,-21],[-105,14],[-56,-39],[-27,-4],[-60,17],[-57,25],[53,19],[-55,9],[16,25],[-12,43],[11,17],[-40,8],[31,13],[36,-13],[53,17]],[[8633,104],[60,-16],[72,9],[34,-19],[73,-30],[-43,-17],[29,-17],[-61,-14],[-54,30],[27,24],[-27,-5],[-138,34],[-7,-8],[-86,2],[4,24],[-59,-1],[-26,-8],[-41,9],[33,30],[105,-28],[62,29],[48,-4],[-5,-24]],[[7755,1439],[-148,22],[-6,29],[-21,15],[-86,34],[-46,48],[-44,22],[-148,40],[-77,15],[-54,-31],[-16,-24],[60,-18],[-7,-16],[-84,-62]],[[7078,1513],[-127,50]],[[6951,1563],[81,71]],[[7032,1634],[44,44],[18,37],[-60,43],[22,35],[38,15],[80,47],[48,47],[-26,59]],[[7196,1961],[39,54],[65,53],[35,-9],[-35,-34],[-9,-73],[-3,-65],[18,-51],[-82,-44],[-115,-23],[66,-13],[-27,-16],[-1,-49],[34,-4],[7,14],[49,-7],[69,-19],[60,-9],[8,-16],[62,-19],[4,-17],[114,-21],[-11,-12],[54,-23],[111,-26],[100,-18],[-1,-37],[-52,-38]],[[7755,1439],[54,-3],[8,-20],[53,-27],[-109,-28],[-13,24],[-73,-23],[-43,40],[-32,7],[-56,39],[-11,-31],[-25,-7],[-50,-37],[-81,10],[-56,12],[-128,16]],[[7193,1411],[45,21],[0,27],[85,20],[-85,16],[-95,3],[-65,15]],[[196,9895],[-29,-20],[46,-14],[4,-12],[94,3],[55,-23],[1,-19],[-53,17],[-182,-10],[-52,-30],[-33,-1],[-41,20],[-6,20],[29,8],[-20,58],[46,-2],[41,8],[62,58],[40,16],[24,27],[50,-8],[-21,-38],[-55,-30],[21,-6],[-21,-22]],[[6802,1425],[55,-13],[35,0]],[[6892,1412],[21,-40],[21,-6],[-16,-21],[-73,7],[-11,21],[-20,-10],[24,-41],[28,-22]],[[6866,1300],[-4,-15],[17,-38],[-24,-71],[13,-24],[46,-8],[-61,-34],[-64,-26],[-83,2],[-43,-10],[-48,1],[-23,-10],[-84,-12]],[[6508,1055],[-52,6],[-46,18],[-70,52],[92,83],[14,39],[-22,21],[8,16],[65,-17],[18,58],[-30,55],[-26,17],[21,4],[-5,26],[-24,13],[15,21],[-34,16],[28,4],[-2,30],[54,38]],[[6512,1555],[38,-12]],[[7193,1411],[-36,-16],[-83,41],[-100,13],[-89,-9],[7,-28]],[[6512,1555],[55,50],[12,29],[32,10]],[[6611,1644],[27,16],[175,-48],[138,-49]],[[6611,1644],[-61,18],[-48,8],[30,21],[-1,22],[-37,-2],[-83,30],[36,16],[20,37],[-8,22],[43,29],[34,-10],[21,-21]],[[6557,1814],[-35,-23],[18,-40],[128,-36],[214,-42],[11,7],[139,-46]],[[6557,1814],[77,-4],[14,-28],[28,14],[42,-27],[22,19],[-39,18],[45,49],[-12,8],[52,10],[18,-11],[116,24],[21,25],[142,-2],[-28,61],[21,10],[84,-38],[2,14],[34,5]],[[6866,1300],[59,-54],[28,-35],[84,-15],[73,0],[26,-16],[43,-8],[0,-49],[-14,-10],[33,-20],[16,-22],[44,-32],[-143,-18],[-29,2],[0,-30],[47,-21],[128,6],[15,-4],[-37,-40],[42,-8],[4,-12],[37,-5],[70,-36],[-48,-19],[-36,-1],[-32,29],[37,12],[-106,15],[-113,-1],[-33,15],[-86,11],[-6,13],[-24,-56],[-34,-31],[-101,-36],[43,31],[-77,9],[9,32],[-11,26],[-75,15],[-92,27],[-148,81],[49,10]],[[3070,8988],[-21,-6],[-52,-50],[-27,-52],[-14,34],[-20,10],[-94,7],[35,8],[5,13],[102,14],[43,25],[30,7],[13,-10]],[[7950,419],[40,-53],[-85,-23],[-52,39],[-52,-10],[16,-13],[-33,-6],[-63,1],[-11,-54],[36,-49],[30,14],[14,-12],[27,13],[-17,-39],[65,2],[47,35],[102,-32],[33,9],[48,-17],[-21,-40],[57,-17],[17,16],[94,-6],[22,30],[57,-15],[39,-42],[-98,8],[-65,-14],[10,-12],[-50,-48],[-5,-30],[12,-28],[-34,-3],[-17,-17],[-36,69],[2,23],[-31,12],[41,42],[-54,14],[-40,-24],[-69,-3],[13,18],[-43,47],[-101,20],[-28,-27],[-33,-8],[-1,42],[-22,24],[-17,68],[13,30],[-29,34],[73,10],[50,-11],[21,13],[79,29],[49,-9]],[[3629,4959],[-52,-41],[-25,-56],[-20,-18],[34,-4],[-69,-32],[-50,-47],[15,-11],[-81,-41],[-19,-20],[-32,-59],[13,-19],[-40,9],[-69,31],[-76,4],[2,26],[-27,15],[-15,27],[42,4],[5,-11],[73,-2],[31,15],[43,-23],[109,59],[71,70],[-26,38],[30,18],[33,4],[45,55],[55,9]]]}
