{"type":"Topology","bbox":[-73.68131304825062,6.580421728734548,-73.50793402771012,6.785842365853843],"transform":{"scale":[0.000017339636017651202,0.0000205441181237419],"translate":[-73.68131304825062,6.580421728734548]},"objects":{"municipios":{"type":"GeometryCollection","geometries":[{"type":"Polygon","arcs":[[0]],"properties":{"codigo":"68235201802004000101","sector":"682352018020040001","pcode":"CO68235","area_m2":42636}},{"type":"Polygon","arcs":[[1]],"properties":{"codigo":"68235201601009000101","sector":"682352016010090001","pcode":"CO68235","area_m2":53183}},{"type":"Polygon","arcs":[[2]],"properties":{"codigo":"68235201601001000101","sector":"682352016010010001","pcode":"CO68235","area_m2":32616}},{"type":"Polygon","arcs":[[3]],"properties":{"codigo":"68235201706017000101","sector":"682352017060170001","pcode":"CO68235","area_m2":30540}},{"type":"Polygon","arcs":[[4]],"properties":{"codigo":"68235201001022000101","sector":"682352010010220001","pcode":"CO68235","area_m2":35324}},{"type":"Polygon","arcs":[[5,6]],"properties":{"codigo":"68235100000000000101","sector":"682351000000000001","pcode":"CO68235","area_m2":147260}},{"type":"Polygon","arcs":[[-6,7]],"properties":{"codigo":"68235100000000000102","sector":"682351000000000001","pcode":"CO68235","area_m2":128633}}]}},"arcs":[[[5836,5539],[48,-19],[-18,0],[-9,-26],[22,-9],[-14,-24],[-30,14],[-33,-5],[-67,30],[25,39],[28,51],[22,-11],[26,-40]],[[1087,139],[17,-29],[28,-25],[-13,-39],[34,-38],[-8,-8],[-42,22],[-10,-11],[-52,24],[-9,-2],[-53,29],[-8,25],[25,-3],[45,45],[27,-16],[19,26]],[[2213,2066],[29,-13],[12,-19],[17,17],[0,20],[25,-33],[-26,-8],[21,-8],[-15,-21],[-20,2],[-44,-33],[-7,8],[25,20],[-27,30],[-21,-10],[-9,11],[-16,-10],[-39,50],[30,-13],[3,10],[33,-1],[8,9],[21,-8]],[[14,3153],[19,6],[35,-35],[48,6],[22,-6],[9,16],[30,-22],[-9,-49],[-23,19],[-11,-18],[-55,20],[-53,31],[-26,41],[14,-9]],[[4570,9983],[-49,-62],[-4,-74],[-11,0],[3,-30],[-39,12],[12,15],[-6,56],[-29,12],[-42,6],[11,-41],[-23,35],[-24,20],[13,14],[-5,27],[33,-28],[23,-2],[-2,-19],[57,-14],[23,13],[59,76],[0,-16]],[[9953,6075],[-7,-40],[-25,-122],[-6,-43],[-18,-27],[-129,-170],[-30,17],[-16,-20]],[[9722,5670],[-26,22],[-64,41],[-18,21],[2,18],[25,32],[21,-9],[26,7],[28,-16],[37,22],[31,5],[10,12],[34,-19],[41,52],[22,6],[-3,31],[7,63],[-8,1],[25,134],[15,-2],[36,20],[15,-16],[-25,-20]],[[9953,6075],[36,-9],[-9,-96],[13,-13],[6,-36],[-14,-46],[-48,-60],[-16,-33],[-35,-54],[-41,-51],[-13,-42],[26,-41],[-40,7],[-13,31],[-51,29],[-32,9]]]}
