{"type":"Topology","bbox":[-73.42343205029977,6.214297573046498,-73.40151143399765,6.252541072564734],"transform":{"scale":[0.0000021922808582969583,0.0000038247324250660315],"translate":[-73.42343205029977,6.214297573046498]},"objects":{"municipios":{"type":"GeometryCollection","geometries":[{"type":"Polygon","arcs":[[0,1,2]],"properties":{"codigo":"68320100000000000104","sector":"683201000000000001","pcode":"CO68320","area_m2":109129}},{"type":"Polygon","arcs":[[3]],"properties":{"codigo":"68320200103005000101","sector":"683202001030050001","pcode":"CO68320","area_m2":77924}},{"type":"Polygon","arcs":[[4,-1,5,6,7]],"properties":{"codigo":"68320100000000000101","sector":"683201000000000001","pcode":"CO68320","area_m2":152491}},{"type":"Polygon","arcs":[[8,-7]],"properties":{"codigo":"68320100000000000102","sector":"683201000000000001","pcode":"CO68320","area_m2":265563}},{"type":"Polygon","arcs":[[-2,-5,9]],"properties":{"codigo":"68320100000000000103","sector":"683201000000000001","pcode":"CO68320","area_m2":153811}}]}},"arcs":[[[2704,8196],[-554,295]],[[2150,8491],[772,474]],[[2922,8965],[122,-64],[153,206],[201,-102],[242,104],[443,-145],[-73,-255],[-502,-341],[-225,7],[-243,-116],[278,-161],[-122,-67],[-239,132],[-253,33]],[[9176,119],[-201,-3],[-151,-116],[-361,88],[84,62],[662,191],[-33,200],[340,236],[-32,97],[-533,316],[-52,99],[232,179],[868,-416],[-93,-98],[-60,-272],[-290,-283],[69,-141],[-132,-82],[-317,-57]],[[978,9154],[33,-83],[1139,-580]],[[2704,8196],[-294,-183],[97,-60],[54,-230]],[[2561,7723],[-259,58],[-452,18],[-6,232],[-237,131],[-724,293]],[[883,8455],[-404,159],[-158,-55],[-146,-152],[-175,73],[290,412],[192,-82],[128,84],[-135,60],[236,178],[-136,55],[109,85],[287,-63],[7,-55]],[[2561,7723],[193,-10],[110,-128],[-196,-76],[-122,-144],[-213,-77],[-96,-146],[-230,2],[-175,-245],[-7,-125],[-158,-196],[-4,-132],[189,-136],[-357,-25],[-278,82],[-166,126],[-309,142],[116,135],[-322,381],[349,317],[123,62],[-280,91],[21,60],[-401,98],[145,118],[150,240],[82,2],[158,316]],[[978,9154],[100,-20],[64,182],[233,-46],[-39,-102],[226,-49],[218,251],[193,105],[171,-15],[-19,135],[107,134],[-4,215],[247,55],[3,-107],[676,42],[-34,-198],[-106,-26],[38,-277],[-188,-119],[-254,-55],[129,-74],[-112,-60],[295,-160]]]}
