{"type":"Topology","bbox":[-73.28392160010287,6.704476517400035,-73.2557134167917,6.826838655040928],"transform":{"scale":[0.000002821100441160586,0.000012237437507840017],"translate":[-73.28392160010287,6.704476517400035]},"objects":{"municipios":{"type":"GeometryCollection","geometries":[{"type":"Polygon","arcs":[[0,1,2,3]],"properties":{"codigo":"68895100000000000104","sector":"688951000000000001","pcode":"CO68895","area_m2":87302}},{"type":"Polygon","arcs":[[4,5]],"properties":{"codigo":"68895200305001000101","sector":"688952003050010001","pcode":"CO68895","area_m2":93176}},{"type":"Polygon","arcs":[[6,7,8,9,10]],"properties":{"codigo":"68895100000000000203","sector":"688951000000000002","pcode":"CO68895","area_m2":60786}},{"type":"Polygon","arcs":[[11,12,13,14]],"properties":{"codigo":"68895100000000000301","sector":"688951000000000003","pcode":"CO68895","area_m2":63869}},{"type":"Polygon","arcs":[[15,16,-12,17]],"properties":{"codigo":"68895100000000000302","sector":"688951000000000003","pcode":"CO68895","area_m2":76078}},{"type":"Polygon","arcs":[[-15,18,-9,19]],"properties":{"codigo":"68895100000000000205","sector":"688951000000000002","pcode":"CO68895","area_m2":80432}},{"type":"Polygon","arcs":[[20,21,22]],"properties":{"codigo":"68895100000000000103","sector":"688951000000000001","pcode":"CO68895","area_m2":70013}},{"type":"Polygon","arcs":[[23,-2,-21,24]],"properties":{"codigo":"68895100000000000105","sector":"688951000000000001","pcode":"CO68895","area_m2":87106}},{"type":"Polygon","arcs":[[25,26,27,28,-3]],"properties":{"codigo":"68895100000000000106","sector":"688951000000000001","pcode":"CO68895","area_m2":112299}},{"type":"Polygon","arcs":[[29,30,-7,31,32]],"properties":{"codigo":"68895100000000000204","sector":"688951000000000002","pcode":"CO68895","area_m2":78535}},{"type":"Polygon","arcs":[[-4,-29,33,34]],"properties":{"codigo":"68895100000000000101","sector":"688951000000000001","pcode":"CO68895","area_m2":292009}},{"type":"Polygon","arcs":[[-22,-1,-35,35]],"properties":{"codigo":"68895100000000000102","sector":"688951000000000001","pcode":"CO68895","area_m2":212541}},{"type":"Polygon","arcs":[[36,-30,37,-26,-24,38]],"properties":{"codigo":"68895100000000000107","sector":"688951000000000001","pcode":"CO68895","area_m2":468994}},{"type":"Polygon","arcs":[[39,-32,-11,40,-27]],"properties":{"codigo":"68895100000000000201","sector":"688951000000000002","pcode":"CO68895","area_m2":79855}},{"type":"Polygon","arcs":[[-40,-38,-33]],"properties":{"codigo":"68895100000000000202","sector":"688951000000000002","pcode":"CO68895","area_m2":70254}},{"type":"Polygon","arcs":[[-37,41,42,-18,-20,-8,-31]],"properties":{"codigo":"68895100000000000206","sector":"688951000000000002","pcode":"CO68895","area_m2":480269}},{"type":"Polygon","arcs":[[43,-16,-43,44]],"properties":{"codigo":"68895100000000000303","sector":"688951000000000003","pcode":"CO68895","area_m2":138593}},{"type":"Polygon","arcs":[[-44,45,-13,-17]],"properties":{"codigo":"68895100000000000304","sector":"688951000000000003","pcode":"CO68895","area_m2":122577}},{"type":"Polygon","arcs":[[-6,46]],"properties":{"codigo":"68895200305001000102","sector":"688952003050010001","pcode":"CO68895","area_m2":103530}}]}},"arcs":[[[5326,9349],[736,-74]],[[6062,9275],[-242,-111]],[[5820,9164],[-472,39],[-399,58],[-552,66],[-142,-10],[147,28],[2,61],[57,43]],[[4461,9449],[202,-31],[663,-69]],[[1157,77],[-231,9],[-222,-13],[-181,26],[-265,-17],[-234,21],[225,89],[-249,-14],[34,42],[-7,76],[259,0],[35,31],[132,-14],[39,-30],[57,21],[320,45]],[[869,349],[71,-59],[217,-213]],[[5080,8962],[-250,-101]],[[4830,8861],[-269,32]],[[4561,8893],[-739,91],[25,29]],[[3847,9013],[111,91]],[[3958,9104],[378,-45],[744,-97]],[[4057,8685],[-491,-209]],[[3566,8476],[-721,79]],[[2845,8555],[116,50],[252,37],[245,6],[120,31],[-81,34],[35,36]],[[3532,8749],[525,-64]],[[4591,8622],[-587,-257],[-569,57]],[[3435,8422],[131,54]],[[4057,8685],[534,-63]],[[3532,8749],[-68,57],[163,62],[107,66],[-71,4],[97,77],[87,-2]],[[4561,8893],[-504,-208]],[[6981,9172],[-251,31],[-668,72]],[[6062,9275],[278,130],[15,18]],[[6355,9423],[427,-22],[319,-68],[49,-45],[-64,-72],[-105,-44]],[[7756,9190],[-15,-89],[-105,-18],[-283,-9],[-275,10],[-81,39],[-198,2],[-44,-56],[-935,95]],[[6981,9172],[-82,-43],[123,-6],[353,81],[94,33],[22,52],[130,-68],[135,-31]],[[5820,9164],[-276,-122]],[[5544,9042],[-1316,166],[-136,-15]],[[4092,9193],[-33,59],[-126,43],[153,91],[288,75]],[[4374,9461],[87,-12]],[[6657,8840],[271,-30],[-14,-63]],[[6914,8747],[-93,-18],[-143,11],[-108,37],[-84,-48],[-582,61],[-85,-42],[-455,44],[-534,69]],[[5080,8962],[219,-30]],[[5299,8932],[260,-37],[466,-55],[600,-49],[32,49]],[[4374,9461],[157,70],[-231,0],[-59,39],[-195,-9],[-277,5],[-38,13],[-293,27],[-194,75],[229,13],[122,26],[302,28],[249,-30],[207,15],[196,-15],[189,75],[96,78],[135,22],[187,9],[150,43],[130,-5],[72,-40]],[[5508,9900],[19,-52],[-26,-108],[31,-23],[135,-25],[19,-42],[-110,-139],[-117,-91],[-133,-71]],[[5508,9900],[79,63],[214,22],[331,14],[126,-32],[223,-82],[52,-66],[-82,-39],[13,-52],[-31,-62],[-276,-1],[-173,-17],[-159,10],[-132,-17],[-24,-32],[159,6],[179,-57],[210,3],[91,-76],[-98,-53],[145,-9]],[[7266,8757],[-352,-10]],[[6657,8840],[-92,76],[-1021,126]],[[7756,9190],[191,58],[483,-41],[173,2],[236,-40],[173,-8],[110,12],[181,-13],[506,-67],[190,-88],[-15,-46],[-105,7],[-222,-18],[-197,12],[-163,30],[-328,14],[-207,-46],[-212,-21],[-218,-49],[229,-50],[72,-28],[-59,-14],[-388,26],[-65,35],[-158,-1],[-75,-18],[42,-75],[94,-36],[148,-30],[-145,-9],[-171,12],[-590,57]],[[5544,9042],[-245,-110]],[[3958,9104],[62,45],[-55,4],[127,40]],[[7266,8757],[4,-63],[214,-112],[14,-92],[-25,-122],[32,-66],[-144,-3],[-275,24],[-359,-9],[-263,-22],[-119,19],[22,71],[-903,0],[-153,13],[-47,47],[49,56],[-51,61],[-327,45],[-115,-9]],[[4820,8595],[-229,27]],[[3055,8224],[-86,-3],[111,54],[355,147]],[[4820,8595],[-130,-49],[-184,-107],[-122,-51],[246,-39],[37,-46],[199,-39],[-98,-21],[-255,-6],[-657,-40],[-281,18],[-520,9]],[[3055,8224],[37,-82],[-84,-16],[-65,21],[-109,-2],[-129,21],[-10,72],[-441,60],[-43,-22],[-194,17],[114,66],[277,15],[252,114],[185,67]],[[869,349],[260,26],[51,-40],[276,12],[163,-81],[156,8],[434,-35],[-73,-43],[-149,7],[13,-47],[-70,-42],[-191,4],[-204,-106],[-189,-12],[3,90],[-192,-13]]]}
