{"type":"Topology","bbox":[-74.07721779509649,5.853614990782802,-73.96255936214254,5.935994301381446],"transform":{"scale":[0.000011466989994393946,0.000008238754935357947],"translate":[-74.07721779509649,5.853614990782802]},"objects":{"municipios":{"type":"GeometryCollection","geometries":[{"type":"Polygon","arcs":[[0]],"properties":{"codigo":"68377200204005000101","sector":"683772002040050001","pcode":"CO68377","area_m2":17916}},{"type":"Polygon","arcs":[[1,2]],"properties":{"codigo":"68377100000000000101","sector":"683771000000000001","pcode":"CO68377","area_m2":199608}},{"type":"Polygon","arcs":[[3,-2]],"properties":{"codigo":"68377100000000000102","sector":"683771000000000001","pcode":"CO68377","area_m2":160445}},{"type":"Polygon","arcs":[[4]],"properties":{"codigo":"68377200201001000101","sector":"683772002010010001","pcode":"CO68377","area_m2":55599}},{"type":"Polygon","arcs":[[5]],"properties":{"codigo":"68377200205003000101","sector":"683772002050030001","pcode":"CO68377","area_m2":36883}}]}},"arcs":[[[90,6039],[28,-39],[46,-95],[24,42],[62,8],[12,-34],[-26,11],[-42,-10],[-34,-53],[-33,74],[-66,-42],[-2,50],[-23,-6],[-36,50],[90,64],[0,-20]],[[9962,642],[-43,4],[-97,-38],[-35,-5],[-45,25],[-120,91],[-99,124]],[[9523,843],[59,54],[23,-25],[46,53],[20,-26],[29,196],[-19,16],[-11,59],[-49,-89],[-17,89],[65,41],[5,198],[69,32],[-20,-226],[14,-28],[74,-34],[27,-28],[24,-57],[-5,-26],[46,-41],[27,17],[26,-17],[8,22],[35,-23],[-30,-68],[6,-18],[-39,-111],[-36,-37],[28,-41],[48,-41],[-14,-42]],[[9962,642],[-25,-34],[-12,-48],[-60,-93],[-4,-25],[-76,134],[-39,-82],[-4,-28],[56,-41],[24,-151],[24,-10],[24,-112],[-63,59],[-13,-30],[-59,-79],[-4,-54],[-39,-48],[-22,68],[2,31],[-45,-58],[-30,19],[9,77],[26,120],[34,51],[-31,37],[-53,-22],[-34,-73],[-55,87],[2,48],[39,-3],[39,-26],[34,15],[-5,69],[-32,13],[48,90],[10,48],[-16,93],[-17,37],[-24,-6],[-76,90],[28,38]],[[5772,9936],[2,-30],[29,-13],[21,35],[-5,-45],[16,-2],[-3,-68],[96,-50],[11,-38],[-29,26],[-12,-32],[-79,14],[-123,35],[-88,-7],[-18,-23],[-20,15],[-19,-56],[-31,17],[4,53],[28,54],[49,-8],[13,83],[-25,43],[54,6],[55,-25],[-11,-73],[50,-1],[9,74],[17,-3],[-17,75],[35,1],[-9,-57]],[[1785,4612],[-16,-93],[70,-54],[-27,-64],[-19,-125],[-37,-18],[-6,31],[-41,8],[10,132],[19,93],[1,58],[-18,29],[2,80],[28,97],[30,-10],[-22,-80],[2,-71],[24,-13]]]}
