{"type":"Topology","bbox":[-72.81313296739211,6.639030891897597,-72.8010596156235,6.67725781748561],"transform":{"scale":[0.0000012074559224528696,0.0000038230748662879505],"translate":[-72.81313296739211,6.639030891897597]},"objects":{"municipios":{"type":"GeometryCollection","geometries":[{"type":"Polygon","arcs":[[0,1]],"properties":{"codigo":"68468100000000000101","sector":"684681000000000001","pcode":"CO68468","area_m2":48505}},{"type":"Polygon","arcs":[[2,3]],"properties":{"codigo":"68468100000000000102","sector":"684681000000000001","pcode":"CO68468","area_m2":78607}},{"type":"Polygon","arcs":[[-3,4,-2,5]],"properties":{"codigo":"68468100000000000103","sector":"684681000000000001","pcode":"CO68468","area_m2":91197}},{"type":"Polygon","arcs":[[6]],"properties":{"codigo":"68468200201002000101","sector":"684682002010020001","pcode":"CO68468","area_m2":6253}}]}},"arcs":[[[2278,8792],[-938,174],[-313,71],[-359,-73],[-660,-2],[17,259],[98,73],[802,-120],[804,-5],[199,258],[361,-35]],[[2289,9392],[569,-64],[-580,-536]],[[3107,8680],[202,166],[755,683],[448,153]],[[4512,9682],[198,-43],[-264,-88],[1237,-116],[-61,-206],[-227,-59],[-351,-33],[-99,-53],[163,-63],[108,-159],[-173,-14],[-55,-111],[-129,-18],[-519,154],[-205,-63],[-40,-153],[-436,-8],[-339,-38],[-213,69]],[[3107,8680],[-690,12],[-269,-13],[367,75],[-237,38]],[[2289,9392],[12,130],[-71,244],[983,-54],[-33,74],[113,171],[125,42],[760,-98],[499,-166],[-165,-53]],[[9399,184],[350,-74],[113,16],[137,-72],[-196,-54],[-737,59],[94,144],[239,-19]]]}
