{"type":"Topology","bbox":[-73.97431589492601,5.786769337099458,-73.87713128381836,5.810842597014742],"transform":{"scale":[0.000009719433054070427,0.0000024075667482031733],"translate":[-73.97431589492601,5.786769337099458]},"objects":{"municipios":{"type":"GeometryCollection","geometries":[{"type":"Polygon","arcs":[[0,1]],"properties":{"codigo":"68271100000000000101","sector":"682711000000000001","pcode":"CO68271","area_m2":97804}},{"type":"Polygon","arcs":[[2]],"properties":{"codigo":"68271200106003000101","sector":"682712001060030001","pcode":"CO68271","area_m2":30092}},{"type":"Polygon","arcs":[[-2,3]],"properties":{"codigo":"68271100000000000102","sector":"682711000000000001","pcode":"CO68271","area_m2":273433}},{"type":"MultiPolygon","arcs":[[[4]],[[5]]],"properties":{"codigo":"68271200107001000101","sector":"682712001070010001","pcode":"CO68271","area_m2":11821}}]}},"arcs":[[[417,6357],[48,-181],[-36,-79],[-38,119],[-24,-132],[-80,-207],[10,-423],[-26,-62],[-55,124],[-77,68],[47,196],[-34,205],[-10,197],[-60,346],[4,292],[-14,334],[11,171],[-18,156]],[[65,7481],[55,-261],[63,-5],[3,-118],[115,-394],[116,-346]],[[4389,267],[25,248],[45,194],[35,61],[-19,116],[45,168],[38,20],[11,146],[20,-93],[-62,-208],[8,-169],[29,79],[21,-143],[-31,-42],[-3,-245],[-94,-381],[-19,-12],[-68,189],[19,72]],[[65,7481],[0,354],[-52,495],[-13,290],[162,-35],[41,128],[91,380],[116,-596],[77,125],[148,-160],[-7,-169],[-63,-647],[12,-105],[-41,-272],[7,-39],[-69,-195],[-17,-257],[27,-152],[-35,-249],[-32,-20]],[[9996,9571],[-105,-34],[-1,-74],[-83,183],[28,200],[145,-215],[16,-60]],[[9765,9829],[-27,115],[31,55],[-4,-170]]]}
