{"type":"Topology","bbox":[-72.74034768784054,6.688216037500744,-72.7259614212054,6.719157008575812],"transform":{"scale":[0.0000014387705405682987,0.0000030944065481616706],"translate":[-72.74034768784054,6.688216037500744]},"objects":{"municipios":{"type":"GeometryCollection","geometries":[{"type":"Polygon","arcs":[[0,1,2,3,4,5]],"properties":{"codigo":"68432100000000000202","sector":"684321000000000002","pcode":"CO68432","area_m2":85324}},{"type":"Polygon","arcs":[[6]],"properties":{"codigo":"68432200102009000101","sector":"684322001020090001","pcode":"CO68432","area_m2":9178}},{"type":"Polygon","arcs":[[7,8,9,10,11,-4]],"properties":{"codigo":"68432100000000000102","sector":"684321000000000001","pcode":"CO68432","area_m2":131759}},{"type":"Polygon","arcs":[[12,13,14,-9,15]],"properties":{"codigo":"68432100000000000105","sector":"684321000000000001","pcode":"CO68432","area_m2":83222}},{"type":"Polygon","arcs":[[16,-16,-8,-3,17]],"properties":{"codigo":"68432100000000000203","sector":"684321000000000002","pcode":"CO68432","area_m2":129246}},{"type":"Polygon","arcs":[[-5,-12,18,19,20]],"properties":{"codigo":"68432100000000000101","sector":"684321000000000001","pcode":"CO68432","area_m2":277126}},{"type":"Polygon","arcs":[[21,22,-10,-15,23]],"properties":{"codigo":"68432100000000000103","sector":"684321000000000001","pcode":"CO68432","area_m2":180790}},{"type":"Polygon","arcs":[[24,25,-24,-14,26,27]],"properties":{"codigo":"68432100000000000104","sector":"684321000000000001","pcode":"CO68432","area_m2":215719}},{"type":"Polygon","arcs":[[-25,28]],"properties":{"codigo":"68432100000000000106","sector":"684321000000000001","pcode":"CO68432","area_m2":48802}},{"type":"Polygon","arcs":[[29,-19,-11,-23]],"properties":{"codigo":"68432100000000000107","sector":"684321000000000001","pcode":"CO68432","area_m2":190488}},{"type":"Polygon","arcs":[[30,-6,-21,31]],"properties":{"codigo":"68432100000000000201","sector":"684321000000000002","pcode":"CO68432","area_m2":302168}},{"type":"Polygon","arcs":[[32,-27,-13,-17,33]],"properties":{"codigo":"68432100000000000204","sector":"684321000000000002","pcode":"CO68432","area_m2":164397}},{"type":"Polygon","arcs":[[-34,-18,-2,34,35,36]],"properties":{"codigo":"68432100000000000205","sector":"684321000000000002","pcode":"CO68432","area_m2":513738}},{"type":"Polygon","arcs":[[-35,-1,-31,37,38]],"properties":{"codigo":"68432100000000000206","sector":"684321000000000002","pcode":"CO68432","area_m2":183254}},{"type":"Polygon","arcs":[[-36,-39,39]],"properties":{"codigo":"68432100000000000207","sector":"684321000000000002","pcode":"CO68432","area_m2":439687}}]}},"arcs":[[[5424,4997],[152,8],[611,3]],[[6187,5008],[48,-22]],[[6235,4986],[-228,-287],[-251,-299],[-161,-144],[-115,-143],[-248,-255],[-201,-184]],[[5031,3674],[-12,-10],[-559,190]],[[4460,3854],[161,160],[235,255],[-593,140]],[[4263,4409],[86,101],[105,307],[9,129],[-321,127],[352,0],[363,-12],[465,-38],[102,-26]],[[95,5095],[21,-31],[377,-9],[-20,-93],[-157,1],[-34,-159],[221,-14],[-84,-170],[14,-34],[-240,-106],[73,132],[-126,3],[-84,109],[27,210],[-83,144],[95,17]],[[5031,3674],[387,-111],[-4,-9]],[[5414,3554],[-463,-538]],[[4951,3016],[-510,-593],[-51,-45],[-356,-388],[-120,-25]],[[3914,1965],[-267,55],[-116,87],[-233,34],[-126,-18],[-235,-100],[-157,-38],[-187,-14],[-291,-58]],[[2302,1913],[125,183],[157,95],[136,120],[144,95],[83,126],[429,315],[99,57],[171,142],[442,464],[42,55],[330,289]],[[5885,3430],[495,-147],[73,-12],[785,-204],[275,270],[660,-145]],[[8173,3192],[-547,-613],[-109,-32],[-618,156],[-55,-3],[-422,91],[-782,123]],[[5640,2914],[-689,102]],[[5414,3554],[471,-124]],[[7966,4643],[-59,-5],[-352,-329],[-502,95],[-250,-244],[-280,-256],[-305,-243],[-74,-39],[-259,-192]],[[6235,4986],[139,112],[83,100],[761,50],[742,-589],[6,-16]],[[2302,1913],[-573,-163],[-99,-177],[-170,-83],[-126,73],[-42,-22],[-151,20],[-221,1]],[[920,1562],[174,121],[174,280],[230,-27],[87,36],[100,347],[410,-10],[-5,113],[137,102],[-8,77],[-109,355],[-129,126],[203,135],[-173,342],[-93,77],[70,147],[-269,1],[-42,209],[123,126],[282,139],[-43,69],[-184,0],[-226,132],[-163,54],[-79,80]],[[1387,4593],[351,28],[221,64],[285,0],[221,-54],[263,-26],[238,-3],[355,19],[209,-8],[387,-102],[346,-102]],[[6395,644],[-124,21],[-109,-22],[-183,16],[-184,64],[-263,25],[-96,43],[-149,158],[-131,94],[-29,54]],[[5127,1097],[32,316],[197,-2],[157,94],[-1,49],[-242,124],[-108,26],[34,67],[-1343,115],[61,79]],[[5640,2914],[167,-153],[177,-200],[142,-438],[-2,-122],[26,-144],[77,-214],[106,-76],[497,-198],[89,-100],[-21,-61],[-167,-224],[-12,-56],[-123,-169],[-201,-115]],[[8241,1074],[-176,100],[-12,-81],[-104,-67],[-828,91],[-51,-96],[-42,93],[-62,25],[-170,-157],[29,-123],[-58,-130],[-200,-133]],[[6567,596],[-172,48]],[[8173,3192],[403,-95]],[[8576,3097],[-83,-92],[34,-8],[-24,-163],[-143,-214],[41,-9],[-54,-123],[-45,-296],[-44,-39],[147,-21],[61,-92],[-196,-88],[-202,-135],[-127,-26],[144,-58],[349,-77],[-103,-19],[150,-229],[67,-144],[-74,-17],[129,-92],[206,80],[435,-205],[67,-58],[-18,-46],[-134,-79],[-40,14],[-146,-92],[-732,305]],[[8241,1074],[-102,-68],[-327,-179],[-194,-129],[-242,-126],[50,-73],[-17,-49],[-204,-109],[22,-107],[-39,-59],[-306,-66],[-203,-109],[-104,10],[-38,87],[163,40],[-18,43],[-198,15],[-91,133],[36,50],[215,123],[43,41],[-120,54]],[[5127,1097],[-281,18],[-219,-38],[-232,-4],[-160,-52],[-235,-16],[-298,-144],[-93,-11],[-535,34],[-217,61],[-95,-6],[-168,29],[-330,93],[-461,101],[-409,-11],[-177,8],[-214,37],[41,97],[-50,42],[70,34],[27,119],[-127,22],[-167,-13],[123,65]],[[2489,7158],[-83,-53],[103,-39],[35,-74],[-157,-112],[-19,-106],[62,-89],[374,-152],[91,-121],[415,19],[285,27],[115,-38],[211,7],[80,-19],[239,8],[104,-45],[114,4],[107,-42],[175,-1],[57,171],[567,-40],[-268,-641],[508,-48],[-80,-192],[-70,-217],[-81,-331],[51,-37]],[[1387,4593],[-54,0],[-120,166],[69,54],[-96,34],[89,106],[322,-35],[433,46],[507,87],[-56,107],[108,111],[23,223],[-71,253],[575,44],[-76,197],[-181,97],[-152,308],[-42,-37],[-290,-91],[-146,223],[-316,-54],[126,180],[-90,139],[-215,16],[7,305],[275,-13],[155,-29],[-169,117],[-32,50],[-27,229],[337,11],[18,-108],[69,-129],[122,-42]],[[8642,4553],[59,18],[145,-87],[64,-115],[23,-160],[238,-158],[30,-44],[-153,-4],[29,-63],[-60,-135],[-4,-102],[-228,19],[-97,-16],[43,-230],[-1,-207],[-56,-90],[-98,-82]],[[7966,4643],[74,-88],[126,-96],[188,-96],[218,107],[70,83]],[[6187,5008],[-115,284],[-6,74],[-94,281],[-201,490],[-144,379],[-567,467],[-44,105],[97,111]],[[5113,7199],[93,61],[162,61],[279,31],[109,-11],[809,-43],[317,6],[164,49],[352,633],[51,31],[340,70],[268,92],[88,-57],[30,-71],[563,-111],[47,-45]],[[8785,7895],[291,-372],[83,-47],[-336,-104],[60,-119],[745,-683],[59,-47],[-211,-132],[-115,-102],[-91,-194],[219,-62],[-182,-128],[-153,-148],[-160,-63],[-100,-158],[-126,-127],[-35,-202],[-90,-92],[-39,-246],[23,-42],[-245,-66],[260,-208]],[[2489,7158],[201,90],[-60,127],[368,-110],[149,6],[304,90],[118,-32],[83,-59],[315,-7],[-13,222]],[[3954,7485],[28,-7],[506,12],[158,38],[251,11],[13,-250],[203,-90]],[[3954,7485],[-115,23],[65,21],[-35,187],[12,56],[318,-29],[70,33],[61,177],[93,158],[-59,15],[387,101],[217,26],[286,70],[194,62],[33,95],[10,172],[-19,44],[147,222],[355,-78],[180,-71],[175,52],[200,165],[80,180],[87,93],[184,115],[114,40],[190,24],[101,41],[-44,61],[171,9],[199,112],[124,12],[309,210],[146,40],[97,76],[88,-66],[-32,-85],[37,-99],[66,-67],[277,-19],[144,26],[165,-55],[33,-93],[203,-62],[-49,-34],[269,-29],[73,12],[145,-92],[183,-58],[49,-122],[-68,-34],[122,-232],[-19,-136],[-318,-184],[-239,-182],[-54,-148],[95,-79],[-259,-45],[-475,-21],[384,-107],[-74,-33],[-248,-60]]]}
