{"type":"Topology","bbox":[-73.64005332160701,6.059932042167097,-73.62199377886412,6.118997167175503],"transform":{"scale":[0.0000018061348877777566,0.000005907103211161693],"translate":[-73.64005332160701,6.059932042167097]},"objects":{"municipios":{"type":"GeometryCollection","geometries":[{"type":"Polygon","arcs":[[0,1]],"properties":{"codigo":"68179100000000000101","sector":"681791000000000001","pcode":"CO68179","area_m2":121239}},{"type":"Polygon","arcs":[[-2,2]],"properties":{"codigo":"68179100000000000102","sector":"681791000000000001","pcode":"CO68179","area_m2":133182}},{"type":"Polygon","arcs":[[3]],"properties":{"codigo":"68179200102010000101","sector":"681792001020100001","pcode":"CO68179","area_m2":125024}}]}},"arcs":[[[1203,86],[-581,-23],[-366,172],[-23,159],[-196,209],[132,19],[-169,146],[399,54],[46,101],[221,24]],[[666,947],[236,-115],[296,-224],[206,18],[303,-302],[-106,-92],[-398,-146]],[[666,947],[115,27],[925,-318],[396,50],[346,-101],[601,-25],[-15,-45],[362,-77],[-150,-72],[228,-64],[251,1],[306,-118],[64,-155],[-481,-22],[-34,92],[-453,101],[-402,0],[72,79],[-532,-12],[-776,-201],[-34,-87],[-252,86]],[[9960,9853],[-219,-48],[195,-41],[63,-100],[-306,-47],[-53,-101],[119,-209],[-247,16],[-26,-84],[-693,-24],[-414,-205],[322,-95],[-292,-126],[220,-66],[327,-278],[-324,-4],[-5,-64],[-243,31],[157,80],[-209,238],[-472,121],[352,67],[-443,232],[-463,-45],[-77,49],[606,47],[409,124],[649,89],[84,-70],[241,28],[-198,120],[336,23],[-26,83],[191,-2],[-123,95],[-292,-4],[-153,176],[316,-7],[-8,82],[386,65],[313,-146]]]}
