{"type":"Topology","bbox":[-74.0371033997933,6.860797687601322,-73.54939015138416,7.169046751622212],"transform":{"scale":[0.00004877620246115974,0.00003082798920100909],"translate":[-74.0371033997933,6.860797687601322]},"objects":{"municipios":{"type":"GeometryCollection","geometries":[{"type":"Polygon","arcs":[[0,1,2,3]],"properties":{"codigo":"68081100000000021101","sector":"680811000000000211","pcode":"CO68081","area_m2":48679}},{"type":"Polygon","arcs":[[4,5,6,-1]],"properties":{"codigo":"68081100000000021102","sector":"680811000000000211","pcode":"CO68081","area_m2":39759}},{"type":"Polygon","arcs":[[-4,7,8,9]],"properties":{"codigo":"68081100000000021103","sector":"680811000000000211","pcode":"CO68081","area_m2":41151}},{"type":"Polygon","arcs":[[10,11,12,13,14,15]],"properties":{"codigo":"68081100000000021403","sector":"680811000000000214","pcode":"CO68081","area_m2":107501}},{"type":"Polygon","arcs":[[16,17,-11,18,19]],"properties":{"codigo":"68081100000000021501","sector":"680811000000000215","pcode":"CO68081","area_m2":247849}},{"type":"Polygon","arcs":[[20,21,22]],"properties":{"codigo":"68081100000000010102","sector":"680811000000000101","pcode":"CO68081","area_m2":93121}},{"type":"Polygon","arcs":[[23,24,25,26,27]],"properties":{"codigo":"68081100000000010201","sector":"680811000000000102","pcode":"CO68081","area_m2":132143}},{"type":"Polygon","arcs":[[28,-22,29,30,31]],"properties":{"codigo":"68081100000000010101","sector":"680811000000000101","pcode":"CO68081","area_m2":141585}},{"type":"Polygon","arcs":[[32,33,-23,-29,34,-25]],"properties":{"codigo":"68081100000000010103","sector":"680811000000000101","pcode":"CO68081","area_m2":120973}},{"type":"Polygon","arcs":[[35,36,-33,-24,37]],"properties":{"codigo":"68081100000000010301","sector":"680811000000000103","pcode":"CO68081","area_m2":109704}},{"type":"Polygon","arcs":[[-38,-28,38,39]],"properties":{"codigo":"68081100000000010401","sector":"680811000000000104","pcode":"CO68081","area_m2":91018}},{"type":"Polygon","arcs":[[40,41,42,-40,43]],"properties":{"codigo":"68081100000000010402","sector":"680811000000000104","pcode":"CO68081","area_m2":121702}},{"type":"Polygon","arcs":[[44,45,46,-42,47]],"properties":{"codigo":"68081100000000010403","sector":"680811000000000104","pcode":"CO68081","area_m2":105238}},{"type":"Polygon","arcs":[[-47,48,49,50,-36,-43]],"properties":{"codigo":"68081100000000010501","sector":"680811000000000105","pcode":"CO68081","area_m2":203818}},{"type":"Polygon","arcs":[[51,52,53,54,55,56,-49,-46,57]],"properties":{"codigo":"68081100000000010502","sector":"680811000000000105","pcode":"CO68081","area_m2":204040}},{"type":"Polygon","arcs":[[58,59,60,-52,61,62]],"properties":{"codigo":"68081100000000010902","sector":"680811000000000109","pcode":"CO68081","area_m2":128322}},{"type":"Polygon","arcs":[[63,64,65,-18,66]],"properties":{"codigo":"68081100000000011002","sector":"680811000000000110","pcode":"CO68081","area_m2":205245}},{"type":"Polygon","arcs":[[67,-13,68,-48,69]],"properties":{"codigo":"68081100000000021002","sector":"680811000000000210","pcode":"CO68081","area_m2":151523}},{"type":"Polygon","arcs":[[-57,70,71,-50]],"properties":{"codigo":"68081100000000010602","sector":"680811000000000106","pcode":"CO68081","area_m2":63309}},{"type":"Polygon","arcs":[[72,73,74,75,76,-63,77,-65]],"properties":{"codigo":"68081100000000011001","sector":"680811000000000110","pcode":"CO68081","area_m2":219514}},{"type":"Polygon","arcs":[[78,-53,-61]],"properties":{"codigo":"68081100000000010801","sector":"680811000000000108","pcode":"CO68081","area_m2":38824}},{"type":"Polygon","arcs":[[-78,-62,-58,-45,-69,-12,-66]],"properties":{"codigo":"68081100000000010901","sector":"680811000000000109","pcode":"CO68081","area_m2":140508}},{"type":"Polygon","arcs":[[79,80,81,82,83]],"properties":{"codigo":"68081100000000050301","sector":"680811000000000503","pcode":"CO68081","area_m2":85704}},{"type":"Polygon","arcs":[[84,85,86,87]],"properties":{"codigo":"68081100000000020102","sector":"680811000000000201","pcode":"CO68081","area_m2":101406}},{"type":"Polygon","arcs":[[88,89,90,-86]],"properties":{"codigo":"68081100000000020103","sector":"680811000000000201","pcode":"CO68081","area_m2":55639}},{"type":"Polygon","arcs":[[-87,-91,91,92]],"properties":{"codigo":"68081100000000020104","sector":"680811000000000201","pcode":"CO68081","area_m2":98895}},{"type":"Polygon","arcs":[[93,94,-89,-85,95]],"properties":{"codigo":"68081100000000020201","sector":"680811000000000202","pcode":"CO68081","area_m2":252565}},{"type":"Polygon","arcs":[[-70,-41,96,97,98,99]],"properties":{"codigo":"68081100000000020902","sector":"680811000000000209","pcode":"CO68081","area_m2":111216}},{"type":"Polygon","arcs":[[-44,-39,100,101,-97]],"properties":{"codigo":"68081100000000020903","sector":"680811000000000209","pcode":"CO68081","area_m2":106387}},{"type":"Polygon","arcs":[[102,-14,-68,-100,103,104]],"properties":{"codigo":"68081100000000021001","sector":"680811000000000210","pcode":"CO68081","area_m2":126093}},{"type":"Polygon","arcs":[[-2,-7,105,106,107]],"properties":{"codigo":"68081100000000020701","sector":"680811000000000207","pcode":"CO68081","area_m2":204499}},{"type":"Polygon","arcs":[[108,109,110,-107,111]],"properties":{"codigo":"68081100000000020801","sector":"680811000000000208","pcode":"CO68081","area_m2":68685}},{"type":"Polygon","arcs":[[112,-104,-99,113,-112,-106,-6]],"properties":{"codigo":"68081100000000020802","sector":"680811000000000208","pcode":"CO68081","area_m2":81134}},{"type":"Polygon","arcs":[[-98,-102,114,-109,-114]],"properties":{"codigo":"68081100000000020901","sector":"680811000000000209","pcode":"CO68081","area_m2":59893}},{"type":"Polygon","arcs":[[115,-113,-5,-10,116]],"properties":{"codigo":"68081100000000021104","sector":"680811000000000211","pcode":"CO68081","area_m2":51999}},{"type":"Polygon","arcs":[[117,118,-117,-9,119,120]],"properties":{"codigo":"68081100000000021105","sector":"680811000000000211","pcode":"CO68081","area_m2":132067}},{"type":"Polygon","arcs":[[121,122,-20,123,-121,124,125]],"properties":{"codigo":"68081100000000021201","sector":"680811000000000212","pcode":"CO68081","area_m2":326555}},{"type":"Polygon","arcs":[[-105,-116,-119,126]],"properties":{"codigo":"68081100000000021301","sector":"680811000000000213","pcode":"CO68081","area_m2":78534}},{"type":"Polygon","arcs":[[-103,-127,-118,127,-15]],"properties":{"codigo":"68081100000000021401","sector":"680811000000000214","pcode":"CO68081","area_m2":61798}},{"type":"Polygon","arcs":[[-16,-128,-124,-19]],"properties":{"codigo":"68081100000000021402","sector":"680811000000000214","pcode":"CO68081","area_m2":101716}},{"type":"Polygon","arcs":[[128,129,130,131,-80,132,-67,-17,-123,133]],"properties":{"codigo":"68081100000000021601","sector":"680811000000000216","pcode":"CO68081","area_m2":137398}},{"type":"Polygon","arcs":[[134,135,136,137,-126,138,139,140,141]],"properties":{"codigo":"68081100000000030102","sector":"680811000000000301","pcode":"CO68081","area_m2":180839}},{"type":"Polygon","arcs":[[-142,142,143,144]],"properties":{"codigo":"68081100000000030201","sector":"680811000000000302","pcode":"CO68081","area_m2":41176}},{"type":"Polygon","arcs":[[145,-144,146,147]],"properties":{"codigo":"68081100000000030202","sector":"680811000000000302","pcode":"CO68081","area_m2":94015}},{"type":"Polygon","arcs":[[148,149,150,151,152,153,154]],"properties":{"codigo":"68081100000000060601","sector":"680811000000000606","pcode":"CO68081","area_m2":77501}},{"type":"Polygon","arcs":[[155,156,157,158,159]],"properties":{"codigo":"68081100000000030701","sector":"680811000000000307","pcode":"CO68081","area_m2":55519}},{"type":"Polygon","arcs":[[160,161,162,163]],"properties":{"codigo":"68081100000000050102","sector":"680811000000000501","pcode":"CO68081","area_m2":41177}},{"type":"Polygon","arcs":[[164,165,166,-136,167,168,169]],"properties":{"codigo":"68081100000000030401","sector":"680811000000000304","pcode":"CO68081","area_m2":186439}},{"type":"Polygon","arcs":[[170,-160,171,-137,-167]],"properties":{"codigo":"68081100000000030402","sector":"680811000000000304","pcode":"CO68081","area_m2":137946}},{"type":"Polygon","arcs":[[172,173,174,175,176,177]],"properties":{"codigo":"68081100000000060501","sector":"680811000000000605","pcode":"CO68081","area_m2":150041}},{"type":"Polygon","arcs":[[178,179,180,-157,181]],"properties":{"codigo":"68081100000000030801","sector":"680811000000000308","pcode":"CO68081","area_m2":78038}},{"type":"Polygon","arcs":[[-158,-181,182,183]],"properties":{"codigo":"68081100000000030802","sector":"680811000000000308","pcode":"CO68081","area_m2":36587}},{"type":"Polygon","arcs":[[184,185,-182,-156,-171,-166,186]],"properties":{"codigo":"68081100000000030601","sector":"680811000000000306","pcode":"CO68081","area_m2":140192}},{"type":"Polygon","arcs":[[187,188,189,190,-81,-132,191,192]],"properties":{"codigo":"68081100000000050403","sector":"680811000000000504","pcode":"CO68081","area_m2":72336}},{"type":"Polygon","arcs":[[193,-161,194,195]],"properties":{"codigo":"68081100000000050103","sector":"680811000000000501","pcode":"CO68081","area_m2":46887}},{"type":"Polygon","arcs":[[196,197,198,199,200]],"properties":{"codigo":"68081100000000030904","sector":"680811000000000309","pcode":"CO68081","area_m2":120834}},{"type":"Polygon","arcs":[[201,202]],"properties":{"codigo":"68081100000000041105","sector":"680811000000000411","pcode":"CO68081","area_m2":26972}},{"type":"Polygon","arcs":[[203,204,205,206]],"properties":{"codigo":"68081100000000040301","sector":"680811000000000403","pcode":"CO68081","area_m2":184376}},{"type":"Polygon","arcs":[[-194,207,208,209,210,211,212,-162]],"properties":{"codigo":"68081100000000050203","sector":"680811000000000502","pcode":"CO68081","area_m2":122409}},{"type":"Polygon","arcs":[[213,214,215,216,217,218,219]],"properties":{"codigo":"68081100000000040901","sector":"680811000000000409","pcode":"CO68081","area_m2":158787}},{"type":"Polygon","arcs":[[-177,220,-150,221]],"properties":{"codigo":"68081100000000060602","sector":"680811000000000606","pcode":"CO68081","area_m2":43522}},{"type":"Polygon","arcs":[[-212,222,223,224]],"properties":{"codigo":"68081100000000050404","sector":"680811000000000504","pcode":"CO68081","area_m2":50902}},{"type":"Polygon","arcs":[[225,226,227,228]],"properties":{"codigo":"68081100000000041102","sector":"680811000000000411","pcode":"CO68081","area_m2":85272}},{"type":"Polygon","arcs":[[229,230,-229,231,232]],"properties":{"codigo":"68081100000000041103","sector":"680811000000000411","pcode":"CO68081","area_m2":103889}},{"type":"Polygon","arcs":[[233,234,-233,235]],"properties":{"codigo":"68081100000000041104","sector":"680811000000000411","pcode":"CO68081","area_m2":78078}},{"type":"Polygon","arcs":[[-208,-196,236,237,238]],"properties":{"codigo":"68081100000000050104","sector":"680811000000000501","pcode":"CO68081","area_m2":40505}},{"type":"Polygon","arcs":[[239,-216]],"properties":{"codigo":"68081100000000041401","sector":"680811000000000414","pcode":"CO68081","area_m2":59935}},{"type":"Polygon","arcs":[[-163,240,241,242]],"properties":{"codigo":"68081100000000050101","sector":"680811000000000501","pcode":"CO68081","area_m2":93766}},{"type":"Polygon","arcs":[[243,-203,244,-236,-232,-228,245,246,247,248,249,-76]],"properties":{"codigo":"68081100000000041106","sector":"680811000000000411","pcode":"CO68081","area_m2":867145}},{"type":"Polygon","arcs":[[250,251,252,-193]],"properties":{"codigo":"68081100000000050401","sector":"680811000000000504","pcode":"CO68081","area_m2":47448}},{"type":"Polygon","arcs":[[-224,253,-188,-253,254]],"properties":{"codigo":"68081100000000050402","sector":"680811000000000504","pcode":"CO68081","area_m2":29845}},{"type":"Polygon","arcs":[[255,256,-189,-254,-223,-211]],"properties":{"codigo":"68081100000000050405","sector":"680811000000000504","pcode":"CO68081","area_m2":81398}},{"type":"Polygon","arcs":[[257,258,-190,-257]],"properties":{"codigo":"68081100000000050406","sector":"680811000000000504","pcode":"CO68081","area_m2":86800}},{"type":"Polygon","arcs":[[259,260,-209,-239,261,262]],"properties":{"codigo":"68081100000000050501","sector":"680811000000000505","pcode":"CO68081","area_m2":90468}},{"type":"Polygon","arcs":[[263,264,-258,-256,-210,-261]],"properties":{"codigo":"68081100000000050502","sector":"680811000000000505","pcode":"CO68081","area_m2":64492}},{"type":"Polygon","arcs":[[-265,265,266,267,268,-82,-191,-259]],"properties":{"codigo":"68081100000000050603","sector":"680811000000000506","pcode":"CO68081","area_m2":116022}},{"type":"Polygon","arcs":[[269,270,-268,271]],"properties":{"codigo":"68081100000000050604","sector":"680811000000000506","pcode":"CO68081","area_m2":47583}},{"type":"Polygon","arcs":[[272,-178,-222,-149,273]],"properties":{"codigo":"68081100000000060101","sector":"680811000000000601","pcode":"CO68081","area_m2":38909}},{"type":"Polygon","arcs":[[274,275,-263,276,-176]],"properties":{"codigo":"68081100000000060702","sector":"680811000000000607","pcode":"CO68081","area_m2":178415}},{"type":"Polygon","arcs":[[277,278,279,-274,-155,280,281,282]],"properties":{"codigo":"68081100000000060102","sector":"680811000000000601","pcode":"CO68081","area_m2":184064}},{"type":"Polygon","arcs":[[283,284]],"properties":{"codigo":"68081100000000060402","sector":"680811000000000604","pcode":"CO68081","area_m2":72090}},{"type":"Polygon","arcs":[[285,286,287,288,-173,-273,-280,289,290]],"properties":{"codigo":"68081100000000060201","sector":"680811000000000602","pcode":"CO68081","area_m2":345719}},{"type":"Polygon","arcs":[[-286,291]],"properties":{"codigo":"68081100000000060207","sector":"680811000000000602","pcode":"CO68081","area_m2":81971}},{"type":"Polygon","arcs":[[-262,-238,292,-151,-221,-277]],"properties":{"codigo":"68081100000000060701","sector":"680811000000000607","pcode":"CO68081","area_m2":217963}},{"type":"Polygon","arcs":[[293,294,-284,295,296,297,298,299,300,-275,-175]],"properties":{"codigo":"68081100000000060801","sector":"680811000000000608","pcode":"CO68081","area_m2":369796}},{"type":"Polygon","arcs":[[301,302,-299,303]],"properties":{"codigo":"68081100000000060901","sector":"680811000000000609","pcode":"CO68081","area_m2":53885}},{"type":"Polygon","arcs":[[304,-304,-298]],"properties":{"codigo":"68081100000000060902","sector":"680811000000000609","pcode":"CO68081","area_m2":59090}},{"type":"Polygon","arcs":[[305,306,307,308,309,310,-302,-305]],"properties":{"codigo":"68081100000000070403","sector":"680811000000000704","pcode":"CO68081","area_m2":134985}},{"type":"Polygon","arcs":[[311,312,313,314,315]],"properties":{"codigo":"68081100000000070501","sector":"680811000000000705","pcode":"CO68081","area_m2":60851}},{"type":"Polygon","arcs":[[316,317,318]],"properties":{"codigo":"68081100000000070602","sector":"680811000000000706","pcode":"CO68081","area_m2":28395}},{"type":"Polygon","arcs":[[319,320,321]],"properties":{"codigo":"68081100000000070704","sector":"680811000000000707","pcode":"CO68081","area_m2":91778}},{"type":"Polygon","arcs":[[322,-92,-90,-95,323,324,325,-31,326]],"properties":{"codigo":"68081100000000990101","sector":"680811000000009901","pcode":"CO68081","area_m2":5121715}},{"type":"Polygon","arcs":[[327,328]],"properties":{"codigo":"68081200602009000102","sector":"680812006020090001","pcode":"CO68081","area_m2":221121}},{"type":"MultiPolygon","arcs":[[[329]],[[330]],[[331]],[[332]]],"properties":{"codigo":"68081200903015000101","sector":"680812009030150001","pcode":"CO68081","area_m2":126243}},{"type":"Polygon","arcs":[[333,334]],"properties":{"codigo":"68081200203002000102","sector":"680812002030020001","pcode":"CO68081","area_m2":189153}},{"type":"Polygon","arcs":[[-328,335]],"properties":{"codigo":"68081200602009000101","sector":"680812006020090001","pcode":"CO68081","area_m2":140439}},{"type":"Polygon","arcs":[[336]],"properties":{"codigo":"68081200903032000101","sector":"680812009030320001","pcode":"CO68081","area_m2":234454}},{"type":"MultiPolygon","arcs":[[[337]],[[338]]],"properties":{"codigo":"68081200903036000101","sector":"680812009030360001","pcode":"CO68081","area_m2":19255}},{"type":"Polygon","arcs":[[-140,339,-325,340,341]],"properties":{"codigo":"68081100000000030101","sector":"680811000000000301","pcode":"CO68081","area_m2":111985}},{"type":"Polygon","arcs":[[-271,342,343,-83,-269]],"properties":{"codigo":"68081100000000050601","sector":"680811000000000506","pcode":"CO68081","area_m2":197285}},{"type":"Polygon","arcs":[[-56,344,345,346,347,348,-71]],"properties":{"codigo":"68081100000000010601","sector":"680811000000000106","pcode":"CO68081","area_m2":129353}},{"type":"Polygon","arcs":[[349,-282,350,351,-201,352]],"properties":{"codigo":"68081100000000030903","sector":"680811000000000309","pcode":"CO68081","area_m2":551688}},{"type":"Polygon","arcs":[[353,354,-313,355,356,357,358]],"properties":{"codigo":"68081100000000070301","sector":"680811000000000703","pcode":"CO68081","area_m2":248296}},{"type":"Polygon","arcs":[[359,360,361]],"properties":{"codigo":"68081100000000041002","sector":"680811000000000410","pcode":"CO68081","area_m2":51376}},{"type":"Polygon","arcs":[[362,363,-207,364,365,366,367,368]],"properties":{"codigo":"68081100000000070801","sector":"680811000000000708","pcode":"CO68081","area_m2":406374}},{"type":"Polygon","arcs":[[369,-96,-88,-93,-323,370]],"properties":{"codigo":"68081100000000020101","sector":"680811000000000201","pcode":"CO68081","area_m2":362968}},{"type":"Polygon","arcs":[[-283,-350,371,372]],"properties":{"codigo":"68081100000000060203","sector":"680811000000000602","pcode":"CO68081","area_m2":274697}},{"type":"Polygon","arcs":[[373,374,375,376,-226,-231,377]],"properties":{"codigo":"68081100000000041107","sector":"680811000000000411","pcode":"CO68081","area_m2":263122}},{"type":"Polygon","arcs":[[-365,-206,378,-234,-245,379]],"properties":{"codigo":"68081100000000040201","sector":"680811000000000402","pcode":"CO68081","area_m2":228153}},{"type":"Polygon","arcs":[[380,-219,381,382,383,-378,-230,-235,-379,-205]],"properties":{"codigo":"68081100000000040501","sector":"680811000000000405","pcode":"CO68081","area_m2":137620}},{"type":"Polygon","arcs":[[384,-134,-122,-138,-172,-159,-184]],"properties":{"codigo":"68081100000000030403","sector":"680811000000000304","pcode":"CO68081","area_m2":143251}},{"type":"Polygon","arcs":[[385,-251,-192,-131,386]],"properties":{"codigo":"68081100000000050204","sector":"680811000000000502","pcode":"CO68081","area_m2":29769}},{"type":"Polygon","arcs":[[387,388,-300,-303,-311]],"properties":{"codigo":"68081100000000050504","sector":"680811000000000505","pcode":"CO68081","area_m2":126054}},{"type":"Polygon","arcs":[[389,390,391,392]],"properties":{"codigo":"68081100000000070106","sector":"680811000000000701","pcode":"CO68081","area_m2":93796}},{"type":"Polygon","arcs":[[393,394]],"properties":{"codigo":"68081100000000070705","sector":"680811000000000707","pcode":"CO68081","area_m2":79368}},{"type":"Polygon","arcs":[[-348,395,396]],"properties":{"codigo":"68081100000000010604","sector":"680811000000000106","pcode":"CO68081","area_m2":45318}},{"type":"Polygon","arcs":[[397]],"properties":{"codigo":"68081100000000990406","sector":"680811000000009904","pcode":"CO68081","area_m2":63067}},{"type":"Polygon","arcs":[[-8,-3,-108,-111,398,399]],"properties":{"codigo":"68081100000000020502","sector":"680811000000000205","pcode":"CO68081","area_m2":407942}},{"type":"Polygon","arcs":[[400,-307,401,402]],"properties":{"codigo":"68081100000000070103","sector":"680811000000000701","pcode":"CO68081","area_m2":75075}},{"type":"Polygon","arcs":[[-340,-139,-125,-120,-400,403,-26,-35,-32,-326]],"properties":{"codigo":"68081100000000020401","sector":"680811000000000204","pcode":"CO68081","area_m2":1270829}},{"type":"Polygon","arcs":[[-152,-293,-237,-195,-164,-243,404,405,-179,-186,406,407]],"properties":{"codigo":"68081100000000990201","sector":"680811000000009902","pcode":"CO68081","area_m2":594893}},{"type":"Polygon","arcs":[[408,-403,409,410]],"properties":{"codigo":"68081100000000070105","sector":"680811000000000701","pcode":"CO68081","area_m2":42187}},{"type":"Polygon","arcs":[[-387,-130,411,-405,-242,412]],"properties":{"codigo":"68081100000000050201","sector":"680811000000000502","pcode":"CO68081","area_m2":172241}},{"type":"Polygon","arcs":[[413,-319,414,-368,415,416]],"properties":{"codigo":"68081100000000070601","sector":"680811000000000706","pcode":"CO68081","area_m2":151277}},{"type":"Polygon","arcs":[[-401,-409,417,-359,418,-308]],"properties":{"codigo":"68081100000000070102","sector":"680811000000000701","pcode":"CO68081","area_m2":140620}},{"type":"Polygon","arcs":[[-316,419,-394,420,421,422,423,424]],"properties":{"codigo":"68081100000000070701","sector":"680811000000000707","pcode":"CO68081","area_m2":278823}},{"type":"Polygon","arcs":[[425,426,-314,-355,427]],"properties":{"codigo":"68081100000000070202","sector":"680811000000000702","pcode":"CO68081","area_m2":136719}},{"type":"Polygon","arcs":[[-301,-389,428,-266,-264,-260,-276]],"properties":{"codigo":"68081100000000050503","sector":"680811000000000505","pcode":"CO68081","area_m2":96456}},{"type":"Polygon","arcs":[[429,430,431,432]],"properties":{"codigo":"68081100000000990405","sector":"680811000000009904","pcode":"CO68081","area_m2":139865}},{"type":"Polygon","arcs":[[-153,-408,433,434,435]],"properties":{"codigo":"68081100000000990202","sector":"680811000000009902","pcode":"CO68081","area_m2":185203}},{"type":"Polygon","arcs":[[436,-393,437,-426,438,-410,-402,-306,-297,439]],"properties":{"codigo":"68081100000000070101","sector":"680811000000000701","pcode":"CO68081","area_m2":487131}},{"type":"Polygon","arcs":[[440,441,-343,-270]],"properties":{"codigo":"68081100000000011102","sector":"680811000000000111","pcode":"CO68081","area_m2":79709}},{"type":"Polygon","arcs":[[-250,442,-59,-77]],"properties":{"codigo":"68081100000000010903","sector":"680811000000000109","pcode":"CO68081","area_m2":93638}},{"type":"Polygon","arcs":[[443,-290,-279,444,445]],"properties":{"codigo":"68081100000000060206","sector":"680811000000000602","pcode":"CO68081","area_m2":71025}},{"type":"Polygon","arcs":[[-218,446,447,-382]],"properties":{"codigo":"68081100000000040602","sector":"680811000000000406","pcode":"CO68081","area_m2":88078}},{"type":"Polygon","arcs":[[-366,-380,-202,-244,448]],"properties":{"codigo":"68081100000000040101","sector":"680811000000000401","pcode":"CO68081","area_m2":210043}},{"type":"Polygon","arcs":[[-425,449,450,-356,-312]],"properties":{"codigo":"68081100000000070502","sector":"680811000000000705","pcode":"CO68081","area_m2":129853}},{"type":"Polygon","arcs":[[-446,451,452]],"properties":{"codigo":"68081100000000060205","sector":"680811000000000602","pcode":"CO68081","area_m2":86827}},{"type":"Polygon","arcs":[[-281,-154,-436,453,454,-351]],"properties":{"codigo":"68081100000000030906","sector":"680811000000000309","pcode":"CO68081","area_m2":132494}},{"type":"Polygon","arcs":[[455]],"properties":{"codigo":"68081200103016000101","sector":"680812001030160001","pcode":"CO68081","area_m2":76836}},{"type":"Polygon","arcs":[[456,457,-417,458,-74,459,-441,-272,-267,-429,-388,-310,460]],"properties":{"codigo":"68081100000000070402","sector":"680811000000000704","pcode":"CO68081","area_m2":916999}},{"type":"Polygon","arcs":[[461,-341,-324,-94,-370,462]],"properties":{"codigo":"68081100000000020301","sector":"680811000000000203","pcode":"CO68081","area_m2":252151}},{"type":"Polygon","arcs":[[463,-187,-165,464]],"properties":{"codigo":"68081100000000030602","sector":"680811000000000306","pcode":"CO68081","area_m2":160106}},{"type":"Polygon","arcs":[[465,466,467]],"properties":{"codigo":"68081100000000990401","sector":"680811000000009904","pcode":"CO68081","area_m2":131844}},{"type":"Polygon","arcs":[[468,-360,469,-214,470]],"properties":{"codigo":"68081100000000041001","sector":"680811000000000410","pcode":"CO68081","area_m2":93056}},{"type":"Polygon","arcs":[[-357,-451,471,-457,472]],"properties":{"codigo":"68081100000000070405","sector":"680811000000000704","pcode":"CO68081","area_m2":278865}},{"type":"Polygon","arcs":[[-452,-445,-278,-373,473]],"properties":{"codigo":"68081100000000060204","sector":"680811000000000602","pcode":"CO68081","area_m2":344569}},{"type":"Polygon","arcs":[[-217,-240,-215,-470,-362,474,-375,475,476,-447]],"properties":{"codigo":"68081100000000040801","sector":"680811000000000408","pcode":"CO68081","area_m2":361475}},{"type":"Polygon","arcs":[[-358,-473,-461,-309,-419]],"properties":{"codigo":"68081100000000070404","sector":"680811000000000704","pcode":"CO68081","area_m2":280210}},{"type":"Polygon","arcs":[[477,478,-396,-347]],"properties":{"codigo":"68081100000000010603","sector":"680811000000000106","pcode":"CO68081","area_m2":62945}},{"type":"Polygon","arcs":[[479,-431,480,-466,481,482]],"properties":{"codigo":"68081100000000990402","sector":"680811000000009904","pcode":"CO68081","area_m2":71101}},{"type":"Polygon","arcs":[[-168,-135,-145,-146,483]],"properties":{"codigo":"68081100000000030301","sector":"680811000000000303","pcode":"CO68081","area_m2":114170}},{"type":"Polygon","arcs":[[-288,484,-440,-296,-285,-295,485]],"properties":{"codigo":"68081100000000060401","sector":"680811000000000604","pcode":"CO68081","area_m2":514721}},{"type":"Polygon","arcs":[[-486,-294,-174,-289]],"properties":{"codigo":"68081100000000060202","sector":"680811000000000602","pcode":"CO68081","area_m2":151784}},{"type":"Polygon","arcs":[[-115,-101,-27,-404,-399,-110]],"properties":{"codigo":"68081100000000020501","sector":"680811000000000205","pcode":"CO68081","area_m2":306245}},{"type":"Polygon","arcs":[[-450,-424,486,-317,-414,-458,-472]],"properties":{"codigo":"68081100000000070401","sector":"680811000000000704","pcode":"CO68081","area_m2":118529}},{"type":"Polygon","arcs":[[487,-322,488,-422]],"properties":{"codigo":"68081100000000070702","sector":"680811000000000707","pcode":"CO68081","area_m2":476519}},{"type":"Polygon","arcs":[[-344,-442,-460,-73,-64,-133,-84]],"properties":{"codigo":"68081100000000011101","sector":"680811000000000111","pcode":"CO68081","area_m2":228716}},{"type":"Polygon","arcs":[[489,-432,-480,490]],"properties":{"codigo":"68081100000000990404","sector":"680811000000009904","pcode":"CO68081","area_m2":70266}},{"type":"Polygon","arcs":[[-454,-435,491,492,493]],"properties":{"codigo":"68081100000000030907","sector":"680811000000000309","pcode":"CO68081","area_m2":113259}},{"type":"Polygon","arcs":[[-321,494,-369,-415,-318,-487,-423,-489]],"properties":{"codigo":"68081100000000070703","sector":"680811000000000707","pcode":"CO68081","area_m2":251481}},{"type":"Polygon","arcs":[[-492,-434,-407,-185,-464,495,496]],"properties":{"codigo":"68081100000000030901","sector":"680811000000000309","pcode":"CO68081","area_m2":128597}},{"type":"Polygon","arcs":[[-183,-180,-406,-412,-129,-385]],"properties":{"codigo":"68081100000000030803","sector":"680811000000000308","pcode":"CO68081","area_m2":94211}},{"type":"Polygon","arcs":[[-416,-367,-449,-75,-459]],"properties":{"codigo":"68081100000000070901","sector":"680811000000000709","pcode":"CO68081","area_m2":157561}},{"type":"Polygon","arcs":[[-79,-60,-443,-249,497,498,-54]],"properties":{"codigo":"68081100000000010802","sector":"680811000000000108","pcode":"CO68081","area_m2":133699}},{"type":"Polygon","arcs":[[499]],"properties":{"codigo":"68081200103023000101","sector":"680812001030230001","pcode":"CO68081","area_m2":42564}},{"type":"Polygon","arcs":[[-213,-225,-255,-252,-386,-413,-241]],"properties":{"codigo":"68081100000000050202","sector":"680811000000000502","pcode":"CO68081","area_m2":98180}},{"type":"Polygon","arcs":[[-476,-374,-384,500]],"properties":{"codigo":"68081100000000040701","sector":"680811000000000407","pcode":"CO68081","area_m2":58746}},{"type":"Polygon","arcs":[[-491,-483,501]],"properties":{"codigo":"68081100000000990403","sector":"680811000000009904","pcode":"CO68081","area_m2":113741}},{"type":"Polygon","arcs":[[-352,-455,-494,502,-197]],"properties":{"codigo":"68081100000000030905","sector":"680811000000000309","pcode":"CO68081","area_m2":72972}},{"type":"Polygon","arcs":[[-199,503,-496,-465,-170,504]],"properties":{"codigo":"68081100000000030501","sector":"680811000000000305","pcode":"CO68081","area_m2":618685}},{"type":"Polygon","arcs":[[-448,-477,-501,-383]],"properties":{"codigo":"68081100000000040601","sector":"680811000000000406","pcode":"CO68081","area_m2":46864}},{"type":"Polygon","arcs":[[-147,-143,-141,-342,-462,505]],"properties":{"codigo":"68081100000000030203","sector":"680811000000000302","pcode":"CO68081","area_m2":59528}},{"type":"Polygon","arcs":[[-428,-354,-418,-411,-439]],"properties":{"codigo":"68081100000000070201","sector":"680811000000000702","pcode":"CO68081","area_m2":144562}},{"type":"Polygon","arcs":[[-503,-493,-497,-504,-198]],"properties":{"codigo":"68081100000000030902","sector":"680811000000000309","pcode":"CO68081","area_m2":172294}},{"type":"Polygon","arcs":[[-467,-481,-430,506,-391,507]],"properties":{"codigo":"68081100000000070107","sector":"680811000000000701","pcode":"CO68081","area_m2":110878}},{"type":"Polygon","arcs":[[-248,508,-478,-346,509,-498]],"properties":{"codigo":"68081100000000990301","sector":"680811000000009903","pcode":"CO68081","area_m2":582057}},{"type":"Polygon","arcs":[[-377,510,-246,-227]],"properties":{"codigo":"68081100000000041101","sector":"680811000000000411","pcode":"CO68081","area_m2":58369}},{"type":"Polygon","arcs":[[-510,-345,-55,-499]],"properties":{"codigo":"68081100000000010701","sector":"680811000000000107","pcode":"CO68081","area_m2":59245}},{"type":"Polygon","arcs":[[511,-471,-220,-381,-204,-364]],"properties":{"codigo":"68081100000000040401","sector":"680811000000000404","pcode":"CO68081","area_m2":226758}},{"type":"MultiPolygon","arcs":[[[512,513,514,515]],[[516]]],"properties":{"codigo":"68081200903001000101","sector":"680812009030010001","pcode":"CO68081","area_m2":755454}},{"type":"MultiPolygon","arcs":[[[-334,517]],[[518]]],"properties":{"codigo":"68081200203002000101","sector":"680812002030020001","pcode":"CO68081","area_m2":100678}},{"type":"Polygon","arcs":[[519]],"properties":{"codigo":"68081200504004000101","sector":"680812005040040001","pcode":"CO68081","area_m2":154227}},{"type":"Polygon","arcs":[[520,521]],"properties":{"codigo":"68081201102006000101","sector":"680812011020060001","pcode":"CO68081","area_m2":172439}},{"type":"Polygon","arcs":[[522,-521]],"properties":{"codigo":"68081201102006000102","sector":"680812011020060001","pcode":"CO68081","area_m2":120455}},{"type":"MultiPolygon","arcs":[[[523]],[[524]]],"properties":{"codigo":"68081200502010000101","sector":"680812005020100001","pcode":"CO68081","area_m2":206481}},{"type":"MultiPolygon","arcs":[[[525]],[[526]],[[527]],[[528]],[[529]],[[530]],[[531]],[[532]],[[533]]],"properties":{"codigo":"68081200903012000101","sector":"680812009030120001","pcode":"CO68081","area_m2":219218}},{"type":"Polygon","arcs":[[534]],"properties":{"codigo":"68081200907013000101","sector":"680812009070130001","pcode":"CO68081","area_m2":58729}},{"type":"MultiPolygon","arcs":[[[535]],[[536]],[[537]]],"properties":{"codigo":"68081201201018000101","sector":"680812012010180001","pcode":"CO68081","area_m2":111138}},{"type":"MultiPolygon","arcs":[[[538]],[[539]],[[540]],[[541]]],"properties":{"codigo":"68081200905020000101","sector":"680812009050200001","pcode":"CO68081","area_m2":61879}},{"type":"MultiPolygon","arcs":[[[542]],[[543]]],"properties":{"codigo":"68081200903027000101","sector":"680812009030270001","pcode":"CO68081","area_m2":418795}},{"type":"Polygon","arcs":[[544]],"properties":{"codigo":"68081200903031000101","sector":"680812009030310001","pcode":"CO68081","area_m2":75445}},{"type":"Polygon","arcs":[[-515,545,-513,546]],"properties":{"codigo":"68081200905034000101","sector":"680812009050340001","pcode":"CO68081","area_m2":317484}}]}},"arcs":[[[3661,6801],[-46,0]],[[3615,6801],[0,23],[0,35]],[[3615,6859],[46,0]],[[3661,6859],[0,-58]],[[3661,6801],[0,-46],[-13,0]],[[3648,6755],[-33,0]],[[3615,6755],[0,46]],[[3661,6859],[37,3]],[[3698,6862],[1,-19],[0,-42]],[[3699,6801],[-38,0]],[[3794,6628],[1,-88],[1,-23]],[[3796,6517],[-52,-9]],[[3744,6508],[0,78]],[[3744,6586],[-1,19]],[[3743,6605],[1,0],[0,22]],[[3744,6627],[50,1]],[[3863,6736],[2,-127],[-5,-12]],[[3860,6597],[-39,-75],[-25,-5]],[[3794,6628],[-1,112]],[[3793,6740],[18,1],[31,0],[9,-5],[12,0]],[[3350,6370],[-8,1],[-21,0],[-20,4],[-7,5],[-8,12]],[[3286,6392],[38,38],[5,1],[-8,15],[21,13],[9,5],[19,3]],[[3370,6467],[0,-25],[5,-40],[-15,-2],[0,-15],[-8,0],[-2,-15]],[[3493,6426],[-8,3],[-12,7],[-16,13],[-15,15]],[[3442,6464],[-12,12],[-27,17],[0,22]],[[3403,6515],[28,4],[64,5]],[[3495,6524],[31,2]],[[3526,6526],[-3,-10],[-30,-90]],[[3367,6508],[3,-41]],[[3286,6392],[-14,23],[-22,44]],[[3250,6459],[38,44],[8,9],[33,-20],[2,1],[7,31]],[[3338,6524],[11,-17],[18,1]],[[3442,6464],[-13,-37],[-1,-3],[19,-6],[-3,-11]],[[3444,6407],[-5,3],[-6,0],[-7,4],[-23,-6],[-8,-3],[-4,-7],[-12,-10],[-4,-5],[-17,-10],[-8,-3]],[[3367,6508],[17,3],[19,4]],[[3563,6441],[0,-24],[-8,-1],[-12,-10],[-13,-16],[-6,-10],[-4,-14],[-23,19],[-7,-15]],[[3490,6370],[-11,8],[-7,9],[-13,11],[-15,9]],[[3493,6426],[17,1],[6,2],[22,11],[6,2],[19,-1]],[[3526,6526],[13,2],[26,2]],[[3565,6530],[-1,-30],[-1,-59]],[[3604,6529],[38,-9]],[[3642,6520],[-2,-80]],[[3640,6440],[-17,3],[-20,0],[-40,-2]],[[3565,6530],[26,1],[13,-2]],[[3716,6504],[4,-64]],[[3720,6440],[-20,-5],[-17,0]],[[3683,6435],[-43,5]],[[3642,6520],[74,-16]],[[3683,6435],[-1,-25],[-23,1],[-1,-30],[-19,1],[-1,-28]],[[3638,6354],[-37,2],[-9,4],[-27,4],[-9,-14],[-1,-9]],[[3555,6341],[-28,1],[-15,10],[-17,16],[-5,2]],[[3720,6413],[-1,-28]],[[3719,6385],[-24,1],[0,-13],[3,0],[0,-11],[9,-1],[0,-11],[12,0]],[[3719,6350],[-1,-35],[2,-16]],[[3720,6299],[-3,-16],[-21,-5],[-14,5],[-6,-28],[-26,17],[-8,14],[-5,2]],[[3637,6288],[-8,5]],[[3629,6293],[2,45],[5,0],[2,16]],[[3720,6440],[0,-27]],[[3829,6347],[-18,-9],[-7,-2],[-31,-2]],[[3773,6334],[-12,0],[-2,15]],[[3759,6349],[-5,41],[-35,-5]],[[3720,6413],[49,12],[25,1],[19,8]],[[3813,6434],[16,-87]],[[3881,6533],[3,-9],[1,-15],[2,0],[1,-75],[-1,-3],[0,-36]],[[3887,6395],[-5,-1],[1,-25],[-4,-6],[-27,47],[-45,82],[-4,-9]],[[3803,6483],[-7,34]],[[3860,6597],[18,12],[0,-31],[1,-37],[2,-8]],[[3652,6596],[43,-4],[49,-6]],[[3744,6508],[-25,-5],[-3,1]],[[3642,6520],[1,52],[1,24],[8,0]],[[3629,6293],[0,-2],[-14,4],[-15,10],[2,9],[-8,6],[-10,0],[1,-5]],[[3585,6315],[-4,-1],[-4,3],[-5,13],[-12,10],[-5,1]],[[3887,6395],[3,-92]],[[3890,6303],[0,-37],[4,-29]],[[3894,6237],[2,-14],[-2,-13],[-2,-31],[-1,-6],[-5,-10]],[[3886,6163],[-6,8],[-5,13],[-8,32],[-3,7],[-19,42]],[[3845,6265],[-4,15],[-6,36],[-6,31]],[[3813,6434],[-10,49]],[[3759,6349],[-4,0],[-36,1]],[[3888,6534],[-2,82],[9,5],[18,11]],[[3913,6632],[1,0],[18,-20],[13,-19],[10,-13]],[[3955,6580],[-12,-21],[-14,-19]],[[3929,6540],[-13,-2]],[[3916,6538],[-28,-4]],[[3546,7200],[-6,-40],[-8,-35]],[[3532,7125],[-29,10],[-35,12]],[[3468,7147],[10,75]],[[3478,7222],[34,-11],[2,13],[17,-5],[-2,-14],[17,-5]],[[3532,7125],[-9,-32]],[[3523,7093],[-18,7],[-9,-1],[-44,-18]],[[3452,7081],[-2,28],[14,6],[4,32]],[[3452,7081],[-23,-10],[-3,3],[-1,8],[5,68],[1,62]],[[3431,7212],[3,7],[7,4],[37,-1]],[[3574,7253],[36,-52],[15,-22],[3,-6],[-4,-17],[-6,-53],[-7,-49]],[[3611,7054],[-52,18],[-37,14],[1,7]],[[3546,7200],[7,58],[3,-1],[4,11],[3,1],[11,-16]],[[3604,6529],[0,23],[-5,36],[2,14],[2,24],[4,0],[1,35]],[[3608,6661],[-3,17]],[[3605,6678],[22,15]],[[3627,6693],[3,-16],[7,-48],[16,5],[0,-6],[-1,-32]],[[3526,6526],[8,25],[16,1],[2,19],[0,39]],[[3552,6610],[3,2],[53,49]],[[3717,6628],[14,-14],[12,-9]],[[3627,6693],[22,16]],[[3649,6709],[8,-8],[12,-21],[48,-52]],[[3615,6755],[0,-15],[-21,1],[0,-10],[-23,0]],[[3571,6731],[-36,-2],[-11,-1]],[[3524,6728],[-1,83],[2,19],[5,11],[8,10],[9,4],[39,4],[29,0]],[[3572,6677],[-39,-15],[-3,0]],[[3530,6662],[-15,-3],[-3,39]],[[3512,6698],[-3,27],[15,3]],[[3571,6731],[1,-54]],[[3648,6755],[1,-46]],[[3605,6678],[-11,0],[-22,-1]],[[3552,6610],[-12,0],[-10,52]],[[3680,6732],[-31,-23]],[[3699,6801],[0,-47],[-19,1],[0,-23]],[[3755,6740],[-39,-2]],[[3716,6738],[-27,-1],[-9,-5]],[[3698,6862],[57,-1]],[[3755,6861],[0,-121]],[[3816,6927],[10,-11],[9,-26],[27,-113],[2,-2]],[[3864,6775],[-2,-5],[1,-34]],[[3793,6740],[-38,0]],[[3755,6861],[6,2],[6,59],[1,13],[5,26],[1,7]],[[3774,6968],[42,-41]],[[3716,6738],[1,-110]],[[3755,6740],[0,-7],[-12,-1],[1,-105]],[[3881,6764],[22,-13],[2,-3]],[[3905,6748],[2,-3],[2,-22]],[[3909,6723],[2,-18],[0,-33]],[[3911,6672],[2,-40]],[[3888,6534],[-7,-1]],[[3864,6775],[17,-11]],[[3803,7125],[0,-1]],[[3803,7124],[1,-8],[0,-22],[-6,-33],[-3,-19],[31,-30]],[[3826,7012],[-5,-45]],[[3821,6967],[-5,-40]],[[3774,6968],[-18,16],[-24,15]],[[3732,6999],[10,40],[7,30],[12,-8],[1,4],[11,-7],[2,15],[-13,0],[0,46]],[[3762,7119],[1,4],[30,2]],[[3793,7125],[10,0]],[[3793,7125],[-3,4],[-27,45],[-5,9]],[[3758,7183],[21,17],[18,15],[2,-5],[1,-38],[1,-9]],[[3801,7163],[1,-20],[1,-18]],[[3811,7189],[3,-3],[-13,-23]],[[3758,7183],[-4,-3]],[[3754,7180],[-8,24],[-17,9],[3,11],[-1,12],[-3,5],[1,7],[-5,13],[8,12],[7,-1],[2,-4],[5,1],[6,8],[7,-4],[5,1],[3,5],[6,0],[3,-5],[9,-7],[4,-18],[3,-8],[-1,-7],[8,-9],[6,5],[4,-5],[-6,-19],[3,-18],[-2,-12],[7,13]],[[4260,6991],[5,-3],[20,-16]],[[4285,6972],[-14,-28],[-30,-59]],[[4241,6885],[-33,43]],[[4208,6928],[12,21]],[[4220,6949],[11,20]],[[4231,6969],[9,16]],[[4240,6985],[9,4],[11,2]],[[3904,7009],[7,-1],[-1,-17],[-4,-24],[21,-8],[1,-3],[8,1],[1,-40]],[[3937,6917],[-14,4],[-4,-14],[0,-5],[-7,4],[-4,-18],[-15,5]],[[3893,6893],[0,3],[-6,1]],[[3887,6897],[0,6]],[[3887,6903],[2,15],[4,23],[10,66],[1,2]],[[4108,6804],[-21,-81]],[[4087,6723],[-26,18]],[[4061,6741],[2,11],[15,57]],[[4078,6809],[18,-5],[12,0]],[[3919,7131],[-9,-62]],[[3910,7069],[-2,-9]],[[3908,7060],[-7,2],[-15,1],[-32,-1],[8,-37],[0,-2],[-33,8],[-3,-19]],[[3803,7124],[37,4],[7,2],[3,13],[11,-3],[17,-5],[5,-4],[13,1],[7,3],[8,7]],[[3911,7142],[1,1]],[[3912,7143],[7,10],[3,-4],[-3,-18]],[[3908,7060],[-7,-49],[3,-2]],[[3887,6903],[-8,3],[6,40],[-28,10],[-36,11]],[[4337,6924],[8,-7],[12,-7]],[[4357,6910],[-4,-14],[-7,-18],[-7,-28],[-6,-18],[-7,-10],[-10,2],[-5,-9]],[[4311,6815],[-12,-6],[-11,15]],[[4288,6824],[-32,40]],[[4256,6864],[17,32],[29,55],[1,4]],[[4303,6955],[27,-26],[7,-5]],[[3981,6919],[-5,-29],[-12,-39]],[[3964,6851],[-8,-4]],[[3956,6847],[-6,7],[-11,-2],[0,15],[-19,-3],[-15,5],[-13,6],[1,18]],[[3937,6917],[16,9],[7,0],[21,-7]],[[3956,6847],[-16,-10],[-15,-7],[-7,2],[-16,5],[-8,9],[-8,14],[-1,14]],[[3885,6874],[2,23]],[[3998,6954],[-2,0],[-10,-21]],[[3986,6933],[-5,-14]],[[3910,7069],[6,-2],[14,4],[6,5],[0,-12],[-2,-15],[0,-6],[8,-5],[8,-8],[8,-13],[6,-5],[-4,-6],[15,-19],[5,-9],[18,-24]],[[3967,6656],[19,-37]],[[3986,6619],[-9,-23]],[[3977,6596],[-12,-26]],[[3965,6570],[-10,10]],[[3911,6672],[13,4]],[[3924,6676],[2,-12],[11,-13],[8,2],[6,-4],[10,0],[6,7]],[[4113,6706],[-26,17]],[[4108,6804],[10,0],[6,-3],[8,-15]],[[4132,6786],[-6,-25],[0,-3],[-8,-33],[-5,-19]],[[4117,7210],[-4,1],[-6,-8],[-2,4],[-15,11]],[[4090,7218],[-10,5],[3,19],[3,5],[-4,6],[-14,7],[-13,-12],[-3,-1],[-14,2]],[[4038,7249],[6,17],[9,18],[18,28],[3,8]],[[4074,7320],[15,-10],[14,-4],[16,-6],[10,-8],[12,-5]],[[4141,7287],[-1,-19],[-8,-24],[0,-17],[-7,-14],[-8,-3]],[[3886,6135],[1,-32],[0,-5]],[[3887,6098],[-6,4],[-8,-2],[-12,8],[-7,-7],[-4,3],[-2,8],[-12,4],[-2,5],[-4,-1],[-2,9],[4,13],[3,2],[10,-8],[1,-5],[12,-7],[2,6],[7,-4],[1,3],[18,6]],[[4091,5912],[-6,-13],[-3,-7],[0,-15],[-3,-5],[-5,-2],[-9,0],[-5,-4],[-7,-13],[-4,-13]],[[4049,5840],[-11,18],[-4,6],[-85,84],[4,10],[-4,13]],[[3949,5971],[4,11],[5,-7],[-1,-3],[32,-32],[10,26],[4,9],[16,22]],[[4019,5997],[10,-13],[38,-38],[9,-11],[9,-13],[6,-10]],[[4113,6706],[27,-18]],[[4140,6688],[-2,-6],[-15,-30],[-8,-14],[-13,-18]],[[4102,6620],[-7,-10]],[[4095,6610],[-20,27]],[[4075,6637],[-20,27],[-12,9]],[[4043,6673],[5,18],[13,50]],[[4099,5745],[0,-5],[-5,0],[-7,-6],[-3,-19],[3,-9],[-10,-21],[5,-10],[-5,-6],[2,-2],[-12,0],[-13,-12],[-20,-7],[-6,-6],[-1,-5]],[[4027,5637],[-8,18],[-3,13]],[[4016,5668],[18,8],[7,8],[8,-7],[4,7],[-5,4],[-1,8],[-3,4],[2,10],[-13,12],[2,5],[-5,5],[-2,7],[2,5],[-5,7],[2,11],[-8,6],[5,20],[-6,12]],[[4018,5800],[0,0]],[[4018,5800],[19,26]],[[4037,5826],[6,-11],[5,10],[2,11]],[[4050,5836],[34,-63],[0,-7],[10,3],[4,-6],[1,-18]],[[4256,6864],[-15,21]],[[4285,6972],[18,-17]],[[4075,6637],[-28,-1],[-42,-3],[-13,0]],[[3992,6633],[21,61]],[[4013,6694],[3,7],[5,-5],[0,-18],[14,1],[8,-6]],[[3849,5876],[-10,-45],[14,-7],[-6,-27],[-10,5]],[[3837,5802],[-1,8],[-8,3],[-2,-15],[-20,6],[1,12]],[[3807,5816],[-2,7],[-6,1],[-5,12],[-2,-4],[-1,-16],[-3,0],[2,17],[-13,5],[-1,2],[3,27],[1,5],[7,-2],[5,2],[2,-8],[1,12],[9,-2],[3,27]],[[3807,5901],[20,-7],[-1,-13],[23,-5]],[[3873,5981],[-3,-14],[-7,-34]],[[3863,5933],[-14,-57]],[[3807,5901],[-3,1],[1,7],[10,-3],[2,16],[-9,3],[1,37]],[[3809,5962],[2,23],[-1,6],[1,12],[12,-3],[0,-2],[15,-4],[-1,-15],[2,6],[9,4],[25,-8]],[[3883,6045],[-1,-20],[-5,-23]],[[3877,6002],[-4,-21]],[[3809,5962],[-3,1],[0,18],[-1,4],[-5,1],[-10,7],[-10,15],[3,3],[-5,6],[2,11],[18,-9],[1,8],[8,-4],[-2,-15],[17,-3],[4,2],[1,12],[12,-4],[2,22],[4,-1],[1,11],[-1,2],[2,14],[2,6],[6,4],[2,-1],[3,-11],[3,-6],[4,-1],[2,6],[4,-6],[10,-9]],[[4132,6786],[17,-2]],[[4149,6784],[0,-15]],[[4149,6769],[-3,-48],[-3,-22],[-3,-11]],[[4016,5668],[-1,11],[-5,17],[-15,10],[12,50],[11,44]],[[4061,6741],[-15,10],[-6,8],[-8,2],[-6,6],[-4,11],[-2,8]],[[4020,6786],[-8,41],[-4,13],[-7,14]],[[4001,6854],[21,6],[11,6],[7,-23],[10,5],[8,-4],[6,-32],[7,1],[7,-4]],[[3886,6163],[0,-28]],[[3887,6098],[-4,-53]],[[3807,5816],[-3,1],[-3,-13],[2,-6],[4,-1],[11,-9],[-5,-19],[-6,-13],[-10,-8],[-14,2],[-4,-5]],[[3779,5745],[-8,16],[-15,24],[-5,14],[-6,33],[-3,9],[-11,23],[-8,23],[-12,22]],[[3711,5909],[8,11],[4,-3],[6,1],[1,5],[-3,15],[-2,7],[1,17],[2,17],[5,17],[0,21],[-6,14],[-5,3],[-21,2],[-5,3],[-9,17],[-3,11],[-1,9],[5,16],[7,14],[4,2],[13,-5],[10,1],[13,7],[8,10],[3,7],[8,5],[4,9],[-4,12],[14,20],[2,6],[-2,14],[-6,3]],[[3762,6197],[-3,17],[4,24],[10,7],[4,-1],[11,1],[14,0],[7,-3]],[[3809,6242],[11,-9],[3,1],[6,12],[9,13],[7,6]],[[3924,6676],[31,11],[4,3],[8,13]],[[3967,6703],[6,15],[1,8],[6,5],[17,-38]],[[3997,6693],[-30,-37]],[[3992,6633],[-6,-14]],[[3997,6693],[10,12],[6,-11]],[[4095,6610],[-10,-15]],[[4085,6595],[-41,-3],[-45,-3],[-22,7]],[[4085,6595],[-13,-28],[-8,-10],[-16,-10]],[[4048,6547],[-25,-9],[-8,-1],[-16,6],[-19,11],[-15,16]],[[4182,6627],[-17,-8],[-11,0],[-23,4],[-8,-6]],[[4123,6617],[-18,-6],[-3,9]],[[4149,6769],[5,-2],[2,-10],[10,-49],[2,-12]],[[4168,6696],[7,-35],[7,-34]],[[4123,6617],[4,-35],[3,-15],[-29,-26]],[[4101,6541],[-6,-7],[-10,-3],[-5,3],[-11,12],[-7,4],[-14,-3]],[[4101,6541],[4,-15],[1,-13]],[[4106,6513],[-1,-1]],[[4105,6512],[-9,-11],[-8,-6],[-11,0],[-27,2]],[[4050,6497],[-11,3],[-15,6],[-48,17],[-42,16],[-5,1]],[[4076,6436],[-2,22],[-8,28],[-17,-11]],[[4049,6475],[1,22]],[[4105,6512],[1,-7],[1,-24],[-2,-9],[-3,-5],[-4,-14],[-6,-16],[15,-20],[-3,-3],[-8,4],[-8,1],[-1,3],[-13,-10],[-1,5],[8,8],[-1,13],[-4,-2]],[[4334,6961],[3,-37]],[[4260,6991],[6,13],[10,-3],[6,-3],[0,-4],[9,-8],[-1,-2],[12,-9],[2,3],[6,-6],[1,3],[-6,5],[-3,-1],[-7,6],[-4,9],[-6,9],[2,3],[47,-45]],[[4288,6824],[-7,-14],[-7,4],[-1,-5],[-1,-15],[-34,-66],[-9,-19],[-40,-76],[-6,-11]],[[4183,6622],[-1,5]],[[4168,6696],[18,33],[21,42],[23,42],[26,51]],[[4314,7110],[-1,-13],[-2,-6],[1,-14],[-3,-7],[-8,-6],[0,-15],[3,-6],[8,-1],[6,4],[16,2],[-1,-13]],[[4333,7035],[-5,-10],[-1,-8]],[[4327,7017],[4,-13],[3,-43]],[[4240,6985],[-2,8],[-7,13],[-3,22],[-3,35],[1,8]],[[4226,7071],[13,17],[7,7],[8,0],[15,-10],[5,2],[2,6],[1,15]],[[4277,7108],[10,2],[10,6],[9,3],[8,-9]],[[4375,6592],[-12,-11],[-15,-3],[-4,-7],[-4,2],[-6,-2],[-8,2],[-7,-4],[-4,6],[-15,-5],[3,8],[4,0],[-3,10],[3,8],[18,12],[11,10]],[[4336,6618],[4,4],[3,15],[2,4],[-4,21],[13,-11],[5,19],[15,-12],[4,-2],[4,-27],[-15,-4],[2,-20],[6,-13]],[[4472,6952],[-1,-23],[-1,-22],[-22,-24],[2,-8],[-2,-8],[5,-11],[1,-12],[0,-11],[-3,-11],[17,3],[6,5],[8,12]],[[4482,6842],[2,-7],[-1,-11],[8,-4],[1,-13],[35,-30],[-4,-14],[-5,-14]],[[4518,6749],[-10,11],[-45,33],[-11,13],[-13,19]],[[4439,6825],[-20,29],[-34,41],[-8,6],[-20,9]],[[4327,7017],[22,-9],[5,13],[11,13],[6,3],[15,-14]],[[4386,7023],[-1,-6],[4,-6],[14,-12],[12,-4],[6,-5],[5,-2],[3,11],[3,-4],[0,-13],[1,-7],[4,-1],[13,-16],[4,-3],[1,4],[12,-4],[5,4],[0,-7]],[[4472,6952],[7,1],[-1,-26],[7,4],[1,-3],[9,18],[5,6],[6,14],[10,5],[0,-11],[-2,-16],[1,-10],[-14,-10],[0,-8],[5,-8],[-10,-11],[-3,-13],[-4,-30],[-7,-12]],[[4149,6784],[2,27],[7,27],[12,22],[17,29],[21,39]],[[4311,6815],[3,-2],[14,-17],[3,-6],[-4,-8],[-7,4],[-3,-18],[4,-2],[-2,-11],[2,-13],[2,-7],[2,-15]],[[4325,6720],[1,-32],[6,-4],[0,-11],[8,-27],[-2,-13],[1,-8],[-3,-7]],[[4375,6592],[2,-4]],[[4377,6588],[-6,-6],[-19,-26],[-12,-7],[-13,-1],[-21,1],[-29,0]],[[4277,6549],[-10,23],[2,6],[6,4],[-3,22],[-8,22],[-9,29],[5,18],[0,11],[-5,4]],[[4255,6688],[-8,4],[-11,1],[-5,-4],[-5,-10],[-15,-58]],[[4211,6621],[-4,-4],[-22,-11]],[[4185,6606],[-2,16]],[[4254,6549],[-9,-5]],[[4245,6544],[-6,6],[-12,25],[-14,43],[-2,3]],[[4255,6688],[-4,-13],[3,-3],[-4,-3],[-4,-10],[-3,-4],[-4,2],[-5,-11],[4,-20],[-3,-8],[6,-33],[-1,-10],[1,-10],[7,-5],[5,0],[1,-11]],[[4277,6549],[-23,0]],[[4277,6549],[12,-23],[0,-6],[-2,-27],[3,-14]],[[4290,6479],[-2,-16]],[[4288,6463],[-17,1],[-11,24],[-8,-1],[1,-7],[5,-16],[-12,-7],[-7,11],[-9,-7],[-8,9],[-5,4],[-9,-4]],[[4208,6470],[-17,-2],[-8,-4],[-4,-6],[-2,0],[-8,10],[-10,-8],[-4,-10],[-3,-1]],[[4152,6449],[-10,21],[1,8],[4,11],[8,17]],[[4155,6506],[8,-14],[10,-4],[8,2],[9,5],[24,11],[6,4],[6,7],[3,6],[16,21]],[[4321,6074],[-8,19],[-38,76]],[[4275,6169],[8,13],[21,28],[19,-38]],[[4323,6172],[6,-14]],[[4329,6158],[-6,-27],[-4,-24],[-1,-8]],[[4318,6099],[3,-25]],[[4148,6043],[1,-16],[7,-1],[-3,-22]],[[4153,6004],[-6,-6],[-9,-28],[-3,-8],[-6,-2]],[[4129,5960],[1,21],[0,30],[0,14],[-2,8],[-5,10],[18,7],[1,-9],[6,2]],[[4264,5818],[-7,-20],[-5,-4],[-7,-18],[-1,-10],[-4,3],[-4,-7],[-3,1]],[[4233,5763],[0,9],[-5,22],[-16,24],[-3,3],[-14,32],[-1,19],[12,5]],[[4206,5877],[6,0],[7,3],[6,-2],[19,8],[11,-8],[1,-18],[1,-33],[7,-9]],[[3466,7330],[-13,-39],[-3,-19],[-14,-35],[-5,-16],[0,-9]],[[3611,7054],[15,-5],[34,-14]],[[3660,7035],[15,-6],[4,-1],[20,-8]],[[3699,7020],[-14,-51],[0,-13],[-3,0],[-2,8],[-6,4],[-9,10],[-5,-1],[-5,-9],[-4,0],[-20,-8],[-5,-7],[3,-8],[-13,4],[-6,5],[-11,1],[-5,-2],[-14,8],[-3,11],[2,5],[-21,44],[-34,-21],[-10,-11],[-25,-29],[-28,-31],[-28,1],[-35,2],[-6,-2],[-15,-1],[-17,-4],[-25,-12],[-24,-13],[-11,-15],[15,-26],[5,-12],[9,-50],[6,-10],[8,-6],[8,-8],[5,-20],[11,-43],[-3,-34],[-6,-66],[-1,-24],[-15,-42],[-4,-20]],[[3250,6459],[-8,14],[-77,114],[-38,43],[-20,32],[-14,31],[-26,63],[-48,128],[-27,54],[-12,13],[-8,24],[-4,14],[-6,18],[-10,24],[-20,33],[-3,5],[55,81],[6,11],[-14,24],[13,21],[12,19],[6,20],[2,13],[28,5],[68,15],[10,1],[12,-2],[22,-12],[6,-8],[13,-27],[5,-13],[7,1],[13,8],[4,-1],[38,-22],[11,-9],[7,-5],[31,-12],[53,45],[33,29],[22,19],[25,21],[46,39],[3,0]],[[4689,5128],[1,-6],[-8,-25],[18,7],[9,1],[24,1],[65,4],[13,1],[13,1],[-29,60],[-11,22]],[[4784,5194],[4,4],[36,-70],[13,-26],[10,2],[6,-4],[2,-6],[13,-1],[8,-10],[-6,-29],[-14,5],[-21,8],[-22,0],[-23,-3],[-51,-4],[-93,-7],[24,64],[1,-1],[18,48],[25,65],[1,8],[3,-2],[2,-7],[-4,-6],[0,-7],[5,-5],[-9,-15],[4,-5],[-4,-15],[-6,-11],[-6,-4],[-4,3],[-4,-5],[0,-8],[-3,-7],[0,-15]],[[5194,3775],[5,-1],[11,-21],[-1,-1],[9,-22],[7,0],[-5,-15],[-1,-10],[-6,-14],[-10,-16],[-4,-4],[-9,3],[-16,0],[2,20],[-6,1],[0,23],[9,-1],[2,13],[-13,2],[-1,-1],[-13,1],[1,11],[13,1],[8,-4],[1,3],[5,-2],[2,10],[-8,-6],[-6,1],[-9,8],[4,11],[9,-7],[4,3],[-15,16],[0,6],[8,11],[11,4],[8,-19],[4,-4]],[[5236,3760],[-9,-2],[-1,13],[-25,4],[28,40],[-2,-25],[2,-19],[7,-11]],[[5137,3830],[-1,-1],[-3,32],[7,-4],[-2,-9],[2,-14],[-3,-4]],[[5165,3829],[-1,-8],[0,-17],[1,-10],[-5,0],[-4,-9],[-10,2],[-3,14],[-1,12],[-2,6],[3,6],[4,-4],[6,9],[3,8],[-1,11],[-7,21],[0,7],[6,3],[7,-9],[0,-6],[4,-36]],[[3861,9919],[1,-14],[-7,-16],[-2,-7],[4,-4],[7,-13],[9,-5],[9,-15],[2,0],[0,18],[10,-6],[4,-30],[4,10],[4,16],[14,23],[6,0]],[[3926,9876],[1,-13],[-6,-4],[-3,-7],[0,-6],[-4,-3],[0,-5],[5,-7],[1,-11],[-3,-13],[-7,-19],[15,-10],[13,35],[5,-4],[2,5],[11,-12],[5,-3],[-4,-3],[3,-6],[-1,-11],[3,-10],[8,2],[11,-4],[1,-4],[-14,-31],[-2,-21],[-6,0],[-1,14],[8,23],[-3,4],[-10,-6],[-5,-16],[-4,12],[-7,6],[-2,-4],[4,-9],[-2,-8],[-11,-11],[-6,5],[-3,-1],[1,10],[-3,0],[-3,-11],[-5,0],[-2,8],[-5,-1],[-5,-11],[-5,3],[-1,11],[4,0],[5,5],[13,8],[5,7],[1,10],[-5,7],[2,13],[-11,7],[-3,-4],[-5,-14],[-4,9],[2,15],[-2,16],[0,9],[2,9],[-6,8],[-6,-6],[-5,0],[-13,4],[-4,-1],[-2,4],[-8,-5],[3,6],[-7,0],[-8,5],[-9,-6],[-13,23],[-2,14],[-3,5],[1,9],[7,17],[7,21],[3,5],[10,3],[4,-1],[-6,-19],[0,-5],[15,12],[9,0]],[[4689,5128],[6,10],[7,4],[2,4],[6,-1],[0,4],[5,6],[10,6],[-8,4],[-1,5],[25,2],[0,-5],[24,3],[9,-2],[1,6],[-6,3],[-8,0],[-2,7],[-4,-1],[0,10],[2,9],[5,-3],[3,5],[8,-5],[7,-6],[4,1]],[[5559,3056],[1,-7],[7,2],[2,-7],[6,-8],[3,-21],[0,-10],[-10,0],[-9,6],[0,9],[-4,6],[-3,-1],[-14,-28],[-2,-11],[11,-14],[-4,-6],[3,-4],[-3,-5],[-15,15],[-3,0],[-14,-14],[1,-8],[5,3],[3,-7],[3,0],[7,-13],[8,-8],[4,-8],[1,-21],[4,-2],[0,28],[-8,11],[5,11],[9,6],[4,-2],[13,-10],[7,1],[2,4],[7,19],[9,-6],[-13,-26],[1,-10],[-14,-14],[2,-7],[-6,-9],[3,-14],[-7,-3],[3,-14],[6,9],[3,-5],[3,4],[-3,4],[0,9],[5,12],[11,8],[3,-12],[3,-3],[-9,-2],[-1,-10],[-6,5],[-1,-9],[6,-9],[2,-30],[-14,-2],[1,-20],[-3,-1],[-3,15],[-8,-18],[-5,-15],[-8,-18],[-50,49],[-18,18],[-5,3],[7,15],[-2,3],[7,10],[1,-7],[8,-9],[12,7],[0,-14],[-6,-1],[-4,-6],[31,-34],[2,2],[9,2],[-3,5],[2,9],[3,-3],[3,3],[-2,5],[5,3],[2,-7],[4,3],[1,8],[0,16],[4,6],[-13,-6],[-6,0],[-3,4],[-1,17],[-12,-6],[-6,0],[-3,18],[-7,17],[-8,13],[4,5],[6,-10],[6,-12],[3,-16],[11,13],[-4,8],[5,6],[-8,14],[-2,-3],[-4,2],[-11,14],[-5,18],[1,10],[3,2],[7,-1],[1,9],[-2,2],[-4,15],[2,10],[-2,7],[2,4],[3,-4],[8,13],[3,-2],[7,19],[5,4],[5,-4],[6,16],[5,20],[0,32],[1,0],[9,-49]],[[5496,3177],[-3,-17],[4,2],[1,-7],[-2,-3],[9,-8],[8,-3],[2,8],[6,-5],[-6,-21],[-6,-1],[-27,23],[5,9],[0,4],[-10,-6],[-2,12],[13,1],[3,14],[5,-2]],[[5500,3188],[-1,-4],[-6,0],[1,9],[-4,6],[6,10],[3,-5],[1,-16]],[[3732,6999],[-33,21]],[[3660,7035],[5,37],[27,-11],[-3,-14],[25,-13],[5,19],[-16,9],[4,19],[3,-2],[2,8],[-4,4],[5,23],[23,3]],[[3736,7117],[26,2]],[[4049,6475],[-19,-14],[-6,-9],[-9,-10],[-8,-22],[-4,-8],[-1,-37]],[[4002,6375],[-9,5],[-13,11],[-5,20],[-6,7],[8,15],[-16,25],[-20,6],[-21,-9],[-6,4],[3,45],[-1,34]],[[3637,6288],[0,-16],[9,-11],[13,-7],[-1,-5],[-5,2]],[[3653,6251],[-3,0],[-3,5],[-5,2],[-4,7],[-1,-5],[-9,2],[0,-9],[-14,-3],[4,-34],[1,-30],[-2,-9],[-2,-23],[3,-28],[11,0],[5,-1],[0,-10],[-4,-2],[-16,1],[3,-11],[4,-5]],[[3621,6098],[-3,-6],[-6,8],[-6,16],[1,26],[-27,2],[0,-6]],[[3580,6138],[-5,0],[-6,6],[6,17],[5,10]],[[3580,6171],[2,8],[7,-1],[3,17],[-2,24],[-5,40],[-2,5],[0,16],[-2,13],[-2,7],[1,12],[6,1],[-1,2]],[[4257,7328],[1,-13],[1,-25],[-1,-15],[1,-5],[11,-6],[2,-8],[0,-22],[3,-24],[1,-29],[-3,-34],[0,-8],[4,-31]],[[4226,7071],[-11,13],[-5,9],[-6,7],[-10,2],[-6,-2],[-5,2],[-18,18],[-11,15]],[[4154,7135],[-22,12],[-11,4],[-11,4],[0,9],[11,-2],[-2,19],[11,8],[-13,18],[0,3]],[[4141,7287],[1,7],[7,18],[6,5],[4,-2],[11,-2],[8,1],[5,-3],[5,3],[22,4],[15,7],[22,4],[8,3],[2,-4]],[[4270,6373],[-4,-9],[-8,1],[-3,-5],[2,-26],[-6,-16],[0,-8]],[[4251,6310],[-2,-16],[6,-5],[7,0],[7,11],[6,0],[8,4],[8,1],[8,-10],[1,-6],[9,-33],[-1,-13],[5,-5],[9,-20],[4,-13],[0,-7],[4,-3],[-3,-9],[0,-8],[-4,-6]],[[4275,6169],[-3,5],[-4,0],[-33,-10]],[[4235,6164],[-7,19],[-5,7],[-3,10],[0,7],[3,12],[1,8],[-1,13],[-7,14],[-9,9],[-5,8],[-5,12],[1,6],[4,8]],[[4202,6297],[12,10],[18,8],[6,9],[3,13],[0,16]],[[4241,6353],[0,26],[1,7],[9,-2],[13,-1],[3,-11],[3,1]],[[4029,5630],[8,-16],[4,-7],[-9,-10],[1,-7]],[[4033,5590],[-18,-20],[-7,-24],[-5,7],[2,10],[-2,5],[2,7],[-5,3],[0,9],[-3,5],[1,6],[-7,4],[-8,11],[-3,-3],[0,6],[-5,8],[-9,3],[-19,8],[-1,4],[-3,-7],[-8,4],[-3,7],[-5,7],[8,15]],[[3935,5665],[15,-18],[2,1],[9,-7],[7,-3],[0,-6],[11,-3],[3,7],[8,-8],[-1,-2],[8,-10],[13,-6],[3,-5],[5,4],[-4,9],[4,4],[2,-3],[9,11]],[[4204,5709],[-2,-8]],[[4202,5701],[-44,53],[-15,26],[-10,26],[-30,81],[-12,25]],[[4019,5997],[-5,7],[-10,18],[-16,38]],[[3988,6060],[5,6],[25,54],[-7,8],[6,21]],[[4017,6149],[7,-6],[9,-10],[11,-20],[8,-24],[3,-1]],[[4055,6088],[11,-9],[3,-5],[1,-11],[10,-17],[2,-15],[4,-7],[9,-7],[6,-15],[4,-24],[11,-14]],[[4116,5964],[-1,-11],[2,-10],[6,-11],[8,-17],[6,-7],[2,-6],[7,-13],[-1,-13],[2,-13],[3,-8],[8,-7],[13,-3],[5,-19],[0,-15],[14,2],[9,-3],[5,-11],[0,-13],[-4,-5],[-2,-8],[-6,3],[-5,-7],[0,-7],[7,-7],[-1,-11],[-5,-4],[-1,-9],[17,-22]],[[3588,7275],[-14,-22]],[[3466,7330],[2,9],[5,5],[-4,11],[-3,18],[10,1],[10,4],[13,-1],[3,-3],[3,5],[7,-4],[16,-1],[17,-2],[13,-5],[15,5],[9,8],[6,9],[2,-3],[1,-17],[-2,-22],[-5,-16],[1,-6],[11,22],[7,-9],[-12,-24],[4,-8],[2,-9],[-9,-22]],[[4257,7328],[3,6],[21,-4],[12,-3],[32,-8]],[[4325,7319],[2,-13],[3,-3],[7,1],[6,-16],[-1,-8],[3,-10],[6,-4],[1,-6],[-3,-15],[7,-14],[4,-24],[0,-17],[-9,-6],[-9,-2],[-1,-11],[-16,-13],[-7,-14],[-4,0],[1,-13],[5,-15],[-6,-6]],[[3890,5916],[3,-5],[-10,-26],[7,-9],[7,21],[5,-5],[-1,7],[4,9],[5,-1],[-2,-7],[7,-14],[2,0],[4,-10],[2,-19],[-2,-3],[-5,-1],[-8,-7],[-2,-10],[-5,-2],[-1,-9],[-3,-5],[-5,-2],[-2,-5],[7,-4],[2,-6],[-3,-5],[3,-7],[9,-7],[0,-13],[-7,-5],[-3,-7],[3,-10],[-2,-7],[-9,-5],[-3,-9],[3,-5]],[[3890,5723],[1,-7],[-5,-9],[0,-5],[7,-4],[3,-14],[7,-4],[4,1],[4,-6]],[[3911,5675],[-35,4],[-19,1],[-22,-1],[-9,2],[3,6],[0,9]],[[3829,5696],[4,6],[-6,5],[1,11],[7,0],[0,-5],[8,1],[0,3],[8,2],[0,17],[-4,0],[-6,5],[0,5],[-5,0],[-1,-7],[-4,2],[0,6],[-3,-5],[-7,-6],[-2,20],[7,13],[5,-3],[3,7],[-2,4],[5,25]],[[3863,5933],[3,-12],[6,-13],[13,8],[5,0]],[[3949,5971],[-16,10],[-18,2],[-15,6],[-23,13]],[[3887,6098],[3,-3],[-1,-9],[1,-6],[6,-6],[5,-13],[9,2],[5,-7],[6,4],[3,-4],[6,2],[1,-6],[8,7],[9,2],[0,18],[-1,36],[-4,6],[5,8],[14,-19],[10,-14],[12,-25],[4,-11]],[[4049,5840],[1,-4]],[[4037,5826],[5,8],[-5,5],[-9,11],[-4,4],[-11,12],[-10,7],[-13,15],[-4,2],[-14,15],[-6,3],[-8,8]],[[3958,5916],[-3,4],[-14,9],[-4,-3],[3,-10],[-11,8],[-1,-4],[-15,4],[-3,3],[-4,-5],[-7,7],[-3,-8]],[[3896,5921],[-6,-5]],[[3885,6874],[-3,0],[-1,-17],[0,-27],[-3,-2],[1,-28],[2,-20],[0,-16]],[[3958,6721],[9,-18]],[[3909,6723],[4,-1],[9,-8],[6,-17],[8,3],[5,11],[14,4],[3,6]],[[4155,6506],[-2,4]],[[4153,6510],[3,1],[4,-5],[8,6],[4,20],[-3,9],[5,5],[-3,3],[-8,47],[22,10]],[[4447,6480],[15,-18]],[[4462,6462],[-3,-6],[-3,-13],[1,-14],[8,-12],[-1,-28],[-1,-9],[-5,-9],[-9,-14],[-2,-9],[3,-1],[8,3],[4,-1],[4,-12],[-1,-9]],[[4465,6328],[-16,-14],[-4,-5],[-12,-11]],[[4433,6298],[-3,10],[-1,11],[-1,41],[-2,24],[-1,15],[1,16],[4,23],[6,30],[2,15],[2,-13],[3,-1],[4,11]],[[4364,6055],[-12,1],[0,5],[-6,1]],[[4346,6062],[-4,11],[3,32],[2,7],[3,-1],[-1,-10],[7,-6],[0,21],[-4,-2],[-2,4],[0,7],[-4,9],[9,14],[1,12],[10,15],[-7,-2],[-5,-7],[-5,13],[4,12],[4,30],[11,10],[8,-22],[2,-20],[-7,-18],[4,-16],[6,-12],[5,-25],[-2,-1],[-2,-11],[4,-6],[-4,-7],[-4,3],[-5,-11],[-8,-17],[2,-11],[-3,-2]],[[3580,6138],[-6,-3],[-3,-5]],[[3571,6130],[-7,9],[-13,10],[-14,9],[-18,7],[-17,13],[7,10],[23,37],[6,-8],[-4,-21],[18,-14],[10,-16],[3,-3],[3,4],[12,4]],[[4606,6704],[1,-7],[-3,-21],[-1,-11],[3,-9],[8,-25],[-8,-18],[-3,-11],[-17,15],[-4,7],[-4,2],[-8,-4],[-9,-2],[1,18],[5,28],[4,8],[6,28],[14,-1],[11,3],[4,0]],[[3512,6698],[-32,-7],[-7,0]],[[3473,6691],[-3,6],[4,9],[10,-1],[2,-3],[7,2],[2,6],[7,5],[1,13],[5,7],[5,3],[-11,2],[-3,-11],[-3,-6],[-7,-3],[-1,6],[2,7],[6,8],[7,28],[4,2],[2,15],[4,4],[-1,6],[-5,0],[-3,-6],[-4,-11],[-5,-5],[0,-7],[-2,-5],[0,-6],[-8,-8],[-7,-20],[-8,-2],[-7,9],[1,9],[-5,-7],[5,-12],[-13,-22],[-8,1],[0,-3],[-6,1],[-4,-2],[-7,8],[2,8],[-4,13],[3,21],[5,3],[-1,13],[2,7],[-5,-1],[-3,7],[-5,5],[3,3],[4,-6],[11,0],[5,4],[-3,8],[3,5],[8,1],[0,2],[13,9],[2,7],[5,1],[7,13],[3,2],[-1,5],[4,26],[3,4],[8,-7],[2,3],[5,-3],[1,7],[-8,3],[-1,4],[10,16],[2,-3],[6,15],[3,3],[1,7],[6,1],[5,13],[3,1],[5,13],[1,10],[9,4],[4,-9],[1,-13],[5,-9],[8,-3],[5,-9],[4,2],[5,-2],[9,4],[7,-2],[2,-10],[12,-1],[6,-4],[0,-11],[4,-3],[6,7],[5,-3],[3,11],[-2,1],[16,10],[-1,10],[9,10],[4,-3],[-1,-7],[2,-6],[3,3],[-3,12],[11,-6],[10,6],[6,6],[2,-9],[7,-8],[2,-6],[2,-51]],[[4295,6393],[0,9],[2,9],[-10,0],[1,52]],[[4290,6479],[9,-4],[45,-4]],[[4344,6471],[-1,-46],[-1,-25],[-16,6],[-2,-11],[-11,4],[-18,-6]],[[3473,6691],[-1,-10],[3,-8],[7,-4],[6,2],[-8,-5],[-4,-5],[-4,2],[-1,6],[-9,12],[-6,-2],[-5,-9],[-8,0],[-4,-4],[1,-10],[-5,-4],[-8,11],[-6,-3],[-1,-3],[3,-12],[-5,5],[-4,0],[-1,-13],[-7,7],[-1,-8],[4,-5],[0,-8],[-4,10],[-7,5],[-2,10],[3,5],[-4,7],[-5,-8],[0,-6],[-3,0],[-4,-7],[3,-14],[7,-6],[3,-12],[4,-7],[4,0],[4,-16],[10,-4],[5,-8],[9,0],[5,-6],[6,-2],[8,-5],[3,-5],[4,0],[4,6],[3,-1],[4,9],[6,-1],[7,-7],[3,0],[2,7],[4,2],[4,-4],[-1,-12],[1,-10],[0,-19]],[[4001,6854],[-40,-11]],[[3961,6843],[3,8]],[[3986,6933],[2,0],[12,18],[9,7],[15,19],[8,4],[0,8],[13,3]],[[4045,6992],[0,-11],[45,0],[18,2],[2,6],[17,5],[2,-8],[23,2],[3,20],[13,-6],[0,-14],[7,0],[4,-6],[2,-15],[27,0],[0,-18],[12,0]],[[4294,6393],[1,0]],[[4344,6471],[6,-4],[4,-6],[16,-35]],[[4370,6426],[-2,-16],[-7,-36],[-5,8],[-4,-3],[-11,7],[0,2],[-8,3],[0,-9],[-2,-3],[-6,2],[1,4],[-12,5],[-3,4],[-3,-5],[-4,2],[-6,-6],[-4,8]],[[3905,6748],[22,31],[21,26],[6,12],[7,26]],[[4020,6786],[-4,-3],[1,-5],[-7,-3],[-2,-4],[0,-10],[-8,-1],[-16,-14],[-5,1],[-6,-14],[-11,-7],[-4,-5]],[[4136,6118],[8,-16],[5,-4],[-2,-10],[5,-4],[3,-10],[-6,-2],[1,-9],[-2,-9],[0,-11]],[[4129,5960],[-4,0],[-9,4]],[[4055,6088],[12,29]],[[4067,6117],[2,-5],[12,-9],[1,-4],[29,20],[3,6],[10,-3],[3,1],[6,-7],[3,2]],[[4294,6393],[-5,-1],[-5,-4],[-8,-1],[-1,-12],[-5,-2]],[[4241,6353],[-8,4],[-10,-5],[0,-4],[-9,-5],[-2,13],[9,6],[1,8],[-3,3],[8,5],[-7,2],[-22,0],[0,8],[3,0],[1,11],[10,4],[0,8],[-6,0],[0,10],[-2,10],[13,0],[-4,13],[-5,26]],[[4318,6099],[16,-1],[-2,-5],[-2,-33],[1,-3],[16,-1],[-1,6]],[[4364,6055],[-1,-25],[2,0],[3,-7],[-1,-9],[8,-5],[11,0],[4,2],[7,-7],[0,-22],[-4,3],[-17,-2],[-2,14],[-7,8],[-8,6],[-3,-6],[0,-7],[-3,-3],[-8,0],[-2,6],[-9,-2],[2,-18],[-6,-2]],[[4330,5979],[-10,-3],[-6,-26],[-66,42],[-2,2],[-25,44],[-9,-8]],[[4212,6030],[-7,5],[-3,7],[-3,33],[-7,-5]],[[4192,6070],[-2,23],[7,3],[0,5],[5,12]],[[4202,6113],[4,-4],[4,0],[20,-31],[6,3],[9,-6],[3,0],[5,-8],[2,-1],[6,10],[12,10],[4,7],[3,-5],[5,6],[4,-2],[7,-14],[8,-3],[8,-14],[10,3],[-1,10]],[[4367,6283],[-2,-18],[-15,-41]],[[4350,6224],[-15,-42],[-6,-24]],[[4251,6310],[4,-4],[10,6],[5,15],[12,16],[7,4],[15,3],[9,0],[7,-11],[3,-9],[1,-9],[-2,-17],[45,-21]],[[4153,6510],[-10,18],[-8,7],[-6,-1],[-6,-5],[-17,-16]],[[4484,6343],[24,22],[15,15],[13,17]],[[4536,6397],[22,-19],[26,-32]],[[4584,6346],[1,0]],[[4585,6346],[-3,-9],[-4,-8],[-8,-20],[-8,-17],[-5,-7],[-10,-6],[-12,-2],[-12,4],[-4,0],[-13,-6],[-10,35],[-12,33]],[[4045,6992],[0,7],[10,5],[4,0],[3,5],[1,8],[5,24]],[[4068,7041],[5,-3],[7,3],[5,-9],[12,12],[8,3],[8,7],[3,0],[6,8],[5,-1]],[[4127,7061],[3,5],[5,-2],[2,-7],[4,-3],[8,-10],[10,1],[16,-8],[3,2],[7,-2],[21,-12],[4,6],[10,4],[2,-16],[-10,-6],[-8,-4],[-3,-4],[4,-9],[12,-1],[2,6],[7,-11],[5,-21]],[[4430,6538],[-3,-9],[1,-23],[4,-11],[15,-15]],[[4433,6298],[-37,-33],[-28,-27],[-18,-14]],[[4367,6283],[7,61],[-2,23],[5,35],[-2,11],[-5,13]],[[4377,6588],[10,14],[9,5],[5,-1],[7,-5],[4,-12],[6,-8],[6,-20],[2,-11],[0,-9],[4,-3]],[[4076,6436],[-13,-5],[2,-7],[-4,-10],[-6,2],[-6,-12],[-8,-3],[0,-5],[-3,-6],[-9,-1],[-7,-2],[-4,-7],[-11,6],[1,-11]],[[4008,6375],[-6,0]],[[3809,6242],[1,12],[-5,-1],[-5,27],[-12,-1],[0,-4],[-7,-2],[-2,7],[-5,0],[-1,20],[0,34]],[[4386,7074],[0,-5],[-6,-2],[-1,-4],[7,-10],[4,-2],[2,-9],[-1,-7],[4,-9],[-8,-5],[-1,2]],[[4333,7035],[10,14],[3,14],[-1,28],[2,7],[8,10],[12,5],[6,6]],[[4373,7119],[8,-8],[0,-21],[3,0],[0,-13],[2,-3]],[[4018,5800],[-4,3],[3,7],[-5,9],[-2,-1],[-5,9],[-8,3],[1,6],[-5,3],[-5,-17],[-3,3],[-5,-18],[-4,2],[-2,11],[-8,4],[5,13],[-8,7],[-1,-6],[-9,6],[-5,0]],[[3948,5844],[12,43],[-7,6],[5,23]],[[3886,6163],[5,-6],[9,-2],[5,3],[12,11],[11,5],[13,0],[21,1],[11,1],[12,-2],[9,-6],[23,-19]],[[4202,6113],[4,9],[11,2],[9,5],[-2,9],[4,3],[-4,11]],[[4224,6152],[-2,9],[5,1],[-1,-6],[9,8]],[[4373,7119],[5,6],[13,-9],[11,9],[11,6],[20,30],[4,11],[6,10],[6,21],[10,23],[-2,13],[-4,2]],[[4453,7241],[-1,9],[5,-2],[4,-15],[0,-12],[2,-4],[6,-4],[-1,-31],[-4,-25],[-11,10],[-6,-11],[4,-12],[0,-9],[-2,-9],[-3,-4],[-5,1],[-3,-5],[-6,-29],[-4,-6],[-3,-1],[-6,9],[-5,2],[0,17],[-5,-9],[3,-17],[-5,-12],[-7,1],[-3,-2],[-2,5],[-9,-2]],[[4127,7061],[-2,25],[-4,0],[3,13]],[[4124,7099],[4,1],[17,-3],[5,30],[3,0],[1,8]],[[2918,7350],[18,-87],[4,-22],[-25,13],[-10,2],[-9,4],[-5,0],[-3,17],[-4,31],[-3,41],[37,2],[0,-1]],[[4047,6320],[-5,-12],[-2,-10],[-7,-12],[0,-8],[-3,-10],[2,-3],[8,8],[7,1],[6,6],[10,-2],[7,4],[7,1],[3,5],[5,-4],[5,0],[3,-8],[7,-2],[6,3],[3,-13],[8,-5],[9,-1],[3,-3],[29,-68],[3,-6],[-1,-21],[4,-7],[8,0],[12,7]],[[4184,6160],[2,-9],[-2,-2],[4,-17],[-7,-4],[-6,1],[-3,11],[-7,7],[-4,-4],[-6,2],[-4,7],[-6,3],[-8,-11],[3,-8],[-4,-10],[3,-5],[-3,-3]],[[4067,6117],[-6,15],[-9,5],[-10,22],[-8,3],[-3,8],[-5,-1],[-3,6],[-9,-5],[-4,17],[-7,4],[-1,7],[4,8],[-5,9],[-5,2],[0,3],[-7,2],[-7,-2],[-14,-2],[-5,-2],[-2,3],[-3,13],[-1,22],[-6,0],[0,8],[-5,-1],[1,-21],[4,-28],[7,-4],[2,-16],[-15,1],[-8,6],[-4,7],[1,11],[-2,1],[2,23],[-1,10],[-5,7],[-11,-1],[-1,-10],[-15,0],[0,-5],[-7,-5]],[[3890,6303],[3,0],[0,38],[1,13],[4,0],[9,4],[3,3],[3,13],[-3,18],[2,21],[-1,6],[-4,9],[0,6],[-4,8],[-3,16],[7,6],[0,-5],[10,-20],[6,-1],[13,3],[0,-6],[4,-14],[-4,-8],[0,-5],[-5,-5],[5,-6],[1,-7],[-2,-8],[2,-18],[7,-26],[6,0],[4,3],[5,-4],[6,3],[0,5],[3,6],[5,-9],[-2,-2],[2,-7],[0,-10],[1,-3],[0,-10],[4,-7],[12,-7],[6,-2],[7,2],[4,6],[5,2],[3,16],[-1,8],[3,11],[-6,6],[-8,-9],[-3,0],[4,6],[-1,15],[-3,2],[-7,-5],[-2,4],[-1,11],[7,-5],[7,3],[4,-6],[5,3],[1,5],[-6,6]],[[4152,6449],[-4,-2],[-5,-30],[-3,-13],[-4,-6],[-3,-11],[-11,-8],[-7,-6],[-5,-2],[-5,-11],[-9,-6],[-5,1],[-6,-6],[-5,-15],[-6,-8],[-4,2],[-2,-6],[-6,-5],[-10,5],[-5,-2]],[[3730,7122],[6,-5]],[[3588,7275],[4,-4],[0,-11],[6,-8],[-1,-18],[4,-9],[11,-19],[4,-1],[6,8],[4,14],[4,5],[1,15],[5,10],[9,9],[6,-1],[0,-12],[2,-6],[-1,-8],[2,-19],[0,-8],[-4,-3],[0,-9],[7,0],[3,-14],[6,-13],[-3,-4],[-12,-6],[6,-6],[7,0],[8,5],[4,7],[8,-9],[4,0],[1,-8],[4,-4],[2,-5],[-6,-11],[6,-5],[10,-4],[7,5],[7,-1],[5,-4],[6,-1]],[[3995,7100],[-2,-10],[-1,-8],[2,-28],[3,-18],[10,-35],[2,-12],[-3,-18],[-8,-17]],[[3919,7131],[3,-3],[3,-7],[5,18],[19,-9],[-2,-8],[8,-4],[15,-6],[24,-11],[1,-1]],[[4608,6470],[-3,2],[-4,-18],[-5,-12],[-14,-9],[-2,8],[-8,-7],[-11,-6],[-1,8],[-9,1],[-11,-3],[-6,-5]],[[4534,6429],[-5,8],[-4,2]],[[4525,6439],[6,7],[6,13],[7,24],[5,25],[8,17],[8,10],[14,13],[13,14],[5,6],[4,1],[3,-3],[3,-22],[6,-12],[1,-22],[2,-9],[-7,-21],[-1,-10]],[[4102,5662],[-4,-2],[-4,3],[-13,2],[8,-7],[-3,-6],[-4,7],[0,-7],[-11,-11],[4,-10],[-2,-3],[5,-9],[2,2],[7,-16],[3,-3],[1,-10],[2,-4],[-6,-15],[1,-6],[-1,-8],[-6,0],[-4,7],[4,12],[-2,4],[0,13],[6,3],[-10,4],[-2,-3],[-5,10],[3,3],[-8,18],[-11,-11],[2,-6],[-7,-9],[-14,-14]],[[4029,5630],[-2,7]],[[4099,5745],[10,4],[-1,8],[4,23],[3,-1],[1,-7],[-2,-7],[0,-17],[2,-6],[5,0],[-1,-14],[-5,0],[3,-4],[-1,-3],[-4,5],[-4,-4],[1,-5],[4,0],[-1,-8],[-4,1],[-1,-9],[-4,-15],[2,-2],[0,-11],[-4,-11]],[[4224,6152],[-4,-2],[-2,10],[-7,-1],[-1,3],[-10,-5],[-3,8],[-6,-1],[-7,-4]],[[4047,6320],[12,-11],[0,-13],[2,0],[21,17],[13,2],[8,-3],[15,-7],[7,-2],[6,1],[5,4],[11,21],[3,2],[16,-6],[7,3],[5,-3],[13,-22],[6,-5],[5,-1]],[[4325,7319],[32,-8],[19,-5],[8,-5],[21,-45],[7,-3],[12,1],[7,-2],[3,-9],[4,-3],[15,1]],[[3935,5665],[-9,7],[-15,3]],[[3890,5723],[5,0],[2,13],[6,5],[4,-1],[4,6],[4,-2],[3,6],[-3,3],[9,19],[-4,6],[-1,7],[-4,2],[-1,10],[-5,7],[0,12],[13,17],[8,2],[8,-1],[3,4],[4,0],[2,7]],[[3947,5845],[1,-1]],[[3621,6098],[3,-3],[8,-20],[-2,-4],[3,-7],[4,-2],[-6,-3],[-10,-9],[9,-32],[5,-21],[2,-12],[-2,-4]],[[3635,5981],[-5,12],[-17,37],[-6,17],[-7,27],[-5,12],[-11,20],[-13,24]],[[4589,6368],[-2,-14],[-3,-8]],[[4536,6397],[3,13],[-1,7],[-4,12]],[[4608,6470],[1,0]],[[4609,6470],[-4,-22],[-7,-24],[-4,-17],[-5,-39]],[[3811,7189],[-2,10],[2,5],[-1,9],[3,21],[11,-1],[3,-2],[9,1],[5,-3],[8,4],[3,-4],[1,-10],[3,-12],[7,-6],[-2,-7],[4,-18],[-3,-4],[5,-2],[0,-6],[3,-6],[6,-4],[5,1],[7,-4],[6,3],[-1,-8],[3,-8],[8,4],[3,4],[4,-4]],[[4518,6749],[2,-3],[8,0],[6,-5],[-6,-16],[-6,-3],[-9,2],[-6,4],[-6,-10],[-4,-10],[-6,-6],[-9,-12],[-12,-6],[-16,-19],[-3,-8],[-8,-3],[-1,-29],[3,-17],[-16,0],[-4,-2],[-6,2],[-1,-7],[2,-21],[9,-15],[5,-4],[-2,-18],[-2,-5]],[[4325,6720],[2,2],[9,-2],[13,14],[-12,18],[-6,11],[0,5],[7,11],[9,-2],[-1,8],[-8,5],[0,3],[7,3],[-2,5],[3,6],[9,-2],[8,1],[6,4],[4,10],[8,4],[10,-9],[6,10],[5,-1],[3,8],[6,3],[1,-14],[2,-9],[-5,-6],[0,-5],[22,16],[8,8]],[[4192,6070],[-6,-7],[-6,-14],[-11,-24],[-11,-10],[-5,-11]],[[4330,5979],[-2,-22],[-1,-8],[15,-2],[12,-3],[5,-3],[5,0],[2,5],[3,-3],[-3,-37],[-8,-2],[1,-14],[9,-3],[1,-5],[8,-9],[1,-4],[-8,-19],[-3,-1],[-8,-25],[-4,-17],[-5,-8],[3,-6],[-17,-15],[-2,12],[-19,-5],[-2,13],[11,16],[-1,9],[-5,6],[-3,10],[-4,4],[-5,0],[-3,-5],[-5,1],[-10,-14],[-7,2],[-3,6],[-3,-2],[-4,-11],[-7,-2]],[[4206,5877],[-8,31],[-7,9],[-13,11],[-8,9],[-8,-3],[-6,8],[2,9],[12,28],[8,-9],[12,26],[10,21],[12,13]],[[4667,6322],[5,0],[3,-11],[-20,-1],[-16,0],[-32,11],[-22,25]],[[4589,6368],[3,2],[8,23],[3,-3],[4,10],[-3,4],[2,6],[11,-7],[24,-2],[-1,-9],[-8,-18],[-7,1],[-2,-32],[6,-3],[9,-1],[4,-7],[6,-7],[12,-4],[7,1]],[[4068,7041],[-9,5],[0,33],[-6,2],[-14,11],[-5,8]],[[4034,7100],[7,11],[14,13],[15,4],[0,10],[7,5],[3,8],[4,0],[3,6],[3,-3]],[[4090,7154],[4,-1],[1,-10],[2,-5],[-1,-22],[25,-9],[3,-8]],[[4233,5763],[1,-19],[-7,-7],[-5,-12],[-6,-3],[-5,4],[-7,-17]],[[3995,7100],[1,2]],[[3996,7102],[16,-7],[4,2],[8,-3],[8,8],[2,-2]],[[3762,6197],[-2,0],[-1,-10],[-2,0],[-1,-8],[-6,-7],[-10,1],[-5,-4],[1,13],[1,8],[5,0],[1,11],[-14,-16],[0,-5],[-7,1],[-3,-11],[-5,3],[-5,-2],[-4,4],[-9,2],[-5,6],[4,12],[6,2],[0,12],[9,-3],[1,-6],[2,2],[5,-3],[14,10],[-1,2],[6,9],[2,-4],[6,7],[3,41],[5,19],[0,16],[-6,0],[0,4],[-17,0],[1,-5]],[[3731,6298],[-11,1]],[[3047,7345],[-19,22],[0,51],[0,22],[27,-1],[0,-52],[2,-8],[-3,-10],[0,-19],[-7,-5]],[[3896,5921],[16,-11],[21,-50],[3,-8],[5,0],[6,-7]],[[4609,6470],[2,-2],[3,-10],[4,-5],[5,-3],[18,2],[8,3],[8,-11],[7,-11],[5,-13],[-1,-10],[-4,-15],[0,-5],[6,-19],[-7,-19],[7,-6],[-4,-20],[1,-4]],[[4090,7154],[1,6],[7,7],[-4,4],[5,16],[-15,7],[6,24]],[[4038,7249],[-18,-50],[-3,-19],[-3,-27],[-5,-18],[-13,-33]],[[3912,7143],[-3,10],[1,5],[-10,2],[-7,4],[-8,9],[-4,13],[-5,8],[-2,15],[-2,1],[-9,24],[-8,6],[2,9],[-1,9],[6,5],[6,0],[11,-9],[5,-1],[4,-11],[-6,-8],[8,-15],[5,-13],[4,1],[11,-6],[3,2],[6,-7],[-2,-8],[4,0],[1,7],[7,0],[-4,12],[-4,4],[-1,13],[-3,5],[-2,19],[2,10],[6,17],[1,8],[-1,17],[2,13],[6,-4],[9,7],[4,23],[-1,7],[-3,8],[1,15],[6,-1],[2,-11],[4,-1],[8,7],[18,11],[7,6],[4,12],[11,19],[6,7],[20,-12],[12,-6],[6,-8],[8,-14],[3,-10],[6,-11],[12,-11],[1,-14],[-1,-12]],[[3730,7122],[-8,4],[-1,9],[-8,0],[-2,6],[0,13],[-6,3],[-1,10],[4,3],[2,9],[3,7],[8,0],[6,4],[-1,-10],[2,-10],[3,0],[5,-6],[4,1],[8,-3],[0,-7],[5,1],[0,-7],[3,-2],[0,-7],[7,0],[0,6],[6,1],[-7,9],[-4,11],[-4,4],[0,9]],[[4484,6343],[-19,-15]],[[4462,6462],[15,-17],[13,-9],[10,-11],[12,-6],[4,3],[9,17]],[[3711,5909],[-15,16],[-7,7],[-19,6],[-12,8],[-12,19],[-5,5],[-6,11]],[[3653,6251],[-1,-4],[3,-9],[-1,-3],[5,-7],[5,-2],[10,-7],[6,0],[0,6],[5,0],[3,13],[-1,6],[-5,3],[-2,10],[7,-4],[2,5],[1,-6],[5,-5],[5,-8],[4,4],[-2,3],[1,6],[-6,6],[2,3],[8,-4],[3,5],[0,-12],[4,2],[1,-12],[5,2],[-4,-5],[1,-8],[4,0],[7,5],[-1,6],[6,-1],[1,20],[-7,1],[-4,6],[2,6],[0,10],[2,-2],[4,6],[0,12]],[[3829,5696],[-10,8],[-4,1],[-5,8],[-10,5],[-7,14],[-9,-4],[-5,17]],[[4202,5701],[12,-14],[-3,-4],[-9,6],[-1,5],[-5,6],[-8,5],[-3,0],[-5,9],[-5,-2],[-2,3],[-45,-34],[-26,-19]],[[5464,2433],[0,19],[6,28]],[[5470,2480],[5,25]],[[5475,2505],[4,16],[8,11]],[[5487,2532],[3,1],[16,14],[14,11],[5,7],[8,28],[4,18],[1,12],[-1,19],[1,10],[4,22],[1,26],[4,8],[7,-1],[21,-5],[8,-3],[-16,24],[-7,11],[-3,10],[-3,12],[-1,10],[2,15],[21,-16],[8,-9],[5,-1],[3,21],[5,5],[-3,-16],[0,-15],[11,-12],[2,4],[6,-15],[7,3],[18,-32],[11,-9],[7,-2],[4,-9],[1,-9],[-1,-18],[8,3],[5,15],[8,13],[3,9],[6,-1],[3,3],[5,-4],[-3,-12],[-9,-15],[-6,-16],[4,-2],[2,4],[6,2],[9,13],[8,17],[2,6],[3,1],[0,-15],[-11,-16],[-8,-7],[-8,-9],[0,-21],[13,-7],[6,-7],[-4,-11],[-5,-1],[-1,-18],[-6,-2],[-4,-6],[5,-5],[-7,-10],[-6,-14],[-9,3],[-12,0],[-1,-14],[-5,-4],[-12,-8],[-16,-3],[-10,-1],[-13,3],[-8,6],[-5,1],[-3,-4],[-5,-16],[-6,-25],[-10,-28],[7,-13],[2,-10],[-6,-12],[-16,-13],[-14,20],[-16,11],[-7,12],[-14,39],[-7,19],[-2,9],[-6,-8],[-6,-32],[-3,1],[-3,-22],[3,-15],[-10,-8],[-1,7]],[[5669,2741],[6,-4],[9,0],[3,-3],[8,-13],[-4,-11],[-1,-9],[-5,2],[-5,9],[-4,17],[-5,-12],[-8,-12],[-5,-5],[-7,2],[-5,5],[-1,6],[-1,15],[6,0],[3,-12],[2,5],[7,-2],[1,8],[-6,6],[-6,1],[0,10],[12,0],[6,-3]],[[3861,9919],[6,0],[5,9],[-6,14],[4,6],[7,-2],[2,1],[0,13],[3,6],[2,-7],[6,0],[3,-9],[4,-1],[1,-5],[3,0],[7,-12],[0,-9],[4,-6],[-3,-6],[0,-11],[12,0],[2,3],[3,-4],[0,-7],[4,-6],[-4,-10]],[[3870,9999],[4,-1],[4,-15],[-12,-5],[-4,-5],[-12,-1],[-2,5],[4,2],[0,11],[6,-1],[11,6],[1,4]],[[9350,9245],[0,-22],[11,1],[9,-5],[-2,-7],[-8,5],[-10,-3],[-8,1],[0,-2],[-9,-2],[1,-5],[-9,-2],[-2,12],[-15,0],[-17,-9],[-5,-16],[-3,-4],[-3,-12],[-10,-21],[-4,-6],[-9,-3],[-2,-3],[6,-10],[-11,-13],[-22,-19],[-5,-8],[-5,0],[-2,13],[-6,12],[5,7],[-4,11],[-4,21],[15,18],[9,8],[17,24],[8,-11],[18,30],[-4,9],[5,6],[1,-4],[14,12],[3,1],[4,17],[26,-6],[-1,-6],[7,-4],[21,-5]],[[86,470],[-11,15],[-11,6],[-7,15],[3,5],[-32,43]],[[28,554],[15,34],[45,63],[20,-39],[2,-12],[8,-12],[1,-6],[-2,-14],[5,-25],[1,-12],[6,-8],[-2,-6],[-5,6],[-8,-26],[-16,19],[-8,-15],[-4,6],[-8,-15],[17,-18],[-4,-8],[-5,4]],[[86,470],[-7,-14],[-7,-20],[0,-10],[-6,-9],[-14,-17],[-11,22],[-17,19],[-4,-4],[-4,5],[4,6],[-3,11],[-17,22],[28,73]],[[9879,8876],[3,-1],[2,11],[0,11],[6,2],[3,-16],[1,-12],[-3,-17],[4,6],[3,-1],[6,-14],[4,-1],[5,7],[11,-3],[1,-4],[29,14],[-1,-9],[-2,-6],[-11,0],[-3,-8],[-9,1],[-3,-7],[19,-21],[4,0],[7,-8],[-1,-4],[9,-14],[4,7],[1,-3],[6,3],[9,-6],[2,4],[5,1],[9,-10],[-11,-25],[-11,14],[2,14],[-3,4],[-7,-3],[-9,-14],[-10,15],[-11,-13],[-4,8],[1,7],[-12,9],[-1,4],[2,9],[-1,4],[-8,6],[0,2],[-6,4],[-15,-3],[-2,-5],[3,-5],[-3,-2],[-5,11],[-9,-3],[-1,-4],[-5,-2],[-9,-5],[-9,-3],[-16,-9],[-1,-3],[-11,2],[-2,6],[-3,-1],[0,7],[5,25],[-5,13],[7,5],[8,1],[4,3],[-4,-18],[9,3],[1,-14],[19,10],[-3,19],[-4,2],[-4,-4],[2,8],[-8,3],[1,6],[-5,3],[1,3],[9,5],[5,-4],[7,0],[5,-4],[-1,7],[-18,5],[3,23],[19,-5],[-1,-9],[6,-3],[-1,-11]],[[9791,8787],[7,1],[-1,-3],[-16,-8],[-1,-12],[-3,-14],[-5,-13],[-10,-12],[-10,-5],[-5,-1],[-13,1],[-7,4],[-16,11],[-13,3],[36,19],[12,14],[7,12],[4,10],[3,15],[3,32],[3,-1],[4,-20],[5,-13],[6,-11],[7,-8],[3,-1]],[[5583,2075],[14,-10],[-2,-12],[-2,2],[-9,-17],[0,-11],[-3,-3],[-2,-19],[4,-7],[7,-2],[4,-7],[8,0],[3,7],[6,-2],[-1,-14],[-4,-1],[-8,-16],[-3,-4],[-6,-2],[-10,1],[-6,4],[-9,7],[-6,-20],[17,-11],[-5,-16],[-1,-11],[5,2],[15,-3],[-2,-8],[-11,3],[2,-12],[-5,0],[-2,10],[-4,-1],[-3,-13],[19,-29],[-6,-2],[-13,19],[-5,-14],[3,-15],[-4,-1],[1,-10],[-3,7],[-10,0],[-5,-22],[-7,-14],[-8,9],[3,5],[4,-6],[5,14],[-5,5],[3,11],[-6,3],[3,4],[-5,13],[0,10],[2,10],[3,-1],[5,19],[-4,12],[0,10],[4,3],[-4,33],[10,4],[5,-10],[-1,-8],[3,-4],[-3,-8],[2,-8],[17,52],[4,20],[2,25],[1,47],[6,-5],[3,8]],[[5467,1759],[9,-7],[-3,-8],[-25,5],[-7,0],[1,6],[20,-2],[2,6],[3,0]],[[5513,1811],[6,-17],[3,-5],[-9,-5],[1,9],[-4,16],[3,2]],[[5520,1919],[-2,-3],[-12,3],[0,-37],[0,-27],[-5,0],[1,-17],[2,-9],[-11,-10],[2,-10],[-4,-1],[-2,8],[-3,3],[0,7],[8,6],[-1,21],[1,32],[-6,1],[1,4],[5,-2],[0,18],[7,-1],[0,65],[3,5],[14,-4],[-1,-11],[2,-14],[5,-13],[-2,-11],[-2,-3]],[[5518,2081],[6,-12],[7,8],[1,-4],[1,-19],[2,-4],[1,-13],[-2,-8],[-5,4],[2,8],[-2,1],[1,16],[-2,11],[-7,-10],[-6,13],[2,1],[-2,10],[3,-2]],[[5574,2089],[-8,2],[1,19],[5,1],[-5,16],[2,0],[27,-12],[6,-5],[-4,-14],[-22,-5],[-2,-2]],[[5543,2135],[3,-11],[5,3],[3,-6],[-5,-1],[-4,-8],[-11,0],[-4,-2],[5,9],[3,0],[0,5],[3,1],[-1,8],[3,2]],[[5522,2178],[21,0],[4,-11],[-2,-6],[-6,0],[-7,4],[-13,4],[0,10],[3,-1]],[[5490,2142],[6,-13],[4,4],[7,12],[4,-5],[-7,-10],[2,-5],[2,-19],[-3,-17],[-4,2],[0,12],[-10,-3],[5,6],[-4,21],[-7,-4],[-1,3],[4,4],[-2,7],[-4,4],[-2,-5],[-3,18],[-6,15],[1,3],[-4,7],[5,3],[13,-32],[4,-8]],[[5613,113],[7,-1],[-4,-16],[0,-12],[17,12],[13,7],[5,5],[4,7],[3,-2],[-3,-14],[-5,-7],[-3,-15],[-4,-2],[5,-4],[2,-5],[2,-15],[-7,-4],[-9,-12],[-6,0],[-5,21],[-5,3],[-2,-6],[3,-9],[-5,-16],[-4,1],[-3,-24],[-4,-5],[-6,5],[0,5],[7,15],[4,6],[0,10],[-2,13],[-4,6],[-10,7],[0,4],[4,2],[0,12],[3,5],[9,7],[-8,4],[-6,11],[-5,6],[10,-4],[12,-1]],[[2775,1487],[6,-2],[7,-5],[0,-17],[10,-20],[3,-3],[-4,-17],[2,-3],[7,4],[3,6],[8,-11],[-9,-18],[-10,1],[0,9],[-4,11],[-10,9],[-7,0],[0,-9],[-25,3],[1,6],[-4,-2],[0,12],[-2,12],[-6,11],[5,12],[3,18],[-2,4],[1,7],[5,3],[2,8],[4,6],[6,0],[5,-7],[3,-8],[-1,-8],[3,-4],[0,-8]],[[2839,1366],[4,-9],[5,-3],[0,-10],[-6,-8],[-5,0],[-5,-6],[-4,-1],[-8,-13],[-19,9],[-8,7],[2,5],[-2,6],[8,15],[4,10],[9,-5],[10,0],[12,7],[3,-4]],[[2796,1372],[-5,-1],[-1,20],[1,10],[7,0],[-2,-22],[0,-7]],[[5434,2293],[1,-11],[12,1],[0,-2],[12,0],[0,-23],[-3,-1],[-35,6],[-13,-1],[-13,-10],[0,-5],[-4,-1],[2,-5],[13,0],[0,5],[4,0],[4,-19],[-9,-16],[6,0],[1,-12],[-10,-21],[-15,15],[-8,-20],[-5,5],[7,22],[-5,3],[9,23],[4,-4],[4,10],[-2,20],[5,9],[5,4],[6,15],[3,2],[0,-6],[8,2],[1,9],[3,0],[3,7],[9,-1]],[[5382,2265],[-9,6],[-2,5],[2,11],[9,-22]],[[5424,2317],[-2,-2],[-6,13],[5,9],[1,4],[5,0],[-2,-7],[2,-14],[-3,-3]],[[5454,2325],[-3,0],[-2,19],[4,1],[1,-20]],[[5303,3432],[16,-16],[11,-7],[3,-4],[6,-15],[16,-1],[10,-10],[8,-6],[5,-13],[6,3],[4,0],[0,-17],[2,-16],[0,-22],[1,-18],[-2,-19],[8,-1],[0,-22],[1,-16],[11,-16],[-10,-15],[-8,13],[-13,-13],[-7,18],[-5,5],[-2,-1],[-17,-3],[-11,9],[-5,9],[-2,9],[-10,9],[-10,-3],[2,15],[2,-1],[12,9],[1,26],[-1,2],[-10,6],[-10,20],[10,14],[-4,6],[11,11],[2,11],[-8,2],[-3,-6],[-8,-7],[-5,9],[0,5],[-3,-5],[-2,2],[-10,23],[0,10],[-5,17],[-3,6],[4,6],[4,-5],[4,-1],[9,12],[13,12],[17,20],[5,-7],[-5,-7],[-17,-18],[-8,-8]],[[5214,3411],[4,0],[4,-5],[4,3],[3,-2],[5,-15],[6,-6],[4,-13],[7,-20],[11,-13],[3,-28],[5,-11],[-4,-8],[-11,-2],[-2,-2],[-13,-27],[-9,-15],[2,-6],[-4,-9],[-5,-4],[-8,-5],[-16,4],[3,15],[-5,5],[5,17],[0,4],[-6,32],[4,8],[-1,10],[2,23],[11,58],[1,12]],[[5424,3168],[4,-19],[2,-18],[11,3],[2,-7],[-10,-8],[-4,0],[6,-51],[-1,-19],[8,-2],[3,-8],[-4,-4],[-1,-7],[-4,-6],[-8,1],[4,16],[-21,16],[-6,5],[-12,17],[-4,1],[-6,12],[1,8],[5,20],[4,5],[11,-13],[4,12],[7,0],[-1,5],[-7,2],[0,6],[11,1],[-6,6],[-8,1],[-7,-1],[-1,5],[3,5],[12,1],[1,3],[12,12]],[[5475,2505],[-4,4],[-6,-3],[-1,6],[5,4],[4,13],[-5,-1],[-10,3],[-1,4],[-6,2],[-3,12],[-4,3],[-2,7],[-4,0],[4,-35],[-4,-10],[-11,-4],[17,-18],[6,16],[14,-29],[6,1]],[[5464,2433],[-3,-1],[-3,16],[-3,4],[-7,34],[-6,-9],[-3,8],[-2,-4],[-6,-20],[-7,4],[-2,-18],[2,-4],[6,-4],[-5,-20],[-8,7],[-6,9],[-5,4],[-5,-8],[-4,4],[3,6],[-10,29],[-3,-3],[-2,-8],[-3,-1],[-4,-12],[-5,-2],[-16,1],[1,14],[-4,5],[0,6],[-3,1],[-10,-5],[-6,27],[-7,18],[1,9],[-4,6],[10,5],[9,2],[4,15],[-2,17],[0,11],[5,8],[7,0],[4,4],[5,2],[11,-3],[5,1],[3,-5],[1,-8],[4,-2],[4,12],[3,0],[3,12],[9,-3],[3,16],[5,7],[14,6],[4,-1],[8,-10],[22,-36],[4,-20],[9,-16],[8,-8]]]}
