{"type":"Topology","bbox":[-73.58394986719355,6.014919337228368,-73.56360973997704,6.0333986738172305],"transform":{"scale":[0.000002034216143265706,0.0000018481184707333427],"translate":[-73.58394986719355,6.014919337228368]},"objects":{"municipios":{"type":"GeometryCollection","geometries":[{"type":"Polygon","arcs":[[0,1]],"properties":{"codigo":"68327100000000000101","sector":"683271000000000001","pcode":"CO68327","area_m2":448970}},{"type":"Polygon","arcs":[[2,3,-2,4]],"properties":{"codigo":"68327100000000000102","sector":"683271000000000001","pcode":"CO68327","area_m2":400131}},{"type":"Polygon","arcs":[[-3,5]],"properties":{"codigo":"68327100000000000103","sector":"683271000000000001","pcode":"CO68327","area_m2":234763}}]}},"arcs":[[[5620,4461],[-6,-330],[-158,-116],[-56,572],[-118,-60],[-236,161],[-568,-492],[-180,87],[-379,-340],[-616,-282],[123,-362],[-417,-325],[-229,-77],[-152,-311],[211,-299],[-478,-291],[-142,301],[-214,-567],[-1,-174],[206,-660],[-851,-161],[-514,-242],[-426,-493],[-419,226],[36,300],[359,320],[217,327],[235,606],[507,475],[303,434],[526,426],[-222,543],[-736,-306],[-109,5],[-115,-325],[-43,-571],[-142,-70],[-127,371],[-332,499],[-15,142],[195,146],[349,635],[244,-658],[167,-3],[-169,473],[239,329],[180,-226],[95,120],[189,-140],[-66,281],[436,278],[98,-336],[388,152],[-253,253],[-36,196],[272,160],[88,-134],[196,288],[-61,76],[522,642],[-247,-118],[-72,80],[214,302]],[[3310,6198],[192,-323],[678,-432],[438,-173],[290,-496],[339,271],[373,-584]],[[5964,7820],[-250,-548],[-86,-387],[49,-175],[222,-165],[188,-271],[-412,-323],[522,-767],[-412,-281],[136,-287]],[[5921,4616],[-301,-155]],[[3310,6198],[-93,370],[-176,84],[-234,-110],[-232,192],[169,38],[460,-84],[164,-107],[140,78],[183,357],[-378,40],[157,73],[125,259],[-214,104],[159,272],[334,-177],[-108,-460],[239,-69],[225,403],[273,-89],[53,161],[-412,139],[127,228],[-202,135],[100,184],[-190,90],[-79,234],[431,639],[156,138],[303,-245],[171,-1],[63,-186],[250,58],[136,-165],[504,304],[416,-109],[-194,-496],[-172,-660]],[[5964,7820],[642,-294],[150,-172],[372,326],[-44,118],[492,288],[432,471],[489,111],[171,144],[351,-3],[-176,158],[552,675],[186,-161],[121,232],[297,242],[-90,-227],[-633,-727],[-114,-233],[-859,-610],[-433,-528],[-168,-134],[-507,-198],[-189,-211],[526,125],[148,-171],[-223,-112],[170,-196],[-195,-306],[215,-229],[-453,-434],[-291,108],[-156,-215],[-211,-83],[299,-398],[-664,-600],[-250,40]]]}
