{"type":"Topology","bbox":[-73.15451299539723,6.525721164538573,-73.11805411559624,6.568749271142584],"transform":{"scale":[0.000003646252605359441,0.000004303240984499596],"translate":[-73.15451299539723,6.525721164538573]},"objects":{"municipios":{"type":"GeometryCollection","geometries":[{"type":"Polygon","arcs":[[0,1,2,3,4]],"properties":{"codigo":"68679100000000000409","sector":"686791000000000004","pcode":"CO68679","area_m2":104314}},{"type":"Polygon","arcs":[[5,-5,6,7,8,9]],"properties":{"codigo":"68679100000000000404","sector":"686791000000000004","pcode":"CO68679","area_m2":152493}},{"type":"Polygon","arcs":[[10,11,12,13,14,15]],"properties":{"codigo":"68679100000000000501","sector":"686791000000000005","pcode":"CO68679","area_m2":271971}},{"type":"Polygon","arcs":[[16,17,18,19,20]],"properties":{"codigo":"68679100000000000107","sector":"686791000000000001","pcode":"CO68679","area_m2":38023}},{"type":"Polygon","arcs":[[21,22,23,24,25]],"properties":{"codigo":"68679100000000000203","sector":"686791000000000002","pcode":"CO68679","area_m2":213599}},{"type":"Polygon","arcs":[[26,27,28,29,30]],"properties":{"codigo":"68679100000000000109","sector":"686791000000000001","pcode":"CO68679","area_m2":211208}},{"type":"Polygon","arcs":[[31,32,33,34,-2,35]],"properties":{"codigo":"68679100000000000601","sector":"686791000000000006","pcode":"CO68679","area_m2":300586}},{"type":"Polygon","arcs":[[36,37,38,39,-18,40,41,42]],"properties":{"codigo":"68679100000000000102","sector":"686791000000000001","pcode":"CO68679","area_m2":272877}},{"type":"Polygon","arcs":[[43,44,45,46]],"properties":{"codigo":"68679100000000000702","sector":"686791000000000007","pcode":"CO68679","area_m2":61374}},{"type":"Polygon","arcs":[[47,48,-39,49]],"properties":{"codigo":"68679100000000000103","sector":"686791000000000001","pcode":"CO68679","area_m2":83046}},{"type":"Polygon","arcs":[[50,-33,51]],"properties":{"codigo":"68679100000000000602","sector":"686791000000000006","pcode":"CO68679","area_m2":188452}},{"type":"Polygon","arcs":[[52,53,-47,54]],"properties":{"codigo":"68679100000000000701","sector":"686791000000000007","pcode":"CO68679","area_m2":94952}},{"type":"Polygon","arcs":[[55,56]],"properties":{"codigo":"68679100000000000306","sector":"686791000000000003","pcode":"CO68679","area_m2":494600}},{"type":"Polygon","arcs":[[57,58]],"properties":{"codigo":"68679100000000000901","sector":"686791000000000009","pcode":"CO68679","area_m2":32597}},{"type":"Polygon","arcs":[[59,60,61,-10,62,63]],"properties":{"codigo":"68679100000000000403","sector":"686791000000000004","pcode":"CO68679","area_m2":122957}},{"type":"Polygon","arcs":[[-49,64,-28,65,-19,-40]],"properties":{"codigo":"68679100000000000101","sector":"686791000000000001","pcode":"CO68679","area_m2":122982}},{"type":"Polygon","arcs":[[-42,66]],"properties":{"codigo":"68679100000000000801","sector":"686791000000000008","pcode":"CO68679","area_m2":32666}},{"type":"Polygon","arcs":[[-4,67,68,-7]],"properties":{"codigo":"68679100000000000504","sector":"686791000000000005","pcode":"CO68679","area_m2":210295}},{"type":"Polygon","arcs":[[-56,69,70,71,72,73]],"properties":{"codigo":"68679100000000000305","sector":"686791000000000003","pcode":"CO68679","area_m2":659137}},{"type":"Polygon","arcs":[[74,-61,75,-50,-38,76]],"properties":{"codigo":"68679100000000000202","sector":"686791000000000002","pcode":"CO68679","area_m2":108353}},{"type":"Polygon","arcs":[[77,78,79,-34,-51]],"properties":{"codigo":"68679100000000000603","sector":"686791000000000006","pcode":"CO68679","area_m2":112311}},{"type":"Polygon","arcs":[[-9,80,81,-13,82,83,-63]],"properties":{"codigo":"68679100000000000402","sector":"686791000000000004","pcode":"CO68679","area_m2":177029}},{"type":"Polygon","arcs":[[-26,84,-77,-37,85]],"properties":{"codigo":"68679100000000000201","sector":"686791000000000002","pcode":"CO68679","area_m2":263610}},{"type":"Polygon","arcs":[[86,-14,-82,87]],"properties":{"codigo":"68679100000000000502","sector":"686791000000000005","pcode":"CO68679","area_m2":103743}},{"type":"Polygon","arcs":[[88,89,90,-23]],"properties":{"codigo":"68679100000000000301","sector":"686791000000000003","pcode":"CO68679","area_m2":100625}},{"type":"Polygon","arcs":[[-21,91,92,-53,93]],"properties":{"codigo":"68679100000000000110","sector":"686791000000000001","pcode":"CO68679","area_m2":229611}},{"type":"Polygon","arcs":[[94,95,96,97]],"properties":{"codigo":"68679100000000000205","sector":"686791000000000002","pcode":"CO68679","area_m2":101909}},{"type":"Polygon","arcs":[[98,-95,99,-36,-1,-6,-62]],"properties":{"codigo":"68679100000000000405","sector":"686791000000000004","pcode":"CO68679","area_m2":103184}},{"type":"Polygon","arcs":[[100,101,-79,102]],"properties":{"codigo":"68679100000000000604","sector":"686791000000000006","pcode":"CO68679","area_m2":47542}},{"type":"Polygon","arcs":[[103,-59,104,105]],"properties":{"codigo":"68679100000000000410","sector":"686791000000000004","pcode":"CO68679","area_m2":463848}},{"type":"Polygon","arcs":[[-73,106,107,-90,108]],"properties":{"codigo":"68679100000000000304","sector":"686791000000000003","pcode":"CO68679","area_m2":132522}},{"type":"Polygon","arcs":[[109,-64,-84,110,-11]],"properties":{"codigo":"68679100000000000401","sector":"686791000000000004","pcode":"CO68679","area_m2":98220}},{"type":"Polygon","arcs":[[111,-71,112,-106,113,114,-103,-78,-52,-32,-100]],"properties":{"codigo":"68679100000000000406","sector":"686791000000000004","pcode":"CO68679","area_m2":707115}},{"type":"Polygon","arcs":[[-66,-27,115,-92,-20]],"properties":{"codigo":"68679100000000000105","sector":"686791000000000001","pcode":"CO68679","area_m2":67241}},{"type":"Polygon","arcs":[[-65,-48,-76,-60,-110,-16,116,117,-29]],"properties":{"codigo":"68679100000000000104","sector":"686791000000000001","pcode":"CO68679","area_m2":232708}},{"type":"Polygon","arcs":[[-69,118,-88,-81,-8]],"properties":{"codigo":"68679100000000000503","sector":"686791000000000005","pcode":"CO68679","area_m2":74937}},{"type":"Polygon","arcs":[[-93,-116,-31,119,-44,-54]],"properties":{"codigo":"68679100000000000106","sector":"686791000000000001","pcode":"CO68679","area_m2":218402}},{"type":"Polygon","arcs":[[120,-96,-99,-75,-85,-25]],"properties":{"codigo":"68679100000000000204","sector":"686791000000000002","pcode":"CO68679","area_m2":177177}},{"type":"Polygon","arcs":[[-115,121,-101]],"properties":{"codigo":"68679100000000000407","sector":"686791000000000004","pcode":"CO68679","area_m2":110685}},{"type":"Polygon","arcs":[[-108,122,-97,-121,-24,-91]],"properties":{"codigo":"68679100000000000302","sector":"686791000000000003","pcode":"CO68679","area_m2":119646}},{"type":"Polygon","arcs":[[-83,-12,-111]],"properties":{"codigo":"68679100000000000408","sector":"686791000000000004","pcode":"CO68679","area_m2":53845}},{"type":"Polygon","arcs":[[-30,-118,123,-45,-120]],"properties":{"codigo":"68679100000000000108","sector":"686791000000000001","pcode":"CO68679","area_m2":124451}},{"type":"Polygon","arcs":[[-72,-112,-98,-123,-107]],"properties":{"codigo":"68679100000000000303","sector":"686791000000000003","pcode":"CO68679","area_m2":90393}}]}},"arcs":[[[4188,6426],[-52,-66],[202,-123],[-127,-146],[191,-123],[180,210],[151,-103]],[[4733,6075],[-59,-64],[273,-190],[-51,-82],[165,-124],[-66,-69],[-456,328],[-201,-204],[-117,85],[-74,-130],[-78,-45]],[[4069,5580],[-16,34],[-271,125],[6,27]],[[3788,5766],[23,105],[156,154],[112,147],[-124,77],[-400,209]],[[3555,6458],[26,89],[103,-56],[122,133],[382,-198]],[[4642,6756],[-317,-394],[-137,64]],[[3555,6458],[-35,-87],[-216,87],[-511,13],[-839,25]],[[1954,6496],[-6,199]],[[1948,6695],[635,-4],[132,15],[291,66]],[[3006,6772],[279,58],[100,10],[423,17],[273,16],[125,-12],[208,-41],[228,-64]],[[1363,8031],[-2,-55],[96,-100],[302,-12],[65,-133],[37,-28],[124,-27],[164,-88]],[[2149,7588],[-32,-13],[-24,-92],[-102,16],[-77,-366]],[[1914,7133],[-357,7],[-312,-113],[-486,-79]],[[759,6948],[-79,160],[258,62],[-131,269],[-1,126],[76,42],[-450,-90],[-71,-115],[-38,-120],[81,-462],[-2,-102],[-29,-110],[-49,-70]],[[324,6538],[-111,116],[83,66],[-21,145],[-25,58],[10,82],[-106,256],[-11,194],[25,53],[-17,121],[21,64],[-9,91],[47,58],[5,60],[268,39],[159,99],[132,5],[167,-46],[117,19],[167,4],[-1,31]],[[1224,8053],[139,-22]],[[4761,8775],[133,10]],[[4894,8785],[109,13],[112,-53],[62,-3],[2,-42],[-69,-106],[-60,24],[-52,-96],[-104,-24],[-50,-54],[-46,-154]],[[4798,8290],[-16,5]],[[4782,8295],[37,180],[32,94],[-69,48],[-175,52],[-112,-212],[-88,4],[-140,55],[9,29]],[[4276,8545],[141,297],[153,-52],[11,24],[180,-39]],[[7880,7763],[18,-28],[42,-234],[71,-25],[93,-66],[68,-10],[38,-67],[97,-33],[83,-90],[114,-37],[40,58],[104,8],[140,51],[96,-61],[-16,-35]],[[8868,7194],[-230,-7],[-188,-130],[-248,-25],[-123,26],[-195,73],[-440,205],[-205,-295]],[[7239,7041],[-130,66],[-109,-163]],[[7000,6944],[-332,159],[97,182],[-136,66],[157,218],[-456,242]],[[6330,7811],[-109,72],[36,58],[-43,122],[140,-28],[71,43],[100,-18],[124,-75],[141,-48],[177,-83],[139,-81],[176,-70],[185,0],[329,27],[84,33]],[[3964,8176],[66,-75]],[[4030,8101],[-130,-27],[-347,-51],[-68,-19],[-92,-104]],[[3393,7900],[-132,17],[-85,-78],[-129,147],[-117,47],[-338,-36],[-140,2],[-143,49]],[[2309,8048],[-70,99],[-209,95],[111,231],[33,117]],[[2174,8590],[36,8],[343,-41],[-37,206],[29,121],[337,-135],[3,16],[324,-140],[151,-36],[72,131],[143,-120],[53,-153],[43,-69],[165,-101],[128,-101]],[[4896,6218],[2,-58],[158,23],[259,-65],[32,-29],[-23,-80],[145,-46],[84,-67],[9,-37],[97,-80],[134,148],[75,-53],[170,-12],[266,-143],[87,-89],[50,6],[90,-100],[54,-106],[34,-14]],[[6619,5416],[-76,-30],[-128,14],[-233,-90],[-141,-89],[-132,-160],[-31,5],[-95,-87],[-69,-116]],[[5714,4863],[-97,74]],[[5617,4937],[-66,92],[-356,249],[-154,-138],[-268,-36],[-219,185],[-26,-25],[-56,43],[44,67],[-60,43],[-387,163]],[[4733,6075],[56,72],[-116,71],[223,0]],[[5962,8641],[173,-190],[97,-152],[7,-103],[-29,-57],[-112,-24],[24,-100],[1,-96],[-144,-52],[-102,-54],[-58,2],[-56,-55],[-121,58],[-243,-315]],[[5399,7503],[-99,-145]],[[5300,7358],[-594,337]],[[4706,7695],[116,164],[187,-128],[104,136],[-95,49],[111,149],[-302,183],[-29,42]],[[4894,8785],[75,134]],[[4969,8919],[107,199],[303,-117]],[[5379,9001],[147,-105],[98,-46],[86,-124],[65,-64],[187,-21]],[[2142,9335],[-104,-203],[-31,5],[-74,-152],[-202,51],[-181,68]],[[1550,9104],[-28,32],[-309,-71]],[[1213,9065],[-2,321],[219,129],[21,47]],[[1451,9562],[131,-39],[308,-179],[51,-21],[91,29],[110,-17]],[[4756,6936],[-232,92],[-207,103],[143,211],[134,181]],[[4594,7523],[112,172]],[[5300,7358],[-106,-157],[-225,-310],[-180,98],[-33,-53]],[[6005,4233],[-53,136],[-28,170],[-106,230],[-126,-48],[22,142]],[[6619,5416],[83,38],[153,-164],[121,-181],[128,-232],[-72,-125],[40,-158],[-30,-159],[-14,-207],[-48,-1],[-221,303],[-77,56],[-39,153],[-143,161],[-71,-16],[-5,-167],[-198,-374],[-221,-110]],[[2794,9810],[-126,-19],[-294,-141],[-89,-66],[-39,-82],[2,-85],[73,-113]],[[2321,9304],[-179,31]],[[1451,9562],[72,107],[52,-6],[-14,158],[93,8],[-11,47],[71,3],[36,90],[125,30],[142,-72],[193,-17],[224,62],[29,-33],[246,-73],[60,17],[25,-73]],[[8354,2153],[-110,246],[-102,207],[-18,77],[7,162],[-29,187],[10,176],[53,88],[-65,80],[-67,130],[-16,69],[28,129],[2,130],[157,7],[39,38],[-30,49],[7,72],[86,13],[-42,152],[325,65],[-131,523],[-183,653],[-26,106],[261,33]],[[8510,5545],[121,55],[41,-101],[351,-1371],[-16,-72],[11,-199],[-9,-159],[24,-49],[47,-285],[-31,-141],[-154,3],[-31,-243],[-3,-153],[-32,-60],[-100,-43],[-37,-106],[10,-67],[294,54],[182,47],[504,146],[10,-27],[86,22],[53,-246],[88,33],[80,-176],[-391,-148],[-37,75],[-619,-86],[-36,153],[-136,-17],[91,-136],[60,-201],[-577,106]],[[7474,209],[-386,112],[-100,0],[14,-102],[-156,9],[-28,145],[-65,121],[-31,143],[237,-36],[17,-59],[261,-58]],[[7237,484],[151,-35],[86,-240]],[[3380,7297],[71,-54],[88,-35],[287,-32],[227,-57],[408,-150],[103,-21],[159,-63]],[[4723,6885],[303,-153],[194,-193],[156,-101]],[[5376,6438],[-58,-32],[-167,89],[-20,-21],[-489,282]],[[3006,6772],[-59,175],[393,101],[79,5],[-280,150]],[[3139,7203],[-156,82],[58,76],[-98,115],[-135,57],[-124,77],[-15,93],[141,-63],[262,-145],[111,-111],[96,-65],[101,-22]],[[4594,7523],[-424,219],[-99,-186],[-120,58],[-83,61],[-109,40],[-366,185]],[[4030,8101],[49,102],[174,-63],[-38,-77],[284,-81],[11,34],[143,-9],[129,288]],[[4969,8919],[-147,56],[107,202],[-10,4],[139,264],[226,-90],[138,-74],[18,-118],[-60,-101],[-1,-61]],[[3788,5766],[-177,7],[-68,106],[-106,22],[-59,67],[-91,-3],[-236,99],[-226,7],[-175,34],[-256,5],[-155,32],[-184,-9],[-129,24],[-129,-9],[-137,32],[-166,-2],[-61,-40],[-112,7],[-65,-21],[-66,16],[-93,86],[37,44],[-141,67]],[[993,6337],[460,74],[180,20],[165,55],[156,10]],[[8354,2153],[-140,26],[-228,-9]],[[7986,2170],[-50,138],[24,323],[-62,414],[44,149],[-27,127],[-125,142],[-33,112],[-1,89],[-36,83],[-39,165],[2,155],[-97,144],[-21,164],[-76,339],[-94,166],[-119,269],[-74,103],[-102,101],[-221,193],[-137,131],[-41,123],[-10,97]],[[6691,5897],[98,-4],[300,-59],[32,86],[72,76]],[[7193,5996],[140,-58],[117,60],[208,58],[130,103],[178,0],[80,-59],[122,71],[188,39],[245,273],[46,35],[86,207],[140,53],[75,88],[279,27],[96,63]],[[9323,6956],[87,-105],[-135,-245],[-282,-229],[-109,-196],[-86,-54],[-50,-135],[-72,-305],[-99,-40],[-57,8],[-10,-110]],[[5923,7247],[-334,-515],[-213,-294]],[[4723,6885],[33,51]],[[5399,7503],[524,-256]],[[6005,4233],[-69,-131]],[[5936,4102],[-264,-129],[-231,-98],[-91,-28]],[[5350,3847],[-71,91],[-100,171],[-44,343],[20,31],[272,223],[189,166],[1,65]],[[1948,6695],[-157,-2],[-97,24],[-158,103],[-130,7],[-219,-146],[-160,-32],[-179,-14]],[[848,6635],[-260,274],[171,39]],[[1914,7133],[541,-12]],[[2455,7121],[310,-9],[374,91]],[[6330,7811],[-139,-196],[-70,-124],[-198,-244]],[[5962,8641],[21,64],[81,-41],[-6,-43],[309,-70],[135,-8],[204,-120],[160,-66],[177,-34],[109,-54],[147,29],[111,-2],[579,-103],[258,-99],[4,-82],[-47,-34],[-59,-124],[-55,-76],[-210,-15]],[[574,6358],[-203,-89],[5,-135],[-66,-8],[-21,132],[-158,51],[-131,21],[0,18],[297,165],[27,25]],[[848,6635],[-109,-47],[-113,-175],[-52,-55]],[[8868,7194],[180,-7],[267,55]],[[9315,7242],[-314,-131],[-234,-184]],[[8767,6927],[-283,-93],[-226,-60],[-227,-72],[-64,3],[-728,336]],[[4276,8545],[-77,27],[-31,-61]],[[4168,8511],[-63,45],[-111,36],[33,70],[-84,29],[38,62],[-173,63],[-32,-60],[-144,65],[-24,-41],[-143,56],[92,177],[-129,46],[-16,-22],[-325,124],[-47,-79],[-245,94],[-66,8],[-59,-103],[-164,86],[-185,137]],[[2794,9810],[654,9],[-69,-125],[-104,-155],[-15,-104],[198,-81],[120,-79],[135,-19],[71,10],[207,-32],[-43,-103],[196,-47],[30,13],[118,-68],[153,-17],[228,-92],[117,-8],[-29,-137]],[[6140,6127],[-298,136]],[[5842,6263],[46,85],[117,149],[263,365],[133,168],[204,-61],[336,-124]],[[6941,6845],[-150,-235]],[[6791,6610],[-225,-319],[-87,-136],[-90,19],[-183,10],[-66,-57]],[[5376,6438],[75,-39],[391,-136]],[[6140,6127],[-31,-59],[-83,-17],[-227,122],[-276,90],[-179,-89],[-259,73],[-189,-29]],[[6193,3593],[-490,-86],[-48,143],[-24,7],[-411,-68],[-62,5]],[[5158,3594],[30,40],[262,55],[-100,158]],[[5936,4102],[-25,-62],[95,-335],[32,-48],[93,-56],[62,-8]],[[7989,2165],[121,-279],[61,-117],[55,-243],[37,-90],[20,-115],[-30,-237],[2,-267],[70,-176],[9,-119],[-75,-498],[-345,-22],[-16,169],[-203,3],[-66,-98],[-81,-45],[-74,178]],[[7237,484],[-12,57],[216,20],[55,117],[2,96],[-207,6],[3,139],[-358,-24],[7,174],[452,20],[404,29],[202,-3],[-34,175],[-197,-24],[-68,270],[-159,423],[-98,154],[-28,148],[-51,-14],[-19,104],[-110,-18],[-18,155],[-25,70],[-50,-1],[-47,-104],[-78,-43],[-67,-126],[34,-100],[-30,3]],[[6956,2187],[-51,71],[9,73],[38,43],[-1,97],[-42,225],[-28,67],[-65,72],[-74,34],[-56,102],[111,41],[54,66],[-37,51],[-9,157],[-101,244],[184,61],[112,51],[-22,-194],[344,17],[0,67],[78,3],[2,76],[66,-7],[14,-209],[-184,-14],[5,-35],[-90,-7],[19,-134],[34,-69],[195,17],[-7,63],[40,10],[19,-165],[122,-136],[33,-72],[80,-341],[9,-97],[-16,-152],[29,-111],[219,13]],[[7193,5996],[186,229],[37,110]],[[7416,6335],[83,234],[248,-93],[113,-31],[186,9],[172,69],[200,119],[25,-19],[175,184],[149,120]],[[9315,7242],[73,3],[34,-36],[-49,-44],[40,-47],[96,4],[25,-61],[-66,-93],[-114,23],[-31,-35]],[[1363,8031],[127,-17],[108,7],[132,-16],[322,-121],[114,-17],[397,-17],[103,-35],[114,-68],[348,-227],[252,-223]],[[2455,7121],[1,99],[243,-5],[37,-13],[14,99],[-41,14],[4,124],[-174,87],[-135,3],[-103,30],[-101,-2],[-51,31]],[[6140,6127],[105,-37],[237,-22],[109,-43],[100,-128]],[[7986,2170],[3,-5]],[[6956,2187],[-344,-25],[-215,-29],[-58,506],[-44,452],[-17,113]],[[6278,3204],[-85,389]],[[3964,8176],[123,240],[38,-12],[43,107]],[[1224,8053],[5,139],[50,59]],[[1279,8251],[122,26],[139,-24],[479,-109],[290,-96]],[[993,6337],[-265,35],[-154,-14]],[[2174,8590],[-404,139],[-54,3],[-335,116],[93,189],[76,67]],[[7000,6944],[-59,-99]],[[6278,3204],[-128,-53],[-158,-26],[27,-116],[-132,-38],[-26,19],[39,72],[-172,-50],[-79,-44],[-129,0],[-14,147],[-60,-23],[5,-59],[-60,44],[-135,28],[-24,54],[-102,43],[-14,62],[28,73],[-13,142],[-53,112],[80,3]],[[7416,6335],[-51,14],[-403,195],[-171,66]],[[1279,8251],[-49,37],[-70,197],[52,51],[-82,92],[-52,28],[-16,94],[-56,33],[-99,137],[-18,70],[125,-11],[13,52],[184,-20],[2,54]]]}
