{"type":"Topology","bbox":[-73.18026293427948,6.528964498523794,-73.15446857726431,6.552658373541101],"transform":{"scale":[0.0000025796936708843292,0.000002369624464177142],"translate":[-73.18026293427948,6.528964498523794]},"objects":{"municipios":{"type":"GeometryCollection","geometries":[{"type":"Polygon","arcs":[[0,1]],"properties":{"codigo":"68549100000000000101","sector":"685491000000000001","pcode":"CO68549","area_m2":183322}},{"type":"Polygon","arcs":[[-2,2]],"properties":{"codigo":"68549100000000000102","sector":"685491000000000001","pcode":"CO68549","area_m2":139364}},{"type":"MultiPolygon","arcs":[[[3]],[[4]]],"properties":{"codigo":"68549200101003000101","sector":"685492001010030001","pcode":"CO68549","area_m2":39347}}]}},"arcs":[[[2669,880],[-280,-115],[57,-79],[-172,-159],[-300,18],[-346,-206],[-174,-39],[-197,-275],[-135,-25],[-164,134],[-284,11],[-258,-119],[-267,39],[-143,102],[253,285],[61,271],[268,122],[171,-246],[284,264],[468,64],[-287,528],[499,280],[144,-295],[160,69],[-59,140],[490,347]],[[2458,1996],[439,-846],[-290,-164],[62,-106]],[[2458,1996],[92,119],[212,-52],[309,182],[77,-137],[225,141],[116,-186],[130,166],[148,-139],[-141,-168],[196,-304],[297,-299],[8,-183],[186,-210],[-305,-302],[-508,679],[-186,-137],[175,-82],[242,-495],[-406,-262],[-258,521],[-296,-167],[-102,199]],[[9877,9934],[69,-11],[53,-883],[-228,-141],[-380,345],[-122,172],[353,496],[255,22]],[[8897,9345],[-2,146],[202,139],[61,-82],[-261,-203]]]}
