{"type":"Topology","bbox":[-73.9114612741754,7.223486581395857,-73.67749147634089,8.07988826802548],"transform":{"scale":[0.000023399319715421974,0.00008564873353631588],"translate":[-73.9114612741754,7.223486581395857]},"objects":{"municipios":{"type":"GeometryCollection","geometries":[{"type":"Polygon","arcs":[[0]],"properties":{"codigo":"68575200102004000101","sector":"685752001020040001","pcode":"CO68575","area_m2":36994}},{"type":"MultiPolygon","arcs":[[[1]],[[2]]],"properties":{"codigo":"68575200605026000101","sector":"685752006050260001","pcode":"CO68575","area_m2":8252}},{"type":"Polygon","arcs":[[3]],"properties":{"codigo":"68575201202031000101","sector":"685752012020310001","pcode":"CO68575","area_m2":59156}},{"type":"Polygon","arcs":[[4,5,6,7]],"properties":{"codigo":"68575100000000000102","sector":"685751000000000001","pcode":"CO68575","area_m2":75753}},{"type":"Polygon","arcs":[[8,9,10,-5,11]],"properties":{"codigo":"68575100000000000103","sector":"685751000000000001","pcode":"CO68575","area_m2":195672}},{"type":"Polygon","arcs":[[12,13,14,15,-10]],"properties":{"codigo":"68575100000000000105","sector":"685751000000000001","pcode":"CO68575","area_m2":113598}},{"type":"Polygon","arcs":[[-6,-11,-16,16,17,18,19]],"properties":{"codigo":"68575100000000000106","sector":"685751000000000001","pcode":"CO68575","area_m2":188990}},{"type":"Polygon","arcs":[[20,21,22,-17,-15]],"properties":{"codigo":"68575100000000000205","sector":"685751000000000002","pcode":"CO68575","area_m2":166744}},{"type":"Polygon","arcs":[[23]],"properties":{"codigo":"68575201702030000101","sector":"685752017020300001","pcode":"CO68575","area_m2":19659}},{"type":"Polygon","arcs":[[24]],"properties":{"codigo":"68575202002011000101","sector":"685752020020110001","pcode":"CO68575","area_m2":35861}},{"type":"Polygon","arcs":[[25,26,27,28]],"properties":{"codigo":"68575202005015000102","sector":"685752020050150001","pcode":"CO68575","area_m2":55734}},{"type":"Polygon","arcs":[[29]],"properties":{"codigo":"68575201202023000101","sector":"685752012020230001","pcode":"CO68575","area_m2":209038}},{"type":"Polygon","arcs":[[30,31]],"properties":{"codigo":"68575201104024000101","sector":"685752011040240001","pcode":"CO68575","area_m2":141122}},{"type":"Polygon","arcs":[[32]],"properties":{"codigo":"68575200804028000101","sector":"685752008040280001","pcode":"CO68575","area_m2":6028}},{"type":"Polygon","arcs":[[33]],"properties":{"codigo":"68575200503022000101","sector":"685752005030220001","pcode":"CO68575","area_m2":27055}},{"type":"Polygon","arcs":[[34,35,36,37]],"properties":{"codigo":"68575100000000000203","sector":"685751000000000002","pcode":"CO68575","area_m2":146602}},{"type":"Polygon","arcs":[[38]],"properties":{"codigo":"68575200104001000101","sector":"685752001040010001","pcode":"CO68575","area_m2":97445}},{"type":"Polygon","arcs":[[-7,-20,39]],"properties":{"codigo":"68575100000000000101","sector":"685751000000000001","pcode":"CO68575","area_m2":161737}},{"type":"Polygon","arcs":[[40]],"properties":{"codigo":"68575200601003000101","sector":"685752006010030001","pcode":"CO68575","area_m2":203457}},{"type":"Polygon","arcs":[[41,42,43,-13,-9,44]],"properties":{"codigo":"68575100000000000104","sector":"685751000000000001","pcode":"CO68575","area_m2":328730}},{"type":"Polygon","arcs":[[45,-21,-14,-44]],"properties":{"codigo":"68575100000000000107","sector":"685751000000000001","pcode":"CO68575","area_m2":147192}},{"type":"Polygon","arcs":[[-42,46]],"properties":{"codigo":"68575100000000000108","sector":"685751000000000001","pcode":"CO68575","area_m2":183773}},{"type":"Polygon","arcs":[[47,48,-18,-23,49]],"properties":{"codigo":"68575100000000000201","sector":"685751000000000002","pcode":"CO68575","area_m2":292188}},{"type":"Polygon","arcs":[[50,-37,51,-48]],"properties":{"codigo":"68575100000000000202","sector":"685751000000000002","pcode":"CO68575","area_m2":317478}},{"type":"Polygon","arcs":[[-35,52]],"properties":{"codigo":"68575100000000000204","sector":"685751000000000002","pcode":"CO68575","area_m2":259328}},{"type":"MultiPolygon","arcs":[[[53]],[[54]]],"properties":{"codigo":"68575202006019000101","sector":"685752020060190001","pcode":"CO68575","area_m2":58004}},{"type":"Polygon","arcs":[[55]],"properties":{"codigo":"68575200602005000101","sector":"685752006020050001","pcode":"CO68575","area_m2":41420}},{"type":"Polygon","arcs":[[56]],"properties":{"codigo":"68575200204006000101","sector":"685752002040060001","pcode":"CO68575","area_m2":56681}},{"type":"Polygon","arcs":[[57,58]],"properties":{"codigo":"68575201305007000101","sector":"685752013050070001","pcode":"CO68575","area_m2":159009}},{"type":"Polygon","arcs":[[-58,59]],"properties":{"codigo":"68575201305007000102","sector":"685752013050070001","pcode":"CO68575","area_m2":98468}},{"type":"Polygon","arcs":[[60]],"properties":{"codigo":"68575200605013000101","sector":"685752006050130001","pcode":"CO68575","area_m2":46525}},{"type":"MultiPolygon","arcs":[[[61]],[[62]]],"properties":{"codigo":"68575201701014000101","sector":"685752017010140001","pcode":"CO68575","area_m2":96779}},{"type":"Polygon","arcs":[[-28,63,64]],"properties":{"codigo":"68575202005015000101","sector":"685752020050150001","pcode":"CO68575","area_m2":172189}},{"type":"Polygon","arcs":[[65,66,-64,-27,67]],"properties":{"codigo":"68575202005015000103","sector":"685752020050150001","pcode":"CO68575","area_m2":78202}},{"type":"Polygon","arcs":[[68,-68,-26,69,70]],"properties":{"codigo":"68575202005015000104","sector":"685752020050150001","pcode":"CO68575","area_m2":83314}},{"type":"Polygon","arcs":[[71,-66,-69,72]],"properties":{"codigo":"68575202005015000105","sector":"685752020050150001","pcode":"CO68575","area_m2":140137}},{"type":"Polygon","arcs":[[-73,-71,73]],"properties":{"codigo":"68575202005015000106","sector":"685752020050150001","pcode":"CO68575","area_m2":36238}},{"type":"Polygon","arcs":[[74,75]],"properties":{"codigo":"68575200305018000101","sector":"685752003050180001","pcode":"CO68575","area_m2":102575}},{"type":"Polygon","arcs":[[76,-75]],"properties":{"codigo":"68575200305018000102","sector":"685752003050180001","pcode":"CO68575","area_m2":124573}},{"type":"Polygon","arcs":[[77,-31]],"properties":{"codigo":"68575201104024000102","sector":"685752011040240001","pcode":"CO68575","area_m2":151914}},{"type":"Polygon","arcs":[[78]],"properties":{"codigo":"68575202003025000101","sector":"685752020030250001","pcode":"CO68575","area_m2":135995}},{"type":"Polygon","arcs":[[79]],"properties":{"codigo":"68575200902027000101","sector":"685752009020270001","pcode":"CO68575","area_m2":76839}},{"type":"Polygon","arcs":[[80]],"properties":{"codigo":"68575200807029000101","sector":"685752008070290001","pcode":"CO68575","area_m2":25410}}]}},"arcs":[[[2909,9983],[1,16],[31,0],[1,-4],[23,-1],[1,-4],[14,0],[-6,-15],[-40,-1],[0,-2],[-27,1],[2,10]],[[4583,4670],[-44,2],[2,4],[39,-2],[3,-4]],[[4528,4692],[-7,4],[26,2],[8,-5],[-27,-1]],[[1194,1178],[18,-4],[40,-3],[-13,-12],[-7,-16],[-10,0],[0,-5],[-17,1],[-2,-6],[-28,1],[5,20],[-20,1],[27,22],[7,1]],[[566,1503],[-12,-35]],[[554,1468],[-71,1]],[[483,1469],[-7,8],[6,1],[6,16],[-33,1],[5,9]],[[460,1504],[30,2],[16,-2],[12,3],[36,-2],[12,-2]],[[792,1490],[18,0],[-15,-20],[-41,-1],[2,-10]],[[756,1459],[-71,0],[-49,-3],[-82,1]],[[554,1457],[0,11]],[[566,1503],[23,-4],[11,-8],[73,-1],[56,1],[1,3],[25,0],[6,-4],[31,0]],[[756,1459],[-1,-18]],[[755,1441],[-36,-29]],[[719,1412],[-28,2],[-12,28],[-125,1]],[[554,1443],[0,14]],[[554,1443],[-159,2]],[[395,1445],[-171,2]],[[224,1447],[20,24]],[[244,1471],[67,-1],[77,-1],[95,0]],[[719,1412],[-12,-10]],[[707,1402],[-67,3],[-3,5],[-9,4],[-31,3],[0,7],[-71,2],[-104,2],[-1,-1]],[[421,1427],[-37,3],[11,15]],[[9073,709],[15,0],[32,-2],[14,3],[12,-25],[-17,-1],[-9,17],[-21,-1],[-4,-2],[-19,1],[-3,10]],[[7458,1200],[49,-6],[9,-3],[21,-1],[19,-3],[-35,-5],[2,-12],[-69,10],[-16,5],[31,-4],[-4,13],[-18,6],[11,0]],[[5348,303],[-6,-10],[-15,-33]],[[5327,260],[-1,-3]],[[5326,257],[-48,3],[0,13]],[[5278,273],[12,2],[5,18],[33,-1],[8,3],[11,27],[-10,7],[13,-2],[12,26],[10,1],[-16,-29],[-8,-22]],[[3095,1245],[23,3],[13,-3],[23,-13],[-2,-6],[9,-7],[-6,-11],[-54,0],[3,-11],[-14,1],[-44,-2],[-15,5],[-14,-2],[-57,11],[20,4],[6,4],[-40,1],[-10,5],[42,0],[0,8],[16,1],[-3,17],[22,-2],[2,12],[39,-5],[20,1],[21,-11]],[[5873,1176],[-104,3],[5,11],[-128,8]],[[5646,1198],[2,4],[119,-3],[-3,6],[13,0],[0,11],[5,3],[23,4],[47,-2],[-14,-11],[11,0],[8,-5],[3,4],[14,-3],[9,-10],[8,-3],[58,-3],[1,-4],[-23,1],[-2,-3],[-18,1],[2,-10],[-36,1]],[[261,2813],[21,0],[-4,-7],[-21,-3],[-13,9],[17,1]],[[4738,6569],[13,-12],[-14,0],[-1,-8],[-23,-3],[-20,12],[-22,-4],[-9,3],[28,4],[-14,7],[62,1]],[[217,1299],[-12,1],[-12,-10],[-100,8]],[[93,1298],[26,38],[8,7]],[[127,1343],[142,-16],[-6,-3],[12,-2],[-17,-10],[7,-1]],[[265,1311],[-16,-2],[-13,-6],[-10,2],[-9,-6]],[[2414,8783],[43,2],[5,-5],[13,0],[40,4],[-4,-4],[6,-12],[9,-3],[-29,-8],[-7,3],[-22,-6],[-28,-4],[-40,12],[-62,21],[67,5],[9,-5]],[[244,1471],[20,26],[135,-1],[2,7],[9,3],[35,-2],[15,0]],[[4957,6054],[-4,-8],[-43,1],[-4,-11],[62,-2],[0,-3],[-26,1],[11,-3],[0,-8],[-10,-1],[-1,-22],[-34,0],[2,-24],[21,-3],[-13,-8],[-32,4],[-80,4],[15,29],[21,33],[14,17],[51,-4],[1,6],[34,2],[15,0]],[[926,1488],[-27,-29],[-6,0],[-7,-11],[12,-12],[66,-16],[6,0]],[[970,1420],[-48,-14],[-31,-13],[8,-3],[-25,-5],[-9,-4],[-29,4],[-23,2],[9,-17],[-80,7],[10,7],[-9,1]],[[743,1385],[74,36],[27,7],[16,7],[3,10],[-3,9],[-51,15],[-32,-26],[-22,-2]],[[792,1490],[22,15],[-20,4],[14,4],[27,-4],[0,-3],[38,-5],[-4,-3],[7,-5],[28,-1],[22,-4]],[[743,1385],[-36,4],[-10,7],[10,6]],[[926,1488],[12,-3],[18,5],[70,-7],[17,-5],[-2,-4],[18,-3],[-28,-11],[22,-6],[-60,-17],[15,-2],[-17,-6],[-26,1],[20,-4],[-15,-6]],[[360,1380],[-33,2],[-10,-9],[-6,0],[3,13],[-38,0],[-8,-9],[-3,15],[-87,1]],[[178,1393],[46,54]],[[421,1427],[-38,-25],[9,-3],[-15,-9],[29,-2],[-10,-11],[-36,3]],[[360,1380],[-12,-9],[39,-3],[15,8],[36,-8],[-33,-21],[-40,5],[-13,-7],[-26,-10],[-14,-9],[2,-3],[-18,-1],[-19,-9],[-12,-2]],[[127,1343],[33,29],[18,21]],[[217,1299],[-10,-11],[-29,-23],[-18,-16],[-7,-12],[-12,1],[-3,-5],[-22,2],[0,-4],[-26,-37],[-28,-22],[-62,6],[45,46],[24,38],[24,36]],[[9928,315],[12,-4],[-13,-4],[12,-1],[24,1],[6,-4],[-6,-9],[-41,-2],[-18,0],[14,-4],[5,-6],[-28,6],[-33,11],[-6,10],[5,6],[48,2],[19,-2]],[[9882,338],[-5,-7],[-11,0],[-2,5],[10,5],[8,-3]],[[4707,5404],[28,-2],[3,-4],[40,-3],[23,-3],[-7,-3],[-25,4],[-31,3],[-38,0],[-27,-3],[-22,-5],[18,-6],[-11,-8],[-6,5],[-27,-3],[-3,4],[-27,16],[32,3],[7,-5],[35,5],[38,5]],[[3275,8475],[16,-11],[23,3],[14,-2],[9,-7],[13,2],[16,-10],[15,-1],[-92,-11],[-49,35],[35,2]],[[2918,43],[-23,-5],[-16,5],[-58,-15],[-34,-7]],[[2787,21],[-22,8],[-21,13],[-25,11],[-13,13],[47,1],[2,4],[35,10],[11,8],[29,0],[-1,-14],[9,0],[0,-10],[22,-11],[33,-3],[18,-4],[7,-4]],[[2918,43],[31,-4],[1,-3],[-25,-6],[-8,-5],[24,-7],[-77,-18],[-32,12],[-17,-2],[-13,5],[-26,-6],[-16,6],[27,6]],[[3695,4255],[-12,-11],[6,-1],[-10,-6],[38,-5],[-5,-3],[35,-5],[-12,-7],[-35,6],[-16,-4],[-48,9],[-20,4],[22,9],[8,-2],[32,16],[12,3],[5,-3]],[[9996,1481],[3,-4],[-14,-1],[5,-3],[-60,-6],[12,-1],[3,-5],[-32,-4],[-7,-4],[2,-6],[12,-1],[-30,0],[-10,-5],[-22,1],[18,14],[-13,6],[14,2],[-8,9],[36,6],[14,-1],[44,3],[28,5],[5,-5]],[[9829,1478],[0,-5],[22,3],[10,-4],[-42,-7],[15,-11],[-18,-2],[-18,4],[-57,-6],[-30,0],[0,7],[85,6],[-3,4],[28,4],[1,7],[7,0]],[[5326,257],[-7,-5],[-1,-13],[-5,-8]],[[5313,231],[-34,0],[-94,-5],[-3,16],[28,1],[11,2],[-2,6],[18,1],[2,4],[-24,0],[-25,-9],[-32,4],[0,4],[-20,4],[0,13],[54,1],[7,-5],[6,10],[2,14],[67,0],[-13,-14],[17,-5]],[[5451,261],[6,-5],[16,-2]],[[5473,254],[-9,0],[-7,-9],[-74,-1],[4,-4],[-3,-14],[-71,5]],[[5327,260],[76,-1],[48,2]],[[5400,291],[7,-6],[34,-20],[10,-4]],[[5348,303],[15,-1],[15,3]],[[5378,305],[22,-14]],[[5480,294],[21,-14],[61,4],[21,9],[27,-1],[-10,-8],[5,-8],[-8,0],[3,-10],[-30,-4],[5,-5],[-6,-6],[-78,3],[-18,0]],[[5400,291],[40,6],[11,-7],[29,4]],[[5378,305],[-1,3],[82,5],[21,-19]],[[4150,7333],[-34,-4],[-6,3],[-56,-8],[17,-8],[-41,-6]],[[4030,7310],[-43,20],[-23,31],[32,4],[7,-4],[14,0],[3,-7],[11,1],[13,-7],[16,0],[6,-9],[28,-2],[37,5],[9,-3],[17,2],[8,-6],[-15,-2]],[[4150,7333],[21,-10],[24,-14],[-56,-9],[24,-15],[-64,-7],[-69,32]],[[5873,1176],[-1,-5],[-21,1],[-5,-2],[-6,-14],[-56,4],[-175,9],[11,7],[5,8],[-67,2],[-1,4],[16,-1],[37,2],[7,1],[32,1],[-3,5]],[[5002,1066],[17,3],[18,-8],[-5,-1],[26,-16],[31,-16],[44,-13],[5,-4],[36,-20],[-35,-7],[11,-6],[-14,-3],[-31,19],[-10,-1],[-13,7],[11,2],[-40,22],[-23,11],[-17,12],[-15,-2],[-38,18],[5,6],[-15,7],[-14,3],[4,5],[28,2],[34,-20]],[[5741,2313],[4,-9],[15,-1],[-16,-5],[-14,-1],[-10,-5],[-17,-4],[-43,-5],[-59,18],[14,8],[31,-10],[7,3],[12,-4],[8,2],[-18,9],[46,3],[-15,14],[21,2],[25,-3],[9,-12]],[[1005,2221],[6,-7],[-12,-14],[-42,4],[16,5],[-35,2],[8,9],[34,2],[25,0],[0,-1]]]}
