{"type":"Topology","bbox":[-72.70767200568633,6.643574480800566,-72.69727969600473,6.6702276216227],"transform":{"scale":[0.0000010393349016507744,0.000002665580640277427],"translate":[-72.70767200568633,6.643574480800566]},"objects":{"municipios":{"type":"GeometryCollection","geometries":[{"type":"Polygon","arcs":[[0,1]],"properties":{"codigo":"68266100000000000101","sector":"682661000000000001","pcode":"CO68266","area_m2":78605}},{"type":"Polygon","arcs":[[2]],"properties":{"codigo":"68266200103002000101","sector":"682662001030020001","pcode":"CO68266","area_m2":33619}},{"type":"Polygon","arcs":[[-1,3]],"properties":{"codigo":"68266100000000000102","sector":"682661000000000001","pcode":"CO68266","area_m2":86284}}]}},"arcs":[[[6711,9717],[590,58],[71,-280],[527,-760],[548,50],[154,-287]],[[8601,8498],[-345,-3],[-1047,-128],[-866,303],[-362,404],[-148,-9],[-194,374],[226,4],[-84,260],[30,204],[432,-41],[27,-145],[441,-4]],[[1191,1064],[254,43],[9,-171],[445,-367],[-243,13],[-214,-190],[-123,4],[-365,-185],[-121,31],[-249,-211],[-216,49],[-192,-80],[-176,155],[539,-23],[213,176],[-160,44],[61,167],[-520,-31],[55,318],[621,79],[-185,314],[332,70],[235,-205]],[[6711,9717],[-34,185],[1527,97],[-261,-145],[767,-64],[60,-161],[783,10],[65,-488],[381,-168],[-830,-136],[288,-463],[-785,5],[-71,109]]]}
