{"type":"Topology","bbox":[-73.92945542041178,6.05219826994163,-73.81228951621046,6.131126293587497],"transform":{"scale":[0.000011717762196352524,0.00000789359172375907],"translate":[-73.92945542041178,6.05219826994163]},"objects":{"municipios":{"type":"GeometryCollection","geometries":[{"type":"Polygon","arcs":[[0]]},{"type":"Polygon","arcs":[[1]]},{"type":"Polygon","arcs":[[2,3]]},{"type":"MultiPolygon","arcs":[[[-4,4]],[[5]]]},{"type":"Polygon","arcs":[[6]]},{"type":"Polygon","arcs":[[7]]},{"type":"Polygon","arcs":[[8]]}]}},"arcs":[[[5122,9982],[91,-69],[55,-63],[26,-81],[-33,-16],[-5,32],[-53,1],[-27,83],[-89,85],[7,45],[28,-17]],[[142,9567],[8,-91],[-10,-31],[-51,1],[-8,-126],[-51,13],[20,101],[-43,8],[-7,51],[43,4],[6,115],[62,-43],[31,-2]],[[9547,74],[-59,51],[72,268],[-20,65],[10,32],[40,-34],[42,90],[12,126],[61,90],[54,-47],[-29,-85],[41,-44]],[[9771,586],[-34,-154],[-21,-60],[-65,-106],[-28,12],[-38,-167],[-38,-37]],[[9771,586],[20,13],[122,-67],[-18,-49],[53,-44],[-10,-64],[16,-14],[-24,-45],[-57,-33],[-66,44],[-78,-51],[-15,14],[-18,-46],[46,-30],[16,-56],[-97,-104],[-42,7],[-23,-61],[-59,58],[10,16]],[[9930,573],[-92,93],[-15,39],[24,32],[43,4],[15,37],[57,-60],[37,-16],[-69,-129]],[[7400,3345],[-13,-55],[-23,27],[-33,-6],[-56,30],[16,64],[-26,62],[22,52],[80,-92],[-11,-28],[44,-54]],[[2432,5440],[20,6],[19,-88],[-28,-70],[3,-59],[-38,-3],[-13,37],[-7,159],[44,18]],[[827,6007],[-74,64],[-42,59],[27,57],[50,45],[62,97],[39,9],[-6,-53],[21,-115],[-29,-55],[-6,-76],[-42,-32]]]}
