{"type":"Topology","bbox":[-72.8795251116349,6.699653907055872,-72.78276085043149,6.8188032381841115],"transform":{"scale":[0.000009677393859727803,0.000011916124725296496],"translate":[-72.8795251116349,6.699653907055872]},"objects":{"municipios":{"type":"GeometryCollection","geometries":[{"type":"Polygon","arcs":[[0,1,2]],"properties":{"codigo":"68669100000000000102","sector":"686691000000000001","pcode":"CO68669","area_m2":38937}},{"type":"Polygon","arcs":[[3,4,5]],"properties":{"codigo":"68669100000000000104","sector":"686691000000000001","pcode":"CO68669","area_m2":47668}},{"type":"Polygon","arcs":[[6,7,-5]],"properties":{"codigo":"68669100000000000105","sector":"686691000000000001","pcode":"CO68669","area_m2":115238}},{"type":"Polygon","arcs":[[-3,8,9]],"properties":{"codigo":"68669100000000000101","sector":"686691000000000001","pcode":"CO68669","area_m2":229573}},{"type":"Polygon","arcs":[[10,-6,-8,11,-9,-2]],"properties":{"codigo":"68669100000000000103","sector":"686691000000000001","pcode":"CO68669","area_m2":57898}},{"type":"Polygon","arcs":[[12]],"properties":{"codigo":"68669200304005000101","sector":"686692003040050001","pcode":"CO68669","area_m2":320403}},{"type":"Polygon","arcs":[[13]],"properties":{"codigo":"68669200204007000101","sector":"686692002040070001","pcode":"CO68669","area_m2":40245}}]}},"arcs":[[[3312,9382],[-22,-29],[-61,-32]],[[3229,9321],[-208,108]],[[3021,9429],[78,103],[156,-85],[-53,-46],[57,-32],[21,29],[32,-16]],[[3208,9260],[-27,-50],[-38,13],[-31,-58],[25,-10],[-31,-41],[29,-20],[-20,-61],[-50,9]],[[3065,9042],[13,80],[-177,82]],[[2901,9204],[41,51],[-41,25],[40,50],[152,-83],[56,-25],[33,50],[26,-12]],[[3065,9042],[-27,-4],[72,-46],[-13,-24],[23,-63],[-35,-13],[-105,11],[33,-82],[-60,-7],[-49,11],[-34,-27],[-38,-10],[-52,20],[-2,24],[102,223]],[[2880,9055],[12,24],[-54,25],[63,100]],[[3021,9429],[-39,-51],[-27,17]],[[2955,9395],[36,67],[47,30],[42,61],[32,13],[38,73],[25,14],[23,47],[82,130],[31,16],[-24,17],[43,50],[75,27],[84,59],[35,-13],[-113,-140],[99,-55],[87,-58],[-37,-35],[6,-41],[-37,-67],[0,-32],[-35,-67],[-48,22],[-22,-17],[-8,-34],[-74,-84],[-30,4]],[[3229,9321],[-10,-43],[33,-16],[-12,-14],[-32,12]],[[2880,9055],[-48,22],[8,71],[38,60],[0,38],[-34,17],[34,11],[63,82],[14,39]],[[651,496],[-52,-43],[40,-30],[-41,-71],[58,-37],[59,43],[98,42],[32,-74],[40,-70],[54,21],[-8,-37],[-24,-9],[68,-111],[-71,-34],[-61,20],[-56,-11],[-78,-40],[-27,-5],[-52,24],[-26,-2],[1,-72],[-225,119],[-85,24],[-17,-14],[-33,12],[1,24],[-58,49],[-38,-10],[-94,56],[-11,17],[-45,9],[140,123],[65,-39],[16,-26],[68,-32],[43,30],[70,31],[16,-16],[52,45],[30,40],[71,15],[41,32],[39,7]],[[9998,5851],[-107,-81],[-18,7],[-9,-30],[-56,-47],[-32,-3],[-47,51],[-17,-14],[-47,49],[33,-6],[25,14],[-21,23],[24,29],[49,24],[54,-14],[35,20],[37,-44],[85,45],[12,-23]]]}
