{"type":"Topology","bbox":[-73.24176819995637,6.625414796485546,-73.21751990765932,6.680610343577322],"transform":{"scale":[0.000002425071736878216,0.0000055201067198495616],"translate":[-73.24176819995637,6.625414796485546]},"objects":{"municipios":{"type":"GeometryCollection","geometries":[{"type":"Polygon","arcs":[[0,1,2]],"properties":{"codigo":"68079100000000000105","sector":"680791000000000001","pcode":"CO68079","area_m2":197785}},{"type":"Polygon","arcs":[[3,4,5,6,7,8]],"properties":{"codigo":"68079100000000000201","sector":"680791000000000002","pcode":"CO68079","area_m2":86377}},{"type":"Polygon","arcs":[[9,10,11,-6]],"properties":{"codigo":"68079100000000000202","sector":"680791000000000002","pcode":"CO68079","area_m2":96107}},{"type":"Polygon","arcs":[[-12,12,13,14,15,-7]],"properties":{"codigo":"68079100000000000204","sector":"680791000000000002","pcode":"CO68079","area_m2":125375}},{"type":"Polygon","arcs":[[16,-15]],"properties":{"codigo":"68079100000000000205","sector":"680791000000000002","pcode":"CO68079","area_m2":102142}},{"type":"Polygon","arcs":[[17]],"properties":{"codigo":"68079200102001000101","sector":"680792001020010001","pcode":"CO68079","area_m2":124269}},{"type":"Polygon","arcs":[[18,19,-4,20,21]],"properties":{"codigo":"68079100000000000103","sector":"680791000000000001","pcode":"CO68079","area_m2":103084}},{"type":"Polygon","arcs":[[-21,-9,22]],"properties":{"codigo":"68079100000000000101","sector":"680791000000000001","pcode":"CO68079","area_m2":138271}},{"type":"Polygon","arcs":[[23,24,-10,-5,-20,25,-2]],"properties":{"codigo":"68079100000000000104","sector":"680791000000000001","pcode":"CO68079","area_m2":98575}},{"type":"Polygon","arcs":[[26,-13,-11,-25]],"properties":{"codigo":"68079100000000000203","sector":"680791000000000002","pcode":"CO68079","area_m2":183304}},{"type":"Polygon","arcs":[[-3,-26,-19,27]],"properties":{"codigo":"68079100000000000102","sector":"680791000000000001","pcode":"CO68079","area_m2":68841}}]}},"arcs":[[[9501,1629],[-179,-85],[-267,0],[2,-109],[301,-93],[44,-60],[-127,-287],[80,19],[288,-28],[356,0],[-59,-175],[-105,-60],[137,-69],[-835,-49],[-138,-35],[-474,82],[-403,49],[246,357]],[[8368,1086],[26,148],[-187,202],[-21,104],[208,12],[129,51],[351,9],[-55,88],[162,17]],[[8981,1717],[134,-67],[386,-21]],[[7661,2403],[79,-454]],[[7740,1949],[-9,-1]],[[7731,1948],[-332,3],[-687,-25]],[[6712,1926],[-14,201]],[[6698,2127],[330,251],[227,130],[123,161],[154,99],[54,90]],[[7586,2858],[20,-258],[28,3],[27,-200]],[[7731,1948],[78,-429],[11,-135]],[[7820,1384],[-648,-16],[-360,-23]],[[6812,1345],[-100,581]],[[6812,1345],[-725,-37],[60,-281]],[[6147,1027],[-309,-23],[-22,-102]],[[5816,902],[-425,59]],[[5391,961],[143,150],[97,165],[174,99],[58,71],[-21,224],[65,70],[116,7],[-4,50],[102,48],[121,128],[181,71],[169,33],[106,50]],[[5816,902],[166,-540],[66,-295],[-928,-67],[-28,122],[130,11],[-52,118],[97,284],[62,233],[4,120],[58,73]],[[1365,9859],[-10,-277],[-66,-106],[-122,-1],[-11,-74],[105,-2],[-95,-160],[-168,-30],[-49,-73],[-198,5],[16,61],[-177,2],[-154,-36],[-31,55],[-156,71],[-139,99],[-40,228],[171,28],[-241,50],[73,64],[29,135],[252,-23],[-28,-115],[495,-6],[14,244],[339,-3],[-75,-135],[266,-1]],[[9485,2426],[-91,23],[-17,-65],[-127,-99],[-186,8],[-379,-29],[94,-263]],[[8779,2001],[-335,-32],[-704,-20]],[[7661,2403],[1063,21],[136,20],[418,15],[0,16]],[[9278,2475],[31,27],[333,86],[107,1],[50,-84],[-79,-121],[-235,42]],[[7586,2858],[130,19],[1002,26],[510,5],[-9,145],[385,32],[-8,-135],[-147,-41],[-156,-116],[-29,-107],[14,-211]],[[8368,1086],[-186,26]],[[8182,1112],[-29,132],[-321,-5],[-12,145]],[[8779,2001],[15,-122],[187,-162]],[[8182,1112],[-212,-202],[-85,-238],[-127,-107],[-468,-22],[-32,229],[-31,8],[-634,-26],[-99,14],[19,93],[76,14],[-30,175],[-412,-23]],[[9485,2426],[-75,-166],[72,-300],[-85,-74],[104,-257]]]}
