{"type":"Topology","bbox":[-73.91498701894818,5.983232699194552,-73.75059255528907,6.190375422458856],"transform":{"scale":[0.00001644109047495822,0.000020716343960826455],"translate":[-73.91498701894818,5.983232699194552]},"objects":{"municipios":{"type":"GeometryCollection","geometries":[{"type":"Polygon","arcs":[[0]]},{"type":"Polygon","arcs":[[1]]},{"type":"MultiPolygon","arcs":[[[2]],[[3]],[[4]]]},{"type":"Polygon","arcs":[[5]]},{"type":"Polygon","arcs":[[6]]},{"type":"Polygon","arcs":[[7,8]]},{"type":"Polygon","arcs":[[9,-8]]},{"type":"Polygon","arcs":[[10]]},{"type":"Polygon","arcs":[[11]]},{"type":"Polygon","arcs":[[12]]}]}},"arcs":[[[40,8226],[-25,-27],[13,-5],[-5,-8],[-13,5],[-3,-17],[-7,12],[10,7],[33,49],[9,3],[-12,-19]],[[9362,8576],[-27,-29],[-12,-19],[-69,39],[-4,-2],[-22,13],[16,20],[-1,4],[58,66],[26,-15],[-10,-12],[28,-15],[-4,-5],[21,-14],[-16,-18],[16,-13]],[[4618,283],[1,-25],[-21,-5],[-11,15],[4,30],[13,10],[14,-25]],[[4622,241],[0,0]],[[4585,354],[-19,-1],[5,17],[14,-6],[0,-10]],[[7735,9986],[-4,-23],[-11,1],[2,20],[11,15],[2,-13]],[[6315,9568],[7,-16],[-5,-27],[-10,26],[-1,13],[9,4]],[[8908,303],[-48,2],[0,-3],[-111,7],[-16,3],[-60,1],[-62,4],[-7,-16],[-23,4]],[[8581,305],[-22,4],[9,19],[-31,7],[8,34],[43,-7],[27,-7],[7,17],[10,41],[13,29],[4,3],[57,-35],[25,-23],[35,-8],[16,16],[1,38],[45,-5],[13,22],[9,-1],[-6,-10],[-6,-33],[10,-1],[-8,-15],[-10,5],[-11,-22],[9,-12],[38,-5],[-8,-24],[24,-2],[1,-19],[19,1],[6,-9]],[[8908,303],[11,-19],[44,-12],[30,-17],[-38,-14],[-17,1],[-58,23],[-1,-11],[-11,0],[-1,-8],[-47,-1],[-10,-17],[3,-10],[16,-18],[1,-24],[-24,-2],[-4,-19],[-15,2],[28,-23],[2,-11],[-23,-30],[-17,-14],[-17,-39],[-4,-16],[-22,-24],[-11,27],[20,28],[-12,7],[5,19],[-5,10],[8,20],[-20,8],[0,20],[-5,7],[1,22],[-62,13],[25,22],[28,14],[-64,39],[-18,6],[-30,-35],[-15,0],[-36,10],[19,18],[-42,11],[20,6],[28,26],[13,7]],[[9971,4396],[4,-15],[-12,-12],[-12,-2],[5,-9],[-27,7],[-17,22],[-20,1],[-10,-17],[2,-7],[-33,10],[8,13],[6,-3],[12,15],[16,8],[-5,24],[33,7],[36,24],[37,-35],[3,-8],[-16,-13],[-13,-3],[3,-7]],[[4669,8383],[13,10],[27,-29],[21,-17],[-18,-14],[-20,5],[-61,-35],[-35,-18],[-7,15],[-10,3],[13,13],[11,5],[5,9],[-10,13],[62,37],[-10,11],[11,5],[8,-13]],[[7514,6595],[24,-8],[-3,-14],[17,-9],[1,-7],[-19,-8],[-24,5],[-27,-1],[-15,-17],[7,-4],[-4,-12],[4,-19],[-7,-1],[1,-15],[-13,2],[2,12],[-12,1],[-8,-21],[-9,5],[6,9],[-13,9],[3,9],[10,-3],[12,13],[-9,9],[-20,-1],[-1,7],[26,4],[21,24],[16,4],[6,-6],[9,8],[-4,7],[9,11],[14,7]]]}
