{"type":"Topology","bbox":[-72.63025933512859,6.626377748118321,-72.58915635025392,6.654187874134273],"transform":{"scale":[0.000004110709558422777,0.0000027812907306682675],"translate":[-72.63025933512859,6.626377748118321]},"objects":{"municipios":{"type":"GeometryCollection","geometries":[{"type":"Polygon","arcs":[[0,1]],"properties":{"codigo":"68152100000000000101","sector":"681521000000000001","pcode":"CO68152","area_m2":76920}},{"type":"Polygon","arcs":[[2,3,-1,4]],"properties":{"codigo":"68152100000000000102","sector":"681521000000000001","pcode":"CO68152","area_m2":38884}},{"type":"Polygon","arcs":[[-3,5]],"properties":{"codigo":"68152100000000000103","sector":"681521000000000001","pcode":"CO68152","area_m2":34906}},{"type":"Polygon","arcs":[[6]],"properties":{"codigo":"68152200104001000101","sector":"681522001040010001","pcode":"CO68152","area_m2":32773}}]}},"arcs":[[[683,1345],[-11,-116],[52,-14],[124,-60],[-79,-380],[-15,-156],[-37,-209],[-17,-131],[45,29],[28,-12],[72,-111],[25,-21],[47,12],[-38,-168]],[[879,8],[-14,-8],[-111,105],[4,9],[-116,95],[-11,37],[27,32],[-47,159],[-81,113],[-20,43],[1,114],[-47,118],[-17,84],[-40,72],[29,58],[31,170],[19,39],[20,129],[-94,101],[-85,0],[-58,-54],[-36,4],[-84,40],[-31,-78],[-118,203],[100,134],[43,-82],[30,47],[31,108],[-7,117],[40,39],[114,-41],[25,14],[64,-107],[98,-9],[73,-140],[11,-128],[39,9],[65,-32],[-51,-176],[8,-1]],[[1000,1181],[0,-77],[-29,-348],[-7,-22],[-14,-185],[192,-54],[-19,-140],[-14,-37]],[[1109,318],[-50,-68],[-80,-179],[-27,2],[-27,-46],[-46,-19]],[[683,1345],[156,-94],[82,-62],[79,-8]],[[1000,1181],[215,-17],[45,64],[19,1],[37,-79],[89,-41],[10,-36],[-19,-103],[13,-73],[-78,-40],[-49,-162],[5,-72],[-55,-153],[-53,-54],[-23,-54],[-47,-44]],[[9958,9833],[41,-34],[-37,-76],[-26,-176],[-15,-56],[-47,48],[-38,-233],[-45,-122],[-76,-88],[5,191],[-124,-35],[13,140],[-113,58],[-60,-2],[3,150],[138,-30],[28,212],[-20,10],[6,50],[22,-13],[11,60],[86,-56],[30,118],[70,-42],[0,-44],[68,-55],[30,77],[16,114],[69,-5],[-44,-153],[9,-8]]]}
