{"type":"Topology","bbox":[-73.07996742342277,6.237653736943377,-73.03748946619703,6.297654546999045],"transform":{"scale":[0.000004248220544628673,0.000006000681073674116],"translate":[-73.07996742342277,6.237653736943377]},"objects":{"municipios":{"type":"GeometryCollection","geometries":[{"type":"Polygon","arcs":[[0,1]],"properties":{"codigo":"68217100000000000102","sector":"682171000000000001","pcode":"CO68217","area_m2":80977}},{"type":"Polygon","arcs":[[-1,2]],"properties":{"codigo":"68217100000000000101","sector":"682171000000000001","pcode":"CO68217","area_m2":137175}},{"type":"MultiPolygon","arcs":[[[3]],[[4]]],"properties":{"codigo":"68217200401001000101","sector":"682172004010010001","pcode":"CO68217","area_m2":99953}}]}},"arcs":[[[8896,9597],[105,84],[210,-120],[-68,-76],[235,-131]],[[9378,9354],[-283,-227],[-233,56],[-109,-114],[-102,47],[111,127],[23,83],[-187,2],[1,184],[297,85]],[[8896,9597],[-226,27],[-42,50],[62,182],[125,30],[168,-62],[95,25],[93,-105],[176,240],[229,11],[-102,-132],[516,-189],[6,-102],[-60,-88],[-228,-35],[-90,-88],[-172,74],[-68,-81]],[[141,391],[669,-73],[-6,-43],[179,-24],[-122,-20],[36,-158],[-329,-10],[-1,-23],[-485,-2],[26,190],[-99,10],[10,210],[122,-57]],[[528,517],[105,27],[112,-41],[-54,-77],[-162,55],[-355,51],[-80,115],[53,45],[179,-106],[202,-69]]]}
