{"type":"Topology","bbox":[-73.64985352695851,5.912105990357543,-73.59613453828092,5.974603627514214],"transform":{"scale":[0.00000537243611136991,0.000006250388754542555],"translate":[-73.64985352695851,5.912105990357543]},"objects":{"municipios":{"type":"GeometryCollection","geometries":[{"type":"Polygon","arcs":[[0,1,2,3,4,5]],"properties":{"codigo":"68077100000000000103","sector":"680771000000000001","pcode":"CO68077","area_m2":90351}},{"type":"Polygon","arcs":[[6,7,-2,8]],"properties":{"codigo":"68077100000000000106","sector":"680771000000000001","pcode":"CO68077","area_m2":70003}},{"type":"Polygon","arcs":[[9,-9,-1,10]],"properties":{"codigo":"68077100000000000104","sector":"680771000000000001","pcode":"CO68077","area_m2":86168}},{"type":"Polygon","arcs":[[11,12,-11,-6,13,14]],"properties":{"codigo":"68077100000000000105","sector":"680771000000000001","pcode":"CO68077","area_m2":82649}},{"type":"Polygon","arcs":[[15,16,17,18,-4]],"properties":{"codigo":"68077100000000000201","sector":"680771000000000002","pcode":"CO68077","area_m2":113411}},{"type":"Polygon","arcs":[[19,20]],"properties":{"codigo":"68077100000000000207","sector":"680771000000000002","pcode":"CO68077","area_m2":27225}},{"type":"Polygon","arcs":[[21,-7,-10,-13,22,23]],"properties":{"codigo":"68077100000000000101","sector":"680771000000000001","pcode":"CO68077","area_m2":339427}},{"type":"Polygon","arcs":[[24,-15,25,26]],"properties":{"codigo":"68077100000000000102","sector":"680771000000000001","pcode":"CO68077","area_m2":298120}},{"type":"Polygon","arcs":[[-23,-12,-25,27]],"properties":{"codigo":"68077100000000000107","sector":"680771000000000001","pcode":"CO68077","area_m2":649558}},{"type":"Polygon","arcs":[[28,-16,-3,-8,-22,29]],"properties":{"codigo":"68077100000000000202","sector":"680771000000000002","pcode":"CO68077","area_m2":432972}},{"type":"Polygon","arcs":[[30,31,32,33,-18]],"properties":{"codigo":"68077100000000000203","sector":"680771000000000002","pcode":"CO68077","area_m2":246905}},{"type":"Polygon","arcs":[[-17,-29,34,-21,35,36,-31]],"properties":{"codigo":"68077100000000000204","sector":"680771000000000002","pcode":"CO68077","area_m2":523179}},{"type":"Polygon","arcs":[[-14,-5,-19,-34,37,-26]],"properties":{"codigo":"68077100000000000205","sector":"680771000000000002","pcode":"CO68077","area_m2":195192}},{"type":"Polygon","arcs":[[-32,-37,38]],"properties":{"codigo":"68077100000000000206","sector":"680771000000000002","pcode":"CO68077","area_m2":457517}},{"type":"Polygon","arcs":[[39]],"properties":{"codigo":"68077200101001000101","sector":"680772001010010001","pcode":"CO68077","area_m2":679462}},{"type":"Polygon","arcs":[[40]],"properties":{"codigo":"68077200103003000101","sector":"680772001030030001","pcode":"CO68077","area_m2":122882}},{"type":"Polygon","arcs":[[41]],"properties":{"codigo":"68077200103005000101","sector":"680772001030050001","pcode":"CO68077","area_m2":146607}},{"type":"Polygon","arcs":[[42]],"properties":{"codigo":"68077200103006000101","sector":"680772001030060001","pcode":"CO68077","area_m2":325817}}]}},"arcs":[[[6659,3488],[-38,-52],[142,-80],[175,-143]],[[6938,3213],[-239,-190],[57,-53],[-116,-100]],[[6640,2870],[-203,201]],[[6437,3071],[-160,161]],[[6277,3232],[78,70],[175,281]],[[6530,3583],[129,-95]],[[7136,3058],[-215,-257]],[[6921,2801],[-105,-90],[-118,17],[-62,-33],[-98,116],[102,59]],[[6938,3213],[105,97],[92,-97],[21,-85],[-20,-70]],[[7212,3585],[68,-250],[-14,-101],[-130,-176]],[[6659,3488],[67,-39],[212,293],[269,-140],[5,-17]],[[7085,3962],[64,-189],[101,101],[34,-72],[163,-62]],[[7447,3740],[-124,-209],[-111,54]],[[6530,3583],[120,119]],[[6650,3702],[282,247],[153,13]],[[6437,3071],[-248,-231],[-179,-192]],[[6010,2648],[-77,104],[-110,-56],[-207,162]],[[5616,2858],[36,37],[-88,95]],[[5564,2990],[149,118],[18,101],[84,8],[209,-160],[253,175]],[[6122,2170],[-111,-158]],[[6011,2012],[-344,229],[257,77],[198,-148]],[[8355,4143],[-86,-229],[-105,-171],[-308,-360],[-66,-59],[-150,-185],[-568,-313],[-97,-73],[-120,-30],[66,78]],[[7447,3740],[139,235],[164,-64],[38,66],[-174,79],[43,75],[-137,30],[72,113],[43,195]],[[7635,4469],[44,0],[53,-83],[252,-104],[-24,-43],[99,-82],[97,-32],[199,18]],[[6960,5151],[-92,-466],[49,-185],[118,-360],[50,-178]],[[6650,3702],[-63,74],[-30,-29],[-152,122],[95,183],[68,-31],[45,85],[-275,127]],[[6338,4233],[9,73],[110,188],[-22,9],[98,194],[40,-15],[71,142],[-54,23],[20,108],[79,192],[-64,22],[140,234],[45,-3],[202,376],[34,93],[91,-31],[-71,-196],[-106,-491]],[[6960,5151],[286,-98],[28,76],[345,639],[146,287],[294,-117],[56,150],[278,-154],[-107,-154],[318,-168],[-62,-267],[-261,109],[-47,-76],[-306,133],[-120,-336],[64,-119],[-9,-129],[-34,-90],[-76,11],[-31,-85],[-117,-123],[-18,-49],[48,-122]],[[6646,2231],[-77,81],[-2,89],[116,132],[-84,-12],[-214,-86],[-97,16],[-90,-39],[-88,21],[-169,-54],[-176,22],[-116,62],[219,82],[142,103]],[[8355,4143],[266,-76],[102,-7],[-53,-84],[-133,-147],[-106,-154],[-71,-146],[-174,-174],[-201,-82],[-47,-111],[-35,-195],[-427,-250],[-255,-81],[-139,-77],[-83,-87],[-353,-241]],[[5616,2858],[-156,-11],[-152,-45],[-140,-159],[-72,-52],[289,-269],[-81,-33],[-15,-78],[-185,-44],[-275,27],[-110,-90]],[[4719,2104],[-39,104],[43,169],[-30,137],[-161,3],[-121,30],[-102,55],[-61,-52],[-164,-30],[-67,82]],[[4017,2602],[36,62],[-63,113],[18,58],[-42,112],[31,18],[128,-109],[23,-67],[63,51],[131,-17],[205,-53],[67,37],[24,84],[47,29],[122,-1],[5,-88],[142,-128],[83,-24],[21,46],[92,21],[145,162],[132,180],[113,64],[40,-13]],[[5580,3139],[-85,-54],[69,-95]],[[6646,2231],[-153,-70],[-114,14],[-157,79],[-100,-84]],[[6011,2012],[-164,-92],[-124,6],[-272,76],[-177,-41],[-135,-75],[-198,-149],[-137,-144],[-102,-387],[-211,-364],[-285,151]],[[4206,993],[102,285],[147,496],[75,173],[189,157]],[[5580,3139],[104,85],[160,185],[60,40],[122,251],[159,157],[125,148],[48,150],[-20,78]],[[4206,993],[-112,-98],[-363,-120],[-104,-52],[-208,159],[226,127],[214,197],[-89,82],[-216,74],[49,97],[128,-46],[168,222],[41,123],[-166,44],[-107,-10],[-272,29],[41,117],[78,-29],[181,-7],[70,-23],[97,34],[119,-43],[168,355],[-375,304],[122,110],[93,-71],[28,34]],[[9587,9999],[36,-75],[-133,-42],[-160,43],[-25,-145],[152,-5],[157,47],[78,47],[238,28],[-25,-140],[88,15],[1,-165],[-221,-41],[-466,-64],[-44,2],[-25,-144],[160,-22],[-10,-40],[198,6],[33,-99],[-158,-3],[-71,-41],[-12,-51],[-185,19],[-44,-267],[-29,-86],[-239,-356],[142,-89],[-40,-61],[-80,47],[-88,-140],[47,-32],[-92,-91],[-13,-63],[-138,49],[-269,-389],[236,-61],[-16,-149],[-95,-5],[14,-155],[-118,38],[-56,-223],[-60,-117],[-153,65],[10,37],[-79,106],[-183,-267],[-361,138],[119,195],[217,-168],[65,59],[-179,171],[78,74],[-20,116],[86,119],[-178,51],[16,54],[-43,55],[83,20],[32,85],[56,-19],[31,84],[100,-30],[115,-96],[151,-61],[-8,96],[63,50],[57,95],[-50,9],[30,83],[-122,34],[20,110],[-111,29],[30,75],[366,-156],[15,20],[-112,80],[1,37],[-121,88],[-18,97],[21,67],[151,-32],[24,89],[-33,45],[135,25],[22,80],[290,52],[48,101],[-133,26],[-35,70],[145,13],[91,132],[-100,25],[25,54],[219,-3],[49,32],[45,146],[-145,5],[4,48],[145,45],[-69,225],[-124,-34],[-248,-26],[-103,42],[23,43],[73,-30],[103,10],[17,93],[237,-7],[-42,59],[23,59],[53,-33],[66,35],[146,-28],[206,57]],[[864,3573],[85,21],[125,-50],[39,34],[53,-63],[2,-79],[-187,-24],[19,-76],[150,14],[99,70],[102,-34],[-98,-8],[-109,-78],[66,-117],[9,-140],[-96,-3],[-58,70],[-242,-69],[-14,41],[75,24],[0,89],[-125,11],[-90,-62],[-66,26],[-54,-82],[-230,103],[-8,112],[-108,21],[-75,-25],[-70,71],[24,24],[243,-30],[124,24],[226,-95],[137,-30],[-4,77],[-41,16],[6,106],[-82,109],[96,73],[77,-71]],[[2826,736],[135,-44],[151,-83],[-148,-158],[154,-81],[-28,-48],[-89,47],[-92,-163],[147,-102],[-61,-104],[-109,58],[-31,-25],[-158,19],[-13,46],[-121,26],[-164,130],[4,126],[218,223],[-108,106],[159,144],[154,-117]],[[2220,3667],[43,-115],[39,-30],[96,110],[-5,-72],[87,-88],[67,10],[52,-148],[139,-138],[248,16],[29,61],[-39,78],[55,61],[93,-36],[19,66],[71,62],[40,-38],[118,47],[-4,45],[108,61],[173,136],[135,-141],[59,-35],[-115,-31],[-54,-67],[82,-68],[-45,-126],[-236,-325],[-61,12],[-52,68],[-55,-32],[-150,78],[-166,-232],[15,-16],[-99,-174],[-40,88],[-207,205],[-85,110],[-61,129],[-104,-35],[-219,36],[-102,-26],[-42,30],[-119,-14],[-73,-35],[-6,57],[213,361],[-3,41],[-86,83],[19,49],[109,-31],[48,-49],[71,87],[44,-25],[-44,-60]]]}
