{"type":"Topology","bbox":[-73.77287079568231,7.167702684036485,-73.39746664762998,7.596448564863767],"transform":{"scale":[0.000037544169222154774,0.00004287887597032527],"translate":[-73.77287079568231,7.167702684036485]},"objects":{"municipios":{"type":"GeometryCollection","geometries":[{"type":"Polygon","arcs":[[0]],"properties":{"codigo":"68655200210014000101","sector":"686552002100140001","pcode":"CO68655","area_m2":139226}},{"type":"Polygon","arcs":[[1]],"properties":{"codigo":"68655200106007000101","sector":"686552001060070001","pcode":"CO68655","area_m2":22455}},{"type":"Polygon","arcs":[[2,3,4,5]],"properties":{"codigo":"68655100000000000102","sector":"686551000000000001","pcode":"CO68655","area_m2":110424}},{"type":"Polygon","arcs":[[6,7,-3,8]],"properties":{"codigo":"68655100000000000103","sector":"686551000000000001","pcode":"CO68655","area_m2":261364}},{"type":"Polygon","arcs":[[9,10,11,-7,12]],"properties":{"codigo":"68655100000000000104","sector":"686551000000000001","pcode":"CO68655","area_m2":257176}},{"type":"Polygon","arcs":[[13,14,15,16,-11,17]],"properties":{"codigo":"68655100000000000201","sector":"686551000000000002","pcode":"CO68655","area_m2":217982}},{"type":"Polygon","arcs":[[18,19,-18,-10,20]],"properties":{"codigo":"68655100000000000202","sector":"686551000000000002","pcode":"CO68655","area_m2":277726}},{"type":"Polygon","arcs":[[21,22,23,-14,-20]],"properties":{"codigo":"68655100000000000203","sector":"686551000000000002","pcode":"CO68655","area_m2":163168}},{"type":"Polygon","arcs":[[24,25,26,-15,-24]],"properties":{"codigo":"68655100000000000204","sector":"686551000000000002","pcode":"CO68655","area_m2":162420}},{"type":"Polygon","arcs":[[27,28,29,30,31,32]],"properties":{"codigo":"68655100000000000302","sector":"686551000000000003","pcode":"CO68655","area_m2":111444}},{"type":"Polygon","arcs":[[-27,33,34,-33,35,36,37,-16]],"properties":{"codigo":"68655100000000000303","sector":"686551000000000003","pcode":"CO68655","area_m2":163463}},{"type":"Polygon","arcs":[[38,39,40,41,42,-29]],"properties":{"codigo":"68655100000000000305","sector":"686551000000000003","pcode":"CO68655","area_m2":167504}},{"type":"Polygon","arcs":[[43,-40,44]],"properties":{"codigo":"68655100000000000306","sector":"686551000000000003","pcode":"CO68655","area_m2":58548}},{"type":"Polygon","arcs":[[45,46,-45,-39,-28,-35]],"properties":{"codigo":"68655100000000000307","sector":"686551000000000003","pcode":"CO68655","area_m2":114177}},{"type":"Polygon","arcs":[[-44,-47,47,48,49,50,-41]],"properties":{"codigo":"68655100000000000309","sector":"686551000000000003","pcode":"CO68655","area_m2":1074427}},{"type":"Polygon","arcs":[[51]],"properties":{"codigo":"68655200220009000101","sector":"686552002200090001","pcode":"CO68655","area_m2":27749}},{"type":"Polygon","arcs":[[52]],"properties":{"codigo":"68655200203013000101","sector":"686552002030130001","pcode":"CO68655","area_m2":63711}},{"type":"Polygon","arcs":[[53,54,-36,-32,55]],"properties":{"codigo":"68655100000000000107","sector":"686551000000000001","pcode":"CO68655","area_m2":74855}},{"type":"Polygon","arcs":[[-37,-55,56,57]],"properties":{"codigo":"68655100000000000106","sector":"686551000000000001","pcode":"CO68655","area_m2":129589}},{"type":"Polygon","arcs":[[-5,58,59]],"properties":{"codigo":"68655100000000000101","sector":"686551000000000001","pcode":"CO68655","area_m2":278399}},{"type":"Polygon","arcs":[[-59,-4,-8,-12,-17,-38,-58,60]],"properties":{"codigo":"68655100000000000105","sector":"686551000000000001","pcode":"CO68655","area_m2":473376}},{"type":"Polygon","arcs":[[61,62,-49,63,-25,-23]],"properties":{"codigo":"68655100000000000205","sector":"686551000000000002","pcode":"CO68655","area_m2":463983}},{"type":"Polygon","arcs":[[-62,-22,-19,64]],"properties":{"codigo":"68655100000000000206","sector":"686551000000000002","pcode":"CO68655","area_m2":352887}},{"type":"Polygon","arcs":[[65,66,-56,-31,67]],"properties":{"codigo":"68655100000000000301","sector":"686551000000000003","pcode":"CO68655","area_m2":96106}},{"type":"Polygon","arcs":[[68]],"properties":{"codigo":"68655200109011000101","sector":"686552001090110001","pcode":"CO68655","area_m2":43931}},{"type":"Polygon","arcs":[[-30,-43,69,-68]],"properties":{"codigo":"68655100000000000304","sector":"686551000000000003","pcode":"CO68655","area_m2":65294}},{"type":"Polygon","arcs":[[-46,-34,-26,-64,-48]],"properties":{"codigo":"68655100000000000308","sector":"686551000000000003","pcode":"CO68655","area_m2":127769}},{"type":"Polygon","arcs":[[-42,-51,70,-66,-70]],"properties":{"codigo":"68655100000000000310","sector":"686551000000000003","pcode":"CO68655","area_m2":396481}},{"type":"Polygon","arcs":[[71]],"properties":{"codigo":"68655200227008000101","sector":"686552002270080001","pcode":"CO68655","area_m2":32610}},{"type":"Polygon","arcs":[[72]],"properties":{"codigo":"68655200206001000101","sector":"686552002060010001","pcode":"CO68655","area_m2":236799}},{"type":"Polygon","arcs":[[73]],"properties":{"codigo":"68655200204002000101","sector":"686552002040020001","pcode":"CO68655","area_m2":84691}},{"type":"Polygon","arcs":[[74]],"properties":{"codigo":"68655200131004000101","sector":"686552001310040001","pcode":"CO68655","area_m2":163118}},{"type":"Polygon","arcs":[[75]],"properties":{"codigo":"68655200115006000101","sector":"686552001150060001","pcode":"CO68655","area_m2":33786}},{"type":"Polygon","arcs":[[76]],"properties":{"codigo":"68655200214015001010","sector":"686552002140150010","pcode":"CO68655","area_m2":39172}}]}},"arcs":[[[6009,3741],[12,-8],[-8,-4],[20,-27],[-10,-5],[3,-4],[-17,-11],[-3,-9],[-29,9],[-65,22],[-5,4],[2,12],[7,16],[27,33],[66,-28]],[[2499,9974],[0,-6],[-14,1],[-15,-10],[-12,0],[-14,15],[3,8],[19,17],[24,-23],[9,-2]],[[7327,5513],[-23,-5],[-22,-18],[32,-34]],[[7314,5456],[-22,-16],[-26,-14],[-7,3],[-27,7],[-24,27]],[[7208,5463],[2,1],[58,41],[27,16],[30,13]],[[7325,5534],[2,-21]],[[7556,5452],[-11,-14],[-21,-14],[-8,10],[-50,-27],[-9,15],[-40,-19],[-10,17],[-21,-9]],[[7386,5411],[-62,34],[-10,11]],[[7327,5513],[9,-37],[7,5],[18,-18],[12,7],[20,-28],[57,23],[-4,7],[-12,33],[4,5],[-4,8],[10,0],[12,-4],[3,-8],[27,-9],[1,-9],[14,-1],[5,-5],[4,-15],[25,-13],[12,3],[9,-5]],[[7580,5356],[-28,-2],[-77,-10]],[[7475,5344],[-27,-3],[-2,-2]],[[7446,5339],[-4,11],[-2,18],[-12,17],[-42,26]],[[7556,5452],[31,-25],[13,-2],[4,-13],[6,-5],[-6,-24],[-25,-2],[-5,-6],[6,-19]],[[7434,5295],[-84,-17]],[[7350,5278],[-87,-18]],[[7263,5260],[-13,42],[-3,16]],[[7247,5318],[89,10],[62,5],[48,6]],[[7475,5344],[10,-37],[-51,-12]],[[7587,5249],[-146,-13]],[[7441,5236],[-7,59]],[[7580,5356],[3,-20],[-5,-24],[2,-14],[19,-16],[-3,-32],[-9,-1]],[[7441,5236],[7,-54]],[[7448,5182],[-43,-10],[-7,22],[-23,-5]],[[7375,5189],[-10,38],[-15,51]],[[7375,5189],[-66,-12],[-24,-8]],[[7285,5169],[-10,20]],[[7275,5189],[8,1],[-4,21],[-9,22],[-7,27]],[[7217,5196],[-52,-12]],[[7165,5184],[-6,19]],[[7159,5203],[-17,54]],[[7142,5257],[25,5],[-12,45]],[[7155,5307],[30,4]],[[7185,5311],[1,-34],[19,2],[8,-30],[-13,-3],[17,-50]],[[7275,5189],[-51,-14]],[[7224,5175],[-7,21]],[[7185,5311],[45,5]],[[7230,5316],[6,0]],[[7236,5316],[11,2]],[[7165,5184],[9,-32]],[[7174,5152],[-45,-10],[10,-34],[-2,-2]],[[7137,5106],[-79,31],[-27,10]],[[7031,5147],[-39,14],[-4,4],[112,25]],[[7100,5190],[59,13]],[[7196,5088],[-30,7],[-2,-11],[-38,14],[11,8]],[[7174,5152],[22,-64]],[[7224,5175],[10,-33],[18,-57]],[[7252,5085],[-56,3]],[[7252,5085],[34,0],[0,-3],[24,-1],[0,-13],[21,25]],[[7331,5093],[16,-21],[10,-20],[18,-8],[21,-30],[5,3],[13,-19],[37,-36]],[[7451,4962],[-12,-26],[9,-29],[-3,-33],[-5,-23],[-11,-29],[-22,31],[-12,10],[-43,23],[-20,12],[-11,10],[-53,52],[-13,22],[-132,36],[-85,25],[-49,12],[-42,15],[34,29],[18,14]],[[6999,5113],[7,13],[21,13],[4,8]],[[9977,5301],[-7,-13],[21,-17],[8,-14],[-18,-7],[-43,49],[11,6],[6,-7],[9,13],[15,-6],[-2,-4]],[[4476,4534],[6,-11],[-8,-3],[-7,11],[-41,-18],[9,-25],[-23,-8],[-6,17],[-16,-6],[-4,7],[-14,-6],[-6,10],[22,9],[1,-3],[33,13],[27,14],[115,47],[6,-11],[-94,-37]],[[7126,5304],[-2,20],[25,2],[-4,31],[14,6]],[[7159,5363],[13,9],[40,-31],[10,-19],[8,-6]],[[7155,5307],[-29,-3]],[[7159,5363],[-15,18],[7,13],[-6,16],[-8,7],[13,6]],[[7150,5423],[36,6],[14,-2],[8,-5],[25,-26],[4,-11],[-17,-10],[35,-26],[11,-16],[-35,-4],[5,-13]],[[7208,5463],[-10,-7],[-23,25]],[[7175,5481],[-5,15],[5,5],[-9,7],[10,5],[8,-6],[46,31],[-48,61],[-15,20],[29,14],[22,3],[23,-6],[28,-27],[12,-23],[16,-10],[13,0],[1,-8],[14,-28]],[[7150,5423],[-14,6],[-20,6],[-11,10],[33,22],[37,14]],[[7448,5182],[5,-40],[15,-125],[0,-24]],[[7468,4993],[-17,-31]],[[7331,5093],[-35,36],[-3,18],[-8,22]],[[7587,5249],[-1,-7],[-19,-1],[-16,-8],[-1,-16],[-4,-9],[2,-22],[-7,0],[9,-12],[2,-23],[-4,-7],[-11,-4],[-4,-16],[-1,-19],[-8,-27],[8,-7],[-20,-7],[-1,-12],[-7,-13],[-36,-46]],[[7086,5234],[-18,28],[-10,34]],[[7058,5296],[68,8]],[[7142,5257],[-27,-6],[-2,5],[-21,-4],[5,-16],[-11,-2]],[[75,7676],[-2,-6],[19,1],[-3,-10],[-21,-9],[-15,5],[0,5],[-28,9],[-7,-9],[-17,2],[2,8],[-3,22],[17,5],[11,-1],[12,-8],[35,-14]],[[7100,5190],[-4,14],[-2,18],[-8,12]],[[6999,5113],[-16,1],[-20,30],[-1,10],[-21,33],[1,3],[-14,18],[-6,41],[-7,32],[143,15]],[[7531,2397],[5,0],[-1,-18],[-7,0],[4,-17],[7,-4],[-23,-10],[-7,-9],[-4,8],[23,9],[-31,5],[1,5],[18,-2],[0,7],[-17,2],[7,4],[6,15],[-13,4],[-3,7],[18,9],[15,4],[7,-1],[-7,-12],[2,-6]],[[5822,5217],[9,3],[9,-5],[6,-16],[-19,-6],[0,-17],[8,-11],[11,-2],[9,17],[9,-3],[8,12],[11,11],[16,4],[1,12],[24,2],[-4,11],[-9,10],[9,15],[3,-17],[3,-5],[13,0],[0,-20],[-8,0],[-28,-8],[0,-7],[-13,0],[-9,-10],[-8,2],[-12,-20],[11,-2],[-7,-19],[24,-3],[20,4],[32,-5],[25,0],[7,25],[14,4],[18,-1],[8,-3],[-3,-32],[21,-3],[-2,-33],[-51,2],[-25,3],[5,16],[-13,4],[-1,7],[-10,1],[-70,-5],[0,2],[-21,-4],[-11,-7],[-9,-1],[-6,7],[-2,28],[-12,-1],[-6,16],[-16,-1],[-2,17],[21,0],[7,-16],[8,3],[1,28],[-2,10],[-14,16],[6,3],[-28,20],[17,23],[18,0],[0,-7],[18,-7],[3,-22],[-19,-6],[7,-13]],[[3403,4314],[3,-1],[8,-23],[-8,-2],[-3,-15],[-12,-3],[2,-6],[-8,-4],[10,-24],[-6,-4],[-9,24],[-2,-5],[-12,-2],[-6,-7],[-9,0],[-4,7],[-15,-6],[-10,4],[-3,13],[29,10],[-8,20],[13,5],[-4,16],[50,8],[4,-5]],[[8781,5813],[11,-6],[10,3],[6,-11],[5,1],[32,-12],[-3,-5],[15,-2],[39,4],[44,-5],[16,-9],[9,-2],[11,-8],[-11,-6],[-14,9],[-10,2],[-7,-8],[-15,-8],[1,9],[-19,1],[-2,-20],[-5,20],[-13,0],[-14,-4],[-13,-13],[-12,0],[-3,11],[6,19],[-8,5],[-10,-1],[-7,5],[-21,-28],[-3,-13],[-6,9],[-21,15],[-32,-17],[-26,-5],[7,-9],[-10,-6],[-17,16],[-10,5],[5,8],[11,4],[12,10],[11,-2],[26,0],[30,46],[5,-2]],[[2564,7534],[4,1],[16,-14],[18,-10],[32,-11],[-1,-5],[-14,4],[-4,-7],[-37,21],[-32,-11],[-11,18],[12,25],[17,-11]],[[5806,50],[-3,-5],[5,-28],[-7,2],[-8,-8],[1,-11],[-13,3],[-9,6],[7,8],[18,5],[-24,12],[-17,0],[-3,17],[22,-1],[13,6],[6,9],[-1,9],[23,2],[-6,-7],[0,-12],[-4,-7]]]}
