{"type":"Topology","bbox":[-72.70338721892784,6.512487320550806,-72.6866367049551,6.540356646489461],"transform":{"scale":[0.0000016752189191657355,0.000002787211314997054],"translate":[-72.70338721892784,6.512487320550806]},"objects":{"municipios":{"type":"GeometryCollection","geometries":[{"type":"Polygon","arcs":[[0,1,2,3,4]],"properties":{"codigo":"68147100000000000102","sector":"681471000000000001","pcode":"CO68147","area_m2":306208}},{"type":"Polygon","arcs":[[5,6,7,-3,8]],"properties":{"codigo":"68147100000000000103","sector":"681471000000000001","pcode":"CO68147","area_m2":198915}},{"type":"Polygon","arcs":[[9,10,-7,11]],"properties":{"codigo":"68147100000000000104","sector":"681471000000000001","pcode":"CO68147","area_m2":252395}},{"type":"Polygon","arcs":[[-5,12,13]],"properties":{"codigo":"68147100000000000101","sector":"681471000000000001","pcode":"CO68147","area_m2":330616}},{"type":"Polygon","arcs":[[-10,14]],"properties":{"codigo":"68147100000000000105","sector":"681471000000000001","pcode":"CO68147","area_m2":716328}},{"type":"Polygon","arcs":[[-1,-14,15]],"properties":{"codigo":"68147100000000000106","sector":"681471000000000001","pcode":"CO68147","area_m2":190328}},{"type":"Polygon","arcs":[[-12,-6,16]],"properties":{"codigo":"68147100000000000107","sector":"681471000000000001","pcode":"CO68147","area_m2":208009}}]}},"arcs":[[[4364,7812],[638,-66],[162,-66],[245,48]],[[5409,7728],[-86,-220],[-4,-120],[113,-25]],[[5432,7363],[-271,-73],[-98,-295],[-1518,-644],[-1371,-561],[-624,-248]],[[1550,5542],[-146,198],[-319,305],[-229,488],[-205,275],[-487,227]],[[164,7035],[480,34],[680,72],[307,114],[204,-222],[77,-158],[778,199],[120,-36],[-24,85],[123,234],[225,173],[64,93],[-36,151],[465,50],[195,-117],[314,133],[228,-28]],[[6311,6913],[-781,23],[-325,-36],[-24,-210],[-212,-100],[111,-95],[2,-228]],[[5082,6267],[-446,-193],[-948,-388],[665,-549],[123,-81],[-285,-148]],[[4191,4908],[-519,141],[-1108,143],[-427,93],[-364,127],[-223,130]],[[5432,7363],[176,39],[592,-45],[43,-38],[68,-406]],[[7235,4895],[-238,-48],[-183,-114],[-312,-130],[-49,-92],[217,-253],[398,-416],[-703,-186],[-500,-97],[-277,734],[-343,-101],[-258,103]],[[4987,4295],[-248,299],[-203,142],[-345,172]],[[5082,6267],[838,-483],[224,-289],[-181,-67],[189,-114],[632,-286],[451,-133]],[[164,7035],[-51,51],[-113,293],[42,195],[204,232],[103,191],[38,160],[0,251],[-101,242],[-232,439],[221,64],[255,31],[222,-42],[525,133]],[[1277,9275],[338,25],[264,68],[-477,-438],[76,-124],[401,-106],[262,-28],[371,-146],[119,224],[80,261],[201,-55],[107,-320],[127,-146],[18,-90],[171,-128],[189,-55],[178,-140],[213,-74],[236,-40],[213,-151]],[[7235,4895],[35,-36],[450,-129],[63,34],[637,57],[134,-173],[-351,-141],[211,-88],[-543,-319],[-110,-38],[-12,-102],[-117,-42],[205,-77],[614,-31],[-59,-155],[-407,25],[-203,35],[-85,-30],[225,-200],[166,-72],[15,-208],[-463,-50],[59,-133],[-75,-173],[-166,-215],[-25,-212],[79,-118],[258,-178],[187,-217],[279,-168],[736,-261],[363,-104],[432,-42],[217,-96],[-96,-184],[-78,-27],[-280,17],[-108,-140],[-162,14],[-127,-48],[-99,-120],[-160,70],[-174,-62],[-152,-3],[-260,-109],[-267,-14],[-314,-70],[-157,-69],[-265,-39],[-158,-199],[3,-168],[-187,-87],[-1007,293],[-365,216],[-143,199],[-84,341],[135,339],[165,253],[67,244],[-82,265],[-352,237],[-597,209],[-189,82],[-117,140],[-60,277],[134,328],[484,516],[76,195],[-21,161]],[[1277,9275],[359,196],[283,244],[18,75],[175,167],[122,42],[352,-478],[100,-205],[570,96],[765,-229],[162,-96],[49,-192],[221,-197],[41,-216],[69,-50],[37,-181],[184,-142],[160,-16],[288,82],[356,-39],[-179,-408]],[[6311,6913],[684,-455],[158,-228],[151,-52],[143,-122],[258,-54],[70,-81],[194,18],[28,-154],[230,-360],[222,-194],[2,-64],[-640,-80],[-509,-128],[-67,-64]]]}
