{"type":"Topology","bbox":[-73.24404390208252,6.354610906638606,-73.23818747105781,6.360876147799947],"transform":{"scale":[5.857016726383311e-7,6.265867748115452e-7],"translate":[-73.24404390208252,6.354610906638606]},"objects":{"municipios":{"type":"GeometryCollection","geometries":[{"type":"Polygon","arcs":[[0,1,2]],"properties":{"codigo":"68209100000000000101","sector":"682091000000000001","pcode":"CO68209","area_m2":115929}},{"type":"Polygon","arcs":[[3,4,-1]],"properties":{"codigo":"68209100000000000102","sector":"682091000000000001","pcode":"CO68209","area_m2":69860}},{"type":"Polygon","arcs":[[-5,5,-2]],"properties":{"codigo":"68209100000000000103","sector":"682091000000000001","pcode":"CO68209","area_m2":35963}}]}},"arcs":[[[7493,2954],[-730,-16],[-240,65],[-565,401],[-482,427],[-582,200]],[[4894,4031],[-250,-21],[-289,162],[-612,599],[-315,121]],[[3428,4892],[186,57],[-462,95],[16,518],[874,9],[518,237],[18,144],[445,60],[392,371],[215,-27],[324,257],[456,-127],[804,1272],[55,241],[-276,299],[-125,-144],[-287,194],[-145,-77],[-572,-587],[-762,546],[-748,2],[322,453],[336,332],[-55,281],[416,269],[320,52],[381,264],[95,-112],[483,159],[106,-604],[-29,-808],[220,-187],[103,104],[-21,397],[127,288],[159,38],[200,-220],[125,145],[-100,216],[113,588],[176,112],[502,-364],[668,-378],[612,114],[20,-243],[345,-121],[9,-424],[-419,-537],[-116,-495],[-500,-336],[914,-479],[-708,-1109],[388,-254],[314,-308],[-782,-613],[-1205,-430],[-81,-359],[-299,-709]],[[7493,2954],[-195,-344],[260,-95],[670,112],[328,-3],[-3,-548],[-116,-459],[75,-167],[534,-6],[498,-323],[-721,-906],[-285,418],[47,185],[-555,-24],[189,-198],[-370,-457],[-226,-13],[-399,147],[-458,-234],[-659,-39],[-342,679],[-230,-139],[-140,136],[-379,-117],[-1384,-287],[-432,161],[303,424],[-172,223],[-937,192],[-309,165]],[[2085,1437],[338,572],[495,-199],[536,137],[1440,2084]],[[2085,1437],[-271,-505],[-401,-335],[-167,42],[-293,478],[-474,-184],[-53,128],[576,395],[-130,118],[332,230],[257,539],[-521,177],[-248,-233],[-372,447],[-320,145],[1214,421],[325,226],[-83,325],[98,100],[588,-103],[234,-281],[480,-90],[390,431],[152,577],[-194,272],[224,135]]]}
