{"type":"Topology","bbox":[-73.76018923996418,7.235717902032695,-73.1332429081013,7.697183946028131],"transform":{"scale":[0.00006270090327661589,0.00004615121952149578],"translate":[-73.76018923996418,7.235717902032695]},"objects":{"municipios":{"type":"GeometryCollection","geometries":[{"type":"Polygon","arcs":[[0]],"properties":{"codigo":"68615200103009000101","sector":"686152001030090001","pcode":"CO68615","area_m2":22496}},{"type":"Polygon","arcs":[[1,2,3,4]],"properties":{"codigo":"68615100000000000103","sector":"686151000000000001","pcode":"CO68615","area_m2":35477}},{"type":"MultiPolygon","arcs":[[[5]],[[6]]],"properties":{"codigo":"68615200303011000101","sector":"686152003030110001","pcode":"CO68615","area_m2":85458}},{"type":"Polygon","arcs":[[7]],"properties":{"codigo":"68615200904017000101","sector":"686152009040170001","pcode":"CO68615","area_m2":33905}},{"type":"Polygon","arcs":[[8,9]],"properties":{"codigo":"68615200908031000101","sector":"686152009080310001","pcode":"CO68615","area_m2":170678}},{"type":"Polygon","arcs":[[10,11,12,-9,13]],"properties":{"codigo":"68615200908031000102","sector":"686152009080310001","pcode":"CO68615","area_m2":254905}},{"type":"Polygon","arcs":[[14,-11,15]],"properties":{"codigo":"68615200908031000103","sector":"686152009080310001","pcode":"CO68615","area_m2":194610}},{"type":"Polygon","arcs":[[16,-12,-15]],"properties":{"codigo":"68615200908031000104","sector":"686152009080310001","pcode":"CO68615","area_m2":59489}},{"type":"Polygon","arcs":[[17]],"properties":{"codigo":"68615200107036000101","sector":"686152001070360001","pcode":"CO68615","area_m2":115801}},{"type":"Polygon","arcs":[[18,19]],"properties":{"codigo":"68615201008027000102","sector":"686152010080270001","pcode":"CO68615","area_m2":15946}},{"type":"Polygon","arcs":[[20,-3,21,22]],"properties":{"codigo":"68615100000000000101","sector":"686151000000000001","pcode":"CO68615","area_m2":209098}},{"type":"Polygon","arcs":[[23,24,-22,-2]],"properties":{"codigo":"68615100000000000102","sector":"686151000000000001","pcode":"CO68615","area_m2":100821}},{"type":"Polygon","arcs":[[25,-4,-21,26]],"properties":{"codigo":"68615100000000000104","sector":"686151000000000001","pcode":"CO68615","area_m2":98772}},{"type":"Polygon","arcs":[[27,-24,-5,-26]],"properties":{"codigo":"68615100000000000105","sector":"686151000000000001","pcode":"CO68615","area_m2":207050}},{"type":"Polygon","arcs":[[28]],"properties":{"codigo":"68615200104002000101","sector":"686152001040020001","pcode":"CO68615","area_m2":18176}},{"type":"Polygon","arcs":[[29]],"properties":{"codigo":"68615200202012000101","sector":"686152002020120001","pcode":"CO68615","area_m2":128096}},{"type":"Polygon","arcs":[[30]],"properties":{"codigo":"68615200906013000101","sector":"686152009060130001","pcode":"CO68615","area_m2":200386}},{"type":"Polygon","arcs":[[-20,31]],"properties":{"codigo":"68615201008027000101","sector":"686152010080270001","pcode":"CO68615","area_m2":69340}}]}},"arcs":[[[9180,3831],[-9,-2],[-1,-8],[-10,-28],[-3,10],[-3,-3],[-2,11],[7,5],[-8,10],[7,12],[6,0],[7,-7],[1,13],[4,4],[4,-17]],[[9726,620],[-2,11],[3,6],[5,-5],[10,25],[-6,3]],[[9736,660],[-1,3],[5,11]],[[9740,674],[13,-13],[6,-15],[-4,1],[-7,-16]],[[9748,631],[-12,-28],[-4,12],[-1,-6],[-5,11]],[[8967,90],[1,-16],[30,2],[2,-15],[-2,-1],[0,-14],[4,0],[0,-11],[-8,-1],[-2,-8],[2,-4],[-6,1],[4,16],[-2,5],[-19,-2],[-3,-7],[-3,-17],[2,0],[-3,-11],[-3,1],[2,19],[-12,7],[-13,-8],[1,-4],[-13,-2],[-2,6],[-9,-5],[-8,10],[4,13],[7,-15],[25,14],[17,7],[-2,13],[9,2],[-3,24],[3,1]],[[8979,2],[-2,-2],[-2,14],[5,8],[-2,-14],[1,-6]],[[3698,8890],[-4,-2],[-8,-33],[-3,-1],[4,81],[13,-1],[7,-4],[-9,-40]],[[2931,8127],[10,-19],[0,-6],[-14,1],[-14,-44],[-10,6],[-12,-30],[-4,-7]],[[2887,8028],[-10,-1],[-9,11],[-6,17],[9,26],[-3,7],[0,12],[3,1],[-4,16],[-5,5],[3,2],[3,13],[12,-3],[-2,-11],[19,-8],[3,19],[31,-7]],[[2990,8115],[-5,-16],[-28,2],[-21,-58]],[[2936,8043],[-6,-15],[-12,-35],[-9,-31]],[[2909,7962],[-7,-34],[-4,4],[6,27],[-11,-15],[-24,60],[14,5],[17,-3],[5,7],[-4,5],[-14,10]],[[2931,8127],[-9,17],[4,7],[12,12],[7,2],[6,-10],[7,-19],[-5,-13],[30,-9],[7,1]],[[2945,7984],[17,53],[-7,3],[-2,-8],[-17,11]],[[2990,8115],[3,7],[1,-7],[15,-2],[-1,-13],[43,-7],[1,-8],[15,-3],[0,-5],[-27,4],[0,1],[-33,8],[-12,-11],[-7,-31],[1,0],[-6,-29],[-1,-10],[-6,-19],[-8,5],[-1,-9],[-4,4],[-10,-16],[-8,10]],[[2945,7984],[-3,-8],[-14,12],[-3,9],[-11,-37],[-5,2]],[[9268,3152],[0,-10],[-10,-43],[0,-3],[10,4],[4,-5],[-4,-6],[2,-4],[27,-4],[12,11],[6,2],[0,-7],[-5,-4],[6,-7],[4,-13],[-2,-7],[-6,-10],[-7,0],[-2,3],[-6,-5],[-9,13],[-6,-3],[2,-26],[-1,-4],[-7,10],[-3,-9],[-5,-7],[-6,10],[8,8],[-5,10],[-8,-2],[-1,12],[3,3],[-8,28],[5,26],[0,26],[-4,4],[16,9]],[[36,9909],[-11,-5],[5,-12],[-8,4],[-4,8],[-4,12],[-3,0],[-3,10]],[[8,9926],[2,8],[5,0],[-1,-8],[7,-2],[0,-7],[12,2],[3,-10]],[[9744,685],[-7,-5],[3,-6]],[[9736,660],[-3,-7],[-3,2],[-29,-5],[-5,-5],[-6,0],[-3,-5],[-7,4],[-8,-7],[-7,-11],[-3,-3],[-4,6],[-7,-2]],[[9651,627],[6,7],[-1,4],[17,14],[18,26],[10,4],[-4,23],[2,2],[2,24],[0,17],[5,29],[-4,5],[4,6],[-3,3],[6,2],[2,6],[-7,19],[4,2],[5,-11],[9,3],[0,-13],[7,-17],[3,-10],[5,-28],[-6,-21],[0,-14],[3,-11],[10,-13]],[[9726,620],[-1,-9],[-4,-6]],[[9721,605],[2,6],[-6,6],[-16,-4],[-16,14],[-3,-2],[-10,2],[-9,-9],[-15,-9],[-6,1],[-5,-3],[-10,7],[-6,-2],[-3,3],[-4,-5],[-9,9],[0,11],[6,2],[1,-5],[3,8],[6,-3],[30,-5]],[[9786,587],[1,5],[-9,0],[-8,3],[0,18],[-8,4],[-2,4],[-12,10]],[[9744,685],[7,-2],[16,-9],[11,-17],[3,5],[6,-4],[4,-16],[-1,-5],[2,-23],[5,-1],[3,-5],[0,-15],[-5,0],[0,-7],[-9,1]],[[9786,587],[-4,-19],[-16,-37],[-12,-5],[-8,-17],[3,-15],[7,-3],[1,-10],[-12,-4],[-4,-5],[-3,11],[4,1],[-5,6],[-4,-3],[-4,11],[-6,8],[0,34],[-2,18],[7,32],[-3,5],[-4,1],[0,9]],[[7737,3737],[2,-10],[-7,-11],[-5,-25],[-1,-11],[-10,-7],[0,15],[4,11],[-1,7],[4,5],[-1,6],[5,1],[10,19]],[[9994,3600],[5,2],[0,-7],[-7,3],[-7,-4],[-10,-16],[-1,-11],[3,-20],[-6,-15],[-20,-36],[-3,-5],[-9,-4],[-9,9],[-11,17],[15,19],[2,8],[13,25],[-6,12],[39,31],[9,2],[3,-10]],[[1910,8185],[-2,-10],[25,-15],[3,4],[5,-3],[6,-15],[5,14],[8,-7],[-6,-14],[2,-4],[42,13],[2,-7],[-25,-10],[-1,-9],[-18,-5],[-3,-6],[-7,-4],[4,-3],[-4,-3],[-12,-2],[-9,5],[-2,5],[-8,4],[-3,4],[-15,10],[-17,5],[-10,8],[-7,4],[6,16],[-13,2],[4,14],[19,-4],[0,16],[8,3],[10,1],[13,-7]],[[8,9926],[-5,24],[-3,7],[6,7],[3,0],[2,34],[5,1],[-1,-14],[20,-2],[0,-20],[3,-11],[-1,-13],[3,-18],[-1,-12],[-3,0]]]}
