{"type":"Topology","bbox":[-72.64759236211154,6.57335890513621,-72.64006171979469,6.577744372456853],"transform":{"scale":[7.531395456396939e-7,4.385905911233834e-7],"translate":[-72.64759236211154,6.57335890513621]},"objects":{"municipios":{"type":"GeometryCollection","geometries":[{"type":"Polygon","arcs":[[0,1]],"properties":{"codigo":"68686100000000000101","sector":"686861000000000001","pcode":"CO68686","area_m2":70264}},{"type":"Polygon","arcs":[[2,-1]],"properties":{"codigo":"68686100000000000102","sector":"686861000000000001","pcode":"CO68686","area_m2":167531}}]}},"arcs":[[[8159,6209],[-897,-207],[-596,158],[-510,-217],[-389,-539],[-2078,-277],[-677,153],[-1741,-162],[-91,1380],[-925,-322]],[[255,6176],[-6,1480],[1960,1311],[820,238],[18,768],[206,26],[-22,-719],[386,150],[76,-861],[-314,-479],[401,-169],[66,-1482],[269,43],[-40,970],[218,522],[737,162],[989,-1387],[801,-627],[349,-86],[169,904],[387,101],[841,-550],[-407,-282]],[[8159,6209],[1049,-111],[418,-319],[373,-2038],[-259,-445],[-115,-1043],[-732,46],[-728,732],[-166,-939],[535,-628],[-234,-756],[-972,-87],[-710,-467],[-482,-84],[-160,387],[193,320],[-329,462],[282,352],[-351,927],[-284,427],[11,-493],[-243,-328],[-146,282],[-291,-399],[190,-495],[-145,-757],[-299,36],[-683,-577],[-362,145],[-205,-284],[-581,-75],[-383,685],[-101,1532],[-820,-79],[-756,334],[-133,504],[-273,-45],[-267,1369],[255,1876]]]}
