{"type":"Topology","bbox":[-73.95651369366595,5.866917631403106,-73.788490696324,5.995765712073466],"transform":{"scale":[0.000016803980132208225,0.00001288609667670374],"translate":[-73.95651369366595,5.866917631403106]},"objects":{"municipios":{"type":"GeometryCollection","geometries":[{"type":"Polygon","arcs":[[0]]},{"type":"MultiPolygon","arcs":[[[1,2]],[[3,4]]]},{"type":"Polygon","arcs":[[5,6]]},{"type":"Polygon","arcs":[[-7,7]]},{"type":"Polygon","arcs":[[-2,8,-4,9]]},{"type":"MultiPolygon","arcs":[[[10]],[[11]]]},{"type":"Polygon","arcs":[[12,13]]},{"type":"Polygon","arcs":[[-13,14]]},{"type":"Polygon","arcs":[[15]]}]}},"arcs":[[[105,5760],[11,-14],[-19,-42],[18,-14],[-28,-59],[-20,13],[-17,-42],[-50,34],[16,39],[24,-12],[18,41],[7,-5],[30,69],[10,-8]],[[2153,4447],[25,43],[7,38],[-38,3],[9,135],[41,-4],[2,30]],[[2199,4692],[2,15],[14,-2],[2,19],[17,-9],[30,-3],[1,-42],[26,-1],[-6,-75],[-11,-7],[-8,-62],[-26,0],[0,-26],[-36,2],[0,-12],[-23,1],[-5,-53],[-23,10]],[[2092,4307],[2,12]],[[2094,4319],[-2,-12]],[[9797,3829],[-29,-16],[-28,-72],[-12,25],[-24,-1],[-12,-17],[-8,10],[16,20],[22,2],[-15,34],[19,1],[12,35],[-12,5],[-28,-8],[6,58],[-11,17],[3,25],[37,15],[37,-9],[9,18],[4,28],[-12,13],[14,52],[4,35],[-8,3],[12,29],[27,12],[9,41]],[[9829,4184],[13,-15],[-11,-23],[0,-32],[-15,-86],[-16,-117],[-8,-32],[5,-50]],[[9829,4184],[6,12],[16,-4],[-9,49],[-4,65],[-19,76],[44,-21],[13,5],[9,-29],[16,-13],[9,-26],[-12,-12],[-17,-44],[17,-3],[14,-34],[-20,-8],[-31,-28],[-21,-38],[50,-18],[15,21],[-6,6],[19,32],[15,40],[15,-9],[-9,-44],[-17,-24],[33,-14],[-16,-45],[20,-5],[22,22],[-2,-60],[18,-40],[2,-29],[-7,-30],[-26,-21],[-19,-6],[-13,-27],[-49,-16],[-21,27],[-26,3],[-16,12],[-8,-12],[-4,-56],[-13,-9]],[[2153,4447],[-42,-61],[-13,-33],[-4,-34]],[[2092,4307],[-6,13],[-49,50],[32,54],[29,-29],[24,37],[15,13],[19,35],[-11,9],[0,18],[-29,2],[0,26],[-19,8],[2,62],[-48,4],[2,70],[32,-4],[0,28],[17,-6],[97,-5]],[[3102,178],[18,-16],[-1,-80],[-6,-5],[-69,-15],[-30,-16],[-12,62],[-14,9],[-1,-27],[-52,-2],[-6,-20],[-5,30],[-14,2],[-2,30],[78,2],[45,-14],[-2,25],[16,-4],[0,-23],[23,4],[1,35],[10,11],[7,-17],[16,29]],[[2780,132],[21,-53],[-27,-27],[-47,-11],[17,-37],[-17,3],[-16,24],[-20,63],[-28,-2],[-26,-23],[-14,8],[13,24],[23,3],[14,32],[14,0],[21,-28],[15,38],[12,-25],[29,41],[16,-30]],[[2656,9978],[-37,-245],[-23,-189],[-41,12],[-14,-133],[8,-12],[-59,-74],[10,-15],[-35,-43],[-1,-23]],[[2464,9256],[-33,-23],[-32,24],[8,13],[50,32],[-22,33],[34,31],[26,99],[19,102],[4,52],[9,58],[-10,12],[7,27],[13,16],[32,13],[12,-9],[17,114],[-1,82],[-12,27],[51,26],[20,-7]],[[2656,9978],[40,21],[45,-61],[-40,-44],[-21,-98],[-9,-63],[55,-10],[2,13],[65,69],[27,-29],[24,5],[22,-18],[-36,-19],[-69,-87],[-18,-4],[-34,-57],[13,-20],[-52,-76],[-18,-38],[-30,11],[-4,-35],[-26,-53],[23,-26],[-11,-20],[-14,12],[-43,-102],[18,-16],[-68,-83],[-22,-3],[-14,9],[-3,20],[6,80]],[[2242,7094],[2,-24],[-18,0],[-2,20],[-36,-22],[-20,36],[35,26],[-8,22],[2,23],[40,118],[22,47],[17,-12],[-26,-55],[21,-12],[-40,-96],[12,-47],[-1,-24]]]}
