{"type":"Topology","bbox":[-73.60169025443133,6.241591478179795,-73.49346008633171,6.2908949796108935],"transform":{"scale":[0.00001082409921988437,0.000004930843227432595],"translate":[-73.60169025443133,6.241591478179795]},"objects":{"municipios":{"type":"GeometryCollection","geometries":[{"type":"Polygon","arcs":[[0,1]],"properties":{"codigo":"68245100000000000101","sector":"682451000000000001","pcode":"CO68245","area_m2":130203}},{"type":"Polygon","arcs":[[2,-1]],"properties":{"codigo":"68245100000000000102","sector":"682451000000000001","pcode":"CO68245","area_m2":116231}},{"type":"Polygon","arcs":[[3]],"properties":{"codigo":"68245200101003000101","sector":"682452001010030001","pcode":"CO68245","area_m2":71085}}]}},"arcs":[[[9705,278],[-25,144],[28,24],[-19,103],[27,23],[-75,435],[-53,-44]],[[9588,963],[-43,236],[117,67],[38,-211],[127,108],[13,25],[33,-23],[53,9],[0,42],[17,43],[10,-24],[43,-5],[-37,-102],[35,-98],[-2,-14],[-57,-57],[24,-135],[-54,-74],[-8,-51],[-23,-11],[-7,-84],[-12,-41],[-32,-55],[-24,-10],[-23,-45],[-10,-53],[-31,-28],[-30,-94]],[[9705,278],[3,-47],[-29,-115],[-88,-116],[-54,213],[11,57],[-19,75],[-5,92],[21,52],[16,117],[0,64],[-13,-11],[0,-52],[-27,-29],[-8,48],[-61,-56],[-23,-31],[7,-38],[-127,-116],[-30,170],[263,218],[-39,91],[-4,30],[89,69]],[[182,9645],[42,63],[-2,34],[23,10],[20,35],[23,-73],[-1,-119],[-11,-18],[5,-87],[-5,-68],[-29,-14],[4,-31],[-19,-13],[20,-84],[2,-131],[-31,80],[-18,-29],[-71,167],[3,16],[-37,107],[-51,-91],[-30,92],[-19,78],[43,35],[-20,86],[30,45],[4,41],[35,31],[-20,57],[-39,53],[60,42],[12,40],[16,-196],[18,-39],[43,-119]]]}
