{"type":"Topology","bbox":[-73.04720208843344,7.362916281064727,-72.9816290763302,7.515152346679707],"transform":{"scale":[0.000006557957006024942,0.000015225129074405389],"translate":[-73.04720208843344,7.362916281064727]},"objects":{"municipios":{"type":"GeometryCollection","geometries":[{"type":"Polygon","arcs":[[0,1,2,3]],"properties":{"codigo":"68780100000000000102","sector":"687801000000000001","pcode":"CO68780","area_m2":32802}},{"type":"Polygon","arcs":[[4]],"properties":{"codigo":"68780200106008000101","sector":"687802001060080001","pcode":"CO68780","area_m2":33721}},{"type":"Polygon","arcs":[[5]],"properties":{"codigo":"68780200203001000101","sector":"687802002030010001","pcode":"CO68780","area_m2":45566}},{"type":"Polygon","arcs":[[-3,6,7]],"properties":{"codigo":"68780100000000000101","sector":"687801000000000001","pcode":"CO68780","area_m2":25076}},{"type":"Polygon","arcs":[[8,9,-7,-2]],"properties":{"codigo":"68780100000000000103","sector":"687801000000000001","pcode":"CO68780","area_m2":120775}},{"type":"Polygon","arcs":[[-9,-1,10]],"properties":{"codigo":"68780100000000000104","sector":"687801000000000001","pcode":"CO68780","area_m2":23319}}]}},"arcs":[[[9856,423],[36,-15],[-32,-37],[-81,-51],[-39,-30],[16,-4],[-51,-28]],[[9705,258],[-138,47]],[[9567,305],[63,36],[58,45],[-67,19]],[[9621,405],[44,26],[66,-13],[61,-22],[64,27]],[[303,9999],[17,-18],[53,-11],[-20,-9],[99,-9],[-66,-32],[-43,-10],[-28,14],[-123,-6],[-59,-24],[-68,13],[-65,31],[6,15],[44,33],[55,9],[37,-16],[15,15],[111,-5],[35,10]],[[8740,7046],[53,7],[60,-43],[14,-1],[26,-72],[-14,-4],[31,-39],[-31,-18],[-37,-5],[-101,70],[-34,-8],[3,28],[-43,-10],[-41,36],[23,5],[-26,24],[25,5],[-72,95],[-17,37],[26,-1],[41,-26],[7,-17],[107,-63]],[[9567,305],[-86,30],[-59,-33],[-23,-1]],[[9399,301],[-31,15],[66,31],[-34,23],[82,41],[50,-19],[42,27],[47,-14]],[[9705,258],[119,-38],[-14,-10],[36,-8]],[[9846,202],[26,-28],[-22,2],[-50,-29],[-129,-30],[-7,-8],[-100,-15],[9,-45],[-32,-9],[-122,-8],[-34,-31],[-62,7],[-55,29],[3,24],[89,65],[10,21],[-6,31],[74,23],[-49,20],[15,3],[-29,27],[-20,47],[44,3]],[[9856,423],[46,23],[97,-46],[-51,-21],[-31,-27],[-119,-72],[8,-28],[71,-22],[-31,-28]]]}
