{"type":"Topology","bbox":[-72.97585431390803,6.751531102691567,-72.97144031786769,6.755427927430783],"transform":{"scale":[4.414437484089726e-7,3.897214460661776e-7],"translate":[-72.97585431390803,6.751531102691567]},"objects":{"municipios":{"type":"GeometryCollection","geometries":[{"type":"Polygon","arcs":[[0,1]],"properties":{"codigo":"68160100000000000102","sector":"681601000000000001","pcode":"CO68160","area_m2":49948}},{"type":"Polygon","arcs":[[-1,2]],"properties":{"codigo":"68160100000000000101","sector":"681601000000000001","pcode":"CO68160","area_m2":70476}}]}},"arcs":[[[5985,8556],[-756,-2376],[-1026,-4067],[-1520,475]],[[2683,2588],[-654,463],[-712,1253],[-1317,343],[137,826],[415,-73],[319,1990],[1364,208],[361,763],[1558,188],[670,259],[1120,55],[41,-307]],[[5985,8556],[726,453],[1470,416],[776,448],[952,126],[90,-934],[-854,-1359],[-790,-952],[-628,-2625],[911,-597],[66,-1154],[-193,-695],[215,-595],[-1111,-139],[-373,-949],[-710,289],[-1325,-129],[-931,946],[-1246,922],[-347,560]]]}
