{"type":"Topology","bbox":[-74.08957669457203,6.193836333070889,-73.68415902472981,6.4693971358196025],"transform":{"scale":[0.000040545821566378885,0.00002755883615848718],"translate":[-74.08957669457203,6.193836333070889]},"objects":{"municipios":{"type":"GeometryCollection","geometries":[{"type":"Polygon","arcs":[[0]],"properties":{"codigo":"68385200204005000101","sector":"683852002040050001","pcode":"CO68385","area_m2":19042}},{"type":"MultiPolygon","arcs":[[[1]],[[2]],[[3]],[[4]]],"properties":{"codigo":"68385200503008000101","sector":"683852005030080001","pcode":"CO68385","area_m2":14217}},{"type":"Polygon","arcs":[[5,6]],"properties":{"codigo":"68385200602009000102","sector":"683852006020090001","pcode":"CO68385","area_m2":36075}},{"type":"Polygon","arcs":[[7]],"properties":{"codigo":"68385200301006000101","sector":"683852003010060001","pcode":"CO68385","area_m2":41136}},{"type":"Polygon","arcs":[[8]],"properties":{"codigo":"68385200304007000101","sector":"683852003040070001","pcode":"CO68385","area_m2":76424}},{"type":"MultiPolygon","arcs":[[[9,10,11]],[[12]]],"properties":{"codigo":"68385100000000000101","sector":"683851000000000001","pcode":"CO68385","area_m2":224618}},{"type":"Polygon","arcs":[[-7,13]],"properties":{"codigo":"68385200602009000101","sector":"683852006020090001","pcode":"CO68385","area_m2":63304}},{"type":"Polygon","arcs":[[14,-10,15]],"properties":{"codigo":"68385100000000000102","sector":"683851000000000001","pcode":"CO68385","area_m2":266409}},{"type":"Polygon","arcs":[[16,-11,-15]],"properties":{"codigo":"68385100000000000103","sector":"683851000000000001","pcode":"CO68385","area_m2":80866}},{"type":"Polygon","arcs":[[17]],"properties":{"codigo":"68385200201014000101","sector":"683852002010140001","pcode":"CO68385","area_m2":48761}},{"type":"Polygon","arcs":[[18]],"properties":{"codigo":"68385200403001000101","sector":"683852004030010001","pcode":"CO68385","area_m2":26097}}]}},"arcs":[[[8310,6588],[-1,-10],[13,-2],[7,-17],[12,-4],[-17,-24],[-24,9],[2,28],[-9,1],[1,13],[16,6]],[[5585,2255],[-5,-3],[-7,27],[10,6],[-2,8],[7,3],[-7,30],[4,11],[5,-14],[8,-46],[-7,-3],[-6,-19]],[[5589,2225],[-4,-7],[-5,9],[4,6],[5,-8]],[[5603,2238],[-3,-7],[-10,7],[2,8],[11,-8]],[[5575,2326],[0,0]],[[90,73],[30,-12],[8,-24],[-3,-12],[17,-20],[-4,-5],[-38,32],[-17,7],[-15,2],[-10,-7]],[[58,34],[-7,24],[25,8],[1,9],[13,-2]],[[9970,7928],[5,-12],[13,-2],[-4,7],[4,12],[11,-6],[-16,-19],[8,-2],[-6,-28],[6,-8],[-5,-26],[-9,8],[3,-12],[-18,8],[-15,14],[7,30],[-6,9],[5,14],[15,-1],[-14,16],[5,17],[11,-19]],[[8325,4574],[1,-35],[-10,-22],[-16,-3],[2,-10],[-9,0],[21,-44],[-7,-14],[-4,-21],[-5,-6],[-4,-21],[1,-19],[-8,-8],[18,-26],[-6,-12],[-14,9],[-10,12],[16,37],[-4,21],[12,44],[-12,17],[-11,10],[3,9],[-10,12],[8,16],[12,10],[-3,22],[3,16],[9,1],[0,23],[10,15],[10,1],[7,-34]],[[6884,995],[-2,-8],[-12,1],[-13,-72],[-15,-2],[-4,-36]],[[6838,878],[-6,-30],[5,-23],[-14,-30],[-8,-10],[-20,1]],[[6795,786],[-23,22],[-4,8],[-11,-10],[-5,-11],[-16,-2],[-6,17],[-8,-5],[-7,13],[32,18],[9,-25],[12,11],[16,23],[-2,7],[18,14],[3,9],[-2,24],[6,17],[6,4],[-11,10],[-19,-43],[-8,-8],[-5,14],[-13,16],[-3,22],[-16,11],[1,19],[6,9],[-1,21],[4,3],[2,-27],[-4,-9],[10,-5],[15,13],[14,4],[7,-8],[4,15],[7,-3],[34,35],[22,-1],[13,-8],[5,-9],[7,4]],[[6751,762],[-7,-9],[-9,16],[19,15],[13,5],[10,-14],[-18,-6],[-8,-7]],[[58,34],[-30,-23],[-24,35],[-4,16],[25,15],[3,21],[13,-8],[4,6],[0,14],[8,4],[4,20],[15,2],[-2,-20],[7,1],[8,-17],[-9,-10],[-3,8],[-10,2],[-2,-15],[29,-8],[0,-4]],[[6889,818],[-8,3],[7,8],[-5,23],[-19,-9],[-14,12],[-12,23]],[[6884,995],[4,16],[10,-10],[8,-16],[-1,24],[-5,31],[9,11],[17,1],[9,10],[35,-22],[-6,-16],[2,-18],[7,-8],[12,4],[-4,-15],[15,-43],[2,-12],[-9,15],[-14,-4],[-3,-9],[3,-16],[-33,-27],[-14,2],[-16,-37],[-22,-29],[-1,-9]],[[6889,818],[3,-11],[-7,-18],[-10,-11],[-17,-7],[-18,-22],[-10,3],[-11,17],[-8,0],[5,-13],[-21,0],[-5,3],[5,27]],[[7424,9980],[7,-8],[2,-14],[-9,-17],[13,-45],[0,-17],[-3,-15],[-8,-4],[-8,14],[-5,0],[-6,26],[8,14],[-6,30],[-23,1],[-4,29],[10,5],[17,18],[6,2],[9,-19]],[[8365,838],[-12,-17],[1,-14],[5,-24],[29,-16],[3,-24],[-11,20],[-10,4],[-12,-6],[-6,-16],[-14,14],[13,-5],[4,17],[-13,29],[-11,0],[9,9],[6,-5],[-3,24],[-4,6],[-15,1],[1,8],[16,2],[6,-7],[16,8],[2,-8]]]}
