{"type":"Topology","bbox":[-75.33710873124846,8.463769489085841,-75.0474291866488,8.72578206868807],"transform":{"scale":[0.000028970851545120962,0.000026203878348057596],"translate":[-75.33710873124846,8.463769489085841]},"objects":{"municipios":{"type":"GeometryCollection","geometries":[{"type":"Polygon","arcs":[[0,1,2,3,4]],"properties":{"codigo":"70708200602001000102","sector":"707082006020010001","pcode":"CO70708","area_m2":294115}},{"type":"Polygon","arcs":[[5]],"properties":{"codigo":"70708200304004000101","sector":"707082003040040001","pcode":"CO70708","area_m2":80014}},{"type":"Polygon","arcs":[[-3,6,7,8]],"properties":{"codigo":"70708200602001000103","sector":"707082006020010001","pcode":"CO70708","area_m2":159309}},{"type":"Polygon","arcs":[[9,10,-7,-2]],"properties":{"codigo":"70708200602001000104","sector":"707082006020010001","pcode":"CO70708","area_m2":131577}},{"type":"Polygon","arcs":[[-10,-1,11]],"properties":{"codigo":"70708200602001000105","sector":"707082006020010001","pcode":"CO70708","area_m2":104371}},{"type":"Polygon","arcs":[[12]],"properties":{"codigo":"70708200101002000101","sector":"707082001010020001","pcode":"CO70708","area_m2":207244}},{"type":"Polygon","arcs":[[13]],"properties":{"codigo":"70708200502003000101","sector":"707082005020030001","pcode":"CO70708","area_m2":240201}},{"type":"Polygon","arcs":[[14]],"properties":{"codigo":"70708200101010000101","sector":"707082001010100001","pcode":"CO70708","area_m2":252799}},{"type":"Polygon","arcs":[[15]],"properties":{"codigo":"70708200205014000101","sector":"707082002050140001","pcode":"CO70708","area_m2":51813}},{"type":"Polygon","arcs":[[16]],"properties":{"codigo":"70708200101027000101","sector":"707082001010270001","pcode":"CO70708","area_m2":178460}},{"type":"Polygon","arcs":[[17]],"properties":{"codigo":"70708200501030000101","sector":"707082005010300001","pcode":"CO70708","area_m2":322005}},{"type":"Polygon","arcs":[[18]],"properties":{"codigo":"70708200202015000101","sector":"707082002020150001","pcode":"CO70708","area_m2":308831}},{"type":"Polygon","arcs":[[19]],"properties":{"codigo":"70708200104017000101","sector":"707082001040170001","pcode":"CO70708","area_m2":79733}},{"type":"MultiPolygon","arcs":[[[20]],[[21]]],"properties":{"codigo":"70708200205018000101","sector":"707082002050180001","pcode":"CO70708","area_m2":57603}},{"type":"MultiPolygon","arcs":[[[22]],[[23]],[[24]],[[25]]],"properties":{"codigo":"70708200103020000101","sector":"707082001030200001","pcode":"CO70708","area_m2":29314}},{"type":"Polygon","arcs":[[26,27]],"properties":{"codigo":"70708200601021000101","sector":"707082006010210001","pcode":"CO70708","area_m2":224967}},{"type":"Polygon","arcs":[[28,29]],"properties":{"codigo":"70708200601024000101","sector":"707082006010240001","pcode":"CO70708","area_m2":197222}},{"type":"Polygon","arcs":[[30]],"properties":{"codigo":"70708200302025000101","sector":"707082003020250001","pcode":"CO70708","area_m2":148221}},{"type":"Polygon","arcs":[[31]],"properties":{"codigo":"70708200803029000101","sector":"707082008030290001","pcode":"CO70708","area_m2":242847}},{"type":"Polygon","arcs":[[32]],"properties":{"codigo":"70708200901031000101","sector":"707082009010310001","pcode":"CO70708","area_m2":18827}},{"type":"Polygon","arcs":[[33]],"properties":{"codigo":"70708200704032000101","sector":"707082007040320001","pcode":"CO70708","area_m2":17051}},{"type":"MultiPolygon","arcs":[[[34]],[[35]],[[36]],[[37]]],"properties":{"codigo":"70708200901033000101","sector":"707082009010330001","pcode":"CO70708","area_m2":32337}},{"type":"Polygon","arcs":[[38]],"properties":{"codigo":"70708200402034000101","sector":"707082004020340001","pcode":"CO70708","area_m2":12249}},{"type":"Polygon","arcs":[[39]],"properties":{"codigo":"70708200102035000101","sector":"707082001020350001","pcode":"CO70708","area_m2":96412}},{"type":"MultiPolygon","arcs":[[[40]],[[41]],[[42]]],"properties":{"codigo":"70708200402036000101","sector":"707082004020360001","pcode":"CO70708","area_m2":41384}},{"type":"Polygon","arcs":[[43,44,45,46]],"properties":{"codigo":"70708100000000000108","sector":"707081000000000001","pcode":"CO70708","area_m2":52068}},{"type":"Polygon","arcs":[[-46,47,48]],"properties":{"codigo":"70708100000000000109","sector":"707081000000000001","pcode":"CO70708","area_m2":144222}},{"type":"Polygon","arcs":[[49,50,51,52]],"properties":{"codigo":"70708100000000000204","sector":"707081000000000002","pcode":"CO70708","area_m2":152418}},{"type":"Polygon","arcs":[[53,54,55,56]],"properties":{"codigo":"70708100000000000403","sector":"707081000000000004","pcode":"CO70708","area_m2":48655}},{"type":"Polygon","arcs":[[-48,-45,57,58,59,-54,60,61]],"properties":{"codigo":"70708100000000000107","sector":"707081000000000001","pcode":"CO70708","area_m2":742301}},{"type":"Polygon","arcs":[[62,63,64,65,66]],"properties":{"codigo":"70708100000000000201","sector":"707081000000000002","pcode":"CO70708","area_m2":123208}},{"type":"Polygon","arcs":[[67,68,69]],"properties":{"codigo":"70708100000000000103","sector":"707081000000000001","pcode":"CO70708","area_m2":115904}},{"type":"Polygon","arcs":[[70]],"properties":{"codigo":"70708200501028000101","sector":"707082005010280001","pcode":"CO70708","area_m2":407618}},{"type":"Polygon","arcs":[[71,72,73,74]],"properties":{"codigo":"70708100000000000301","sector":"707081000000000003","pcode":"CO70708","area_m2":219063}},{"type":"Polygon","arcs":[[75,76,77,-75,78]],"properties":{"codigo":"70708100000000000305","sector":"707081000000000003","pcode":"CO70708","area_m2":220351}},{"type":"Polygon","arcs":[[-65,79,80,81,82,83,84]],"properties":{"codigo":"70708100000000000202","sector":"707081000000000002","pcode":"CO70708","area_m2":220092}},{"type":"Polygon","arcs":[[-52,85,-81,86,87,88,-58,-44,89]],"properties":{"codigo":"70708100000000000106","sector":"707081000000000001","pcode":"CO70708","area_m2":618355}},{"type":"Polygon","arcs":[[-78,90,91,-66,-85,92,-72]],"properties":{"codigo":"70708100000000000302","sector":"707081000000000003","pcode":"CO70708","area_m2":334241}},{"type":"Polygon","arcs":[[93,94,-76,95]],"properties":{"codigo":"70708100000000000306","sector":"707081000000000003","pcode":"CO70708","area_m2":217496}},{"type":"Polygon","arcs":[[-83,96,97,98]],"properties":{"codigo":"70708100000000000207","sector":"707081000000000002","pcode":"CO70708","area_m2":77700}},{"type":"Polygon","arcs":[[99,100,101,102,-88]],"properties":{"codigo":"70708100000000000105","sector":"707081000000000001","pcode":"CO70708","area_m2":238528}},{"type":"Polygon","arcs":[[103,104,105,-91,-77,-95]],"properties":{"codigo":"70708100000000000304","sector":"707081000000000003","pcode":"CO70708","area_m2":495113}},{"type":"Polygon","arcs":[[106]],"properties":{"codigo":"70708200501013000101","sector":"707082005010130001","pcode":"CO70708","area_m2":513344}},{"type":"Polygon","arcs":[[107,108]],"properties":{"codigo":"70708200503006000102","sector":"707082005030060001","pcode":"CO70708","area_m2":284141}},{"type":"Polygon","arcs":[[-108,109]],"properties":{"codigo":"70708200503006000101","sector":"707082005030060001","pcode":"CO70708","area_m2":152428}},{"type":"Polygon","arcs":[[-64,110,-70,111,-100,-87,-80]],"properties":{"codigo":"70708100000000000104","sector":"707081000000000001","pcode":"CO70708","area_m2":322015}},{"type":"Polygon","arcs":[[112,-102,113,114,115,-55,-60]],"properties":{"codigo":"70708100000000000401","sector":"707081000000000004","pcode":"CO70708","area_m2":234305}},{"type":"Polygon","arcs":[[-51,116,-97,-82,-86]],"properties":{"codigo":"70708100000000000203","sector":"707081000000000002","pcode":"CO70708","area_m2":103050}},{"type":"Polygon","arcs":[[117,118,-30,119]],"properties":{"codigo":"70708200602011000101","sector":"707082006020110001","pcode":"CO70708","area_m2":1104480}},{"type":"Polygon","arcs":[[-113,-59,-89,-103]],"properties":{"codigo":"70708100000000000404","sector":"707081000000000004","pcode":"CO70708","area_m2":106802}},{"type":"Polygon","arcs":[[120,121,-61,-57,122]],"properties":{"codigo":"70708100000000000408","sector":"707081000000000004","pcode":"CO70708","area_m2":384056}},{"type":"Polygon","arcs":[[-73,-93,-84,-99,123,124]],"properties":{"codigo":"70708100000000000206","sector":"707081000000000002","pcode":"CO70708","area_m2":131017}},{"type":"Polygon","arcs":[[-104,-94,125]],"properties":{"codigo":"70708100000000000307","sector":"707081000000000003","pcode":"CO70708","area_m2":478543}},{"type":"Polygon","arcs":[[-27,126]],"properties":{"codigo":"70708200601021000102","sector":"707082006010210001","pcode":"CO70708","area_m2":360558}},{"type":"Polygon","arcs":[[127,128]],"properties":{"codigo":"70708100000000000405","sector":"707081000000000004","pcode":"CO70708","area_m2":431631}},{"type":"Polygon","arcs":[[-4,-9,129,-118,130]],"properties":{"codigo":"70708200602001000101","sector":"707082006020010001","pcode":"CO70708","area_m2":470552}},{"type":"Polygon","arcs":[[-98,-117,-50,131,-124]],"properties":{"codigo":"70708100000000000205","sector":"707081000000000002","pcode":"CO70708","area_m2":135184}},{"type":"Polygon","arcs":[[132,-121,133,-115,134]],"properties":{"codigo":"70708100000000000406","sector":"707081000000000004","pcode":"CO70708","area_m2":211567}},{"type":"Polygon","arcs":[[135,-67,-92,-106]],"properties":{"codigo":"70708100000000000303","sector":"707081000000000003","pcode":"CO70708","area_m2":224720}},{"type":"Polygon","arcs":[[-123,-56,-116,-134]],"properties":{"codigo":"70708100000000000407","sector":"707081000000000004","pcode":"CO70708","area_m2":103968}},{"type":"Polygon","arcs":[[136,-135,-114,-101,-112,-69,137,-128]],"properties":{"codigo":"70708100000000000402","sector":"707081000000000004","pcode":"CO70708","area_m2":254834}},{"type":"Polygon","arcs":[[138,139]],"properties":{"codigo":"70708200404012000101","sector":"707082004040120001","pcode":"CO70708","area_m2":134608}},{"type":"Polygon","arcs":[[-139,140]],"properties":{"codigo":"70708200404012000102","sector":"707082004040120001","pcode":"CO70708","area_m2":145344}},{"type":"Polygon","arcs":[[141,142,143]],"properties":{"codigo":"70708200303005000101","sector":"707082003030050001","pcode":"CO70708","area_m2":80086}},{"type":"Polygon","arcs":[[144,-142,145]],"properties":{"codigo":"70708200303005000102","sector":"707082003030050001","pcode":"CO70708","area_m2":50248}},{"type":"Polygon","arcs":[[146,-143,-145]],"properties":{"codigo":"70708200303005000103","sector":"707082003030050001","pcode":"CO70708","area_m2":107992}},{"type":"Polygon","arcs":[[147,148]],"properties":{"codigo":"70708200404009000101","sector":"707082004040090001","pcode":"CO70708","area_m2":66216}},{"type":"Polygon","arcs":[[-148,149,150,151]],"properties":{"codigo":"70708200404009000102","sector":"707082004040090001","pcode":"CO70708","area_m2":48277}},{"type":"Polygon","arcs":[[-151,152]],"properties":{"codigo":"70708200404009000103","sector":"707082004040090001","pcode":"CO70708","area_m2":150453}},{"type":"Polygon","arcs":[[153]],"properties":{"codigo":"70708200201007000101","sector":"707082002010070001","pcode":"CO70708","area_m2":118992}}]}},"arcs":[[[7456,9066],[-5,12],[-97,-7]],[[7354,9071],[-71,-4]],[[7283,9067],[-39,-2]],[[7244,9065],[-1,43],[-22,86]],[[7221,9194],[11,3],[13,16],[23,10],[27,4],[38,16],[23,-6],[12,-17],[0,-17],[24,22],[16,34],[24,-93],[16,-68],[9,5],[7,-37],[-8,0]],[[735,4293],[25,-71],[15,-39],[-40,-44],[-8,13],[-10,57],[-15,2],[-33,28],[-5,25],[18,3],[-10,22],[41,0],[22,4]],[[7283,9067],[-8,-105],[3,-24],[1,-44],[-10,-21]],[[7269,8873],[-15,6],[7,23],[-57,7]],[[7204,8909],[-47,7],[15,72],[-1,58],[35,-3],[3,30],[35,-8]],[[7354,9071],[9,-54],[-6,-1],[28,-66]],[[7385,8950],[-57,-17],[3,-21],[-14,0],[-15,-24],[-5,-28],[-28,13]],[[7456,9066],[7,-36],[15,-54],[-12,0],[-21,46],[-9,-12],[2,-34],[-23,-33],[-15,-13],[-15,20]],[[2786,8180],[-6,3],[-11,-23],[-6,23],[-1,28],[16,85],[-39,12],[16,32],[22,-8],[14,22],[7,0],[15,25],[17,2],[7,20],[16,-6],[-6,-21],[24,-9],[44,31],[13,-2],[2,12],[53,-17],[12,18],[6,-5],[-23,-22],[13,-9],[-6,-18],[-14,7],[-22,-1],[-21,-16],[-46,-57],[-9,9],[-86,-116],[-1,1]],[[4395,7968],[4,-16],[6,-103],[9,-51],[11,-20],[20,-54],[20,-40],[20,12],[22,-58],[47,14],[2,-13],[-9,-13],[-22,-6],[-2,-50],[7,-21],[17,-20],[-15,-14],[20,-14],[-15,-16],[-14,18],[7,10],[-34,45],[-21,33],[-15,-11],[-8,11],[-39,117],[-35,46],[-9,23],[-2,29],[-6,14],[-5,70],[-17,15],[-2,20],[-12,4],[-2,26],[42,1],[-7,22],[31,13],[6,-23]],[[3438,8594],[20,-58],[-1,28],[20,14],[37,-40],[7,-13],[16,-57],[31,-60],[-44,-8],[-30,57],[-29,32],[-42,-25],[-69,-54],[-11,26],[-33,-4],[-10,-8],[3,17],[-18,31],[23,20],[5,42],[15,-8],[34,-1],[-7,32],[81,45],[2,-8]],[[589,5060],[4,-27],[13,-19],[12,8],[19,-12],[-7,-22],[10,-13],[-38,-24],[-5,-13],[-8,15],[-10,45],[-45,68],[10,9],[12,-16],[30,27],[3,-26]],[[2543,9898],[27,-6],[22,8],[16,-9],[-4,-10],[90,-40],[33,-7],[0,-38],[-39,-4],[-19,16],[-97,18],[-32,0],[-5,-34],[-14,-6],[-27,0],[-15,-7],[16,20],[0,39],[20,25],[-46,59],[-44,77],[38,-20],[36,-41],[49,-21],[-5,-19]],[[5500,9713],[17,-49],[11,-60],[-26,4],[-6,-18],[-29,-7],[-1,16],[-29,5],[-13,20],[-44,-1],[-16,11],[-16,20],[22,15],[0,28],[-6,15],[-20,-4],[-5,9],[3,34],[-9,28],[33,52],[43,61],[17,5],[29,-62],[35,-100],[10,-22]],[[3587,6984],[18,-10],[-18,-59],[61,-34],[64,-19],[39,5],[14,21],[12,-7],[5,23],[30,-31],[2,-12],[-10,-30],[-31,-9],[-2,-33],[-18,-1],[-33,-15],[-17,-36],[11,-14],[-32,-4],[-16,6],[-5,-11],[-43,27],[-21,55],[-14,55],[-9,17],[-33,22],[-17,23],[-38,8],[-1,-12],[-16,2],[0,14],[18,15],[0,15],[20,-3],[25,-13],[7,26],[40,10],[8,9]],[[672,9038],[-4,-35],[-19,5],[-4,-33],[28,-12],[-3,-35],[76,-2],[-29,38],[-11,-1],[-10,18],[9,6],[12,-22],[34,-43],[0,-10],[-20,-1],[-1,13],[-48,2],[-1,-12],[-44,-3],[-25,-15],[17,-35],[-13,-7],[-13,28],[-43,-19],[-41,-26],[3,19],[55,30],[13,9],[-13,15],[24,29],[-4,4],[18,30],[15,-1],[-1,33],[19,-3],[7,35],[17,1]],[[843,5911],[9,-17],[-13,-21],[-8,-27],[33,-56],[-11,-12],[8,-8],[12,8],[7,-13],[-30,-13],[-30,38],[13,22],[-7,12],[-10,-8],[-21,36],[5,30],[38,38],[5,-9]],[[893,5697],[-18,0],[-2,18],[-10,1],[-4,32],[12,5],[10,-16],[12,-40]],[[18,8852],[-13,-7],[-5,21],[11,14],[40,7],[4,-21],[-39,-7],[2,-7]],[[39,8823],[10,2],[12,-35],[-13,-2],[4,-25],[-9,0],[-11,74],[7,-14]],[[14,8746],[-9,14],[33,9],[1,-16],[-25,-7]],[[100,8774],[15,1],[-1,-11],[-23,-6],[-5,21],[14,-5]],[[5547,8975],[52,39],[28,16]],[[5627,9030],[15,-35],[24,5],[-2,-27],[21,3],[6,-76],[9,-13],[28,-63],[-1,-9],[50,-78],[54,-92],[17,-32],[-9,-5],[-56,103],[-29,41],[-31,31],[-39,19],[-17,-22],[-44,74],[-76,121]],[[6984,8864],[-54,-90],[30,-17],[-44,-29],[-11,-77],[-78,41],[2,40],[-15,0],[-3,62],[-22,-16],[-24,26]],[[6765,8804],[20,24],[15,-12],[53,1],[58,-3],[-4,64],[53,0],[24,-14]],[[3176,2049],[-21,-52],[13,-33],[-16,-4],[-14,6],[-31,65],[-13,-15],[-35,69],[58,18],[8,37],[70,43],[15,-5],[6,-12],[-6,-51],[-20,-30],[-14,-36]],[[9794,145],[-4,-22],[44,-6],[3,22],[19,1],[15,-11],[46,-7],[1,23],[27,-2],[22,6],[23,-17],[8,-17],[-61,-8],[-19,-9],[-18,-17],[12,-7],[-11,-53],[-18,-15],[-29,-6],[-22,4],[-56,28],[-5,10],[-39,24],[-22,20],[-29,-5],[-50,-28],[24,24],[5,48],[15,7],[95,-4],[6,41],[21,-5],[-3,-19]],[[6818,4254],[17,-42],[16,6],[19,-39],[-12,-26],[-9,30],[-10,-4],[-24,30],[-4,28],[7,17]],[[6613,4985],[11,-7],[9,10],[29,-27],[12,-30],[-13,-7],[-7,18],[-9,-6],[-14,20],[-31,28],[13,1]],[[6834,4503],[-8,-14],[-28,5],[-5,16],[24,31],[9,2],[8,-40]],[[6858,4655],[-16,-10],[-1,-33],[-30,34],[27,17],[20,-8]],[[6914,4674],[-36,-20],[8,22],[15,1],[17,17],[-4,-20]],[[6837,4583],[-4,-15],[-19,9],[8,11],[15,-5]],[[4348,3078],[-12,13],[-14,33],[-32,56],[49,-52],[9,-50]],[[3479,8313],[0,-8],[37,-8],[79,-48],[-9,48],[13,8],[9,-13],[37,-28],[3,-21],[19,2],[0,-13],[-44,-7],[-13,-30],[13,-16],[-12,-10],[-15,20],[-19,1],[-9,-16],[-9,5],[9,17],[4,33],[-60,32],[1,5],[-36,18],[-7,-15],[-12,4],[-7,42],[28,-2]],[[4096,3375],[4,-12],[12,6],[10,-24],[-12,-6],[15,-31],[-37,25],[-62,6],[0,18],[28,-3],[33,-9],[8,7],[-11,19],[12,4]],[[4146,3312],[92,-61],[-7,-13],[-82,55],[-14,-5],[11,24]],[[4086,3396],[-14,-6],[-13,20],[15,13],[12,-27]],[[6812,7918],[-8,-2],[-80,13],[-34,3]],[[6690,7932],[-26,57]],[[6664,7989],[33,16]],[[6697,8005],[64,-50],[51,-37]],[[6664,7989],[-36,-16],[-72,-34]],[[6556,7939],[0,72],[5,6],[9,73],[3,89],[24,-27],[25,-54],[10,-34],[10,10],[7,-11],[48,-58]],[[7177,7842],[-57,-93]],[[7120,7749],[-30,28]],[[7090,7777],[-32,27],[-22,29],[9,13],[-20,20],[-22,54]],[[7003,7920],[51,17],[7,-1],[56,-41],[3,-7],[57,-46]],[[6515,7685],[16,76],[65,-13],[-7,-35]],[[6589,7713],[-9,-45]],[[6580,7668],[-14,4]],[[6566,7672],[-51,13]],[[6690,7932],[22,-54],[34,-68]],[[6746,7810],[-53,-24],[-11,-9],[-13,-74]],[[6669,7703],[-37,1],[-43,9]],[[6515,7685],[-48,11],[-41,14],[-83,53],[-44,56]],[[6299,7819],[-22,29],[70,25],[81,25],[3,-13],[48,9],[-4,47],[1,51],[31,-1],[2,-28],[-7,-3],[13,-32],[19,19],[8,-17],[14,9]],[[7236,7289],[-49,27],[-21,-6],[-57,8]],[[7109,7318],[5,43],[-14,64]],[[7100,7425],[57,13],[28,-13]],[[7185,7425],[55,-30]],[[7240,7395],[-37,-72],[39,-17],[-6,-17]],[[6967,7387],[-15,-21],[2,-30],[-22,-17],[-34,15],[-27,62],[-18,14],[-36,6],[-40,14],[-13,8]],[[6764,7438],[22,17],[23,-23],[34,15],[37,-3],[-8,18],[-22,23],[39,21]],[[6889,7506],[41,-104],[32,14],[5,-29]],[[3659,9700],[46,-34],[-3,-12],[29,-19],[61,-35],[20,-8],[41,-6],[1,-20],[10,-4],[11,-23],[-79,17],[-70,36],[-12,-34],[-30,11],[-2,-28],[-24,4],[10,67],[-55,13],[-3,4],[-112,31],[1,14],[-23,2],[-34,-10],[11,184],[10,2],[19,32],[33,-51],[18,-24],[63,-60],[63,-49]],[[7405,7527],[-57,53],[-14,-23],[-53,51]],[[7281,7608],[-13,11],[56,125]],[[7324,7744],[49,-35],[65,-41],[37,-44]],[[7475,7624],[-54,-71],[-16,-26]],[[7582,7462],[-7,5],[-61,-82]],[[7514,7385],[-126,120]],[[7388,7505],[17,22]],[[7475,7624],[107,-126],[0,-36]],[[7100,7425],[-17,74],[-17,84]],[[7066,7583],[-10,48]],[[7056,7631],[28,-2],[24,-10]],[[7108,7619],[68,-30]],[[7176,7589],[66,-29]],[[7242,7560],[-57,-135]],[[7090,7777],[-59,-20],[25,-126]],[[7066,7583],[-124,-6]],[[6942,7577],[17,120],[-24,55],[-16,-4],[-16,51],[-34,-8],[-32,-25],[-61,-9]],[[6776,7757],[-30,53]],[[6812,7918],[74,-6],[5,21],[-6,26],[31,2],[27,7],[5,-13],[-31,-11],[4,-28],[82,4]],[[7388,7505],[-21,-30],[44,-48],[-32,-53],[-23,-49]],[[7356,7325],[-68,44],[-48,26]],[[7242,7560],[15,-7],[24,55]],[[7725,7359],[-13,-45],[-31,12],[-20,-37],[-8,2],[-20,-41],[-5,-1]],[[7628,7249],[-10,0],[-65,34],[27,40],[-66,62]],[[7582,7462],[-5,-28],[7,-8],[1,-34],[15,22],[-4,15],[17,32],[28,-30],[60,-54],[24,-18]],[[7108,7619],[17,41],[-11,6],[17,54],[10,11]],[[7141,7731],[69,-61]],[[7210,7670],[-34,-81]],[[6942,7577],[-11,-65],[-46,5]],[[6885,7517],[-10,5]],[[6875,7522],[16,44],[20,76],[-137,14],[5,17],[21,26]],[[6800,7699],[17,22],[-41,36]],[[7628,7249],[3,-26],[-35,-70],[-31,13],[-4,-18],[29,-13],[-4,-32]],[[7586,7103],[-89,25],[-10,-6],[-26,18],[-24,1]],[[7437,7141],[17,37],[-51,34],[20,70],[-67,43]],[[4064,9551],[20,-25],[10,15],[30,-20],[-2,-29],[-25,-77],[-3,-25],[121,-14],[-5,-40],[-99,19],[-38,-3],[25,-28],[-2,-32],[-31,0],[3,24],[-82,-2],[-63,10],[-42,0],[-4,24],[-17,50],[3,31],[30,67],[-20,16],[9,15],[182,24]],[[4221,6334],[25,15],[-16,30],[59,36],[2,12]],[[4291,6427],[7,2],[10,-26],[22,13],[44,18],[7,-25],[16,-10],[14,14],[12,-13],[-17,-25],[49,-9],[-5,-30],[-24,2],[-2,-16],[-22,-3],[-15,6],[-20,-35],[3,-30],[-38,4],[-35,-6],[9,-48],[6,-20],[-4,-27],[-33,-5],[-2,15],[-18,-4],[-5,35],[6,0],[-3,29],[-14,61],[-18,40]],[[4221,6334],[-18,4],[-14,19],[-10,26],[-16,19],[-38,16],[-38,8],[5,25],[20,-3],[-2,17],[28,3],[78,-27],[42,47],[9,29],[49,-11],[-17,-37],[-8,-42]],[[7109,7318],[-11,12],[-19,75],[-22,15],[-5,-8],[3,-32],[-18,-22],[-13,-24],[-22,6],[-23,36],[0,15],[-12,-4]],[[6889,7506],[-4,11]],[[6669,7703],[-2,-17],[126,13],[7,0]],[[6875,7522],[-74,45],[-79,47]],[[6722,7614],[-79,36]],[[6643,7650],[-63,18]],[[7120,7749],[21,-18]],[[7071,9189],[-10,-74],[-17,-35],[-50,-205]],[[6994,8875],[-10,-11]],[[6765,8804],[-6,-8],[-23,65],[-16,8],[-20,111],[-41,-22],[1,78],[74,10],[-14,33],[-15,-3],[-7,18],[20,9],[5,-15],[51,19],[25,14],[31,12],[14,43],[-22,27],[22,16],[31,-33],[32,27],[22,55],[49,17],[48,-4],[16,2],[26,-24],[10,-20],[-14,-29],[7,-21]],[[6522,7553],[-20,-56]],[[6502,7497],[-62,12],[-51,122],[-9,39],[-9,-6],[-63,-82],[-7,-6],[-5,47],[-7,26],[-1,61],[-20,47],[1,19],[11,26],[19,17]],[[6566,7672],[-44,-119]],[[7210,7670],[13,-12],[51,114]],[[7274,7772],[4,6],[46,-34]],[[7725,7359],[28,-22],[56,-26],[8,-9],[7,-44],[50,-2],[-6,-22],[-15,2],[7,-37],[26,-113],[-66,32],[3,-61],[-22,17],[-25,9],[-8,-23],[-21,0],[9,32],[-82,28],[-38,16],[-1,-12],[-36,15],[-6,-38],[-7,2]],[[5547,8975],[-116,187],[-23,32],[3,3],[35,-6],[56,88],[6,-2],[2,50],[12,53],[14,2],[1,-35],[-10,-5],[20,-63],[20,-49],[14,16],[21,-23],[-30,-33],[22,-63],[15,18],[16,-12],[10,12],[13,-15],[-11,-30],[-9,-10],[0,-19],[-13,-6],[12,-35]],[[6669,7336],[13,31],[59,69],[19,2]],[[6760,7438],[-1,-14],[24,-23],[12,0],[17,-20],[27,-7],[6,-9],[-1,-36],[-26,-9],[-21,-1],[-5,-11],[12,-17],[34,-4],[52,-24],[49,-9],[5,-8],[-20,-54],[-31,20],[-65,33],[-18,-49],[-14,-16],[-8,6],[-25,-25],[3,-3],[-35,-34],[32,-82],[10,-79],[5,-1],[16,-68],[12,-26],[8,-38],[-10,1],[1,17],[-20,50],[-16,54],[-7,52],[-12,52],[-60,145],[-49,4],[-7,10],[4,19],[31,102]],[[7204,8909],[-4,-23],[-49,0],[-48,2],[-3,21],[-11,-6],[-14,9],[-13,-14],[6,-28],[-21,-42],[-37,36],[15,19],[-9,16],[-22,-24]],[[7071,9189],[39,7],[32,-10],[29,-1],[43,-14],[7,23]],[[7177,7842],[97,-70]],[[6641,7450],[-90,33],[-49,14]],[[6522,7553],[29,-9],[-3,-12],[47,-20],[48,138]],[[6722,7614],[-4,-17],[16,-27],[-10,-18],[-25,15],[-26,-47],[39,3],[-3,-25],[11,-8],[-19,-48],[-53,10],[-7,-2]],[[7437,7141],[-28,-4],[-18,5],[-17,21],[-5,26],[-19,22],[-4,21],[-15,13],[-26,3],[-16,13],[-29,12],[-24,16]],[[6669,7336],[-18,14],[-6,35],[-4,65]],[[6764,7438],[-4,0]],[[5886,4359],[1,-21],[-26,11],[-8,-42]],[[5853,4307],[-22,0],[-27,-11],[1,-20],[-58,17],[-12,12],[-3,17],[-35,16],[4,42],[20,0],[1,10],[20,3],[41,-6],[35,-9],[7,35],[24,-9],[1,-18],[36,-27]],[[5886,4359],[15,32],[10,6],[30,-19],[-32,-69],[42,-18],[5,2],[38,-17],[19,-13],[0,-13],[39,-40],[26,-22],[11,20],[23,-13],[-10,-23],[25,-18],[26,41],[29,-26],[-14,-13],[-23,-30],[-7,5],[-18,-27],[-23,21],[-33,23],[27,31],[-28,5],[-9,-17],[-33,23],[-3,13],[-20,28],[-9,-9],[-14,12],[7,17],[-60,26],[3,8],[-53,18],[-19,4]],[[3060,2268],[-32,-10],[-42,-2]],[[2986,2256],[-18,26],[-69,77]],[[2899,2359],[62,20],[28,-44],[10,10],[27,-32],[15,-44],[19,-1]],[[2995,2173],[4,27],[-13,56]],[[3060,2268],[10,-19],[-7,-34],[-27,-19],[-25,-39],[-16,16]],[[2995,2173],[-14,-28],[-17,13],[-8,48],[-35,20],[-16,-16],[-53,8],[-5,32],[7,2],[11,-16],[64,58],[-25,33],[-16,26],[11,6]],[[4770,2525],[16,24],[-13,15],[17,-5],[12,43],[-9,5]],[[4793,2607],[8,12],[15,-1],[33,13],[11,-6],[2,-20],[-23,-26],[-12,-6],[13,-22],[1,-15],[-10,-12],[11,-13],[-6,-18],[-24,-12],[-8,5],[-10,25],[-13,-9],[-11,23]],[[4770,2525],[-25,12],[-3,-5],[-37,35]],[[4705,2567],[-4,17],[12,16],[13,-9],[11,16]],[[4737,2607],[12,6],[21,-16],[23,10]],[[4705,2567],[-29,25],[-42,14],[-14,-8],[3,-65],[-22,-8],[-2,33],[-7,0],[-1,41],[-33,-6],[-15,43],[-9,3],[32,12],[18,14],[-16,28],[-51,45],[-31,32],[-16,8],[-21,32],[-34,35],[1,17],[14,-20],[22,-20],[25,-29],[32,-31],[9,11],[50,-50],[24,-27],[28,-49],[51,0],[26,-14],[20,37],[10,-6],[-16,-29],[19,-13],[7,-15]],[[416,7458],[12,-2],[4,20],[29,-2],[-1,-21],[43,3],[-11,-32],[-33,-2],[-2,-18],[7,-85],[12,-13],[-3,-51],[-26,-3],[-2,20],[-17,-5],[-5,10],[-13,59],[7,28],[-3,30],[-20,46],[5,19],[-16,2],[0,47],[25,-31],[8,-19]]]}
