{"type":"Topology","bbox":[-74.87191521033634,8.415650729914637,-74.57213005809803,8.722314232059691],"transform":{"scale":[0.000029981513375168954,0.0000306694171562211],"translate":[-74.87191521033634,8.415650729914637]},"objects":{"municipios":{"type":"GeometryCollection","geometries":[{"type":"Polygon","arcs":[[0,1]],"properties":{"codigo":"70429200301008000102","sector":"704292003010080001","pcode":"CO70429","area_m2":194551}},{"type":"Polygon","arcs":[[2,3]],"properties":{"codigo":"70429200302025000102","sector":"704292003020250001","pcode":"CO70429","area_m2":134738}},{"type":"MultiPolygon","arcs":[[[4]],[[5]]],"properties":{"codigo":"70429201003026000101","sector":"704292010030260001","pcode":"CO70429","area_m2":78462}},{"type":"Polygon","arcs":[[6]],"properties":{"codigo":"70429201001027000101","sector":"704292010010270001","pcode":"CO70429","area_m2":51522}},{"type":"Polygon","arcs":[[7]],"properties":{"codigo":"70429200801006000101","sector":"704292008010060001","pcode":"CO70429","area_m2":82296}},{"type":"Polygon","arcs":[[-1,8]],"properties":{"codigo":"70429200301008000101","sector":"704292003010080001","pcode":"CO70429","area_m2":118184}},{"type":"Polygon","arcs":[[9,10,11,12,13,14]],"properties":{"codigo":"70429100000000000102","sector":"704291000000000001","pcode":"CO70429","area_m2":285143}},{"type":"Polygon","arcs":[[15]],"properties":{"codigo":"70429200202002000101","sector":"704292002020020001","pcode":"CO70429","area_m2":84207}},{"type":"Polygon","arcs":[[16]],"properties":{"codigo":"70429201001005000101","sector":"704292010010050001","pcode":"CO70429","area_m2":244398}},{"type":"Polygon","arcs":[[17]],"properties":{"codigo":"70429200403011000101","sector":"704292004030110001","pcode":"CO70429","area_m2":82169}},{"type":"Polygon","arcs":[[18,19]],"properties":{"codigo":"70429200604013000102","sector":"704292006040130001","pcode":"CO70429","area_m2":60006}},{"type":"Polygon","arcs":[[20]],"properties":{"codigo":"70429200905023000101","sector":"704292009050230001","pcode":"CO70429","area_m2":37091}},{"type":"Polygon","arcs":[[-3,21]],"properties":{"codigo":"70429200302025000101","sector":"704292003020250001","pcode":"CO70429","area_m2":107906}},{"type":"Polygon","arcs":[[22]],"properties":{"codigo":"70429200701031000101","sector":"704292007010310001","pcode":"CO70429","area_m2":62255}},{"type":"Polygon","arcs":[[23]],"properties":{"codigo":"70429200805028000101","sector":"704292008050280001","pcode":"CO70429","area_m2":102811}},{"type":"Polygon","arcs":[[24]],"properties":{"codigo":"70429200502016000101","sector":"704292005020160001","pcode":"CO70429","area_m2":42200}},{"type":"Polygon","arcs":[[25,-12,26,27]],"properties":{"codigo":"70429100000000000101","sector":"704291000000000001","pcode":"CO70429","area_m2":361523}},{"type":"Polygon","arcs":[[28]],"properties":{"codigo":"70429200503009000101","sector":"704292005030090001","pcode":"CO70429","area_m2":130239}},{"type":"Polygon","arcs":[[29,30,-15,31,32]],"properties":{"codigo":"70429100000000000103","sector":"704291000000000001","pcode":"CO70429","area_m2":257682}},{"type":"Polygon","arcs":[[-30,33]],"properties":{"codigo":"70429100000000000104","sector":"704291000000000001","pcode":"CO70429","area_m2":235124}},{"type":"Polygon","arcs":[[-32,-14,34,35]],"properties":{"codigo":"70429100000000000105","sector":"704291000000000001","pcode":"CO70429","area_m2":135910}},{"type":"Polygon","arcs":[[-13,-26,36,-35]],"properties":{"codigo":"70429100000000000107","sector":"704291000000000001","pcode":"CO70429","area_m2":31481}},{"type":"Polygon","arcs":[[-27,-11,37]],"properties":{"codigo":"70429100000000000108","sector":"704291000000000001","pcode":"CO70429","area_m2":103107}},{"type":"Polygon","arcs":[[38]],"properties":{"codigo":"70429200804010000101","sector":"704292008040100001","pcode":"CO70429","area_m2":200429}},{"type":"Polygon","arcs":[[-19,39]],"properties":{"codigo":"70429200604013000101","sector":"704292006040130001","pcode":"CO70429","area_m2":54552}},{"type":"Polygon","arcs":[[40]],"properties":{"codigo":"70429201002014000101","sector":"704292010020140001","pcode":"CO70429","area_m2":246712}},{"type":"Polygon","arcs":[[41]],"properties":{"codigo":"70429200905029000101","sector":"704292009050290001","pcode":"CO70429","area_m2":57400}}]}},"arcs":[[[5483,8290],[61,2]],[[5544,8292],[9,-44],[49,-121],[10,-71],[13,-27],[-38,-13],[-21,51],[-14,-7],[-31,89],[-14,57],[-16,-4],[-8,43],[0,45]],[[4831,9840],[17,16],[25,7]],[[4873,9863],[23,-49],[55,-46],[47,-25],[25,-5],[-3,-23],[38,-17],[-7,-14],[-38,14],[-11,-20],[-48,25],[-61,44],[-62,93]],[[641,253],[-7,-16],[-21,8],[-21,-59],[-14,5],[21,61],[-84,48],[20,12],[106,-59]],[[676,252],[19,-86],[-57,6],[12,80],[26,0]],[[945,1878],[5,-11],[-23,-6],[0,-18],[-46,21],[-16,49],[60,20],[20,-55]],[[5247,1847],[-4,-34],[-49,-14],[-31,65],[20,6],[4,23],[18,-12],[34,3],[87,-16],[-40,-14],[0,-26],[-12,15],[-27,4]],[[5483,8290],[14,66],[15,45],[60,82],[24,-19],[22,-4],[-42,-54],[-24,-51],[-8,-63]],[[8099,3989],[-1,-17]],[[8098,3972],[-76,16],[6,14]],[[8028,4002],[13,22],[31,75],[-15,6],[33,51]],[[8090,4156],[11,30]],[[8101,4186],[28,40],[43,45],[34,13],[13,-26]],[[8219,4258],[19,-26],[10,-26],[-13,-24],[-26,-30],[-34,18],[-15,-6],[-11,-23],[-13,-58],[8,-4],[-31,-55],[-12,1],[-2,-36]],[[3447,6182],[12,0],[52,-23],[20,-30],[29,7],[-3,13],[37,1],[13,20],[8,-8],[-13,-26],[-33,-25],[18,-15],[23,11],[20,-20],[-24,-10],[31,-30],[-22,-9],[-102,91],[-67,39],[-27,23],[8,8],[20,-17]],[[22,1839],[-20,54],[-2,36],[140,27],[4,-67],[22,-1],[1,-33],[136,-21],[-4,-8],[-91,15],[-3,-8],[54,-7],[34,-11],[7,-18],[-92,8],[-74,13],[-29,11],[-41,4],[-40,-6],[-2,12]],[[8038,6877],[28,-8],[-12,-32],[15,-18],[-37,1],[-19,-17],[-28,-1],[-15,-19],[-25,66],[-14,10],[6,15],[25,-16],[23,19],[53,0]],[[5883,6005],[25,28]],[[5908,6033],[55,-47],[28,-7],[33,6],[8,-6],[-19,-64],[-15,-15],[-25,1],[21,45],[-25,20],[-86,39]],[[5699,48],[36,-23],[-35,-25],[-19,4],[-31,45],[2,28],[50,-20],[-3,-9]],[[4831,9840],[-16,-2],[-10,20],[-27,90],[-5,25],[17,8],[6,-14],[53,32],[1,-31],[23,-105]],[[9318,6325],[-22,0],[24,156],[-9,2],[5,26],[11,-2],[15,60],[20,48],[24,5],[-20,-30],[-24,-65],[-16,-70],[12,-1],[-14,-128],[-6,-1]],[[9928,3789],[4,-57],[18,-40],[43,14],[6,-57],[-24,-9],[6,-23],[-16,12],[-19,-9],[-2,34],[-19,23],[-19,7],[15,8],[-57,106],[24,17],[6,-33],[23,12],[-4,35],[18,6],[-3,-46]],[[5948,7552],[7,-9],[40,8],[3,-7],[-36,-5],[12,-35],[0,-29],[-14,-35],[-18,-28],[-36,24],[42,31],[5,47],[-21,30],[16,8]],[[8008,4172],[82,-16]],[[8028,4002],[-18,5]],[[8010,4007],[-14,19],[-18,2],[-88,46],[-81,97],[23,9],[-20,36],[29,18],[37,-57],[13,10],[12,-18],[51,43],[33,-33],[21,-7]],[[8292,6328],[19,0],[50,-35],[-78,-51],[-41,-41],[6,-5],[-22,-51],[-6,1],[-14,-47],[10,1],[29,-37],[-13,-12],[47,-50],[9,-23],[-39,26],[-78,64],[-21,-5],[-15,-17],[-11,23],[55,31],[20,28],[18,56],[16,24],[35,36],[4,12],[34,15],[13,14],[-11,34],[-18,-1],[-35,15],[-5,20],[19,-17],[23,-8]],[[8251,4075],[-16,8],[-18,-57],[-13,2],[-11,-24],[63,-1],[21,-8],[38,-2],[21,-13],[-19,-37]],[[8317,3943],[-20,-4],[-47,32],[-41,13],[-110,5]],[[8219,4258],[37,21]],[[8256,4279],[21,-49],[-15,-14],[-15,-35],[-27,-27],[-7,-35],[5,-15],[39,-16],[-6,-13]],[[8251,4075],[-2,-8],[44,-7],[-12,-26],[15,-3],[17,29],[54,-26],[-13,-20],[58,-35],[9,-24],[45,0],[55,-12],[-12,-31],[-30,12],[-25,-41],[13,-11],[-20,-12],[-7,26],[-53,30],[-8,-16],[-12,8],[9,15],[-28,18],[-31,2]],[[8101,4186],[-34,35]],[[8067,4221],[23,49],[44,50],[38,29],[40,-38],[13,22],[31,-20],[-12,-15],[12,-19]],[[8008,4172],[27,8],[32,41]],[[8098,3972],[-9,-131],[-13,1],[-52,67],[-22,6],[-2,24],[21,48],[-11,20]],[[7211,3618],[29,8],[58,-68],[-19,-20],[35,-10],[15,-15],[2,-52],[-17,-41],[-30,-11],[-1,27],[-12,10],[-55,-8],[20,29],[30,28],[-1,18],[-51,-10],[-27,13],[-21,-8],[13,18],[-23,38],[11,-4],[35,15],[15,15],[-23,36],[17,-8]],[[5883,6005],[-38,18],[-39,26],[5,8],[-38,22],[2,13],[66,-27],[9,16],[58,-48]],[[1528,655],[-2,-22],[21,-36],[-20,15],[-10,-39],[8,-8],[53,-21],[12,-15],[-26,-22],[-40,-7],[-28,-23],[18,-19],[-39,-6],[-36,19],[-16,-3],[-5,28],[24,27],[2,29],[-16,3],[-7,42],[33,26],[-13,26],[-5,55],[45,-15],[0,-19],[18,-13],[29,-2]],[[6358,775],[27,-5],[14,-50],[-20,11],[-28,-30],[7,-12],[-18,-13],[-21,58],[12,28],[-25,-11],[-17,8],[-11,-12],[-9,15],[46,13],[43,0]]]}
