{"type":"Topology","bbox":[-75.65201495913516,9.630634666830394,-75.39204952041604,10.06075294184209],"transform":{"scale":[0.00002599914378629071,0.00004301612911408095],"translate":[-75.65201495913516,9.630634666830394]},"objects":{"municipios":{"type":"GeometryCollection","geometries":[{"type":"Polygon","arcs":[[0,1,2]],"properties":{"codigo":"70713100000000000211","sector":"707131000000000002","pcode":"CO70713","area_m2":53275}},{"type":"Polygon","arcs":[[3]],"properties":{"codigo":"70713200804001000101","sector":"707132008040010001","pcode":"CO70713","area_m2":83496}},{"type":"Polygon","arcs":[[4]],"properties":{"codigo":"70713200903002000101","sector":"707132009030020001","pcode":"CO70713","area_m2":103996}},{"type":"Polygon","arcs":[[5,6,7]],"properties":{"codigo":"70713200404003000101","sector":"707132004040030001","pcode":"CO70713","area_m2":114920}},{"type":"Polygon","arcs":[[8,9,10,-7]],"properties":{"codigo":"70713200404003000102","sector":"707132004040030001","pcode":"CO70713","area_m2":113097}},{"type":"Polygon","arcs":[[11,12,13,14]],"properties":{"codigo":"70713200301005000101","sector":"707132003010050001","pcode":"CO70713","area_m2":49098}},{"type":"Polygon","arcs":[[15,16,17,-13]],"properties":{"codigo":"70713200301005000103","sector":"707132003010050001","pcode":"CO70713","area_m2":92129}},{"type":"Polygon","arcs":[[-14,-18,18]],"properties":{"codigo":"70713200301005000104","sector":"707132003010050001","pcode":"CO70713","area_m2":46582}},{"type":"Polygon","arcs":[[19,20,21]],"properties":{"codigo":"70713200105012000104","sector":"707132001050120001","pcode":"CO70713","area_m2":80371}},{"type":"MultiPolygon","arcs":[[[22]],[[23]]],"properties":{"codigo":"70713200401014000101","sector":"707132004010140001","pcode":"CO70713","area_m2":51440}},{"type":"Polygon","arcs":[[24,25]],"properties":{"codigo":"70713200207011000101","sector":"707132002070110001","pcode":"CO70713","area_m2":281658}},{"type":"MultiPolygon","arcs":[[[-25,26]],[[27]]],"properties":{"codigo":"70713200207011000102","sector":"707132002070110001","pcode":"CO70713","area_m2":201977}},{"type":"Polygon","arcs":[[28]],"properties":{"codigo":"70713200801015000101","sector":"707132008010150001","pcode":"CO70713","area_m2":144529}},{"type":"Polygon","arcs":[[29]],"properties":{"codigo":"70713200902020000101","sector":"707132009020200001","pcode":"CO70713","area_m2":1845370}},{"type":"Polygon","arcs":[[30]],"properties":{"codigo":"70713200203021000101","sector":"707132002030210001","pcode":"CO70713","area_m2":63179}},{"type":"Polygon","arcs":[[31]],"properties":{"codigo":"70713200503032000101","sector":"707132005030320001","pcode":"CO70713","area_m2":51890}},{"type":"Polygon","arcs":[[32]],"properties":{"codigo":"70713200304025000101","sector":"707132003040250001","pcode":"CO70713","area_m2":54174}},{"type":"Polygon","arcs":[[33]],"properties":{"codigo":"70713200306026000101","sector":"707132003060260001","pcode":"CO70713","area_m2":146791}},{"type":"Polygon","arcs":[[34]],"properties":{"codigo":"70713200203027000101","sector":"707132002030270001","pcode":"CO70713","area_m2":19818}},{"type":"Polygon","arcs":[[35]],"properties":{"codigo":"70713200403028000101","sector":"707132004030280001","pcode":"CO70713","area_m2":54135}},{"type":"MultiPolygon","arcs":[[[36]],[[37]]],"properties":{"codigo":"70713200303029000101","sector":"707132003030290001","pcode":"CO70713","area_m2":84287}},{"type":"Polygon","arcs":[[38,39,40]],"properties":{"codigo":"70713100000000000108","sector":"707131000000000001","pcode":"CO70713","area_m2":165967}},{"type":"Polygon","arcs":[[41,42,-20,43]],"properties":{"codigo":"70713200105012000101","sector":"707132001050120001","pcode":"CO70713","area_m2":54295}},{"type":"Polygon","arcs":[[44,45,46,-41,47]],"properties":{"codigo":"70713100000000000101","sector":"707131000000000001","pcode":"CO70713","area_m2":254928}},{"type":"Polygon","arcs":[[48,-39,-47,49,50]],"properties":{"codigo":"70713100000000000102","sector":"707131000000000001","pcode":"CO70713","area_m2":205017}},{"type":"Polygon","arcs":[[51,-51,52,53]],"properties":{"codigo":"70713100000000000103","sector":"707131000000000001","pcode":"CO70713","area_m2":282197}},{"type":"Polygon","arcs":[[54,-53,-50,-46,55]],"properties":{"codigo":"70713100000000000104","sector":"707131000000000001","pcode":"CO70713","area_m2":96337}},{"type":"Polygon","arcs":[[56,-54,-55,57,58,59]],"properties":{"codigo":"70713100000000000105","sector":"707131000000000001","pcode":"CO70713","area_m2":285483}},{"type":"Polygon","arcs":[[-58,-56,-45,60,61]],"properties":{"codigo":"70713100000000000106","sector":"707131000000000001","pcode":"CO70713","area_m2":213222}},{"type":"Polygon","arcs":[[62,-59,-62,63,64]],"properties":{"codigo":"70713100000000000107","sector":"707131000000000001","pcode":"CO70713","area_m2":164761}},{"type":"Polygon","arcs":[[65,-65,66,67]],"properties":{"codigo":"70713100000000000201","sector":"707131000000000002","pcode":"CO70713","area_m2":328418}},{"type":"Polygon","arcs":[[68,69,-68,70]],"properties":{"codigo":"70713100000000000202","sector":"707131000000000002","pcode":"CO70713","area_m2":172881}},{"type":"Polygon","arcs":[[71,-60,-63,-66,-70,72]],"properties":{"codigo":"70713100000000000203","sector":"707131000000000002","pcode":"CO70713","area_m2":140858}},{"type":"Polygon","arcs":[[73,74,-73,-69,75]],"properties":{"codigo":"70713100000000000204","sector":"707131000000000002","pcode":"CO70713","area_m2":256407}},{"type":"Polygon","arcs":[[76,77,78,79]],"properties":{"codigo":"70713100000000000205","sector":"707131000000000002","pcode":"CO70713","area_m2":109671}},{"type":"Polygon","arcs":[[80,-80,81,82]],"properties":{"codigo":"70713100000000000206","sector":"707131000000000002","pcode":"CO70713","area_m2":60423}},{"type":"Polygon","arcs":[[-3,83,-83,84,85,86,87]],"properties":{"codigo":"70713100000000000207","sector":"707131000000000002","pcode":"CO70713","area_m2":131453}},{"type":"Polygon","arcs":[[-2,88,-77,-81,-84]],"properties":{"codigo":"70713100000000000208","sector":"707131000000000002","pcode":"CO70713","area_m2":144754}},{"type":"Polygon","arcs":[[-82,-79,89,-74,90,-85]],"properties":{"codigo":"70713100000000000209","sector":"707131000000000002","pcode":"CO70713","area_m2":226723}},{"type":"Polygon","arcs":[[-87,91]],"properties":{"codigo":"70713100000000000210","sector":"707131000000000002","pcode":"CO70713","area_m2":125364}},{"type":"Polygon","arcs":[[92,93,-10]],"properties":{"codigo":"70713200404003000103","sector":"707132004040030001","pcode":"CO70713","area_m2":117831}},{"type":"Polygon","arcs":[[94,95,96]],"properties":{"codigo":"70713200303006000103","sector":"707132003030060001","pcode":"CO70713","area_m2":131136}},{"type":"Polygon","arcs":[[-93,-9,-6,97]],"properties":{"codigo":"70713200404003000104","sector":"707132004040030001","pcode":"CO70713","area_m2":160061}},{"type":"Polygon","arcs":[[-16,-12,98]],"properties":{"codigo":"70713200301005000102","sector":"707132003010050001","pcode":"CO70713","area_m2":51856}},{"type":"Polygon","arcs":[[99,100]],"properties":{"codigo":"70713200303006000101","sector":"707132003030060001","pcode":"CO70713","area_m2":130340}},{"type":"Polygon","arcs":[[101,102,-100,103,-96]],"properties":{"codigo":"70713200303006000102","sector":"707132003030060001","pcode":"CO70713","area_m2":91181}},{"type":"Polygon","arcs":[[-102,-95,104]],"properties":{"codigo":"70713200303006000104","sector":"707132003030060001","pcode":"CO70713","area_m2":117158}},{"type":"Polygon","arcs":[[105]],"properties":{"codigo":"70713200803018000101","sector":"707132008030180001","pcode":"CO70713","area_m2":23745}},{"type":"Polygon","arcs":[[106,107]],"properties":{"codigo":"70713200206007000101","sector":"707132002060070001","pcode":"CO70713","area_m2":130449}},{"type":"Polygon","arcs":[[-107,108]],"properties":{"codigo":"70713200206007000102","sector":"707132002060070001","pcode":"CO70713","area_m2":98774}},{"type":"Polygon","arcs":[[109,-42,110]],"properties":{"codigo":"70713200105012000102","sector":"707132001050120001","pcode":"CO70713","area_m2":56664}},{"type":"Polygon","arcs":[[111,-21,-43,-110]],"properties":{"codigo":"70713200105012000103","sector":"707132001050120001","pcode":"CO70713","area_m2":85679}},{"type":"Polygon","arcs":[[112,113]],"properties":{"codigo":"70713200504008000101","sector":"707132005040080001","pcode":"CO70713","area_m2":261326}},{"type":"MultiPolygon","arcs":[[[-113,114]],[[115]]],"properties":{"codigo":"70713200504008000102","sector":"707132005040080001","pcode":"CO70713","area_m2":332671}},{"type":"Polygon","arcs":[[116,117]],"properties":{"codigo":"70713200501009000101","sector":"707132005010090001","pcode":"CO70713","area_m2":74622}},{"type":"Polygon","arcs":[[-117,118]],"properties":{"codigo":"70713200501009000102","sector":"707132005010090001","pcode":"CO70713","area_m2":54710}},{"type":"MultiPolygon","arcs":[[[119]],[[120,121]]],"properties":{"codigo":"70713200402010000101","sector":"707132004020100001","pcode":"CO70713","area_m2":50179}},{"type":"MultiPolygon","arcs":[[[-122,122]],[[123]],[[124]],[[125]]],"properties":{"codigo":"70713200402010000102","sector":"707132004020100001","pcode":"CO70713","area_m2":351303}},{"type":"Polygon","arcs":[[126]],"properties":{"codigo":"70713200203016000101","sector":"707132002030160001","pcode":"CO70713","area_m2":108122}},{"type":"MultiPolygon","arcs":[[[127]],[[128]]],"properties":{"codigo":"70713200204017000101","sector":"707132002040170001","pcode":"CO70713","area_m2":75312}},{"type":"Polygon","arcs":[[129]],"properties":{"codigo":"70713200805019000101","sector":"707132008050190001","pcode":"CO70713","area_m2":242679}},{"type":"Polygon","arcs":[[130]],"properties":{"codigo":"70713200102022000101","sector":"707132001020220001","pcode":"CO70713","area_m2":58805}},{"type":"Polygon","arcs":[[131]],"properties":{"codigo":"70713200802023000101","sector":"707132008020230001","pcode":"CO70713","area_m2":23679}},{"type":"Polygon","arcs":[[132]],"properties":{"codigo":"70713200306024000101","sector":"707132003060240001","pcode":"CO70713","area_m2":94235}},{"type":"Polygon","arcs":[[133]],"properties":{"codigo":"70713200206030000101","sector":"707132002060300001","pcode":"CO70713","area_m2":100469}},{"type":"Polygon","arcs":[[134]],"properties":{"codigo":"70713200503031000101","sector":"707132005030310001","pcode":"CO70713","area_m2":36655}}]}},"arcs":[[[5565,2515],[26,-19],[1,-15],[15,-12],[-31,-13],[-1,-20],[-6,1]],[[5569,2437],[-23,5],[-1,22],[-31,6]],[[5514,2470],[28,44],[23,1]],[[9656,104],[7,-5],[29,-6],[71,-24],[-5,-12],[11,-6],[-20,-17],[-5,-11],[-21,2],[-15,-25],[-20,6],[10,22],[12,16],[-24,1],[2,13],[-8,4],[-27,-11],[-20,15],[33,13],[-36,13],[26,12]],[[4790,1129],[19,-24],[22,0],[2,-6],[17,3],[-3,10],[14,3],[4,-10],[49,11],[-2,-9],[-21,-4],[14,-44],[-23,-6],[10,-15],[-9,-10],[-31,-5],[-14,-6],[-67,117],[15,2],[4,-7]],[[1543,1681],[-6,-23],[-18,-31],[-12,-26]],[[1507,1601],[-26,3],[-46,-18],[-16,12],[-23,11],[-55,14]],[[1341,1623],[9,20],[85,-12],[1,14],[79,21],[11,12],[13,34],[10,-2],[-6,-29]],[[1507,1601],[-12,-22],[-20,-25]],[[1475,1554],[-33,-12],[-99,31],[-8,-9],[-25,4]],[[1310,1568],[31,55]],[[4323,8248],[-46,-21],[-15,9],[-19,-7]],[[4243,8229],[-9,10]],[[4234,8239],[-3,21],[6,15]],[[4237,8275],[6,-3],[32,3],[5,-4],[58,-1],[-2,-18],[-13,-4]],[[4243,8229],[53,-36],[13,-18],[-6,-28]],[[4303,8147],[-8,-6],[-23,33],[-18,0],[-11,-12],[-28,1],[-3,15],[-36,22],[-15,23]],[[4161,8223],[10,1],[63,15]],[[4161,8223],[-9,23],[2,15],[30,6],[3,10],[31,7],[19,-9]],[[5230,8978],[39,-42],[11,-8]],[[5280,8928],[11,-10],[-17,-6],[11,-10],[-76,-29]],[[5209,8873],[-27,15],[-7,18],[30,12],[-3,11],[22,9],[-19,17],[25,23]],[[2543,3656],[8,-20],[-15,0],[-11,18],[-23,1],[-20,-4],[-21,-13],[-15,5],[-9,12],[13,37],[8,3],[-1,11],[18,-10],[-5,-9],[48,-13],[25,-18]],[[2433,3738],[14,-5],[-1,-7],[-22,0],[9,12]],[[8695,5953],[-10,-20],[37,-1],[-7,-42],[-61,7],[-7,-33]],[[8647,5864],[-27,4],[-72,-6],[-9,11],[-28,-9],[-14,10],[-55,1],[-4,14],[-15,1],[3,7],[52,-4],[8,32],[53,-12],[21,-2],[55,24],[3,8],[-19,43],[25,2],[25,17],[-7,4],[9,10],[9,-2],[10,26],[27,2],[5,-27],[14,-6],[-7,-8],[-1,-34],[-7,0],[-6,-17]],[[8695,5953],[72,-4],[25,-3],[-5,-15],[26,0],[-10,-19],[23,-9],[4,8],[26,-4],[-1,-6],[44,-16],[-4,-14],[30,1],[8,-4],[-32,-8],[-29,-1],[-6,3],[-21,-6],[-35,1],[-44,8],[-11,-6],[-47,1],[-22,3],[-13,-8],[-8,7],[-18,2]],[[8961,5878],[-14,-2],[-1,16],[25,4],[2,-16],[-12,-2]],[[6736,1090],[39,-41],[26,-18],[37,-21],[36,-38],[-6,-17],[63,17],[11,9],[19,49],[6,23],[9,16],[34,7],[9,-14],[15,-1],[0,-7],[-45,3],[-8,-26],[13,0],[2,-12],[13,-1],[-1,-9],[-36,0],[-15,-38],[-12,-8],[-61,-18],[-46,-9],[-100,125],[-24,31],[22,-2]],[[6309,1603],[43,-55],[48,-58],[34,-44],[94,-117],[-20,-8],[-28,-1],[0,-19],[7,-10],[-46,2],[-6,-7],[-21,-2],[-2,-22],[-23,1],[-3,-11],[-58,0],[-9,-13],[-9,7],[-40,1],[0,5],[-50,-2],[-1,-8],[-27,2],[0,15],[-25,0],[-12,-7],[4,-12],[-11,-5],[-35,31],[20,4],[25,-4],[-60,47],[-19,8],[-8,14],[1,17],[25,31],[-2,4],[-99,33],[-11,-40],[-56,9],[-16,1],[-24,-27],[-10,-24],[-19,0],[12,28],[-5,8],[19,50],[13,6],[5,18],[27,11],[-7,7],[26,4],[5,-7],[22,9],[-4,16],[36,4],[-14,42],[16,1],[-14,21],[18,2],[-20,30],[74,4],[33,-49],[36,5],[-12,19],[36,4],[2,-3],[39,1],[21,-14],[29,-1],[41,8],[1,16],[10,0],[-27,36],[-23,-7],[-16,20],[41,11],[29,-36]],[[5882,6867],[1,-9],[20,-14],[-3,-7],[15,-21],[19,-1],[15,-13],[11,-3],[14,-14],[0,-7],[-26,-2],[-12,-9],[2,-45],[-7,-1],[-4,38],[-10,17],[-7,-1],[-9,20],[-24,13],[3,9],[-20,31],[8,8],[9,-5],[5,16]],[[6870,4488],[24,-16],[38,-5],[19,-23],[12,-1],[29,-18],[10,-14],[10,3],[3,-9],[-30,-26],[-14,-1],[-16,5],[24,27],[-34,20],[-28,25],[-44,8],[-21,14],[-1,6],[19,5]],[[2851,5840],[-14,-15],[-14,1],[-10,-9],[2,-9],[-15,-3],[-18,-14],[-49,-6],[-15,-17],[-16,21],[-15,5],[13,11],[41,19],[9,-2],[3,-11],[17,1],[24,8],[-6,5],[15,5],[2,8],[16,-1],[7,11],[23,-8]],[[2234,4849],[13,-11],[14,8],[10,-14],[-33,-15],[-5,-18],[33,2],[24,-6],[-5,-8],[-53,-6],[1,-18],[26,-15],[22,6],[6,-4],[18,6],[14,-4],[-49,-19],[-6,-10],[15,-15],[39,-16],[29,2],[37,16],[1,-11],[12,-1],[58,-11],[-5,-7],[-36,10],[-34,3],[-28,-8],[-33,-5],[-18,-6],[-17,-14],[-8,4],[5,10],[-4,16],[-22,18],[-25,26],[-69,4],[-12,-5],[-6,7],[-30,8],[16,10],[39,-3],[27,4],[12,13],[0,31],[-11,3],[-2,9],[12,-2],[6,33],[22,3]],[[4495,6076],[10,-11],[-9,-13],[11,-10],[23,-2],[-8,-8],[10,-4],[-18,-8],[-32,15],[7,13],[-19,27],[25,1]],[[1073,2699],[20,-3],[-9,-24],[40,-6],[-4,-10],[-42,8],[-78,8],[-149,-1],[0,9],[29,3],[56,-2],[3,9],[18,-6],[55,1],[37,-6],[6,23],[18,-3]],[[2200,6543],[-17,-1],[16,-14],[-20,-23],[-21,-30],[28,-13],[-2,-6],[35,-8],[-1,-5],[-22,4],[0,-11],[-11,0],[-19,-17],[-24,10],[-18,3],[1,7],[-25,-10],[-6,9],[3,11],[17,2],[27,42],[6,17],[16,18],[3,22],[36,-2],[-2,-5]],[[2270,6440],[-24,-7],[2,16],[13,0],[9,-9]],[[4630,2369],[15,-21],[7,-22],[-39,7],[-88,-2]],[[4525,2331],[-40,12],[-10,9],[10,31],[-1,35]],[[4484,2418],[53,2],[4,-6],[32,11],[10,-16],[19,4],[28,-44]],[[5364,8957],[-69,-24]],[[5295,8933],[-15,-5]],[[5230,8978],[19,8],[7,-9],[26,4],[17,-14],[35,14],[15,-21],[37,11],[3,-5],[-25,-9]],[[4703,2484],[-4,-29]],[[4699,2455],[-3,-23],[26,-33]],[[4722,2399],[-39,-14],[-53,-16]],[[4484,2418],[18,6],[-23,41],[20,11],[103,28],[17,10],[13,-8],[-14,-4],[33,-27],[52,9]],[[4702,2262],[-6,-35],[-32,2],[-8,7],[8,34],[-22,1],[-6,7],[-20,3],[-15,16],[-17,7],[-2,10],[-21,4],[-36,13]],[[4722,2399],[15,-18]],[[4737,2381],[2,-43],[-9,-33],[-23,-30],[-5,-13]],[[4893,2301],[5,-26],[36,-9],[26,-4],[2,-15],[-61,3],[-3,-22],[-50,-2],[1,26],[18,2],[-9,28],[-56,3],[-58,7],[-7,-10],[-18,-2],[-9,-19],[-8,1]],[[4737,2381],[91,23]],[[4828,2404],[30,8],[26,-48],[5,-29],[-4,-9],[8,-25]],[[4795,2454],[33,-50]],[[4699,2455],[22,-2],[25,3],[40,10],[9,-12]],[[4986,2411],[20,-23],[13,-38],[19,-23],[-54,9],[-48,12],[3,-26],[16,-29],[-62,8]],[[4795,2454],[79,17]],[[4874,2471],[49,10]],[[4923,2481],[19,-33],[24,4],[20,-41]],[[4703,2484],[19,4],[-8,25],[1,18],[-5,35],[30,4],[7,-5],[42,2],[1,13],[25,1],[1,9],[26,-1]],[[4842,2589],[-4,-68],[9,-20],[27,-30]],[[4920,2558],[-3,-1],[15,-41],[17,-30],[-26,-5]],[[4842,2589],[-4,48]],[[4838,2637],[39,-1],[6,29],[14,-2],[-16,-45],[20,-5],[19,-55]],[[4977,2569],[-57,-11]],[[4838,2637],[17,32],[17,45],[37,-10],[41,13],[22,2],[3,11],[32,-4],[8,3],[73,-2],[12,27],[10,-1],[-8,-22]],[[5102,2731],[-15,-44],[-14,2],[-30,-44],[-22,-6],[-37,-34],[-7,-36]],[[5107,2582],[-9,-8],[-30,-10],[-20,16],[-3,-12],[-19,-3],[-40,-11]],[[4986,2554],[-9,15]],[[5102,2731],[19,4],[-2,-15],[15,-22],[-10,-1],[2,-11],[-9,-25],[-11,-1],[2,-32],[-1,-46]],[[5065,2411],[-57,7],[-22,-7]],[[4986,2554],[28,-45],[9,-27],[-34,-7],[16,-32],[12,3],[29,-20],[17,-4],[2,-11]],[[5197,2509],[-14,-39],[-37,6],[-23,10],[-11,-1],[2,-9],[-37,-6],[2,-10],[-9,-20],[49,-7],[19,-22],[-3,-9]],[[5135,2402],[-70,9]],[[5107,2582],[35,-22],[-31,-12],[16,-12],[-6,-9],[27,-19],[8,3],[41,-2]],[[5401,2444],[30,-12],[66,-13],[-24,-28],[0,-6]],[[5473,2385],[-128,42],[-9,-17],[-6,-42],[-27,-7],[-16,13],[8,23],[6,28]],[[5301,2425],[3,22]],[[5304,2447],[12,2],[33,-6],[14,15],[38,-14]],[[5441,2476],[-12,-19],[-11,3],[-17,-16]],[[5304,2447],[5,8],[22,8],[13,11],[3,30]],[[5347,2504],[15,-9],[8,9],[70,-22],[1,-6]],[[5514,2470],[-42,7],[-5,-5],[-26,4]],[[5347,2504],[-15,18]],[[5332,2522],[39,6]],[[5371,2528],[26,0],[66,5],[2,-10],[10,12],[87,6]],[[5562,2541],[-4,-12],[7,-14]],[[5569,2437],[-15,-12],[-7,1],[-15,-15],[63,-12],[-39,-42],[-83,28]],[[5301,2425],[-87,27],[-3,-6],[-16,4],[-13,-14],[-7,-36],[-40,2]],[[5197,2509],[10,3],[54,4],[39,0],[19,9],[13,-3]],[[5371,2528],[-1,16],[19,12],[20,5],[23,13],[52,19],[26,13],[31,6],[13,-19],[-13,2],[-7,-20],[34,-8],[-6,-26]],[[1475,1554],[-9,-21],[-27,-17],[-35,-35]],[[1404,1481],[-48,19],[-47,16],[1,25],[-5,19],[5,8]],[[3113,6247],[-19,-6],[-45,-28],[-13,-13]],[[3036,6200],[-36,20],[-22,9],[-8,-7]],[[2970,6222],[-19,7],[24,24],[41,33],[28,-15],[43,23],[26,-17],[38,17],[-42,28],[15,15],[31,-18],[-3,-3],[23,-9],[-24,-19],[-33,-15],[6,-3],[-18,-16],[7,-7]],[[1543,1681],[29,-5],[-5,-5],[15,-12],[3,-23],[-14,-3],[-12,-18],[-24,0],[-4,-28],[25,-13],[10,-16],[1,-17],[-42,-2],[-19,-18],[-19,-2],[-15,-22],[30,-16],[-9,-3],[-21,-20],[-9,-1],[-59,24]],[[4323,8248],[12,-6],[-7,-34],[31,-10],[-25,-10],[-17,-12],[-14,-29]],[[2936,6188],[10,1],[37,-31],[36,-16],[-7,-5]],[[3012,6137],[-16,-1],[-25,-14],[-13,11],[-34,-11],[-77,-34],[-15,13],[26,10],[10,0],[-21,15],[-6,10],[14,5],[-26,15],[14,7],[-12,4],[11,7],[11,-5],[11,5],[52,13],[20,1]],[[3036,6200],[52,-33]],[[3088,6167],[5,-4],[-34,-14],[-27,-16],[-20,4]],[[2936,6188],[6,10],[26,-4],[15,22],[-13,6]],[[3113,6247],[13,-7],[27,7],[16,-11],[-13,-3],[0,-12],[-10,-9],[18,-11],[-7,-9],[32,-9],[-5,-4],[31,-11],[36,-2],[0,-6],[-49,3],[-37,12],[-29,-26],[-18,8],[-3,13],[-27,-3]],[[9999,1432],[-9,-1],[-1,-17],[-17,-2],[-43,4],[-31,9],[7,12],[26,-8],[39,11],[15,1],[14,-9]],[[6627,4873],[-30,-20],[-26,-5],[-33,-22],[-7,-9]],[[6531,4817],[-1,11],[29,15],[-11,5],[-54,-18],[-14,0],[-12,-15],[-31,-2],[-10,-15],[-16,6],[18,10],[-3,5],[33,9],[16,12],[47,13],[14,16],[-10,20],[0,20],[-9,4],[-34,-4],[-12,2],[-20,11],[-11,12],[-17,32],[-22,4],[0,6],[37,-4],[1,-14],[31,-35],[17,-3],[12,6],[14,-3],[-9,13],[9,10],[-1,28],[36,-11],[7,-18],[22,12],[9,-5],[-20,-8],[-7,-18],[-16,-10],[3,-13],[32,1],[11,-10],[-2,-20],[6,-1],[-4,-15],[38,15]],[[6627,4873],[12,9],[-12,-19],[17,-11],[0,-14],[27,-8],[-3,-2],[44,-16],[16,4],[9,12],[18,2],[16,-4],[-12,-9],[34,-13],[27,-7],[24,-16],[15,-1],[25,13],[6,-4],[-39,-21],[-22,10],[-12,-2],[-58,22],[-15,3],[-31,-3],[-10,-12],[-11,-1],[8,18],[-65,25],[-42,8],[7,-40],[-6,-12],[-12,-4],[8,16],[-4,14],[-15,-3],[3,29],[-7,1],[-25,-17],[-11,-3]],[[5346,8875],[18,8],[-69,50]],[[5364,8957],[4,-13],[-8,-9],[13,-14],[-20,-7],[-2,-7],[67,-56],[-29,-10],[-12,11],[-15,0],[-6,15],[-10,8]],[[5346,8875],[-54,-15],[1,-14],[-9,-7],[13,-31],[11,-40],[-5,-13],[-16,62],[-15,42],[-5,6],[-20,4],[-35,-12],[-15,9],[12,7]],[[8574,4626],[-68,-18]],[[8506,4608],[-48,9],[6,4],[-15,8],[-37,-37],[-38,-47],[-47,-17],[-69,-14],[3,7],[34,5],[58,17],[18,8],[29,39],[-3,11],[25,9],[13,11],[-38,37],[-3,18],[21,3],[4,5],[41,3],[27,-8],[9,-9],[18,8],[19,1],[20,16],[7,35],[10,18],[12,6],[0,14],[13,34],[29,28],[-19,12],[-17,16],[-22,16],[-25,22],[-30,-4],[-17,11],[-3,9],[43,-8],[-7,19],[-9,4],[8,21],[19,3],[3,-33],[-3,-10],[76,-66],[16,-17],[-28,-22],[-6,-22],[15,-3],[20,5],[27,1],[35,-5],[13,6],[17,0],[0,-7],[46,10],[-1,-12],[-37,-7],[-54,-7],[2,6],[-32,5],[-22,-6],[-23,0],[-14,-6],[-13,-17],[-9,-33],[8,-10],[-7,-16],[-28,-18],[8,-4],[15,-26],[18,0],[-13,-11]],[[8574,4626],[24,-11],[10,11],[49,15],[26,20],[8,-4],[63,50],[10,-4],[-53,-39],[-3,-10],[-16,-9],[20,-10],[-13,-1],[-17,7],[-16,-11],[-8,4],[-25,-19],[9,-5],[-30,-20],[37,-21],[41,-12],[29,-12],[34,-19],[-15,-4],[-57,21],[-13,-3],[4,10],[-17,4],[-7,-18],[1,-17],[25,-11],[-3,-20],[-41,-3],[-24,4],[0,16],[7,16],[-14,4],[20,38],[-26,8],[-50,-39],[15,-5],[-43,-28],[-22,11],[16,12],[-9,4],[38,38],[21,11],[-9,21],[-44,12]],[[8400,4455],[16,-3],[-16,-12],[1,-17],[-12,3],[-18,-9],[-26,-1],[2,-10],[-23,-1],[-1,7],[-34,-3],[-47,3],[-2,-6],[-28,0],[8,19],[-67,4],[-7,-8],[7,-12],[-31,1],[-10,20],[1,15],[25,3],[40,-2],[2,8],[16,2],[95,-10],[33,2],[18,-27],[36,10],[-9,42],[31,3],[0,-21]],[[4311,4695],[12,-38],[2,-19],[19,-3],[-4,-16]],[[4340,4619],[-4,-9],[-34,11],[7,6],[-37,9],[-1,27],[-14,12],[-15,-6],[7,10],[-28,18],[-19,3],[20,2],[6,6],[23,-7],[12,10],[31,-6],[3,-8],[14,-2]],[[4311,4695],[24,-5],[1,7],[65,-1],[-18,-19],[-41,-6],[5,-10],[17,-1],[9,-15],[28,3],[-7,-21],[-32,-1],[-2,-8],[-20,1]],[[306,3271],[-12,-11],[-30,9],[-7,15],[6,17],[-8,25],[18,8],[17,-40],[16,-23]],[[389,3166],[-21,31],[-5,-1],[-19,31],[-29,33],[47,17],[5,-4],[-22,-8],[8,-5]],[[353,3260],[-13,-9],[16,-16],[9,-23],[34,-43],[-10,-3]],[[353,3260],[16,8],[26,-31],[0,-36],[29,-36],[22,-3],[22,-19],[-2,-9],[16,-4],[-3,-10],[11,-10],[3,-23],[15,-12],[31,-14],[-8,-5],[36,-28],[12,19],[28,35],[7,20],[-8,13],[-9,-2],[-15,15],[22,7],[23,-31],[-1,-19],[-49,-71],[49,-18],[-14,-8],[16,-6],[-16,-4],[-11,-13],[40,-18],[-8,-11],[14,-7],[-4,-15],[-68,15],[-4,5],[-22,-5],[-6,15],[29,-1],[9,20],[-21,3],[11,24],[19,-2],[-6,10],[-92,68],[-18,-5],[-27,7],[4,8],[-13,0],[-13,-10],[15,24],[-19,8],[3,26],[-35,42]],[[687,2891],[-5,-6],[-94,12],[-7,16],[108,-16],[-2,-6]],[[255,2892],[-23,-12],[-1,-8],[-62,-27],[-15,-13],[-83,-39],[-60,-25],[-10,9],[53,23],[97,48],[10,7],[114,59],[6,-5],[-26,-17]],[[430,2998],[-27,-9],[-12,-11],[-18,-5],[-3,-8],[-20,-8],[-8,6],[30,25],[35,36],[-2,3],[19,24],[29,-8],[-15,-25],[8,-6],[-16,-14]],[[4389,6484],[30,-8],[24,-2],[14,-5],[-15,-17],[-3,-21],[-10,-1],[-6,-15],[16,-5],[-36,-3],[-1,-28],[-37,-1],[-2,20],[-21,0],[1,13],[-31,15],[6,9],[24,1],[29,25],[5,14],[-7,12],[20,-3]],[[5603,5740],[12,-1],[-24,-16],[0,-5],[19,-5],[17,-21],[-24,-12],[-24,-5],[-28,17],[-6,-9],[-15,-4],[0,-24],[-31,1],[4,6],[-26,14],[16,3],[34,23],[-15,11],[26,9],[23,3],[39,19],[3,-4]],[[5786,5610],[-12,0],[1,11],[11,-1],[0,-10]],[[7472,391],[31,-1],[3,-17],[-7,-2],[10,-36],[-20,-17],[3,-11],[14,-9],[15,7],[13,-23],[13,-15],[14,0],[24,-21],[30,5],[19,-35],[-30,-3],[29,-23],[-10,-2],[-37,13],[-24,16],[-37,33],[-25,18],[4,3],[-57,35],[-19,-42],[11,-5],[-20,-14],[28,-13],[-9,-11],[-30,3],[-30,35],[27,0],[33,65],[-56,16],[7,9],[3,56],[80,-14]],[[3099,9994],[37,-9],[10,-9],[12,-27],[-78,-15],[-14,19],[-10,39],[43,2]],[[9021,1925],[21,-12],[-5,-8],[33,-9],[-16,-17],[-18,1],[8,23],[-30,7],[-3,-7],[-39,6],[2,11],[-25,-6],[-5,3],[47,9],[30,-1]],[[1171,4581],[26,-5],[30,1],[3,-5],[20,0],[1,-11],[-8,-18],[2,-42],[17,3],[9,-11],[13,-2],[-27,-14],[-57,21],[-27,7],[15,17],[-26,23],[-8,19],[7,0],[10,17]],[[6009,5361],[-20,-19],[-38,9],[-3,-14],[-41,-31],[10,-13],[-19,-9],[-28,-21],[-6,5],[-18,-6],[-12,6],[1,12],[31,28],[25,18],[2,6],[32,22],[4,13],[42,20],[-9,4],[19,13],[22,5],[7,-30],[-13,-5],[12,-13]],[[7496,4409],[-28,-16],[-8,6],[-54,-31],[-34,-16],[2,-3],[-28,-3],[13,8],[-3,15],[21,10],[4,-4],[40,18],[39,22],[18,7],[18,-13]]]}
