{"type":"Topology","bbox":[-75.26507375576284,9.217160920672683,-75.1953278942612,9.359047329548472],"transform":{"scale":[0.000006975283678532294,0.00001419005989356832],"translate":[-75.26507375576284,9.217160920672683]},"objects":{"municipios":{"type":"GeometryCollection","geometries":[{"type":"Polygon","arcs":[[0]],"properties":{"codigo":"70702200103009000101","sector":"707022001030090001","pcode":"CO70702","area_m2":14498}},{"type":"Polygon","arcs":[[1]],"properties":{"codigo":"70702200204010000101","sector":"707022002040100001","pcode":"CO70702","area_m2":8176}},{"type":"Polygon","arcs":[[2,3,4,5]],"properties":{"codigo":"70702100000000000101","sector":"707021000000000001","pcode":"CO70702","area_m2":327072}},{"type":"Polygon","arcs":[[-4,6,7,8,9,10,11]],"properties":{"codigo":"70702100000000000102","sector":"707021000000000001","pcode":"CO70702","area_m2":131561}},{"type":"Polygon","arcs":[[12,13,-9]],"properties":{"codigo":"70702100000000000103","sector":"707021000000000001","pcode":"CO70702","area_m2":69305}},{"type":"Polygon","arcs":[[14]],"properties":{"codigo":"70702200201008000101","sector":"707022002010080001","pcode":"CO70702","area_m2":32934}},{"type":"Polygon","arcs":[[-10,-14,15,16,17,18,19]],"properties":{"codigo":"70702100000000000104","sector":"707021000000000001","pcode":"CO70702","area_m2":502531}},{"type":"Polygon","arcs":[[-8,20,21,22,-16,-13]],"properties":{"codigo":"70702100000000000105","sector":"707021000000000001","pcode":"CO70702","area_m2":140774}},{"type":"Polygon","arcs":[[-5,-12,23]],"properties":{"codigo":"70702100000000000108","sector":"707021000000000001","pcode":"CO70702","area_m2":72047}},{"type":"Polygon","arcs":[[24,-19]],"properties":{"codigo":"70702100000000000109","sector":"707021000000000001","pcode":"CO70702","area_m2":221461}},{"type":"Polygon","arcs":[[25,-17,-23,26]],"properties":{"codigo":"70702100000000000110","sector":"707021000000000001","pcode":"CO70702","area_m2":66368}},{"type":"Polygon","arcs":[[27,28,29]],"properties":{"codigo":"70702200204001000101","sector":"707022002040010001","pcode":"CO70702","area_m2":111973}},{"type":"Polygon","arcs":[[-28,30,31]],"properties":{"codigo":"70702200204001000102","sector":"707022002040010001","pcode":"CO70702","area_m2":404336}},{"type":"Polygon","arcs":[[-31,-30,32]],"properties":{"codigo":"70702200204001000103","sector":"707022002040010001","pcode":"CO70702","area_m2":71980}},{"type":"Polygon","arcs":[[33]],"properties":{"codigo":"70702200103004000101","sector":"707022001030040001","pcode":"CO70702","area_m2":107420}},{"type":"Polygon","arcs":[[34]],"properties":{"codigo":"70702200202005000101","sector":"707022002020050001","pcode":"CO70702","area_m2":76810}},{"type":"Polygon","arcs":[[35]],"properties":{"codigo":"70702200203006000101","sector":"707022002030060001","pcode":"CO70702","area_m2":25267}},{"type":"Polygon","arcs":[[36]],"properties":{"codigo":"70702200204007000101","sector":"707022002040070001","pcode":"CO70702","area_m2":100042}},{"type":"Polygon","arcs":[[37,38,-21,-7,-3]],"properties":{"codigo":"70702100000000000106","sector":"707021000000000001","pcode":"CO70702","area_m2":312126}},{"type":"Polygon","arcs":[[39,-27,-22,-39]],"properties":{"codigo":"70702100000000000107","sector":"707021000000000001","pcode":"CO70702","area_m2":73816}},{"type":"Polygon","arcs":[[40]],"properties":{"codigo":"70702200205011000101","sector":"707022002050110001","pcode":"CO70702","area_m2":34394}}]}},"arcs":[[[8085,3224],[-16,-62],[87,-9],[-16,-69],[-83,8],[-47,19],[23,86],[52,27]],[[2364,1694],[-28,-21],[20,-25],[-84,-7],[-52,32],[27,30],[117,-9]],[[4148,3859],[-139,-22],[-65,5],[-70,38],[-116,19],[-134,7],[-20,10],[-118,6],[-120,16]],[[3366,3938],[107,154],[-8,58],[64,37]],[[3529,4187],[59,47],[122,71],[78,63],[92,30],[112,23]],[[3992,4421],[90,-60],[-8,-157],[-33,-310],[107,-3],[0,-32]],[[3366,3938],[-45,-17]],[[3321,3921],[-129,8],[28,55]],[[3220,3984],[8,45],[103,159],[-164,20],[-102,19]],[[3065,4227],[-45,10],[65,71],[41,-5],[40,34]],[[3166,4337],[211,44],[244,37],[51,4]],[[3672,4422],[-134,-106],[-64,36],[-55,-6],[-140,-49],[71,-41],[-32,-22],[45,-23],[64,38],[102,-62]],[[3220,3984],[-123,1]],[[3097,3985],[-130,-6],[49,140],[49,108]],[[8195,9937],[32,-4],[-44,-61],[-263,40],[-139,25],[33,62],[270,-48],[111,-14]],[[3097,3985],[-22,-114],[-76,-16],[-73,-44],[33,-105]],[[2959,3706],[-108,78],[-140,-91],[-64,-25]],[[2647,3668],[-633,136],[-415,87],[-360,81],[241,125]],[[1480,4097],[353,-98],[118,-45],[79,-19],[357,-33],[-27,85],[172,-8],[5,-45],[55,1],[-4,41],[23,31],[93,19],[21,62],[39,-6],[-14,119],[-17,30]],[[2733,4231],[21,1],[412,105]],[[3321,3921],[23,-59],[-11,-151],[103,-37]],[[3436,3674],[-89,-55],[-101,-20]],[[3246,3599],[-171,33],[-116,74]],[[3672,4422],[270,11],[50,-12]],[[1480,4097],[81,42],[603,-62],[550,144],[19,10]],[[3203,3528],[-556,140]],[[3246,3599],[25,-16],[-68,-55]],[[5501,1763],[-27,-60],[-35,-14],[-194,-39],[-10,-46],[28,-43],[-56,-9]],[[5207,1552],[-16,45],[-226,25],[-62,-4],[-13,34],[-190,-29],[-115,-50],[-116,51],[111,-3],[-13,31],[122,18],[18,-30],[161,28],[133,91],[60,51],[53,-9],[20,19]],[[5134,1820],[80,-67],[174,16],[113,-6]],[[5501,1763],[36,59],[-28,90],[-20,29]],[[5489,1941],[145,-11],[66,-17],[26,-45],[-69,-7],[8,-118],[36,-11],[-105,-12],[22,-16],[-96,-32],[6,-28],[65,-57],[23,9],[241,-143],[38,13],[128,-36],[58,-44],[91,-28],[-94,-18],[-90,1],[-44,25],[-76,-35],[119,-40],[-79,-44],[-261,90],[-116,-43],[41,-21],[1,-27],[-55,-28],[-101,-20],[-36,31],[-55,-28],[-21,-58],[-76,-37],[28,-27],[-159,-49],[-38,45],[-232,5],[-218,16],[-118,18],[26,32],[63,-15],[70,11],[437,-21],[175,3],[54,59],[12,88],[-28,0],[-23,50],[-37,20],[-199,8],[-277,-29],[-10,37],[107,16],[7,17],[156,-14],[98,9],[148,57],[-10,19],[50,10],[-27,36],[-46,-9],[-31,54]],[[5134,1820],[31,27],[160,97],[19,39],[64,-5],[-4,-16],[85,-21]],[[9860,5015],[86,-24],[-72,-41],[42,-38],[-93,-48],[56,-54],[-35,-29],[26,-15],[84,19],[5,-54],[35,-21],[-230,23],[-164,9],[-107,38],[-170,-43],[-29,28],[1,56],[54,-25],[100,21],[64,33],[95,25],[6,22],[-48,26],[95,42],[108,-40],[43,14],[48,76]],[[5247,6179],[137,-16],[-42,-51],[63,-16],[-8,-18],[184,-24],[-92,-37],[-57,-1],[-42,-49],[-84,-12],[-32,30],[-128,4],[-234,21],[-83,1],[-16,22],[161,-9],[96,37],[114,23],[-30,36],[17,28],[79,9],[-3,22]],[[5859,4318],[16,-63],[-226,-40],[-97,6],[-29,16],[70,18],[-9,17],[199,27],[1,19],[75,0]],[[89,2489],[64,-48],[45,-60],[136,-48],[91,-19],[53,-1],[14,-34],[46,12],[15,-36],[107,17],[-28,-44],[-103,-21],[103,-73],[62,7],[19,-31],[-78,-15],[-56,26],[-131,22],[-68,20],[-22,-23],[-156,35],[-5,20],[-81,0],[-18,-42],[-98,1],[43,58],[55,-14],[133,2],[-43,81],[45,7],[20,32],[-84,42],[-53,-6],[-34,93],[7,40]],[[4148,3859],[5,-101],[-77,-17],[-100,-59],[-62,-81],[-27,-52],[-20,-82],[41,-46],[-102,-31]],[[3806,3390],[-83,59],[-76,7],[-184,88],[5,130],[-32,0]],[[3806,3390],[-134,-38],[-298,129],[-171,47]],[[5180,162],[57,-15],[-18,-33],[61,-59],[-32,-16],[28,-21],[-52,-18],[-17,35],[-137,70],[-77,-43],[-57,30],[71,55],[114,50],[48,9],[11,-44]]]}
