{"type":"Topology","bbox":[-74.86579389197442,8.686415848443147,-74.60453936530371,8.985943837055798],"transform":{"scale":[0.00002612806547361852,0.000029955794440709144],"translate":[-74.86579389197442,8.686415848443147]},"objects":{"municipios":{"type":"GeometryCollection","geometries":[{"type":"Polygon","arcs":[[0,1,2,3]],"properties":{"codigo":"70771100000000000101","sector":"707711000000000001","pcode":"CO70771","area_m2":85706}},{"type":"Polygon","arcs":[[4,5,6,-1,7]],"properties":{"codigo":"70771100000000000102","sector":"707711000000000001","pcode":"CO70771","area_m2":64381}},{"type":"Polygon","arcs":[[8]],"properties":{"codigo":"70771200803024000101","sector":"707712008030240001","pcode":"CO70771","area_m2":252976}},{"type":"Polygon","arcs":[[9,-6,10,11]],"properties":{"codigo":"70771100000000000201","sector":"707711000000000002","pcode":"CO70771","area_m2":68738}},{"type":"Polygon","arcs":[[12,13,14,15,-12,16]],"properties":{"codigo":"70771100000000000202","sector":"707711000000000002","pcode":"CO70771","area_m2":311959}},{"type":"Polygon","arcs":[[17,-14]],"properties":{"codigo":"70771100000000000203","sector":"707711000000000002","pcode":"CO70771","area_m2":42198}},{"type":"MultiPolygon","arcs":[[[18]],[[19]]],"properties":{"codigo":"70771200201027000101","sector":"707712002010270001","pcode":"CO70771","area_m2":57217}},{"type":"Polygon","arcs":[[20,21]],"properties":{"codigo":"70771200205001000102","sector":"707712002050010001","pcode":"CO70771","area_m2":68408}},{"type":"MultiPolygon","arcs":[[[22]],[[23]],[[24]],[[25]]],"properties":{"codigo":"70771200303006000101","sector":"707712003030060001","pcode":"CO70771","area_m2":175546}},{"type":"MultiPolygon","arcs":[[[26]],[[27]],[[28]],[[29]]],"properties":{"codigo":"70771200702013000101","sector":"707712007020130001","pcode":"CO70771","area_m2":50751}},{"type":"Polygon","arcs":[[30,31]],"properties":{"codigo":"70771200104017000101","sector":"707712001040170001","pcode":"CO70771","area_m2":57511}},{"type":"Polygon","arcs":[[-31,32]],"properties":{"codigo":"70771200104017000102","sector":"707712001040170001","pcode":"CO70771","area_m2":31892}},{"type":"Polygon","arcs":[[33]],"properties":{"codigo":"70771200903053000101","sector":"707712009030530001","pcode":"CO70771","area_m2":86104}},{"type":"Polygon","arcs":[[34]],"properties":{"codigo":"70771200201018000101","sector":"707712002010180001","pcode":"CO70771","area_m2":649137}},{"type":"Polygon","arcs":[[35]],"properties":{"codigo":"70771200704020000101","sector":"707712007040200001","pcode":"CO70771","area_m2":243501}},{"type":"Polygon","arcs":[[36]],"properties":{"codigo":"70771200201021000101","sector":"707712002010210001","pcode":"CO70771","area_m2":126443}},{"type":"Polygon","arcs":[[-17,-11,-5,37]],"properties":{"codigo":"70771100000000000103","sector":"707711000000000001","pcode":"CO70771","area_m2":241163}},{"type":"Polygon","arcs":[[-3,38,39]],"properties":{"codigo":"70771100000000000104","sector":"707711000000000001","pcode":"CO70771","area_m2":229751}},{"type":"Polygon","arcs":[[-10,-16,40,-39,-2,-7]],"properties":{"codigo":"70771100000000000301","sector":"707711000000000003","pcode":"CO70771","area_m2":214185}},{"type":"Polygon","arcs":[[-21,41]],"properties":{"codigo":"70771200205001000101","sector":"707712002050010001","pcode":"CO70771","area_m2":115253}},{"type":"Polygon","arcs":[[42]],"properties":{"codigo":"70771200104005000101","sector":"707712001040050001","pcode":"CO70771","area_m2":79605}},{"type":"Polygon","arcs":[[43]],"properties":{"codigo":"70771200503008000101","sector":"707712005030080001","pcode":"CO70771","area_m2":75055}},{"type":"Polygon","arcs":[[44]],"properties":{"codigo":"70771200705012000101","sector":"707712007050120001","pcode":"CO70771","area_m2":99593}},{"type":"MultiPolygon","arcs":[[[45]],[[46]],[[47]],[[48]]],"properties":{"codigo":"70771200205015000101","sector":"707712002050150001","pcode":"CO70771","area_m2":197174}},{"type":"Polygon","arcs":[[49]],"properties":{"codigo":"70771200205016000101","sector":"707712002050160001","pcode":"CO70771","area_m2":175159}},{"type":"Polygon","arcs":[[50]],"properties":{"codigo":"70771200303019000101","sector":"707712003030190001","pcode":"CO70771","area_m2":134949}}]}},"arcs":[[[5477,4249],[-22,2],[-37,-23]],[[5418,4228],[-18,19],[-92,85],[-26,21]],[[5282,4353],[58,31]],[[5340,4384],[9,-17],[67,-87],[40,-11],[21,-20]],[[5509,4263],[-18,-8],[39,-69]],[[5530,4186],[-26,-9],[-42,-5]],[[5462,4172],[-44,56]],[[5477,4249],[-18,33],[30,14],[20,-33]],[[3367,472],[-8,-3],[3,-69],[9,-56],[-18,-12],[2,-12],[-15,-9],[5,-23],[30,8],[-2,-60],[-32,-3],[-2,-26],[20,-2],[-9,-62],[-35,-73],[-5,0],[-25,-48],[-2,-21],[-23,0],[2,10],[-21,4],[15,45],[20,2],[10,13],[-17,8],[31,63],[13,47],[22,-4],[1,17],[-30,14],[-6,81],[23,3],[-15,54],[-13,78],[10,31],[15,2],[-16,65],[42,10],[21,-72]],[[5504,4075],[-9,33],[-33,64]],[[5530,4186],[30,10]],[[5560,4196],[2,-48],[-17,-55],[-23,1],[2,-18],[-20,-1]],[[5642,4085],[-69,-12],[1,-36],[-14,0],[1,-28],[12,0],[6,-27],[6,-84],[-20,-7]],[[5565,3891],[-11,-4],[-23,-70],[-12,-8]],[[5519,3809],[-60,17],[-18,-9],[-43,-38],[-46,42],[15,12],[87,43]],[[5454,3876],[41,43],[10,33],[6,82],[-7,41]],[[5560,4196],[28,13],[5,-24],[20,-27],[7,-31],[22,-42]],[[5565,3891],[29,-10],[6,-14],[-17,-59],[-16,-10],[-38,2],[-10,9]],[[5978,7394],[8,-9],[6,-51],[-10,0],[14,-29],[-1,-16],[-17,-7],[7,-17],[-27,-48],[-25,10],[20,30],[12,31],[-2,54],[-6,23],[-2,77],[-3,29],[12,1],[6,-66],[8,-12]],[[5916,7204],[-19,-7],[-8,8],[19,7],[8,-8]],[[9095,4344],[23,8]],[[9118,4352],[30,-22],[34,-37],[-13,-14],[23,-21],[-6,-6],[30,-18],[38,-13],[81,-19],[5,10],[19,-8],[90,-17],[-2,-9],[-78,14],[-1,-6],[-64,12],[-92,28],[-37,17],[-72,76],[-8,25]],[[9682,3937],[-28,-31],[-46,-41],[-13,-28],[-15,-3],[-31,-24],[-59,-71],[2,-16],[19,-4],[-7,-46],[13,-3],[1,-35],[-36,-11],[-6,-8],[18,-12],[17,-41],[15,-3],[-22,-14],[-21,9],[-27,24],[-25,50],[0,45],[18,42],[18,29],[43,50],[39,32],[76,80],[11,-4],[36,43],[15,41],[11,-1],[-16,-49]],[[9521,3550],[112,-46],[-5,-7],[-115,48],[8,5]],[[9698,4002],[-10,-6],[2,39],[9,1],[-1,-34]],[[9576,3817],[-2,-16],[-13,7],[15,9]],[[10,3437],[35,-13],[1,-26],[20,-9],[6,-21],[24,-27],[-12,-35],[9,-45],[-23,-17],[-10,46],[-2,52],[-35,61],[-18,17],[5,17]],[[5,3444],[0,0]],[[24,3439],[0,0]],[[8,3439],[0,0]],[[5806,9921],[41,7]],[[5847,9928],[8,-16],[-15,-1],[3,-19],[-15,1],[-19,-29],[-1,-24],[12,-28],[54,-47],[3,3],[47,-48],[-16,-11],[-18,19],[-75,63],[-23,27],[-3,31],[17,72]],[[5806,9921],[3,31],[-7,28],[24,19],[21,-5],[14,-29],[-14,-37]],[[5015,1831],[113,-84],[-29,-24],[-37,35],[-43,34],[-38,23],[-91,10],[-46,0],[-45,8],[4,20],[160,-11],[52,-11]],[[6037,6789],[22,-26],[19,-3],[1,-19],[21,-1],[-16,-38],[-20,3],[-20,-29],[-16,-2],[-22,-46],[6,-34],[17,-38],[115,-101],[5,3],[19,-42],[14,-13],[32,13],[9,-113],[-18,-1],[-6,-85],[-12,-10],[12,-36],[-5,-33],[3,-108],[-7,-19],[3,-25],[17,-23],[3,-18],[11,4],[11,-31],[24,-13],[10,-19],[19,-8],[33,-44],[30,-27],[14,12],[15,-23],[22,-14],[21,-33],[-30,-20],[-93,49],[8,10],[-20,4],[-37,22],[-18,23],[8,4],[-22,19],[-38,55],[-16,7],[-16,39],[-9,8],[-10,43],[10,94],[6,21],[1,69],[-5,36],[10,119],[-4,29],[-19,-5],[-17,38],[-10,-3],[-28,36],[-4,17],[-14,4],[-21,33],[-15,-1],[-43,57],[-28,63],[17,49],[59,65],[7,18],[-25,24],[30,14]],[[4373,3666],[9,-12],[4,-32],[12,-9],[-9,-14],[-40,25],[-12,-30],[29,-9],[6,9],[22,-15],[68,-34],[11,-15],[-27,-5],[-32,11],[-3,-13],[-29,11],[-21,15],[-26,8],[-28,-4],[-50,-49],[8,-7],[-20,-18],[-31,-7],[-72,21],[-45,-9],[9,7],[-8,38],[30,9],[40,25],[30,7],[46,0],[5,27],[45,32],[37,-3],[9,15],[15,-9],[18,34]],[[6709,5450],[-15,-6],[4,-37],[7,1],[21,-37],[-14,-6],[22,-36],[9,-3],[35,-36],[25,-7],[7,7],[38,-23],[48,-3],[19,-20],[72,-51],[-7,-13],[29,21],[8,-7],[-24,-15],[16,-4],[46,-46],[27,-18],[-20,-8],[14,-32],[-23,-8],[-8,45],[-9,18],[-31,33],[-7,-9],[-22,13],[-47,45],[9,5],[-40,24],[-115,31],[-20,0],[-27,13],[-33,31],[13,7],[-23,42],[-7,33],[-2,73],[16,5],[9,-22]],[[5509,4263],[20,2],[16,-16],[12,38],[7,-1],[8,56],[13,0],[-1,-33],[29,-1],[-1,39],[7,47],[26,-3],[-6,-30],[-2,-66],[9,0],[-4,-34],[-15,-3],[3,-51],[15,-41],[53,9],[-2,11],[32,1],[10,-33],[-43,-13],[8,-24],[-34,-24],[19,-31],[36,-44],[20,11],[14,-24],[-32,-8],[-15,9],[-32,46],[-20,11],[-17,22]],[[5282,4353],[-41,39]],[[5241,4392],[-22,42],[-7,32],[-6,82],[-9,27],[-20,30],[-50,51],[-39,35],[42,32],[85,-109],[103,-160],[29,-67],[-7,-3]],[[5454,3876],[-6,12],[22,129],[-5,44],[-12,-1],[7,21],[-4,53],[-15,-3],[-11,31],[-37,52],[-10,-3],[-27,23],[-30,38],[-42,37],[-21,5],[-26,23],[-27,34],[31,21]],[[9095,4344],[-13,48],[-19,18],[-7,35],[4,25],[-16,6],[-5,21],[-24,50],[-16,25],[-36,27],[-57,33],[-24,-5],[-22,-34],[-9,18],[16,42],[16,-6],[11,15],[64,-23],[45,-29],[43,-53],[-21,-12],[5,-11],[16,8],[33,-40],[-26,-10],[7,-20],[17,9],[0,-19],[36,-53],[-14,-27],[19,-30]],[[5839,7936],[10,4],[21,-13],[16,16],[15,-19],[44,-25],[57,-17],[46,-26],[-12,-27],[-33,17],[-157,59],[-29,16],[-27,26],[20,15],[29,-26]],[[3860,8754],[-16,-10],[-8,-22],[12,-3],[-12,-50],[-2,-36],[-29,3],[2,11],[-52,7],[15,40],[23,-9],[30,41],[-21,9],[24,29],[58,59],[16,-12],[-16,-16],[-24,-41]],[[4157,2472],[3,-14],[-24,-1],[-5,-88],[-13,-38],[-1,-27],[9,-17],[29,-29],[29,-21],[27,-33],[41,-57],[-10,-5],[-50,63],[-10,-4],[-31,34],[-15,3],[-21,18],[-10,-2],[-12,39],[6,53],[11,62],[-5,57],[-37,-12],[-17,10],[35,14],[42,6],[32,-2],[-3,-9]],[[8824,4534],[-30,-19],[-8,8],[-39,-19],[1,-11],[-33,-11],[-10,-13],[-36,1],[-11,8],[-25,-10],[-39,-3],[-73,21],[-46,24],[-8,14],[-25,7],[15,9],[58,-20],[29,-26],[4,12],[36,-11],[69,-10],[3,-6],[41,8],[5,25],[30,-2],[44,22],[22,17],[45,50],[13,-10],[-25,-35],[-7,-20]],[[7994,4795],[56,-43],[44,-45],[51,-40],[69,-35],[60,-28],[39,-7],[71,-29],[35,-17],[23,2],[-8,-20],[-179,65],[-121,62],[-28,20],[-42,38],[-19,22],[-62,46],[-6,-7],[-42,21],[2,14],[57,-19]],[[7784,4795],[-74,-37],[-11,13],[22,19],[24,1],[18,15],[41,13],[6,-13],[-26,-11]],[[7888,4825],[38,-6],[-4,-11],[-38,6],[-49,-1],[3,10],[50,2]],[[7530,4932],[18,22],[24,-6],[9,-23],[47,-32],[-38,-31],[7,-13],[0,-64],[-16,-5],[0,-39],[12,-12],[3,14],[27,-1],[3,12],[24,-6],[59,1],[-78,-51],[-63,-2],[19,29],[-18,12],[-29,-30],[-10,38],[-7,0],[8,41],[34,-2],[10,48],[-22,1],[4,18],[-9,25],[-19,20],[-40,18],[-34,2],[1,14],[19,8],[7,23],[46,-13],[2,-16]],[[9660,3029],[-24,-65],[2,-61],[19,-38],[26,-25],[14,-5],[46,11],[40,-44],[32,0],[8,-15],[40,-8],[49,-23],[57,-44],[9,-26],[8,1],[13,-25],[-7,-7],[6,-40],[-8,-30],[-19,-34],[-10,3],[22,43],[4,27],[-23,63],[-13,20],[-38,36],[-42,22],[-75,21],[-2,-12],[-41,10],[4,11],[-32,1],[-46,22],[-4,18],[-33,-10],[-31,54],[23,7],[-9,35],[4,51],[6,18],[-30,6],[15,37],[29,-8],[23,56],[8,-2],[-20,-51]]]}
