{"type":"Topology","bbox":[-75.40397404008809,9.45595121061486,-75.3240984933841,9.618633986131623],"transform":{"scale":[0.000007988353505749398,0.000016269904542130603],"translate":[-75.40397404008809,9.45595121061486]},"objects":{"municipios":{"type":"GeometryCollection","geometries":[{"type":"Polygon","arcs":[[0]],"properties":{"codigo":"70204200105010000101","sector":"702042001050100001","pcode":"CO70204","area_m2":40964}},{"type":"Polygon","arcs":[[1]],"properties":{"codigo":"70204200106011000101","sector":"702042001060110001","pcode":"CO70204","area_m2":35763}},{"type":"Polygon","arcs":[[2]],"properties":{"codigo":"70204200105006000101","sector":"702042001050060001","pcode":"CO70204","area_m2":73205}},{"type":"Polygon","arcs":[[3,4,5]],"properties":{"codigo":"70204100000000000101","sector":"702041000000000001","pcode":"CO70204","area_m2":142740}},{"type":"MultiPolygon","arcs":[[[6]],[[7]]],"properties":{"codigo":"70204200106005000101","sector":"702042001060050001","pcode":"CO70204","area_m2":68092}},{"type":"Polygon","arcs":[[8]],"properties":{"codigo":"70204200105008000101","sector":"702042001050080001","pcode":"CO70204","area_m2":49017}},{"type":"MultiPolygon","arcs":[[[9]],[[10]],[[11]]],"properties":{"codigo":"70204200106009000101","sector":"702042001060090001","pcode":"CO70204","area_m2":50041}},{"type":"Polygon","arcs":[[12]],"properties":{"codigo":"70204200106012000101","sector":"702042001060120001","pcode":"CO70204","area_m2":125655}},{"type":"Polygon","arcs":[[13]],"properties":{"codigo":"70204200105014000101","sector":"702042001050140001","pcode":"CO70204","area_m2":103689}},{"type":"Polygon","arcs":[[14,-5,15,16]],"properties":{"codigo":"70204100000000000105","sector":"702041000000000001","pcode":"CO70204","area_m2":109459}},{"type":"Polygon","arcs":[[-6,-15,17,18]],"properties":{"codigo":"70204100000000000102","sector":"702041000000000001","pcode":"CO70204","area_m2":151140}},{"type":"Polygon","arcs":[[19,-17,20]],"properties":{"codigo":"70204100000000000103","sector":"702041000000000001","pcode":"CO70204","area_m2":203784}},{"type":"Polygon","arcs":[[-18,-20,21]],"properties":{"codigo":"70204100000000000104","sector":"702041000000000001","pcode":"CO70204","area_m2":165515}},{"type":"Polygon","arcs":[[22]],"properties":{"codigo":"70204200101002000101","sector":"702042001010020001","pcode":"CO70204","area_m2":118713}},{"type":"Polygon","arcs":[[23]],"properties":{"codigo":"70204200103013000101","sector":"702042001030130001","pcode":"CO70204","area_m2":300962}},{"type":"Polygon","arcs":[[24]],"properties":{"codigo":"70204200101015000101","sector":"702042001010150001","pcode":"CO70204","area_m2":29915}}]}},"arcs":[[[9871,2248],[62,1],[1,-98],[-52,-1],[15,-48],[-96,28],[27,45],[-35,17],[-154,22],[29,65],[203,-31]],[[4500,1416],[31,-70],[-80,0],[-64,174],[29,9],[-73,157],[91,19],[33,-49],[-65,-10],[98,-230]],[[9109,2521],[-34,-49],[82,-33],[-332,51],[63,-160],[-111,-1],[-5,53],[-57,70],[-1,69],[163,-8],[62,37],[26,76],[60,-5],[26,-35],[-32,-38],[90,-27]],[[6659,2182],[-47,-24],[-45,-117],[-72,-3],[121,-146],[-32,-9],[68,-50],[-53,2],[-47,85],[-186,-1],[-35,-11],[-42,72],[79,23],[5,49],[-75,27],[5,46],[-212,27],[23,65]],[[6114,2217],[247,9]],[[6361,2226],[-3,-33],[301,-11]],[[4463,440],[25,116],[42,0],[-15,-102],[200,-15],[-29,-31],[-175,-1],[48,-96],[-60,8],[-68,-39],[25,65],[-83,6],[58,21],[32,68]],[[4544,30],[-34,-30],[-61,24],[109,71],[-36,66],[-68,24],[47,25],[126,-73],[3,-35],[-86,-72]],[[9244,1525],[125,-30],[131,3],[-87,-18],[-27,-43],[-80,-19],[-113,35],[-59,63],[-107,16],[19,50],[83,2],[108,-27],[7,-32]],[[2725,622],[-40,-108],[88,-27],[-81,-33],[67,-51],[-166,-15],[-227,-94],[-25,13],[109,47],[-28,17],[87,38],[30,-16],[90,39],[31,125],[36,69],[29,-4]],[[2233,258],[-61,-25],[-33,20],[65,37],[29,-32]],[[2838,516],[-43,-19],[-16,37],[59,-18]],[[4039,1028],[81,-30],[-22,-39],[-146,-2],[-53,-27],[-38,20],[-71,-30],[36,-19],[-137,-58],[-5,-28],[69,-58],[84,-98],[-75,-19],[-119,132],[-73,14],[-13,-57],[-51,23],[-85,-15],[-55,20],[22,65],[118,40],[40,-8],[169,77],[25,40],[81,5],[87,33],[-35,15],[73,43],[93,-39]],[[9954,3209],[-72,18],[-113,-99],[7,-20],[-85,-50],[-234,96],[61,65],[-47,26],[65,30],[117,-35],[105,-10],[125,114],[89,-42],[-18,-93]],[[6360,2341],[1,-115]],[[6114,2217],[-195,-7],[-134,-20],[2,40],[78,114]],[[5865,2344],[51,-7],[444,4]],[[6360,2341],[114,0],[-2,27],[72,49],[174,-14],[245,49]],[[6963,2452],[21,-52],[-190,-33],[27,-173],[-63,20],[-99,-32]],[[6310,2697],[25,-82],[72,-120],[-141,-1],[-1,-73],[104,2],[-9,-82]],[[5865,2344],[-26,117],[18,59],[68,95],[99,-21],[170,-61],[74,-8],[11,71],[-117,141],[103,22],[45,-62]],[[6310,2697],[196,22],[59,-112],[-48,-84],[166,-20],[117,76],[-78,-79],[118,-35],[100,26],[23,-39]],[[327,8593],[26,1],[29,-76],[-34,-3],[-23,-144],[-163,-2],[-6,-19],[-114,8],[13,52],[-54,13],[37,70],[-38,6],[46,49],[-17,34],[74,-6],[10,31],[149,-20],[71,47],[-6,-41]],[[6248,3201],[53,23],[137,15],[84,-15],[106,-41],[-107,-25],[-18,-177],[-148,15],[-39,-20],[3,-108],[-128,14],[-63,-50],[-58,27],[-84,110],[-66,9],[15,92],[-21,80],[60,16],[90,107],[182,-4],[32,-26],[-30,-42]],[[881,9980],[-29,-114],[-57,3],[-62,-32],[-60,25],[75,28],[8,44],[-54,39],[166,26],[13,-19]]]}
