{"type":"Topology","bbox":[-75.50777848912355,9.230760730513962,-75.335914688723,9.400230760416258],"transform":{"scale":[0.000017188098849940832,0.000016948697860015622],"translate":[-75.50777848912355,9.230760730513962]},"objects":{"municipios":{"type":"GeometryCollection","geometries":[{"type":"Polygon","arcs":[[0,1]],"properties":{"codigo":"70001200202014000102","sector":"700012002020140001","pcode":"CO70001","area_m2":244143}},{"type":"Polygon","arcs":[[2,3]],"properties":{"codigo":"70001200102005000102","sector":"700012001020050001","pcode":"CO70001","area_m2":80428}},{"type":"MultiPolygon","arcs":[[[4]],[[5]]],"properties":{"codigo":"70001200103009000101","sector":"700012001030090001","pcode":"CO70001","area_m2":208658}},{"type":"MultiPolygon","arcs":[[[6]],[[7,-1]],[[8]]],"properties":{"codigo":"70001200202014000101","sector":"700012002020140001","pcode":"CO70001","area_m2":200924}},{"type":"Polygon","arcs":[[9]],"properties":{"codigo":"70001200205022000101","sector":"700012002050220001","pcode":"CO70001","area_m2":173271}},{"type":"Polygon","arcs":[[10]],"properties":{"codigo":"70001200201027000101","sector":"700012002010270001","pcode":"CO70001","area_m2":74529}},{"type":"Polygon","arcs":[[11,12,13,14,15,16]],"properties":{"codigo":"70001100000000001001","sector":"700011000000000010","pcode":"CO70001","area_m2":124478}},{"type":"Polygon","arcs":[[17,18,19,20,21,22,23]],"properties":{"codigo":"70001100000000001801","sector":"700011000000000018","pcode":"CO70001","area_m2":87776}},{"type":"Polygon","arcs":[[24,25,26,27,28,29,30]],"properties":{"codigo":"70001100000000000401","sector":"700011000000000004","pcode":"CO70001","area_m2":124688}},{"type":"Polygon","arcs":[[31,32,33,34,35]],"properties":{"codigo":"70001100000000002501","sector":"700011000000000025","pcode":"CO70001","area_m2":177635}},{"type":"Polygon","arcs":[[36,37,38,39,40]],"properties":{"codigo":"70001100000000003101","sector":"700011000000000031","pcode":"CO70001","area_m2":56715}},{"type":"Polygon","arcs":[[41,42,43,44,-39]],"properties":{"codigo":"70001100000000003201","sector":"700011000000000032","pcode":"CO70001","area_m2":98945}},{"type":"Polygon","arcs":[[45,46,47,48,49,50]],"properties":{"codigo":"70001100000000003301","sector":"700011000000000033","pcode":"CO70001","area_m2":115785}},{"type":"Polygon","arcs":[[51,-32,52,53,54]],"properties":{"codigo":"70001100000000003401","sector":"700011000000000034","pcode":"CO70001","area_m2":72319}},{"type":"Polygon","arcs":[[55,56,57,58,-54,59,60]],"properties":{"codigo":"70001100000000003501","sector":"700011000000000035","pcode":"CO70001","area_m2":165366}},{"type":"Polygon","arcs":[[61,62,63,64,-58,65,66]],"properties":{"codigo":"70001100000000003701","sector":"700011000000000037","pcode":"CO70001","area_m2":171442}},{"type":"Polygon","arcs":[[67]],"properties":{"codigo":"70001200205013000101","sector":"700012002050130001","pcode":"CO70001","area_m2":153438}},{"type":"Polygon","arcs":[[68,69,70,71,72]],"properties":{"codigo":"70001200304003000103","sector":"700012003040030001","pcode":"CO70001","area_m2":168948}},{"type":"Polygon","arcs":[[-71,73]],"properties":{"codigo":"70001200304003000104","sector":"700012003040030001","pcode":"CO70001","area_m2":184205}},{"type":"Polygon","arcs":[[74,-73,75]],"properties":{"codigo":"70001200304003000101","sector":"700012003040030001","pcode":"CO70001","area_m2":205789}},{"type":"Polygon","arcs":[[76,-69,-75]],"properties":{"codigo":"70001200304003000102","sector":"700012003040030001","pcode":"CO70001","area_m2":152660}},{"type":"Polygon","arcs":[[77]],"properties":{"codigo":"70001200201001000101","sector":"700012002010010001","pcode":"CO70001","area_m2":367519}},{"type":"MultiPolygon","arcs":[[[78]],[[79]],[[80]]],"properties":{"codigo":"70001200218002000101","sector":"700012002180020001","pcode":"CO70001","area_m2":155438}},{"type":"Polygon","arcs":[[81,82]],"properties":{"codigo":"70001200103004000101","sector":"700012001030040001","pcode":"CO70001","area_m2":561547}},{"type":"Polygon","arcs":[[-82,83]],"properties":{"codigo":"70001200103004000102","sector":"700012001030040001","pcode":"CO70001","area_m2":480362}},{"type":"Polygon","arcs":[[84]],"properties":{"codigo":"70001200205007000101","sector":"700012002050070001","pcode":"CO70001","area_m2":644472}},{"type":"Polygon","arcs":[[-3,85]],"properties":{"codigo":"70001200102005000101","sector":"700012001020050001","pcode":"CO70001","area_m2":635014}},{"type":"Polygon","arcs":[[86]],"properties":{"codigo":"70001200104006000101","sector":"700012001040060001","pcode":"CO70001","area_m2":552295}},{"type":"MultiPolygon","arcs":[[[87]],[[88]]],"properties":{"codigo":"70001200104011000101","sector":"700012001040110001","pcode":"CO70001","area_m2":296667}},{"type":"Polygon","arcs":[[89]],"properties":{"codigo":"70001200205015000101","sector":"700012002050150001","pcode":"CO70001","area_m2":374978}},{"type":"Polygon","arcs":[[90]],"properties":{"codigo":"70001200101016000101","sector":"700012001010160001","pcode":"CO70001","area_m2":111003}},{"type":"Polygon","arcs":[[91,92]],"properties":{"codigo":"70001200201017000101","sector":"700012002010170001","pcode":"CO70001","area_m2":50790}},{"type":"Polygon","arcs":[[-92,93]],"properties":{"codigo":"70001200201017000102","sector":"700012002010170001","pcode":"CO70001","area_m2":47231}},{"type":"Polygon","arcs":[[94]],"properties":{"codigo":"70001200302020000101","sector":"700012003020200001","pcode":"CO70001","area_m2":59569}},{"type":"Polygon","arcs":[[95]],"properties":{"codigo":"70001200205021000101","sector":"700012002050210001","pcode":"CO70001","area_m2":196590}},{"type":"Polygon","arcs":[[96]],"properties":{"codigo":"70001200205023000101","sector":"700012002050230001","pcode":"CO70001","area_m2":153419}},{"type":"Polygon","arcs":[[97,-61,98,99,100,101]],"properties":{"codigo":"70001100000000003607","sector":"700011000000000036","pcode":"CO70001","area_m2":110641}},{"type":"Polygon","arcs":[[102,103,104,105,106,107,108,109,110,111,112,113,114]],"properties":{"codigo":"70001100000000002306","sector":"700011000000000023","pcode":"CO70001","area_m2":962696}},{"type":"Polygon","arcs":[[-47,115,-44,116,117,118]],"properties":{"codigo":"70001100000000002604","sector":"700011000000000026","pcode":"CO70001","area_m2":169776}},{"type":"Polygon","arcs":[[119,120,121,122,123,124,125]],"properties":{"codigo":"70001100000000001206","sector":"700011000000000012","pcode":"CO70001","area_m2":234369}},{"type":"Polygon","arcs":[[126,127,128,129,130,131,132,133]],"properties":{"codigo":"70001100000000004301","sector":"700011000000000043","pcode":"CO70001","area_m2":84342}},{"type":"Polygon","arcs":[[134,135,136,137]],"properties":{"codigo":"70001100000000004603","sector":"700011000000000046","pcode":"CO70001","area_m2":47384}},{"type":"Polygon","arcs":[[138,139,-67,140,141]],"properties":{"codigo":"70001100000000003606","sector":"700011000000000036","pcode":"CO70001","area_m2":67452}},{"type":"Polygon","arcs":[[142,143,144,145]],"properties":{"codigo":"70001100000000004502","sector":"700011000000000045","pcode":"CO70001","area_m2":110874}},{"type":"Polygon","arcs":[[146,147,148,149]],"properties":{"codigo":"70001100000000001106","sector":"700011000000000011","pcode":"CO70001","area_m2":199635}},{"type":"Polygon","arcs":[[150,151,152,153,154,155,156]],"properties":{"codigo":"70001100000000002401","sector":"700011000000000024","pcode":"CO70001","area_m2":104476}},{"type":"Polygon","arcs":[[157,158,159,160,161,162,163,164,165]],"properties":{"codigo":"70001100000000002304","sector":"700011000000000023","pcode":"CO70001","area_m2":306706}},{"type":"Polygon","arcs":[[166,167,168,169,170]],"properties":{"codigo":"70001100000000000605","sector":"700011000000000006","pcode":"CO70001","area_m2":47525}},{"type":"Polygon","arcs":[[171,172,173,174,175]],"properties":{"codigo":"70001100000000005103","sector":"700011000000000051","pcode":"CO70001","area_m2":61055}},{"type":"Polygon","arcs":[[-27,176,177,178,179,180,181]],"properties":{"codigo":"70001100000000000601","sector":"700011000000000006","pcode":"CO70001","area_m2":84386}},{"type":"Polygon","arcs":[[182,183,184,185,-126,186,187,188,189]],"properties":{"codigo":"70001100000000000812","sector":"700011000000000008","pcode":"CO70001","area_m2":262032}},{"type":"Polygon","arcs":[[190,-107,191]],"properties":{"codigo":"70001100000000002311","sector":"700011000000000023","pcode":"CO70001","area_m2":69519}},{"type":"Polygon","arcs":[[192,193,194,195]],"properties":{"codigo":"70001100000000000901","sector":"700011000000000009","pcode":"CO70001","area_m2":982763}},{"type":"Polygon","arcs":[[196,197,-188]],"properties":{"codigo":"70001100000000000813","sector":"700011000000000008","pcode":"CO70001","area_m2":46593}},{"type":"Polygon","arcs":[[198,199,200,201,202,203]],"properties":{"codigo":"70001100000000004704","sector":"700011000000000047","pcode":"CO70001","area_m2":254388}},{"type":"Polygon","arcs":[[204,205,206,207,208,209]],"properties":{"codigo":"70001100000000003004","sector":"700011000000000030","pcode":"CO70001","area_m2":25120}},{"type":"Polygon","arcs":[[210,-21,211,212,213,214]],"properties":{"codigo":"70001100000000002003","sector":"700011000000000020","pcode":"CO70001","area_m2":83114}},{"type":"Polygon","arcs":[[215,216,217,218,219,220]],"properties":{"codigo":"70001100000000002101","sector":"700011000000000021","pcode":"CO70001","area_m2":48328}},{"type":"Polygon","arcs":[[-166,221,222]],"properties":{"codigo":"70001100000000002308","sector":"700011000000000023","pcode":"CO70001","area_m2":48357}},{"type":"Polygon","arcs":[[223,224,-184,225,226,227,228]],"properties":{"codigo":"70001100000000000702","sector":"700011000000000007","pcode":"CO70001","area_m2":211035}},{"type":"Polygon","arcs":[[229,230,231,232,-179]],"properties":{"codigo":"70001100000000000602","sector":"700011000000000006","pcode":"CO70001","area_m2":76051}},{"type":"Polygon","arcs":[[233,-117,234]],"properties":{"codigo":"70001100000000001302","sector":"700011000000000013","pcode":"CO70001","area_m2":72390}},{"type":"Polygon","arcs":[[235,236,237,238]],"properties":{"codigo":"70001100000000000701","sector":"700011000000000007","pcode":"CO70001","area_m2":85624}},{"type":"Polygon","arcs":[[-222,-165,239,240,241,-220,242,243,244,245]],"properties":{"codigo":"70001100000000002202","sector":"700011000000000022","pcode":"CO70001","area_m2":294321}},{"type":"Polygon","arcs":[[246,247,248,-241]],"properties":{"codigo":"70001100000000002201","sector":"700011000000000022","pcode":"CO70001","area_m2":31249}},{"type":"Polygon","arcs":[[249,250,-55,-59,-65,251,-50]],"properties":{"codigo":"70001100000000003801","sector":"700011000000000038","pcode":"CO70001","area_m2":74747}},{"type":"Polygon","arcs":[[252,-210,253,254]],"properties":{"codigo":"70001100000000003005","sector":"700011000000000030","pcode":"CO70001","area_m2":26708}},{"type":"Polygon","arcs":[[255,256,257,258,259,260,261,262,263]],"properties":{"codigo":"70001100000000005301","sector":"700011000000000053","pcode":"CO70001","area_m2":480040}},{"type":"Polygon","arcs":[[-137,264,265,266,-202,267]],"properties":{"codigo":"70001100000000003903","sector":"700011000000000039","pcode":"CO70001","area_m2":40024}},{"type":"Polygon","arcs":[[268,-171,269,270,271]],"properties":{"codigo":"70001100000000000604","sector":"700011000000000006","pcode":"CO70001","area_m2":128503}},{"type":"Polygon","arcs":[[272,273,274,275]],"properties":{"codigo":"70001100000000004906","sector":"700011000000000049","pcode":"CO70001","area_m2":101205}},{"type":"Polygon","arcs":[[276,277,278,-14]],"properties":{"codigo":"70001100000000001202","sector":"700011000000000012","pcode":"CO70001","area_m2":57069}},{"type":"Polygon","arcs":[[279,-214,280,281,282,-248]],"properties":{"codigo":"70001100000000002102","sector":"700011000000000021","pcode":"CO70001","area_m2":72467}},{"type":"Polygon","arcs":[[283,284,285]],"properties":{"codigo":"70001100000000001403","sector":"700011000000000014","pcode":"CO70001","area_m2":96153}},{"type":"Polygon","arcs":[[-190,286,287,-227,288]],"properties":{"codigo":"70001100000000000807","sector":"700011000000000008","pcode":"CO70001","area_m2":41493}},{"type":"Polygon","arcs":[[289,-17,290,291]],"properties":{"codigo":"70001100000000001102","sector":"700011000000000011","pcode":"CO70001","area_m2":68638}},{"type":"Polygon","arcs":[[-48,-119,292,293]],"properties":{"codigo":"70001100000000002603","sector":"700011000000000026","pcode":"CO70001","area_m2":87063}},{"type":"Polygon","arcs":[[-100,294,-151]],"properties":{"codigo":"70001100000000002403","sector":"700011000000000024","pcode":"CO70001","area_m2":38260}},{"type":"Polygon","arcs":[[295,296,297,-168]],"properties":{"codigo":"70001100000000000607","sector":"700011000000000006","pcode":"CO70001","area_m2":43632}},{"type":"Polygon","arcs":[[298,299,300,301,-37]],"properties":{"codigo":"70001100000000002803","sector":"700011000000000028","pcode":"CO70001","area_m2":64444}},{"type":"Polygon","arcs":[[302,303,304,305,306,-262]],"properties":{"codigo":"70001100000000004508","sector":"700011000000000045","pcode":"CO70001","area_m2":165283}},{"type":"Polygon","arcs":[[307,308,309,-235,-43,310]],"properties":{"codigo":"70001100000000002801","sector":"700011000000000028","pcode":"CO70001","area_m2":112114}},{"type":"Polygon","arcs":[[311,312,313,314]],"properties":{"codigo":"70001100000000000305","sector":"700011000000000003","pcode":"CO70001","area_m2":62076}},{"type":"Polygon","arcs":[[-301,315,316,317,318,319]],"properties":{"codigo":"70001100000000002902","sector":"700011000000000029","pcode":"CO70001","area_m2":121756}},{"type":"Polygon","arcs":[[320,321,322,323,324,325]],"properties":{"codigo":"70001100000000004203","sector":"700011000000000042","pcode":"CO70001","area_m2":162316}},{"type":"Polygon","arcs":[[326,327,328,-224,-284,329,-234,-310]],"properties":{"codigo":"70001100000000001301","sector":"700011000000000013","pcode":"CO70001","area_m2":212674}},{"type":"Polygon","arcs":[[330,331,-113]],"properties":{"codigo":"70001100000000002309","sector":"700011000000000023","pcode":"CO70001","area_m2":67409}},{"type":"Polygon","arcs":[[-132,332,333]],"properties":{"codigo":"70001100000000004304","sector":"700011000000000043","pcode":"CO70001","area_m2":42549}},{"type":"Polygon","arcs":[[-189,334,335]],"properties":{"codigo":"70001100000000000810","sector":"700011000000000008","pcode":"CO70001","area_m2":54961}},{"type":"Polygon","arcs":[[336,-290,337,338,339,-147,340,-123,341]],"properties":{"codigo":"70001100000000001101","sector":"700011000000000011","pcode":"CO70001","area_m2":209168}},{"type":"Polygon","arcs":[[-183,-289,-226]],"properties":{"codigo":"70001100000000000704","sector":"700011000000000007","pcode":"CO70001","area_m2":35973}},{"type":"Polygon","arcs":[[342,343,-103,344,345]],"properties":{"codigo":"70001100000000005003","sector":"700011000000000050","pcode":"CO70001","area_m2":337972}},{"type":"Polygon","arcs":[[346,347,-255,348]],"properties":{"codigo":"70001100000000003006","sector":"700011000000000030","pcode":"CO70001","area_m2":34262}},{"type":"Polygon","arcs":[[-267,349,350,351,-203]],"properties":{"codigo":"70001100000000004703","sector":"700011000000000047","pcode":"CO70001","area_m2":34327}},{"type":"Polygon","arcs":[[352,353,354,355,-273]],"properties":{"codigo":"70001100000000004905","sector":"700011000000000049","pcode":"CO70001","area_m2":173886}},{"type":"Polygon","arcs":[[356,357,-313,358,359,360,361]],"properties":{"codigo":"70001100000000000307","sector":"700011000000000003","pcode":"CO70001","area_m2":670717}},{"type":"Polygon","arcs":[[362,363,364,365,366,367]],"properties":{"codigo":"70001100000000001401","sector":"700011000000000014","pcode":"CO70001","area_m2":80428}},{"type":"Polygon","arcs":[[368,369,-268,-201]],"properties":{"codigo":"70001100000000003904","sector":"700011000000000039","pcode":"CO70001","area_m2":73851}},{"type":"Polygon","arcs":[[370,-217,371,372,373,374]],"properties":{"codigo":"70001100000000002109","sector":"700011000000000021","pcode":"CO70001","area_m2":41021}},{"type":"Polygon","arcs":[[375,376,377,-265,-136]],"properties":{"codigo":"70001100000000004602","sector":"700011000000000046","pcode":"CO70001","area_m2":45956}},{"type":"Polygon","arcs":[[-318,378,-291,-16,379,380]],"properties":{"codigo":"70001100000000001103","sector":"700011000000000011","pcode":"CO70001","area_m2":437096}},{"type":"Polygon","arcs":[[381,382,-143,383,384]],"properties":{"codigo":"70001100000000004507","sector":"700011000000000045","pcode":"CO70001","area_m2":55342}},{"type":"Polygon","arcs":[[-270,-170,385,-315,-231,386]],"properties":{"codigo":"70001100000000000606","sector":"700011000000000006","pcode":"CO70001","area_m2":59596}},{"type":"Polygon","arcs":[[-155,387,-280,-247,-240,-164,388]],"properties":{"codigo":"70001100000000002301","sector":"700011000000000023","pcode":"CO70001","area_m2":155030}},{"type":"Polygon","arcs":[[389,390,391,-174]],"properties":{"codigo":"70001100000000005102","sector":"700011000000000051","pcode":"CO70001","area_m2":43558}},{"type":"Polygon","arcs":[[-244,392,393]],"properties":{"codigo":"70001100000000002111","sector":"700011000000000021","pcode":"CO70001","area_m2":61128}},{"type":"Polygon","arcs":[[394,395,396,397,398]],"properties":{"codigo":"70001100000000004003","sector":"700011000000000040","pcode":"CO70001","area_m2":62321}},{"type":"Polygon","arcs":[[399,400,-272,401,402,403]],"properties":{"codigo":"70001100000000000502","sector":"700011000000000005","pcode":"CO70001","area_m2":115811}},{"type":"Polygon","arcs":[[404,405,-172,-206,406]],"properties":{"codigo":"70001100000000005104","sector":"700011000000000051","pcode":"CO70001","area_m2":65665}},{"type":"Polygon","arcs":[[-15,-279,407,-185,-225,-329,-380]],"properties":{"codigo":"70001100000000001201","sector":"700011000000000012","pcode":"CO70001","area_m2":108810}},{"type":"Polygon","arcs":[[408,-353,-276,409,410,411]],"properties":{"codigo":"70001100000000004908","sector":"700011000000000049","pcode":"CO70001","area_m2":304254}},{"type":"Polygon","arcs":[[-178,412,-402,-271,-387,-230]],"properties":{"codigo":"70001100000000000603","sector":"700011000000000006","pcode":"CO70001","area_m2":79481}},{"type":"Polygon","arcs":[[413,-351,414,415,416]],"properties":{"codigo":"70001100000000004701","sector":"700011000000000047","pcode":"CO70001","area_m2":67140}},{"type":"Polygon","arcs":[[417,418,-62,-140,419]],"properties":{"codigo":"70001100000000004106","sector":"700011000000000041","pcode":"CO70001","area_m2":153067}},{"type":"Polygon","arcs":[[420,421,422]],"properties":{"codigo":"70001100000000004607","sector":"700011000000000046","pcode":"CO70001","area_m2":47870}},{"type":"Polygon","arcs":[[423,-400,424,425,426,427]],"properties":{"codigo":"70001100000000001502","sector":"700011000000000015","pcode":"CO70001","area_m2":66895}},{"type":"Polygon","arcs":[[-348,428,429,430,-407,-205,-253]],"properties":{"codigo":"70001100000000004904","sector":"700011000000000049","pcode":"CO70001","area_m2":39063}},{"type":"Polygon","arcs":[[431,-30,432,-18,433]],"properties":{"codigo":"70001100000000001701","sector":"700011000000000017","pcode":"CO70001","area_m2":47110}},{"type":"Polygon","arcs":[[-345,-115,434,435]],"properties":{"codigo":"70001100000000005004","sector":"700011000000000050","pcode":"CO70001","area_m2":120745}},{"type":"Polygon","arcs":[[436,-218,-371,437,-257]],"properties":{"codigo":"70001100000000005305","sector":"700011000000000053","pcode":"CO70001","area_m2":44820}},{"type":"Polygon","arcs":[[-344,438,-104]],"properties":{"codigo":"70001100000000005002","sector":"700011000000000050","pcode":"CO70001","area_m2":36228}},{"type":"Polygon","arcs":[[439,-263,440]],"properties":{"codigo":"70001100000000005302","sector":"700011000000000053","pcode":"CO70001","area_m2":101858}},{"type":"Polygon","arcs":[[-278,441,-120,-186,-408]],"properties":{"codigo":"70001100000000001207","sector":"700011000000000012","pcode":"CO70001","area_m2":65939}},{"type":"Polygon","arcs":[[-49,-294,-368,442,-250]],"properties":{"codigo":"70001100000000002602","sector":"700011000000000026","pcode":"CO70001","area_m2":83175}},{"type":"Polygon","arcs":[[443,444,-430]],"properties":{"codigo":"70001100000000004901","sector":"700011000000000049","pcode":"CO70001","area_m2":36083}},{"type":"Polygon","arcs":[[-385,445,446,-305,447]],"properties":{"codigo":"70001100000000004501","sector":"700011000000000045","pcode":"CO70001","area_m2":85587}},{"type":"Polygon","arcs":[[-417,448,449,-397,450]],"properties":{"codigo":"70001100000000004001","sector":"700011000000000040","pcode":"CO70001","area_m2":68575}},{"type":"Polygon","arcs":[[451,-411,452,453,-349,-254,-209,454,-423,455,-376,-135]],"properties":{"codigo":"70001100000000004606","sector":"700011000000000046","pcode":"CO70001","area_m2":163192}},{"type":"Polygon","arcs":[[456,-334,457,-161,458]],"properties":{"codigo":"70001100000000003608","sector":"700011000000000036","pcode":"CO70001","area_m2":84911}},{"type":"Polygon","arcs":[[-249,-283,459,460,461,-372,-216,462]],"properties":{"codigo":"70001100000000002104","sector":"700011000000000021","pcode":"CO70001","area_m2":101457}},{"type":"Polygon","arcs":[[-296,-167,-269,-401,-424,463,-237,464]],"properties":{"codigo":"70001100000000001501","sector":"700011000000000015","pcode":"CO70001","area_m2":146869}},{"type":"Polygon","arcs":[[-339,465,-195,466,467,-149,468]],"properties":{"codigo":"70001100000000001105","sector":"700011000000000011","pcode":"CO70001","area_m2":188859}},{"type":"Polygon","arcs":[[469,470,-108,-191]],"properties":{"codigo":"70001100000000002307","sector":"700011000000000023","pcode":"CO70001","area_m2":252005}},{"type":"Polygon","arcs":[[471,472,473,474,475,476,-303,-261]],"properties":{"codigo":"70001100000000000103","sector":"700011000000000001","pcode":"CO70001","area_m2":139687}},{"type":"Polygon","arcs":[[-373,-462,477,-472,-260,478]],"properties":{"codigo":"70001100000000002107","sector":"700011000000000021","pcode":"CO70001","area_m2":50946}},{"type":"Polygon","arcs":[[-447,479,480,-306]],"properties":{"codigo":"70001100000000004504","sector":"700011000000000045","pcode":"CO70001","area_m2":39297}},{"type":"Polygon","arcs":[[481,-281,-213]],"properties":{"codigo":"70001100000000002002","sector":"700011000000000020","pcode":"CO70001","area_m2":77619}},{"type":"Polygon","arcs":[[482,-453,-410]],"properties":{"codigo":"70001100000000004608","sector":"700011000000000046","pcode":"CO70001","area_m2":52869}},{"type":"Polygon","arcs":[[483,-196,-466,-338,-292,-379,-317,484]],"properties":{"codigo":"70001100000000004801","sector":"700011000000000048","pcode":"CO70001","area_m2":1189536}},{"type":"Polygon","arcs":[[485,-362,486]],"properties":{"codigo":"70001100000000000309","sector":"700011000000000003","pcode":"CO70001","area_m2":95581}},{"type":"Polygon","arcs":[[487,488,-425,-404,489,-25,490]],"properties":{"codigo":"70001100000000000503","sector":"700011000000000005","pcode":"CO70001","area_m2":77800}},{"type":"Polygon","arcs":[[491,492,-175,-392,493]],"properties":{"codigo":"70001100000000003003","sector":"700011000000000030","pcode":"CO70001","area_m2":68630}},{"type":"Polygon","arcs":[[-433,-29,494,495,496,-19]],"properties":{"codigo":"70001100000000000201","sector":"700011000000000002","pcode":"CO70001","area_m2":87562}},{"type":"Polygon","arcs":[[-412,-452,-138,-370,497]],"properties":{"codigo":"70001100000000004601","sector":"700011000000000046","pcode":"CO70001","area_m2":138472}},{"type":"Polygon","arcs":[[498,499,500]],"properties":{"codigo":"70001100000000004404","sector":"700011000000000044","pcode":"CO70001","area_m2":65560}},{"type":"Polygon","arcs":[[-293,-118,-330,-286,501,-427,502,-363]],"properties":{"codigo":"70001100000000001402","sector":"700011000000000014","pcode":"CO70001","area_m2":182956}},{"type":"Polygon","arcs":[[-207,-176,-493,503]],"properties":{"codigo":"70001100000000003010","sector":"700011000000000030","pcode":"CO70001","area_m2":35801}},{"type":"Polygon","arcs":[[-287,-336,504,-465,-236]],"properties":{"codigo":"70001100000000000809","sector":"700011000000000008","pcode":"CO70001","area_m2":55292}},{"type":"Polygon","arcs":[[505,506,-442,-277,-13]],"properties":{"codigo":"70001100000000001203","sector":"700011000000000012","pcode":"CO70001","area_m2":73941}},{"type":"Polygon","arcs":[[-302,-320,-311,-42,-38]],"properties":{"codigo":"70001100000000002802","sector":"700011000000000028","pcode":"CO70001","area_m2":65445}},{"type":"Polygon","arcs":[[-266,-378,507,508,509,-415,-350]],"properties":{"codigo":"70001100000000003902","sector":"700011000000000039","pcode":"CO70001","area_m2":86639}},{"type":"Polygon","arcs":[[-181,510,511,512]],"properties":{"codigo":"70001100000000000301","sector":"700011000000000003","pcode":"CO70001","area_m2":108434}},{"type":"Polygon","arcs":[[513,514,-475,515]],"properties":{"codigo":"70001100000000000102","sector":"700011000000000001","pcode":"CO70001","area_m2":129006}},{"type":"Polygon","arcs":[[516,-382,-448,-304,-477]],"properties":{"codigo":"70001100000000004506","sector":"700011000000000045","pcode":"CO70001","area_m2":78335}},{"type":"Polygon","arcs":[[-325,517,518,519,-134,520,-459,-160,521]],"properties":{"codigo":"70001100000000002702","sector":"700011000000000027","pcode":"CO70001","area_m2":120958}},{"type":"Polygon","arcs":[[522,523,524,525]],"properties":{"codigo":"70001100000000004101","sector":"700011000000000041","pcode":"CO70001","area_m2":106382}},{"type":"Polygon","arcs":[[-366,526,-23,-34,527]],"properties":{"codigo":"70001100000000001602","sector":"700011000000000016","pcode":"CO70001","area_m2":137704}},{"type":"Polygon","arcs":[[-198,528,529,-297,-505,-335]],"properties":{"codigo":"70001100000000000808","sector":"700011000000000008","pcode":"CO70001","area_m2":57098}},{"type":"Polygon","arcs":[[530,531,-357,-486,532,533]],"properties":{"codigo":"70001100000000000308","sector":"700011000000000003","pcode":"CO70001","area_m2":179793}},{"type":"Polygon","arcs":[[-327,-309,534]],"properties":{"codigo":"70001100000000002901","sector":"700011000000000029","pcode":"CO70001","area_m2":70273}},{"type":"Polygon","arcs":[[535,536,-399,537,538,539,540]],"properties":{"codigo":"70001100000000004108","sector":"700011000000000041","pcode":"CO70001","area_m2":765610}},{"type":"Polygon","arcs":[[-105,-439,-343,541]],"properties":{"codigo":"70001100000000005001","sector":"700011000000000050","pcode":"CO70001","area_m2":90114}},{"type":"Polygon","arcs":[[542,543,-40,-45,-116,-46,544,545]],"properties":{"codigo":"70001100000000003803","sector":"700011000000000038","pcode":"CO70001","area_m2":483659}},{"type":"Polygon","arcs":[[-52,-251,-443,-367,-528,-33]],"properties":{"codigo":"70001100000000002601","sector":"700011000000000026","pcode":"CO70001","area_m2":78214}},{"type":"Polygon","arcs":[[546,-56,-98,547,548]],"properties":{"codigo":"70001100000000003604","sector":"700011000000000036","pcode":"CO70001","area_m2":49400}},{"type":"Polygon","arcs":[[-57,-547,549,550,-141,-66]],"properties":{"codigo":"70001100000000003605","sector":"700011000000000036","pcode":"CO70001","area_m2":53821}},{"type":"Polygon","arcs":[[-156,-389,-163,551]],"properties":{"codigo":"70001100000000002303","sector":"700011000000000023","pcode":"CO70001","area_m2":98397}},{"type":"Polygon","arcs":[[-332,552,-111,553,554,-435,-114]],"properties":{"codigo":"70001100000000005005","sector":"700011000000000050","pcode":"CO70001","area_m2":148011}},{"type":"Polygon","arcs":[[-395,-537,555]],"properties":{"codigo":"70001100000000004107","sector":"700011000000000041","pcode":"CO70001","area_m2":51295}},{"type":"Polygon","arcs":[[-456,-422,556,557,-508,-377]],"properties":{"codigo":"70001100000000004604","sector":"700011000000000046","pcode":"CO70001","area_m2":69466}},{"type":"Polygon","arcs":[[-538,-398,-450,-546,558,-63,-419,559,560]],"properties":{"codigo":"70001100000000004102","sector":"700011000000000041","pcode":"CO70001","area_m2":790116}},{"type":"Polygon","arcs":[[-337,561,562,-506,-12]],"properties":{"codigo":"70001100000000001204","sector":"700011000000000012","pcode":"CO70001","area_m2":46329}},{"type":"Polygon","arcs":[[-228,-288,-239,563]],"properties":{"codigo":"70001100000000000705","sector":"700011000000000007","pcode":"CO70001","area_m2":78567}},{"type":"Polygon","arcs":[[-381,-328,-535,-308,-319]],"properties":{"codigo":"70001100000000002903","sector":"700011000000000029","pcode":"CO70001","area_m2":90388}},{"type":"Polygon","arcs":[[-51,-252,-64,-559,-545]],"properties":{"codigo":"70001100000000003802","sector":"700011000000000038","pcode":"CO70001","area_m2":263615}},{"type":"Polygon","arcs":[[-482,-212,-20,-497,564,565,-516,-474,566,-460,-282]],"properties":{"codigo":"70001100000000002001","sector":"700011000000000020","pcode":"CO70001","area_m2":185882}},{"type":"Polygon","arcs":[[-455,-208,-504,-492,567,568,569]],"properties":{"codigo":"70001100000000003002","sector":"700011000000000030","pcode":"CO70001","area_m2":70657}},{"type":"Polygon","arcs":[[570,-543,-449,-416,-510]],"properties":{"codigo":"70001100000000003905","sector":"700011000000000039","pcode":"CO70001","area_m2":90102}},{"type":"Polygon","arcs":[[-365,571,-488,572,-434,-24,-527]],"properties":{"codigo":"70001100000000001601","sector":"700011000000000016","pcode":"CO70001","area_m2":230688}},{"type":"Polygon","arcs":[[-364,-503,-426,-489,-572]],"properties":{"codigo":"70001100000000001503","sector":"700011000000000015","pcode":"CO70001","area_m2":89978}},{"type":"Polygon","arcs":[[573,-127,-520,-524]],"properties":{"codigo":"70001100000000004303","sector":"700011000000000043","pcode":"CO70001","area_m2":38897}},{"type":"Polygon","arcs":[[-458,-333,-131,574,-101,-157,-552,-162]],"properties":{"codigo":"70001100000000003601","sector":"700011000000000036","pcode":"CO70001","area_m2":315311}},{"type":"Polygon","arcs":[[-518,-324,575]],"properties":{"codigo":"70001100000000004201","sector":"700011000000000042","pcode":"CO70001","area_m2":62779}},{"type":"Polygon","arcs":[[-421,-570,576,-557]],"properties":{"codigo":"70001100000000004605","sector":"700011000000000046","pcode":"CO70001","area_m2":49469}},{"type":"Polygon","arcs":[[-406,577,578,579,-485,-316,-300,580,-390,-173]],"properties":{"codigo":"70001100000000005101","sector":"700011000000000051","pcode":"CO70001","area_m2":365021}},{"type":"Polygon","arcs":[[-438,-375,581,-258]],"properties":{"codigo":"70001100000000005304","sector":"700011000000000053","pcode":"CO70001","area_m2":56879}},{"type":"Polygon","arcs":[[-567,-473,-478,-461]],"properties":{"codigo":"70001100000000002106","sector":"700011000000000021","pcode":"CO70001","area_m2":56893}},{"type":"Polygon","arcs":[[582,-500,583,584]],"properties":{"codigo":"70001100000000004405","sector":"700011000000000044","pcode":"CO70001","area_m2":186654}},{"type":"Polygon","arcs":[[-194,585,-467]],"properties":{"codigo":"70001100000000000902","sector":"700011000000000009","pcode":"CO70001","area_m2":241865}},{"type":"Polygon","arcs":[[586,-35,-22,-211,587,-153]],"properties":{"codigo":"70001100000000001901","sector":"700011000000000019","pcode":"CO70001","area_m2":109584}},{"type":"Polygon","arcs":[[-476,-515,588,589,-144,-383,-517]],"properties":{"codigo":"70001100000000004505","sector":"700011000000000045","pcode":"CO70001","area_m2":151387}},{"type":"Polygon","arcs":[[-420,-139,590,-523,591]],"properties":{"codigo":"70001100000000004104","sector":"700011000000000041","pcode":"CO70001","area_m2":87750}},{"type":"Polygon","arcs":[[-582,-374,-479,-259]],"properties":{"codigo":"70001100000000002108","sector":"700011000000000021","pcode":"CO70001","area_m2":41037}},{"type":"Polygon","arcs":[[-204,-352,-414,592]],"properties":{"codigo":"70001100000000004702","sector":"700011000000000047","pcode":"CO70001","area_m2":67147}},{"type":"Polygon","arcs":[[-566,593,-495,-28,-182,-513,594,-534,595,-589,-514]],"properties":{"codigo":"70001100000000000101","sector":"700011000000000001","pcode":"CO70001","area_m2":577945}},{"type":"Polygon","arcs":[[-130,596,-548,-102,-575]],"properties":{"codigo":"70001100000000003602","sector":"700011000000000036","pcode":"CO70001","area_m2":76672}},{"type":"Polygon","arcs":[[597,-355,598,-579,599]],"properties":{"codigo":"70001100000000004907","sector":"700011000000000049","pcode":"CO70001","area_m2":83081}},{"type":"Polygon","arcs":[[-560,-418,-592,600,601]],"properties":{"codigo":"70001100000000004105","sector":"700011000000000041","pcode":"CO70001","area_m2":128212}},{"type":"Polygon","arcs":[[-550,-549,-597,-129,602]],"properties":{"codigo":"70001100000000003603","sector":"700011000000000036","pcode":"CO70001","area_m2":37188}},{"type":"Polygon","arcs":[[603,-562,-342,-122]],"properties":{"codigo":"70001100000000001208","sector":"700011000000000012","pcode":"CO70001","area_m2":100980}},{"type":"Polygon","arcs":[[-393,-243,-219,-437,-256,604]],"properties":{"codigo":"70001100000000002110","sector":"700011000000000021","pcode":"CO70001","area_m2":112588}},{"type":"Polygon","arcs":[[-604,-121,-507,-563]],"properties":{"codigo":"70001100000000001205","sector":"700011000000000012","pcode":"CO70001","area_m2":61179}},{"type":"Polygon","arcs":[[-509,-558,-577,-569,605,-544,-571]],"properties":{"codigo":"70001100000000003901","sector":"700011000000000039","pcode":"CO70001","area_m2":102821}},{"type":"Polygon","arcs":[[-525,-519,-576,-323,606]],"properties":{"codigo":"70001100000000004202","sector":"700011000000000042","pcode":"CO70001","area_m2":55306}},{"type":"Polygon","arcs":[[-133,-457,-521]],"properties":{"codigo":"70001100000000002701","sector":"700011000000000027","pcode":"CO70001","area_m2":36058}},{"type":"Polygon","arcs":[[-553,-331,-112]],"properties":{"codigo":"70001100000000002310","sector":"700011000000000023","pcode":"CO70001","area_m2":26414}},{"type":"Polygon","arcs":[[-496,-594,-565]],"properties":{"codigo":"70001100000000000202","sector":"700011000000000002","pcode":"CO70001","area_m2":61956}},{"type":"Polygon","arcs":[[-469,-148,-340]],"properties":{"codigo":"70001100000000001104","sector":"700011000000000011","pcode":"CO70001","area_m2":112857}},{"type":"Polygon","arcs":[[607,-158,-223,-246,608,-109,-471]],"properties":{"codigo":"70001100000000002305","sector":"700011000000000023","pcode":"CO70001","area_m2":241821}},{"type":"Polygon","arcs":[[-483,-275,609,-347,-454]],"properties":{"codigo":"70001100000000004903","sector":"700011000000000049","pcode":"CO70001","area_m2":32735}},{"type":"Polygon","arcs":[[-480,-446,-384,-146,610,611]],"properties":{"codigo":"70001100000000004503","sector":"700011000000000045","pcode":"CO70001","area_m2":178284}},{"type":"Polygon","arcs":[[-232,-314,-358,-532,612,613]],"properties":{"codigo":"70001100000000000304","sector":"700011000000000003","pcode":"CO70001","area_m2":129623}},{"type":"Polygon","arcs":[[-554,-110,-609,-245,-394,-605,-264,-440,614,615]],"properties":{"codigo":"70001100000000002103","sector":"700011000000000021","pcode":"CO70001","area_m2":907640}},{"type":"Polygon","arcs":[[-614,616,-511,-180,-233]],"properties":{"codigo":"70001100000000000302","sector":"700011000000000003","pcode":"CO70001","area_m2":57246}},{"type":"Polygon","arcs":[[-463,-221,-242]],"properties":{"codigo":"70001100000000002105","sector":"700011000000000021","pcode":"CO70001","area_m2":92857}},{"type":"Polygon","arcs":[[-490,-403,-413,-177,-26]],"properties":{"codigo":"70001100000000000501","sector":"700011000000000005","pcode":"CO70001","area_m2":78785}},{"type":"Polygon","arcs":[[-615,-441,-307,-481,-612,617]],"properties":{"codigo":"70001100000000005303","sector":"700011000000000053","pcode":"CO70001","area_m2":1036215}},{"type":"Polygon","arcs":[[-491,-31,-432,-573]],"properties":{"codigo":"70001100000000001702","sector":"700011000000000017","pcode":"CO70001","area_m2":62897}},{"type":"Polygon","arcs":[[-591,-142,-551,-603,-128,-574]],"properties":{"codigo":"70001100000000004302","sector":"700011000000000043","pcode":"CO70001","area_m2":68817}},{"type":"Polygon","arcs":[[-431,-445,618,-600,-578,-405]],"properties":{"codigo":"70001100000000005105","sector":"700011000000000051","pcode":"CO70001","area_m2":60680}},{"type":"Polygon","arcs":[[619,-540,620,-601,-526,-607,-322,621,-501,-583]],"properties":{"codigo":"70001100000000004401","sector":"700011000000000044","pcode":"CO70001","area_m2":980024}},{"type":"Polygon","arcs":[[-154,-588,-215,-388]],"properties":{"codigo":"70001100000000002302","sector":"700011000000000023","pcode":"CO70001","area_m2":72808}},{"type":"Polygon","arcs":[[-199,-593,-451,-396,-556,-536,622]],"properties":{"codigo":"70001100000000004002","sector":"700011000000000040","pcode":"CO70001","area_m2":107316}},{"type":"Polygon","arcs":[[-512,-617,-613,-531,-595]],"properties":{"codigo":"70001100000000000303","sector":"700011000000000003","pcode":"CO70001","area_m2":65550}},{"type":"Polygon","arcs":[[-386,-169,-298,-530,623,-359,-312]],"properties":{"codigo":"70001100000000000306","sector":"700011000000000003","pcode":"CO70001","area_m2":141486}},{"type":"Polygon","arcs":[[-539,-561,-602,-621]],"properties":{"codigo":"70001100000000004402","sector":"700011000000000044","pcode":"CO70001","area_m2":744444}},{"type":"Polygon","arcs":[[-99,-60,-53,-36,-587,-152,-295]],"properties":{"codigo":"70001100000000002402","sector":"700011000000000024","pcode":"CO70001","area_m2":136366}},{"type":"Polygon","arcs":[[-624,-529,-197,-187,-125,624,-360]],"properties":{"codigo":"70001100000000000811","sector":"700011000000000008","pcode":"CO70001","area_m2":126382}},{"type":"Polygon","arcs":[[-499,-622,-321,625,-584]],"properties":{"codigo":"70001100000000004403","sector":"700011000000000044","pcode":"CO70001","area_m2":207844}},{"type":"Polygon","arcs":[[-494,-391,-581,-299,-41,-606,-568]],"properties":{"codigo":"70001100000000003001","sector":"700011000000000030","pcode":"CO70001","area_m2":111606}},{"type":"Polygon","arcs":[[-356,-598,-619,-444,-429,-610,-274]],"properties":{"codigo":"70001100000000004902","sector":"700011000000000049","pcode":"CO70001","area_m2":51583}},{"type":"Polygon","arcs":[[-285,-229,-564,-238,-464,-428,-502]],"properties":{"codigo":"70001100000000000703","sector":"700011000000000007","pcode":"CO70001","area_m2":152452}},{"type":"MultiPolygon","arcs":[[[626]],[[627]]],"properties":{"codigo":"70001200312029000101","sector":"700012003120290001","pcode":"CO70001","area_m2":16713}}]}},"arcs":[[[2754,2929],[8,69],[26,26],[8,71],[18,40],[26,43]],[[2840,3178],[15,-6],[60,-3],[36,-12],[24,-33],[38,-24],[43,-36],[13,-18],[7,28],[42,-63],[86,21],[13,6],[4,-14],[-75,-18],[-22,-13],[-21,-7],[-9,-46],[1,-21],[-50,4],[1,-19],[16,-34],[-24,-7],[-19,33],[-12,28],[16,12],[3,24],[-48,-4],[-14,58],[-29,-4],[9,-46],[-30,-14],[-48,-7],[-45,-11],[3,-23],[11,-29],[11,-1],[14,-22],[29,-27],[-24,-30],[-12,20],[-29,-15],[-37,55],[-7,17],[25,11],[-22,35],[-32,-9],[3,15]],[[1534,8742],[-30,-40],[-24,-20],[-37,-36],[-55,-50],[-14,-23],[-32,-95],[-17,4],[-19,-7],[-11,10]],[[1295,8485],[5,11],[-28,12],[10,35],[23,-7],[15,47],[5,7],[13,-7],[30,40],[-17,22],[-70,82],[-21,29],[16,28],[8,-6],[-6,-12],[12,-3],[103,-56],[51,-20],[10,-9],[18,8],[51,64],[11,-8]],[[2301,6167],[130,-60],[12,22],[75,-25],[-11,-37],[-22,4],[-1,-26],[-20,2],[0,-18],[-59,9],[-4,23],[-28,19],[0,-11],[-30,2],[4,-41],[-56,-1],[-1,7],[-23,-2],[-1,-7],[-83,12],[6,17],[-76,-2],[11,72],[13,11],[27,4],[116,24],[21,2]],[[1979,6164],[20,0],[48,9],[24,-1],[29,-18],[-24,-38],[-33,9],[-25,1],[-2,-24],[-33,0],[-85,40],[-54,-1],[-37,-5],[-2,-7],[-25,0],[-61,-13],[-12,18],[-28,-9],[-11,26],[99,34],[72,12],[32,2],[23,-3],[63,-26],[22,-6]],[[2154,2993],[39,-10],[34,23],[15,-24],[30,-1],[13,12],[64,26],[51,-44],[21,-4],[0,-17],[-57,17],[-51,8],[-58,-18],[47,-20],[14,7],[8,-18],[14,7],[31,-3],[-7,-33],[1,-37],[-38,-6],[-35,-40],[-37,0],[-1,48],[-31,19],[-5,39],[-28,34],[-56,21],[-52,22],[-44,41],[16,9],[70,-51],[32,-7]],[[2754,2929],[-39,10],[1,7],[-40,18],[-15,-23],[-30,0],[-37,-10],[-81,8],[-2,36],[98,24],[20,1],[8,33],[11,18],[51,-21],[28,-8],[19,41],[18,-4],[11,57],[12,12],[-4,33],[30,44],[27,-27]],[[2602,3347],[80,-7],[0,14],[54,-12],[-9,-20],[0,-23],[-8,-25],[-41,26],[-29,8],[-37,-3],[-26,6],[-23,22],[9,23],[30,-9]],[[5197,2194],[12,-37],[58,1],[22,7],[4,-34],[-21,7],[-10,-5],[-36,1],[-8,6],[-55,5],[-14,-15],[-10,8],[-26,1],[-16,-29],[-23,-22],[3,-13],[-15,2],[-57,-21],[4,-18],[-12,-25],[-10,6],[-26,-25],[-5,-21],[-14,-15],[-16,1],[-32,-17],[3,-7],[-19,-11],[-8,18],[-45,-34],[-14,18],[-33,-63],[-18,-28],[-24,-18],[-50,-19],[-33,23],[14,33],[4,-2],[42,73],[-11,7],[28,54],[39,-19],[58,41],[44,21],[19,-6],[23,19],[20,6],[-9,10],[19,11],[10,18],[10,-6],[13,37],[28,6],[6,-8],[25,19],[25,25],[18,9],[22,-4],[34,8],[16,18],[31,8],[16,-5]],[[2913,1794],[58,-21],[35,-5],[32,-15],[-28,-19],[-26,12],[-76,24],[7,-25],[-11,-6],[-7,10],[-21,-14],[-59,36],[27,27],[-30,47],[-1,26],[-15,18],[-7,31],[-11,8],[31,24],[5,16],[21,31],[15,-12],[1,-13],[43,-58],[14,-14],[-39,-27],[17,-29],[-9,-6],[34,-46]],[[5873,2883],[-29,71],[-5,5],[98,103]],[[5937,3062],[73,76],[38,43]],[[6048,3181],[41,43],[-19,19],[36,39]],[[6106,3282],[66,-62]],[[6172,3220],[-32,-40],[-120,-156],[-107,-104]],[[5913,2920],[-40,-37]],[[6225,4487],[-95,20]],[[6130,4507],[35,204]],[[6165,4711],[1,17],[40,8]],[[6206,4736],[0,-4]],[[6206,4732],[-14,-43],[1,-21],[21,-38],[46,-41],[12,-20],[15,-12],[24,-10],[21,-15],[24,-9],[4,-7]],[[6360,4516],[-9,-12]],[[6351,4504],[-63,-17],[-63,0]],[[6003,4362],[-12,-42]],[[5991,4320],[-81,14],[13,46],[-58,13],[-51,-1]],[[5814,4392],[30,87]],[[5844,4479],[27,84],[26,-6]],[[5897,4557],[60,-15],[95,-19]],[[6052,4523],[-25,-81]],[[6027,4442],[-24,-80]],[[6594,4594],[21,-75],[23,-107],[30,-57],[-32,-14]],[[6636,4341],[-34,-11],[-5,26],[-36,14],[-18,-7]],[[6543,4363],[-5,11],[-34,39],[-29,42],[-69,45],[-37,17],[-9,-1]],[[6360,4516],[-9,47],[13,55],[2,29]],[[6366,4647],[27,-7],[30,-17],[61,-7],[69,-19],[41,-3]],[[6837,3450],[-29,41]],[[6808,3491],[-41,61]],[[6767,3552],[90,60]],[[6857,3612],[110,-57]],[[6967,3555],[-130,-105]],[[6767,3552],[-26,44]],[[6741,3596],[-16,25],[-27,20],[-23,13],[-44,30],[-23,22]],[[6608,3706],[53,67],[55,76]],[[6716,3849],[7,-47],[26,-59],[78,-105],[30,-26]],[[6783,3979],[-48,7],[-20,-3],[-36,-16]],[[6679,3967],[-12,56]],[[6667,4023],[26,14],[9,58]],[[6702,4095],[-4,76]],[[6698,4171],[81,20]],[[6779,4191],[41,-65],[63,-87],[14,-15],[51,-35],[-2,-7],[-27,1],[-62,16],[-6,-28],[-68,8]],[[6649,4303],[-13,38]],[[6594,4594],[32,7],[4,-30],[20,-31]],[[6650,4540],[41,-50],[20,-33],[34,-67],[25,-41]],[[6770,4349],[-121,-46]],[[6875,4614],[19,-51],[7,-30]],[[6901,4533],[-9,-49]],[[6892,4484],[1,-15],[-12,-58],[-16,-18],[0,-10],[-49,-19]],[[6816,4364],[-46,-15]],[[6650,4540],[35,28],[22,-29],[15,14],[4,22]],[[6726,4575],[30,-7],[23,108],[64,-13],[6,0],[-4,-31],[30,-18]],[[7038,4383],[31,-23],[48,-66],[34,-52]],[[7151,4242],[-25,-9],[-61,-14],[-50,-16],[-22,-2],[-34,9]],[[6959,4210],[-24,22],[-64,68]],[[6871,4300],[-53,58],[-2,6]],[[6892,4484],[15,-8],[30,17]],[[6937,4493],[12,-36],[18,-19],[71,-55]],[[4556,1619],[24,-27],[2,-15],[30,-9],[50,6],[26,-16],[6,-12],[0,-27],[-26,-13],[-22,38],[-38,1],[-25,-17],[5,-16],[-40,7],[-13,-6],[-1,11],[-88,-11],[-75,-47],[-44,-49],[-49,-13],[-80,-13],[-38,-12],[-34,-50],[-29,-31],[-10,16],[-6,-7],[-36,25],[24,35],[-48,7],[22,35],[20,-18],[38,7],[28,25],[29,14],[54,9],[77,37],[67,39],[43,28],[32,18],[34,-1],[44,12],[19,40],[23,15],[5,-15]],[[9719,1104],[-30,-39],[-25,-45],[1,-8],[-39,-66],[-48,-71],[-24,-40],[-64,-128],[-22,-21]],[[9468,686],[-10,13],[10,3],[20,49],[-29,14],[-17,14],[48,72],[2,1]],[[9492,852],[11,-6],[21,41],[-10,5],[21,58],[-30,10],[11,34],[5,-1],[11,31],[20,-5],[3,31],[-35,23],[8,26]],[[9528,1099],[18,-6],[15,8],[24,33],[35,38],[24,-22],[47,55]],[[9691,1205],[45,-21],[18,-22],[-48,-30],[1,-17],[12,-11]],[[9492,852],[15,44],[-31,14],[-16,-1],[-30,17],[-3,45],[-19,7],[-25,-5],[-38,1],[-77,19],[-37,90],[7,13],[25,0],[18,27],[13,6],[-8,17],[18,7],[32,24],[8,1],[38,-15],[20,-27],[10,3],[35,-9],[81,-31]],[[9738,881],[32,44],[-13,11],[23,33],[20,46],[-8,76],[-41,17],[-32,-4]],[[9691,1205],[33,70],[50,-17],[19,6],[36,-12],[16,29],[12,38],[28,-14],[40,37],[9,-9],[-30,-25],[-9,-13],[41,-24],[-8,-25],[-8,-2],[1,-19],[-13,12],[-36,10],[-15,-20],[-1,-15],[-26,-72],[-9,-42],[-13,-12],[-2,-23],[9,-33],[19,-8],[15,-14],[10,12],[15,-10],[9,-24],[-24,-8],[50,-71],[-1,-31],[40,-20],[-3,-32],[49,1],[5,-29],[-46,-2],[-5,-12],[17,-21],[-9,-31],[-31,13],[-13,-26],[-12,42],[-45,27],[-29,11],[13,53],[-59,52],[-9,2],[-30,-44],[-9,14],[6,7]],[[9738,881],[-20,4],[-30,-13],[-3,-32],[-16,7],[-14,-44],[-43,10],[-43,20],[-21,-45],[20,-23],[-32,-78],[-7,-21],[-41,-1],[-20,21]],[[1856,1871],[21,-14],[2,-25],[-17,-28],[-11,-2],[-9,18],[-50,13],[-26,-30],[-8,-26],[-16,-29],[-6,-31],[11,0],[2,-27],[-4,-46],[7,-14],[0,-33],[-6,-25],[31,-13],[34,18],[49,7],[10,-7],[15,8],[33,-14],[100,39],[20,1],[39,-10],[43,-19],[31,9],[41,-18],[27,6],[25,49],[18,15],[14,-22],[32,23],[22,27],[11,5],[37,1],[-4,14],[7,12],[27,8],[27,15],[21,-52],[-56,-60],[-7,4],[-19,30],[-12,4],[-2,-25],[7,-11],[-21,-7],[-12,3],[-35,-9],[-29,-25],[-9,-14],[19,-26],[-17,-15],[-15,14],[-11,-5],[-17,23],[-28,2],[-23,-28],[-16,-35],[-13,4],[-4,46],[-23,3],[-57,19],[-31,1],[-38,-14],[-38,-24],[-10,6],[-2,14],[-42,16],[-56,-2],[-24,3],[-44,-19],[2,-31],[-5,-40],[6,-13],[-12,-27],[4,-53],[-4,-60],[-10,-38],[-10,-17],[21,-7],[32,13],[20,-1],[26,-13],[4,-7],[41,0],[6,7],[13,-7],[-15,-14],[9,-57],[8,0],[9,-27],[12,-62],[10,-25],[35,-5],[58,0],[79,-5],[20,-6],[2,14],[22,-7],[1,-14],[28,-4],[11,-15],[19,-1],[10,-7],[50,-9],[-3,-9],[-29,3],[0,-12],[-18,1],[1,-15],[-16,1],[-10,23],[-22,8],[0,7],[-24,13],[-30,9],[-45,-4],[-79,-10],[9,-31],[0,-19],[27,6],[-1,-27],[-22,0],[6,-21],[35,3],[1,-11],[-14,6],[-19,-3],[6,-13],[-21,-6],[10,-20],[3,-28],[10,-26],[13,-14],[90,26],[6,-22],[-6,-10],[-9,15],[-31,-9],[-12,-50],[-43,-6],[-15,-12],[-21,-6],[-17,3],[10,22],[14,53],[-5,18],[1,32],[-13,42],[-14,31],[-23,27],[-27,-27],[-15,8],[8,22],[-4,51],[-12,18],[-9,33],[2,30],[-10,22],[-2,72],[-18,15],[-139,1],[-28,-36],[-13,12],[-26,-46],[-20,-19],[-42,-24],[7,-19],[-16,-15],[1,-16],[-12,-10],[6,24],[-3,22],[8,5],[-6,14],[25,29],[28,5],[14,13],[15,29],[27,29],[8,37],[22,48],[12,40],[-5,88],[4,53],[14,34],[-14,29],[-33,16],[-55,12],[-63,-12],[1,-37],[-6,-13],[-18,14],[-18,4],[-3,11],[17,31],[5,25],[20,-14],[53,5],[2,16],[55,-8],[32,-8],[9,32],[9,1],[-4,36],[0,58],[-35,-4],[3,16],[23,10],[-2,30],[9,17],[-2,21],[19,46],[-24,10],[9,14],[13,-11],[38,-9],[11,15],[17,-8],[18,34],[23,-24]],[[3306,4899],[10,-13],[9,6],[21,-12],[2,-22],[17,-29],[22,-9],[31,-33],[-32,-23],[5,-16],[-33,-15],[-22,-17],[-20,-22],[-24,-18],[-22,-5],[1,-15],[-12,-7],[-4,-16],[-9,-4],[-24,-26],[1,-9],[-14,-15],[12,-16],[-45,-69],[-14,18],[-11,-24],[7,-6],[-18,-13],[-11,3],[-12,-11],[37,-43],[-21,-32],[2,-16],[-21,18],[-2,17],[8,21],[-18,38],[-57,-8],[-72,-4],[-10,23],[23,9],[9,-18],[20,18],[15,3],[12,15],[15,-18],[34,0],[13,21],[18,2],[12,19],[7,32],[-8,5],[10,19],[13,8],[12,26],[26,23],[52,61],[23,6],[32,22],[3,-4],[20,15],[-3,11],[18,19],[13,26],[-11,9],[14,23],[-12,13],[-20,11],[-45,41],[6,15],[22,-8]],[[3737,4804],[1,-28],[-17,0],[-7,9],[-3,-49],[-11,-3],[-4,-34],[-26,-22],[-13,14],[-40,1],[10,23],[-34,18],[-14,-3],[-36,7],[-45,37],[-15,18],[3,8],[45,-32],[32,-15],[44,-6],[-8,46],[46,-7],[17,-9],[11,10],[24,0],[2,19],[38,-2]],[[3398,4951],[-7,-20],[-35,4],[2,10],[15,20],[25,-14]],[[3634,5779],[-46,24],[-65,19],[-53,5],[-48,1],[-53,24],[-35,5],[-29,-12],[-27,-6],[-21,10],[-10,17],[-21,48],[-19,15],[21,35],[26,75],[16,27],[-1,12],[-24,17],[-11,49],[5,14],[-29,6],[-31,-3],[-13,7],[-2,15],[6,24],[22,27],[37,37],[-37,17],[-32,41],[3,5],[-14,30],[3,9]],[[3152,6373],[8,6],[27,-16],[10,-15],[25,-16],[28,-5],[31,-11],[35,3],[35,14],[23,-5],[27,-16],[24,-20],[-6,-18],[27,-43],[12,-8],[11,-24],[26,-29],[8,36],[37,3],[-36,-82],[25,-35],[35,-61],[-16,-10],[7,-10],[17,6],[29,-47],[29,-40],[-18,-12],[2,-23],[10,-3],[11,-23],[20,-24],[-14,-44],[-9,-7],[2,-15]],[[3634,5779],[13,-54],[13,-30],[21,-30],[24,-28],[-16,-17],[-30,-20],[-16,-25],[11,-56],[0,-22],[-10,-4],[-18,12],[2,16],[-26,14],[14,50],[12,-3],[18,14],[6,31],[25,23],[-32,29],[-4,13],[-14,4],[9,27],[-11,24],[-19,6],[-9,22],[-19,4],[-11,23],[-60,7],[-16,7],[0,-13],[-23,6],[-15,-7],[-23,-2],[-1,-20],[-39,15],[-1,18],[-37,3],[-22,14],[-26,-8],[-12,4],[-8,-12],[-30,4],[2,12],[-10,15],[-27,13],[-15,-2],[6,21],[-18,-1],[2,43],[-36,5],[-39,-7],[-2,-27],[-34,-9],[-32,-3],[-2,25],[-35,-11],[-7,-19],[-28,-2],[-14,-7],[-53,-16],[-13,4],[-30,-12],[-18,5],[3,31],[-12,3],[10,27],[78,-20],[28,5],[-50,90],[12,15],[20,5],[23,21],[24,8],[26,0],[2,13],[15,17],[-10,22],[0,25],[36,2],[48,76],[34,63],[-21,8],[12,35],[-5,60],[-22,16],[-15,38],[-14,18],[-30,15],[-76,-9],[-19,7],[-32,47],[-18,21],[-89,65],[-8,-4],[-27,26],[-31,49],[3,12],[-12,34],[-22,18],[12,11],[-18,19],[-37,52],[-16,48],[21,5],[18,-45],[-6,-8],[13,-12],[5,-17],[29,26],[22,-24],[26,15],[36,-19],[18,-3],[19,-49],[-27,-12],[-43,-13],[18,-21],[-6,-7],[21,-10],[61,-68],[-9,-20],[71,-51],[2,-22],[14,-18],[11,15],[31,-7],[17,6],[7,-17],[26,0],[20,-9],[6,7],[20,-11],[13,8],[10,-12],[-13,-10],[19,-9],[7,-18],[21,-19],[1,-12]],[[5002,913],[11,-5],[19,9],[9,-13],[-11,-13],[28,-29],[43,-16],[19,-13],[10,-17],[45,-104],[20,27],[32,-35],[13,28],[13,-8],[18,48],[36,-20],[12,19],[-34,16],[72,45],[13,27],[17,-9],[11,30],[39,-18],[-39,-103],[-21,-53],[-50,-136],[-15,-35],[-29,-77],[-19,-62],[-4,-26],[2,-69],[15,-65],[12,-30],[53,-92],[-30,-36],[-22,-39],[-6,6],[-33,-45],[-112,119],[24,27],[-26,32],[-59,67],[-37,26],[-13,-8],[-18,5],[-7,-29],[-17,-20],[-40,-10],[-20,3],[20,55],[16,23],[-38,12],[28,26],[14,31],[10,14],[18,9],[1,37],[-20,28],[-24,-8],[-9,17],[-13,44],[-4,32],[-13,27],[-36,7],[16,26],[10,23],[7,30],[70,-43],[-11,-12],[21,-17],[5,-13],[-10,-7],[8,-61],[53,-1],[1,19],[38,-1],[4,-15],[29,0],[6,-14],[28,-2],[13,28],[16,14],[-9,11],[21,-4],[28,25],[-18,14],[17,15],[-8,8],[36,25],[0,12],[-54,37],[-31,36],[-34,-28],[-37,29],[4,6],[-13,16],[25,10],[10,-6],[18,13],[-14,20],[-14,40],[-27,11],[-29,19],[4,6],[-22,19],[-7,-14],[-26,9],[-11,-12],[-25,19],[30,18],[-25,26],[19,22],[14,-9]],[[1534,8742],[41,51],[14,42],[4,75],[16,42],[7,27],[-4,32],[-51,89],[-3,17],[13,54],[20,41],[-3,10],[-22,13],[-12,-2],[-4,13],[10,24],[8,-3],[27,63],[15,8],[9,-18],[-4,-22],[-20,-37],[-5,-20],[3,-24],[16,7],[-2,-25],[24,-62],[-29,0],[-10,-35],[26,-11],[11,-30],[7,-36],[-3,-31],[-10,-18],[-5,-59],[20,-7],[12,-15],[-12,-35],[-33,-1],[-1,-21],[19,0],[0,-23],[-18,0],[-23,-24],[-7,-16],[-22,-25],[-18,-29],[-7,-29],[-15,-35],[11,-7],[-24,-79],[-22,3],[-7,-17],[-12,3],[-15,-26],[38,-29],[53,-17],[-11,-52],[-47,12],[-52,7],[-11,-64],[3,-33],[35,-17],[45,-18],[1,-6],[-24,-37],[50,-38],[-37,-46],[-18,-27],[-40,34],[-16,7],[-41,39],[-6,-1],[-30,-73],[16,-12],[-22,-20],[-32,-74],[-22,-73],[-27,-8],[-14,-55],[-18,-53],[-20,-30],[-25,-1],[8,-26],[-16,-12],[-26,-32],[0,-25],[14,-16],[32,-15],[17,-22],[17,-2],[20,-14],[20,-7],[23,10],[26,1],[23,-11],[25,6],[20,-15],[35,13],[7,66],[54,5],[-16,-129],[-95,21],[-86,16],[-206,44],[-105,20],[-89,20],[4,29],[180,-44],[12,17],[-18,5],[13,15],[22,-5],[12,9],[16,31],[10,30],[-22,7],[3,11],[-76,20],[-48,23],[20,47],[77,-39],[44,41],[16,0],[17,11],[24,4],[19,32],[-19,20],[3,36],[10,9],[34,9],[68,167],[3,17],[-14,39],[-47,23],[-115,32],[-61,31],[9,49],[31,14],[63,-30],[21,-5],[6,52],[54,-16],[12,10],[25,-2],[2,33],[11,8]],[[3658,7808],[17,-1],[-40,-11],[-62,-22],[-3,-4],[-24,-86],[3,-74],[14,-123],[6,-37],[28,0],[20,7],[10,11],[33,17],[18,3],[36,-16],[40,-57],[26,-16],[4,-21],[30,-35],[5,-17],[-15,-33],[-2,-17],[12,-28],[-9,-1],[-12,-24],[-4,-35],[11,-21],[3,-42],[-9,-27],[-21,-17],[-5,-32],[-30,-40],[-28,-4],[-27,-15],[-5,-13],[-26,3],[-34,30],[-9,16],[-33,30],[-19,8],[14,32],[0,32],[-12,9],[-1,16],[28,10],[-4,38],[-8,31],[8,9],[-11,15],[32,10],[-36,73],[-25,-16],[-11,19],[-20,19],[-40,-23],[-42,83],[43,10],[-13,47],[0,13],[29,9],[-1,11],[-53,-6],[-6,66],[21,2],[-5,30],[65,7],[-4,28],[-58,0],[-11,70],[16,1],[16,93],[2,24],[-11,18],[-30,16],[39,3],[-3,26],[34,-16],[146,-62],[13,-3]],[[4242,8319],[-8,-11],[-13,9],[-16,-12],[7,-11],[-17,-10],[-7,-23],[-10,-9],[0,-35],[14,-24],[39,-42],[16,-29],[13,-12],[4,-19],[19,-47],[20,-8],[10,9],[-18,65],[-6,52],[22,0],[-1,-17],[10,0],[2,-48],[15,-41],[7,-30],[-119,-8],[25,-113],[93,-24],[1,10],[53,-19],[15,-2],[-3,-10],[11,-21],[-2,-14],[-11,-7],[-62,7],[-42,-71],[-37,74],[-21,-5],[5,-30],[-94,39],[24,10],[2,25],[-7,57],[-37,92],[-19,136],[-12,1],[8,68],[-24,9],[2,47],[67,69],[36,83],[75,-23],[-19,-51],[4,-18],[-14,-18]],[[4477,7567],[-38,-56],[-42,41],[9,9],[-29,38],[-14,13],[-4,19],[33,23],[15,-8],[25,-21],[46,-55],[-1,-3]],[[4084,1158],[-6,-23],[-26,14],[-14,-29],[5,-19],[-16,-44],[3,-12],[24,-21],[18,-32],[25,1],[6,-24],[-6,-14],[28,-47],[-27,-17],[-49,-49],[20,-4],[36,14],[37,22],[24,-26],[47,27],[15,-23],[49,21],[13,-14],[13,3],[62,-10],[55,-36],[36,-9],[44,15],[19,-11],[14,-2],[-8,-23],[-4,-45],[45,0],[13,5],[54,-33],[91,-18],[13,-6],[-14,-25],[-38,12],[-26,-21],[-41,0],[4,6],[-26,17],[-26,8],[-39,-3],[-44,18],[-53,-42],[-28,-11],[-15,-23],[-16,7],[16,23],[-20,14],[30,65],[18,54],[-47,43],[-37,12],[-43,1],[-14,-7],[18,-24],[-43,-20],[-51,-18],[-10,28],[-38,-13],[-25,-16],[-10,-35],[-13,-19],[-41,8],[16,32],[-23,4],[-22,-3],[-65,16],[-30,-19],[-21,0],[-2,17],[-9,-12],[2,-12],[-10,-19],[-13,-8],[-25,25],[-22,14],[-37,-27],[-23,28],[69,47],[-21,21],[17,22],[16,-13],[57,75],[22,-32],[-38,-52],[37,-24],[16,14],[42,3],[18,-15],[18,23],[-14,34],[-15,25],[29,80],[-18,44],[-29,59],[11,20],[-51,42],[-21,-29],[-112,16],[-60,12],[7,23],[31,-6],[1,36],[22,0],[1,-19],[61,-4],[42,12],[-2,13],[48,32],[20,-17],[-15,-19],[39,-47],[32,62],[4,31],[42,-41],[-3,-34]],[[215,9937],[96,-47],[55,-23],[-12,-32],[-3,-20],[-26,-65],[53,-20],[-7,-25],[-34,13],[-12,-8],[-16,2],[-20,-41],[-22,-30],[-25,-73],[-12,-17],[14,-9],[-16,-22],[-21,6],[-40,-48],[-21,18],[42,47],[25,47],[55,95],[14,21],[53,144],[-182,86],[-39,-34],[45,-26],[-14,-19],[-48,11],[-23,10],[-11,13],[-44,-36],[-19,23],[34,28],[28,93],[83,-36],[9,0],[61,-26]],[[1348,2073],[14,-34],[4,23]],[[1366,2062],[24,-4],[21,-44],[-3,-13],[10,-33],[3,-27],[26,-47],[-8,-10],[43,-31],[7,10],[18,-12],[23,-6],[16,-52],[8,-1],[3,-18],[-16,-6],[1,-30],[-17,0],[-2,18],[-8,11],[15,8],[-39,47],[-46,36],[-22,9],[-32,50],[-6,-2],[-8,20],[8,7],[-7,37],[-46,-22],[-7,18],[41,17],[-3,17],[-27,29],[4,15],[-14,18],[22,2]],[[1348,2073],[-3,9],[-21,17],[-13,-7],[-20,34],[-19,53],[-7,-3],[-20,21],[2,9],[-22,12],[-13,13],[-14,-11],[-21,12],[7,14],[-26,24],[-36,24],[-31,6],[-4,-16],[-27,13],[14,26],[33,-9],[57,-25],[23,-25],[21,34],[29,-23],[16,-27],[19,-10],[13,8],[5,-12],[0,-29],[10,-4],[1,-24],[22,-25],[0,-20],[13,-25],[37,-22],[-7,-23]],[[6595,1995],[-16,-46],[-6,-9],[-62,10],[-30,-9],[-17,-33],[-18,5],[-1,27],[7,24],[-32,7],[15,65],[-26,7],[7,30],[56,-13],[42,-7],[-3,-13],[19,-5],[-4,-15],[75,-5],[-6,-20]],[[3341,1296],[16,-22],[26,-45],[52,-28],[17,46],[17,-16],[4,-26],[-3,-31],[-9,-3],[-18,-62],[-16,-28],[-3,-34],[-19,-21],[-8,-25],[-15,-23],[10,-6],[-17,-37],[-48,-61],[-14,-34],[3,-34],[-28,-66],[-7,-12],[-19,13],[11,18],[-53,39],[14,62],[8,23],[20,6],[8,24],[18,11],[-17,12],[-16,1],[8,13],[26,24],[-6,13],[8,43],[-30,13],[-9,28],[49,22],[2,30],[72,84],[-37,37],[-31,-2],[-46,25],[26,19],[40,0],[14,10]],[[4871,1236],[31,-11],[150,-61],[88,-34],[10,7],[31,-23],[-11,-47],[11,-3],[-26,-27],[-4,5],[-20,-25],[-14,-1],[14,21],[-17,5],[-9,16],[13,6],[-23,15],[-10,27],[-157,-10],[-42,-1],[-61,26],[-18,12],[-4,10],[-38,14],[-36,30],[-6,33],[30,10],[27,24],[19,-20],[18,25],[28,13],[16,-32],[10,-4]],[[6902,4667],[-14,-4],[-13,-49]],[[6726,4575],[-29,7],[15,52]],[[6712,4634],[-3,28],[-18,42],[1,18],[9,20],[27,38]],[[6728,4780],[72,-39],[28,136],[34,-11],[-16,-44],[35,-5]],[[6881,4817],[0,-36],[21,-114]],[[6927,6171],[0,-26],[11,-53]],[[6938,6092],[5,-36],[-7,-51],[-14,-49],[19,10],[22,2],[33,-14],[16,4],[27,24]],[[7039,5982],[23,14],[-11,18],[65,-12],[42,-12],[11,55],[47,-27],[21,-7]],[[7237,6011],[47,-21],[-1,-31],[13,-20],[-24,-4],[-9,7],[-14,-22],[2,-24],[-7,-28],[-9,-5],[-17,-28],[-21,2],[-12,-11],[45,-24],[12,-14],[-3,-9],[23,-11],[17,-15],[9,-17],[-13,-20]],[[7275,5716],[-37,-16],[-15,-21],[-22,15],[-32,-38],[-69,-73],[-17,-29]],[[7083,5554],[-46,24],[-47,10],[-42,14],[0,-11],[25,-6],[-15,-56],[-40,-36],[-28,-28],[-11,-19]],[[6879,5446],[-58,37],[-43,16],[5,57],[-33,-1]],[[6750,5555],[-7,33],[-2,55],[-6,46],[-6,18],[-48,-10],[6,13],[-2,24],[-28,-2],[-1,8]],[[6656,5740],[64,9],[-12,51],[-19,58]],[[6689,5858],[26,8],[23,16],[-11,39],[-11,-4],[-9,32],[-10,-3],[-21,67],[-5,10]],[[6671,6023],[15,18],[30,-16],[-11,-21],[78,-42],[17,26],[-14,60],[22,13],[10,18],[-9,4],[7,15],[-135,70]],[[6681,6168],[-8,61],[-10,46],[-6,11]],[[6657,6286],[50,-17],[46,-21],[9,-13],[15,2],[134,-67],[16,1]],[[6679,3967],[-5,-4],[24,-45],[8,-21],[10,-48]],[[6608,3706],[-22,79],[-33,106],[-73,-45],[-25,-17]],[[6455,3829],[1,7],[-22,50],[-11,34],[-2,25],[6,39]],[[6427,3984],[48,5],[52,15],[-3,16],[25,13],[20,-48],[19,-30],[56,52],[23,16]],[[5813,3247],[-40,-30],[72,-67]],[[5845,3150],[-125,-133]],[[5720,3017],[-31,-1],[1,-22],[-9,0],[-6,-24],[-95,36]],[[5580,3006],[25,250]],[[5605,3256],[5,64]],[[5610,3320],[3,25]],[[5613,3345],[72,1],[52,3],[42,-38],[20,-45],[14,-19]],[[7284,4770],[-28,-24]],[[7256,4746],[-122,-63],[-28,58],[-48,-21]],[[7058,4720],[-16,34]],[[7042,4754],[-2,31],[20,5],[-2,32]],[[7058,4822],[2,10]],[[7060,4832],[53,-41],[14,17],[72,70]],[[7199,4878],[40,-54]],[[7239,4824],[21,-30],[24,-24]],[[7434,3229],[-23,11],[-5,-33],[-15,-56],[-37,7],[10,37],[11,58]],[[7375,3253],[25,106],[13,40]],[[7413,3399],[59,-18]],[[7472,3381],[-7,-24],[-31,-128]],[[7158,4531],[-21,-28]],[[7137,4503],[-58,-76],[-41,-44]],[[6937,4493],[133,45],[53,20]],[[7123,4558],[1,-26],[34,-1]],[[5275,5052],[25,-18],[52,-31],[20,28],[33,-20],[38,-36]],[[5443,4975],[-35,-34],[-39,-57]],[[5369,4884],[-17,9],[-33,26],[-52,29],[-33,22],[-7,-9],[-31,36],[-25,23],[-9,30],[-81,-33],[-32,-7],[-37,17],[-14,-12],[5,30],[-11,9],[14,22],[12,6],[12,-11],[42,1],[26,16],[22,25],[17,-2]],[[5137,5111],[27,-15],[13,-63],[9,-12],[29,-21],[60,52]],[[5495,2864],[25,-30],[-6,-4]],[[5514,2830],[-47,-54],[-38,-19],[-33,-8],[-34,6]],[[5362,2755],[-20,-6],[-19,-23],[-20,-16],[-28,-30]],[[5275,2680],[-13,-12],[-5,-33],[21,-31],[11,-28],[-13,-16],[-42,-5],[-65,11],[-2,52],[-56,5],[-17,144],[-14,-6],[-8,14],[21,10],[-10,82],[32,6],[9,-60],[44,25],[3,-10],[51,-53],[49,24],[-15,26],[21,11],[12,-22],[21,12],[10,-41],[37,12],[30,-4],[45,11],[20,17],[7,46],[36,-3]],[[6728,4780],[-45,-4],[-10,24],[-35,-13],[-30,-6],[-19,-9]],[[6589,4772],[-127,-36],[9,-42],[-79,-3],[-2,-38],[-25,2]],[[6365,4655],[-1,53],[6,62],[10,40]],[[6380,4810],[26,-4],[24,-26],[106,27],[-5,15],[20,2],[20,-7]],[[6571,4817],[35,-3],[19,13],[30,30],[30,18],[21,17]],[[6706,4892],[33,24],[18,8]],[[6757,4924],[-27,-126],[-2,-18]],[[6900,5278],[24,4],[66,-23],[33,4],[47,-27],[129,-78],[69,-7],[7,63]],[[7275,5214],[5,11],[51,-13],[26,0],[25,-70],[22,-4],[-16,-42],[-9,-1],[-16,-25]],[[7363,5070],[-52,-17],[-29,10],[-33,0]],[[7249,5063],[-11,2],[-62,38],[-8,2]],[[7168,5105],[-25,6],[-36,23],[-17,21],[-18,1],[-35,-26],[-34,-6],[-54,-5],[-26,6],[-10,-18],[-19,-12]],[[6894,5095],[-14,10],[-26,-36],[-49,35],[-33,-48],[-65,14]],[[6707,5070],[-51,7],[-40,4],[1,34]],[[6617,5115],[25,12],[48,33],[18,26]],[[6708,5186],[58,-30],[-5,-9],[33,-18],[43,61],[-31,25],[17,43],[23,26],[53,-11],[1,5]],[[5794,3901],[3,-45],[-5,-41],[-14,-14]],[[5778,3801],[-4,12],[-18,16],[-31,2],[-52,0],[0,27],[-22,0]],[[5651,3858],[-3,32],[10,-1],[1,48]],[[5659,3937],[49,0]],[[5708,3937],[46,-1],[-1,-46],[41,11]],[[6957,3152],[0,-6],[-32,-10],[-91,-25],[-20,-2]],[[6814,3109],[-5,19],[-16,16],[4,22],[22,3],[-3,25],[-10,22],[18,16],[-8,12]],[[6816,3244],[23,10],[69,17]],[[6908,3271],[28,-73]],[[6936,3198],[21,-46]],[[5814,4392],[-10,-69],[-6,-71],[2,-15]],[[5800,4237],[-42,-6],[0,14]],[[5758,4245],[6,122],[-46,2],[-45,5]],[[5673,4374],[6,24],[4,70],[-24,3]],[[5659,4471],[3,25],[82,-8]],[[5744,4488],[-3,-12],[22,-1],[16,50],[10,-14],[1,-25],[54,-7]],[[5957,3510],[-27,-63],[65,-36]],[[5995,3411],[24,-15]],[[6019,3396],[15,-11]],[[6034,3385],[-23,-16],[-21,-23],[-23,-11],[-26,-3],[-61,-36],[-9,-11],[-58,-38]],[[5613,3345],[3,56]],[[5616,3401],[40,21],[70,75],[-27,28],[1,49]],[[5700,3574],[66,-1],[48,-45],[76,80]],[[5890,3608],[17,-15],[-8,-10],[13,-12],[-9,-10],[16,-12],[-20,-21],[35,-35],[13,21],[10,-4]],[[7194,5536],[-11,-30],[-10,2],[-12,-36],[-49,15],[4,10],[-1,38],[-32,19]],[[7275,5716],[-14,-14],[-25,-33],[32,-26],[-33,-42],[-41,-65]],[[5514,1314],[-23,-37],[-31,-44],[-11,-21],[-4,-29],[-27,-10],[-52,-25],[-30,8],[-14,26],[15,8],[-5,19],[41,3],[0,32],[32,-5],[-14,44],[2,110],[-1,44],[-17,44],[-19,60],[-22,-13],[-24,22],[-10,21],[25,10],[4,-7],[63,26],[45,-10],[8,44],[54,-6],[2,12],[84,-8],[12,43],[-23,36],[-46,5],[4,39],[-67,-4],[5,25],[-21,53],[-10,-3],[-5,16],[-14,-5],[-6,93],[49,7],[26,8],[13,30],[-33,200],[7,7]],[[5476,2182],[18,18],[21,35],[-30,17],[4,18],[-30,19],[-4,20],[14,-4],[22,44],[11,-7],[31,48],[17,-12],[36,57],[26,32],[-20,14],[17,26]],[[5609,2507],[48,-19],[37,42]],[[5694,2530],[0,-32],[11,-59],[10,-30],[9,-7],[29,-80],[13,-57],[-15,-13],[7,-119],[17,-105],[6,-47],[1,-40],[-3,-15],[-45,-133],[-25,-70],[-19,-39],[-19,-13],[-9,-14],[-119,-147],[-21,-30],[-7,-50],[6,-85],[-7,-31]],[[5616,3401],[-6,38],[-22,52],[58,63],[-9,20]],[[5637,3574],[63,0]],[[7634,3596],[41,-12],[14,0],[18,15],[31,-10]],[[7738,3589],[20,-9],[47,-43],[9,-20],[-15,-17],[65,-33],[-19,-29],[-24,-27],[-22,-14],[3,-19],[-47,-53],[-38,-30],[-5,0]],[[7712,3295],[-15,31],[-23,18],[-8,13],[-18,12],[-14,33],[-26,6],[-19,27],[-38,28],[-10,13],[-48,16]],[[7493,3492],[-54,15]],[[7439,3507],[6,29],[-25,7],[21,82]],[[7441,3625],[84,-17],[16,0],[11,-32],[42,11],[9,-9],[31,18]],[[7011,3107],[-16,-15],[-17,25]],[[6978,3117],[-21,35]],[[6957,3152],[87,71],[18,-24],[26,22]],[[7088,3221],[11,8]],[[7099,3229],[11,-15]],[[7110,3214],[-110,-91],[11,-16]],[[6380,4810],[-31,-8],[-36,-27],[-12,-4],[8,-11],[-39,-14],[-9,-8],[-37,0],[-18,-6]],[[6206,4736],[-9,30],[-13,26]],[[6184,4792],[38,26],[60,43],[43,29],[-22,26],[60,44]],[[6363,4960],[26,-14],[26,-4]],[[6415,4942],[-35,-132]],[[6244,5120],[-30,2]],[[6214,5122],[-2,27],[-8,34],[-9,13]],[[6195,5196],[16,12],[45,16]],[[6256,5224],[137,47],[35,15]],[[6428,5286],[10,-10]],[[6438,5276],[-43,-35],[-24,-27],[-29,-21],[-47,-27],[-39,-17],[-12,-2],[0,-27]],[[6708,5186],[15,24],[13,32],[4,64]],[[6740,5306],[69,-28],[24,17],[50,-10],[17,-7]],[[6279,3629],[-4,-67],[-7,-42],[7,-26],[-8,-88]],[[6267,3406],[-41,20],[-25,6],[-40,5],[-28,-9],[-71,-11],[-33,-8],[-10,-13]],[[5995,3411],[6,21],[50,113],[-61,32]],[[5990,3577],[8,18],[-5,19]],[[5993,3614],[46,17],[12,17],[8,-1],[11,22],[-7,19],[73,-20]],[[6136,3668],[93,-27],[50,-12]],[[5758,4245],[-47,2]],[[5711,4247],[-31,3],[-3,-80],[0,-81],[-53,1]],[[5624,4090],[3,3],[3,102],[-3,18],[6,19],[-2,48],[-15,30]],[[5616,4310],[51,-5],[6,69]],[[6553,3635],[-21,36],[-61,118],[-16,40]],[[6608,3706],[-55,-71]],[[5960,3683],[-53,31],[-60,58],[-17,-17],[-13,25]],[[5817,3780],[17,11],[28,28],[69,34],[50,28]],[[5981,3881],[43,-73]],[[6024,3808],[20,-32],[-33,-12],[19,-53],[-60,-21],[-10,-7]],[[6617,5115],[-35,-11],[-28,-14]],[[6554,5090],[-14,15],[-103,11]],[[6437,5116],[5,18],[20,32],[11,24],[2,18],[-8,31],[-29,37]],[[6428,5286],[-1,1]],[[6427,5287],[44,36],[53,-19],[14,24],[18,44],[18,2],[-7,7]],[[6567,5381],[54,50],[5,11],[-14,29],[15,9],[4,21],[25,15],[8,31],[86,6]],[[6750,5553],[-2,-72],[-13,-37],[-20,-41],[-6,-23],[6,-24],[25,-50]],[[6554,5090],[-13,-9],[-50,-49],[-49,-42],[-21,-20]],[[6421,4970],[16,44],[-4,58]],[[6433,5072],[4,44]],[[6698,4171],[-19,49]],[[6679,4220],[-18,43],[-12,40]],[[6871,4300],[-115,-46],[9,-34],[14,-29]],[[7101,3109],[-24,30],[-35,-30],[-13,14],[-18,-16]],[[7110,3214],[34,-44]],[[7144,3170],[11,-15],[-54,-46]],[[6219,5497],[15,-35],[15,-26],[-2,-30],[6,-22],[-24,-12],[4,-30]],[[6233,5342],[-32,-8],[-2,4],[-42,-6],[-3,8],[-36,-16]],[[6118,5324],[-5,4],[-62,-24],[-21,-43]],[[6030,5261],[-44,3],[-24,-84],[-19,-59]],[[5943,5121],[-14,-41]],[[5929,5080],[-27,12],[-11,-17],[-42,20],[-6,6],[19,36],[-3,12],[-23,6],[9,23],[-17,17],[-51,-10],[-11,2],[-21,-18],[-21,-9],[-59,5]],[[5665,5165],[-7,14],[3,13],[-22,-10],[-14,3],[-7,22],[-11,3],[-29,49],[15,7],[-10,10],[11,4],[97,89],[62,52],[-39,44],[0,5]],[[5714,5470],[12,1],[16,-11],[27,3],[46,11],[35,13],[22,-4]],[[5872,5483],[18,-20],[23,-11],[35,-9],[17,3],[23,-11],[17,-29],[28,-4],[33,6],[27,-3],[8,22],[30,15],[6,13],[31,33],[32,9],[19,0]],[[7413,3399],[-29,11]],[[7384,3410],[12,24],[-37,18],[12,30],[13,49]],[[7384,3531],[55,-24]],[[7493,3492],[-3,-15],[-15,4],[-16,-68],[23,-8],[-10,-24]],[[5919,3962],[5,-11],[-87,-21],[5,-19],[-48,-10]],[[5708,3937],[2,152]],[[5710,4089],[85,14],[4,-34],[25,4],[-7,50],[70,8],[0,16]],[[5887,4147],[10,-12],[5,-54],[-6,-18],[17,-37],[-18,-11],[24,-53]],[[7328,2760],[-16,2],[-31,26],[-14,22],[-23,53],[-30,42]],[[7214,2905],[31,1],[14,11]],[[7259,2917],[30,15]],[[7289,2932],[7,-7],[48,54],[23,19],[48,22],[23,-63],[-5,-3],[12,-37],[-3,-43],[-13,-3],[11,-29],[-43,-22],[-4,-37],[-22,11],[-49,56],[-14,-7],[-28,37],[-16,-7],[16,-41],[20,-38],[28,-34]],[[6048,3181],[-89,85],[-4,3]],[[5955,3269],[84,88],[10,18]],[[6049,3375],[14,-9],[44,-43],[18,-22],[-19,-19]],[[6421,4970],[-6,-28]],[[6363,4960],[-16,13],[-1,12],[-52,-8],[-53,-12],[-25,-20],[-63,-44],[-30,-30]],[[6123,4871],[-15,12],[-11,22]],[[6097,4905],[11,43],[53,-6],[1,65],[214,-2],[0,68],[57,-1]],[[6410,3755],[-34,-81],[-19,-54],[-24,-3],[-54,12]],[[6279,3629],[0,15],[-15,47],[-32,37],[-4,17],[9,16],[22,17],[3,30],[-8,21]],[[6254,3829],[2,19],[45,15],[9,22],[19,31],[-2,-14],[21,-70],[-22,1],[11,-30],[-6,-17],[79,-31]],[[5890,3608],[70,75]],[[5960,3683],[15,-15],[18,-54]],[[5990,3577],[-33,-67]],[[5737,2625],[3,13],[88,186],[22,34],[23,25]],[[5913,2920],[13,-8],[-7,-26],[-2,-34],[-13,-29],[2,-38],[8,-32]],[[5914,2753],[-157,-110],[-20,-18]],[[6427,3984],[20,47],[6,37]],[[6453,4068],[24,10],[134,39],[33,12],[10,-47],[48,13]],[[6712,4634],[-40,6],[-6,57],[-39,-3],[-3,14],[-35,64]],[[5778,3801],[-6,-28],[-25,-26],[3,-9]],[[5750,3738],[-42,-30]],[[5708,3708],[-3,21],[-22,-11],[-21,6],[-17,27],[11,3],[0,74],[-6,0],[1,30]],[[6837,3450],[-78,-62]],[[6759,3388],[-123,-99]],[[6636,3289],[-6,13],[-8,50],[-18,36]],[[6604,3388],[62,31],[32,19],[67,43],[13,-16],[30,26]],[[5665,5165],[-19,-9],[-15,-25]],[[5631,5131],[-27,12]],[[5604,5143],[-9,14],[-17,5],[-24,21],[-26,31],[-26,58]],[[5502,5272],[-8,12],[-70,57]],[[5424,5341],[38,21],[15,12],[40,42],[21,0],[48,13],[58,55],[40,18],[30,-32]],[[6580,3433],[-31,80]],[[6549,3513],[-32,76]],[[6517,3589],[36,46]],[[6741,3596],[-82,-50],[29,-45],[-108,-68]],[[5647,3935],[-111,6],[-1,-22],[-16,1]],[[5519,3920],[3,176]],[[5522,4096],[102,-6]],[[5624,4090],[-2,-43],[10,0],[2,-71],[4,-20],[10,-2],[-1,-19]],[[6636,3289],[-158,-127]],[[6478,3162],[-17,-14]],[[6461,3148],[-113,74],[26,-6],[27,5]],[[6401,3221],[52,41],[22,21],[-29,32],[79,89],[9,-9],[46,38]],[[6580,3433],[24,-45]],[[7691,4875],[37,-26]],[[7728,4849],[-30,-33],[-42,-32],[-39,-35],[-26,-42],[-54,-23]],[[7537,4684],[-99,94],[0,6]],[[7438,4784],[28,79],[9,17],[29,32],[-27,36],[-16,8]],[[7461,4956],[5,6],[-41,36]],[[7425,4998],[43,48],[19,-16],[28,0],[1,19],[31,-1],[9,-22],[-3,-88],[-11,-43],[57,-70],[18,24],[8,-5],[14,17],[13,-4],[8,14],[28,-8],[3,12]],[[6517,3589],[-63,-78],[-20,-19],[-111,-84],[-11,-11]],[[6312,3397],[-19,-23]],[[6293,3374],[-26,32]],[[6410,3755],[9,23],[18,33],[18,18]],[[6671,6023],[-30,16]],[[6641,6039],[34,54],[3,22],[3,53]],[[7060,4832],[33,84],[38,-20],[14,19],[-25,15],[11,17],[39,25]],[[7170,4972],[26,-40],[-40,-26],[44,-26],[-1,-2]],[[5700,3574],[1,59],[5,15],[82,-1],[8,-2],[18,36]],[[5814,3681],[76,-73]],[[5748,2848],[30,3],[82,31],[13,1]],[[5737,2625],[-29,-42]],[[5708,2583],[-18,35],[-51,123],[-28,-37]],[[5611,2704],[-8,8],[-43,66],[-5,15],[-18,-8],[-23,45]],[[5495,2864],[23,4],[42,34],[-7,35],[4,-1],[2,42],[-7,11],[3,18],[-21,9],[13,43],[1,43],[11,81],[-9,1],[5,45],[17,30],[33,-3]],[[5580,3006],[-5,-55],[3,-45],[8,-38],[9,-22],[43,-6],[64,7],[46,1]],[[7222,6248],[-4,-88],[-12,-43],[-29,-8],[-10,-21],[-15,2],[-64,-6],[-82,4]],[[7006,6088],[-68,4]],[[6927,6171],[1,19],[19,96],[-2,27]],[[6945,6313],[-3,22],[7,18],[23,41],[8,24],[30,55],[26,-13],[35,-47],[37,-27],[41,-7],[88,4],[25,7],[8,9],[47,-39],[-21,-19],[-48,-51],[-16,-21],[-10,-21]],[[7223,3068],[-19,-16],[-11,14],[-37,-30]],[[7156,3036],[-55,73]],[[7144,3170],[19,13],[19,-26],[29,-31],[-21,-16],[11,-14],[17,15],[23,-28],[-18,-15]],[[7384,3531],[-31,24],[5,19],[12,-3],[7,39],[-21,4],[8,41]],[[7364,3655],[2,13],[80,-16]],[[7446,3652],[-5,-27]],[[7328,2760],[15,-11],[-21,-11],[-25,0],[-23,-7],[6,-13],[-16,-10],[5,-12],[26,-26],[27,-18]],[[7322,2652],[-1,-14],[17,-6],[3,-30],[-6,-8],[-27,4],[-112,28],[-34,10],[-7,9]],[[7155,2645],[-75,176],[2,1],[-30,78]],[[7052,2900],[9,-6],[34,9],[22,-14],[24,5],[22,-9],[51,20]],[[5209,4357],[-8,-23],[-25,-3],[4,-15],[12,5],[45,-17],[56,-16],[0,-9],[94,-9],[3,11]],[[5390,4281],[66,-16],[69,-22],[-3,-147]],[[5519,3920],[-4,-253]],[[5515,3667],[-50,12],[-77,-6],[-61,6]],[[5327,3679],[-55,-4],[-33,5],[-23,76],[-46,59],[-16,9],[-53,10],[-31,-19],[-18,0],[41,61],[23,30],[21,12],[26,9],[20,20],[45,61],[16,40],[8,33],[-4,41],[-6,17],[-16,9],[-3,12],[14,31],[23,16],[10,39],[15,29],[-45,8],[0,12],[-50,19],[-24,2],[-19,22],[12,18],[23,-12],[11,0],[6,17]],[[5199,4361],[10,-4]],[[6453,4068],[-11,-2],[-68,7],[-9,-34],[-59,8]],[[6306,4047],[32,32],[-8,104]],[[6330,4183],[1,35],[12,26],[21,31]],[[6364,4275],[29,-21],[52,-11]],[[6445,4243],[2,-61]],[[6447,4182],[6,-114]],[[7712,3295],[-2,-20],[-15,-21]],[[7695,3254],[-18,29],[-32,34],[-30,19],[-28,11],[-115,34]],[[6184,5191],[11,5]],[[6214,5122],[-55,4],[1,-21]],[[6160,5105],[-86,3],[-20,-3]],[[6054,5105],[0,58],[19,0],[0,31]],[[6073,5194],[9,5],[62,-6],[9,-18],[31,16]],[[7375,3253],[-40,9]],[[7335,3262],[-15,50],[-19,52],[0,12],[20,63]],[[7321,3439],[63,-29]],[[6461,3148],[-118,-95],[-57,-43],[-51,-35],[-123,-84],[-117,-81],[-81,-57]],[[6172,3220],[18,21],[103,133]],[[6293,3374],[33,-46],[16,-26],[53,-67],[6,-14]],[[5426,5072],[32,-62]],[[5458,5010],[-7,-26],[-8,-9]],[[5275,5052],[85,98],[17,13]],[[5377,5163],[49,-91]],[[5659,3937],[-12,-2]],[[5711,4247],[-1,-158]],[[6571,4817],[0,23],[-27,72],[-33,3],[-96,27]],[[6707,5070],[-2,-38],[-26,-10],[-8,15],[-30,-15],[8,-16],[-30,-15],[38,-76],[30,15],[19,-38]],[[6816,3244],[-33,97],[8,6],[-15,20]],[[6776,3367],[9,6],[48,7],[43,10]],[[6876,3390],[7,-34],[25,-85]],[[6427,5287],[-33,37],[-30,51]],[[6364,5375],[49,39],[40,38],[13,-7],[16,-29],[19,11],[12,-20],[-9,2],[-13,-18],[4,-15],[9,6],[42,0],[13,9],[8,-10]],[[7609,3878],[4,-21],[-8,-13],[6,-24],[-10,-45]],[[7601,3775],[-99,35]],[[7502,3810],[-57,20],[-40,17],[12,34],[-23,17]],[[7394,3898],[61,50]],[[7455,3948],[11,-10],[24,-33],[2,-26],[23,6],[3,-21],[65,12],[26,2]],[[6075,4109],[-19,-16]],[[6056,4093],[-65,-51],[-20,-5],[20,-27],[-72,-48]],[[5887,4147],[-13,9],[-5,54],[1,30]],[[5870,4240],[70,3],[25,-10]],[[5965,4233],[54,-15],[10,-25],[-18,-3],[3,-26],[-11,-18],[6,-12],[33,26],[33,-51]],[[7004,3023],[-43,-14],[-71,-20],[-17,48],[-36,-8]],[[6837,3029],[-1,15],[-12,9],[6,20],[-6,17],[-15,12],[5,7]],[[6978,3117],[-7,-3],[33,-91]],[[6049,3375],[-15,10]],[[7713,3142],[-3,-28],[-29,0],[-2,-18],[-51,-59],[-28,-49],[3,-14],[-8,-29],[-24,-26],[-9,-5],[1,-23],[-8,-5],[-6,-27],[-14,-12],[-17,-1],[10,-26],[9,-45],[-26,2],[-54,15],[21,-18],[2,-18],[-19,-12],[14,-12],[-57,-8],[-20,-12],[-22,-30],[-43,-4],[6,-11],[-17,-15]],[[7289,2932],[11,9],[27,43],[-1,26],[14,9],[24,-3],[13,15],[32,12],[8,40]],[[7417,3083],[51,18],[34,6],[32,36],[16,2],[41,24],[21,6]],[[7612,3175],[24,7],[11,-5],[15,-21],[26,-4],[25,-10]],[[5800,4237],[24,4],[46,-1]],[[7478,3743],[-25,-58],[-7,-33]],[[7364,3655],[-42,10],[-11,6]],[[7311,3671],[-37,42],[-14,22]],[[7260,3735],[88,48],[25,-10],[7,7],[25,-8],[73,-29]],[[7370,4421],[-13,-25],[-11,-12],[-28,-15],[-25,-35],[0,-15],[-15,-11],[-82,-49],[-9,-4]],[[7187,4255],[-36,-13]],[[7137,4503],[-3,-52],[138,9],[61,-42],[12,19],[25,-16]],[[7174,3236],[14,14],[-15,16],[27,26],[57,47]],[[7257,3339],[16,-41],[2,-17],[59,-23]],[[7334,3258],[-81,-80],[13,-13],[-11,-8],[-81,79]],[[6119,3938],[-63,155]],[[6075,4109],[42,39],[26,17]],[[6143,4165],[2,-7],[63,-158]],[[6208,4000],[-14,-13]],[[6194,3987],[-28,-25],[-47,-24]],[[7156,3036],[-17,-14]],[[7139,3022],[-7,15],[-33,-2],[-5,19],[-76,-21],[1,-5]],[[7019,3028],[-15,-5]],[[6193,4438],[-73,14],[-5,-30],[-88,20]],[[6052,4523],[78,-16]],[[6225,4487],[20,-54],[-21,-1],[-31,6]],[[6657,6286],[-76,34]],[[6581,6320],[26,20],[48,-14],[45,-1],[5,3],[20,43],[116,-32],[70,-21],[34,-5]],[[6233,5342],[6,-32],[10,-23],[-13,-6],[20,-57]],[[6184,5191],[-23,40],[-19,46],[-9,34],[-15,13]],[[7006,6088],[6,-46],[-16,-14],[33,-14],[-4,-29],[14,-3]],[[5947,5537],[45,-4],[13,-7],[19,-33],[-7,-3],[9,-20],[-21,-16],[-17,3],[-19,11],[-35,9],[-62,6]],[[5714,5470],[6,6],[-37,43],[26,30],[25,5],[-26,37],[61,46],[16,-40],[15,-48],[14,8],[15,-4],[3,9],[31,-5],[42,-12],[27,-2],[0,-10],[15,4]],[[5955,3269],[-110,-119]],[[6447,4182],[87,-2],[35,3],[69,19],[41,18]],[[7139,3022],[17,-29],[-105,-70]],[[7051,2923],[-13,53],[-12,26],[-7,26]],[[5377,5163],[-20,38],[93,47]],[[5450,5248],[52,24]],[[5604,5143],[-52,-19],[-10,16],[-53,-33],[-63,-35]],[[7260,3735],[-24,36]],[[7236,3771],[158,127]],[[7502,3810],[-24,-67]],[[7434,3229],[35,-14],[52,-8],[53,-17],[38,-15]],[[7417,3083],[-22,16],[-28,9],[-21,17],[-14,-25],[-66,-51]],[[7266,3049],[-13,20],[-19,-15],[-11,14]],[[7099,3229],[34,24],[16,-41],[25,24]],[[7334,3258],[1,4]],[[7270,4937],[-71,-59]],[[7170,4972],[-15,24],[-46,-31],[-10,-26],[-58,33],[66,82],[61,51]],[[7249,5063],[-2,-21],[-12,-34],[11,-35],[24,-36]],[[6097,4905],[-41,41]],[[6056,4946],[19,21],[23,40],[10,-1],[1,34]],[[6109,5040],[23,0],[0,18],[28,0],[0,47]],[[6244,5120],[-2,-64],[106,-3],[0,65],[89,-2]],[[6119,3938],[-49,-21],[-89,-36]],[[5817,3780],[-67,-42]],[[5708,2583],[-14,-53]],[[5609,2507],[-44,24],[-19,-32],[-44,26],[-39,-46],[-18,31],[-24,22],[-13,22],[-25,4],[-9,-8],[-31,1],[-22,-22],[-9,7]],[[5312,2536],[-15,3],[28,16],[11,19],[16,-4],[29,9],[-4,20],[-17,47],[-11,2],[-17,-12],[-22,2],[-17,13],[-18,29]],[[5362,2755],[16,-61],[33,-83],[20,-30],[11,0],[-2,18],[36,42],[0,14],[10,16],[11,2],[30,-52],[8,-8],[-8,-12],[14,-11],[47,79],[23,35]],[[7194,5536],[7,-33],[45,-12],[1,-61],[7,-140],[-2,-3],[-37,25],[-12,-4],[-17,-19]],[[7186,5289],[-75,38],[-16,-39],[-116,55],[13,27],[-124,55],[11,21]],[[5929,5080],[-5,-18]],[[5924,5062],[-28,-89]],[[5896,4973],[-52,16],[-34,16]],[[5810,5005],[-50,44],[-38,25],[-13,-14],[-9,-85]],[[5700,4975],[-11,2],[10,58],[-12,2],[-47,-32],[-23,-19],[-9,28]],[[5608,5014],[10,25],[18,18],[-5,6],[18,59],[-18,9]],[[6109,5040],[-113,3],[-37,7],[-35,12]],[[5943,5121],[51,-9],[1,-5],[59,-2]],[[5450,5248],[-11,29],[-33,-17],[-8,33],[-10,-6],[-16,43],[-31,-19],[-13,40],[-8,46]],[[5320,5397],[41,-9],[32,-15],[31,-32]],[[6184,4792],[-43,50],[-18,29]],[[7289,2932],[-50,86],[32,22],[-5,9]],[[6672,2974],[-21,-4],[-4,-8],[-128,58],[-5,-11],[-17,-8],[-29,-25],[-8,18],[-41,40],[-58,-42],[-37,-33],[-106,-71],[31,-47],[-35,-21],[-136,-103],[7,-7],[-68,-54],[45,-48],[77,-61],[18,-59],[5,-6],[-51,-13],[-33,0],[3,-13],[-8,-10],[-25,19],[0,-102],[-5,-17],[3,-58],[-5,-17],[5,-21],[-7,-14],[-60,-34],[-7,1],[-35,-114],[-36,-112],[7,-24],[-12,-45],[-13,-19],[-35,-28],[-25,-15],[-7,-22],[-111,-193],[25,-24],[-34,-21],[-1,-20],[-15,-5],[-6,31],[-11,11],[1,-54],[-49,-91],[-7,4],[-38,-108],[-38,-52],[-18,12]],[[6478,3162],[16,-29],[25,-2],[49,-63],[45,-41],[25,-12],[16,-14],[10,-22],[8,-5]],[[5295,4573],[-2,-18],[8,-17],[-6,-28],[0,-81],[-3,-78],[-83,6]],[[5199,4361],[-11,2],[-1,26],[-25,27],[-38,64],[-14,3],[2,19],[29,2],[60,23],[21,25],[36,20],[37,1]],[[6099,4335],[-10,-48],[-6,-66],[22,-6],[37,-30]],[[6142,4185],[1,-20]],[[5965,4233],[26,87]],[[6003,4362],[29,-6],[-12,-41],[34,-6],[8,31],[37,-5]],[[7023,3383],[8,-4],[11,-36]],[[7042,3343],[-16,-11],[14,-21],[-26,-19],[14,-18],[-92,-76]],[[6876,3390],[32,14],[6,-4],[37,-54],[15,15],[47,29],[10,-7]],[[5897,4557],[8,49]],[[5905,4606],[71,-9],[68,-14],[8,26],[21,42],[49,64]],[[6122,4715],[43,-4]],[[7695,3254],[13,-30],[7,-40],[-2,-42]],[[7839,4973],[19,11],[27,-8],[28,36],[64,77],[-5,3],[27,38],[33,-22]],[[8032,5108],[27,-20],[19,-91]],[[8078,4997],[-58,-5],[-12,-8],[-44,-19],[-46,-9],[-27,-1],[-52,18]],[[6254,3829],[-23,2],[-27,42],[-4,12],[-6,102]],[[6208,4000],[70,30],[28,17]],[[7042,3343],[46,-122]],[[5814,3681],[10,12],[-15,12],[-44,15],[-15,18]],[[5937,3062],[-10,9]],[[5927,3071],[-82,79]],[[7321,3439],[-23,9],[-63,16]],[[7235,3464],[18,109]],[[7253,3573],[7,49],[52,-18],[4,34],[-39,11],[34,22]],[[5659,4471],[-56,6],[-4,7],[-70,3]],[[5529,4487],[2,49]],[[5531,4536],[0,7],[77,81],[30,20],[55,-3],[30,-10],[61,-35],[-25,-49],[-15,-59]],[[5791,4861],[-88,-59],[-83,-50],[-13,21],[-15,9]],[[5592,4782],[19,138],[81,-9],[8,64]],[[5810,5005],[-6,-30],[1,-32],[5,-48],[-1,-20],[-18,-14]],[[5608,5014],[-25,27],[-26,17],[-21,-17],[-28,6],[-2,-6],[21,-29],[13,-7],[-8,-17],[7,-7],[-37,-54],[-44,83]],[[7461,4956],[-67,-69],[-7,-4],[-58,-53],[-5,-24],[8,-8],[6,-32],[14,-18]],[[7352,4748],[-25,-11]],[[7327,4737],[-43,33]],[[7239,4824],[119,96],[-45,50],[-43,-33]],[[7363,5070],[-1,-13],[63,-59]],[[7400,4490],[-60,18],[-73,53],[-51,40]],[[7216,4601],[33,27],[38,25],[26,36],[14,48]],[[7327,4737],[83,-62],[53,-53]],[[7463,4622],[-35,-34],[-28,-98]],[[6364,4275],[-50,50],[38,39],[42,33],[32,36],[-41,33],[-34,38]],[[6543,4363],[16,-44],[8,-43],[-22,-6],[-4,-38],[-96,11]],[[5637,3574],[-17,41],[7,26],[-47,-1],[-11,19]],[[5569,3659],[55,-4],[28,8],[56,45]],[[5474,4537],[-6,-29],[3,-31],[-11,-42],[1,-24],[-12,-14],[-7,-50]],[[5442,4347],[-19,0],[-9,-11],[-32,-54],[8,-1]],[[5295,4573],[28,5],[53,2]],[[5376,4580],[53,-4],[18,-9],[27,-30]],[[6549,3513],[-6,-3],[-131,-141],[-34,-35],[-66,63]],[[7711,3807],[-2,4],[33,29],[-8,6]],[[7734,3846],[6,10],[-9,47],[22,5],[-3,17],[-107,-24],[-31,-3],[-3,-20]],[[7455,3948],[204,163],[163,129],[35,31]],[[7857,4271],[40,44],[52,67],[79,106],[11,13]],[[8039,4501],[20,15],[27,12],[20,3],[218,2],[26,1],[37,9],[78,21],[114,6],[72,11],[46,-1]],[[8697,4580],[23,-8],[19,-14],[52,-68],[29,-32],[30,-20],[64,-20],[41,-2],[33,8],[41,27],[48,57],[10,-6],[-18,-18],[-11,-23],[-20,-21],[-27,-18],[-43,-15],[-69,-4],[-11,-3],[-22,7],[-16,-3],[-33,29],[-28,15],[-40,29],[-19,7],[0,17],[-17,28],[-26,17],[-10,-17],[-26,-3],[-20,7],[-15,14],[-6,-11],[-26,-2],[-17,21],[-4,-27],[-15,-8],[18,-48],[-111,-64],[-67,-39],[-19,32],[-8,-26],[4,-17],[-10,-3],[0,-26],[-29,-33],[-7,-20],[-26,-15],[-29,-6],[-12,10],[-15,42],[-43,-24],[-18,8],[-29,52],[-7,27],[-34,68],[-67,-66],[-11,-32],[-46,3],[-22,6],[-3,-16],[-25,-35],[-22,-24],[8,-20],[-38,-40],[17,-31],[23,-33],[-16,-21],[-11,8],[-22,-26],[12,-15],[-129,-78],[-2,-9],[159,-86],[-6,-10],[-71,-31],[-3,-12],[-27,8],[-3,-29],[-29,-20],[-61,-22]],[[7222,6248],[28,-9],[-16,-65],[10,-1],[-3,-38],[15,-4],[-1,-20],[27,-6],[-9,-15],[-14,-39],[-22,-40]],[[7236,3771],[-148,-118]],[[7088,3653],[-121,-98]],[[6783,3979],[-20,-21],[1,-27],[49,3],[5,-69],[25,2],[1,-58],[10,15],[18,11],[3,34],[73,6],[20,6],[10,46],[-3,44],[14,3],[102,12],[6,3]],[[7097,3989],[139,-218]],[[7044,4614],[-65,-23],[4,-31],[-82,-27]],[[6902,4667],[3,-23],[32,5]],[[6937,4649],[81,26],[26,-61]],[[7044,4614],[50,18]],[[7094,4632],[29,-74]],[[6894,5095],[-10,-26],[-21,-25],[-18,-33],[-43,-49],[-5,-22],[-40,-16]],[[6641,6039],[-4,-43],[13,-18],[39,-120]],[[6656,5740],[-4,0]],[[6652,5740],[-10,15],[-32,20],[1,63],[-6,50],[-8,17],[-1,59],[-12,50],[-12,13],[-23,15],[30,9],[30,40],[9,36],[20,45],[-9,3],[10,20],[-19,5],[-37,33],[-5,18],[-30,14],[-12,15],[12,23],[33,17]],[[7734,3846],[-43,-34],[-16,-18],[-42,-31],[-32,12]],[[7257,3339],[-6,16],[-33,-23],[-11,15],[20,16],[-16,10],[-28,45],[-14,-18],[-6,23],[-24,1],[-1,53]],[[7138,3477],[55,-3],[42,-10]],[[7097,3989],[-126,199],[-12,22]],[[7187,4255],[61,4],[56,37],[22,9],[54,-3],[75,-14],[27,-11]],[[7482,4277],[-11,-2],[83,-25],[53,-2],[23,6],[41,19],[36,2],[52,-12],[37,-1],[61,9]],[[5748,2848],[-12,22],[23,28],[18,29],[-6,7]],[[5771,2934],[36,28],[46,53],[46,47],[28,9]],[[6024,3808],[22,8],[23,-38],[56,22],[66,-33],[-32,-66],[-23,-33]],[[6122,4715],[12,19],[-31,6],[-7,16],[-8,-7]],[[6088,4749],[-31,24],[-5,20],[-28,7],[-22,-2],[-46,24],[-57,42],[-15,-5],[-40,0],[-23,7],[-30,-5]],[[5896,4973],[55,-3],[30,-10],[75,-14]],[[7023,3383],[18,45],[20,41],[18,-1],[6,20]],[[7085,3488],[37,-10]],[[7122,3478],[-5,-91],[15,-63],[28,-74],[14,-14]],[[7253,3573],[-81,19],[-22,-16],[-30,32],[-6,-3],[-26,48]],[[6330,4183],[-26,0],[-73,-7],[-44,6],[-45,3]],[[6099,4335],[30,2],[44,-7],[20,108]],[[7216,4601],[-24,20],[32,65],[-4,13],[36,47]],[[7058,4822],[-24,2],[-3,17],[-53,-8],[-5,28],[-45,-9],[4,-26],[-51,-9]],[[7438,4784],[-86,-36]],[[7122,3478],[16,-1]],[[6837,3029],[-7,-20],[14,-2],[22,-29],[15,-5],[9,-30],[10,-4],[2,-27]],[[6902,2912],[-31,11]],[[6871,2923],[-44,18],[-17,-37],[14,-18],[-25,-17],[-20,2],[-23,25],[-13,2],[-43,-5],[-11,6],[-6,20],[5,44],[-11,16],[-5,-5]],[[6759,3388],[17,-21]],[[6073,5194],[-16,-13],[-41,-3],[5,44],[9,39]],[[8246,5008],[-22,29],[-24,-14],[-36,14],[-20,0],[-32,-35],[-34,-5]],[[8032,5108],[8,13],[-32,49],[-15,15],[24,26],[36,65],[49,41]],[[8102,5317],[6,9],[57,-36],[55,-40],[43,-50],[-13,-13],[-25,-34],[-25,-6],[8,-72],[36,-12],[42,3],[-33,-61],[-7,3]],[[5476,2182],[-44,-20],[-16,-1],[5,-21],[-15,-4],[3,-41],[-14,-1],[1,39],[-37,-10],[-3,15],[-19,-5],[-11,54],[-6,-2],[-10,31],[-7,84],[107,6],[19,30],[7,41],[-34,15],[-33,31],[-32,13],[-34,41],[9,59]],[[6365,4655],[1,-8]],[[6380,4810],[0,0]],[[5592,4782],[-50,35],[-47,17],[-42,18],[-34,2],[-30,19]],[[5389,4873],[-20,11]],[[7158,4531],[28,44],[30,26]],[[7400,4490],[-30,-69]],[[7478,3743],[94,-39],[16,-5],[23,-45],[23,-58]],[[6088,4749],[-32,-21],[-9,-11],[-17,-5],[-26,-38],[-16,-1],[-31,10],[-23,1],[-16,-52],[-12,1],[-1,-27]],[[5531,4536],[-43,-5],[-14,6]],[[5376,4580],[-42,142],[13,16],[-7,7],[36,38],[-32,20],[6,19],[-7,33],[46,18]],[[7042,4754],[-20,-19],[-41,-14],[-17,-10],[-33,-30],[6,-32]],[[7045,2920],[7,-20]],[[7155,2645],[1,-12],[-47,-35],[-6,29],[-17,8],[-23,29],[-10,44],[1,45],[-6,24],[5,35],[-5,18],[-30,32],[-21,2],[-58,-8],[-16,-21],[-12,1],[-5,19],[-38,37],[3,31]],[[6902,2912],[38,-1],[22,-14],[52,7],[20,16],[11,0]],[[7400,4490],[54,-16]],[[7454,4474],[20,-12],[57,-82],[29,-97],[-78,-6]],[[7058,4720],[36,-88]],[[5720,3017],[0,-4],[54,3],[3,-58],[-6,-24]],[[6219,5497],[21,-13],[16,0],[68,19],[8,-44],[32,-84]],[[7085,3488],[-34,19],[-33,10],[-51,38]],[[7537,4684],[-74,-62]],[[7186,5289],[51,-60],[18,-13],[20,-2]],[[6750,5553],[0,2]],[[7259,2917],[-8,4],[-95,115]],[[5137,5111],[18,19],[44,23],[28,7],[22,18],[18,22],[46,28],[-47,127],[-8,12],[14,37],[4,25],[-9,-1],[2,52],[-3,16],[-17,1],[10,32],[32,20],[16,3]],[[5307,5552],[59,-1],[-4,-35],[-51,9],[-10,-29],[-1,-46],[40,8],[2,-14],[-25,-4],[-16,-13],[-1,-30],[20,0]],[[5442,4347],[84,-10],[1,26],[73,-5]],[[5600,4358],[-4,-45],[20,-3]],[[5947,5537],[0,18],[27,27],[8,15],[35,23],[23,22],[25,15],[-11,14],[-1,27],[-6,7],[28,25],[5,15],[-7,18],[29,10],[-10,23],[-29,15],[-23,30],[-8,23],[-17,12],[-29,4],[3,16],[45,-14],[28,-50],[27,-23],[48,42],[-9,19],[13,8],[-10,24],[23,5],[-7,39],[4,57],[-5,29],[15,23],[1,12]],[[6162,6067],[38,13],[0,-26],[-18,-24],[10,-51],[18,-36],[31,-39],[10,6],[22,-1],[-4,-31],[4,-47],[13,-18],[37,40],[9,1],[18,-27],[48,24],[19,-24],[4,2],[-1,-58],[39,-4],[3,-23],[11,-10],[27,-6],[16,-28],[27,-25],[67,47],[0,-5],[40,7],[2,16]],[[5600,4358],[6,70],[-78,5],[1,54]],[[5307,5552],[17,27],[21,15],[74,28],[22,19],[12,17],[19,39],[21,29],[85,82],[35,48],[40,21],[43,40],[35,38],[21,10],[33,37],[23,13],[58,48],[6,8],[46,-25],[-25,-45],[-25,-24],[-1,-10],[20,-33],[34,-17],[4,12],[19,15],[37,18],[4,33],[29,44],[17,33],[15,5],[45,-11],[14,-17],[40,9],[17,9]],[[7051,2923],[-6,-3]],[[8246,5008],[5,-18],[55,-51],[43,-18],[-30,-197],[12,-14],[38,-14],[-4,-25],[19,-11],[32,11],[23,-3],[18,8],[7,-30],[39,10],[7,6],[30,-3],[30,15],[22,-4],[18,13],[15,-9],[13,3],[85,-15],[-26,-82]],[[8039,4501],[-17,42],[26,37],[17,40],[6,28],[-8,75],[-12,60],[-19,21],[-40,30],[-14,1],[-103,-30],[-67,-47],[-40,-35],[1,-15],[-9,-10],[-19,5],[-20,-33],[33,-68],[-17,-12],[-43,-5],[1,-16],[-16,2],[-8,9],[-19,-9],[-38,5],[-16,-14],[-53,-21],[-31,-1],[-2,-14],[-10,-9],[-30,-10],[-10,-26],[-8,-7]],[[7728,4849],[49,29],[16,22],[-5,2],[33,78],[18,-7]],[[7711,3807],[-14,-13],[23,-128],[19,-70],[-1,-7]],[[5569,3659],[-54,8]],[[5610,3320],[-26,1],[1,46],[-4,12],[-5,45],[-35,59],[-2,9],[-47,84],[5,13],[-15,21],[-91,7],[-53,12],[-11,50]],[[7691,4875],[-27,19],[22,28],[18,7],[32,-1],[31,15],[4,36],[21,18],[19,-9],[19,41],[4,30],[-7,2],[21,51],[-12,9],[-32,14],[48,56],[-13,36],[27,-11],[12,14],[-19,30],[27,34],[8,-2],[81,-68],[9,7],[-8,48],[1,23],[9,24],[24,10],[5,14],[38,2],[1,-16],[48,-19]],[[6024,186],[-14,19],[11,0],[27,13],[3,-21],[-27,-11]],[[6004,298],[12,-40],[14,0],[0,-10],[-15,0],[0,-15],[-15,-19],[-40,20],[1,57],[9,8],[34,-1]]]}
