{"type":"Topology","bbox":[-75.30138244880675,9.482607860259334,-75.03654534899471,9.653253263883995],"transform":{"scale":[0.000026486358617065836,0.000017066246987164836],"translate":[-75.30138244880675,9.482607860259334]},"objects":{"municipios":{"type":"GeometryCollection","geometries":[{"type":"Polygon","arcs":[[0]],"properties":{"codigo":"70508200302012000101","sector":"705082003020120001","pcode":"CO70508","area_m2":17583}},{"type":"Polygon","arcs":[[1]],"properties":{"codigo":"70508200203001000101","sector":"705082002030010001","pcode":"CO70508","area_m2":60569}},{"type":"Polygon","arcs":[[2,3]],"properties":{"codigo":"70508200504002000101","sector":"705082005040020001","pcode":"CO70508","area_m2":62394}},{"type":"Polygon","arcs":[[-4,4]],"properties":{"codigo":"70508200504002000102","sector":"705082005040020001","pcode":"CO70508","area_m2":53911}},{"type":"Polygon","arcs":[[5,6]],"properties":{"codigo":"70508200501003000102","sector":"705082005010030001","pcode":"CO70508","area_m2":68653}},{"type":"Polygon","arcs":[[7]],"properties":{"codigo":"70508200101004000101","sector":"705082001010040001","pcode":"CO70508","area_m2":36570}},{"type":"Polygon","arcs":[[8]],"properties":{"codigo":"70508200301005000101","sector":"705082003010050001","pcode":"CO70508","area_m2":24840}},{"type":"Polygon","arcs":[[9,10]],"properties":{"codigo":"70508200104006000101","sector":"705082001040060001","pcode":"CO70508","area_m2":76347}},{"type":"Polygon","arcs":[[11]],"properties":{"codigo":"70508200304007000101","sector":"705082003040070001","pcode":"CO70508","area_m2":23789}},{"type":"Polygon","arcs":[[12,13]],"properties":{"codigo":"70508200304011000102","sector":"705082003040110001","pcode":"CO70508","area_m2":82320}},{"type":"Polygon","arcs":[[-14,14]],"properties":{"codigo":"70508200304011000101","sector":"705082003040110001","pcode":"CO70508","area_m2":71307}},{"type":"MultiPolygon","arcs":[[[15]],[[16]]],"properties":{"codigo":"70508200103013000101","sector":"705082001030130001","pcode":"CO70508","area_m2":129862}},{"type":"Polygon","arcs":[[17]],"properties":{"codigo":"70508200404014000101","sector":"705082004040140001","pcode":"CO70508","area_m2":100758}},{"type":"Polygon","arcs":[[18]],"properties":{"codigo":"70508200404018000101","sector":"705082004040180001","pcode":"CO70508","area_m2":66050}},{"type":"Polygon","arcs":[[19]],"properties":{"codigo":"70508200202026000101","sector":"705082002020260001","pcode":"CO70508","area_m2":48198}},{"type":"Polygon","arcs":[[20]],"properties":{"codigo":"70508200301027000101","sector":"705082003010270001","pcode":"CO70508","area_m2":82759}},{"type":"Polygon","arcs":[[21]],"properties":{"codigo":"70508200103031000101","sector":"705082001030310001","pcode":"CO70508","area_m2":28429}},{"type":"Polygon","arcs":[[22]],"properties":{"codigo":"70508200401034000101","sector":"705082004010340001","pcode":"CO70508","area_m2":46143}},{"type":"Polygon","arcs":[[23]],"properties":{"codigo":"70508200104033000101","sector":"705082001040330001","pcode":"CO70508","area_m2":83768}},{"type":"Polygon","arcs":[[24,25,26,27,28]],"properties":{"codigo":"70508100000000000201","sector":"705081000000000002","pcode":"CO70508","area_m2":133930}},{"type":"Polygon","arcs":[[29,30,31,-27]],"properties":{"codigo":"70508100000000000101","sector":"705081000000000001","pcode":"CO70508","area_m2":147128}},{"type":"Polygon","arcs":[[32,33,-30,34,35,36,37]],"properties":{"codigo":"70508100000000000102","sector":"705081000000000001","pcode":"CO70508","area_m2":154411}},{"type":"Polygon","arcs":[[-31,-34,38,39]],"properties":{"codigo":"70508100000000000106","sector":"705081000000000001","pcode":"CO70508","area_m2":103914}},{"type":"Polygon","arcs":[[-38,40,41]],"properties":{"codigo":"70508100000000000107","sector":"705081000000000001","pcode":"CO70508","area_m2":23121}},{"type":"Polygon","arcs":[[42,43,-35,-26,44]],"properties":{"codigo":"70508100000000000103","sector":"705081000000000001","pcode":"CO70508","area_m2":372843}},{"type":"Polygon","arcs":[[-44,45,-36]],"properties":{"codigo":"70508100000000000104","sector":"705081000000000001","pcode":"CO70508","area_m2":156726}},{"type":"Polygon","arcs":[[46,-39,-33,-42,47]],"properties":{"codigo":"70508100000000000105","sector":"705081000000000001","pcode":"CO70508","area_m2":88858}},{"type":"Polygon","arcs":[[48,-45,-25,49,50]],"properties":{"codigo":"70508100000000000202","sector":"705081000000000002","pcode":"CO70508","area_m2":281139}},{"type":"Polygon","arcs":[[51,-50,-29,52,53]],"properties":{"codigo":"70508100000000000203","sector":"705081000000000002","pcode":"CO70508","area_m2":138688}},{"type":"Polygon","arcs":[[-51,-52,54]],"properties":{"codigo":"70508100000000000204","sector":"705081000000000002","pcode":"CO70508","area_m2":112797}},{"type":"Polygon","arcs":[[-53,-28,-32,-40,-47,55]],"properties":{"codigo":"70508100000000000205","sector":"705081000000000002","pcode":"CO70508","area_m2":108327}},{"type":"Polygon","arcs":[[56,-6]],"properties":{"codigo":"70508200501003000101","sector":"705082005010030001","pcode":"CO70508","area_m2":81237}},{"type":"Polygon","arcs":[[57,-10]],"properties":{"codigo":"70508200104006000102","sector":"705082001040060001","pcode":"CO70508","area_m2":91571}},{"type":"Polygon","arcs":[[58,59]],"properties":{"codigo":"70508200305009000101","sector":"705082003050090001","pcode":"CO70508","area_m2":117143}},{"type":"Polygon","arcs":[[-59,60]],"properties":{"codigo":"70508200305009000102","sector":"705082003050090001","pcode":"CO70508","area_m2":119214}},{"type":"MultiPolygon","arcs":[[[61]],[[62]]],"properties":{"codigo":"70508200101015000101","sector":"705082001010150001","pcode":"CO70508","area_m2":59519}}]}},"arcs":[[[5024,5391],[-33,-16],[2,-20],[-21,-16],[-4,12],[-40,-57],[-36,-19],[-32,3],[0,12],[22,-3],[34,11],[3,17],[17,10],[37,48],[33,32],[20,4],[-2,-18]],[[1000,4196],[22,26],[19,-3],[1,-41],[39,-3],[2,40],[37,6],[5,-104],[-19,15],[-21,-12],[-43,19],[-40,-10],[-18,7],[11,47],[-27,3],[2,20],[-20,46],[16,14],[26,-61],[8,-9]],[[8933,180],[11,-25],[33,-26],[-9,-14],[-33,39],[-21,-5],[-9,-19],[5,-65],[-12,-3],[-4,28],[-15,24],[-26,9],[1,15],[-30,-7],[-56,-41],[-30,-8],[-3,19],[28,9],[-2,13],[29,12],[-3,10],[26,15],[-2,18],[27,7],[11,26],[-5,15],[32,49]],[[8876,275],[7,-13],[-17,-35],[-1,-62],[68,15]],[[8876,275],[31,39],[38,33],[26,31],[5,-34],[-8,-15],[28,-34],[9,-30],[-13,-31],[-25,36],[-20,45],[-44,-37],[-15,-31],[11,-34],[45,-21],[-11,-12]],[[9994,855],[-31,-5],[-39,5],[-3,28],[-19,58],[-1,21],[-24,-5]],[[9877,957],[-14,34],[-19,-18],[-15,43],[28,25],[6,-15],[19,2],[-1,29],[35,4],[22,-29],[5,-34],[-14,-4],[-1,-34],[15,4],[3,-40],[12,3],[0,-56],[36,3],[0,-19]],[[144,9972],[-8,-26],[-50,25],[-19,-13],[3,-22],[-30,-42],[-2,-17],[-31,-51],[-7,13],[11,18],[-3,36],[21,58],[14,3],[16,36],[30,9],[28,-7],[27,-20]],[[4188,5940],[9,-8],[17,17],[5,-53],[-41,-44],[-12,5],[6,34],[-12,5],[-4,40],[-12,5],[6,23],[35,-10],[3,-14]],[[329,8283],[-41,1]],[[288,8284],[-16,36],[-14,-17],[-18,35],[-25,18],[13,59],[-28,35],[16,25],[14,44],[5,51],[23,32],[7,-14],[-23,-34],[5,-41],[-7,-53],[43,-49],[14,0],[0,-25],[15,-59],[17,2],[-13,-30],[13,-16]],[[4668,3089],[22,15],[0,-19],[13,-18],[-26,0],[-24,-22],[-3,14],[-17,-13],[-37,11],[-14,28],[14,17],[14,-39],[13,6],[48,80],[-9,-37],[6,-23]],[[4415,2274],[2,-23],[23,-18],[22,-1],[-14,-27],[34,-45],[19,-16],[28,-35],[-3,-11],[29,-15],[-6,-15],[-19,-2],[-58,55],[-5,-14],[-62,53],[-16,17],[-73,6],[25,21],[13,34],[-6,31]],[[4348,2269],[26,-25],[10,41],[11,-6],[8,-33],[12,28]],[[4348,2269],[-19,59],[19,18],[1,45],[7,52],[13,15],[-2,-22],[32,-4],[-3,-52],[40,20],[17,-57],[-51,-32],[2,-29],[11,-8]],[[2006,7614],[31,-9],[1,-16],[33,-38],[-25,-35],[17,-59],[26,-11],[2,-15],[-4,-116],[-17,-63],[-6,-74],[-11,5],[-6,81],[-13,-3],[-19,83],[-18,35],[19,14],[-2,67],[-19,0],[10,110],[-12,34],[13,10]],[[2065,7030],[-16,8],[-3,26],[12,16],[7,-50]],[[4917,250],[18,-10],[-8,-36],[14,-58],[36,-7],[6,-21],[-14,-47],[-27,3],[3,-36],[-14,-9],[-7,16],[-28,-32],[-32,-2],[-11,-11],[-9,31],[20,54],[-9,19],[4,29],[27,59],[12,43],[-4,12],[23,3]],[[4864,532],[19,-2],[18,-21],[31,-9],[13,13],[13,-44],[-27,-23],[-8,-42],[0,-59],[-55,-15],[-6,21],[-14,6],[25,88],[2,58],[-15,17],[4,12]],[[3593,5295],[28,-27],[-35,-36],[11,-18],[-23,-74],[-20,-17],[-12,29],[-19,77],[16,15],[-10,14],[12,17],[12,-20],[24,41],[16,-1]],[[5172,6479],[77,-75],[2,-22],[43,-73],[17,6],[27,-13],[-6,-23],[27,-13],[-9,-10],[16,-39],[-17,-19],[-19,37],[-62,34],[-30,47],[-56,67],[-2,30],[-30,50],[22,16]],[[1695,6449],[11,-27],[-27,-27],[-9,-19],[-19,1],[-32,70],[16,19],[12,-19],[30,41],[18,-39]],[[679,2320],[29,-35],[-15,-69],[-6,-11],[-69,6],[-21,-5],[-8,51],[50,28],[25,-3],[15,38]],[[299,6872],[-3,-49],[2,-69],[41,-34],[15,-49],[-52,-15],[-1,-16],[-30,1],[-2,-44],[-32,5],[5,73],[20,157],[2,44],[35,-4]],[[2847,2809],[-48,-49],[-8,-108],[-17,-67],[-1,-47],[-38,-9],[-27,-38]],[[2708,2491],[-23,20]],[[2685,2511],[18,78],[7,-3],[28,115],[0,22],[21,30],[20,13],[-30,99]],[[2749,2865],[14,51],[29,25]],[[2792,2941],[9,-34],[-2,-39],[21,-23],[6,13],[21,-49]],[[2685,2511],[-53,56],[-6,23],[-3,68],[-25,18],[-13,25]],[[2585,2701],[20,-3],[39,45],[43,27],[33,-49],[-6,41],[6,62],[10,17]],[[2730,2841],[19,24]],[[2557,2837],[3,-36]],[[2560,2801],[12,-63],[13,-37]],[[2685,2511],[-54,-141]],[[2631,2370],[-46,26],[-22,-32],[-14,3],[-16,-15]],[[2533,2352],[2,16],[27,24],[-18,38],[-3,25],[15,26],[27,-23],[7,22],[-8,67],[-12,47],[-16,3],[13,87],[-21,25],[11,17],[-6,22],[-19,23],[8,71]],[[2540,2842],[17,-5]],[[2560,2801],[66,44],[7,-25],[34,23],[-18,64],[26,9]],[[2675,2916],[29,-12],[12,-44],[14,-19]],[[2540,2842],[8,20],[-10,43],[5,13],[-47,-11],[27,41],[-3,12],[13,44]],[[2533,3004],[30,-83],[-6,-84]],[[2795,2375],[8,-29],[17,-25],[14,-59],[-21,-23],[-7,-119],[-24,-35],[-24,3],[-17,14],[-26,5],[-23,-17],[-17,-32]],[[2675,2058],[-32,36],[-41,59],[-19,44],[-2,45],[50,128]],[[2708,2491],[-10,-26],[33,-34],[47,-76],[17,20]],[[2675,2058],[-93,-196],[-11,14],[22,41],[1,56],[28,93],[-6,42],[-25,28],[-6,25],[-13,9],[-19,-29],[-47,-5],[2,22],[19,-2],[6,23],[20,-3],[-5,47],[-31,-23],[-16,22],[-30,3],[-2,22],[12,17],[18,-4],[0,23],[12,32],[17,9],[5,28]],[[2668,2944],[7,-28]],[[2533,3004],[27,8],[8,-16],[30,-4],[-2,-11],[62,-42],[10,5]],[[2951,2851],[24,-5],[-11,-31],[-21,6],[-6,-61],[-15,-7],[1,-54],[-18,-7],[-9,-32],[20,-18],[-10,-40],[-45,-22],[-24,-67],[9,-35],[9,-8],[-14,-20],[-11,9],[2,29],[-10,6],[-10,-27],[18,-17],[-13,-17],[-22,-58]],[[2847,2809],[13,9]],[[2860,2818],[60,47],[24,3],[7,-17]],[[3029,3128],[-29,-62],[-14,-19],[-58,-99],[-31,-43],[-28,-73],[-9,-14]],[[2792,2941],[18,40]],[[2810,2981],[31,-42],[22,52],[49,68],[8,-18],[11,8],[46,90],[11,10],[20,-31],[10,21],[11,-11]],[[3029,3128],[10,-1],[-8,-28],[3,-31],[-21,-10],[17,-51],[8,21],[50,-50],[-5,-12],[26,-42],[-51,35],[-32,-28],[-39,-25],[-29,-27],[-7,-28]],[[2668,2944],[13,26],[12,89],[18,-4],[30,-26],[6,26],[29,29],[39,-27],[-19,-56],[14,-20]],[[9994,855],[-4,-51],[-24,7],[-21,24],[-23,-47],[-13,-64],[-12,-17],[-21,27],[10,21],[11,-22],[6,88],[-35,-5],[-8,-36],[-15,-7],[-3,20],[-18,-4],[2,35],[28,18],[3,19],[-6,63],[26,33]],[[329,8283],[15,-5],[29,-87],[9,3],[6,-35],[27,10],[-6,-27],[-25,-10],[5,-18],[13,11],[13,-100],[-21,-97],[20,-11],[-13,-39],[-14,12],[6,26],[-3,58],[-14,3],[-1,72],[5,1],[-8,51],[-14,20],[-23,-19],[-8,42],[-37,104],[8,6],[-10,30]],[[5776,1222],[-14,-50],[-19,-37],[-6,-42],[8,-8],[-12,-42],[7,-4]],[[5740,1039],[5,-10],[-18,-77],[-3,-52],[-20,6],[-20,57],[16,-8],[0,22],[15,93],[-19,27],[-33,16],[0,-15],[-29,-21],[-4,-23],[-17,-32],[-7,17],[-19,-9],[1,-26],[-15,-9],[3,-27],[-35,-8],[-6,43],[-16,1],[6,24],[18,20],[30,9],[17,-17],[9,22],[19,15],[-2,13],[32,35],[-4,12],[18,11],[10,-23],[48,74],[33,-15],[7,29],[-40,38],[8,20],[21,-5],[27,-44]],[[5776,1222],[11,-25],[-9,-58],[-26,-47],[36,-38],[70,4],[27,-4],[-7,61],[38,-6],[19,-57],[29,10],[8,35],[-7,16],[46,2],[24,17],[3,-19],[-8,-44],[-15,-13],[24,-13],[-7,-8],[-24,15],[-20,-6],[3,-24],[-14,-4],[-12,17],[-27,-10],[-48,-3],[-18,-13],[-15,23],[-23,0],[-27,-14],[-26,9],[-3,-12],[13,-32],[-6,-47],[-36,-21],[-9,4],[25,121],[-14,22],[-11,-21]],[[659,9761],[9,-7],[-25,-21],[-6,-15],[29,0],[26,-11],[-8,-24],[-41,5],[-12,-65],[-2,-37],[-19,9],[6,-17],[5,-53],[12,-8],[-12,-18],[12,-46],[-18,-5],[-1,35],[-10,13],[-18,97],[21,69],[5,41],[21,51],[24,20],[2,-13]],[[557,9781],[35,-25],[-2,-14],[-27,16],[-14,-8],[8,31]]]}
