{"type":"Topology","bbox":[-75.05853524612166,9.070578097782695,-74.87654459829895,9.175658761898168],"transform":{"scale":[0.00001820088487075861,0.000010509117323279618],"translate":[-75.05853524612166,9.070578097782695]},"objects":{"municipios":{"type":"GeometryCollection","geometries":[{"type":"Polygon","arcs":[[0,1,2,3]],"properties":{"codigo":"70235100000000000101","sector":"702351000000000001","pcode":"CO70235","area_m2":71283}},{"type":"Polygon","arcs":[[4,5,6,7,-2]],"properties":{"codigo":"70235100000000000103","sector":"702351000000000001","pcode":"CO70235","area_m2":101079}},{"type":"Polygon","arcs":[[-7,8,9,10,11,12]],"properties":{"codigo":"70235100000000000106","sector":"702351000000000001","pcode":"CO70235","area_m2":109410}},{"type":"Polygon","arcs":[[13,14,-4,15,16]],"properties":{"codigo":"70235100000000000110","sector":"702351000000000001","pcode":"CO70235","area_m2":165636}},{"type":"Polygon","arcs":[[17]],"properties":{"codigo":"70235200301003000101","sector":"702352003010030001","pcode":"CO70235","area_m2":192583}},{"type":"Polygon","arcs":[[18,19]],"properties":{"codigo":"70235200303002000102","sector":"702352003030020001","pcode":"CO70235","area_m2":114050}},{"type":"Polygon","arcs":[[20,21,22]],"properties":{"codigo":"70235200301011000101","sector":"702352003010110001","pcode":"CO70235","area_m2":58198}},{"type":"Polygon","arcs":[[23,24,-21,25]],"properties":{"codigo":"70235200301011000102","sector":"702352003010110001","pcode":"CO70235","area_m2":51568}},{"type":"Polygon","arcs":[[26,-24,27]],"properties":{"codigo":"70235200301011000103","sector":"702352003010110001","pcode":"CO70235","area_m2":27504}},{"type":"Polygon","arcs":[[28]],"properties":{"codigo":"70235200203012000101","sector":"702352002030120001","pcode":"CO70235","area_m2":27368}},{"type":"Polygon","arcs":[[-3,-8,-13,29,-16]],"properties":{"codigo":"70235100000000000102","sector":"702351000000000001","pcode":"CO70235","area_m2":181438}},{"type":"Polygon","arcs":[[30,-5,-1,-15,31,32]],"properties":{"codigo":"70235100000000000104","sector":"702351000000000001","pcode":"CO70235","area_m2":258912}},{"type":"Polygon","arcs":[[33,34,35,-9,-6,-31]],"properties":{"codigo":"70235100000000000105","sector":"702351000000000001","pcode":"CO70235","area_m2":262437}},{"type":"Polygon","arcs":[[36]],"properties":{"codigo":"70235200205007000101","sector":"702352002050070001","pcode":"CO70235","area_m2":37274}},{"type":"Polygon","arcs":[[37,38,-35]],"properties":{"codigo":"70235100000000000108","sector":"702351000000000001","pcode":"CO70235","area_m2":132477}},{"type":"Polygon","arcs":[[-32,-14,39]],"properties":{"codigo":"70235100000000000109","sector":"702351000000000001","pcode":"CO70235","area_m2":43390}},{"type":"Polygon","arcs":[[40,41,42,43,-11]],"properties":{"codigo":"70235100000000000201","sector":"702351000000000002","pcode":"CO70235","area_m2":244933}},{"type":"Polygon","arcs":[[-39,44,45,46,-41,-10,-36]],"properties":{"codigo":"70235100000000000202","sector":"702351000000000002","pcode":"CO70235","area_m2":271195}},{"type":"Polygon","arcs":[[-46,47]],"properties":{"codigo":"70235100000000000203","sector":"702351000000000002","pcode":"CO70235","area_m2":42026}},{"type":"Polygon","arcs":[[-43,48]],"properties":{"codigo":"70235100000000000204","sector":"702351000000000002","pcode":"CO70235","area_m2":77245}},{"type":"Polygon","arcs":[[49]],"properties":{"codigo":"70235100000000000301","sector":"702351000000000003","pcode":"CO70235","area_m2":106943}},{"type":"Polygon","arcs":[[50]],"properties":{"codigo":"70235200303001000101","sector":"702352003030010001","pcode":"CO70235","area_m2":227554}},{"type":"Polygon","arcs":[[-19,51]],"properties":{"codigo":"70235200303002000101","sector":"702352003030020001","pcode":"CO70235","area_m2":217441}},{"type":"Polygon","arcs":[[52]],"properties":{"codigo":"70235200302009000101","sector":"702352003020090001","pcode":"CO70235","area_m2":116676}},{"type":"Polygon","arcs":[[-25,-27,53,-22]],"properties":{"codigo":"70235200301011000104","sector":"702352003010110001","pcode":"CO70235","area_m2":60886}},{"type":"Polygon","arcs":[[54]],"properties":{"codigo":"70235200202013000101","sector":"702352002020130001","pcode":"CO70235","area_m2":221605}}]}},"arcs":[[[630,9096],[2,-59],[28,-149]],[[660,8888],[-77,-9],[-84,44],[-17,23]],[[482,8946],[-42,85]],[[440,9031],[57,32],[49,10],[23,-36],[7,42],[54,17]],[[660,8888],[40,-251]],[[700,8637],[-68,13],[3,-21],[-40,-30]],[[595,8599],[-33,36],[-3,26],[-42,15]],[[517,8676],[10,53],[-35,134],[-10,83]],[[595,8599],[-13,-51],[-11,27],[-90,-108]],[[481,8467],[-66,-73]],[[415,8394],[-31,72],[-53,40]],[[331,8506],[-6,13],[54,107]],[[379,8626],[27,46],[-6,106],[26,-60],[91,-42]],[[597,9221],[46,-23]],[[643,9198],[-17,-68],[4,-34]],[[440,9031],[-17,34],[-71,77],[-31,192],[-38,112],[-37,-26]],[[246,9420],[-17,61],[32,27],[76,-24],[49,-161],[211,-102]],[[9216,5826],[18,-14],[-5,-47],[-49,-175],[22,-19],[-27,-43],[-100,-206],[22,-31],[-35,-67],[13,-138],[25,-14],[-27,-54],[10,-21],[-34,-24],[-29,29],[-47,5],[5,82],[14,44],[-45,62],[-68,131],[13,22],[87,83],[-18,73],[23,26],[112,-49],[36,62],[76,165],[-15,27],[20,48],[3,43]],[[3047,4307],[10,-70],[-12,-39],[38,-34],[34,-50],[-21,-32],[-36,-84],[-20,-21],[33,-108]],[[3073,3869],[-35,-10],[-27,66],[-11,-7],[-58,168],[9,14],[-36,55],[-18,-19],[-13,60],[11,34],[22,-21],[14,50],[17,-11],[97,81],[2,-22]],[[9915,3185],[-29,-289]],[[9886,2896],[-110,-5]],[[9776,2891],[17,80],[62,140],[-45,-5],[3,52],[66,-2],[3,38],[33,-9]],[[9961,2820],[-73,-6]],[[9888,2814],[-2,82]],[[9915,3185],[26,14],[-13,-41],[-10,-120],[52,-7],[29,-90],[-31,-55],[-7,-66]],[[9905,2601],[-15,61],[-2,152]],[[9961,2820],[-9,-82],[15,-3],[19,-49],[-81,-27],[0,-58]],[[6521,7973],[19,-123],[27,-80],[-57,-31],[-46,-38],[23,74],[17,162],[-5,53],[15,20],[7,-37]],[[379,8626],[0,49],[-27,98],[15,26],[-4,65],[-26,-3],[-23,25],[-16,-48],[-22,1],[-1,158],[10,0],[47,149],[-32,152],[-25,87],[-41,-12],[-8,34],[20,13]],[[763,8335],[-25,67],[-38,235]],[[643,9198],[62,-33]],[[705,9165],[8,-4],[31,-148],[7,-80],[41,-4],[0,50],[37,9],[23,-31],[3,-75],[59,-29],[0,-27],[47,13],[-11,40],[54,9],[70,41],[5,-133],[-15,28],[-85,-11],[-1,-64],[-24,25],[2,34],[-47,-7],[-58,-32],[-36,-7],[-31,-110],[23,-50],[-10,-11],[36,-66],[0,-33],[-25,-7],[-17,42],[-25,-34],[7,-53],[24,18],[11,-47],[-28,-39],[18,-34],[-26,-25],[-9,22]],[[763,8335],[-33,43],[-15,-27],[42,-64],[-16,-28],[51,-93],[25,-66],[-13,-11],[13,-51],[-9,-17],[-51,105],[-31,-36]],[[726,8090],[-22,32],[-80,-86],[6,53],[-72,62],[-10,42]],[[548,8193],[-20,94],[-47,180]],[[9841,3880],[15,-8],[1,-75],[19,-111],[45,23],[38,-4],[-17,-82],[27,9],[-9,-68],[-21,17],[-45,-28],[2,42],[-37,139],[-19,49],[-22,-18],[-26,40],[25,69],[24,6]],[[726,8090],[-14,-170],[17,-142],[-80,-12],[-14,-35]],[[635,7731],[-1,139],[-24,11],[-15,36],[-49,-22],[-5,71],[-35,10],[-36,36],[71,177],[7,4]],[[597,9221],[35,175],[88,-60],[-11,-70],[12,-6],[-16,-95]],[[415,8394],[-39,-47],[16,-18],[-36,-105],[-7,-135],[19,-68],[-2,-58]],[[366,7963],[-40,25],[-34,54],[22,35],[-28,59],[-40,-83],[-22,84],[-19,-50],[-43,-44],[-51,-134]],[[111,7909],[-5,-11]],[[106,7898],[-32,69],[-23,-78],[-2,32],[-32,52],[6,24],[-22,59],[18,45],[-19,32],[25,44],[20,85],[-42,44],[20,46],[26,-14],[33,156],[47,10],[-21,-68],[-33,-181],[48,-27],[55,18],[35,-8],[29,-35],[45,81],[14,1],[27,59],[9,45],[18,10],[-33,30],[35,1],[4,28],[-36,26],[6,22]],[[635,7731],[-5,-95]],[[630,7636],[-33,16],[8,-45],[6,-186],[-25,7],[0,-83]],[[586,7345],[-15,-6],[1,193],[-21,151],[-24,90],[-72,170],[-24,-20],[-18,-66],[-64,30],[17,76]],[[630,7636],[90,-10],[-3,-22],[-63,10],[-13,-10],[8,-190],[14,-40],[-24,1],[1,-84],[-51,-8],[-3,62]],[[111,7909],[1,-25],[105,-270],[-78,-5],[-11,-50],[-25,45],[-50,-1],[-13,-35],[-16,19],[13,64],[3,72],[66,175]],[[353,9839],[3,-46],[28,-119],[-144,-96],[-52,188],[56,45],[-6,30],[24,41],[1,75],[59,41],[31,-159]],[[4062,584],[61,-103],[45,-44],[48,-69],[-12,-30],[75,17],[-24,-98],[45,-55],[-14,-34],[6,-106],[-20,-62],[-26,12],[20,78],[-124,172],[-37,-11],[-55,-64],[-32,36],[-30,-43],[17,-101],[-17,24],[-47,-25],[10,146],[22,45],[-4,32],[-42,-70],[-10,-36],[-53,28],[53,99],[56,29],[0,53],[39,96],[-29,29],[26,40],[31,-31],[22,46]],[[3047,4307],[76,53],[47,-117],[50,32],[21,-77],[89,20],[-11,59],[10,11],[18,-56],[165,-26],[-13,113],[18,8],[14,-125],[30,-39],[-3,67],[40,-40],[4,-36],[18,5],[-13,-80],[-17,16],[4,-54],[-77,65],[-64,40],[-94,8],[-1,33],[-87,-13],[27,-80],[-83,-24],[10,-22],[-40,-45],[-69,-121],[-38,-41],[-5,28]],[[5961,3832],[-18,-200],[-4,-139],[21,-206],[47,-11],[-3,-46],[-20,7],[15,-54],[-43,-28],[-20,46],[-29,-46],[-73,-40],[-50,-15],[-112,26],[-2,63],[60,-15],[0,43],[76,-3],[18,-21],[99,74],[-3,47],[-26,-5],[-4,122],[24,12],[4,112],[22,344],[19,-12],[-12,-54],[14,-1]],[[9905,2601],[17,-70],[-26,-13],[-42,50],[-10,191],[2,32],[-69,-40],[-20,-25],[19,165]],[[6035,9363],[-13,-141],[20,12],[0,50],[80,50],[142,12],[6,-51],[32,6],[3,-64],[-59,-32],[-118,-37],[-17,4],[-8,83],[-28,-13],[6,-41],[-54,-26],[7,-58],[19,-28],[-13,-21],[22,-20],[-15,-47],[-19,13],[-67,189],[-71,-3],[2,42],[-107,-59],[-60,-6],[4,-38],[-112,-49],[-24,-2],[-99,-46],[-99,-117],[-14,42],[37,41],[-1,80],[144,100],[91,8],[5,53],[42,9],[-1,-78],[92,12],[74,52],[3,47],[-21,-1],[7,74],[50,-11],[-20,-99],[67,-7],[-1,52],[43,-5],[2,78],[41,-9]]]}
