{"type":"Topology","bbox":[-75.25004925896593,8.714124104526437,-75.02866173227034,8.864153199969172],"transform":{"scale":[0.000022140966766236003,0.000015004409985271985],"translate":[-75.25004925896593,8.714124104526437]},"objects":{"municipios":{"type":"GeometryCollection","geometries":[{"type":"Polygon","arcs":[[0]],"properties":{"codigo":"70124200303021000101","sector":"701242003030210001","pcode":"CO70124","area_m2":84533}},{"type":"Polygon","arcs":[[1]],"properties":{"codigo":"70124200501018000101","sector":"701242005010180001","pcode":"CO70124","area_m2":37580}},{"type":"Polygon","arcs":[[2,3,4]],"properties":{"codigo":"70124100000000000101","sector":"701241000000000001","pcode":"CO70124","area_m2":122471}},{"type":"Polygon","arcs":[[-4,5,6,7,8,9,10]],"properties":{"codigo":"70124100000000000102","sector":"701241000000000001","pcode":"CO70124","area_m2":355586}},{"type":"Polygon","arcs":[[11,12,13,-6,-3]],"properties":{"codigo":"70124100000000000103","sector":"701241000000000001","pcode":"CO70124","area_m2":190728}},{"type":"Polygon","arcs":[[-10,14]],"properties":{"codigo":"70124100000000000105","sector":"701241000000000001","pcode":"CO70124","area_m2":53811}},{"type":"Polygon","arcs":[[15,-8]],"properties":{"codigo":"70124100000000000106","sector":"701241000000000001","pcode":"CO70124","area_m2":40476}},{"type":"MultiPolygon","arcs":[[[16,17]],[[18]]],"properties":{"codigo":"70124200102004000101","sector":"701242001020040001","pcode":"CO70124","area_m2":103009}},{"type":"Polygon","arcs":[[19,20]],"properties":{"codigo":"70124200304002000101","sector":"701242003040020001","pcode":"CO70124","area_m2":188814}},{"type":"MultiPolygon","arcs":[[[21]],[[22]]],"properties":{"codigo":"70124200105009000101","sector":"701242001050090001","pcode":"CO70124","area_m2":83185}},{"type":"Polygon","arcs":[[-17,23]],"properties":{"codigo":"70124200102004000102","sector":"701242001020040001","pcode":"CO70124","area_m2":187279}},{"type":"MultiPolygon","arcs":[[[24]],[[25]],[[26]]],"properties":{"codigo":"70124200403006000101","sector":"701242004030060001","pcode":"CO70124","area_m2":98890}},{"type":"Polygon","arcs":[[27]],"properties":{"codigo":"70124200302008000101","sector":"701242003020080001","pcode":"CO70124","area_m2":122126}},{"type":"Polygon","arcs":[[28,29]],"properties":{"codigo":"70124200402017000101","sector":"701242004020170001","pcode":"CO70124","area_m2":41445}},{"type":"Polygon","arcs":[[30]],"properties":{"codigo":"70124200302010000101","sector":"701242003020100001","pcode":"CO70124","area_m2":245387}},{"type":"Polygon","arcs":[[31]],"properties":{"codigo":"70124200404012000101","sector":"701242004040120001","pcode":"CO70124","area_m2":103148}},{"type":"Polygon","arcs":[[32,33]],"properties":{"codigo":"70124200201013000101","sector":"701242002010130001","pcode":"CO70124","area_m2":124860}},{"type":"Polygon","arcs":[[34]],"properties":{"codigo":"70124200401015000101","sector":"701242004010150001","pcode":"CO70124","area_m2":36547}},{"type":"Polygon","arcs":[[35]],"properties":{"codigo":"70124200201020000101","sector":"701242002010200001","pcode":"CO70124","area_m2":56790}},{"type":"Polygon","arcs":[[-13,36]],"properties":{"codigo":"70124100000000000104","sector":"701241000000000001","pcode":"CO70124","area_m2":242103}},{"type":"MultiPolygon","arcs":[[[-29,37]],[[38]],[[39]]],"properties":{"codigo":"70124200402001000101","sector":"701242004020010001","pcode":"CO70124","area_m2":86359}},{"type":"Polygon","arcs":[[-20,40]],"properties":{"codigo":"70124200304002000102","sector":"701242003040020001","pcode":"CO70124","area_m2":479565}},{"type":"Polygon","arcs":[[41]],"properties":{"codigo":"70124200403007000101","sector":"701242004030070001","pcode":"CO70124","area_m2":167693}},{"type":"Polygon","arcs":[[42]],"properties":{"codigo":"70124200305011000101","sector":"701242003050110001","pcode":"CO70124","area_m2":415035}},{"type":"MultiPolygon","arcs":[[[43,-33]],[[44]]],"properties":{"codigo":"70124200201014000101","sector":"701242002010140001","pcode":"CO70124","area_m2":76461}},{"type":"Polygon","arcs":[[45]],"properties":{"codigo":"70124200403016000101","sector":"701242004030160001","pcode":"CO70124","area_m2":99429}}]}},"arcs":[[[2580,4222],[-11,-96],[3,-94],[-31,-12],[-43,19],[-70,128],[37,46],[98,3],[17,6]],[[9568,231],[16,-95],[-6,-75],[34,-28],[13,37],[-1,-70],[-37,32],[6,-31],[-26,-1],[-11,121],[-11,33],[1,61],[-13,43],[4,47],[15,16],[20,-33],[-14,-23],[10,-34]],[[6113,5111],[-18,7],[-117,18]],[[5978,5136],[-36,9],[30,95],[-38,19]],[[5934,5259],[44,53],[52,-6],[7,29],[22,1],[62,-73],[10,-34],[-15,-60],[11,-7],[-14,-51]],[[5978,5136],[-14,-145],[33,-3],[-10,-195]],[[5987,4793],[-81,39],[-58,37],[9,30],[-53,36]],[[5804,4935],[-43,32],[-16,39],[-37,-29]],[[5708,4977],[-41,-11]],[[5667,4966],[-9,32],[75,48],[-91,103],[-14,22],[21,30]],[[5649,5201],[17,-30],[80,-68],[44,87],[19,-12],[8,53],[43,-21],[27,14],[5,48],[42,-13]],[[6113,5111],[70,-31],[31,-33]],[[6214,5047],[-10,-40],[-74,30],[-8,-102],[-63,6],[1,-42],[58,-15],[1,-47]],[[6119,4837],[-58,-8],[0,-50],[-74,14]],[[5667,4966],[-46,-27],[-22,-33],[-14,40],[52,38],[-8,17],[43,36],[-13,67],[-62,93],[-22,10],[42,39],[-53,125],[11,10],[74,-180]],[[5804,4935],[-47,-117],[-33,5],[10,22],[-28,28],[14,5],[9,45],[-21,54]],[[5343,9692],[-8,-40],[-32,12],[-39,-70],[-22,-1],[-57,68],[-18,40],[-16,-45]],[[5151,9656],[-62,67],[12,3],[45,81],[15,16],[5,-35],[69,-30],[70,-41],[-8,-30],[38,-20],[8,25]],[[5110,9978],[-16,-16],[-10,23],[26,-7]],[[2616,2660],[-61,-19],[19,-261],[-70,-16],[-4,51]],[[2500,2415],[13,72],[-10,28],[9,127],[-27,59],[3,52],[-60,-14],[-21,12],[-5,46],[8,91],[64,8],[34,-99],[34,56],[35,-48],[18,-59],[-2,-33],[23,-53]],[[1629,8575],[3,37],[14,-35],[46,-16],[32,-34],[19,12],[3,-52],[54,-44],[15,-26],[-8,-23],[-91,81],[7,21],[-39,21],[-3,-21],[-93,50],[-1,25],[-58,-10],[16,46],[-15,14],[11,54],[73,-46],[-8,-24],[23,-30]],[[1851,8377],[9,6],[45,-59],[-6,-32],[-31,57],[-14,-30],[-27,39],[24,19]],[[5343,9692],[12,34],[49,-40],[17,4],[33,47],[82,146],[7,-7],[-95,-198],[5,-5],[315,1],[2,-27],[-309,-2],[-23,-63],[-20,44],[-111,-186],[-156,216]],[[7227,3734],[50,-41],[14,-38],[-48,-3],[-12,25],[-62,49],[-22,-31],[-24,105],[19,3],[85,-69]],[[6769,3796],[89,-27],[10,30],[71,-27],[4,-38],[-26,-24],[-104,50],[-87,27],[6,20],[37,-11]],[[7092,3770],[8,-53],[-26,-5],[12,-27],[-76,-21],[-2,18],[-34,4],[1,34],[88,24],[29,26]],[[132,9022],[-16,-63],[24,-50],[57,-27],[31,74],[98,-37],[78,-43],[93,-40],[44,-7],[23,13],[-2,-65],[-77,42],[-3,-26],[-78,22],[-66,37],[-62,5],[-46,-12],[-42,3],[-34,22],[7,27],[-161,82],[5,14],[74,-23],[18,74],[35,-22]],[[8780,2397],[34,7]],[[8814,2404],[11,-2],[-7,-133],[77,-52],[-24,-26],[-82,52],[-7,-13],[-29,42],[51,64],[-35,8],[11,53]],[[2558,7918],[81,-70],[28,-103],[115,-36],[46,14],[-7,26],[45,22],[17,-17],[5,29],[20,-11],[-24,-113],[-39,23],[-82,15],[-2,-22],[-38,2],[5,-85],[-35,-7],[-4,24],[-31,12],[-29,50],[-62,44],[-39,11],[9,20],[-32,6],[-53,-27],[1,-22],[-49,-24],[0,23],[54,29],[-3,31],[-23,11],[17,47],[-51,45],[10,59],[102,-53],[23,66],[25,-19]],[[5640,516],[36,-18],[30,15],[28,-56],[-28,-35],[-16,-41],[-57,-44],[-18,-32],[-54,64],[-43,11],[36,84],[10,-15],[26,51],[16,-15],[34,31]],[[7973,7709],[-80,36],[-65,51],[-21,9]],[[7807,7805],[3,61],[-15,173],[14,-2],[6,-69],[100,-72],[-9,-36],[11,-47],[126,-90],[54,-47],[24,-57],[-11,-41],[-27,38],[-9,36],[-24,27],[-50,32],[-27,-2]],[[9984,3835],[15,-29],[-61,-62],[-8,14],[-124,-150],[-61,-27],[-27,1],[20,20],[60,32],[89,97],[53,64],[44,40]],[[8064,8877],[27,-49],[-20,-24],[47,-70],[-29,-30],[-43,72],[-26,5],[-22,-17],[-26,32],[-17,-16],[-12,53],[3,42],[33,-12],[36,-55],[35,95],[14,-26]],[[6214,5047],[94,-102],[51,-44],[124,-70],[80,-62],[-71,15],[-53,-44],[-107,56],[-119,46],[-5,-45],[-15,-8],[-74,48]],[[8780,2397],[-2,89],[34,-9],[-33,113],[-37,110],[-6,-4],[-13,86],[-18,17],[35,25],[51,-33],[5,-29],[-16,-45],[17,-13],[-11,-30],[7,-51],[43,-158],[-20,-13],[-2,-48]],[[8776,2509],[0,0]],[[8676,2784],[60,-117],[17,-51],[-18,-4],[-17,50],[-22,19],[-35,96],[15,7]],[[2616,2660],[51,-6],[42,-18],[3,-30],[-57,-27],[4,-18],[-38,-16],[13,-33],[-16,-10],[15,-95],[-30,-10],[13,-47],[14,-4],[6,-56],[-10,-14],[18,-57],[36,-2],[37,16],[3,-63],[15,-15],[-33,-76],[-6,-65],[78,-61],[-5,-22],[-73,63],[-11,-10],[-51,21],[-56,6],[-6,-94],[-17,10],[-29,55],[10,41],[-15,16],[19,42],[-60,5],[-56,39],[-35,4],[47,34],[-14,33],[-22,4],[-24,47],[-3,57],[26,22],[51,17],[-4,50],[54,22]],[[5028,4892],[108,-24],[-8,-25],[-73,23],[8,-46],[-13,-22],[-28,45],[4,22],[-88,26],[2,-49],[21,-62],[35,-41],[-12,-27],[-44,14],[-38,30],[-4,-20],[-48,-31],[-68,0],[-34,-11],[-2,26],[-51,10],[24,13],[49,-1],[3,24],[-87,66],[20,31],[111,-19],[24,-15],[26,20],[23,-13],[11,43],[-48,19],[4,34],[173,-40]],[[5081,4701],[25,-34],[27,-59],[-27,-27],[61,-112],[-36,-62],[45,-31],[6,15],[31,-15],[-7,-21],[44,-25],[78,218],[28,-14],[-129,-358],[51,-83],[-28,-20],[-44,69],[-7,-26],[-40,46],[-6,-26],[10,-128],[-26,-5],[-8,138],[19,77],[-42,26],[-19,-71],[-32,-47],[7,92],[-28,-17],[-21,-112],[31,-8],[-4,-26],[-47,14],[-18,22],[15,88],[28,88],[-38,13],[9,52],[29,-10],[14,64],[26,29],[-44,51],[-12,-20],[-24,100],[30,-25],[34,51],[-25,33],[0,36],[22,52],[24,27],[18,-19]],[[7973,7709],[-62,-20],[-31,13],[-4,-35],[-33,2],[45,-69],[-64,23],[1,46],[17,2],[0,41],[-33,2],[-2,91]],[[7839,7584],[15,-30],[6,-60],[-6,-39],[15,-117],[-25,3],[-30,105],[11,64],[2,75],[12,-1]],[[5335,4024],[112,-89],[20,40],[23,-16],[18,39],[11,-8],[-45,-76],[63,-44],[-9,-27],[71,-67],[34,0],[-2,-82],[-35,49],[-44,44],[-5,-52],[-37,-8],[-8,55],[-62,60],[19,41],[-19,20],[-12,-22],[-18,20],[10,24],[-104,87],[-11,-54],[-33,21],[13,62],[-12,23],[62,-40]]]}
