{"type":"Topology","bbox":[-74.80672709070643,8.304366584761135,-74.53332076322914,8.479036170977533],"transform":{"scale":[0.000027343367084437377,0.000017468705492189004],"translate":[-74.80672709070643,8.304366584761135]},"objects":{"municipios":{"type":"GeometryCollection","geometries":[{"type":"Polygon","arcs":[[0,1,2]],"properties":{"codigo":"70265100000000000104","sector":"702651000000000001","pcode":"CO70265","area_m2":50097}},{"type":"Polygon","arcs":[[3,4,5,-2]],"properties":{"codigo":"70265100000000000105","sector":"702651000000000001","pcode":"CO70265","area_m2":112104}},{"type":"Polygon","arcs":[[6]],"properties":{"codigo":"70265200102008000101","sector":"702652001020080001","pcode":"CO70265","area_m2":110303}},{"type":"Polygon","arcs":[[7]],"properties":{"codigo":"70265200304009000101","sector":"702652003040090001","pcode":"CO70265","area_m2":105519}},{"type":"Polygon","arcs":[[8]],"properties":{"codigo":"70265200203010000101","sector":"702652002030100001","pcode":"CO70265","area_m2":53342}},{"type":"Polygon","arcs":[[9]],"properties":{"codigo":"70265200401012000101","sector":"702652004010120001","pcode":"CO70265","area_m2":97561}},{"type":"Polygon","arcs":[[10,11]],"properties":{"codigo":"70265100000000000101","sector":"702651000000000001","pcode":"CO70265","area_m2":379871}},{"type":"Polygon","arcs":[[12,13,14,-11]],"properties":{"codigo":"70265100000000000102","sector":"702651000000000001","pcode":"CO70265","area_m2":105891}},{"type":"Polygon","arcs":[[15,-3,-6,16,17,18,-14]],"properties":{"codigo":"70265100000000000103","sector":"702651000000000001","pcode":"CO70265","area_m2":154047}},{"type":"Polygon","arcs":[[19,20,-17,-5]],"properties":{"codigo":"70265100000000000106","sector":"702651000000000001","pcode":"CO70265","area_m2":147147}},{"type":"Polygon","arcs":[[21,-18,-21]],"properties":{"codigo":"70265100000000000107","sector":"702651000000000001","pcode":"CO70265","area_m2":93057}},{"type":"Polygon","arcs":[[22]],"properties":{"codigo":"70265200302002000101","sector":"702652003020020001","pcode":"CO70265","area_m2":67788}},{"type":"Polygon","arcs":[[23]],"properties":{"codigo":"70265200201006000101","sector":"702652002010060001","pcode":"CO70265","area_m2":57018}},{"type":"Polygon","arcs":[[24]],"properties":{"codigo":"70265200102011000101","sector":"702652001020110001","pcode":"CO70265","area_m2":124554}},{"type":"Polygon","arcs":[[25]],"properties":{"codigo":"70265200203013000101","sector":"702652002030130001","pcode":"CO70265","area_m2":283906}},{"type":"MultiPolygon","arcs":[[[26]],[[27]]],"properties":{"codigo":"70265200402004000101","sector":"702652004020040001","pcode":"CO70265","area_m2":159612}}]}},"arcs":[[[9999,9262],[-6,-36]],[[9993,9226],[-212,48],[-13,15]],[[9768,9289],[-19,49],[43,-13],[-1,-20],[208,-43]],[[9993,9226],[-80,-89],[-29,-65]],[[9884,9072],[-20,46],[-63,89],[6,14],[-46,51]],[[9761,9272],[7,17]],[[7680,9848],[-10,-37],[32,-17],[-6,-25],[-60,42],[-34,-1],[-7,-37],[-99,37],[27,78],[-56,54],[8,28],[124,-133],[32,-5],[37,167],[42,-27],[-27,-83],[-3,-41]],[[6908,5981],[41,104],[22,-26],[23,69],[-16,13],[19,54],[19,-33],[-18,-24],[20,-13],[8,-72],[-31,-24],[-11,-41],[-26,-21],[1,-33],[-73,-130],[-27,43],[62,116],[-13,18]],[[5977,7747],[-17,-56],[-22,-16],[-66,16],[-33,-4],[23,45],[25,-12],[42,30],[21,86],[27,-89]],[[61,5203],[26,-18],[16,-62],[-17,-13],[31,-99],[-36,-20],[-27,39],[-18,-11],[-36,147],[40,13],[-24,107],[20,20],[25,-103]],[[9996,9422],[-46,-5],[-82,7],[1,99],[-32,0]],[[9837,9523],[-58,120],[40,45],[-21,56],[-55,64],[-17,7],[-37,74],[71,56],[53,-122],[44,-86],[98,27],[19,-95],[22,-247]],[[9996,9422],[2,-106]],[[9998,9316],[-87,15],[-46,24],[-174,63],[2,17],[-55,50]],[[9638,9485],[34,-5],[22,-47],[66,-33],[89,-20],[7,44],[-17,10],[-2,89]],[[9998,9316],[1,-54]],[[9761,9272],[-1,-5]],[[9760,9267],[-22,36],[-32,0],[0,38],[-39,0]],[[9667,9341],[-14,2],[-1,76],[-21,40],[7,26]],[[9884,9072],[-39,-78],[-30,-2],[-51,33],[-5,24],[-31,9]],[[9728,9058],[20,12],[-10,75],[-17,27],[39,95]],[[9728,9058],[-25,78],[4,46],[-68,26],[28,133]],[[3571,175],[188,-149],[-33,-26],[-115,88],[-5,-9],[-92,70],[35,-1],[22,27]],[[2611,1630],[-56,30],[49,163],[49,-52],[-42,-141]],[[8531,9596],[59,-79],[43,-76],[66,-88],[52,-13],[-24,-61],[1,-29],[-30,-30],[-12,31],[-25,-12],[-10,34],[61,-10],[7,37],[-33,24],[-17,36],[-86,130],[-51,-31],[14,-73],[-20,21],[-42,-33],[-9,21],[18,47],[-11,28],[16,57],[24,42],[-25,24],[34,3]],[[6345,9276],[-3,-21],[75,5],[-11,-71],[35,-64],[76,-1],[33,31],[144,88],[43,2],[27,38],[28,69],[5,41],[26,-20],[-32,-46],[-44,-93],[-99,-37],[7,-33],[66,27],[3,-18],[-58,-24],[-49,-42],[-13,38],[-66,-72],[-31,-15],[-63,16],[-57,50],[-54,-39],[-16,48],[-14,121],[13,54],[-15,24],[3,119],[96,-42],[-15,-52],[-40,-81]],[[1097,2674],[43,-117],[32,-66],[-30,-9],[-35,94],[-35,42],[-81,26],[1,13],[-64,21],[-8,34],[10,63],[88,-47],[79,-54]],[[937,2935],[-1,-27],[-73,-37],[-34,66],[143,73],[6,-23],[-30,-14],[-11,-38]]]}
