{"type":"Topology","bbox":[-75.15258379295415,8.50066822662014,-74.8686593457411,9.097710994146114],"transform":{"scale":[0.000028395284249730282,0.00005971024777737509],"translate":[-75.15258379295415,8.50066822662014]},"objects":{"municipios":{"type":"GeometryCollection","geometries":[{"type":"Polygon","arcs":[[0]],"properties":{"codigo":"70678201302035000101","sector":"706782013020350001","pcode":"CO70678","area_m2":43144}},{"type":"Polygon","arcs":[[1]],"properties":{"codigo":"70678200102036000101","sector":"706782001020360001","pcode":"CO70678","area_m2":72609}},{"type":"MultiPolygon","arcs":[[[2]],[[3]],[[4]]],"properties":{"codigo":"70678201403039000101","sector":"706782014030390001","pcode":"CO70678","area_m2":86821}},{"type":"Polygon","arcs":[[5]],"properties":{"codigo":"70678201302038000101","sector":"706782013020380001","pcode":"CO70678","area_m2":236003}},{"type":"Polygon","arcs":[[6,7,8,9]],"properties":{"codigo":"70678200301007000104","sector":"706782003010070001","pcode":"CO70678","area_m2":52815}},{"type":"Polygon","arcs":[[10]],"properties":{"codigo":"70678200101019000101","sector":"706782001010190001","pcode":"CO70678","area_m2":160198}},{"type":"Polygon","arcs":[[11]],"properties":{"codigo":"70678200801034000101","sector":"706782008010340001","pcode":"CO70678","area_m2":72989}},{"type":"Polygon","arcs":[[12,13,14,15]],"properties":{"codigo":"70678100000000000102","sector":"706781000000000001","pcode":"CO70678","area_m2":72014}},{"type":"Polygon","arcs":[[16,17,18,-13,19,20]],"properties":{"codigo":"70678100000000000104","sector":"706781000000000001","pcode":"CO70678","area_m2":172045}},{"type":"MultiPolygon","arcs":[[[21]],[[22]]],"properties":{"codigo":"70678201105002000101","sector":"706782011050020001","pcode":"CO70678","area_m2":25079}},{"type":"Polygon","arcs":[[23]],"properties":{"codigo":"70678200605003000101","sector":"706782006050030001","pcode":"CO70678","area_m2":39583}},{"type":"MultiPolygon","arcs":[[[-9,24,25]],[[26,27]],[[28,29]]],"properties":{"codigo":"70678200301007000101","sector":"706782003010070001","pcode":"CO70678","area_m2":56088}},{"type":"Polygon","arcs":[[30]],"properties":{"codigo":"70678201407033000101","sector":"706782014070330001","pcode":"CO70678","area_m2":271128}},{"type":"Polygon","arcs":[[31,32]],"properties":{"codigo":"70678200202009000101","sector":"706782002020090001","pcode":"CO70678","area_m2":103715}},{"type":"Polygon","arcs":[[33,34,35]],"properties":{"codigo":"70678200203010000102","sector":"706782002030100001","pcode":"CO70678","area_m2":148485}},{"type":"Polygon","arcs":[[36,37,38,-34,39]],"properties":{"codigo":"70678200203010000103","sector":"706782002030100001","pcode":"CO70678","area_m2":313427}},{"type":"Polygon","arcs":[[40]],"properties":{"codigo":"70678200302011000101","sector":"706782003020110001","pcode":"CO70678","area_m2":97355}},{"type":"Polygon","arcs":[[41]],"properties":{"codigo":"70678200906013000101","sector":"706782009060130001","pcode":"CO70678","area_m2":39236}},{"type":"Polygon","arcs":[[42,43,44]],"properties":{"codigo":"70678200201015000102","sector":"706782002010150001","pcode":"CO70678","area_m2":119738}},{"type":"MultiPolygon","arcs":[[[45,46]],[[47]]],"properties":{"codigo":"70678200804025000102","sector":"706782008040250001","pcode":"CO70678","area_m2":195765}},{"type":"Polygon","arcs":[[48]],"properties":{"codigo":"70678200805027000101","sector":"706782008050270001","pcode":"CO70678","area_m2":137451}},{"type":"Polygon","arcs":[[49]],"properties":{"codigo":"70678200103028000101","sector":"706782001030280001","pcode":"CO70678","area_m2":416052}},{"type":"MultiPolygon","arcs":[[[50]],[[51]],[[52]]],"properties":{"codigo":"70678200803032000101","sector":"706782008030320001","pcode":"CO70678","area_m2":46815}},{"type":"Polygon","arcs":[[-15,53,54,55]],"properties":{"codigo":"70678100000000000101","sector":"706781000000000001","pcode":"CO70678","area_m2":1285192}},{"type":"Polygon","arcs":[[56,-54,-14,-19]],"properties":{"codigo":"70678100000000000103","sector":"706781000000000001","pcode":"CO70678","area_m2":110640}},{"type":"Polygon","arcs":[[57,-21,58]],"properties":{"codigo":"70678100000000000105","sector":"706781000000000001","pcode":"CO70678","area_m2":91700}},{"type":"Polygon","arcs":[[-58,59,60,-17]],"properties":{"codigo":"70678100000000000106","sector":"706781000000000001","pcode":"CO70678","area_m2":84686}},{"type":"Polygon","arcs":[[-61,61,-55,-57,-18]],"properties":{"codigo":"70678100000000000107","sector":"706781000000000001","pcode":"CO70678","area_m2":492666}},{"type":"Polygon","arcs":[[62]],"properties":{"codigo":"70678200605004000101","sector":"706782006050040001","pcode":"CO70678","area_m2":309550}},{"type":"MultiPolygon","arcs":[[[-8,63,64,-25]],[[-29,65,-27,66]]],"properties":{"codigo":"70678200301007000102","sector":"706782003010070001","pcode":"CO70678","area_m2":80838}},{"type":"Polygon","arcs":[[-7,67,-64]],"properties":{"codigo":"70678200301007000103","sector":"706782003010070001","pcode":"CO70678","area_m2":65652}},{"type":"Polygon","arcs":[[68,-32]],"properties":{"codigo":"70678200202009000102","sector":"706782002020090001","pcode":"CO70678","area_m2":120869}},{"type":"Polygon","arcs":[[-35,-39,69]],"properties":{"codigo":"70678200203010000101","sector":"706782002030100001","pcode":"CO70678","area_m2":1243080}},{"type":"Polygon","arcs":[[-37,70]],"properties":{"codigo":"70678200203010000104","sector":"706782002030100001","pcode":"CO70678","area_m2":152247}},{"type":"MultiPolygon","arcs":[[[71]],[[72]]],"properties":{"codigo":"70678200906012000101","sector":"706782009060120001","pcode":"CO70678","area_m2":69298}},{"type":"Polygon","arcs":[[-45,73,74]],"properties":{"codigo":"70678200201015000101","sector":"706782002010150001","pcode":"CO70678","area_m2":190178}},{"type":"Polygon","arcs":[[75,-74,-44]],"properties":{"codigo":"70678200201015000103","sector":"706782002010150001","pcode":"CO70678","area_m2":134874}},{"type":"Polygon","arcs":[[76]],"properties":{"codigo":"70678200301020000101","sector":"706782003010200001","pcode":"CO70678","area_m2":48523}},{"type":"Polygon","arcs":[[-46,77]],"properties":{"codigo":"70678200804025000101","sector":"706782008040250001","pcode":"CO70678","area_m2":135722}},{"type":"Polygon","arcs":[[78]],"properties":{"codigo":"70678200702026000101","sector":"706782007020260001","pcode":"CO70678","area_m2":90794}},{"type":"Polygon","arcs":[[79]],"properties":{"codigo":"70678201404037000101","sector":"706782014040370001","pcode":"CO70678","area_m2":67949}}]}},"arcs":[[[5037,2526],[22,-9],[-42,-20],[-65,-43],[-22,-24],[-27,2],[14,8],[118,87],[2,-1]],[[3598,8396],[11,-6],[-37,-9],[-29,-17],[-35,-4],[-17,-5],[-41,0],[2,6],[-20,2],[-7,7],[166,30],[7,-4]],[[9969,9],[-23,-9],[-51,34],[58,16],[46,-30],[-30,-11]],[[9931,65],[-29,-8],[-32,-4],[-7,12],[51,11],[17,-11]],[[9904,82],[-21,-5],[-5,4],[-23,-6],[-12,12],[37,11],[24,-16]],[[6044,2189],[54,-9],[8,5],[31,-10],[0,-12],[15,-7],[10,8],[112,-29],[-43,-28],[-72,17],[-34,6],[-70,8],[-68,11],[-20,7],[55,37],[22,-4]],[[9290,9654],[-12,29]],[[9278,9683],[19,4]],[[9297,9687],[55,-14]],[[9352,9673],[21,-20],[-24,-12],[-17,8],[-21,-3],[-21,8]],[[451,8194],[36,-10],[57,-7],[55,-4],[74,-10],[4,8],[42,-1],[0,-12],[56,-3],[1,-6],[-22,-2],[2,-10],[-31,0],[-66,8],[-101,14],[-90,7],[-39,10],[-39,14],[9,7],[-1,12],[53,-15]],[[2510,7791],[14,4],[15,-10],[-17,-5],[9,-8],[30,10],[21,-11],[-37,-12],[59,-53],[8,1],[31,-16],[-7,-4],[-29,16],[-9,-4],[-31,18],[-47,42],[-29,31],[-24,8],[12,8],[31,-15]],[[4497,7203],[-12,-5],[-25,-23]],[[4460,7175],[-115,27]],[[4345,7202],[9,10],[48,-10],[38,26]],[[4440,7228],[5,1],[36,-22],[16,-4]],[[4549,7113],[-5,-3],[-33,10],[-16,-4]],[[4495,7116],[-75,19]],[[4420,7135],[40,40]],[[4497,7203],[50,-26]],[[4547,7177],[-9,-4],[23,-9],[-7,-4],[19,-9],[-14,-9],[25,-8],[-35,-21]],[[6312,2834],[12,-7],[14,3],[2,-11],[35,-22],[-9,-4],[-28,7],[-32,25],[-14,7],[20,2]],[[6293,2841],[0,0]],[[6500,6799],[48,-20],[25,-4],[-2,-5],[-120,7],[-3,17],[23,-1],[1,6],[28,0]],[[9297,9687],[-17,9],[-63,4],[-68,-2],[-54,11]],[[9095,9709],[1,4],[45,-11],[43,1],[29,2],[0,4],[78,-9],[5,-7],[29,-10],[30,-6],[-3,-4]],[[9048,9718],[-14,1],[-51,-7]],[[8983,9712],[15,12],[-1,10],[26,2],[2,-5],[31,-6],[-8,-7]],[[8844,9696],[-24,-7]],[[8820,9689],[-4,21],[27,-8],[1,-6]],[[7397,1001],[48,-10],[-18,-17],[-56,13],[-75,11],[-39,-2],[-51,-15],[-52,-30],[-6,3],[-69,-18],[-10,8],[-25,-3],[-41,0],[-37,6],[-27,11],[-2,18],[17,3],[20,-13],[59,-8],[30,3],[46,12],[28,17],[23,19],[20,6],[47,5],[57,-2],[77,-9],[36,-8]],[[4648,8097],[-8,-8],[-34,8],[-15,-6],[-20,10],[-7,-2]],[[4564,8099],[-24,15],[6,4],[-35,9],[-6,-7],[-28,6],[-73,11],[14,8],[63,-9],[21,14],[13,-4],[-16,-10],[40,-7],[19,1],[-10,28],[20,2],[11,12],[23,5],[13,-7],[-24,-9],[-6,3],[-10,-24],[11,-18],[37,4],[-7,-29],[21,-4],[11,4]],[[8327,8489],[-100,-37],[10,-6],[-13,-5],[-11,6],[-45,-17]],[[8168,8430],[-26,4],[-37,-3],[-19,7],[21,7],[65,26],[108,43]],[[8280,8514],[24,-17],[23,-8]],[[8318,8416],[-20,4],[-82,-34],[11,-6]],[[8227,8380],[-14,-7],[-17,10],[8,3],[-37,11],[-20,-11],[-12,7],[28,16],[10,1]],[[8173,8410],[12,14],[-17,6]],[[8327,8489],[30,-9],[12,11],[77,-20],[-14,-12],[11,-4],[-62,-33],[-11,10],[-26,-12],[-26,-4]],[[9933,9911],[-12,8],[-34,1],[-7,5],[-9,31],[4,6],[24,1],[22,-11],[45,5],[30,-1],[-7,-25],[9,-4],[-27,-16],[-14,5],[-24,-5]],[[4349,5038],[25,29],[28,-2],[55,-14],[-14,-11],[-50,3],[-31,-10],[-13,5]],[[3655,8714],[11,-12],[-1,-11],[-13,-24]],[[3652,8667],[-33,7],[-31,0],[-14,19],[-3,51]],[[3571,8744],[61,4],[15,-17],[-1,-14],[9,-3]],[[1516,6335],[23,5],[78,2],[54,8],[67,7]],[[1738,6357],[187,19],[-21,-14],[-33,-5],[2,-5],[-35,-4],[-37,-9],[-42,-7],[9,-19],[-13,-13],[-39,6],[-30,7],[-56,9],[6,7],[-51,6],[-37,0],[-25,-4],[-7,4]],[[1951,6351],[-16,-1],[0,7],[16,-6]],[[2866,5899],[36,1],[43,-11],[0,-8],[-27,-18],[14,-5],[-6,-5],[-25,4],[-9,-10],[-40,8],[6,8],[-41,8],[-1,-8],[-25,3],[-23,-1],[-2,7],[-60,2],[0,9],[-21,0],[-2,8],[32,7],[3,-15],[67,0],[2,8],[33,-5],[18,12],[22,6],[6,-5]],[[1692,7940],[9,-1],[6,14],[25,-3],[-12,-22],[21,-3],[-8,-9],[-68,11],[-29,-26],[-21,4],[-28,-15],[-9,-8],[-26,-9],[-22,-1],[-6,10],[-51,-18],[-2,17],[5,18],[-5,2],[-2,22],[-59,-1],[-1,4],[42,3],[-8,14],[14,2],[-32,51],[30,-9],[4,11],[69,-12],[13,-6],[64,-11],[0,-12],[48,-11],[39,-6]],[[3411,6302],[3,-9],[34,-3],[1,-9],[-22,-1],[2,5],[-41,2],[1,-5],[-41,3],[-20,8],[12,8],[33,-3],[19,7],[19,-3]],[[3332,6319],[-9,-5],[14,-13],[-25,0],[-12,5],[8,13],[28,4],[-4,-4]],[[3495,6274],[-15,15],[22,-4],[-7,-11]],[[4345,7202],[-35,-37]],[[4310,7165],[-40,-37],[-72,25],[-32,-22],[8,-3],[-23,-23]],[[4151,7105],[-58,38],[18,5],[-22,7],[16,14],[-49,14],[8,7],[-42,12],[22,12],[-21,8],[20,10],[-62,19],[1,18],[14,19],[-2,20],[-9,23],[17,3],[20,25],[26,-5],[8,8],[15,-4],[55,1],[29,-9],[41,-20],[32,-12],[53,5],[-36,-27],[74,-27],[78,-30],[19,13],[6,-10],[18,-14]],[[4420,7135],[-45,14],[-65,16]],[[4630,7106],[-15,3],[-7,-8],[-59,12]],[[4547,7177],[21,-1],[34,-18],[29,-11],[30,-19],[-31,-22]],[[4630,7106],[-8,-12],[-23,-13],[-16,-4],[-11,5],[-16,-12],[-44,14],[-39,22]],[[4473,7106],[22,10]],[[4473,7106],[-16,-11],[17,-5],[8,-13],[-55,-23],[-149,11],[-44,10],[-10,-7],[-23,7],[-50,30]],[[5868,7311],[35,-18],[16,-3],[51,-4],[3,9],[16,0],[-3,-10],[52,-3],[13,7],[22,0],[-11,-16],[-33,3],[-9,-27],[-20,1],[0,-7],[-23,0],[-37,-14],[20,-14],[2,-12],[18,-16],[5,-15],[-17,-12],[5,-12],[2,-22],[19,-34],[-21,13],[-11,12],[-12,26],[7,4],[-66,75],[-32,19],[14,4],[-9,8],[11,4],[-21,12],[8,3],[-39,23],[45,16]],[[9278,9683],[-54,-2],[-30,6],[-51,1]],[[9143,9688],[-5,5],[-37,3],[-16,7],[10,6]],[[8844,9696],[39,13],[20,4],[58,-2],[22,1]],[[9048,9718],[-1,-4],[-31,-1],[-64,-10],[-19,4],[-47,-3],[-69,-24],[3,9]],[[9290,9654],[-28,0],[-19,-18],[-19,2],[-8,30],[-12,7],[-54,5],[-7,8]],[[4648,8097],[7,-1],[-17,-13],[-11,-17],[48,-9],[-38,-3],[9,-17],[43,0],[1,-2],[-41,-2],[56,-56],[-5,-5],[12,-20],[-27,0],[-3,18],[-15,-1],[-4,19],[-14,6],[13,2],[-8,9],[-40,29],[-25,3],[5,23],[-4,19],[-26,20]],[[8173,8410],[-13,5],[11,9],[-44,8],[-10,-6],[-20,1],[-14,7],[-64,0],[-38,-16],[-14,15],[-71,7],[-69,7],[3,4],[-66,13],[-15,-9],[-34,5],[-7,-5],[-47,11],[-38,13],[-73,12],[-155,22],[14,17],[8,2],[18,58],[59,-5],[57,-11],[5,-9],[105,-28],[70,43],[56,-33],[32,-13],[85,-17],[145,-24],[26,-1],[74,10],[76,3],[23,-2],[2,16],[20,1],[10,-6]],[[8318,8416],[46,-13],[37,-15],[-23,-13],[6,-2],[-44,-20],[-23,-2],[-10,6],[-12,-4],[-48,17],[-20,10]],[[5318,4666],[23,0],[-23,-10],[3,-27],[6,-7],[-11,-8],[-16,2],[-1,29],[-21,1],[2,-18],[-23,0],[-7,20],[15,1],[38,8],[4,25],[-16,4],[30,0],[-3,-20]],[[5405,4624],[-15,-12],[22,-3],[-13,-12],[-7,7],[-35,1],[4,16],[14,2],[13,13],[17,-6],[0,-6]],[[3571,8744],[-20,9],[-5,-3]],[[3546,8750],[-26,3],[-6,-7],[-34,2],[13,10],[-7,5],[17,7],[-12,26],[-9,5],[16,7],[29,-3],[3,11],[12,0],[-4,20],[42,-2],[11,10],[-14,5],[26,-2],[26,8],[5,-3],[-36,-27],[-10,-15],[12,-1],[-10,-12],[-5,-24],[21,-5],[9,-8],[13,3],[27,-25],[0,-24]],[[3652,8667],[-3,-22],[-32,-6],[28,-23],[-22,-1],[-28,6],[-41,-2],[-4,-13],[-22,9],[2,17],[15,22],[10,0],[4,29],[0,26],[5,36],[-18,5]],[[9418,9991],[17,-17],[-15,2],[-7,-7],[-28,4],[-15,-19],[5,-9],[-27,3],[-2,17],[-23,3],[-2,10],[32,-3],[7,8],[25,9],[20,-1],[3,8],[10,-8]],[[1516,6335],[-13,-6],[-3,12],[9,7],[16,-2],[64,2],[35,0],[11,15],[-11,10],[-17,-2],[10,8],[-14,22],[40,9],[51,3],[1,-17],[12,-22],[14,0],[17,-17]],[[22,8261],[25,-6],[27,2],[90,-7],[30,-6],[24,-10],[9,10],[63,-7],[-1,-16],[-64,11],[-7,-8],[-66,11],[-67,3],[-85,11],[11,13],[11,-1]],[[7915,778],[-9,-8],[-17,3],[-30,0],[-46,-6],[-74,-12],[-45,2],[15,27],[32,-4],[8,-18],[28,6],[34,14],[19,2],[16,9],[69,-15]]]}
