{"type":"Topology","bbox":[-75.27288942117008,9.01220717161609,-75.05080355080253,9.155028170491885],"transform":{"scale":[0.00002221080811756679,0.000014283528240403532],"translate":[-75.27288942117008,9.01220717161609]},"objects":{"municipios":{"type":"GeometryCollection","geometries":[{"type":"Polygon","arcs":[[0,1,2]],"properties":{"codigo":"70233200204004000103","sector":"702332002040040001","pcode":"CO70233","area_m2":86445}},{"type":"Polygon","arcs":[[-1,3,4]],"properties":{"codigo":"70233200204004000101","sector":"702332002040040001","pcode":"CO70233","area_m2":100442}},{"type":"Polygon","arcs":[[5]],"properties":{"codigo":"70233200202001000101","sector":"702332002020010001","pcode":"CO70233","area_m2":122007}},{"type":"Polygon","arcs":[[6]],"properties":{"codigo":"70233200104005000101","sector":"702332001040050001","pcode":"CO70233","area_m2":133546}},{"type":"Polygon","arcs":[[7]],"properties":{"codigo":"70233200202006000101","sector":"702332002020060001","pcode":"CO70233","area_m2":384844}},{"type":"Polygon","arcs":[[8]],"properties":{"codigo":"70233200202007000101","sector":"702332002020070001","pcode":"CO70233","area_m2":132384}},{"type":"Polygon","arcs":[[9]],"properties":{"codigo":"70233200101003000101","sector":"702332001010030001","pcode":"CO70233","area_m2":184121}},{"type":"Polygon","arcs":[[-3,10,-4]],"properties":{"codigo":"70233200204004000102","sector":"702332002040040001","pcode":"CO70233","area_m2":95062}},{"type":"Polygon","arcs":[[11,12,13,14,15,16,17]],"properties":{"codigo":"70233100000000000104","sector":"702331000000000001","pcode":"CO70233","area_m2":137414}},{"type":"Polygon","arcs":[[18,19,20]],"properties":{"codigo":"70233100000000000101","sector":"702331000000000001","pcode":"CO70233","area_m2":103743}},{"type":"Polygon","arcs":[[-20,21,-17,22]],"properties":{"codigo":"70233100000000000102","sector":"702331000000000001","pcode":"CO70233","area_m2":177074}},{"type":"Polygon","arcs":[[23,-18,-22,-19]],"properties":{"codigo":"70233100000000000103","sector":"702331000000000001","pcode":"CO70233","area_m2":76323}},{"type":"Polygon","arcs":[[-13,24]],"properties":{"codigo":"70233100000000000105","sector":"702331000000000001","pcode":"CO70233","area_m2":269803}},{"type":"Polygon","arcs":[[-15,25]],"properties":{"codigo":"70233100000000000106","sector":"702331000000000001","pcode":"CO70233","area_m2":582518}},{"type":"Polygon","arcs":[[26]],"properties":{"codigo":"70233200205002000101","sector":"702332002050020001","pcode":"CO70233","area_m2":121344}},{"type":"Polygon","arcs":[[27]],"properties":{"codigo":"70233200202008000101","sector":"702332002020080001","pcode":"CO70233","area_m2":135197}},{"type":"Polygon","arcs":[[28]],"properties":{"codigo":"70233200205009000101","sector":"702332002050090001","pcode":"CO70233","area_m2":27742}},{"type":"Polygon","arcs":[[29]],"properties":{"codigo":"70233200205010000101","sector":"702332002050100001","pcode":"CO70233","area_m2":158722}},{"type":"MultiPolygon","arcs":[[[30]],[[31]]],"properties":{"codigo":"70233200203011000101","sector":"702332002030110001","pcode":"CO70233","area_m2":41608}},{"type":"Polygon","arcs":[[32]],"properties":{"codigo":"70233200201012000101","sector":"702332002010120001","pcode":"CO70233","area_m2":95555}},{"type":"Polygon","arcs":[[33]],"properties":{"codigo":"70233200205013000101","sector":"702332002050130001","pcode":"CO70233","area_m2":15045}}]}},"arcs":[[[8397,5921],[0,-166]],[[8397,5755],[-17,-42],[-24,104],[-41,33],[-82,-78],[-20,8],[-79,-26],[-4,-33],[-29,-5],[-1,31],[-84,-23],[10,-37],[-24,-20],[-21,72],[14,3]],[[7995,5742],[186,44],[103,65],[65,106],[48,-36]],[[8397,5921],[31,121],[-43,34],[10,71],[-17,81],[-18,17]],[[8360,6245],[-30,34],[7,82],[27,1],[0,-89],[16,-4],[49,-67],[31,-79],[71,-66],[-77,-35],[-32,-85],[-15,-84],[49,-40],[-8,-34],[-51,-24]],[[8776,2732],[47,-21],[75,-168],[60,-25],[43,-102],[-38,-67],[-144,203],[-57,113],[-21,135],[24,15],[11,-83]],[[4284,543],[26,-72],[-15,-21],[45,-95],[12,15],[125,-201],[-12,-24],[25,-24],[17,34],[0,-51],[34,-34],[-11,-27],[-35,29],[-38,-25],[-9,-47],[-31,107],[-50,30],[-31,-7],[-38,-39],[-11,108],[19,13],[7,-48],[30,-21],[14,144],[-42,80],[-20,17],[-48,136],[37,23]],[[8811,1006],[52,63],[89,-129],[98,-199],[149,-181],[-178,-42],[-20,-33],[-85,122],[-34,93],[-45,91],[21,11],[-30,76],[-34,-23],[-52,146],[10,68],[59,-63]],[[8578,4768],[27,-164],[13,6],[24,-133],[50,-212],[11,-157],[-54,8],[-4,41],[30,6],[-3,94],[-15,-2],[-17,58],[-25,-6],[-45,230],[-18,50],[7,40],[-42,136],[24,0],[33,42],[4,-37]],[[120,8815],[82,-10],[-4,-70],[12,-16],[68,0],[41,-14],[-3,-38],[-31,16],[-75,-13],[-31,-23],[1,-130],[-48,-25],[-46,62],[-42,1],[-2,-28],[-36,-1],[-6,34],[29,36],[1,118],[-8,96],[41,-88],[52,22],[-8,56],[13,15]],[[7995,5742],[-1,18],[169,49],[30,33],[29,-3],[55,53],[-4,22],[33,52],[1,44],[40,-7],[35,121],[-2,63],[-20,58]],[[3567,6300],[21,-100]],[[3588,6200],[-3,12],[-81,-94],[-17,-56]],[[3487,6062],[-67,49]],[[3420,6111],[18,90],[-49,37],[-35,-75],[-12,95]],[[3342,6258],[-1,3]],[[3341,6261],[47,-2],[22,58],[79,65]],[[3489,6382],[7,-117],[71,35]],[[3577,6486],[-50,-5],[-5,22],[-41,-2],[-10,-45]],[[3471,6456],[-93,223],[-64,178],[10,9]],[[3324,6866],[28,-73],[28,27],[19,-97],[17,-11],[27,-85],[28,-22],[15,21],[31,-28],[23,-52],[20,49],[32,-32],[0,-69],[-15,-8]],[[3471,6456],[18,-74]],[[3341,6261],[1,63],[50,25],[24,-8],[9,102],[-35,-2],[-7,39],[-29,16],[7,73],[27,17],[-30,97],[-60,163],[-7,54],[-27,-20],[-27,93],[38,14],[-22,66],[55,58],[-20,-37],[52,-44],[37,-92],[-53,-72]],[[3577,6486],[8,-92],[19,-54],[-45,-3],[8,-37]],[[3588,6200],[28,-63],[65,48],[47,124],[45,19],[63,-125],[-53,-57],[-28,-129],[-97,60],[1,-91],[13,-62],[-26,-27],[14,-68],[-62,-30],[-20,55],[-36,205],[-55,3]],[[3420,6111],[-20,-98],[-34,-82],[-18,66],[-80,-162],[-49,-61],[-24,92],[-79,-53],[-70,29],[-94,-64],[-38,-88],[-18,17],[8,162],[-11,-12],[-40,102],[-14,-4],[-6,93],[179,13],[64,35],[49,10],[33,-22],[40,9],[24,46],[72,46],[24,-3],[-20,75],[44,1]],[[5940,9157],[26,-44],[-6,-47],[-116,42],[-52,-40],[4,-70],[-18,-4],[-11,83],[-25,40],[-41,0],[-16,33],[71,0],[4,80],[26,64],[26,-6],[57,-78],[71,-53]],[[8392,1925],[30,-11],[-16,-128],[-11,6],[-26,-134],[43,66],[45,29],[34,-33],[-73,-111],[92,-148],[-18,-24],[-28,41],[-21,-34],[-134,213],[8,61],[19,-13],[26,108],[12,-8],[13,84],[-36,16],[7,40],[34,-20]],[[7689,6328],[-15,-38],[25,-6],[47,-119],[-74,29],[-2,88],[-27,-30],[-15,29],[53,66],[8,-19]],[[5468,9907],[41,-2],[41,-48],[-6,-19],[-44,32],[-66,-149],[-9,-47],[-34,-46],[-30,-115],[-27,-76],[19,-27],[-33,-63],[-23,-2],[-54,139],[34,-21],[-13,86],[59,97],[52,62],[16,-1],[55,81],[-9,103],[-41,59],[24,49],[51,-67],[-3,-25]],[[6678,3199],[24,-62],[37,9],[12,-21],[-12,-67],[-37,0],[13,31],[-14,47],[-22,-11],[-43,135],[17,11],[25,-72]],[[6721,3047],[36,-1],[13,-67],[-60,-22],[-10,88],[21,2]],[[9887,3989],[69,-153],[7,-59],[-1,-117],[27,-69],[9,-68],[-41,-20],[-23,46],[20,11],[-22,62],[-12,96],[-50,194],[-26,71],[18,41],[25,-35]],[[6914,6079],[40,-25],[-35,-61],[-35,36],[30,50]]]}
