{"type":"Topology","bbox":[-75.70626982295119,9.355533582684272,-75.60474823112884,9.469045900064318],"transform":{"scale":[0.000010153174499684722,0.000011352366974702056],"translate":[-75.70626982295119,9.355533582684272]},"objects":{"municipios":{"type":"GeometryCollection","geometries":[{"type":"Polygon","arcs":[[0]],"properties":{"codigo":"70221200101002000101","sector":"702212001010020001","pcode":"CO70221","area_m2":63060}},{"type":"Polygon","arcs":[[1]],"properties":{"codigo":"70221200101005000101","sector":"702212001010050001","pcode":"CO70221","area_m2":29497}},{"type":"Polygon","arcs":[[2,3,4,5,6]],"properties":{"codigo":"70221100000000000109","sector":"702211000000000001","pcode":"CO70221","area_m2":277484}},{"type":"Polygon","arcs":[[7,8,9,10,11,12]],"properties":{"codigo":"70221100000000000111","sector":"702211000000000001","pcode":"CO70221","area_m2":104963}},{"type":"Polygon","arcs":[[13,14,15]],"properties":{"codigo":"70221100000000000101","sector":"702211000000000001","pcode":"CO70221","area_m2":147417}},{"type":"Polygon","arcs":[[16,17,-10,18,-8,19,20]],"properties":{"codigo":"70221100000000000107","sector":"702211000000000001","pcode":"CO70221","area_m2":161850}},{"type":"Polygon","arcs":[[21,22,23,24,-6]],"properties":{"codigo":"70221100000000000105","sector":"702211000000000001","pcode":"CO70221","area_m2":136639}},{"type":"Polygon","arcs":[[25,26,27]],"properties":{"codigo":"70221100000000000201","sector":"702211000000000002","pcode":"CO70221","area_m2":218505}},{"type":"Polygon","arcs":[[28,29,30,-26,31,-3,32,33,34,35]],"properties":{"codigo":"70221100000000000104","sector":"702211000000000001","pcode":"CO70221","area_m2":1461903}},{"type":"MultiPolygon","arcs":[[[36]],[[37,38]]],"properties":{"codigo":"70221200101001000101","sector":"702212001010010001","pcode":"CO70221","area_m2":1810030}},{"type":"Polygon","arcs":[[39]],"properties":{"codigo":"70221200101006000101","sector":"702212001010060001","pcode":"CO70221","area_m2":200283}},{"type":"Polygon","arcs":[[-34,40,-24,41,-14,42]],"properties":{"codigo":"70221100000000000102","sector":"702211000000000001","pcode":"CO70221","area_m2":156330}},{"type":"Polygon","arcs":[[-29,43,44]],"properties":{"codigo":"70221100000000000108","sector":"702211000000000001","pcode":"CO70221","area_m2":418565}},{"type":"Polygon","arcs":[[-27,-31,45]],"properties":{"codigo":"70221100000000000202","sector":"702211000000000002","pcode":"CO70221","area_m2":45252}},{"type":"Polygon","arcs":[[46,-44,-36,47,-38]],"properties":{"codigo":"70221100000000000112","sector":"702211000000000001","pcode":"CO70221","area_m2":830280}},{"type":"Polygon","arcs":[[-21,48,-22,-5,49]],"properties":{"codigo":"70221100000000000106","sector":"702211000000000001","pcode":"CO70221","area_m2":184081}},{"type":"MultiPolygon","arcs":[[[-11,-18,50]],[[51]]],"properties":{"codigo":"70221200101004000101","sector":"702212001010040001","pcode":"CO70221","area_m2":193139}},{"type":"Polygon","arcs":[[-15,-42,-23,-49,-20,-13,52]],"properties":{"codigo":"70221100000000000110","sector":"702211000000000001","pcode":"CO70221","area_m2":3863945}},{"type":"Polygon","arcs":[[-33,-7,-25,-41]],"properties":{"codigo":"70221100000000000103","sector":"702211000000000001","pcode":"CO70221","area_m2":195630}}]}},"arcs":[[[2397,728],[17,19],[-71,37],[4,33],[-12,65],[-4,92],[-35,38],[5,39],[-23,37],[61,93],[53,8],[49,-54],[17,-55],[-29,-8],[13,-65],[-52,-11],[3,-77],[47,-72],[21,-76],[-53,-53],[-11,10]],[[2287,483],[-41,-73],[-19,-74],[2,-139],[47,-102],[6,-49],[-11,-43],[-56,1],[-11,82],[-19,23],[20,78],[0,131],[9,61],[19,53],[-9,20],[36,28],[54,95],[14,-18],[-41,-74]],[[2947,3934],[40,-13]],[[2987,3921],[-9,-49],[-44,10],[-97,-456],[-255,30],[-62,2],[-4,-111]],[[2516,3347],[-47,3],[11,172]],[[2480,3522],[5,98],[4,280]],[[2489,3900],[216,-37],[27,105],[171,-32],[44,-2]],[[2344,2756],[70,7],[55,-9]],[[2469,2754],[9,-4]],[[2478,2750],[14,-7]],[[2492,2743],[6,-88],[-84,26],[-84,18],[-10,-46],[-70,10]],[[2250,2663],[-86,18],[-76,5],[-71,-101],[-116,116],[-52,-25],[-8,144]],[[1841,2820],[109,-8],[249,-43],[145,-13]],[[2313,4432],[-24,-35],[25,-15],[-32,-43],[27,-16],[-78,-122],[28,-11],[-16,-57]],[[2243,4133],[-146,103],[-38,36],[-91,135],[-39,102],[-95,78],[-85,103],[-55,106],[-46,35],[-64,17],[-59,1]],[[1525,4849],[136,36],[52,-27],[-3,-42],[47,-15],[19,-43],[-24,-49],[20,-34],[65,-71],[131,-19],[-4,-15],[59,-8],[-6,-42],[67,-34],[111,0],[72,-27],[46,-27]],[[2533,3084],[2,-153],[-4,-111],[8,-43]],[[2539,2777],[-47,-34]],[[2478,2750],[-9,4]],[[2344,2756],[65,88],[-91,-4],[7,62],[-183,-84],[0,56],[22,266]],[[2164,3140],[151,10],[37,11],[17,-84],[95,11],[69,-4]],[[2480,3522],[-106,10],[-3,-59],[-37,-12]],[[2334,3461],[2,55],[-18,80],[11,135],[-47,28],[16,222],[-28,21],[16,46],[26,34]],[[2312,4082],[93,-53],[99,-20]],[[2504,4009],[-15,-109]],[[3045,3912],[291,-50],[450,-87],[217,-40]],[[4003,3735],[-4,-11]],[[3999,3724],[-48,-93],[-251,47],[-10,-34],[-55,15],[-203,11],[-4,-7],[-226,3],[-43,24],[-39,-1],[-7,-18],[-76,1],[-8,38],[16,202]],[[4808,4657],[-217,-137],[-138,-94],[-224,-144],[74,-109],[-41,-59],[-157,-73],[-49,-52],[49,-116]],[[4105,3873],[51,-77],[35,-95]],[[4191,3701],[-188,34]],[[3045,3912],[-58,9]],[[2947,3934],[110,15],[59,2],[6,89],[-27,40],[-113,58],[-40,8],[-32,35]],[[2910,4181],[-15,44]],[[2895,4225],[54,1],[183,59],[254,101],[125,60],[192,105],[129,77],[7,-8],[119,71],[4,-5],[123,82],[147,103],[32,14]],[[4264,4885],[60,-67],[148,96],[49,47],[287,-304]],[[9862,9896],[19,-1],[-11,-61],[50,15],[79,-13],[-54,-128],[-48,-55],[-14,-108],[-20,-68],[-43,-84],[-104,-150],[-176,-228],[-41,-44],[-86,-109],[10,-8],[-30,-97],[4,-25],[-23,-27],[-85,-22],[-48,-4],[-77,-47],[-71,-89],[-28,16],[-27,-45],[-59,-40],[-14,-35],[-87,-76],[-63,-63],[-24,-47],[-105,-92],[-22,-44],[-125,-114],[-125,-139],[-29,-45],[-44,-25],[4,-49],[43,-35],[6,-27],[-22,-20],[-39,16],[-27,-18],[-28,-49],[-50,-63],[-37,-18],[-39,-70],[-88,-55],[-44,-42],[-6,-22],[-54,-48],[-73,-35],[-91,-103],[0,-51],[-40,-42],[-20,-42],[-31,-32],[-45,51],[-64,46],[60,100],[0,29],[-29,51],[90,-5],[43,25],[25,46],[-8,39],[65,20],[63,44],[48,73],[49,37],[41,84],[5,41],[74,32],[41,42],[74,94],[28,69],[-13,22],[93,49],[46,75],[60,57],[41,92],[72,61],[45,82],[63,60],[42,86],[41,38],[68,112],[72,81],[32,67],[46,45],[56,104],[37,37],[40,60],[23,54],[32,21],[97,153],[44,62],[31,67],[31,33],[48,71],[21,54],[45,60],[47,92],[32,13],[91,127],[56,88],[19,69],[53,-21],[-1,-44],[45,-29],[42,-9]],[[5587,5474],[-74,91],[19,21]],[[5532,5586],[30,15],[71,-26],[56,12],[37,-5],[142,27],[82,34],[147,89],[121,93],[95,67],[188,156],[137,128],[18,27],[-8,27],[28,24],[84,-21],[59,48],[-1,47],[-30,27],[19,7],[42,-19],[46,3],[39,38],[8,45],[-15,40],[32,-6],[74,14],[27,33],[5,36],[-14,36],[44,-14],[35,8],[57,49],[15,25],[-12,72],[60,0],[76,51],[8,47],[-17,52],[57,-8],[34,9],[65,74],[-3,28],[-41,69],[3,14],[108,-46],[43,6],[74,-60],[-20,-34],[-64,-38],[-58,-51],[8,-26],[-22,-33],[-50,-11],[-9,-27],[-109,-121],[-131,-137],[-27,10],[-90,-95],[-29,-55],[-39,-14],[-65,-97],[-47,-15],[-41,-42],[-3,-35],[-35,-35],[-1,-22],[-51,-24],[-35,-70],[-79,-34],[-47,-71],[-41,-13],[-10,-23],[-63,-16],[-8,-30],[-63,-45],[-45,-1],[-38,-22],[-9,-32],[-42,-16],[-16,-28],[-133,-79],[-45,-16],[-136,-64],[-35,-1],[-21,-23],[-123,-15],[-120,-39],[-50,2],[-28,54]],[[1880,2652],[-15,-29],[-137,-186],[8,-23],[-37,-98],[-19,3],[-11,-114],[-151,45],[0,15],[-46,-4],[-52,-118],[-29,-88],[-40,-94],[29,-11],[-23,-68],[8,-32],[-70,26],[-14,-28],[-52,-5],[-70,-63],[-9,-44],[42,-19],[46,-38],[-19,-22],[-22,9],[-38,-119],[-56,48],[-46,-14],[-24,-52],[-121,-163],[-14,-29],[-29,3],[27,35],[127,190],[34,61],[4,32],[64,160],[97,75],[36,56],[33,115],[31,150],[28,89],[-105,25],[-41,35],[13,6],[53,-34],[83,-24],[14,33],[46,1],[5,-33],[193,-4],[9,54],[49,81],[11,41],[35,53],[-32,23],[23,16],[34,-23],[54,66],[-120,8],[-48,18],[21,18],[65,-11],[104,0],[53,32],[11,-32]],[[2910,4181],[-42,-17],[-68,16],[-78,0],[-81,20],[-94,-74],[-27,-57],[-16,-60]],[[2312,4082],[-69,51]],[[2313,4432],[26,-22],[57,-16],[25,-58],[45,-12],[-1,-36],[28,-17],[64,-3],[59,12],[2,38],[81,-16],[-33,-20],[27,-42],[68,-17],[72,16],[53,24],[9,-38]],[[4808,4657],[162,103],[258,176],[69,68],[145,217],[126,215]],[[5568,5436],[14,-9],[-31,-136],[-18,-32],[22,-15],[28,-56],[-12,-38],[-24,-3],[-94,-128],[-93,-104],[-66,-33],[-54,-37],[-33,-39],[-28,-3],[-45,-64],[-194,-166],[-109,-98],[-67,-104],[-103,-26],[-107,-71],[-95,-75],[-156,-80],[70,-48],[-86,-101],[122,-67],[-34,-42],[-82,41],[-11,-17],[-60,49],[-117,-61]],[[4191,3701],[127,-23],[59,93],[160,-69],[-16,-53],[58,-9],[10,32],[167,-34],[-16,-53],[-144,32],[-597,107]],[[5587,5474],[-19,-38]],[[4264,4885],[296,211],[60,54],[38,22],[121,104],[54,40],[116,99],[14,5],[124,115],[26,4],[68,70],[163,154],[61,-18],[43,-48],[41,-64],[-13,-16],[56,-31]],[[2164,3140],[-3,158],[-15,36],[-30,10],[-19,32],[237,85]],[[2516,3347],[51,-1],[-6,-160],[-23,0],[-5,-102]],[[2539,2777],[7,-165],[116,-48],[-26,-65],[4,-27],[-45,-46],[34,-13],[-22,-137],[-1,-50],[-39,7],[-17,-89],[-20,-37],[28,-7],[15,-96],[-46,-13],[1,-72],[-51,-3],[13,159],[-31,69],[-99,-25],[-17,66],[29,4],[-25,27],[26,4],[0,28],[77,97],[-21,10],[40,55],[-31,2],[5,32],[42,13],[-28,15],[39,74],[-30,53],[-146,40],[-37,-32],[-53,36],[20,20]],[[2630,1756],[-90,-44],[11,-47],[-65,-34],[-16,7],[-89,-92],[-34,-46],[-6,29],[98,98],[39,70],[-8,23],[13,61],[19,11],[9,-37],[104,50],[32,-41],[-17,-8]],[[1841,2820],[-5,328],[-15,16],[-90,46],[-96,59],[-113,77],[-237,146],[-94,50],[-114,71],[-140,102],[-29,35],[-24,71],[-428,-131],[-3,-61],[-50,18],[-1,60],[-18,19],[-60,21],[-175,137],[-100,0],[4,66],[23,52],[18,175],[33,226],[-5,11],[-98,54],[-24,50],[159,65],[412,175],[11,115],[-5,46],[20,35],[139,-33],[11,15],[138,4],[99,21],[35,-13],[22,-45],[84,-37],[87,-2],[0,-18],[100,7],[213,-4]]]}
