{"type":"Topology","bbox":[-74.99618804365525,3.805424395703807,-74.72196852819536,3.8987599374459023],"transform":{"scale":[0.00002742469401539057,0.000009334487622971833],"translate":[-74.99618804365525,3.805424395703807]},"objects":{"municipios":{"type":"GeometryCollection","geometries":[{"type":"Polygon","arcs":[[0]]},{"type":"Polygon","arcs":[[1,2,3,4,5]]},{"type":"Polygon","arcs":[[6]]},{"type":"Polygon","arcs":[[7]]},{"type":"Polygon","arcs":[[8,9,10]]},{"type":"Polygon","arcs":[[11,-3,12,-9,13]]},{"type":"Polygon","arcs":[[14,15,-6,16,17]]},{"type":"Polygon","arcs":[[18,-4,-12,19]]},{"type":"Polygon","arcs":[[20,21,22,23]]},{"type":"Polygon","arcs":[[-23,24,25]]},{"type":"Polygon","arcs":[[26,27,28]]},{"type":"Polygon","arcs":[[-25,-22,29,-27,30]]},{"type":"Polygon","arcs":[[31,-15,32,-24,-26,-31,-29,33]]},{"type":"Polygon","arcs":[[-13,-2,-16,-32,34,-10]]},{"type":"Polygon","arcs":[[-17,-5,-19,35]]},{"type":"Polygon","arcs":[[36]]},{"type":"Polygon","arcs":[[37]]},{"type":"Polygon","arcs":[[38]]},{"type":"Polygon","arcs":[[39,40]]},{"type":"Polygon","arcs":[[-40,41]]},{"type":"Polygon","arcs":[[42]]}]}},"arcs":[[[832,8170],[-23,-154],[-31,55],[-101,134],[4,32],[52,214],[21,-28],[-5,-20],[66,-93],[28,-63],[-11,-77]],[[2322,5479],[48,144],[43,165],[8,122],[-2,110]],[[2419,6020],[68,-64]],[[2487,5956],[-8,-101],[13,-10],[-8,-91],[12,-11]],[[2496,5743],[-39,-214],[3,-66]],[[2460,5463],[-24,-59],[-4,-165],[-25,17],[-14,116],[-47,58],[-24,49]],[[980,7085],[9,8],[3,-212],[14,-120],[27,-88],[33,-60],[95,-155],[-25,-112],[-3,5],[-23,-107],[-18,5],[-47,65],[22,101],[-72,131],[0,26],[-18,21],[-3,57],[-17,-6],[-13,191],[-4,17],[-10,177],[16,9],[-1,27],[35,20]],[[3059,3682],[10,-91],[-4,-52],[-12,5],[-8,-98],[-15,-308],[0,-37],[-13,9],[-8,-75],[1,-60],[-11,-71],[-3,39],[-40,-20],[-1,28],[20,66],[1,51],[28,172],[12,240],[1,138],[9,65],[10,-10],[11,47],[12,-38]],[[2358,6533],[-15,-83],[21,5],[3,27],[44,-250],[3,-71],[-3,-112]],[[2411,6049],[-73,100],[-24,10],[-86,11],[-24,-10]],[[2204,6160],[-2,26],[-24,25],[2,120],[27,12],[19,135],[-6,146],[28,-24],[5,95],[61,37],[44,-199]],[[2579,6340],[-40,-69],[-6,27],[-27,41],[-16,-78],[-14,-29],[-25,-157],[10,-47],[26,-72]],[[2419,6020],[-8,29]],[[2358,6533],[32,88],[45,-21],[69,-70],[37,-150],[19,-32],[19,-8]],[[2342,4856],[-22,143],[-2,131],[-12,116],[3,125],[-51,17],[2,86],[23,18]],[[2283,5492],[13,8],[-1,-64],[15,-8],[12,51]],[[2460,5463],[21,7],[38,57],[6,-41],[19,-26],[6,-181]],[[2550,5279],[-8,-86],[-17,-63],[-2,-90],[-93,-89],[-88,-95]],[[2640,6179],[-11,19],[-33,-53],[-21,-49],[-40,-303],[-24,27],[-15,-77]],[[2579,6340],[40,-20],[11,-43],[26,107],[24,-41],[-14,-63],[11,-30],[-37,-71]],[[2325,4839],[-66,-99],[-145,-332],[-71,-35],[-27,-40],[-14,35]],[[2002,4368],[22,56],[48,158],[-6,18],[26,104],[47,113],[-37,153]],[[2102,4970],[50,72],[17,-72],[28,17],[-7,41],[24,40],[16,-66],[30,40],[9,36]],[[2269,5078],[44,-168],[12,-71]],[[2102,4970],[-26,154],[-10,132],[-12,-18],[-24,117]],[[2030,5355],[91,3],[41,-25],[126,-157],[-19,-98]],[[1992,5354],[-54,-14],[-63,-47],[-75,-74]],[[1800,5219],[-45,-48],[-39,-24],[16,42],[-39,170],[-8,10],[-26,-54],[-8,50],[-53,187],[-13,83],[36,72],[32,-150],[14,33],[24,92],[46,141]],[[1737,5823],[78,-129],[167,-328],[10,-12]],[[2002,4368],[-29,73],[4,40],[47,223],[-25,48],[-30,39],[-15,-42],[-84,62],[-38,278],[-32,130]],[[1992,5354],[38,1]],[[2187,5850],[43,-9],[45,-56],[19,-2],[-11,-291]],[[2342,4856],[-17,-17]],[[1737,5823],[5,111],[31,111],[53,-112],[23,69],[69,-156],[90,194],[24,-38],[22,-58],[78,-277],[59,107],[-4,76]],[[2187,5850],[-21,99],[-13,182],[51,29]],[[2640,6179],[10,-79],[49,-77],[-4,-72],[16,-179],[21,-149],[-22,-60],[-72,-114],[-22,-46],[-18,-60],[-48,-64]],[[8182,9908],[11,43],[18,20],[15,-45],[-8,-44],[-31,-70],[-4,-95],[13,-145],[7,-126],[12,-23],[-6,-37],[17,-35],[-9,-37],[6,-33],[-52,25],[-1,-12],[-38,20],[-36,75],[27,-4],[7,111],[-11,5],[-11,69],[26,60],[7,247],[-15,19],[4,103],[21,-29],[0,-22],[22,-12],[9,-28]],[[9999,85],[-7,-30],[-11,23],[-10,-68],[-28,28],[-25,-38],[-6,52],[-20,51],[8,46],[-15,31],[19,83],[95,-178]],[[108,8305],[-21,-129],[-12,18],[10,47],[-7,38],[-57,-88],[-6,33],[-12,-16],[-3,52],[11,14],[8,92],[9,-62],[94,149],[1,-56],[-15,-92]],[[2414,7877],[10,55],[-1,108],[10,136],[-23,-4],[-2,84],[-7,0],[-5,210]],[[2396,8466],[44,9],[2,82],[21,118],[9,-13],[11,59],[33,-48],[-32,-181],[63,32],[0,-152],[-20,15],[-26,-257],[-24,20],[-5,-78],[-15,-28],[-2,-48],[10,-104],[-12,-40],[-29,1],[-10,24]],[[2414,7877],[-14,-52],[-9,75],[6,65],[-18,5],[-11,47],[-9,86],[-47,208],[24,124],[15,29],[45,2]],[[2935,1805],[-15,-119],[10,-58],[-4,-109],[53,4],[1,-42],[-52,11],[-14,-29],[-3,-115],[-35,33],[26,104],[-16,9],[9,27],[1,61],[-25,14],[-7,64],[17,-8],[10,25],[-24,19],[4,30],[23,-18],[4,91],[-32,29],[4,58],[36,68],[4,-132],[25,-17]]]}