{"type":"Topology","bbox":[-75.19839842818084,3.40028963163438,-75.08734104582999,3.6355810481300805],"transform":{"scale":[0.000011106848919977026,0.000023531494799049978],"translate":[-75.19839842818084,3.40028963163438]},"objects":{"municipios":{"type":"GeometryCollection","geometries":[{"type":"Polygon","arcs":[[0,1,2]]},{"type":"Polygon","arcs":[[3,-1,4,5]]},{"type":"Polygon","arcs":[[6,7,8,-3,9,10]]},{"type":"Polygon","arcs":[[11,12,13,14]]},{"type":"Polygon","arcs":[[15,-8,16,17,18]]},{"type":"Polygon","arcs":[[-17,-7,19,20]]},{"type":"Polygon","arcs":[[21,22,-12,23,-4]]},{"type":"Polygon","arcs":[[24]]},{"type":"Polygon","arcs":[[25]]},{"type":"Polygon","arcs":[[26]]},{"type":"Polygon","arcs":[[27]]},{"type":"Polygon","arcs":[[-18,-21,28]]},{"type":"Polygon","arcs":[[29,-5,-9,30]]},{"type":"Polygon","arcs":[[-31,-16,31]]},{"type":"Polygon","arcs":[[-24,-15,32,-10,-2]]},{"type":"Polygon","arcs":[[-23,33,-13]]}]}},"arcs":[[[9575,9359],[-48,-76]],[[9527,9283],[-356,62],[20,30],[-182,23],[30,61]],[[9039,9459],[43,-4],[-12,-22],[342,-49],[163,-25]],[[9967,9214],[-106,13],[-334,56]],[[9575,9359],[403,-58]],[[9978,9301],[-11,-87]],[[9122,9523],[-12,-21],[288,-44]],[[9398,9458],[221,-34]],[[9619,9424],[-44,-65]],[[9039,9459],[-37,3]],[[9002,9462],[5,9],[-110,13],[-2,36],[171,-29],[23,34],[33,-2]],[[9506,9249],[-43,-70]],[[9463,9179],[-139,27],[-152,20],[17,26],[-157,20]],[[9032,9272],[0,29],[26,1]],[[9058,9302],[41,0],[160,-18],[247,-35]],[[9671,9506],[-52,-82]],[[9398,9458],[40,64]],[[9438,9522],[43,59],[81,-18],[65,81],[34,51],[79,66],[79,-5]],[[9819,9756],[-12,-35],[-36,-68],[-82,-116],[-18,-31]],[[9122,9523],[2,14]],[[9124,9537],[21,-7],[17,33],[276,-41]],[[9967,9214],[-42,-6],[-187,16],[-183,-16],[-27,-31],[-39,-20],[-38,2]],[[9451,9159],[12,20]],[[9506,9249],[21,34]],[[890,229],[-17,-47],[27,-9],[-45,-12],[-50,-24],[144,-69],[53,-20],[97,-14],[25,-17],[-63,-17],[-404,35],[-74,10],[-23,-3],[-53,21],[26,13],[10,110],[104,26],[243,17]],[[114,532],[38,-5],[-85,-131],[-67,10],[85,131],[29,-5]],[[8870,7887],[-15,-89],[22,-17],[39,-3],[-14,-55],[105,-17],[-7,-19],[76,-1],[-1,-49],[-76,0],[-20,-14],[-45,3],[-27,-13],[-9,19],[-32,-1],[-7,21],[-55,24],[15,12],[-78,6],[-50,-5],[-14,-17],[-30,19],[-44,7],[18,26],[-60,4],[3,14],[36,-4],[8,38],[-23,0],[-5,46],[-23,13],[79,4],[2,30],[44,-3],[18,18],[63,-28],[21,30],[72,28],[14,-27]],[[8463,5494],[-20,-24],[-176,-6],[-63,3],[-64,20],[-40,3],[4,12],[47,-1],[44,-13],[117,22],[62,34],[93,27],[101,49],[6,11],[65,-12],[-22,-49],[-108,-48],[-46,-28]],[[9124,9537],[-23,47],[-113,-5],[-2,30],[106,6],[-24,40],[-142,18],[80,51],[-27,43],[201,-26],[155,-4],[42,67],[-46,5],[20,35],[48,-7],[56,85],[71,5],[33,-10],[47,20],[87,18],[52,25],[90,-8],[22,27],[49,-1],[-17,-42],[-31,-109],[-39,-91]],[[9985,9405],[6,-69],[-13,-35]],[[9619,9424],[177,-26],[24,37],[105,-17],[0,-13],[60,0]],[[9671,9506],[84,-22],[136,4],[108,-17],[-18,-43],[4,-23]],[[9058,9302],[-88,32],[10,63],[-26,10],[21,57],[27,-2]],[[9451,9159],[-74,7],[-23,25],[-44,7],[-34,-11],[-97,-5],[-37,16],[-69,1],[-52,9],[11,64]]]}
