{"type":"Topology","bbox":[-74.86039662439333,4.207432971584281,-74.80298195021697,4.294323232570651],"transform":{"scale":[0.000005742041621797883,0.00000868989508814579],"translate":[-74.86039662439333,4.207432971584281]},"objects":{"municipios":{"type":"GeometryCollection","geometries":[{"type":"Polygon","arcs":[[0]]},{"type":"Polygon","arcs":[[1,2]]},{"type":"Polygon","arcs":[[-2,3]]},{"type":"Polygon","arcs":[[4]]},{"type":"Polygon","arcs":[[5,6,7,8]]},{"type":"Polygon","arcs":[[9,10,11,12]]},{"type":"Polygon","arcs":[[13,14]]},{"type":"Polygon","arcs":[[15,16,17]]},{"type":"Polygon","arcs":[[18,19,20,21]]},{"type":"Polygon","arcs":[[22,23,24,25,26,27,28,29,30]]},{"type":"Polygon","arcs":[[31,32,33,34,35,-25,36]]},{"type":"Polygon","arcs":[[37,38,39,40,-19]]},{"type":"Polygon","arcs":[[-32,41,42,43,44]]},{"type":"Polygon","arcs":[[45,46,-23,47,-30,48,49]]},{"type":"Polygon","arcs":[[-10,50,-26,-36]]},{"type":"Polygon","arcs":[[51,52,53,54,55,56,57,-11,-35]]},{"type":"Polygon","arcs":[[58,59,60,61,-53,62,-15,63,-33,-45,64,-16]]},{"type":"Polygon","arcs":[[-14,-63,-52,-34,-64]]},{"type":"Polygon","arcs":[[65,66,-8,67,68,69,70]]},{"type":"Polygon","arcs":[[71,72,73,74]]},{"type":"Polygon","arcs":[[-27,-51,-13,75]]},{"type":"Polygon","arcs":[[-70,76,77]]},{"type":"Polygon","arcs":[[78,79,-54,-62]]},{"type":"Polygon","arcs":[[-76,-12,-58,80,-71,-78,81,-28]]},{"type":"Polygon","arcs":[[-65,-44,82,-39,83,-17]]},{"type":"Polygon","arcs":[[-37,-24,-47,84,-42]]},{"type":"Polygon","arcs":[[85,86,-75,87,88]]},{"type":"Polygon","arcs":[[89,-68,-7,90]]},{"type":"Polygon","arcs":[[-20,-41,91,-50,92,93]]},{"type":"Polygon","arcs":[[-60,94]]},{"type":"Polygon","arcs":[[95,96,-86,97]]},{"type":"Polygon","arcs":[[-94,98,-21]]},{"type":"Polygon","arcs":[[-72,-87,-97,99,100,101,-9,-67,102]]},{"type":"Polygon","arcs":[[-88,-74,103,-56,104]]},{"type":"Polygon","arcs":[[-31,-48]]},{"type":"Polygon","arcs":[[-83,-43,-85,-46,-92,-40]]},{"type":"Polygon","arcs":[[-57,-104,-73,-103,-66,-81]]},{"type":"Polygon","arcs":[[-98,-89,-105,-55,-80,105]]},{"type":"Polygon","arcs":[[106,-101,107]]},{"type":"Polygon","arcs":[[108,-91,-6,-102,-107]]}]}},"arcs":[[[4009,4805],[-249,-294],[-148,27],[258,313],[139,-46]],[[5538,1477],[141,47],[139,55],[156,35],[46,51],[43,27],[57,55],[66,-3]],[[6186,1744],[21,-24],[10,-39],[44,-13],[59,10],[75,48],[55,14],[6,34],[-21,34],[62,25],[28,-31],[77,27],[7,25],[-36,10],[38,25],[39,9],[-10,22],[45,16],[34,-27],[44,-16],[12,-18],[67,-11],[11,11],[44,-8],[3,-28],[-42,-1],[-58,-16],[9,-9],[-87,-43],[-134,-52],[-81,-74],[103,-42],[112,-39],[-223,-22],[-81,-64],[-81,-52],[-17,-51],[-305,5],[-41,-44],[5,-13],[80,-48],[19,-58],[76,-28],[42,-44],[67,-34],[84,-58],[-13,-46],[-25,-23],[-112,82],[-39,-29],[-56,33],[16,9],[-94,71],[26,28],[-94,68],[-49,10],[-75,-8],[-19,-172],[-174,29],[-22,-51],[188,-36],[-46,-42],[-168,-98],[-37,32],[-47,-19],[-46,17],[-99,-24],[-33,41],[-23,-2],[-150,38],[-30,-11],[-31,35],[-47,-17],[6,-27],[-62,-17],[-45,41],[-133,-61],[8,-20],[-52,-142],[-258,9],[-183,-15],[6,-77],[-71,2],[-22,25],[-109,-4],[-123,-320],[-136,98],[-171,-97],[-167,105],[-118,-72],[-35,20],[-39,-21],[-42,33],[-120,-60],[-25,23],[61,27],[8,-7],[137,62],[-35,48],[155,62],[-19,23],[67,7],[271,123],[75,16],[-8,48],[27,26],[52,4],[4,-29],[20,-4],[142,22],[9,39],[63,-8],[-29,69],[144,-30],[31,18],[14,27],[94,-26],[7,46],[121,2],[1,85],[48,0],[-10,54],[-55,22],[17,24],[75,-6],[2,8],[69,-5],[23,-14],[43,20],[23,-10],[92,54],[-13,38],[5,36],[63,33],[70,-39],[26,39],[-2,51],[42,0],[2,14],[61,-2],[-1,-12],[106,-4],[26,6],[98,67],[72,20],[87,43]],[[5538,1477],[-59,8],[5,28],[103,26],[-4,36],[-97,49],[-102,1],[-50,-23],[-25,-47],[-26,13],[-114,101],[-35,58],[-82,163],[-100,-2],[-28,8],[83,242],[67,-70],[97,-43],[249,-95],[-57,208],[19,25],[182,-80],[128,56],[71,-76],[57,-41],[29,-10],[101,-7],[63,-18],[34,-44],[4,-66],[33,-27],[53,-18],[51,-36],[-2,-52]],[[1034,725],[109,-20],[8,39],[219,-27],[-100,-407],[-20,-98],[-89,-111],[25,-7],[-65,-81],[-61,12],[-288,-25],[-34,2],[-256,103],[-282,123],[-67,-79],[-60,19],[5,8],[-78,23],[92,112],[-48,14],[36,71],[47,-6],[92,84],[26,32],[61,-20],[20,27],[100,-37],[94,109],[106,40],[82,58],[138,47],[58,-9],[67,29],[17,-17],[46,-8]],[[5794,6791],[-81,-92]],[[5713,6699],[-266,82],[-24,-26],[-124,-106],[-321,86]],[[4978,6735],[52,81],[84,69]],[[5114,6885],[85,-41],[90,78],[356,-95],[149,-36]],[[6679,8686],[96,-55],[129,-84],[234,-147],[32,-26]],[[7170,8374],[-94,-114],[-94,-96]],[[6982,8164],[-28,19],[-21,34],[-136,63],[-205,144],[-21,18],[-145,93],[-202,135],[-110,80],[64,35]],[[6178,8785],[176,-120],[52,-71],[30,16],[68,-47],[87,57],[-65,45],[91,58],[62,-37]],[[7692,8213],[12,-5],[690,-232]],[[8394,7976],[-131,-204],[-44,9],[-214,55],[-481,118],[-11,21],[179,238]],[[9658,8388],[-54,3],[-256,48],[-229,48],[-45,39],[137,159],[120,129],[-24,28]],[[9307,8842],[127,33],[-19,62],[36,1],[9,64]],[[9460,9002],[171,-18],[-16,-63],[-61,-31],[6,-49],[-37,-17],[-2,-41],[17,-24],[15,-94],[18,-57],[23,-121],[112,20],[37,-74],[-62,-19],[-23,-26]],[[8836,9503],[-79,-14],[-72,1],[-36,20],[-46,-5],[-140,-31],[-279,58]],[[8184,9532],[7,6]],[[8191,9538],[243,243],[103,81],[53,53]],[[8590,9915],[83,-84],[44,-52],[39,-62],[80,-214]],[[7647,8984],[22,-6]],[[7669,8978],[-78,-88],[-79,-107],[-132,-154]],[[7380,8629],[-35,-41]],[[7345,8588],[-336,129],[-158,57],[-81,36]],[[6770,8810],[-163,61],[-149,51],[10,15]],[[6468,8937],[134,37],[87,73],[61,31],[57,41],[-96,61]],[[6711,9180],[168,106],[47,33],[195,113]],[[7121,9432],[61,-59]],[[7182,9373],[26,-17],[-17,-28],[-48,-11],[-101,-65],[-69,-32],[69,-35],[43,-12],[273,-93],[215,-77],[74,-19]],[[7922,8568],[-100,-130]],[[7822,8438],[-44,-56]],[[7778,8382],[-115,-151]],[[7663,8231],[-128,48],[-64,50],[-51,-26],[-60,-46],[-190,117]],[[7170,8374],[99,107],[76,107]],[[7380,8629],[320,-74],[6,-11],[163,26],[53,-2]],[[8836,9503],[54,-134],[44,-70]],[[8934,9299],[-119,-25],[-172,-41]],[[8643,9233],[-256,6],[-350,-5],[-103,2]],[[7934,9236],[77,117],[49,54],[124,125]],[[7922,8568],[131,171]],[[8053,8739],[227,289],[59,61],[53,43]],[[8392,9132],[75,-56],[108,-96],[110,-102]],[[8685,8878],[-190,-89],[-177,-106],[-225,-163],[-156,-58],[-115,-24]],[[7865,9157],[-12,-62]],[[7853,9095],[-45,2],[-139,-119]],[[7647,8984],[37,42],[40,64],[15,51],[27,133],[-119,14],[-199,73],[-119,23],[-20,-2],[-33,-31],[-94,22]],[[7121,9432],[92,46],[126,78],[114,61],[161,80]],[[7614,9697],[88,-56],[30,4],[77,-21],[32,-18],[39,-57],[24,-147],[-8,-61],[-30,-158],[-1,-26]],[[6679,8686],[80,89],[11,35]],[[7663,8231],[-6,-7]],[[7657,8224],[-245,-316]],[[7412,7908],[-140,-186],[-57,-80],[-164,-208]],[[7051,7434],[-3,-3]],[[7048,7431],[-533,201]],[[6515,7632],[88,112]],[[6603,7744],[45,61],[88,101],[94,97],[20,32],[97,91],[35,38]],[[9658,8388],[-1,-3],[261,-7],[81,-6],[-4,-17],[-180,-313],[-190,-345]],[[9625,7697],[-75,21],[-263,63],[-138,-252],[337,-81]],[[9486,7448],[-66,-120],[-342,83]],[[9078,7411],[2,4],[-886,221],[-457,112],[34,70],[-359,90]],[[7657,8224],[35,-11]],[[8394,7976],[38,-13],[153,244],[-5,7],[-174,42],[-256,57],[-55,18],[-264,63],[-19,-24],[-34,12]],[[8685,8878],[68,-67],[184,-164],[42,39],[212,241],[52,-19],[-28,-31],[92,-35]],[[5915,7700],[324,-135],[39,-29],[-336,-182],[-8,-10]],[[5934,7344],[-209,-57],[-144,-96],[-53,-28],[-75,-31],[-158,-77],[-87,-71],[-94,-99]],[[4978,6735],[-100,-102],[-156,-133],[-36,-20],[-208,-130]],[[4478,6350],[-149,-121],[-106,-122],[-38,-90],[-139,58],[116,88],[139,88],[141,98],[110,80],[-70,24],[27,44],[94,-37],[117,86],[-22,21],[-522,97],[-22,-24],[-149,43],[-28,15],[37,62],[-28,9],[61,68],[96,-33],[-26,-36],[109,-32],[-7,-28],[230,-53],[20,29],[101,-24],[15,23],[48,-14],[52,79],[169,-50],[118,163],[13,5],[131,91],[-99,32],[-18,27],[103,-11],[8,24],[66,10],[18,35],[94,57],[-46,20],[21,22],[59,-22],[45,29],[28,36],[-89,74],[-142,108],[4,69]],[[5168,7467],[308,61],[-58,121],[9,43],[43,11],[-31,86],[-89,-15],[-27,82],[136,22],[-12,46],[53,45]],[[5500,7969],[17,2],[218,164],[53,-7],[-186,-179],[78,-215],[195,38],[17,-53],[23,-19]],[[6576,7280],[-302,75]],[[6274,7355],[127,143],[2,8]],[[6403,7506],[67,-19],[213,-70]],[[6683,7417],[-43,-49],[-64,-88]],[[6178,8785],[28,21],[-26,42],[53,28],[40,10],[14,21],[64,8],[19,26],[47,18],[46,1],[5,-23]],[[5168,7467],[-22,-4],[-198,-90],[-75,180],[-27,15],[-54,64],[-93,44],[-37,49],[32,53],[-40,88],[85,25],[90,34],[123,53],[105,70]],[[5057,8048],[157,-40],[79,9],[58,26],[132,-69],[17,-5]],[[9078,7411],[-68,15],[-18,-10],[-144,-241],[-120,-190],[-65,10]],[[8663,6995],[-134,33],[-327,85],[-138,40],[-222,70],[-240,63],[-551,148]],[[6603,7744],[-19,-8],[-87,-71],[-177,92],[-49,-43],[-61,26],[-66,-49],[-109,44],[-108,-22],[-12,-13]],[[5057,8048],[147,104],[71,60],[83,80],[107,86],[146,129],[62,46],[172,182],[103,88],[60,37],[315,171],[303,108],[85,41]],[[8392,9132],[81,50],[49,18],[121,33]],[[8934,9299],[54,-71],[44,-42],[103,-78],[71,-43],[117,-37],[137,-26]],[[7853,9095],[9,-63],[39,-99],[29,-45],[123,-149]],[[6885,7218],[-10,-14]],[[6875,7204],[-299,76]],[[6683,7417],[171,-57],[113,-34]],[[6967,7326],[-82,-108]],[[5395,6323],[-11,-5],[-210,-251],[-167,78],[-429,212],[-47,-38],[-53,31]],[[5713,6699],[-2,-7],[-151,-165],[-165,-204]],[[7934,9236],[-34,-58],[-35,-21]],[[7614,9697],[271,117]],[[7885,9814],[55,-96],[81,31],[67,11],[103,-222]],[[9625,7697],[-100,-185],[-39,-64]],[[7570,6772],[-173,45],[-224,54],[-178,-164],[-27,16],[-158,47],[-36,7],[-134,43],[-45,21]],[[6595,6841],[280,363]],[[6885,7218],[97,-26],[494,-131],[230,-62],[-12,-27],[-124,-200]],[[7885,9814],[364,169],[106,16],[56,-6],[108,-35],[71,-43]],[[6595,6841],[-18,-25]],[[6577,6816],[-37,14],[-555,182],[-108,-130]],[[5877,6882],[-19,-14],[-64,-77]],[[5934,7344],[45,15],[108,58],[55,-50],[30,-10],[71,-49],[31,47]],[[6403,7506],[112,126]],[[7048,7431],[-81,-105]],[[8663,6995],[-163,-205],[-165,-214],[-119,31],[-146,44],[-500,121]],[[6474,6681],[-287,74],[-7,13],[-133,60],[-170,54]],[[6577,6816],[-103,-135]],[[6474,6681],[-55,-85],[348,-94],[-102,-95],[-127,-113],[-132,-112],[-101,-90],[-231,52],[-7,7],[-107,24],[-132,35],[-184,-166],[-172,65],[131,158],[-208,56]]]}
