{"type":"Topology","bbox":[-75.66461473396129,3.2800736616474646,-75.3763800417143,3.598338568181805],"transform":{"scale":[0.000028826351859884773,0.000031829673620796136],"translate":[-75.66461473396129,3.2800736616474646]},"objects":{"municipios":{"type":"GeometryCollection","geometries":[{"type":"Polygon","arcs":[[0]],"properties":{"codigo":"73067200703021000101","sector":"730672007030210001","pcode":"CO73067","area_m2":10372}},{"type":"Polygon","arcs":[[1]],"properties":{"codigo":"73067200705006000101","sector":"730672007050060001","pcode":"CO73067","area_m2":48445}},{"type":"Polygon","arcs":[[2]],"properties":{"codigo":"73067200903016000101","sector":"730672009030160001","pcode":"CO73067","area_m2":50174}},{"type":"Polygon","arcs":[[3]],"properties":{"codigo":"73067200704020000101","sector":"730672007040200001","pcode":"CO73067","area_m2":46700}},{"type":"MultiPolygon","arcs":[[[4]],[[5]]],"properties":{"codigo":"73067200804001000101","sector":"730672008040010001","pcode":"CO73067","area_m2":44627}},{"type":"Polygon","arcs":[[6,7,8]],"properties":{"codigo":"73067100000000000102","sector":"730671000000000001","pcode":"CO73067","area_m2":97197}},{"type":"Polygon","arcs":[[9,10,11,12,-7]],"properties":{"codigo":"73067100000000000101","sector":"730671000000000001","pcode":"CO73067","area_m2":466640}},{"type":"Polygon","arcs":[[13,14,-10,-9,15]],"properties":{"codigo":"73067100000000000103","sector":"730671000000000001","pcode":"CO73067","area_m2":409193}},{"type":"Polygon","arcs":[[16,-11,-15]],"properties":{"codigo":"73067100000000000104","sector":"730671000000000001","pcode":"CO73067","area_m2":125960}},{"type":"Polygon","arcs":[[-12,-17,-14,17]],"properties":{"codigo":"73067100000000000105","sector":"730671000000000001","pcode":"CO73067","area_m2":551110}},{"type":"Polygon","arcs":[[18]],"properties":{"codigo":"73067201001003300101","sector":"730672010010033001","pcode":"CO73067","area_m2":21718}},{"type":"Polygon","arcs":[[19]],"properties":{"codigo":"73067200701005000101","sector":"730672007010050001","pcode":"CO73067","area_m2":53888}},{"type":"Polygon","arcs":[[20,21]],"properties":{"codigo":"73067200702007000101","sector":"730672007020070001","pcode":"CO73067","area_m2":172328}},{"type":"Polygon","arcs":[[22,-21]],"properties":{"codigo":"73067200702007000102","sector":"730672007020070001","pcode":"CO73067","area_m2":131328}},{"type":"Polygon","arcs":[[23]],"properties":{"codigo":"73067200903012000101","sector":"730672009030120001","pcode":"CO73067","area_m2":55048}},{"type":"Polygon","arcs":[[24]],"properties":{"codigo":"73067200902014000101","sector":"730672009020140001","pcode":"CO73067","area_m2":10772}},{"type":"Polygon","arcs":[[25]],"properties":{"codigo":"73067200904022000101","sector":"730672009040220001","pcode":"CO73067","area_m2":20153}}]}},"arcs":[[[3091,3226],[4,-16],[-13,-10],[-6,0],[0,-9],[-9,2],[-12,-13],[-10,5],[-3,10],[38,22],[11,9]],[[2971,2138],[9,14],[11,-8],[1,-7],[9,-5],[-10,-25],[0,-7],[15,-7],[0,5],[12,2],[-14,-9],[-4,-17],[0,-39],[11,-24],[8,-7],[-5,-22],[-12,5],[-7,-8],[4,24],[-10,14],[-2,9],[6,6],[-13,22],[-5,14],[-16,-17],[-12,-4],[11,25],[-3,6],[-14,4],[-9,6],[4,5],[27,-11],[6,18],[0,10],[10,16],[-8,12]],[[1789,1520],[4,2],[2,-14],[0,-72],[5,-18],[15,-36],[10,-31],[-6,-1],[-3,-9],[-8,2],[-19,-11],[-8,-3],[-1,9],[-14,2],[4,14],[8,5],[-2,12],[8,2],[1,21],[-9,6],[13,0],[-4,25],[-1,26],[-5,53],[-6,-2],[-2,8],[-6,-1],[-1,8],[19,6],[6,-3]],[[2785,2508],[14,-1],[-11,-17],[20,-25],[2,-20],[6,0],[0,-15],[-17,1],[2,10],[-8,-5],[-4,13],[-9,3],[-5,8],[-8,-6],[-20,-3],[-12,16],[1,5],[-17,1],[7,17],[16,1],[15,12],[9,2],[-7,8],[12,13],[8,2],[3,-8],[-3,-10],[6,-2]],[[513,3758],[1,-4],[20,-7],[4,-5],[-5,-6],[17,-14],[9,3],[2,-5],[8,5],[-2,7],[9,4],[6,10],[7,0],[1,-8],[-12,-12],[4,-5],[17,3],[12,-13],[11,0],[7,6],[7,-2],[9,7],[5,10],[8,-3],[17,2],[0,-8],[-20,-4],[-13,-13],[2,-5],[-8,-6],[5,-5],[-15,-13],[3,24],[-14,-1],[-4,4],[-17,-4],[-9,-8],[-4,2],[-7,-10],[2,-11],[-7,9],[-3,20],[-12,4],[-5,11],[-37,27],[-19,2],[1,5],[15,2],[4,5]],[[463,3770],[2,-12],[8,-3],[4,-8],[8,0],[-5,-9],[-12,-2],[-2,6],[-9,0],[4,16],[-6,12],[8,0]],[[9780,9815],[-56,-10],[-17,31],[-16,46],[0,3],[36,22],[3,13]],[[9730,9920],[12,2],[13,10],[27,12]],[[9782,9944],[0,-20],[-2,-109]],[[9780,9815],[-1,-55]],[[9779,9760],[-1,-20],[-63,-3],[1,-33],[2,-2]],[[9718,9702],[-20,-23],[-14,-13],[-18,-21],[-14,1],[-43,-8]],[[9609,9638],[-15,35],[-10,16],[-7,23],[-10,16],[-3,18],[10,22],[0,27],[-11,34],[0,26],[9,32],[9,7],[41,18],[18,10],[11,3],[20,11],[14,1],[23,-2],[22,-15]],[[9965,9797],[-28,-38]],[[9937,9759],[-6,3],[-113,-3],[-39,1]],[[9782,9944],[32,18],[22,22],[28,15],[6,-9],[17,-18],[11,-21],[-2,-12],[31,-5],[15,-17],[47,29],[7,-8],[-21,-12],[-20,-16],[8,-49],[4,-17],[17,-13],[-22,-33],[3,-1]],[[9937,9759],[-29,-43],[-9,-17],[-44,3],[-38,2],[-40,3],[0,-34],[-9,1],[-29,24],[-21,4]],[[9965,9797],[34,-5],[-1,-47],[-20,-4],[2,-10],[-2,-16],[1,-16],[-13,-22],[1,-26],[-2,-13],[-7,-7],[-5,-23],[-33,-29],[-39,-22],[10,-20],[17,-25],[-28,-7],[-31,-6],[-16,0],[-22,30],[-22,22],[-33,22],[-25,7],[-17,2],[-76,17],[-15,5],[-11,17],[-3,17]],[[2672,241],[7,-10],[14,-5],[14,-12],[10,-21],[-21,-7],[-8,-19],[-17,-2],[2,16],[13,0],[-3,23],[-8,4],[-5,13],[-9,-1],[2,20],[-7,16],[7,2],[9,-17]],[[4513,5613],[-12,-10],[7,-4],[-15,-14],[4,-7],[-24,-18],[4,-4],[-16,-13],[5,-6],[-22,-20],[-5,4],[-17,-12],[-12,4],[-36,16],[-5,-6],[0,11],[-7,5],[4,13],[13,-7],[3,6],[18,-14],[23,-2],[12,22],[13,11],[1,7],[10,-1],[-1,8],[10,9],[5,9],[-1,7],[19,0],[13,19],[17,-6],[-8,-7]],[[2117,3670],[-47,13],[-41,10],[-5,-16],[-58,12],[-30,11],[-24,11],[-26,8],[-12,7]],[[1874,3726],[9,13],[81,34],[13,-15],[19,3],[8,-4],[5,13],[38,-10],[2,-3],[22,-7],[16,7],[11,2],[2,-13],[20,2],[4,-20],[-21,-3],[-2,-3],[6,-41],[10,-11]],[[2117,3670],[7,-3],[-2,-12],[-12,-21],[4,-14],[-14,5],[-21,11],[-19,4],[-21,0],[-9,-3],[-20,3],[-19,-7],[-25,-1],[-19,-10],[-24,38],[-39,31],[-15,18],[5,17]],[[1386,1431],[12,-23],[25,-11],[-7,-23],[-7,3],[-3,-14],[-15,-18],[-12,-4],[-30,3],[7,8],[-10,34],[3,27],[-1,19],[38,-1]],[[212,1848],[6,-2],[-16,-11],[-4,-6],[-34,-36],[2,-8],[-18,-2],[0,12],[44,40],[15,12],[-5,11],[10,-10]],[[34,59],[20,-20],[-2,-23],[-2,12],[-10,-13],[12,-7],[-8,-8],[-18,8],[-11,16],[-15,13],[15,5],[14,22],[5,-5]]]}
