{"type":"Topology","bbox":[-74.99810307819564,4.987103005509201,-74.74296525972915,5.13225190495878],"transform":{"scale":[0.00002551633347999741,0.000014516341579115776],"translate":[-74.99810307819564,4.987103005509201]},"objects":{"municipios":{"type":"GeometryCollection","geometries":[{"type":"Polygon","arcs":[[0,1,2,3]],"properties":{"codigo":"73055100000000000101","sector":"730551000000000001","pcode":"CO73055","area_m2":262957}},{"type":"Polygon","arcs":[[4,5,6,7,8]],"properties":{"codigo":"73055100000000000104","sector":"730551000000000001","pcode":"CO73055","area_m2":256222}},{"type":"Polygon","arcs":[[9,10,11,-7]],"properties":{"codigo":"73055100000000000105","sector":"730551000000000001","pcode":"CO73055","area_m2":167493}},{"type":"Polygon","arcs":[[12]],"properties":{"codigo":"73055200101003000101","sector":"730552001010030001","pcode":"CO73055","area_m2":49565}},{"type":"Polygon","arcs":[[13]],"properties":{"codigo":"73055200201004000101","sector":"730552002010040001","pcode":"CO73055","area_m2":150902}},{"type":"Polygon","arcs":[[14]],"properties":{"codigo":"73055200205007000101","sector":"730552002050070001","pcode":"CO73055","area_m2":36217}},{"type":"Polygon","arcs":[[-3,15,-8,-12,16]],"properties":{"codigo":"73055100000000000106","sector":"730551000000000001","pcode":"CO73055","area_m2":324605}},{"type":"Polygon","arcs":[[17,18,19,20,-9,-16,-2]],"properties":{"codigo":"73055100000000000102","sector":"730551000000000001","pcode":"CO73055","area_m2":188674}},{"type":"Polygon","arcs":[[21,-10,-6,22]],"properties":{"codigo":"73055100000000000109","sector":"730551000000000001","pcode":"CO73055","area_m2":277268}},{"type":"Polygon","arcs":[[23,24,25,-18,-1,26,27]],"properties":{"codigo":"73055100000000000103","sector":"730551000000000001","pcode":"CO73055","area_m2":189114}},{"type":"Polygon","arcs":[[28,-28,29]],"properties":{"codigo":"73055100000000000107","sector":"730551000000000001","pcode":"CO73055","area_m2":251523}},{"type":"Polygon","arcs":[[-29,30,-23,-5,-21,-24]],"properties":{"codigo":"73055100000000000108","sector":"730551000000000001","pcode":"CO73055","area_m2":207507}},{"type":"Polygon","arcs":[[31]],"properties":{"codigo":"73055200302002000101","sector":"730552003020020001","pcode":"CO73055","area_m2":156418}},{"type":"MultiPolygon","arcs":[[[32]],[[33]]],"properties":{"codigo":"73055200202006000101","sector":"730552002020060001","pcode":"CO73055","area_m2":93538}}]}},"arcs":[[[4608,3276],[-44,-20],[-13,-13],[-68,-34]],[[4483,3209],[-8,96],[-91,26]],[[4384,3331],[18,67],[71,287],[2,20]],[[4475,3705],[16,140],[60,-21],[-13,-173],[18,-6],[-2,-37],[-18,4],[-6,-87],[-63,-31],[85,-132],[13,23],[44,-64],[-12,-26],[11,-19]],[[4468,2978],[-19,-86],[19,-31],[14,-37]],[[4482,2824],[-60,-93],[-27,8],[-4,-9]],[[4391,2730],[-94,61],[-55,47]],[[4242,2838],[20,110],[23,69],[30,80]],[[4315,3097],[34,-29],[14,-3],[91,-70],[14,-17]],[[4391,2730],[-60,-165],[-22,-31],[-26,8],[-22,-13]],[[4261,2529],[-18,-11],[-46,-15],[8,57]],[[4205,2560],[29,225],[8,53]],[[157,255],[-32,-26],[15,-20],[-5,-13],[22,-7],[43,-82],[13,25],[17,-14],[4,-44],[29,-42],[20,15],[17,-2],[25,14],[-12,-25],[-56,-16],[-5,-18],[-9,14],[6,23],[-18,5],[-4,37],[-17,5],[-5,-32],[-18,-40],[-7,6],[10,42],[-5,17],[-26,33],[-4,31],[-21,17],[-16,35],[-2,23],[-43,18],[-10,-8],[-12,15],[-13,-3],[-10,-24],[-17,-14],[-11,18],[4,14],[17,-10],[15,30],[16,3],[15,-18],[1,15],[49,-19],[26,7],[8,28],[6,-13]],[[3917,9999],[21,-1],[5,-51],[17,2],[2,-78],[-18,-15],[1,-119],[3,-11],[2,-103],[-6,-61],[-17,-2],[3,-74],[-104,23],[-44,14],[7,24],[43,66],[14,-21],[40,55],[-4,11],[26,39],[-9,129],[13,4],[-13,161],[18,8]],[[4797,5865],[4,-26],[-12,-7],[16,-63],[-51,-17],[-8,-17],[-27,4],[6,17],[-17,6],[-14,22],[25,46],[6,-33],[11,-7],[0,28],[29,37],[32,10]],[[4384,3331],[-18,-61],[-20,-83],[-31,-90]],[[4205,2560],[-27,-2],[15,155],[7,53],[2,66],[10,-2],[4,28],[-15,13],[-31,-17],[-4,13],[12,17],[21,8],[-15,12],[8,29],[42,-36],[23,98],[-24,-5],[7,17],[27,5],[12,35],[-13,22],[23,32],[16,76],[-9,28],[10,38],[7,54],[-4,47],[-17,57],[-11,17],[10,47],[9,4],[15,86],[-24,8],[22,105],[47,0],[87,-15],[5,55],[23,-3]],[[4483,3209],[13,-124],[-5,-10]],[[4491,3075],[0,-5]],[[4491,3070],[7,-11]],[[4498,3059],[-2,-78],[-28,-3]],[[4547,2480],[-29,15],[-22,-8],[-57,-66],[-22,19],[-13,-1],[-39,56],[-13,-47],[13,-15],[-5,-14],[-99,110]],[[4482,2824],[23,-66],[28,-55],[12,-36],[-6,-70],[16,-23],[10,0],[-16,-55],[-2,-39]],[[4566,2822],[3,87],[8,46],[-10,51],[-64,61],[-5,-8]],[[4498,3059],[-7,11]],[[4491,3070],[0,5]],[[4608,3276],[76,-64]],[[4684,3212],[-19,-58],[-55,-187],[-44,-145]],[[4624,2651],[-27,32],[-14,47],[-33,30],[16,62]],[[4684,3212],[33,-28],[3,-72],[24,8],[-26,-104],[13,-16],[-17,-63],[27,-22],[-29,-103],[-8,8],[-8,-38],[4,-18],[-7,-68],[-13,39],[-9,-7],[-19,67],[-11,-40],[20,-53],[2,-35],[-39,-16]],[[4624,2651],[10,-77],[-6,-92],[-22,-15],[-26,21],[-33,-8]],[[9956,4353],[5,-23],[-16,-126],[53,-112],[-21,-16],[22,-69],[-11,-14],[-13,34],[-27,-36],[-8,3],[-31,-36],[-11,-27],[-23,41],[-36,-37],[-14,37],[1,18],[30,94],[33,95],[19,77],[10,64],[24,28],[14,5]],[[4473,7688],[10,5],[33,-89],[16,17],[11,-29],[-9,-11],[9,-24],[-21,-21],[6,-19],[9,8],[6,-21],[-9,-9],[6,-20],[-23,-17],[-80,221],[-55,153],[28,31],[63,-175]],[[4573,7187],[-12,1],[-11,36],[-23,133],[18,9],[7,-37],[21,-142]]]}
