{"type":"Topology","bbox":[-75.17753688601852,4.7610997174137095,-75.12802137482328,4.879076413785007],"transform":{"scale":[0.000004952046324156272,0.000011798849522081924],"translate":[-75.17753688601852,4.7610997174137095]},"objects":{"municipios":{"type":"GeometryCollection","geometries":[{"type":"Polygon","arcs":[[0,1,2]]},{"type":"Polygon","arcs":[[3,-1,4]]},{"type":"Polygon","arcs":[[5]]},{"type":"Polygon","arcs":[[-2,-4,6]]}]}},"arcs":[[[1615,9445],[-278,218]],[[1337,9663],[837,189]],[[2174,9852],[236,44],[163,-127],[100,-30],[9,-67],[44,-39],[-171,-40],[-361,-74],[-34,32],[-350,-75],[30,-29],[-132,-5],[-51,-20],[-42,23]],[[89,9387],[268,55],[980,221]],[[1615,9445],[-343,-81],[-82,-95],[-80,-31],[-53,-75],[-90,49],[-262,-49],[-70,4],[-244,-11],[-115,82],[-88,80],[-99,69]],[[9456,262],[69,2],[474,-83],[-22,-3],[-81,-77],[77,-18],[-39,-31],[-71,16],[-44,-56],[14,-12],[-379,72],[-87,-2],[65,49],[-58,10],[-43,51],[-76,19],[21,17],[157,-29],[36,35],[-13,40]],[[89,9387],[-89,94],[104,8],[393,73],[-203,-23],[-72,32],[134,-7],[95,27],[201,38],[47,29],[-90,26],[18,70],[56,33],[172,54],[76,8],[146,43],[16,24],[177,23],[84,-5],[64,35],[95,2],[129,28],[158,-29],[115,-6],[109,18],[178,-93],[-58,-18],[30,-19]]]}