{"type":"Topology","bbox":[-75.02362442979188,4.668235994590968,-74.8844240315658,4.7805415870201555],"transform":{"scale":[0.000013921431965804614,0.000011231682411159874],"translate":[-75.02362442979188,4.668235994590968]},"objects":{"municipios":{"type":"GeometryCollection","geometries":[{"type":"Polygon","arcs":[[0,1,2,3,4]],"properties":{"codigo":"73861100000000000105","sector":"738611000000000001","pcode":"CO73861","area_m2":66991}},{"type":"Polygon","arcs":[[-2,5,6,7,8]],"properties":{"codigo":"73861100000000000106","sector":"738611000000000001","pcode":"CO73861","area_m2":111855}},{"type":"Polygon","arcs":[[9,10,11]],"properties":{"codigo":"73861100000000000204","sector":"738611000000000002","pcode":"CO73861","area_m2":84670}},{"type":"Polygon","arcs":[[12,13,-4,14,15,16]],"properties":{"codigo":"73861100000000000104","sector":"738611000000000001","pcode":"CO73861","area_m2":97686}},{"type":"Polygon","arcs":[[17,-11,18,19,20,-5,-14,21]],"properties":{"codigo":"73861100000000000201","sector":"738611000000000002","pcode":"CO73861","area_m2":49700}},{"type":"Polygon","arcs":[[22,23,-7,24]],"properties":{"codigo":"73861100000000000109","sector":"738611000000000001","pcode":"CO73861","area_m2":39176}},{"type":"Polygon","arcs":[[25]],"properties":{"codigo":"73861200303001000101","sector":"738612003030010001","pcode":"CO73861","area_m2":48690}},{"type":"Polygon","arcs":[[26]],"properties":{"codigo":"73861200302002000101","sector":"738612003020020001","pcode":"CO73861","area_m2":147304}},{"type":"Polygon","arcs":[[27]],"properties":{"codigo":"73861200105004000101","sector":"738612001050040001","pcode":"CO73861","area_m2":41935}},{"type":"Polygon","arcs":[[28,-17,29,30,31]],"properties":{"codigo":"73861100000000000103","sector":"738611000000000001","pcode":"CO73861","area_m2":136524}},{"type":"Polygon","arcs":[[-15,-3,-9,32,33,34]],"properties":{"codigo":"73861100000000000101","sector":"738611000000000001","pcode":"CO73861","area_m2":105692}},{"type":"Polygon","arcs":[[-16,-35,35,36,-30]],"properties":{"codigo":"73861100000000000102","sector":"738611000000000001","pcode":"CO73861","area_m2":155902}},{"type":"Polygon","arcs":[[-25,-6,-1,-21,37]],"properties":{"codigo":"73861100000000000107","sector":"738611000000000001","pcode":"CO73861","area_m2":170704}},{"type":"Polygon","arcs":[[-24,38,-33,-8]],"properties":{"codigo":"73861100000000000108","sector":"738611000000000001","pcode":"CO73861","area_m2":85132}},{"type":"Polygon","arcs":[[-37,39,-31]],"properties":{"codigo":"73861100000000000110","sector":"738611000000000001","pcode":"CO73861","area_m2":38924}},{"type":"Polygon","arcs":[[40,-22,-13,-29,41]],"properties":{"codigo":"73861100000000000202","sector":"738611000000000002","pcode":"CO73861","area_m2":133635}},{"type":"Polygon","arcs":[[42,-12,-18,-41,43]],"properties":{"codigo":"73861100000000000203","sector":"738611000000000002","pcode":"CO73861","area_m2":94077}},{"type":"Polygon","arcs":[[-19,-10,-43,44]],"properties":{"codigo":"73861100000000000205","sector":"738611000000000002","pcode":"CO73861","area_m2":96833}},{"type":"MultiPolygon","arcs":[[[45]],[[46]],[[47]],[[48]],[[49]],[[50]]],"properties":{"codigo":"73861200305003000101","sector":"738612003050030001","pcode":"CO73861","area_m2":40557}}]}},"arcs":[[[6895,4352],[-39,-97],[-69,-152]],[[6787,4103],[-157,41]],[[6630,4144],[33,156]],[[6663,4300],[153,-33],[19,106]],[[6835,4373],[60,-21]],[[6787,4103],[-63,-148],[-53,-111]],[[6671,3844],[-91,-47],[-31,-6]],[[6549,3791],[10,106],[-5,117],[-35,156]],[[6519,4170],[111,-26]],[[7096,4862],[54,-13],[69,-6],[-10,-77],[-35,-213],[-65,14],[-12,-80]],[[7097,4487],[-62,1]],[[7035,4488],[35,273],[19,102],[7,-1]],[[6783,4628],[78,-17],[-8,-82]],[[6853,4529],[-18,-156]],[[6663,4300],[27,117]],[[6690,4417],[26,152],[8,73]],[[6724,4642],[59,-14]],[[6927,4511],[108,-23]],[[7097,4487],[1,-17]],[[7098,4470],[-19,-1],[-52,-40],[-10,-36]],[[7017,4393],[-13,20],[-50,11],[-17,-94],[-42,22]],[[6853,4529],[74,-18]],[[6627,3759],[-17,-35],[-97,-347],[-2,45],[36,355]],[[6547,3777],[2,14]],[[6671,3844],[-44,-85]],[[606,9398],[9,-21],[-36,-91],[50,21],[59,-3],[1,-13],[77,52],[44,46],[10,-27],[-74,-42],[-58,-51],[-67,-25],[-10,-59],[28,-2],[10,-21],[-39,-26],[-9,-23],[-17,16],[2,52],[-38,70],[-81,9],[-53,-43],[-42,-14],[52,72],[26,73],[14,10],[8,-69],[77,-7],[14,44],[43,72]],[[4693,9998],[22,-3],[-4,-33],[33,-13],[124,-70],[22,-18],[19,-45],[-6,-24],[-49,-115],[-20,-7],[-83,38],[-64,17],[8,74],[13,37],[-15,14],[-26,-13],[-16,12],[-17,-65],[-55,56],[-28,14],[-13,-27],[-83,30],[-18,-8],[-20,14],[19,33],[-57,53],[60,-14],[31,-38],[27,8],[-2,34],[98,6],[15,39],[18,13],[53,-10],[14,11]],[[9902,380],[74,-50],[-9,-22],[32,-18],[-27,-24],[-16,-48],[-42,-17],[-7,-26],[-77,-175],[-19,12],[44,100],[10,68],[13,21],[-33,49],[23,58],[34,72]],[[6824,4947],[2,-44],[-11,-18],[-32,-257]],[[6724,4642],[-130,23],[7,97]],[[6601,4762],[-6,51],[-83,1],[-20,8]],[[6492,4822],[35,76],[46,2],[2,-35],[19,0],[-6,24],[2,50],[23,26],[48,8],[77,-31],[59,-4],[27,9]],[[6519,4170],[-2,8],[-83,18]],[[6434,4196],[-18,66],[0,29],[40,14],[10,33],[-31,56]],[[6435,4394],[30,26],[5,-24],[73,24],[147,-3]],[[6435,4394],[-8,38],[-58,28],[-1,209],[28,-33],[34,-8]],[[6430,4628],[27,-38],[13,40],[44,29],[87,103]],[[7017,4393],[-20,-44],[-37,-31],[-51,-89],[-14,-45],[-42,-78],[-23,-22],[21,-16],[130,-68],[-48,-116],[-27,-49],[-43,64],[-39,-75],[-66,-73],[-28,-60],[-17,-5],[-86,73]],[[6547,3777],[-13,16],[-78,-35],[-42,44],[26,41],[1,17],[-27,3],[7,42],[28,40],[1,128],[10,26],[-26,97]],[[6430,4628],[7,50],[21,66],[34,78]],[[7049,4965],[-16,-18],[-9,-55],[-52,14],[-21,-123],[-5,-73],[-19,-199]],[[6824,4947],[59,60],[73,-34],[40,15],[4,25],[45,1],[4,-49]],[[7101,4890],[-5,-28]],[[7049,4965],[26,-66],[26,-9]],[[7101,4890],[108,-19],[46,10],[50,30],[5,-22],[-37,-29],[51,-14],[-3,-55],[33,-39],[28,10],[-38,-84],[-70,-90],[-49,-49],[-67,-51],[-60,-18]],[[250,3678],[30,-6],[-10,-13],[53,-8],[4,24],[28,10],[7,-24],[32,28],[16,-14],[-10,-25],[-37,-5],[-8,19],[-26,-9],[-2,-42],[-37,9],[-52,28],[6,18],[-29,26],[6,12],[29,-28]],[[814,3558],[-33,-6],[-28,-45],[-31,25],[27,-1],[13,23],[38,29],[14,-25]],[[706,3596],[13,-17],[-5,-37],[-58,38],[-42,5],[13,22],[-16,15],[29,43],[19,-44],[47,-25]],[[515,3679],[15,-1],[16,-30],[-19,-23],[-43,-15],[-13,27],[1,34],[16,19],[27,-11]],[[175,3710],[-2,-19],[-79,11],[44,15],[16,17],[23,-5],[-2,-19]],[[30,3697],[29,11],[-6,-23],[-51,-25],[-1,75],[29,-38]]]}
