{"type":"Topology","bbox":[-75.0161563695575,3.9952709885186843,-74.86042770433028,4.123820160828173],"transform":{"scale":[0.000015574423965119475,0.000012856202851234015],"translate":[-75.0161563695575,3.9952709885186843]},"objects":{"municipios":{"type":"GeometryCollection","geometries":[{"type":"Polygon","arcs":[[0]]},{"type":"Polygon","arcs":[[1]]},{"type":"Polygon","arcs":[[2,3,4,5,6,7]]},{"type":"Polygon","arcs":[[8,-3,9,10]]},{"type":"Polygon","arcs":[[11,-4,-9,12,13]]},{"type":"Polygon","arcs":[[14,15,-6,16]]},{"type":"Polygon","arcs":[[17,18,19,20,-15]]},{"type":"Polygon","arcs":[[21]]},{"type":"Polygon","arcs":[[22,23]]},{"type":"Polygon","arcs":[[24]]},{"type":"Polygon","arcs":[[25,-17,-5,-12,26]]},{"type":"Polygon","arcs":[[27,28,-7,29,30]]},{"type":"Polygon","arcs":[[-13,-11,31,32]]},{"type":"Polygon","arcs":[[-16,-21,33,-30]]},{"type":"Polygon","arcs":[[34,-19,35]]},{"type":"Polygon","arcs":[[36,-36,-18,-26]]},{"type":"MultiPolygon","arcs":[[[-23,37]],[[38]]]},{"type":"Polygon","arcs":[[39]]},{"type":"MultiPolygon","arcs":[[[40]],[[41]]]},{"type":"Polygon","arcs":[[-28,42,43]]},{"type":"Polygon","arcs":[[-10,-8,-29,-44,-32]]}]}},"arcs":[[[5826,8154],[-64,-514],[6,-270],[-29,-351],[-48,-81],[-76,97],[59,311],[10,196],[-33,181],[2,99],[36,87],[28,168],[-19,78],[128,-1]],[[9198,3020],[49,-3],[78,-301],[85,29],[51,-60],[106,-58],[-26,-70],[114,-11],[-12,-49],[64,-56],[9,76],[119,-68],[67,86],[97,-72],[-34,-207],[-35,-28],[-45,-119],[-33,73],[-88,113],[-29,-27],[-36,47],[-51,-31],[10,-115],[-80,102],[16,-127],[151,-142],[108,-47],[-13,-67],[-101,41],[-44,-97],[-156,145],[-55,17],[-38,-112],[-158,53],[-54,-32],[40,152],[112,54],[-3,68],[-141,-32],[-10,90],[71,135],[-57,109],[17,125],[-33,130],[-66,87],[-4,67],[57,39],[-78,50],[59,43]],[[3032,2843],[-8,-58],[173,-27]],[[3197,2758],[-17,-91]],[[3180,2667],[-14,-54]],[[3166,2613],[-250,61]],[[2916,2674],[17,183]],[[2933,2857],[99,-14]],[[3203,2935],[-6,-177]],[[3032,2843],[15,104],[42,23]],[[3089,2970],[24,-46],[90,11]],[[3628,2718],[-147,-36],[-145,-19],[-156,4]],[[3203,2935],[87,44],[100,96]],[[3390,3075],[43,22],[255,-224],[92,-12],[120,23],[67,-159],[75,-128],[-209,36],[-145,89],[-60,-4]],[[3146,2499],[-208,40]],[[2938,2539],[-22,135]],[[3166,2613],[-20,-114]],[[3146,2499],[-32,-123]],[[3114,2376],[-146,-400]],[[2968,1976],[-57,45]],[[2911,2021],[43,257],[-41,29],[25,232]],[[3806,7860],[68,-43],[49,-74],[-81,-96],[19,-38],[-12,-103],[-86,12],[-7,-104],[20,-45],[-71,-50],[-57,16],[18,51],[-70,109],[37,87],[45,-25],[34,75],[-60,15],[6,47],[-61,65],[134,-73],[43,97],[-28,18],[28,78],[32,-19]],[[8103,286],[35,-19],[-49,-164]],[[8089,103],[-105,-13],[-14,66],[-38,1],[10,-157],[-36,21],[-2,74],[-105,-37],[-15,69],[-71,40],[-130,38],[-160,-45],[9,102],[98,47],[13,75],[-67,31],[15,62],[-49,26],[-3,-89],[-42,-29],[-115,32],[17,92],[-36,62],[-111,-1],[-24,126],[-159,99],[-31,-53],[-303,191],[58,226],[35,46],[85,-10],[-38,-103],[44,-41],[25,88],[148,-51],[-37,-126],[54,-25],[26,68],[110,-62],[46,11],[85,-45],[138,16],[59,-95],[197,-111],[110,-150],[134,-7],[130,-152],[-76,-170],[96,-41],[39,87]],[[8466,1539],[0,-89],[-47,-9],[9,-64],[104,25],[47,-40],[55,36],[-6,224],[265,-248],[-80,-50],[-96,73],[-58,-52],[95,-63],[-119,-92],[-41,141],[-51,-9],[-91,-347],[-84,54],[-185,173],[53,61],[61,7],[77,48],[15,59],[-160,48],[-4,90],[42,-5],[29,148],[-2,75],[74,-123],[98,-21],[0,-50]],[[3508,2483],[-362,16]],[[3628,2718],[14,-114],[-130,-20],[-4,-101]],[[1944,3049],[256,-76],[185,-29],[243,9],[102,-56],[157,-32]],[[2887,2865],[46,-8]],[[2916,2674],[-182,36],[24,61],[-61,13],[-72,-29],[-61,-106],[-238,-146],[-23,-40]],[[2303,2463],[-54,1],[-3,65],[116,14],[148,114],[-28,75],[-121,15],[-22,45],[-97,33],[13,95],[-209,58],[-8,-29],[-128,54],[34,46]],[[3089,2970],[-52,166],[-110,134]],[[2927,3270],[34,42],[-51,94],[-8,115],[-102,114],[-98,22],[-17,74],[180,35],[7,105],[92,-21],[51,-61],[-106,-113],[82,-161],[53,67],[78,-65],[129,48],[39,76],[42,-33],[-35,-29],[159,-10],[42,29],[144,288],[82,144],[174,353],[129,235],[38,40],[-73,-143],[91,-70],[104,-29],[-123,-218],[-152,160],[-83,-161],[23,-30],[-65,-119],[-25,20],[-93,-185],[34,-43],[-158,-295],[-25,-102],[-60,32],[-178,-263],[110,-12],[-2,-125]],[[2911,2021],[-173,-75],[-71,35],[14,130],[-10,124],[-158,211],[-7,74],[-70,3],[-69,-64],[-64,4]],[[3492,1955],[50,-38],[-9,-57],[-75,-152],[-41,57],[-18,-99],[-172,25],[-118,306],[-56,-134],[-100,85],[15,28]],[[3114,2376],[155,-253],[223,-168]],[[3508,2483],[-32,-220],[65,-25],[-49,-283]],[[8103,286],[-8,101],[52,-26],[-22,204],[-83,44],[18,85],[52,-9],[36,67],[-43,40],[-79,-44],[-109,61],[15,39],[-123,63],[11,49],[-106,12],[19,57],[92,-53],[88,-78],[140,6],[7,47],[58,5],[116,-112],[71,-1],[5,-101],[-63,0],[-21,80],[-36,-22],[26,-125],[114,-130],[13,26],[126,-106],[-17,-35],[120,-66],[-49,-156],[-164,56],[-146,-74],[12,-111],[-27,23],[-109,1]],[[8169,1123],[-21,-30],[-67,67],[55,88],[71,-74],[-38,-51]],[[128,7504],[117,-156],[9,-114],[74,-68],[155,-19],[26,58],[189,-96],[-45,-11],[-21,-71],[-91,-1],[-29,51],[-34,-26],[-81,9],[-98,51],[-82,19],[-43,82],[24,56],[-126,110],[-72,39],[41,82],[42,-35],[45,40]],[[1854,9899],[47,-6],[38,56],[22,-69],[56,-4],[200,-70],[-15,-69],[52,-16],[-89,-104],[-75,54],[49,90],[-45,15],[-18,-50],[-107,27],[-3,-106],[-155,18],[-64,42],[64,139],[-88,14],[-34,-62],[-145,1],[-11,61],[133,1],[70,118],[65,0],[53,-80]],[[1068,9870],[14,-161],[-52,-3],[-33,-92],[-121,83],[-38,-43],[-82,65],[-42,-49],[-48,80],[16,72],[44,37],[79,-36],[89,-6],[45,60],[-29,76],[163,46],[-5,-129]],[[1944,3049],[5,55],[68,-16],[-12,48],[87,36],[37,-36],[186,-40],[11,-79],[51,-39],[101,29],[141,121],[149,93],[105,48],[54,1]],[[2927,3270],[-20,-58],[-20,-347]]]}
