{"type":"Topology","bbox":[-74.69050048637598,3.837533801908433,-74.56310823188244,3.9594247844853596],"transform":{"scale":[0.000012740499499304238,0.000012190317289421596],"translate":[-74.69050048637598,3.837533801908433]},"objects":{"municipios":{"type":"GeometryCollection","geometries":[{"type":"Polygon","arcs":[[0]]},{"type":"MultiPolygon","arcs":[[[1,2,3]],[[4]]]},{"type":"Polygon","arcs":[[-3,5,6]]},{"type":"Polygon","arcs":[[7,-6,-2]]},{"type":"Polygon","arcs":[[8]]},{"type":"Polygon","arcs":[[9]]}]}},"arcs":[[[5149,9975],[-12,-29],[63,-38],[35,-85],[30,-28],[54,6],[17,38],[-10,41],[40,0],[-20,-31],[74,-12],[15,27],[57,18],[-13,72],[60,-14],[-14,-125],[74,-79],[-11,-35],[-41,17],[7,34],[-28,36],[-29,-10],[-149,8],[-2,-38],[-76,-20],[-34,2],[41,21],[-3,26],[-55,33],[-38,84],[-102,64],[31,41],[39,-24]],[[7245,7935],[-79,29],[-116,127]],[[7050,8091],[147,159],[-157,-3],[-49,44],[-24,68]],[[6967,8359],[19,18],[65,-87],[25,25],[62,-31],[97,12],[40,-40],[37,63],[24,-10],[25,-40],[83,-90],[26,-44],[30,20],[39,-22],[7,-39],[-43,8],[-40,-47],[-31,-81],[-85,0],[-23,-14],[-28,-49],[-31,-2],[-20,26]],[[7094,8475],[128,3],[24,10],[-12,-41],[3,-76],[-134,-3],[-9,107]],[[7050,8091],[-105,-100],[62,-72],[39,35],[41,-52],[16,16],[50,-45]],[[7153,7873],[91,-73],[-34,-46],[-52,22],[-112,-10],[-7,-43],[-42,4],[-3,169],[-55,67],[-39,-33],[-32,55],[-3,27],[-35,18],[-9,88],[71,22],[-56,123],[-63,5],[-38,64],[-33,25],[32,30],[-34,5],[-13,37],[22,12],[-17,40],[-22,-13],[-5,79],[15,40],[-37,18],[8,71],[30,-45],[54,26],[31,-70],[-16,-9],[89,-213],[94,23],[34,-29]],[[7245,7935],[-2,-26],[-59,15],[-31,-51]],[[16,218],[55,-65],[41,35],[15,-16],[26,23],[82,-91],[33,-53],[-61,-51],[-32,36],[-18,-17],[-87,98],[-70,86],[16,15]],[[9908,3588],[16,-2],[75,-64],[-55,-70],[-120,83],[-14,-17],[-66,48],[30,40],[28,-21],[67,81],[39,-78]]]}