{"type":"Topology","bbox":[-75.10358844894375,4.126242196834046,-75.09127814926217,4.3009023130030135],"transform":{"scale":[0.0000012311530834670833,0.00001746775839273599],"translate":[-75.10358844894375,4.126242196834046]},"objects":{"municipios":{"type":"GeometryCollection","geometries":[{"type":"Polygon","arcs":[[0,1]],"properties":{"codigo":"73678200101004000101","sector":"736782001010040001","pcode":"CO73678","area_m2":135248}},{"type":"Polygon","arcs":[[2,3,4]],"properties":{"codigo":"73678100000000000103","sector":"736781000000000001","pcode":"CO73678","area_m2":194905}},{"type":"Polygon","arcs":[[5,6,7]],"properties":{"codigo":"73678100000000000101","sector":"736781000000000001","pcode":"CO73678","area_m2":195052}},{"type":"Polygon","arcs":[[8,-8,9,-4]],"properties":{"codigo":"73678100000000000102","sector":"736781000000000001","pcode":"CO73678","area_m2":209130}},{"type":"Polygon","arcs":[[-6,-9,-3,10]],"properties":{"codigo":"73678100000000000104","sector":"736781000000000001","pcode":"CO73678","area_m2":202271}},{"type":"Polygon","arcs":[[11,12,-1,13]],"properties":{"codigo":"73678200101004000102","sector":"736782001010040001","pcode":"CO73678","area_m2":126885}},{"type":"Polygon","arcs":[[-12,14]],"properties":{"codigo":"73678200101004000103","sector":"736782001010040001","pcode":"CO73678","area_m2":129744}}]}},"arcs":[[[3866,9947],[-110,-1],[-472,-69],[-324,-26],[449,-46],[-552,-38]],[[2857,9767],[-596,-12],[-282,32],[356,16],[-350,22],[-773,17],[-203,-39],[-483,8],[-90,24],[-275,-4],[-161,46],[535,11],[136,25],[-145,45],[82,10],[984,31],[202,-21],[261,14],[382,-35],[296,15],[324,-18],[698,8],[111,-15]],[[9046,409],[-248,4],[-975,-5]],[[7823,408],[-15,26],[-1012,-7],[373,138],[-374,49],[-409,69],[-30,39],[105,71],[-135,39]],[[6326,832],[562,-6],[-123,-13],[1750,-70],[356,-26],[-269,-96],[325,-64],[678,-11],[-654,-4],[-83,-21],[-524,6],[39,25],[-213,2],[-127,-33],[114,-67],[362,-10],[171,21],[706,9],[440,27],[163,-12],[-527,-53],[-426,-27]],[[5534,375],[149,-40],[700,-20],[443,-20],[-170,-85],[135,-27],[-199,-20],[-373,19]],[[6219,182],[-184,12],[-1749,75],[-252,-23],[-141,19],[-859,77],[-293,12],[-440,-8],[-524,38],[163,12],[477,-17],[346,16],[-92,15],[382,20],[-104,16],[466,19],[393,42],[614,44],[-77,7],[418,37],[-96,45],[204,3]],[[4871,643],[253,-41],[-470,-71],[-600,-42],[1152,-84],[328,-30]],[[7823,408],[42,-27],[-2331,-6]],[[4871,643],[445,-15],[82,35],[-159,17],[275,70],[-238,12],[309,35],[413,28],[328,7]],[[9046,409],[411,-26],[-641,17],[-509,-5],[-35,-47],[-390,-91],[191,-59],[302,-10],[-65,-45],[-252,-57],[338,-19],[-401,-34],[-664,4],[136,31],[-882,-12],[-206,17],[-871,-73],[-880,73],[1591,109]],[[5680,9815],[-686,-51],[-515,-27],[656,-71],[694,-30],[-45,-96]],[[5784,9540],[-118,-1],[-61,64],[-156,32],[-808,29],[-147,18],[225,9],[-190,16],[-835,97],[-721,-46],[-116,9]],[[3866,9947],[1094,11],[661,20],[118,-10],[-165,-65],[99,-22],[-338,-50],[345,-16]],[[5680,9815],[356,22],[757,-28],[219,-23],[391,-8],[-185,-54],[-186,-12],[497,-17],[366,-57],[1054,-33],[-433,-11],[-732,38],[-192,-13],[-253,26],[-498,4],[-458,-61],[-439,-26],[212,-76],[-155,-2],[-217,56]]]}
