{"type":"Topology","bbox":[-75.17713788189911,4.577717628418634,-75.03201245364528,4.686090654809923],"transform":{"scale":[0.000014513994224805914,0.000010838386477776631],"translate":[-75.17713788189911,4.577717628418634]},"objects":{"municipios":{"type":"GeometryCollection","geometries":[{"type":"Polygon","arcs":[[0,1,2]],"properties":{"codigo":"73043100000000000102","sector":"730431000000000001","pcode":"CO73043","area_m2":108955}},{"type":"Polygon","arcs":[[3,4,5]],"properties":{"codigo":"73043100000000000104","sector":"730431000000000001","pcode":"CO73043","area_m2":77878}},{"type":"Polygon","arcs":[[6]],"properties":{"codigo":"73043200104001000101","sector":"730432001040010001","pcode":"CO73043","area_m2":27333}},{"type":"Polygon","arcs":[[7]],"properties":{"codigo":"73043200201002000101","sector":"730432002010020001","pcode":"CO73043","area_m2":14951}},{"type":"Polygon","arcs":[[-5,8,-2,9]],"properties":{"codigo":"73043100000000000101","sector":"730431000000000001","pcode":"CO73043","area_m2":30827}},{"type":"Polygon","arcs":[[10,-6,-10,-1]],"properties":{"codigo":"73043100000000000103","sector":"730431000000000001","pcode":"CO73043","area_m2":24231}},{"type":"Polygon","arcs":[[11]],"properties":{"codigo":"73043200101003000101","sector":"730432001010030001","pcode":"CO73043","area_m2":9649}}]}},"arcs":[[[5820,5073],[-20,4],[-12,19],[-54,-82],[-31,-52]],[[5703,4962],[-26,22],[15,27]],[[5692,5011],[11,19],[-12,12],[65,96],[9,-11],[9,15],[-10,10],[24,45],[14,47],[-2,12],[12,58],[16,10],[9,41],[18,43],[43,39],[44,34],[41,28],[52,9],[30,13],[8,20],[29,23],[7,-14],[20,14],[9,-24],[8,7],[32,78],[-7,12],[6,34],[36,35],[20,-42],[9,-63],[22,-6],[-2,-48],[5,-14],[-31,9],[-25,17],[-19,-8],[-35,-31],[-20,-1],[-43,-29],[-23,-7],[-45,-27],[-39,-4],[-22,-19],[3,-15],[-7,-13],[-6,10],[-7,-21],[-19,-22],[-21,-14],[-23,-47],[-9,-52],[19,-15],[-4,-10],[16,-13],[-12,-12],[-32,0],[-28,-18],[-15,-31],[10,-9],[-10,-12],[-6,-26],[23,-6],[25,-17],[-5,-51],[-37,24]],[[5662,4817],[-26,-45],[-10,0],[-3,-28],[8,-19],[2,-41],[-6,-19],[-1,-38],[9,0],[20,-33],[-21,-3],[6,-71],[-8,-12],[-47,-13],[-21,-17],[-11,-20],[-11,-4],[-22,56],[-21,-19],[-17,-2],[18,-42],[-25,-11],[-16,4],[-31,-26],[-52,-11],[-40,-39],[-6,0]],[[5330,4364],[30,62],[56,62],[51,39],[27,32],[42,63],[33,75],[14,50],[19,49],[24,47]],[[5626,4843],[36,-26]],[[5711,228],[4,-20],[7,16],[42,-9],[-6,-33],[-16,-2],[-53,-14],[4,-22],[-20,-7],[-4,22],[-23,-9],[-42,-51],[-27,-27],[25,-42],[-3,-17],[-35,-13],[-15,29],[-7,-10],[-18,20],[0,20],[-9,15],[39,6],[-2,7],[49,47],[4,17],[31,36],[-6,17],[21,2],[30,15],[30,7]],[[38,2122],[24,-25],[18,13],[6,-31],[37,-18],[2,-17],[9,-1],[1,-26],[15,-50],[-1,-5],[30,-2],[-17,-27],[-29,23],[-17,66],[-15,8],[-29,23],[-5,-10],[-67,67],[12,32],[0,17],[26,-37]],[[5330,4364],[-9,8],[6,21],[18,36],[28,37],[44,46],[20,14],[4,-6],[41,38],[22,33],[-5,5],[21,29],[14,29],[28,67],[-4,37],[17,44],[12,16],[-13,10],[29,43],[15,10],[-10,13],[12,1],[18,28],[-3,11],[27,36],[-3,3],[28,47],[5,-9]],[[5703,4962],[-60,-96],[-17,-23]],[[5820,5073],[-33,-60],[-31,-34],[-34,-49],[2,-7],[-17,-37],[-22,-37],[6,-6],[-23,-29],[-6,3]],[[9892,9990],[27,-25],[33,-11],[0,9],[18,-2],[14,13],[1,-22],[12,-2],[-1,-17],[-32,-8],[-5,-32],[-15,3],[7,35],[-9,5],[-39,-1],[-34,7],[2,45],[5,12],[16,-9]]]}
