{"type":"Topology","bbox":[-75.69797687865992,3.5805986606453066,-75.45934357661775,3.9063023378206245],"transform":{"scale":[0.000023865716775893616,0.00003257362508003979],"translate":[-75.69797687865992,3.5805986606453066]},"objects":{"municipios":{"type":"GeometryCollection","geometries":[{"type":"Polygon","arcs":[[0]],"properties":{"codigo":"73168200805006000101","sector":"731682008050060001","pcode":"CO73168","area_m2":14293}},{"type":"Polygon","arcs":[[1,2,3,4,5]],"properties":{"codigo":"73168100000000000203","sector":"731681000000000002","pcode":"CO73168","area_m2":65865}},{"type":"Polygon","arcs":[[6,7,8,-2,9]],"properties":{"codigo":"73168100000000000204","sector":"731681000000000002","pcode":"CO73168","area_m2":102890}},{"type":"Polygon","arcs":[[10,11,12,13,14]],"properties":{"codigo":"73168100000000000402","sector":"731681000000000004","pcode":"CO73168","area_m2":113121}},{"type":"Polygon","arcs":[[15,-10,16,17]],"properties":{"codigo":"73168100000000000302","sector":"731681000000000003","pcode":"CO73168","area_m2":124310}},{"type":"Polygon","arcs":[[18,19,20,21,-7,-16,22]],"properties":{"codigo":"73168100000000000303","sector":"731681000000000003","pcode":"CO73168","area_m2":144040}},{"type":"Polygon","arcs":[[23,-20,24]],"properties":{"codigo":"73168100000000000304","sector":"731681000000000003","pcode":"CO73168","area_m2":68982}},{"type":"Polygon","arcs":[[25,-14,26,27,-21,-24,28]],"properties":{"codigo":"73168100000000000305","sector":"731681000000000003","pcode":"CO73168","area_m2":162309}},{"type":"Polygon","arcs":[[-13,29,30,-27]],"properties":{"codigo":"73168100000000000401","sector":"731681000000000004","pcode":"CO73168","area_m2":55284}},{"type":"Polygon","arcs":[[31,32,33,-11,34,35]],"properties":{"codigo":"73168100000000000403","sector":"731681000000000004","pcode":"CO73168","area_m2":243999}},{"type":"Polygon","arcs":[[36,-35,-15,-26,37]],"properties":{"codigo":"73168100000000000404","sector":"731681000000000004","pcode":"CO73168","area_m2":82500}},{"type":"Polygon","arcs":[[38,39,40]],"properties":{"codigo":"73168100000000000504","sector":"731681000000000005","pcode":"CO73168","area_m2":237540}},{"type":"Polygon","arcs":[[-40,41,42,43,44]],"properties":{"codigo":"73168100000000000503","sector":"731681000000000005","pcode":"CO73168","area_m2":194303}},{"type":"Polygon","arcs":[[45]],"properties":{"codigo":"73168201606007000101","sector":"731682016060070001","pcode":"CO73168","area_m2":49743}},{"type":"Polygon","arcs":[[46,47,48]],"properties":{"codigo":"73168100000000000101","sector":"731681000000000001","pcode":"CO73168","area_m2":230907}},{"type":"Polygon","arcs":[[49,50,51,52,53]],"properties":{"codigo":"73168100000000000102","sector":"731681000000000001","pcode":"CO73168","area_m2":304663}},{"type":"Polygon","arcs":[[54,55,-4,56,-53,57,-49,58]],"properties":{"codigo":"73168100000000000103","sector":"731681000000000001","pcode":"CO73168","area_m2":747692}},{"type":"Polygon","arcs":[[-54,-57,-3,-9,59,60]],"properties":{"codigo":"73168100000000000104","sector":"731681000000000001","pcode":"CO73168","area_m2":86127}},{"type":"Polygon","arcs":[[-52,61,-47,-58]],"properties":{"codigo":"73168100000000000105","sector":"731681000000000001","pcode":"CO73168","area_m2":188915}},{"type":"Polygon","arcs":[[-12,-34,62,-50,-61,63,-30]],"properties":{"codigo":"73168100000000000106","sector":"731681000000000001","pcode":"CO73168","area_m2":408433}},{"type":"Polygon","arcs":[[64,-55,65,66]],"properties":{"codigo":"73168100000000000207","sector":"731681000000000002","pcode":"CO73168","area_m2":157155}},{"type":"Polygon","arcs":[[67,68,-67,69,70]],"properties":{"codigo":"73168100000000000201","sector":"731681000000000002","pcode":"CO73168","area_m2":225862}},{"type":"Polygon","arcs":[[71,-5,-56,-65,-69]],"properties":{"codigo":"73168100000000000202","sector":"731681000000000002","pcode":"CO73168","area_m2":76669}},{"type":"Polygon","arcs":[[-64,-60,-8,-22,-28,-31]],"properties":{"codigo":"73168100000000000205","sector":"731681000000000002","pcode":"CO73168","area_m2":104589}},{"type":"Polygon","arcs":[[72,-23,-18,73,-71,74]],"properties":{"codigo":"73168100000000000206","sector":"731681000000000002","pcode":"CO73168","area_m2":427394}},{"type":"Polygon","arcs":[[-6,-72,-68,-74,-17]],"properties":{"codigo":"73168100000000000301","sector":"731681000000000003","pcode":"CO73168","area_m2":138165}},{"type":"Polygon","arcs":[[75,-36,-37,76,77,-42,-39,78]],"properties":{"codigo":"73168100000000000405","sector":"731681000000000004","pcode":"CO73168","area_m2":1419315}},{"type":"Polygon","arcs":[[-76,79,-32]],"properties":{"codigo":"73168100000000000406","sector":"731681000000000004","pcode":"CO73168","area_m2":163136}},{"type":"Polygon","arcs":[[-44,80,-77,-38,-29,-25,-19,-73,81]],"properties":{"codigo":"73168100000000000501","sector":"731681000000000005","pcode":"CO73168","area_m2":327140}},{"type":"Polygon","arcs":[[-78,-81,-43]],"properties":{"codigo":"73168100000000000502","sector":"731681000000000005","pcode":"CO73168","area_m2":187918}},{"type":"Polygon","arcs":[[82]],"properties":{"codigo":"73168201001004000101","sector":"731682010010040001","pcode":"CO73168","area_m2":155793}},{"type":"MultiPolygon","arcs":[[[83]],[[84]]],"properties":{"codigo":"73168201210005000101","sector":"731682012100050001","pcode":"CO73168","area_m2":18089}}]}},"arcs":[[[3028,21],[-18,-21],[-22,12],[1,14],[13,6],[7,12],[29,3],[10,-8],[-20,-18]],[[8873,4396],[-63,-61]],[[8810,4335],[-1,0]],[[8809,4335],[-94,54]],[[8715,4389],[38,8],[29,15],[13,-6],[11,9],[-4,18]],[[8802,4433],[71,-37]],[[8926,4365],[63,-36]],[[8989,4329],[-72,-55]],[[8917,4274],[-107,61]],[[8873,4396],[53,-31]],[[9259,4281],[6,-39],[-53,-59]],[[9212,4183],[-74,41]],[[9138,4224],[26,48],[-6,36]],[[9158,4308],[40,9],[56,5]],[[9254,4322],[5,-41]],[[9091,4521],[-23,-26],[-81,-75],[-61,-55]],[[8873,4396],[114,108],[31,34]],[[9018,4538],[29,-12],[22,1],[22,-6]],[[9134,4491],[-8,-13]],[[9126,4478],[-24,-38],[-12,-9],[-1,-16]],[[9089,4415],[-26,-2],[2,-16],[-32,-30]],[[9033,4367],[-44,-38]],[[9091,4521],[23,1],[25,-15],[-12,-3],[7,-13]],[[9205,4416],[-116,-1]],[[9126,4478],[26,-3],[4,16],[52,8],[-3,-83]],[[9208,4342],[0,-5],[42,2],[4,-17]],[[9158,4308],[-28,3]],[[9130,4311],[-97,56]],[[9205,4416],[44,2],[10,-39],[-57,-2],[6,-35]],[[9138,4224],[-83,45],[-7,14]],[[9048,4283],[21,3],[-1,7],[17,-1],[45,19]],[[9489,4185],[-19,10],[-48,9],[-32,9],[-65,-95]],[[9325,4118],[-35,19]],[[9290,4137],[-61,32],[-17,14]],[[9259,4281],[56,7],[2,-14],[60,2],[1,11],[30,3]],[[9408,4290],[40,4],[15,-72],[30,-5],[-4,-32]],[[9294,4356],[14,-27],[71,5],[29,-44]],[[9208,4342],[20,9],[54,0],[12,5]],[[9895,4549],[-41,-5],[-1,-9],[11,-7],[3,-16],[-29,-4],[-15,-18],[-27,-7],[-25,3],[-34,-18],[-42,-12],[-13,1],[-15,11],[-26,-12],[-16,14],[-10,0],[0,-27],[-7,-4]],[[9608,4439],[-42,109],[50,5]],[[9616,4553],[9,-13],[83,-2],[4,10],[45,17],[41,8],[23,24],[33,-12],[30,4],[-5,-14],[10,-23],[6,-3]],[[9608,4439],[-25,8],[-43,-15]],[[9540,4432],[-115,12],[-14,80],[-37,-1],[-2,11]],[[9372,4534],[26,7],[35,-2],[30,14],[7,-4],[18,5],[1,-21],[29,2],[12,40]],[[9530,4575],[81,-9],[5,-13]],[[20,9995],[14,0],[35,-8],[13,6],[56,-45],[8,-21],[-38,-23],[-76,80],[-26,-1],[-6,16],[20,-4]],[[8417,4304],[-29,-7],[9,-18],[-17,6],[-50,-1],[-37,-21],[1,-22]],[[8294,4241],[-15,35],[18,1],[19,12],[1,27],[-47,24],[-52,23],[-54,8],[-96,32],[-49,27],[-12,17],[-36,-28],[-2,29],[-10,17],[-40,32],[13,10]],[[7932,4507],[24,-12],[162,-56],[63,-12],[87,-39],[78,-46],[16,-7],[19,3],[27,-11],[9,-23]],[[8822,4236],[-33,-2],[-16,-15],[25,-3],[8,-51]],[[8806,4165],[3,-17],[-9,17],[-133,16],[-52,5],[-5,10],[-36,-1],[3,-24],[25,2],[37,-12],[17,-1],[-4,-19],[13,-2],[-4,-9],[-36,4],[-16,15],[-30,15],[-11,-2],[13,-38],[-24,-2],[-10,25],[-9,4]],[[8538,4151],[-25,121],[10,3]],[[8523,4275],[188,13],[10,8],[28,-16]],[[8749,4280],[54,-30],[19,-14]],[[8388,4439],[50,-6],[56,10],[22,0],[54,9],[6,-7],[52,4],[3,-6],[55,8]],[[8686,4451],[15,-49],[14,-13]],[[8809,4335],[-60,-55]],[[8523,4275],[-52,-4],[-31,7],[-20,17],[-3,9]],[[7932,4507],[27,4],[28,-5],[31,-11],[51,-12],[29,-3],[55,-15],[82,-12],[81,-5],[39,-9],[33,0]],[[8917,4274],[-23,-16],[9,-10]],[[8903,4248],[-20,-5],[-61,-7]],[[8538,4151],[-20,-2],[-26,23],[-14,-33],[-33,18],[16,35],[-1,17],[-29,-12],[-25,3],[-18,10],[-70,9],[0,22],[-24,0]],[[9290,4137],[-29,-37],[-16,2],[-43,20],[-13,11],[-16,1],[-21,23],[-32,3],[-8,9],[-22,-14],[-12,-1],[-23,13],[-10,-1],[4,-25],[-12,-3],[-95,13],[-40,1],[-35,-2],[-24,11],[-25,0],[-12,4]],[[8903,4248],[33,9],[2,5],[42,2],[27,12],[41,7]],[[8681,4475],[5,-24]],[[8388,4439],[41,22],[31,11],[23,19],[26,8],[32,27]],[[8541,4526],[56,-2],[20,-4],[7,-9],[54,14],[3,-50]],[[8874,4484],[-31,-3],[-1,-9],[-16,-18],[-7,1]],[[8819,4455],[-16,12],[-25,-9],[-19,12],[-27,8],[-13,-3],[-38,0]],[[8541,4526],[13,8],[27,3],[61,2],[60,35],[13,14],[13,31],[14,11]],[[8742,4630],[35,-16],[-13,-16],[28,-8],[20,5],[-8,-25],[2,-18],[19,-1],[42,-22],[4,-11],[3,-34]],[[8819,4455],[-17,-22]],[[9260,4568],[-22,3],[-22,-12],[-34,0],[-18,-32],[-17,-10],[4,-18],[-17,-8]],[[9018,4538],[-24,14],[-32,8],[-52,-28],[-20,-16],[-7,-23],[-9,-9]],[[8742,4630],[1,6],[30,-9],[14,3],[10,-7],[27,-5],[20,3],[28,14],[-5,13],[13,13],[27,-1],[17,-22],[23,4],[31,-5],[25,8],[74,-1],[27,-11],[45,0],[3,-12],[28,2],[74,-13],[6,-42]],[[9617,4116],[-16,5],[-13,15],[-10,0],[-33,11],[-24,13],[-32,25]],[[9294,4356],[17,-2],[31,4]],[[9342,4358],[19,0],[19,7],[16,25],[76,18],[41,7],[27,17]],[[9895,4549],[38,-25],[45,31],[21,-29],[-64,-22],[9,-56],[36,-2],[13,-8],[3,-25],[-93,-10],[-4,-28],[0,-45],[-23,-25],[0,-15],[-12,-2],[-3,-76],[-11,-23],[-1,-17],[-78,-3],[-106,-41],[-38,-2],[-10,-10]],[[9617,4116],[-7,-6],[-25,-3],[-66,12],[-51,-3],[-15,1],[-82,-20],[-46,21]],[[9372,4534],[-27,0],[4,-15],[-61,-2],[6,-53],[8,-38],[28,5],[18,-59],[-6,-14]],[[9260,4568],[29,-6],[41,11],[13,11],[31,5],[25,-6],[28,4],[103,-12]],[[4756,2185],[18,-2],[11,-9],[10,7],[22,-21],[-8,-15],[11,-9],[-23,-16],[17,-19],[20,9],[8,-8],[-31,-14],[10,-4],[-9,-13],[-17,-5],[-65,4],[-14,-5],[-17,4],[-8,-7],[-14,6],[-10,35],[-14,9],[-25,5],[9,19],[13,9],[-5,10],[15,9],[18,-7],[29,2],[19,15],[18,-3],[12,14]],[[2413,4530],[17,-2],[13,-11],[4,-23],[-9,-3],[-2,20],[-26,4],[-8,-16],[-9,2],[-2,31],[22,-2]],[[2371,4510],[22,-18],[4,-8],[-14,-13],[-22,1],[1,9],[17,9],[-8,20]]]}
