{"type":"Topology","bbox":[-75.33309891272938,5.0431788690432375,-75.1385581310227,5.139453124916718],"transform":{"scale":[0.000019456023773045105,0.0000096283884261907],"translate":[-75.33309891272938,5.0431788690432375]},"objects":{"municipios":{"type":"GeometryCollection","geometries":[{"type":"Polygon","arcs":[[0,1,2]]},{"type":"Polygon","arcs":[[3,4,5,6,-2]]},{"type":"Polygon","arcs":[[-6,7,8,9]]},{"type":"Polygon","arcs":[[-9,10]]},{"type":"Polygon","arcs":[[11]]},{"type":"Polygon","arcs":[[12]]},{"type":"MultiPolygon","arcs":[[[13]],[[14]],[[15]]]},{"type":"Polygon","arcs":[[16]]},{"type":"Polygon","arcs":[[17,-4,-1]]}]}},"arcs":[[[8208,3951],[-36,16],[-2,-10],[-21,6],[-2,-40],[-22,6],[-1,12],[-26,-7]],[[8098,3934],[22,107],[13,37],[45,86],[46,53],[-1,20]],[[8223,4237],[-5,34],[31,5],[-3,-44],[4,-33],[-9,-67],[-18,21],[-21,6],[-7,-29],[5,-16],[-11,-18],[3,-31],[-10,-26],[33,-3],[-4,-23],[5,-30],[-8,-32]],[[8098,3934],[-1,-7],[8,-118],[-28,-8],[38,-99],[23,-77],[43,-109],[12,-11],[21,21]],[[8214,3526],[7,0],[-4,-36],[-9,-10],[-6,16],[-15,-32],[-17,32],[-23,79],[-11,-1],[-21,54],[-9,37],[-9,-28],[-11,18],[0,-52],[-7,-62],[-45,23],[-1,16],[-20,26],[13,31]],[[8026,3637],[22,82],[3,40],[-16,230],[3,2]],[[8038,3991],[23,2],[23,-25],[1,29],[11,-1],[0,30],[20,46],[1,26],[15,36],[-4,13],[13,27],[36,26],[39,37],[7,0]],[[8026,3637],[-21,20],[2,17],[-10,29]],[[7997,3703],[-12,189]],[[7985,3892],[8,33],[23,8],[-2,71],[5,15],[19,-28]],[[7997,3703],[-5,-28],[-19,-21],[-13,27],[-17,8],[-14,19],[6,21],[-2,24],[14,8],[-3,42],[-25,39],[-7,25],[-16,16],[-20,2],[-4,39],[-35,-3],[-10,9],[-32,6],[-19,-33],[-40,-84],[-17,-64],[9,-48],[-1,-53],[-19,-42],[-7,14],[-29,18],[-6,-10],[-8,23],[-24,-39],[-4,21],[37,111],[14,92],[24,45],[9,27],[16,0],[15,42],[21,15],[20,3],[-3,29],[24,1],[23,-27],[47,-9],[14,45],[23,-18],[-22,-40],[20,-11],[21,0],[4,-18],[22,20],[26,-54]],[[2555,9979],[7,9],[19,-8],[15,-18],[2,-47],[-11,5],[0,-19],[-14,11],[-9,-13],[-42,29],[-5,35],[5,36],[33,-20]],[[9948,9645],[-3,-28],[14,20],[29,-5],[11,-12],[-17,-9],[9,-39],[-17,-53],[-24,42],[-17,-22],[0,-26],[-23,-48],[10,-25],[-10,-33],[-1,-26],[-32,-20],[-29,32],[-25,-45],[-17,18],[-18,-24],[13,-42],[-10,-27],[-20,-24],[1,-25],[31,-33],[-6,-15],[10,-22],[8,-36],[-8,-17],[-11,35],[-5,-6],[-30,27],[-15,20],[-14,30],[-12,-9],[-29,17],[-20,5],[-23,-26],[-11,-41],[-36,-28],[6,-16],[-11,-17],[-12,40],[5,17],[-7,42],[5,41],[12,16],[0,40],[12,13],[18,-15],[12,7],[18,45],[-4,11],[17,50],[-9,41],[-15,6],[-1,42],[23,7],[1,-29],[27,-28],[10,86],[20,-15],[18,-4],[19,23],[11,32],[-4,16],[10,26],[7,-10],[18,11],[15,-26],[1,-16],[37,-6],[4,17],[18,-7],[13,-21],[-9,72],[17,33],[-1,24],[46,-28]],[[79,8],[-3,-8],[-76,33],[64,172],[31,78],[46,-69],[-43,-109],[11,-18],[-30,-79]],[[115,512],[20,-24],[14,10],[11,-17],[-9,-35],[-22,-62],[-37,77],[23,51]],[[287,812],[22,-65],[-38,-73],[-3,-47],[-18,-17],[-1,-14],[-29,-3],[-21,13],[41,119],[-5,10],[15,33],[3,36],[11,2],[11,24],[12,-18]],[[7260,9497],[28,10],[17,-12],[-8,-45],[-17,-31],[-12,-6],[-21,39],[-20,7],[-3,-52],[-16,0],[-1,41],[-14,-22],[-9,-29],[-21,-30],[3,-15],[-40,-49],[-5,42],[-25,18],[-38,86],[11,23],[14,-40],[16,-11],[24,17],[5,25],[21,13],[26,-5],[14,7],[19,29],[23,-6],[11,-22],[18,18]],[[8208,3951],[-22,-36],[21,-41],[-5,-26],[-13,-13],[-2,14],[-21,24],[8,22],[-28,16],[-8,-19],[9,-62],[-24,-13],[25,-12],[7,-35],[-10,-10],[4,-16],[21,8],[7,-79],[-1,-17],[-27,-20],[23,-58],[18,-36],[22,8],[2,-24]]]}
