{"type":"Topology","bbox":[-75.08510524690053,4.7924932412248875,-74.9913924088421,4.954060717003249],"transform":{"scale":[0.000009372221027945063,0.000016158363414177556],"translate":[-75.08510524690053,4.7924932412248875]},"objects":{"municipios":{"type":"GeometryCollection","geometries":[{"type":"Polygon","arcs":[[0,1]],"properties":{"codigo":"73411100000000000102","sector":"734111000000000001","pcode":"CO73411","area_m2":62299}},{"type":"Polygon","arcs":[[2,3,4,5,6,7]],"properties":{"codigo":"73411100000000000303","sector":"734111000000000003","pcode":"CO73411","area_m2":100412}},{"type":"Polygon","arcs":[[8,9,10,11]],"properties":{"codigo":"73411100000000000306","sector":"734111000000000003","pcode":"CO73411","area_m2":56989}},{"type":"Polygon","arcs":[[12,-1,13,14]],"properties":{"codigo":"73411100000000000101","sector":"734111000000000001","pcode":"CO73411","area_m2":68801}},{"type":"Polygon","arcs":[[15,16,17,18,-2,-13,19]],"properties":{"codigo":"73411100000000000103","sector":"734111000000000001","pcode":"CO73411","area_m2":366302}},{"type":"Polygon","arcs":[[-19,20,21,-14]],"properties":{"codigo":"73411100000000000104","sector":"734111000000000001","pcode":"CO73411","area_m2":95742}},{"type":"Polygon","arcs":[[22,23,24,25,26,-21]],"properties":{"codigo":"73411100000000000201","sector":"734111000000000002","pcode":"CO73411","area_m2":131246}},{"type":"Polygon","arcs":[[27,-11,28,29,30,31,32]],"properties":{"codigo":"73411100000000000206","sector":"734111000000000002","pcode":"CO73411","area_m2":177415}},{"type":"Polygon","arcs":[[-7,33,-12,-28,34,35]],"properties":{"codigo":"73411100000000000302","sector":"734111000000000003","pcode":"CO73411","area_m2":84597}},{"type":"Polygon","arcs":[[36,37,38,39,-29,-10,40,-5]],"properties":{"codigo":"73411100000000000304","sector":"734111000000000003","pcode":"CO73411","area_m2":224018}},{"type":"Polygon","arcs":[[-6,-41,-9,-34]],"properties":{"codigo":"73411100000000000305","sector":"734111000000000003","pcode":"CO73411","area_m2":46033}},{"type":"Polygon","arcs":[[-26,41,42]],"properties":{"codigo":"73411100000000000202","sector":"734111000000000002","pcode":"CO73411","area_m2":694184}},{"type":"Polygon","arcs":[[43,-31,44,-42,-25]],"properties":{"codigo":"73411100000000000203","sector":"734111000000000002","pcode":"CO73411","area_m2":155053}},{"type":"Polygon","arcs":[[45,-32,-44,-24]],"properties":{"codigo":"73411100000000000204","sector":"734111000000000002","pcode":"CO73411","area_m2":73610}},{"type":"Polygon","arcs":[[46,-35,-33,-46,-23,-18]],"properties":{"codigo":"73411100000000000205","sector":"734111000000000002","pcode":"CO73411","area_m2":148457}},{"type":"Polygon","arcs":[[47,-8,-36,-47,-17]],"properties":{"codigo":"73411100000000000301","sector":"734111000000000003","pcode":"CO73411","area_m2":86824}},{"type":"Polygon","arcs":[[48,49,-39,50,51]],"properties":{"codigo":"73411100000000000405","sector":"734111000000000004","pcode":"CO73411","area_m2":191903}},{"type":"Polygon","arcs":[[52,53,54]],"properties":{"codigo":"73411100000000000406","sector":"734111000000000004","pcode":"CO73411","area_m2":46920}},{"type":"Polygon","arcs":[[55,-55,56,57,58,-3,-48,-16,59]],"properties":{"codigo":"73411100000000000401","sector":"734111000000000004","pcode":"CO73411","area_m2":474472}},{"type":"Polygon","arcs":[[60,61,-37,-4,-59]],"properties":{"codigo":"73411100000000000402","sector":"734111000000000004","pcode":"CO73411","area_m2":114731}},{"type":"Polygon","arcs":[[-51,-38,-62,62,63]],"properties":{"codigo":"73411100000000000403","sector":"734111000000000004","pcode":"CO73411","area_m2":71021}},{"type":"Polygon","arcs":[[64,-63,-61,-58]],"properties":{"codigo":"73411100000000000404","sector":"734111000000000004","pcode":"CO73411","area_m2":41428}},{"type":"Polygon","arcs":[[-53,-56,65,-49,66]],"properties":{"codigo":"73411100000000000407","sector":"734111000000000004","pcode":"CO73411","area_m2":67047}},{"type":"Polygon","arcs":[[-54,-67,-52,-64,-65,-57]],"properties":{"codigo":"73411100000000000408","sector":"734111000000000004","pcode":"CO73411","area_m2":60165}},{"type":"Polygon","arcs":[[67]],"properties":{"codigo":"73411200101002000101","sector":"734112001010020001","pcode":"CO73411","area_m2":87198}},{"type":"Polygon","arcs":[[68]],"properties":{"codigo":"73411200301006000101","sector":"734112003010060001","pcode":"CO73411","area_m2":28611}},{"type":"MultiPolygon","arcs":[[[69]],[[70]],[[71]]],"properties":{"codigo":"73411200103008000101","sector":"734112001030080001","pcode":"CO73411","area_m2":34327}},{"type":"MultiPolygon","arcs":[[[72]],[[73]],[[74]]],"properties":{"codigo":"73411200303007000101","sector":"734112003030070001","pcode":"CO73411","area_m2":79779}},{"type":"MultiPolygon","arcs":[[[75]],[[76]],[[77]]],"properties":{"codigo":"73411200104009000101","sector":"734112001040090001","pcode":"CO73411","area_m2":17996}}]}},"arcs":[[[2173,8346],[14,76],[5,4]],[[2192,8426],[97,-4],[13,40],[96,-4],[85,-1],[12,-9],[-2,-75],[-5,-41],[-315,14]],[[3015,8052],[-9,-62],[-40,3],[-6,-41]],[[2960,7952],[-8,-80],[-78,4]],[[2874,7876],[-124,5]],[[2750,7881],[-92,5]],[[2658,7886],[17,121],[37,-2],[8,62]],[[2720,8067],[90,-3],[205,-12]],[[2612,7888],[-13,-80],[-12,-50],[-2,-38]],[[2585,7720],[-100,3],[-9,-43]],[[2476,7680],[-70,3],[-20,27],[4,23],[44,17],[40,29],[45,20],[1,14],[-112,6],[6,9],[7,70]],[[2421,7898],[51,0],[140,-10]],[[2193,8464],[18,-15],[-19,-23]],[[2173,8346],[-296,16],[5,41],[-5,11],[-43,15]],[[1834,8429],[1,6],[52,2],[33,16],[24,4],[9,13],[47,16],[32,-10],[83,7],[6,12],[19,0],[7,-21],[46,-10]],[[3114,8198],[-46,-11],[-9,-18],[18,-11],[10,-19],[0,-26],[-15,-34],[-16,6],[-10,29],[-26,13]],[[3020,8127],[-17,3],[-52,-17],[13,-7],[-150,0],[-54,13],[-56,22],[-26,45],[-20,12],[-185,9]],[[2473,8207],[-317,17]],[[2156,8224],[17,122]],[[2193,8464],[-24,27],[34,6],[36,-4],[3,14],[67,-1],[108,9],[42,14],[54,-34],[60,-24],[-6,-15],[24,-8],[30,8],[82,-13],[28,-25],[44,6],[21,-5],[18,10],[42,6],[18,-36],[17,-16],[-10,-12],[4,-18],[51,4],[47,-27],[13,-22],[-50,-49],[-38,-14],[-25,-44],[-1,-31],[64,-4],[18,7],[27,22],[43,14],[67,-2],[13,-9]],[[2156,8224],[-331,18],[-142,3],[-29,-16],[-52,4]],[[1602,8233],[74,24],[23,3],[17,21],[36,15],[26,0],[-3,10],[38,7],[14,9],[-2,17],[13,12],[-14,31],[34,7],[2,16],[-41,18],[15,6]],[[2156,8224],[-23,-116],[3,-10]],[[2136,8098],[-20,2],[-196,11]],[[1920,8111],[-267,14]],[[1653,8125],[-75,5],[-8,23],[-25,10],[22,19],[-19,3]],[[1548,8185],[11,37],[11,14],[32,-3]],[[2432,7959],[-11,-61]],[[2476,7680],[55,2],[-1,-12],[20,1],[49,-10],[35,-19],[-1,-22]],[[2633,7620],[-47,16],[-2,14],[-21,8],[-34,-1],[-29,-11],[-58,-7],[-46,10],[-12,22],[-26,3],[-30,22],[-64,17],[-56,4],[-31,-17],[-22,1],[-38,19]],[[2117,7720],[-10,29],[4,28],[-31,5],[21,132]],[[2101,7914],[11,61]],[[2112,7975],[320,-16]],[[2658,7886],[-46,2]],[[2432,7959],[18,124]],[[2450,8083],[98,-4],[12,-4],[160,-8]],[[2874,7876],[-12,-83],[-2,-44],[85,-23],[3,3],[79,-24],[-35,-46],[97,-33]],[[3089,7626],[71,-18],[47,-16]],[[3207,7592],[-42,-46],[-4,-9],[-104,-81]],[[3057,7456],[-20,15],[-49,5],[-23,10],[-24,34],[-37,16],[-94,-2],[-34,-12],[-36,8],[-103,75],[-4,15]],[[2585,7720],[92,-5],[-7,-22],[45,-3],[15,61],[5,45],[5,4],[10,81]],[[1653,8125],[-16,-106],[-15,-75],[107,-8],[34,12],[-17,-18],[-14,-32],[-30,-6]],[[1702,7892],[8,16],[-14,2],[-29,-11],[-33,-5],[-64,5],[-20,22],[-26,10],[-49,0],[-22,-19],[-22,0],[-17,-22],[-34,-7],[-35,-23],[0,-12],[-23,-4],[-42,21],[-4,-33],[-44,6],[-6,-9],[-1,-40],[-18,-18],[-31,-15],[-68,-13],[-16,-17],[-28,-15],[-32,-3],[-37,-17],[-9,-28],[-65,-59],[-29,-12],[-47,-8],[-10,-7],[9,-39],[-26,-35],[-5,-29],[-10,0],[-29,27],[-11,73],[-28,39],[-85,45],[-27,9],[-45,5],[-27,35],[5,18],[-21,-2],[-84,16],[-14,33],[-27,48],[-5,21],[37,27],[40,-6],[4,-39],[23,-15],[73,-32],[34,-6],[84,0],[35,15],[48,46],[34,6],[18,23],[-41,19],[-38,45],[-39,9],[-11,12],[-47,11],[49,7],[18,8],[48,51],[68,16],[29,2],[28,44],[86,21],[40,14],[52,26],[26,7],[36,19],[19,17],[29,2],[21,-7],[29,-22],[51,8],[52,25],[17,-3],[22,-28],[-11,44],[99,-2],[20,-15],[41,-15],[20,10]],[[1920,8111],[-11,-81],[-21,-103],[213,-13]],[[2117,7720],[-27,11],[-4,19],[-39,1],[-38,-17],[-20,-1],[-37,32],[-11,76],[-37,11],[-21,30],[-52,16],[5,24],[-13,8],[-51,1],[-8,-26],[-21,-15],[-33,-10],[-8,12]],[[2136,8098],[1,-5],[-25,-118]],[[2473,8207],[-19,-121],[-4,-3]],[[3020,8127],[0,-47],[-5,-28]],[[3720,7552],[18,-14],[8,-17],[-11,-15],[-70,-50],[-47,-69],[-85,-26]],[[3533,7361],[-46,7],[-36,19],[-59,0],[-76,19],[-36,26],[-71,1],[-37,12],[-73,-5],[-42,16]],[[3207,7592],[106,-35],[16,-1],[52,-19],[20,18],[-2,34],[41,80]],[[3440,7669],[13,-15],[9,-44],[47,-6],[33,-14],[48,-10],[42,-3],[9,9],[33,-19],[46,-15]],[[3885,7534],[-12,-21],[27,-10],[-11,-18],[-53,9],[-39,42]],[[3797,7536],[2,18],[-23,7],[-24,23],[-15,-16],[-82,28],[-30,7],[-105,37],[26,34],[56,-19],[20,23]],[[3622,7678],[92,-34],[80,-25],[79,-14],[8,-14],[-8,-36],[12,-21]],[[4063,7420],[-20,0],[-39,-14],[-29,4],[-21,30],[-42,48],[-27,46]],[[3622,7678],[-60,26],[-55,39],[-114,51],[-36,9]],[[3357,7803],[-32,13],[-86,27]],[[3239,7843],[-39,17],[-164,8],[14,80],[-90,4]],[[3114,8198],[2,-23],[23,-31],[2,-12],[31,-37],[1,-28],[-13,-15],[12,-20],[50,-27],[60,-13],[47,7],[36,-1],[12,-9],[-13,-26],[19,-37],[24,-6],[15,-21],[-10,-18],[-57,-31],[4,-25],[-8,-9],[22,-7],[21,40],[27,17],[14,-3],[17,21],[4,23],[-15,19],[31,9],[-9,12],[25,6],[38,-57],[49,-16],[18,21],[40,13],[60,-6],[85,-25],[56,-5],[60,5],[17,-15],[1,-36],[-5,-54],[3,-16],[53,-73],[23,-8],[72,-5],[49,11],[18,-30],[-1,-21],[12,-3],[6,-20],[-17,-21],[23,-35],[29,-26],[-19,-8],[7,-19],[57,-41],[-30,-12],[-42,0],[-43,13],[1,-31],[-29,-14],[-16,1]],[[3239,7843],[-37,-34],[9,-3],[-58,-50],[12,-4],[-49,-2],[10,-38],[9,-9]],[[3135,7703],[-46,-77]],[[3135,7703],[96,-22],[22,38],[33,-11],[18,2],[32,18]],[[3336,7728],[29,-24],[75,-35]],[[3357,7803],[-9,-11],[-12,-64]],[[4063,7420],[-4,-7],[-47,-17],[9,-22],[-14,-33],[14,-20],[-58,23],[-37,33],[-55,27],[-25,-1],[-54,12],[-40,-4],[-83,-16],[-67,-25],[-42,-9],[-27,0]],[[3720,7552],[22,-3],[25,-16],[30,3]],[[9373,9996],[84,-27],[31,-19],[64,11],[7,-7],[-85,-33],[24,1],[-10,-25],[8,-17],[-18,-2],[7,-14],[64,-35],[25,-26],[-8,-3],[74,-40],[38,-14],[61,-2],[71,30],[33,33],[3,41],[25,22],[14,38],[25,3],[-25,-36],[100,-14],[-11,-11],[21,-7],[-1,-12],[-52,4],[-31,-18],[-17,-36],[-36,-16],[-65,-12],[-12,-10],[-14,8],[-21,-8],[10,-9],[-32,-20],[54,-45],[33,-13],[86,-22],[7,-9],[46,-7],[48,2],[1,-11],[-36,-5],[-42,-18],[-27,-6],[28,-1],[-16,-38],[-15,1],[-3,-22],[21,-32],[63,-33],[-43,-25],[-30,15],[14,36],[-20,0],[-23,25],[-26,0],[15,29],[11,0],[5,24],[-4,34],[16,1],[-22,31],[-59,20],[-17,-12],[-37,10],[6,4],[-42,23],[-20,-9],[-22,14],[-84,-36],[3,-2],[-58,-24],[-47,-9],[-20,8],[43,4],[67,28],[47,24],[-8,5],[34,27],[-36,23],[-29,30],[-20,-3],[3,13],[-32,21],[-16,31],[7,17],[-43,26],[-58,-6],[21,22],[3,58],[-21,10],[-7,16],[-56,18],[14,7],[-27,9],[19,4]],[[12,2266],[2,15],[28,-8],[12,11],[-30,12],[19,17],[-23,1],[-1,20],[-18,15],[59,-4],[19,-20],[31,0],[11,12],[70,34],[15,-4],[-43,-19],[40,-21],[-57,-46],[-29,-28],[-32,-42],[2,-9],[-43,24],[-38,16],[18,24],[-12,0]],[[8121,4347],[23,-5],[-17,-13],[-8,-31],[58,-41],[11,-16],[-3,-16],[-18,-26],[12,-33],[-4,-31],[-20,-10],[-35,6],[-4,15],[7,27],[-15,16],[20,23],[-14,21],[-8,27],[10,20],[-16,19],[15,-2],[9,30],[-3,20]],[[7939,4550],[13,5],[61,-19],[26,4],[39,-22],[-6,-20],[17,-26],[37,-10],[13,-12],[9,-35],[-18,0],[-3,22],[-56,27],[-17,1],[-17,37],[-18,15],[-35,7],[-33,21],[-73,3],[28,14],[33,-12]],[[8330,4350],[-56,-49],[15,-11],[-32,7],[24,10],[29,31],[-7,17],[36,41],[22,-5],[-31,-41]],[[4030,531],[14,-4],[-40,-32],[13,-9],[-16,-10],[-22,11],[-38,-22],[-51,-11],[10,-11],[-27,-9],[26,-6],[13,-17],[-23,-9],[-51,-10],[-19,17],[-41,-17],[1,-22],[-14,12],[-15,-5],[25,-22],[-61,-25],[-34,25],[-25,-9],[-12,-13],[-137,-60],[-45,-48],[-15,-37],[42,-8],[-10,-12],[29,-5],[-22,-7],[-8,-26],[-32,-25],[0,-12],[-44,17],[-28,-9],[15,-6],[-32,-22],[-76,-31],[-27,-1],[-84,-23],[-53,-18],[-7,5],[30,13],[72,16],[-8,10],[24,15],[28,-12],[77,28],[26,16],[36,33],[-10,2],[15,39],[18,-2],[22,50],[-10,13],[41,36],[-31,27],[40,14],[-2,31],[33,5],[9,-9],[27,18],[10,-9],[25,6],[46,23],[118,44],[32,7],[-35,42],[11,4],[18,-18],[29,14],[19,-18],[-4,-8],[62,22],[43,9],[48,25],[51,45],[11,-5]],[[4125,577],[-25,-6],[15,37],[22,0],[-1,-28],[-11,-3]],[[4210,624],[-32,0],[-55,10],[4,22],[29,31],[71,-14],[-17,-49]],[[4809,7521],[13,-9],[-6,-29],[-28,-8],[-21,-21],[13,-5],[-33,-18],[11,-47],[10,-23],[23,-28],[-13,-2],[13,-34],[12,4],[20,-13],[41,2],[-16,-15],[43,-19],[43,-9],[-16,-11],[-57,7],[-16,18],[-11,-7],[-18,18],[-46,12],[3,7],[-26,4],[0,13],[23,3],[7,22],[-22,28],[-17,51],[1,31],[39,43],[17,28],[-5,29],[9,1],[10,-23]],[[5119,7126],[47,-20],[21,3],[3,-10],[41,-23],[-53,21],[-72,24],[13,5]],[[5008,7165],[0,0]]]}
