{"type":"Topology","bbox":[-74.90378357500305,3.5349876467078714,-74.76076807903058,3.6732746578819406],"transform":{"scale":[0.000014302979895235845,0.00001383008412581951],"translate":[-74.90378357500305,3.5349876467078714]},"objects":{"municipios":{"type":"GeometryCollection","geometries":[{"type":"Polygon","arcs":[[0]]},{"type":"Polygon","arcs":[[1,2,3,4]]},{"type":"Polygon","arcs":[[5,6,7]]},{"type":"Polygon","arcs":[[-2,8,9,10,11,12]]},{"type":"Polygon","arcs":[[13]]},{"type":"Polygon","arcs":[[14]]},{"type":"Polygon","arcs":[[15]]},{"type":"Polygon","arcs":[[16]]},{"type":"Polygon","arcs":[[17,-3,-13,18]]},{"type":"Polygon","arcs":[[19,-11]]},{"type":"Polygon","arcs":[[20,-9,-5,21,-6]]},{"type":"Polygon","arcs":[[-7,-22,-4,-18,22]]}]}},"arcs":[[[9495,7374],[29,-12],[-13,-22],[22,-24],[-32,-49],[-18,11],[-8,-15],[-7,-50],[-7,-17],[-40,24],[21,49],[-11,12],[15,19],[-7,7],[16,41],[40,26]],[[455,79],[-42,32],[-36,20],[57,83],[2,9],[65,114]],[[501,337],[35,-24]],[[536,313],[30,-17]],[[566,296],[-62,-124],[37,-21],[-13,-25],[-42,-20],[-20,-4],[-11,-23]],[[694,142],[-25,1],[-6,49],[13,18],[-1,14],[-66,48]],[[609,272],[27,46],[35,44],[27,19],[10,-13],[45,19],[56,54],[34,23],[28,-46]],[[871,418],[-44,-18],[26,-30],[20,-7],[-29,-39],[-9,11],[-34,-18],[-70,-65],[19,-20],[-11,-9],[-11,13],[-26,-50],[-8,-44]],[[455,79],[2,-17]],[[457,62],[-81,47],[-42,35]],[[334,144],[6,21],[-21,18],[-15,-26],[-75,64],[-33,44],[-26,-15],[-104,-90],[-49,-60]],[[17,100],[-17,25],[55,68],[29,31],[12,4],[8,26],[26,6],[-11,12],[64,29],[36,7],[27,-24],[-8,21],[29,12],[10,30],[42,-13],[41,48],[23,-9],[12,6],[-21,27],[-12,-9],[-35,8],[86,51]],[[413,456],[65,-90],[23,-29]],[[6460,7996],[17,-55],[24,-15],[-12,-31],[-25,10],[-5,-14],[-42,17],[-46,-10],[1,47],[67,49],[21,2]],[[5045,5510],[21,-22],[37,9],[-2,-32],[6,-11],[-16,-27],[7,-13],[-18,-16],[-2,-22],[-14,-29],[2,-35],[-22,-25],[22,1],[5,-29],[-19,2],[-20,-14],[-4,-35],[-35,-5],[-6,14],[-38,2],[-3,19],[23,14],[1,30],[17,54],[1,100],[28,0],[3,42],[-20,2],[3,25],[14,0],[2,17],[27,-16]],[[7225,6261],[21,-26],[11,-29],[49,-60],[-16,-14],[-12,10],[-11,-48],[-26,18],[12,16],[-53,53],[-39,16],[-19,15],[7,12],[-24,39],[28,19],[23,-21],[39,21],[10,-21]],[[9957,9987],[7,2],[17,-48],[18,-6],[-17,-6],[4,-15],[-29,-33],[-26,-10],[-11,36],[-7,-3],[-16,40],[-61,1],[0,46],[20,0],[17,-21],[8,18],[70,11],[6,-12]],[[825,584],[-88,-38],[-51,-49],[-28,-15],[-77,-77],[-45,-92]],[[413,456],[41,31],[7,-7],[18,30],[-14,18],[56,34],[22,-19],[54,31],[17,60],[43,4],[4,23],[27,-23],[-33,-58],[-6,-18],[18,-7],[47,32],[47,11],[12,-5],[46,9],[6,-18]],[[334,144],[-15,-32],[-30,-14],[2,-25],[-21,-11],[-86,-9],[-21,22],[-86,-75],[-71,91],[11,9]],[[694,142],[-48,-41],[-8,-24],[-7,24],[-15,18],[-21,-1],[-14,-73],[-16,-35],[-73,32],[-17,-32],[-36,12],[18,40]],[[566,296],[43,-24]],[[825,584],[66,-110],[15,-38],[-35,-18]]]}
