{"type":"Topology","bbox":[-75.03427754755779,3.854298142760486,-74.9491615576867,3.9407888067388983],"transform":{"scale":[0.000008512450232133105,0.000008649931390980318],"translate":[-75.03427754755779,3.854298142760486]},"objects":{"municipios":{"type":"GeometryCollection","geometries":[{"type":"Polygon","arcs":[[0,1,2]]},{"type":"Polygon","arcs":[[3,4,5,6,7,-1]]},{"type":"Polygon","arcs":[[8,9,10,-6]]},{"type":"Polygon","arcs":[[-2,-8,11,12,13,14]]},{"type":"Polygon","arcs":[[15,16]]},{"type":"Polygon","arcs":[[17,18,-9,-5]]},{"type":"Polygon","arcs":[[-14,19,20]]},{"type":"Polygon","arcs":[[-13,21,22,23,24,-20]]},{"type":"Polygon","arcs":[[-7,-11,25,-22,-12]]},{"type":"Polygon","arcs":[[-26,-10,-19,26,27,-23]]},{"type":"Polygon","arcs":[[28]]},{"type":"Polygon","arcs":[[29]]},{"type":"Polygon","arcs":[[30]]},{"type":"Polygon","arcs":[[31]]},{"type":"Polygon","arcs":[[-16,32]]},{"type":"Polygon","arcs":[[33,-24,-28]]}]}},"arcs":[[[2706,8732],[-21,0],[0,115],[-42,38],[-117,47],[-50,39]],[[2476,8971],[-150,47],[24,159]],[[2350,9177],[164,4],[123,-81],[80,-12],[-1,-299],[-10,-57]],[[2706,8732],[-17,-311]],[[2689,8421],[-14,1]],[[2675,8422],[-145,19],[-220,92]],[[2310,8533],[-106,83],[14,47],[121,-43],[24,60],[-147,50],[39,122],[151,-55],[12,36]],[[2418,8833],[58,138]],[[2675,8422],[-10,-154],[-119,10],[-75,-58],[-72,90],[-119,-96]],[[2280,8214],[-134,165]],[[2146,8379],[146,117],[18,37]],[[2418,8833],[-141,60],[-159,12]],[[2118,8905],[-189,3],[-25,93]],[[1904,9001],[77,4],[150,-29],[44,222]],[[2175,9198],[175,-21]],[[1789,9343],[-105,296],[132,-111],[84,160],[51,51],[229,130]],[[2180,9869],[105,-28],[88,-123],[48,-93],[69,-30],[-34,-107],[-77,-9],[-100,52],[-108,-40],[-46,-50],[-181,-44],[-116,-63],[-39,9]],[[2689,8421],[-11,-189],[89,-57],[29,-51],[-122,-6],[-9,-149],[29,2],[143,-153],[-13,-13],[-193,1],[2,-25],[158,-121],[83,-32],[129,-110],[23,-94],[-124,-28]],[[2902,7396],[-31,92],[-591,726]],[[1904,9001],[-51,160],[-23,-126],[-33,10]],[[1797,9045],[0,189],[169,-25],[209,-11]],[[2118,8905],[-35,-149],[-120,-4],[-3,-129]],[[1960,8623],[-26,16]],[[1934,8639],[-46,72],[-107,-186],[-90,-102],[-101,38]],[[1590,8461],[107,36],[101,110],[31,67],[-36,65],[34,126],[-18,14],[-12,166]],[[2146,8379],[-186,244]],[[2902,7396],[-91,-24],[-11,31],[-107,88],[37,91],[-158,183],[18,51],[-213,9],[-721,42],[-146,28]],[[1510,7895],[370,618],[54,126]],[[2353,750],[98,-382],[-155,-294],[-54,-37],[-171,-37],[-11,36],[-139,1],[5,165],[-13,82],[35,204],[79,-20],[59,66],[134,76],[64,2],[44,133],[25,5]],[[8236,8769],[98,-187],[153,93],[46,-49],[68,43],[9,46],[179,-19],[-3,-31],[-161,17],[-134,-89],[39,-71],[-83,-59],[19,-52],[-93,-11],[-104,62],[-14,-40],[-122,35],[-149,236],[63,38],[59,-100],[143,-38],[70,8],[-38,70],[-76,17],[-18,82],[49,-1]],[[50,7736],[-50,67],[133,115],[257,199],[99,90],[80,42],[91,-11],[162,-77],[-23,-84],[23,-93],[-49,-161],[-20,-117],[-124,-79],[-70,-98],[-28,30],[179,208],[-62,77],[-90,20],[-70,-98],[-84,-28],[-62,115],[-150,-68],[-27,26],[-115,-75]],[[9999,9025],[-36,-337],[-21,-69],[-329,-499],[-66,81],[140,166],[49,113],[16,97],[-16,114],[48,20],[-59,92],[118,-36],[61,-71],[51,-18],[16,158],[-91,128],[-111,-81],[-16,35],[80,129],[166,-22]],[[1789,9343],[-70,8],[-163,166],[-242,48],[-250,23],[-29,93],[52,62],[36,-48],[83,-2],[27,69],[79,34],[-22,51],[35,64],[75,-7],[49,46],[94,-14],[142,6],[-15,-51],[124,73],[271,21],[81,-6],[148,19],[39,-40],[-153,-89]],[[1510,7895],[-518,235],[7,95],[81,-37],[62,50],[56,-7],[33,62],[95,24],[54,96],[61,-13],[71,23],[36,79],[42,-41]]]}