{"type":"Topology","bbox":[-74.79760518490195,5.1865503020647035,-74.72262133802582,5.287468443822591],"transform":{"scale":[0.000007499134601073787,0.00001009282345813454],"translate":[-74.79760518490195,5.1865503020647035]},"objects":{"municipios":{"type":"GeometryCollection","geometries":[{"type":"Polygon","arcs":[[0,1,2,3,4]]},{"type":"Polygon","arcs":[[5,6,-3]]},{"type":"Polygon","arcs":[[7,8]]},{"type":"Polygon","arcs":[[9,10,11,12,13]]},{"type":"Polygon","arcs":[[14,15,16,17,-11,18]]},{"type":"Polygon","arcs":[[19,-15,20]]},{"type":"Polygon","arcs":[[21,22,23]]},{"type":"Polygon","arcs":[[24,-21,-19,-10,25,26]]},{"type":"Polygon","arcs":[[27,-13,28]]},{"type":"Polygon","arcs":[[-26,-14,-28,29]]},{"type":"Polygon","arcs":[[30,31,32,33]]},{"type":"Polygon","arcs":[[-7,34,35,36,37,-4]]},{"type":"Polygon","arcs":[[38,-37,39,-34,40,-22]]},{"type":"Polygon","arcs":[[-23,-41,-33,41,42,43,44]]},{"type":"Polygon","arcs":[[45,-31,-40,-36,46]]},{"type":"Polygon","arcs":[[47,48,49,50,51]]},{"type":"Polygon","arcs":[[52,-1,-51]]},{"type":"Polygon","arcs":[[-9,53,54,-47,-35,-6,-2,-53,-50,55]]},{"type":"Polygon","arcs":[[56,-54,-8,-56,-49,57,58]]},{"type":"Polygon","arcs":[[59,60,-59,61]]},{"type":"Polygon","arcs":[[-60,62]]},{"type":"Polygon","arcs":[[63,-52,-5,-38,-39,64,65]]},{"type":"Polygon","arcs":[[66,67,-66,68,-17]]},{"type":"Polygon","arcs":[[-67,-16,-20,-25,69]]},{"type":"Polygon","arcs":[[70,71,-43,72,73,74]]},{"type":"Polygon","arcs":[[-72,75,-44]]},{"type":"Polygon","arcs":[[-75,76,77]]},{"type":"Polygon","arcs":[[-74,78,-77]]},{"type":"Polygon","arcs":[[79]]}]}},"arcs":[[[7577,1727],[-23,-22],[77,-19],[-16,-22],[-105,-26],[-24,-21],[63,-8],[36,-47],[-18,-12],[20,-43]],[[7587,1507],[20,-45],[35,4],[-13,-89],[-21,-36]],[[7608,1341],[-150,47],[-164,-69],[-129,-26]],[[7165,1293],[-33,200],[-32,92],[6,84],[-81,-4]],[[7025,1665],[91,75],[82,38],[86,23],[58,-13],[108,-71],[41,-7],[86,17]],[[7608,1341],[-112,-203]],[[7496,1138],[-217,-49],[-196,59],[82,145]],[[8103,1560],[4,-45],[71,-6],[71,-46],[-42,-34],[-117,-118],[-60,22]],[[8030,1333],[-58,17],[-113,8],[29,65],[38,27],[12,47],[69,2],[-15,103],[86,12],[25,-54]],[[8630,3724],[-157,0],[-38,-320],[-5,-94],[-66,-7]],[[8364,3303],[-61,-6],[-18,-49],[-77,-75],[-68,-19]],[[8140,3154],[-82,107],[-26,66],[7,53],[102,255],[7,65],[-38,146],[-2,38]],[[8108,3884],[81,56],[47,17],[82,68],[132,79],[39,34]],[[8489,4138],[-3,-196],[95,-126],[49,-92]],[[8774,2873],[-55,-45],[-172,-104]],[[8547,2724],[-44,-35],[-122,-141]],[[8381,2548],[-59,32],[-129,22],[-83,-14],[-201,26]],[[7909,2614],[51,262],[62,90],[100,82],[24,55],[-6,51]],[[8364,3303],[-16,-138],[95,-3],[154,-18],[-3,-29],[99,1],[66,-107],[34,-82],[-19,-54]],[[8917,2855],[56,-35],[30,-46],[2,-40],[-40,-64],[-31,-20],[-234,55],[-8,-15],[-145,34]],[[8774,2873],[28,-22],[115,4]],[[6406,1600],[-241,-124],[-71,-20],[-85,0],[-203,41],[-192,71],[-362,196]],[[5252,1764],[112,122]],[[5364,1886],[53,-87],[86,-63],[72,-31],[123,9],[115,36],[144,91],[62,10],[104,-7],[98,-59],[73,-62],[61,-77],[51,-46]],[[8996,2931],[-79,-76]],[[8630,3724],[6,-33],[-36,-299],[63,-5],[6,235],[56,153],[110,-30]],[[8835,3745],[-33,-112],[-9,-146],[41,-222],[13,-132],[36,-83],[67,-82],[46,-37]],[[8860,4080],[-116,2],[-66,70],[-48,14],[-141,-28]],[[8108,3884],[40,67],[104,92],[-5,52],[52,57],[14,48],[82,65],[60,20],[183,178],[127,69],[16,-12],[147,178],[22,-22],[97,-40],[-23,-14],[-59,-102],[-78,-280],[-27,-160]],[[8860,4080],[-25,-335]],[[6403,1017],[27,-3],[-37,-176],[-53,10],[17,87],[-144,22],[-76,21],[82,-77],[-122,-106]],[[6097,795],[-15,57],[-71,45],[-156,84],[-283,185],[-357,41],[-236,-112],[-117,-40],[-130,69],[-33,5],[-31,-29],[-42,-130],[-40,-66]],[[4586,904],[-4,165],[13,70],[46,46],[79,24],[161,-38],[106,-4],[26,26],[-12,55],[191,87],[162,-17],[101,9],[51,-6],[58,-31],[208,184]],[[5772,1474],[218,-87],[162,-93],[-36,-125],[169,-20],[-17,-113],[135,-19]],[[7496,1138],[-17,-30],[-85,-39],[-74,-5],[-113,-38],[-163,-24],[-71,4],[-36,-13],[-121,44]],[[6816,1037],[7,42],[61,209],[-311,-9]],[[6573,1279],[0,71],[105,19],[31,43],[-20,27],[194,25],[-16,93]],[[6867,1557],[158,108]],[[6406,1600],[128,-90],[124,-11],[93,11],[116,47]],[[6573,1279],[-82,-4],[-88,-258]],[[5772,1474],[-109,37],[-147,61],[-122,60],[-224,143],[-69,55],[9,10],[142,-76]],[[4586,904],[-20,-27],[-74,11],[-65,64],[-12,99],[20,154],[28,37],[167,123],[84,26],[41,73],[-8,29],[43,132],[-6,53],[-34,62],[-55,59],[52,82],[-56,114],[12,42],[-105,86],[-59,70]],[[4539,2193],[89,-6],[60,-20],[57,8],[38,-24],[13,-38],[83,-26],[-68,178],[-91,128],[-197,193],[293,256],[127,118]],[[4943,2960],[138,113],[115,49],[193,66]],[[5389,3188],[66,-61],[30,-47],[17,-158],[-20,-185],[-16,-80],[-146,-313],[-18,-67],[-13,-139],[6,-96],[20,-64],[49,-92]],[[7009,779],[-149,-2],[-96,-26],[-117,-52],[-105,-57],[-17,-38],[27,-112],[-54,-48],[-5,-56],[42,-49],[208,10],[113,-49],[28,-37],[-19,-38],[-77,-66],[-46,-21],[-139,-99],[-33,-39],[-37,20],[-196,13],[-66,30],[-54,-19],[-70,28],[-46,-20],[-110,22],[-29,41],[-100,76],[-29,251],[63,84],[127,70],[1,28],[39,72],[1,73],[33,26]],[[6816,1037],[-5,-26],[77,-18],[45,-58],[11,-61],[88,-63],[-23,-32]],[[8406,2021],[-5,-177]],[[8401,1844],[-189,-37]],[[8212,1807],[-224,-40]],[[7988,1767],[-246,4],[-165,-44]],[[7577,1727],[12,62],[57,53],[148,92],[68,73],[45,107],[28,1],[186,-36],[83,-36],[202,-22]],[[7988,1767],[17,-101],[-49,-14],[-4,-44],[-116,1],[-8,-57],[-146,-7],[-95,-38]],[[8030,1333],[-106,-123],[-55,-37],[18,-23]],[[7887,1150],[-67,-29],[-146,-153],[-47,-35],[-198,-113],[-142,-3],[-205,-34],[-73,-4]],[[8212,1807],[26,-77],[5,-65],[-26,-2],[0,-50],[-37,-6],[-2,-43],[-75,-4]],[[8142,1177],[-67,-35],[-86,-2],[-64,16],[-38,-6]],[[8401,1844],[17,-67],[123,-134],[49,-24]],[[8590,1619],[-169,-139],[-114,-82],[-100,-171],[-65,-50]],[[9221,1496],[2,-68],[41,-20],[24,-41],[-13,-66]],[[9275,1301],[-77,23],[-66,52],[-95,18],[-92,-20],[-55,5],[-46,32],[12,19],[-99,23],[-72,-2],[-66,-21],[-87,-75],[-246,-138],[-98,-99],[-46,59]],[[8590,1619],[112,-51],[174,-56],[126,-24],[219,8]],[[9221,1496],[155,-1],[294,-40],[132,2],[84,-15],[85,-37],[28,12],[-50,-85],[-95,35],[-84,11],[-71,-22],[23,-14],[-57,-57],[-134,-26],[-74,23],[-46,-15],[-57,5],[-79,29]],[[8450,2154],[-44,-133]],[[6406,1600],[259,127],[154,87],[99,33],[96,11],[196,3],[71,34],[139,145],[113,125],[161,168],[174,197]],[[7868,2530],[219,-149],[-85,-55],[-29,-49],[32,-18],[112,-10],[275,-71],[58,-24]],[[8381,2548],[21,-47],[-35,-26],[70,-25],[25,21],[49,-53],[102,-30]],[[8613,2388],[-110,-133],[-53,-101]],[[7868,2530],[41,84]],[[8996,2931],[119,-80],[31,-39],[14,-86],[-100,-102],[-243,-128],[-95,-37],[-109,-71]],[[4611,3225],[73,-27],[99,8],[43,40]],[[4826,3246],[58,-89],[-15,-115],[74,-82]],[[4539,2193],[-7,12],[66,123],[-151,97],[-194,94],[-22,-22],[-51,23],[22,79],[-41,8],[13,39],[-35,42],[64,35],[-40,59],[-15,86],[39,57],[-146,148],[-18,-12],[-102,58],[-102,12],[-131,-10],[-142,-35],[-90,0],[-62,16]],[[3394,3102],[61,61],[187,32],[43,25]],[[3685,3220],[56,-9],[94,37],[2,70],[19,55],[37,42],[77,12],[143,-27],[140,-84],[64,-69],[119,-71],[95,-4],[80,53]],[[4826,3246],[18,39],[5,74],[19,18],[81,22],[103,-32],[143,-102],[98,-32],[96,-45]],[[3685,3220],[-628,96],[-383,57],[-192,22],[-389,14],[-164,3],[-448,14],[-188,-10],[-119,-29],[-249,-82]],[[925,3305],[-578,183],[-176,59],[-85,21],[-86,-20],[33,57],[111,55],[94,72],[103,49],[60,14],[83,-14],[88,12],[55,51],[50,76],[43,186],[13,298],[108,124],[87,75],[25,11],[59,-17],[53,-72],[131,-129],[126,-68],[249,-85],[123,-77],[49,-45],[50,-69],[41,-135],[66,-114],[49,-40],[127,-44],[185,-53],[171,-115],[87,-45],[61,-16],[152,16],[55,43],[47,61],[27,93],[-18,91],[-29,60],[3,99],[53,82],[104,24],[88,-35],[93,-84],[106,-58],[136,-37],[158,-170],[95,-57],[86,-10],[57,7],[48,30],[35,58],[25,95],[9,93],[40,71],[66,-1],[245,-32],[130,-23],[75,-25],[52,-38],[21,-37],[-2,-93],[-41,-102],[-13,-83],[26,-87],[81,-196],[21,-20]],[[3394,3102],[-148,-16],[-63,-16],[-140,20],[-71,-13],[-76,36],[-29,59],[-27,3],[-61,64],[-85,2],[-122,-117],[-129,-80],[-45,-15],[-62,3],[-134,25],[-65,30],[24,86],[-47,43],[-154,46],[-87,-22],[-94,-89],[-103,-87],[-76,-20],[-75,8],[-33,-51],[-96,5],[-64,28],[-46,-1],[-142,-36],[-52,-26],[-38,41],[-46,-21],[-51,27],[-21,68],[-141,175],[130,44]],[[8054,9750],[45,-11],[6,-29],[79,-31],[155,-11],[69,54],[109,58],[101,-145],[213,-286],[104,-191],[-110,-33],[-50,5],[-25,89],[-100,130],[25,6],[-34,35],[-31,-15],[-53,78],[-60,49],[-35,-15],[-42,64],[-52,43],[-7,57],[-30,8],[-184,11],[-80,33],[-176,13],[-32,-8],[116,94],[-13,94],[44,71],[38,32],[41,-20],[-28,-25],[-35,-75],[6,-80],[26,-49]]]}
