{"type":"Topology","bbox":[-75.00961475878358,5.171983855698415,-74.87140017792575,5.301702552794873],"transform":{"scale":[0.000013822840369820416,0.000012973167026348379],"translate":[-75.00961475878358,5.171983855698415]},"objects":{"municipios":{"type":"GeometryCollection","geometries":[{"type":"Polygon","arcs":[[0,1,2,3,4,5]],"properties":{"codigo":"73443100000000000304","sector":"734431000000000003","pcode":"CO73443","area_m2":189146}},{"type":"Polygon","arcs":[[6,7,-2,8]],"properties":{"codigo":"73443100000000000305","sector":"734431000000000003","pcode":"CO73443","area_m2":204396}},{"type":"Polygon","arcs":[[9,10,11,12,13]],"properties":{"codigo":"73443100000000000202","sector":"734431000000000002","pcode":"CO73443","area_m2":132292}},{"type":"Polygon","arcs":[[14,15]],"properties":{"codigo":"73443100000000000204","sector":"734431000000000002","pcode":"CO73443","area_m2":53710}},{"type":"Polygon","arcs":[[16,17,18,19,20]],"properties":{"codigo":"73443100000000000301","sector":"734431000000000003","pcode":"CO73443","area_m2":203155}},{"type":"Polygon","arcs":[[-5,21,-17,22,23,24]],"properties":{"codigo":"73443100000000000302","sector":"734431000000000003","pcode":"CO73443","area_m2":214372}},{"type":"Polygon","arcs":[[-4,25,26,-18,-22]],"properties":{"codigo":"73443100000000000303","sector":"734431000000000003","pcode":"CO73443","area_m2":138859}},{"type":"Polygon","arcs":[[27,28,29,-10,30,31]],"properties":{"codigo":"73443100000000000401","sector":"734431000000000004","pcode":"CO73443","area_m2":266456}},{"type":"Polygon","arcs":[[32,33,-6,-25,-11,-30]],"properties":{"codigo":"73443100000000000402","sector":"734431000000000004","pcode":"CO73443","area_m2":131405}},{"type":"Polygon","arcs":[[34,35,36,37,-33,-29]],"properties":{"codigo":"73443100000000000403","sector":"734431000000000004","pcode":"CO73443","area_m2":298173}},{"type":"Polygon","arcs":[[-9,-1,-34,-38]],"properties":{"codigo":"73443100000000000404","sector":"734431000000000004","pcode":"CO73443","area_m2":91004}},{"type":"Polygon","arcs":[[-7,-37,38,39,40]],"properties":{"codigo":"73443100000000000406","sector":"734431000000000004","pcode":"CO73443","area_m2":383183}},{"type":"Polygon","arcs":[[-39,-36,41]],"properties":{"codigo":"73443100000000000407","sector":"734431000000000004","pcode":"CO73443","area_m2":178370}},{"type":"Polygon","arcs":[[42]],"properties":{"codigo":"73443200303008000101","sector":"734432003030080001","pcode":"CO73443","area_m2":58668}},{"type":"Polygon","arcs":[[-23,-21,43,44,45]],"properties":{"codigo":"73443100000000000102","sector":"734431000000000001","pcode":"CO73443","area_m2":205864}},{"type":"Polygon","arcs":[[-12,-24,-46,46,47]],"properties":{"codigo":"73443100000000000103","sector":"734431000000000001","pcode":"CO73443","area_m2":257706}},{"type":"Polygon","arcs":[[-20,48,49,-44]],"properties":{"codigo":"73443100000000000101","sector":"734431000000000001","pcode":"CO73443","area_m2":189272}},{"type":"Polygon","arcs":[[50,-13,-48,51]],"properties":{"codigo":"73443100000000000201","sector":"734431000000000002","pcode":"CO73443","area_m2":579396}},{"type":"Polygon","arcs":[[-31,-14,-51,52,-16,53]],"properties":{"codigo":"73443100000000000203","sector":"734431000000000002","pcode":"CO73443","area_m2":1148505}},{"type":"Polygon","arcs":[[-27,54,-49,-19]],"properties":{"codigo":"73443100000000000306","sector":"734431000000000003","pcode":"CO73443","area_m2":194278}},{"type":"MultiPolygon","arcs":[[[55]],[[56]],[[57]]],"properties":{"codigo":"73443200301006000101","sector":"734432003010060001","pcode":"CO73443","area_m2":43700}},{"type":"Polygon","arcs":[[58,-40,-42,-35,-28]],"properties":{"codigo":"73443100000000000405","sector":"734431000000000004","pcode":"CO73443","area_m2":853857}},{"type":"Polygon","arcs":[[59]],"properties":{"codigo":"73443200302001000101","sector":"734432003020010001","pcode":"CO73443","area_m2":22211}},{"type":"MultiPolygon","arcs":[[[60]],[[61]],[[62]],[[63]],[[64]],[[65]]],"properties":{"codigo":"73443200301002000101","sector":"734432003010020001","pcode":"CO73443","area_m2":57343}},{"type":"MultiPolygon","arcs":[[[66]],[[67]]],"properties":{"codigo":"73443200301003000101","sector":"734432003010030001","pcode":"CO73443","area_m2":19354}},{"type":"MultiPolygon","arcs":[[[68]],[[69]]],"properties":{"codigo":"73443200102004000101","sector":"734432001020040001","pcode":"CO73443","area_m2":36970}},{"type":"Polygon","arcs":[[70]],"properties":{"codigo":"73443200301009000101","sector":"734432003010090001","pcode":"CO73443","area_m2":34039}}]}},"arcs":[[[8575,1777],[43,-151],[24,-75]],[[8642,1551],[-185,-65],[-81,-26]],[[8376,1460],[-49,157]],[[8327,1617],[-42,128],[1,4]],[[8286,1749],[81,30],[26,4],[161,60]],[[8554,1843],[21,-66]],[[8712,1349],[-3,-38],[23,-77],[-87,-27]],[[8645,1207],[-177,-61],[-15,-2],[-10,77],[-12,57],[-55,182]],[[8642,1551],[60,-191],[10,-11]],[[8713,2266],[-125,-43]],[[8588,2223],[-136,-51]],[[8452,2172],[-48,147],[-15,56]],[[8389,2375],[124,51],[138,46]],[[8651,2472],[22,-65],[40,-141]],[[8885,3263],[29,184]],[[8914,3447],[62,26],[50,-8],[-19,-193],[6,-25],[-128,16]],[[8186,2078],[23,-69],[57,-196]],[[8266,1813],[-171,-60],[-90,-29]],[[8005,1724],[-19,66],[-78,242]],[[7908,2032],[102,40],[79,35]],[[8089,2107],[76,33],[21,-62]],[[8286,1749],[-20,64]],[[8186,2078],[84,28]],[[8270,2106],[182,66]],[[8452,2172],[35,-108],[67,-221]],[[8327,1617],[-259,-91],[-4,-10],[-82,-12],[-35,56]],[[7947,1560],[94,30],[8,-1],[-44,135]],[[9405,2209],[-32,13],[-103,15],[-104,-13],[-39,-13],[-51,-26],[-63,-45]],[[9013,2140],[-70,47],[-15,3],[-173,-58],[-126,-46]],[[8629,2086],[-41,137]],[[8713,2266],[124,43],[108,34],[46,-6],[143,-2],[28,5],[85,31]],[[9247,2371],[52,17],[107,-53],[54,-30],[-14,-40],[-17,-16],[-11,-33],[-13,-7]],[[8629,2086],[82,-263]],[[8711,1823],[-136,-46]],[[9013,2140],[-56,-59],[-28,-39],[-31,-53],[-16,-58]],[[8882,1931],[-15,-112],[-10,-144],[-12,-49],[-8,-66],[-13,-66],[-10,-153]],[[8814,1341],[-102,8]],[[8712,1349],[10,140],[23,267],[-13,0],[-21,67]],[[8814,1341],[13,-1]],[[8827,1340],[49,-5],[14,-20],[52,-56]],[[8942,1259],[-2,-83],[8,-73],[-8,-141],[-71,9],[6,75],[-63,13],[-11,15],[-12,-125],[-12,-146],[-12,-102],[-19,-259],[-120,86],[-3,21],[-51,-78],[-88,-149],[-12,-62],[-22,-67],[-40,-135],[-49,-54],[-14,-2],[51,565],[19,187],[49,2],[13,-225],[52,-36],[41,53],[-2,23],[46,73],[25,3],[33,18],[80,60],[13,76],[9,124],[1,39],[9,114],[10,84],[-70,8],[-4,-90],[-53,9],[-24,118]],[[8882,1931],[21,-4],[11,-20],[119,-14],[-12,-159],[91,-13],[-14,-16],[-14,-95],[-11,-129],[-142,17],[9,96],[-63,5],[-7,-22],[-8,-67],[-10,-13],[-13,-44],[-12,-113]],[[5140,1810],[4,-18],[-30,-11],[-50,-26],[12,-36],[34,2],[14,-39],[-75,12],[0,36],[-97,-47],[-41,-50],[-49,-26],[3,27],[-18,1],[-20,19],[16,22],[21,13],[41,50],[22,39],[1,14],[91,2],[74,19],[42,24],[5,-27]],[[8089,2107],[-71,237],[-96,-30],[-79,-22],[1,-23],[-54,-3]],[[7790,2266],[-4,26],[5,35],[9,14],[-19,5],[-7,15],[-5,49],[106,58],[82,21],[22,13]],[[7979,2502],[59,-80],[16,-9],[21,5],[11,-19],[87,38],[25,-95],[49,-151],[23,-85]],[[7979,2502],[65,34],[50,22],[41,9],[66,22],[16,11],[23,43],[6,64],[9,19],[32,-27],[15,-25]],[[8302,2674],[20,-85],[11,-27],[56,-187]],[[7908,2032],[-36,-16],[-3,-43],[-41,-57],[-36,-25],[-55,2],[-4,-21],[25,-52],[3,-25],[-9,-9],[-26,5]],[[7726,1791],[0,38],[-8,21],[-26,35],[0,11],[26,16],[17,22],[41,-4],[-8,-18],[31,35],[-9,17],[7,32],[19,18],[16,43],[-25,33],[-16,-20],[-12,4],[8,50],[-19,9],[-11,30],[8,15],[-10,34],[3,33],[32,21]],[[8885,3261],[-30,-202],[-26,-102],[-11,-89],[-65,-361],[-102,-35]],[[8302,2674],[34,25],[24,27],[13,-28],[-10,-28],[21,-41],[4,-25],[23,39],[30,26],[-5,17],[-32,45],[34,26],[52,52],[12,37],[12,0],[16,38],[25,30],[-6,13],[9,44],[-12,3],[-7,84],[49,17],[26,39],[33,37],[27,15],[67,97],[63,-2],[30,5],[51,-5]],[[8885,3261],[0,2]],[[8914,3447],[10,37],[-20,168],[2,37],[22,-17],[28,-3],[14,-15],[33,-9],[31,3],[38,91],[25,34],[20,17],[74,10],[40,10],[-3,-79],[18,1],[2,-55],[-20,0],[-5,-119],[-12,-326],[-12,-218],[-13,-337],[75,7],[-6,-85],[-3,-92],[34,6],[-1,-28],[-34,-9],[-4,-105]],[[7947,1560],[-93,-30],[-9,39],[13,46],[30,21],[16,2],[-3,60],[5,43],[13,23],[-57,-1],[-39,-10],[-19,27],[-29,-11],[-1,-16],[-32,-35],[-10,13],[-16,-42],[-90,-50],[-3,-17],[13,-25],[-28,-23],[9,-11],[-29,-44],[-43,-38],[11,-11],[-21,-12],[-13,9],[-45,-47],[-10,9],[-22,-12],[-25,1],[-31,-17],[3,-22],[15,1],[2,-17],[-34,-10],[-14,49],[-89,11],[12,7],[58,-6],[37,5],[36,25],[18,-12],[30,17],[4,30],[15,18],[11,-15],[64,49],[13,17],[9,-12],[28,41],[-10,96],[17,-8],[27,25],[25,-2],[40,44],[-10,35],[11,18],[19,6]],[[1021,5907],[46,-21],[-32,-19],[-16,-38],[-2,-18],[29,-82],[39,10],[-1,-37],[-9,-10],[-44,13],[-58,40],[23,17],[-7,64],[5,14],[-17,15],[6,11],[23,-14],[-3,54],[18,1]],[[1025,5953],[-14,0],[18,29],[-9,27],[-30,56],[5,21],[12,-4],[-2,-23],[34,-69],[-14,-37]],[[1209,6255],[-72,-57],[-19,34],[-35,-24],[-19,-21],[-27,-10],[-31,-45],[-12,12],[13,26],[21,22],[80,50],[85,70],[33,-43],[-17,-14]],[[9405,2209],[-1,-2],[187,-95],[252,-130],[33,200],[-17,6],[5,26],[19,9],[21,-4],[-2,-11],[23,-11],[-27,-163],[-11,-75],[112,-62],[-51,-154],[-54,21],[-231,101],[-143,58],[-223,97],[-136,56],[-5,-214],[54,-21],[3,-35],[-6,-57],[-15,-186],[-6,-98],[-23,-145],[37,-4],[34,-18],[-3,-6],[-9,-85],[-121,24],[-156,24],[-3,4]],[[1074,4464],[23,-1],[-8,-55],[18,-34],[36,-26],[46,32],[31,-29],[-87,-66],[-45,53],[-30,44],[-7,24],[4,38],[16,-1],[3,21]],[[2647,7287],[36,-1],[9,-34],[-25,-19],[-17,-46],[14,-28],[55,-41],[22,-22],[-12,-10],[-12,19],[-16,-24],[-70,66],[-10,24],[6,55],[20,61]],[[2733,7015],[-9,17],[11,14],[16,-3],[-18,-28]],[[2827,7036],[-9,-9],[-15,15],[20,23],[15,-15],[-11,-14]],[[2614,7366],[-8,-16],[-26,19],[12,19],[-29,18],[-24,37],[12,16],[28,-23],[41,-26],[-15,-29],[9,-15]],[[2733,7423],[-54,-98],[-23,30],[-30,13],[32,55],[25,-21],[49,73],[19,-9],[-25,-41],[7,-2]],[[2493,7410],[-7,20],[-49,58],[16,17],[-26,25],[-19,8],[16,30],[90,-67],[-24,-23],[14,-23],[23,-11],[-34,-34]],[[275,6942],[28,-31],[9,9],[15,-17],[-9,-9],[25,-26],[41,14],[10,-28],[-50,-19],[-9,16],[-11,-13],[-80,84],[-35,-21],[-6,9],[6,29],[34,17],[-13,28],[13,8],[32,-50]],[[214,6989],[-14,31],[13,4],[9,-32],[-8,-3]],[[7176,9949],[-4,-23],[42,-10],[-6,-11],[-29,11],[-1,-23],[36,-2],[-2,-47],[-43,-11],[-20,1],[-25,59],[-82,15],[-15,-6],[-4,35],[-17,13],[38,8],[5,12],[-14,14],[23,14],[38,-33],[73,-9],[7,-7]],[[6985,9921],[-1,-10],[-37,2],[2,25],[36,-5],[0,-12]],[[44,5383],[26,9],[12,-20],[-5,-45],[-12,-18],[-10,-71],[-17,-55],[37,5],[23,-18],[-23,-30],[15,-17],[-22,-3],[-10,-46],[26,-22],[-4,-13],[-43,-7],[-17,-10],[18,46],[-15,5],[13,35],[-4,22],[-29,22],[-1,32],[10,8],[21,55],[-4,82],[2,34],[-5,40],[19,-2],[-1,-18]]]}
