{"type":"Topology","bbox":[-76.4182680561268,4.049186817993048,-76.2568584800415,4.183736004563306],"transform":{"scale":[0.00001614257186571704,0.000013456264283454118],"translate":[-76.4182680561268,4.049186817993048]},"objects":{"municipios":{"type":"GeometryCollection","geometries":[{"type":"Polygon","arcs":[[0]]},{"type":"Polygon","arcs":[[1]]},{"type":"Polygon","arcs":[[2]]},{"type":"Polygon","arcs":[[3]]},{"type":"Polygon","arcs":[[4]]},{"type":"Polygon","arcs":[[5,6,7]]},{"type":"Polygon","arcs":[[8,9,10,-7]]},{"type":"Polygon","arcs":[[11,12,-10]]},{"type":"Polygon","arcs":[[-12,-9,-6,13]]},{"type":"Polygon","arcs":[[14,15]]},{"type":"Polygon","arcs":[[-15,16]]},{"type":"Polygon","arcs":[[17]]},{"type":"Polygon","arcs":[[18]]},{"type":"Polygon","arcs":[[19]]},{"type":"Polygon","arcs":[[20,21]]},{"type":"Polygon","arcs":[[-21,22]]},{"type":"Polygon","arcs":[[23]]},{"type":"Polygon","arcs":[[24]]}]}},"arcs":[[[38,3398],[74,-25],[37,0],[3,-51],[19,-9],[88,5],[-1,-32],[-28,-18],[-9,-35],[-110,-15],[15,41],[-31,21],[-28,43],[-37,6],[-30,22],[9,43],[29,4]],[[7440,5097],[75,-23],[-23,-56],[-27,-1],[-32,-70],[-19,9],[0,-44],[-59,-57],[-9,22],[42,31],[41,76],[14,43],[-3,70]],[[1883,5430],[9,-48],[-47,2],[3,-16],[-73,-32],[-44,-33],[-15,-31],[-25,5],[29,15],[16,39],[93,45],[-3,15],[57,39]],[[3124,2493],[-10,-25],[-34,-16],[3,-22],[-68,-82],[8,-7],[-44,-65],[-16,25],[43,65],[12,-12],[42,54],[16,45],[23,16],[13,36],[26,22],[-14,-34]],[[6645,3494],[2,-14],[-133,-43],[-55,-48],[-37,46],[-47,-36],[-15,32],[11,46],[42,31],[11,-27],[21,13],[90,11],[38,10],[64,39],[8,-60]],[[8171,8048],[-52,26]],[[8119,8074],[-234,128]],[[7885,8202],[35,44],[60,43],[40,-5],[5,65],[56,125],[19,3],[-1,-41],[21,-10],[24,14],[24,-133],[43,-67],[-44,-71],[39,-21],[-35,-100]],[[8119,8074],[-36,-109]],[[8083,7965],[-272,143]],[[7811,8108],[-37,24],[25,64],[8,57],[78,-51]],[[8083,7965],[-46,-141],[-51,-141],[-13,-12]],[[7973,7671],[-13,-11],[-25,57],[-26,36],[11,28],[-56,48],[-37,11],[15,46],[-15,12],[-37,130],[21,80]],[[8171,8048],[48,-29],[-28,-114],[137,-84],[83,-37],[32,-3],[20,-41],[-78,-91],[-71,82],[-67,61],[-12,-20],[-25,18],[-9,-30],[-28,15],[-14,-44],[-31,26],[-11,-25],[-24,14],[-19,-64],[-27,15],[-27,-63],[-47,37]],[[1924,1465],[-46,22],[-136,50]],[[1742,1537],[-48,21],[-100,24],[13,62],[62,-20],[3,49],[46,8],[15,55],[101,-38],[18,65],[26,-11],[19,34],[6,47],[25,-2],[4,54],[-26,10],[13,51],[26,-10],[-16,-76],[1,-38],[88,26],[-1,-29],[-52,-17],[-3,-45],[-16,-43],[17,-57],[-15,-24],[22,-90],[-35,0],[1,-54],[-12,-24]],[[1924,1465],[30,-26],[-15,-28],[-69,18],[-48,-182],[-51,25],[9,30],[-45,16],[21,30],[16,67],[-1,54],[-44,8],[15,60]],[[4131,4909],[10,-34],[20,5],[7,-29],[-18,-6],[-5,-67],[20,-10],[-15,-30],[-16,10],[-25,-46],[22,-18],[-42,-81],[-27,23],[5,-34],[-20,-29],[-23,20],[-29,-61],[-16,-72],[-32,7],[2,26],[33,89],[25,-16],[24,42],[-24,21],[42,42],[26,60],[23,31],[22,-19],[12,20],[-24,19],[7,34],[-13,71],[32,1],[-6,27],[-29,3],[9,32],[35,34],[15,-27],[-20,-5],[-7,-33]],[[9934,9981],[-33,-20],[-10,-27],[-48,-61],[-21,-56],[-15,-80],[15,4],[-2,-38],[25,-9],[30,37],[39,-12],[-6,-26],[48,-3],[1,-33],[39,-16],[3,-46],[-33,-8],[1,-37],[-18,36],[-35,7],[-30,31],[-56,11],[-27,-37],[9,-16],[-27,-29],[10,-22],[-10,-39],[-21,20],[17,26],[-48,34],[5,16],[35,0],[28,27],[-17,15],[20,37],[-16,35],[19,96],[-11,36],[-17,8],[29,40],[29,0],[29,40],[-11,11],[31,20],[25,46],[25,-18]],[[3777,396],[14,-48],[22,-11],[-18,-36],[-18,12],[-22,-75],[26,-33],[-31,-16],[-56,-50],[5,-25],[-19,-26],[12,-24],[-20,-14],[-9,29],[-12,-19],[10,-40],[-23,-20],[-28,8],[-2,51],[35,35],[3,34],[-33,22],[37,80],[-21,-19],[-3,33],[38,10],[43,-8],[45,24],[35,64],[-56,-39],[0,40],[-23,-1],[19,50],[50,12]],[[3064,5777],[-156,53]],[[2908,5830],[6,23],[-16,19],[7,28],[56,-10],[21,40],[26,78],[-2,70],[-61,13],[6,44],[43,-17],[62,107],[28,9],[28,68],[30,-15],[25,5],[7,-52],[-43,-3],[-20,-72],[15,-10],[22,-94],[-12,-107],[-50,-98],[-22,-79]],[[3064,5777],[-16,-40],[-88,-64],[-47,-26],[-64,-95],[-48,-43],[-46,-22],[-35,1],[-44,18],[-4,16],[26,47],[56,-44],[81,53],[-29,30],[15,22],[-30,32],[37,35],[-28,26],[49,73],[-1,28],[60,6]],[[8789,6771],[27,-17],[23,19],[25,-36],[-11,-40],[-51,-25],[-26,44],[-92,81],[-47,59],[59,100],[-4,13],[47,75],[9,1],[63,-82],[-30,-54],[24,-40],[-20,-22],[25,-54],[-21,-22]],[[1274,3689],[-26,-91],[-15,3],[-20,-83],[-21,4],[-11,29],[13,32],[26,3],[-4,28],[20,68],[38,7]]]}