{"type":"Topology","bbox":[-76.35044609284955,3.8111536521322105,-76.09728529182911,3.9616210125949354],"transform":{"scale":[0.00002531861196324055,0.000015048240870359527],"translate":[-76.35044609284955,3.8111536521322105]},"objects":{"municipios":{"type":"GeometryCollection","geometries":[{"type":"Polygon","arcs":[[0,1,2,3,4,5]]},{"type":"Polygon","arcs":[[6,7,8,9,-3]]},{"type":"Polygon","arcs":[[10,11,-7,-2,12,13,14]]},{"type":"Polygon","arcs":[[15,16]]},{"type":"Polygon","arcs":[[17,18,19,20,-4,-10]]},{"type":"Polygon","arcs":[[21,22,23,24,25]]},{"type":"Polygon","arcs":[[26,27,28,29]]},{"type":"Polygon","arcs":[[30,31,-30,32,-18,-9,33]]},{"type":"Polygon","arcs":[[34,35,36,-12]]},{"type":"Polygon","arcs":[[37,38,39]]},{"type":"Polygon","arcs":[[40,41,42,43,44,45]]},{"type":"Polygon","arcs":[[46,47,-42]]},{"type":"Polygon","arcs":[[48,49,50,51]]},{"type":"Polygon","arcs":[[52]]},{"type":"Polygon","arcs":[[53]]},{"type":"Polygon","arcs":[[54]]},{"type":"Polygon","arcs":[[55]]},{"type":"Polygon","arcs":[[56]]},{"type":"Polygon","arcs":[[57]]},{"type":"Polygon","arcs":[[58,59,60,-23]]},{"type":"Polygon","arcs":[[61,62,63,64]]},{"type":"Polygon","arcs":[[-45,65,66,67,68]]},{"type":"Polygon","arcs":[[69,70,-65,71,72,73]]},{"type":"Polygon","arcs":[[74,75,-70,76,77]]},{"type":"Polygon","arcs":[[78,79,-62,-71,-76]]},{"type":"Polygon","arcs":[[80,81,82,83,84]]},{"type":"Polygon","arcs":[[85,-78,86,87,-84]]},{"type":"Polygon","arcs":[[88,89,90,91,92]]},{"type":"Polygon","arcs":[[93,-81,94,95,-90]]},{"type":"Polygon","arcs":[[96,-13,-1,97,98]]},{"type":"Polygon","arcs":[[-6,99,100,-98]]},{"type":"Polygon","arcs":[[101,-14,-97,102,103,104]]},{"type":"Polygon","arcs":[[105,106,107,108]]},{"type":"Polygon","arcs":[[109,110,111,112,113,-109,114,115]]},{"type":"Polygon","arcs":[[116,117,-115,-108,118,119,120]]},{"type":"Polygon","arcs":[[121,122,123,124,-116,-118]]},{"type":"Polygon","arcs":[[125,-122,-117,126,-101]]},{"type":"Polygon","arcs":[[-103,-99,-127,-121,127,128]]},{"type":"Polygon","arcs":[[129,-128,-120,130,-16]]},{"type":"Polygon","arcs":[[-129,-130,-17,-131,-119,-107,-104]]},{"type":"Polygon","arcs":[[131,-15,-102,132]]},{"type":"Polygon","arcs":[[-21,133,-123,-126,-100,-5]]},{"type":"Polygon","arcs":[[134,-110,-125]]},{"type":"Polygon","arcs":[[-20,135,-111,-135,-124,-134]]},{"type":"Polygon","arcs":[[-113,136,137,-59,-22,138]]},{"type":"Polygon","arcs":[[-61,139,140,-24]]},{"type":"Polygon","arcs":[[-25,-141,141]]},{"type":"Polygon","arcs":[[-33,-29,142,143,-136,-19]]},{"type":"Polygon","arcs":[[144,-34,-8,-37]]},{"type":"Polygon","arcs":[[145,-35,-11,146,-67]]},{"type":"Polygon","arcs":[[147,-39,148,-68,-147,-132]]},{"type":"Polygon","arcs":[[149,-46,-69,-149,-38,150]]},{"type":"Polygon","arcs":[[151,152,153,-146,-66,-44]]},{"type":"Polygon","arcs":[[-91,-96,154,155,-153,156]]},{"type":"Polygon","arcs":[[157,158,-93,159,-47,-41,-150]]},{"type":"Polygon","arcs":[[-160,-92,-157,-152,-43,-48]]},{"type":"Polygon","arcs":[[160,161,162,-31,-145,-36,-154,-156]]},{"type":"Polygon","arcs":[[-72,-64,163,-143,-28,164]]},{"type":"Polygon","arcs":[[165,166,167,-137,-112,-144,-164,-63,-80]]},{"type":"Polygon","arcs":[[-32,-163,168,-73,-165,-27]]},{"type":"Polygon","arcs":[[-87,-77,-74,-169,-162,169]]},{"type":"Polygon","arcs":[[-85,-88,-170,-161,-155,-95]]},{"type":"Polygon","arcs":[[-94,-89,-159,170,171,172,173,174,-82]]},{"type":"Polygon","arcs":[[175,-52,176,-86,-83,-175]]},{"type":"Polygon","arcs":[[177,178,-176,-174,179]]},{"type":"Polygon","arcs":[[180,181,182,183]]},{"type":"Polygon","arcs":[[-75,-177,-51,184,185,-79]]},{"type":"Polygon","arcs":[[186,187,188,-185,-50]]},{"type":"Polygon","arcs":[[189,-184,190,191,-180,-173,192]]},{"type":"Polygon","arcs":[[193,-193,-172]]},{"type":"Polygon","arcs":[[-49,-179,194,195,-187]]},{"type":"Polygon","arcs":[[-192,196,-195,-178]]},{"type":"Polygon","arcs":[[-186,197,-166]]},{"type":"Polygon","arcs":[[-189,198,-167,-198]]},{"type":"Polygon","arcs":[[199]]},{"type":"Polygon","arcs":[[200]]},{"type":"Polygon","arcs":[[201]]},{"type":"Polygon","arcs":[[202]]},{"type":"Polygon","arcs":[[203]]},{"type":"Polygon","arcs":[[204,205,206,-182]]},{"type":"Polygon","arcs":[[207]]},{"type":"Polygon","arcs":[[208]]},{"type":"Polygon","arcs":[[209]]},{"type":"Polygon","arcs":[[-206,210]]},{"type":"Polygon","arcs":[[211]]},{"type":"MultiPolygon","arcs":[[[212]],[[213]],[[214]]]},{"type":"Polygon","arcs":[[215,216]]},{"type":"Polygon","arcs":[[-216,217]]}]}},"arcs":[[[2244,6618],[52,-36]],[[2296,6582],[-42,-165]],[[2254,6417],[-105,85]],[[2149,6502],[13,47]],[[2162,6549],[23,110]],[[2185,6659],[59,-41]],[[2254,6417],[-27,-113]],[[2227,6304],[-75,53]],[[2152,6357],[-33,24]],[[2119,6381],[30,121]],[[2349,6214],[-37,29]],[[2312,6243],[-85,61]],[[2296,6582],[21,85],[62,61]],[[2379,6728],[57,-53],[-1,-36],[5,-17]],[[2440,6622],[-11,-35],[-54,-40],[-12,-38],[-13,-71],[-1,-39],[-24,-106],[24,-79]],[[2243,7099],[12,54],[-22,3],[25,120]],[[2258,7276],[93,-58],[-24,-109],[-36,22],[-12,-54],[-36,22]],[[2119,6381],[-31,23]],[[2088,6404],[-106,94]],[[1982,6498],[34,156]],[[2016,6654],[90,-74],[56,-31]],[[1777,6757],[1,-28],[-9,-6],[-31,-73]],[[1738,6650],[-29,34],[-10,-23],[-49,60]],[[1650,6721],[47,106]],[[1697,6827],[59,-68],[1,-7]],[[1757,6752],[20,5]],[[2018,6123],[-37,22],[-64,44]],[[1917,6189],[-68,44]],[[1849,6233],[38,171],[98,-64],[73,-51]],[[2058,6289],[-28,-111],[-12,-55]],[[2074,6026],[-30,20]],[[2044,6046],[-39,24],[13,53]],[[2058,6289],[30,115]],[[2152,6357],[-12,-45],[-66,-286]],[[2312,6243],[-29,-114],[-39,-134],[-24,-77]],[[2220,5918],[-76,56]],[[2144,5974],[43,166],[40,164]],[[2589,5871],[-39,19],[-93,52],[-1,7],[-36,23]],[[2420,5972],[-10,88]],[[2410,6060],[14,8],[20,41],[29,-23],[4,-14],[22,-15],[19,7],[10,-30],[25,-44],[20,-11],[15,14],[20,-18],[9,5],[-1,24],[12,13],[5,-46],[-21,-27],[-23,-73]],[[2481,5660],[-4,-17]],[[2477,5643],[-11,17],[-6,-23],[-63,42]],[[2397,5679],[-31,21]],[[2366,5700],[18,101]],[[2384,5801],[12,63],[46,-33]],[[2442,5831],[2,-28],[21,-63],[4,-29],[8,2],[4,-53]],[[2477,5643],[-26,-120],[-29,21]],[[2422,5544],[1,5],[-49,33],[23,97]],[[1966,5234],[-57,-45],[-4,41]],[[1905,5230],[-7,84],[-48,9],[-4,-53],[-98,25],[-21,1],[19,146]],[[1746,5442],[57,-20],[-1,-8],[24,-10],[9,92],[89,-45]],[[1924,5451],[0,-62],[5,-25],[37,-130]],[[9963,4651],[36,-46],[-22,-100],[5,-9],[-23,-72],[-10,11],[-68,96],[11,24],[-7,10],[17,18],[45,86],[16,-18]],[[2183,2923],[12,-60],[29,-10],[-2,-21],[8,-110],[-25,-12],[-30,-22],[-30,13],[1,18],[-17,14],[-21,-6],[-8,8],[6,186],[74,4],[3,-2]],[[184,5191],[-26,-1],[1,12],[47,31],[21,35],[41,51],[66,97],[52,73],[23,-50],[-100,-118],[-58,-74],[-38,-41],[-29,-15]],[[5747,4710],[35,-8],[27,6],[118,-21],[7,-20],[29,-48],[-8,-13],[-29,44],[-12,-9],[-7,-45],[-33,18],[-13,20],[-20,1],[1,-28],[-39,6],[-1,-21],[-11,2],[1,-40],[-5,-2],[-24,69],[-1,13],[-26,12],[-8,35],[-19,2],[-14,-38],[-13,-19],[-3,-42],[-30,6],[4,45],[24,-3],[15,20],[-3,16],[6,44],[-9,15],[1,31],[49,-43],[11,-5]],[[6678,5421],[19,0],[-1,-17],[24,-14],[7,-40],[-9,1],[-1,-31],[-20,-5],[-16,16],[-24,2],[-25,-11],[-11,24],[-26,-13],[4,-25],[-14,-27],[-16,11],[4,27],[12,27],[16,-1],[17,23],[2,18],[16,-5],[25,21],[12,29],[12,57],[34,-5],[-35,-39],[-6,-23]],[[560,5572],[-9,12],[-89,171],[-63,110],[-14,36],[37,24],[11,-41],[-15,-11],[5,-28],[23,-42],[17,-16],[19,-45],[20,-27],[35,-71],[32,-39],[-9,-33]],[[1738,6650],[-52,-120]],[[1686,6530],[-69,59],[-21,15]],[[1596,6604],[1,30],[11,-12],[42,99]],[[1787,5776],[-92,46]],[[1695,5822],[25,124],[33,148]],[[1753,6094],[90,-60]],[[1843,6034],[-24,-123],[-32,-135]],[[2384,5801],[-111,80]],[[2273,5881],[27,109]],[[2300,5990],[126,-87]],[[2426,5903],[16,-72]],[[1898,5739],[-34,16],[-4,-18]],[[1860,5737],[-73,39]],[[1843,6034],[35,-22]],[[1878,6012],[69,-39]],[[1947,5973],[-49,-234]],[[1928,5484],[-34,-4],[-55,25],[-20,29]],[[1819,5534],[41,203]],[[1898,5739],[66,-36]],[[1964,5703],[-15,-78],[-21,-141]],[[1819,5534],[-73,103],[-79,50]],[[1667,5687],[28,135]],[[2100,5608],[-14,-66],[29,-18],[-10,-54]],[[2105,5470],[-57,8]],[[2048,5478],[-35,6]],[[2013,5484],[19,149],[7,38]],[[2039,5671],[30,-18],[-6,-37],[37,-8]],[[2013,5484],[-35,12],[-50,-12]],[[1964,5703],[3,11],[39,-25]],[[2006,5689],[33,-18]],[[2304,5384],[-21,5],[-11,20],[-46,26],[-31,7]],[[2195,5442],[0,24],[16,12],[44,176]],[[2255,5654],[61,-37]],[[2316,5617],[34,-22],[-11,-54]],[[2339,5541],[-19,-107],[-16,-50]],[[2195,5442],[-22,11],[-68,17]],[[2100,5608],[31,-13],[27,119]],[[2158,5714],[97,-60]],[[2438,6921],[-59,-193]],[[2244,6618],[38,158],[-91,64]],[[2191,6840],[11,54],[32,-28],[28,140],[78,-61],[3,9],[41,-32],[11,41],[43,-42]],[[2185,6659],[-32,22]],[[2153,6681],[38,159]],[[2450,6611],[-10,11]],[[2438,6921],[10,31]],[[2448,6952],[32,110],[8,57],[3,49],[-41,34],[-188,170]],[[2262,7372],[207,174],[36,47],[14,33],[39,123],[92,-79],[-7,-37],[0,-62],[4,-64],[-6,-31],[-18,-197],[-28,-12],[-20,-67],[22,-54],[14,-17],[-23,-21],[-32,3],[-9,-21],[-10,7],[-11,-60],[-4,-46],[7,-16],[-10,-30],[-18,-13],[-16,-34],[-11,3],[-28,-91],[2,-32],[28,-60],[12,-44],[-3,-21],[-13,7],[-15,-46],[-7,-3]],[[2028,7174],[11,38],[68,181],[42,120],[40,121],[13,32],[-87,31],[-40,19],[26,116],[18,130],[58,-23],[-15,-114],[1,-11],[39,-117],[11,-43],[-31,-209],[80,-73]],[[2262,7372],[-45,-39]],[[2217,7333],[-76,-64]],[[2141,7269],[-64,-56],[-49,-39]],[[2045,6799],[-120,75],[-18,-58],[-19,-90]],[[1888,6726],[-20,-95]],[[1868,6631],[-61,66]],[[1807,6697],[27,65]],[[1834,6762],[115,274],[28,66],[25,42],[26,30]],[[2141,7269],[1,-15],[-79,-376]],[[2063,6878],[-18,-79]],[[2171,6854],[-20,14]],[[2151,6868],[-44,31],[-9,-45],[-35,24]],[[2217,7333],[-4,-28]],[[2213,7305],[-38,-181]],[[2175,7124],[-31,-147],[35,-20],[-8,-37],[0,-66]],[[2151,6868],[-40,-159]],[[2111,6709],[-73,45]],[[2038,6754],[-2,17]],[[2036,6771],[9,28]],[[2153,6681],[-42,28]],[[2171,6854],[20,-14]],[[2175,7124],[35,-22]],[[2210,7102],[80,-56],[102,-80],[14,-6],[22,8],[20,-16]],[[2243,7099],[-30,17],[-3,-14]],[[2213,7305],[45,-29]],[[2401,6180],[-33,-28],[-19,62]],[[2450,6611],[-19,-57],[5,-28],[-28,-66],[0,-15],[-15,0],[-13,-13],[-22,-43],[5,-99],[12,-53],[15,-23],[11,-34]],[[2016,6654],[22,100]],[[2036,6771],[-14,-3],[0,-24],[-52,-92],[-19,22],[-63,52]],[[1982,6498],[-29,27],[-17,24],[-68,82]],[[1807,6697],[-80,-190]],[[1727,6507],[-10,12],[-8,-20],[-23,31]],[[1777,6757],[12,7],[29,-16],[16,14]],[[1596,6604],[-25,15],[-24,26],[-42,80],[-2,21],[52,-40],[9,7],[39,206],[4,9],[59,-69]],[[1666,6859],[31,-32]],[[1666,6859],[41,96],[46,-54],[17,23],[39,-43],[-3,-10],[18,-37],[-1,-21],[-11,-23],[-26,30],[-29,-68]],[[1849,6233],[-57,37]],[[1792,6270],[76,361]],[[2144,5974],[-70,52]],[[2273,5881],[-53,37]],[[2349,6214],[-18,-93],[-31,-131]],[[2401,6180],[8,-61],[1,-59]],[[2420,5972],[6,-69]],[[2511,5641],[-17,20],[-13,-1]],[[2589,5871],[-27,-100],[-12,-33],[-30,-102],[-9,5]],[[2366,5700],[-22,14]],[[2344,5714],[-91,62],[-64,42]],[[2189,5818],[31,100]],[[2158,5714],[17,58]],[[2175,5772],[14,46]],[[2344,5714],[-28,-97]],[[2511,5641],[9,-32],[-6,-30],[32,-79],[18,-14],[-1,-46],[55,-44],[1,-23],[-8,-62],[2,-29],[30,-6],[29,-14],[0,-10],[-47,0],[1,-27],[-11,-19]],[[2615,5206],[-15,-37],[-22,4],[-26,43],[-33,35],[-25,11],[-44,-13],[-29,3],[-13,10],[-30,61],[-35,22],[-25,33],[-14,6]],[[2339,5541],[61,-39],[12,-1],[10,43]],[[2175,5772],[-138,83]],[[2037,5855],[-33,19],[11,58]],[[2015,5932],[10,59],[19,55]],[[1753,6094],[39,176]],[[1917,6189],[-39,-177]],[[1667,5687],[-34,23],[-61,34],[-27,-2],[-42,-13]],[[1503,5729],[-8,1]],[[1495,5730],[-11,110],[-1,63],[5,41],[21,78],[169,371],[49,114]],[[2015,5932],[-68,41]],[[2037,5855],[-12,-59],[-19,-107]],[[2615,5206],[13,-14],[-14,-26],[-5,-58],[-7,-9],[-11,24],[-29,44],[-37,46],[-18,4],[-21,-16],[-67,30],[-16,-3],[-37,-35]],[[2366,5193],[-9,-7],[-47,35],[6,22],[-85,64],[-7,-27],[50,-35],[-7,-26],[-52,-5],[3,-107]],[[2218,5107],[-37,-10],[-54,-8]],[[2127,5089],[-55,184]],[[2072,5273],[-31,108],[7,97]],[[2072,5273],[-57,3],[-49,-42]],[[1924,5451],[4,33]],[[2037,4959],[-5,101],[-17,60]],[[2015,5120],[-29,52],[-20,62]],[[2127,5089],[31,-113],[-121,-17]],[[2192,4686],[2,-4],[-29,-101],[51,-50],[13,31],[8,36],[15,35],[9,-10],[1,62],[7,19],[21,-14],[9,5],[18,-53],[-14,-25],[-18,-11],[-4,-40],[-32,-17],[-25,-50],[-32,-15],[-27,-18],[-19,-73],[25,-41],[5,-24],[-15,7],[-17,-33],[6,-24],[15,-23],[-4,-21],[19,-41],[23,22],[44,27],[24,-59],[-11,-16],[1,-40],[-13,-25],[-11,-43],[-76,-56]],[[2161,4003],[-8,30],[-44,-29],[0,32]],[[2109,4036],[5,54],[-8,69],[-85,-3],[-1,54],[-15,70],[0,101],[5,61],[-2,124],[-47,4],[-4,136],[4,6],[87,-6]],[[2048,4706],[3,-74],[24,12],[117,42]],[[1746,5442],[14,99],[-17,3],[-59,-5],[-51,-19]],[[1633,5520],[14,76],[20,91]],[[1905,5230],[-181,43],[-22,-174]],[[1702,5099],[-74,11],[9,-114],[-51,28]],[[1586,5024],[32,375],[15,121]],[[2299,4994],[-83,-9],[2,-74],[-11,-1],[3,-75],[-13,-1],[1,-31],[-11,-1],[3,-113],[2,-3]],[[2048,4706],[-10,211]],[[2038,4917],[-1,42]],[[2218,5107],[29,2],[29,-23],[2,-81],[21,3],[0,-14]],[[2366,5193],[10,-16],[-16,-24],[-7,-28],[-7,-136],[-23,9],[-24,-4]],[[2015,5120],[-118,-99],[-85,21],[-4,-70]],[[1808,4972],[-43,6],[-44,12],[-3,106],[-16,3]],[[2038,4917],[-58,-4],[-4,87],[-34,-29],[-44,-2],[-90,3]],[[1633,5520],[-16,-8],[-2,12],[-56,11],[6,94],[-28,6],[12,61],[-23,16],[-22,-1],[-1,18]],[[1586,5024],[-1,-20],[-40,11],[-52,5],[-2,-71],[-24,-285],[1,-55],[-7,-16],[-19,-105],[-117,40],[9,194],[4,120],[10,161],[-8,95],[-48,-2],[-5,104],[2,88],[-34,3],[1,66],[84,32],[102,43],[16,19],[10,43],[31,41],[10,32],[-8,85],[-12,8],[-24,-8],[-4,58],[35,5],[-1,15]],[[2657,9113],[12,-25],[22,28],[20,-24],[-19,-53],[17,-26],[23,35],[36,-66],[-39,-28],[17,-59],[-5,-59],[3,-58],[12,-33],[28,-27],[-14,-33],[-27,26],[3,6],[-44,43],[-19,-59],[-35,37],[-44,23],[8,46],[53,164],[8,33],[-56,62],[8,16],[-19,38],[-5,43],[6,19],[-8,66],[28,-79],[30,-56]],[[1888,646],[26,-13],[-12,-48],[-32,10],[0,16],[-59,20],[-4,-24],[-23,9],[-17,-66],[46,-22],[-23,-81],[11,-46],[-17,-147],[-16,4],[-11,-30],[-3,-70],[-12,-39],[-10,-14],[-2,-26],[-23,9],[-9,-22],[-27,2],[-3,-68],[-51,28],[-2,27],[5,23],[-9,8],[5,25],[9,-6],[9,30],[39,-24],[16,107],[-56,23],[8,53],[55,-25],[4,36],[26,124],[12,82],[14,77],[22,83],[10,49],[53,-29],[-4,-17],[55,-28]],[[3286,5142],[14,-6],[19,21],[25,0],[39,-24],[-10,-18],[4,-37],[-13,-19],[-24,-14],[-20,9],[-41,35],[-21,-8],[-12,-18],[-12,11],[13,49],[10,16],[-2,26],[14,13],[-2,-32],[19,-4]],[[6495,4754],[5,-38],[-15,-15],[-17,0],[-75,-60],[-10,-6],[-2,-21],[-24,-34],[-23,24],[17,22],[-45,-12],[1,-12],[-44,-32],[-8,-16],[-23,-5],[-33,-23],[-13,2],[-49,-29],[-21,1],[-2,33],[-17,13],[3,16],[-34,-36],[-13,32],[-20,30],[6,20],[17,-13],[5,17],[10,-6],[7,40],[31,-11],[36,9],[20,-3],[34,27],[71,-6],[35,-8],[37,12],[46,43],[32,34],[24,11],[34,-1],[4,-12],[13,13]],[[5552,6090],[-3,-25],[8,-64],[-22,-82],[-10,-16],[-36,-37],[-26,-3],[-3,-16],[-17,-2],[-14,-41],[-15,-9],[-7,-20],[-18,-8],[-14,18],[-14,-2],[-13,50],[19,28],[-25,63],[11,37],[21,23],[71,48],[9,33],[25,25],[16,0],[37,39],[17,23],[11,-10],[-8,-52]],[[2161,4003],[-20,-21],[25,-99],[17,15],[25,-17],[-23,-30],[-1,-22],[14,-30],[-10,-10],[19,-71],[29,-68],[13,-35],[5,-64]],[[2254,3551],[1,-20],[-20,1],[5,-45],[21,1],[23,-15],[10,12],[18,-3]],[[2312,3482],[11,-80],[-35,-51],[-3,-36],[31,-12],[44,-25],[20,-21],[57,-37],[29,-12],[11,-19],[-13,-27],[-21,14],[-68,64],[-45,15],[-18,23],[-18,7],[-22,27],[-4,32],[-24,24],[-18,-5],[-21,-33],[0,-36],[37,-27],[-8,-55],[-7,1],[-4,-31],[-85,41],[20,112],[-20,-18],[-11,8],[-113,147],[29,67],[56,-70],[16,-64],[22,42],[8,0],[25,-23],[4,34],[17,39],[-1,38],[15,3],[-1,70],[-6,16],[-29,106],[-9,-6],[-10,33],[-18,-8],[-16,114],[0,28],[-8,-2],[-18,146],[19,1]],[[2233,2676],[26,1],[13,11],[25,-25],[1,-62],[-18,-5],[-27,-38],[-21,-40],[8,-20],[7,-63],[23,17],[1,-39],[6,1],[-21,-74],[-5,-42],[-15,-27],[-32,-5],[-10,-24],[-44,-45],[6,-45],[-10,-23],[2,-19],[-11,5],[-49,-65],[-23,20],[-25,-20],[-27,4],[5,49],[45,323],[30,222],[56,5],[3,20],[26,-13],[0,23],[41,12],[21,15],[-7,-34]],[[24,5200],[8,8],[10,-17],[24,-17],[9,-18],[-11,-22],[-17,17],[-12,-14],[-35,48],[15,31],[9,-16]],[[3710,9955],[16,-39],[-28,-32],[-17,-5],[-17,16],[-10,-11],[-9,-45],[11,-9],[5,-56],[-11,-18],[-19,5],[-2,55],[-15,-36],[10,-26],[-12,-51],[7,-26],[10,-5],[-16,-19],[6,-35],[14,-9],[0,-25],[-19,3],[1,17],[-23,41],[-14,0],[10,26],[-5,71],[-22,23],[-25,-41],[-11,37],[-15,12],[-5,39],[17,64],[3,38],[16,18],[10,-1],[28,20],[7,17],[14,-2],[19,-25],[30,17],[8,-2],[19,43],[34,-44]],[[2254,3551],[17,8],[39,-12],[18,27],[18,-58],[15,26],[18,-6],[14,-38],[-12,-23],[-6,14],[-24,-2],[-10,-18],[-29,13]],[[2996,9980],[-5,-52],[17,-19],[5,18],[13,-8],[27,0],[1,-35],[-16,-3],[9,-36],[13,29],[18,-26],[13,-31],[24,-19],[33,38],[39,-1],[7,-26],[23,-46],[22,-13],[16,8],[9,-40],[-12,-39],[-20,-17],[-10,-22],[-11,-1],[-23,-47],[-21,24],[-49,-101],[-59,53],[19,44],[-34,28],[9,21],[-21,19],[36,80],[-18,24],[-14,-29],[-16,-52],[-10,8],[-7,-28],[-24,19],[7,26],[12,-8],[37,122],[-15,18],[-14,-23],[-13,18],[9,31],[-30,13],[-54,5],[-12,16],[7,11],[-16,40],[33,-4],[66,13]],[[2905,5211],[7,9],[47,-17],[12,29],[24,-27],[13,-30],[6,-32],[14,-40],[29,-38],[1,-15],[20,-7],[25,22],[24,58],[18,-30],[-15,-38],[-50,-42],[-29,-2],[-45,68],[-35,30],[-34,67],[-13,6],[-26,-7],[-10,6],[-18,41],[11,17],[24,-28]],[[3178,5062],[-9,-4],[-21,47],[7,23],[16,1],[22,-55],[-15,-12]],[[2801,5228],[10,6],[1,-39],[-17,1],[-30,32],[2,15],[34,-15]],[[5088,5202],[78,-35]],[[5166,5167],[-15,-101],[-34,-191],[-4,-28],[-50,-2],[25,357]],[[5088,5202],[-127,62],[9,13],[50,28],[17,4],[3,18],[36,14],[46,-6],[38,10],[30,-22],[20,1],[16,12],[17,-1],[20,-15],[12,-34],[11,-53],[20,-31],[-16,-75],[-3,-42],[-91,69],[-30,13]]]}