{"type":"Topology","bbox":[-76.72442580637357,3.117240904189939,-76.46438450127494,3.287090418703032],"transform":{"scale":[0.000026006731182982198,0.000016986650116320905],"translate":[-76.72442580637357,3.117240904189939]},"objects":{"municipios":{"type":"GeometryCollection","geometries":[{"type":"Polygon","arcs":[[0,1,2,3,4,5]],"properties":{"codigo":"76364100000000001301","sector":"763641000000000013","pcode":"CO76364","area_m2":80458}},{"type":"Polygon","arcs":[[6,7,8,9,10]],"properties":{"codigo":"76364100000000000301","sector":"763641000000000003","pcode":"CO76364","area_m2":101670}},{"type":"Polygon","arcs":[[11,12,13,14,-7,15]],"properties":{"codigo":"76364100000000000401","sector":"763641000000000004","pcode":"CO76364","area_m2":82078}},{"type":"Polygon","arcs":[[16,-8,-15,17]],"properties":{"codigo":"76364100000000000501","sector":"763641000000000005","pcode":"CO76364","area_m2":93391}},{"type":"Polygon","arcs":[[-17,18,19,20,-9]],"properties":{"codigo":"76364100000000000701","sector":"763641000000000007","pcode":"CO76364","area_m2":106424}},{"type":"Polygon","arcs":[[21,22,-4,23,-20]],"properties":{"codigo":"76364100000000000702","sector":"763641000000000007","pcode":"CO76364","area_m2":73454}},{"type":"Polygon","arcs":[[24,25,26,27,28,29]],"properties":{"codigo":"76364100000000000803","sector":"763641000000000008","pcode":"CO76364","area_m2":126554}},{"type":"Polygon","arcs":[[-29,30,31]],"properties":{"codigo":"76364100000000000804","sector":"763641000000000008","pcode":"CO76364","area_m2":121270}},{"type":"Polygon","arcs":[[32,33,34,35]],"properties":{"codigo":"76364100000000000807","sector":"763641000000000008","pcode":"CO76364","area_m2":71614}},{"type":"Polygon","arcs":[[-2,36,37,38]],"properties":{"codigo":"76364100000000001601","sector":"763641000000000016","pcode":"CO76364","area_m2":66180}},{"type":"Polygon","arcs":[[39,40,41,42,-37,-1]],"properties":{"codigo":"76364100000000001701","sector":"763641000000000017","pcode":"CO76364","area_m2":103141}},{"type":"Polygon","arcs":[[43,44,45,46,47,48]],"properties":{"codigo":"76364100000000002603","sector":"763641000000000026","pcode":"CO76364","area_m2":97254}},{"type":"Polygon","arcs":[[49,50,51,52]],"properties":{"codigo":"76364100000000001911","sector":"763641000000000019","pcode":"CO76364","area_m2":128852}},{"type":"Polygon","arcs":[[53,54,55,56]],"properties":{"codigo":"76364100000000001905","sector":"763641000000000019","pcode":"CO76364","area_m2":95878}},{"type":"Polygon","arcs":[[-56,57,58]],"properties":{"codigo":"76364100000000001906","sector":"763641000000000019","pcode":"CO76364","area_m2":84626}},{"type":"Polygon","arcs":[[59,-58,-55,60,61,62,63,64,65,66]],"properties":{"codigo":"76364100000000001909","sector":"763641000000000019","pcode":"CO76364","area_m2":644117}},{"type":"Polygon","arcs":[[67,68,69,70]],"properties":{"codigo":"76364100000000002002","sector":"763641000000000020","pcode":"CO76364","area_m2":1083336}},{"type":"Polygon","arcs":[[71,72,-46,73]],"properties":{"codigo":"76364100000000002604","sector":"763641000000000026","pcode":"CO76364","area_m2":40154}},{"type":"Polygon","arcs":[[74,75,76,77,78]],"properties":{"codigo":"76364100000000002303","sector":"763641000000000023","pcode":"CO76364","area_m2":85717}},{"type":"Polygon","arcs":[[79,80,81,82]],"properties":{"codigo":"76364100000000002403","sector":"763641000000000024","pcode":"CO76364","area_m2":239162}},{"type":"Polygon","arcs":[[-75,83]],"properties":{"codigo":"76364100000000002305","sector":"763641000000000023","pcode":"CO76364","area_m2":29153}},{"type":"Polygon","arcs":[[84,85,86]],"properties":{"codigo":"76364100000000002502","sector":"763641000000000025","pcode":"CO76364","area_m2":62687}},{"type":"Polygon","arcs":[[87,88]],"properties":{"codigo":"76364100000000002401","sector":"763641000000000024","pcode":"CO76364","area_m2":227915}},{"type":"Polygon","arcs":[[89,90]],"properties":{"codigo":"76364100000000002702","sector":"763641000000000027","pcode":"CO76364","area_m2":52133}},{"type":"Polygon","arcs":[[91,92]],"properties":{"codigo":"76364100000000002801","sector":"763641000000000028","pcode":"CO76364","area_m2":80925}},{"type":"Polygon","arcs":[[-93,93]],"properties":{"codigo":"76364100000000002802","sector":"763641000000000028","pcode":"CO76364","area_m2":219062}},{"type":"Polygon","arcs":[[94]],"properties":{"codigo":"76364200501016000101","sector":"763642005010160001","pcode":"CO76364","area_m2":40017}},{"type":"Polygon","arcs":[[95]],"properties":{"codigo":"76364200202026000101","sector":"763642002020260001","pcode":"CO76364","area_m2":157531}},{"type":"Polygon","arcs":[[96]],"properties":{"codigo":"76364200505032000101","sector":"763642005050320001","pcode":"CO76364","area_m2":9481}},{"type":"Polygon","arcs":[[97,98]],"properties":{"codigo":"76364200403036000101","sector":"763642004030360001","pcode":"CO76364","area_m2":56746}},{"type":"Polygon","arcs":[[-11,99,100,101]],"properties":{"codigo":"76364100000000000101","sector":"763641000000000001","pcode":"CO76364","area_m2":54525}},{"type":"Polygon","arcs":[[102,-16,-102,103]],"properties":{"codigo":"76364100000000000201","sector":"763641000000000002","pcode":"CO76364","area_m2":59273}},{"type":"Polygon","arcs":[[104,105,-35,106]],"properties":{"codigo":"76364100000000000806","sector":"763641000000000008","pcode":"CO76364","area_m2":95956}},{"type":"Polygon","arcs":[[107,108,109,110]],"properties":{"codigo":"76364100000000000601","sector":"763641000000000006","pcode":"CO76364","area_m2":931600}},{"type":"Polygon","arcs":[[111,-30,-32,112,113]],"properties":{"codigo":"76364100000000000805","sector":"763641000000000008","pcode":"CO76364","area_m2":133499}},{"type":"Polygon","arcs":[[114,115,116,-99,117,118,-108,119]],"properties":{"codigo":"76364100000000000602","sector":"763641000000000006","pcode":"CO76364","area_m2":1673255}},{"type":"Polygon","arcs":[[120,121,122,-115,123]],"properties":{"codigo":"76364100000000000603","sector":"763641000000000006","pcode":"CO76364","area_m2":315641}},{"type":"Polygon","arcs":[[124,125,-26,126]],"properties":{"codigo":"76364100000000000801","sector":"763641000000000008","pcode":"CO76364","area_m2":42730}},{"type":"Polygon","arcs":[[-33,-27,-126,127]],"properties":{"codigo":"76364100000000000802","sector":"763641000000000008","pcode":"CO76364","area_m2":130009}},{"type":"Polygon","arcs":[[-69,128,129]],"properties":{"codigo":"76364100000000002003","sector":"763641000000000020","pcode":"CO76364","area_m2":332639}},{"type":"Polygon","arcs":[[-36,-106,130,131,132,-113,-31,-28]],"properties":{"codigo":"76364100000000000808","sector":"763641000000000008","pcode":"CO76364","area_m2":91643}},{"type":"Polygon","arcs":[[133,134,135,-5,-23]],"properties":{"codigo":"76364100000000000901","sector":"763641000000000009","pcode":"CO76364","area_m2":61796}},{"type":"Polygon","arcs":[[136,-110,137,138,139,-134,-22,-19,-18,-14,140]],"properties":{"codigo":"76364100000000001001","sector":"763641000000000010","pcode":"CO76364","area_m2":237856}},{"type":"Polygon","arcs":[[141,-141,-13,142]],"properties":{"codigo":"76364100000000001002","sector":"763641000000000010","pcode":"CO76364","area_m2":59052}},{"type":"Polygon","arcs":[[143,144,145,-135,-140]],"properties":{"codigo":"76364100000000001101","sector":"763641000000000011","pcode":"CO76364","area_m2":43538}},{"type":"Polygon","arcs":[[146,-41,147,-145,148]],"properties":{"codigo":"76364100000000001102","sector":"763641000000000011","pcode":"CO76364","area_m2":44310}},{"type":"Polygon","arcs":[[-40,-6,-136,-146,-148]],"properties":{"codigo":"76364100000000001201","sector":"763641000000000012","pcode":"CO76364","area_m2":65849}},{"type":"Polygon","arcs":[[-21,-24,-3,-39,149,-128,-125,-100,-10]],"properties":{"codigo":"76364100000000001401","sector":"763641000000000014","pcode":"CO76364","area_m2":177375}},{"type":"Polygon","arcs":[[150,151,152,-107,-34,-150,-38,-43]],"properties":{"codigo":"76364100000000001501","sector":"763641000000000015","pcode":"CO76364","area_m2":93326}},{"type":"Polygon","arcs":[[-152,153,-67,154,155,156]],"properties":{"codigo":"76364100000000001502","sector":"763641000000000015","pcode":"CO76364","area_m2":139866}},{"type":"Polygon","arcs":[[-42,-147,157,158,-57,-59,-60,-154,-151]],"properties":{"codigo":"76364100000000001702","sector":"763641000000000017","pcode":"CO76364","area_m2":201330}},{"type":"Polygon","arcs":[[-127,-25,-112,159,-101]],"properties":{"codigo":"76364100000000001801","sector":"763641000000000018","pcode":"CO76364","area_m2":44571}},{"type":"Polygon","arcs":[[160,-104,-160,-114,161,162]],"properties":{"codigo":"76364100000000001802","sector":"763641000000000018","pcode":"CO76364","area_m2":719691}},{"type":"Polygon","arcs":[[163,-163,164,165]],"properties":{"codigo":"76364100000000001803","sector":"763641000000000018","pcode":"CO76364","area_m2":737544}},{"type":"Polygon","arcs":[[-165,-162,-133,166,167]],"properties":{"codigo":"76364100000000001804","sector":"763641000000000018","pcode":"CO76364","area_m2":945903}},{"type":"Polygon","arcs":[[-139,168,169,170,-158,-149,-144]],"properties":{"codigo":"76364100000000001901","sector":"763641000000000019","pcode":"CO76364","area_m2":229848}},{"type":"Polygon","arcs":[[-170,171,172]],"properties":{"codigo":"76364100000000001902","sector":"763641000000000019","pcode":"CO76364","area_m2":97432}},{"type":"Polygon","arcs":[[-119,173,174,-172,-169,-138,-109]],"properties":{"codigo":"76364100000000001903","sector":"763641000000000019","pcode":"CO76364","area_m2":310491}},{"type":"Polygon","arcs":[[-171,-173,-175,175,-53,176,-61,-54,-159]],"properties":{"codigo":"76364100000000001904","sector":"763641000000000019","pcode":"CO76364","area_m2":262355}},{"type":"Polygon","arcs":[[177,178,179,-77,180,181]],"properties":{"codigo":"76364100000000002301","sector":"763641000000000023","pcode":"CO76364","area_m2":104785}},{"type":"Polygon","arcs":[[182,183,184,-155,-66]],"properties":{"codigo":"76364100000000001907","sector":"763641000000000019","pcode":"CO76364","area_m2":184957}},{"type":"Polygon","arcs":[[185,-156,-185,186,187]],"properties":{"codigo":"76364100000000001908","sector":"763641000000000019","pcode":"CO76364","area_m2":453810}},{"type":"Polygon","arcs":[[188,189,190,191,-82]],"properties":{"codigo":"76364100000000002404","sector":"763641000000000024","pcode":"CO76364","area_m2":208895}},{"type":"Polygon","arcs":[[192,193,194,195,-62,-177,-52,196]],"properties":{"codigo":"76364100000000001910","sector":"763641000000000019","pcode":"CO76364","area_m2":200966}},{"type":"Polygon","arcs":[[197,-197,-51]],"properties":{"codigo":"76364100000000001912","sector":"763641000000000019","pcode":"CO76364","area_m2":65530}},{"type":"Polygon","arcs":[[-71,198,-143,-12,-103,-161,-164,199,200]],"properties":{"codigo":"76364100000000002001","sector":"763641000000000020","pcode":"CO76364","area_m2":1315814}},{"type":"Polygon","arcs":[[201,-78,-180]],"properties":{"codigo":"76364100000000002302","sector":"763641000000000023","pcode":"CO76364","area_m2":70833}},{"type":"Polygon","arcs":[[202,203,-129,-68,-201,204]],"properties":{"codigo":"76364100000000002004","sector":"763641000000000020","pcode":"CO76364","area_m2":1528940}},{"type":"Polygon","arcs":[[205,-203]],"properties":{"codigo":"76364100000000002005","sector":"763641000000000020","pcode":"CO76364","area_m2":477722}},{"type":"Polygon","arcs":[[-188,206,207,208,209]],"properties":{"codigo":"76364100000000002202","sector":"763641000000000022","pcode":"CO76364","area_m2":864046}},{"type":"MultiPolygon","arcs":[[[-184,210,211,212,-207,-187]],[[213,214]]],"properties":{"codigo":"76364100000000002101","sector":"763641000000000021","pcode":"CO76364","area_m2":1000419}},{"type":"Polygon","arcs":[[215]],"properties":{"codigo":"76364200401002000101","sector":"763642004010020001","pcode":"CO76364","area_m2":92118}},{"type":"Polygon","arcs":[[-212,216,-214,217]],"properties":{"codigo":"76364100000000002102","sector":"763641000000000021","pcode":"CO76364","area_m2":3851177}},{"type":"Polygon","arcs":[[-153,-157,-186,-210,218,-131,-105]],"properties":{"codigo":"76364100000000002201","sector":"763641000000000022","pcode":"CO76364","area_m2":582223}},{"type":"Polygon","arcs":[[-132,-219,-209,219,-167]],"properties":{"codigo":"76364100000000002203","sector":"763641000000000022","pcode":"CO76364","area_m2":807532}},{"type":"Polygon","arcs":[[220]],"properties":{"codigo":"76364200302003000101","sector":"763642003020030001","pcode":"CO76364","area_m2":50555}},{"type":"Polygon","arcs":[[-72,221,-181,-76,-84,-79,-202,-179,222,223,224,225,226,227]],"properties":{"codigo":"76364100000000002304","sector":"763641000000000023","pcode":"CO76364","area_m2":278125}},{"type":"Polygon","arcs":[[-227,228,229,-116,-123,230]],"properties":{"codigo":"76364100000000002306","sector":"763641000000000023","pcode":"CO76364","area_m2":158362}},{"type":"Polygon","arcs":[[-226,231,-229]],"properties":{"codigo":"76364100000000002307","sector":"763641000000000023","pcode":"CO76364","area_m2":128726}},{"type":"Polygon","arcs":[[232,-182,-222,-74,-45,233,234]],"properties":{"codigo":"76364100000000002308","sector":"763641000000000023","pcode":"CO76364","area_m2":165444}},{"type":"Polygon","arcs":[[-88,235,-80,236]],"properties":{"codigo":"76364100000000002402","sector":"763641000000000024","pcode":"CO76364","area_m2":262714}},{"type":"Polygon","arcs":[[-190,237,238]],"properties":{"codigo":"76364100000000002405","sector":"763641000000000024","pcode":"CO76364","area_m2":157309}},{"type":"Polygon","arcs":[[239,-86,240,-64]],"properties":{"codigo":"76364100000000002501","sector":"763641000000000025","pcode":"CO76364","area_m2":281585}},{"type":"Polygon","arcs":[[-63,-196,241,-87,-240]],"properties":{"codigo":"76364100000000002503","sector":"763641000000000025","pcode":"CO76364","area_m2":151008}},{"type":"Polygon","arcs":[[-48,242,-121,243]],"properties":{"codigo":"76364100000000002601","sector":"763641000000000026","pcode":"CO76364","area_m2":54182}},{"type":"Polygon","arcs":[[-47,-73,-228,-231,-122,-243]],"properties":{"codigo":"76364100000000002602","sector":"763641000000000026","pcode":"CO76364","area_m2":95116}},{"type":"Polygon","arcs":[[244,-234,-44,245]],"properties":{"codigo":"76364100000000002605","sector":"763641000000000026","pcode":"CO76364","area_m2":116864}},{"type":"Polygon","arcs":[[246,-235,-245]],"properties":{"codigo":"76364100000000002606","sector":"763641000000000026","pcode":"CO76364","area_m2":97824}},{"type":"Polygon","arcs":[[247,-194,248,-90]],"properties":{"codigo":"76364100000000002701","sector":"763641000000000027","pcode":"CO76364","area_m2":61441}},{"type":"Polygon","arcs":[[249]],"properties":{"codigo":"76364200203001000101","sector":"763642002030010001","pcode":"CO76364","area_m2":48704}},{"type":"Polygon","arcs":[[250]],"properties":{"codigo":"76364200203008000101","sector":"763642002030080001","pcode":"CO76364","area_m2":100496}},{"type":"Polygon","arcs":[[251]],"properties":{"codigo":"76364200105004000101","sector":"763642001050040001","pcode":"CO76364","area_m2":54558}},{"type":"Polygon","arcs":[[252]],"properties":{"codigo":"76364200505012000101","sector":"763642005050120001","pcode":"CO76364","area_m2":16000}},{"type":"Polygon","arcs":[[253]],"properties":{"codigo":"76364200404005000101","sector":"763642004040050001","pcode":"CO76364","area_m2":302945}},{"type":"Polygon","arcs":[[254]],"properties":{"codigo":"76364200303009000101","sector":"763642003030090001","pcode":"CO76364","area_m2":293048}},{"type":"Polygon","arcs":[[255,256]],"properties":{"codigo":"76364200202006000101","sector":"763642002020060001","pcode":"CO76364","area_m2":417868}},{"type":"Polygon","arcs":[[-256,257]],"properties":{"codigo":"76364200202006000102","sector":"763642002020060001","pcode":"CO76364","area_m2":99091}},{"type":"Polygon","arcs":[[258,259]],"properties":{"codigo":"76364200304010000101","sector":"763642003040100001","pcode":"CO76364","area_m2":187245}},{"type":"Polygon","arcs":[[-259,260]],"properties":{"codigo":"76364200304010000102","sector":"763642003040100001","pcode":"CO76364","area_m2":172448}},{"type":"Polygon","arcs":[[261]],"properties":{"codigo":"76364200203011000101","sector":"763642002030110001","pcode":"CO76364","area_m2":158331}},{"type":"Polygon","arcs":[[262]],"properties":{"codigo":"76364200304013000101","sector":"763642003040130001","pcode":"CO76364","area_m2":440922}},{"type":"Polygon","arcs":[[263]],"properties":{"codigo":"76364200402022000101","sector":"763642004020220001","pcode":"CO76364","area_m2":45315}},{"type":"Polygon","arcs":[[264]],"properties":{"codigo":"76364200104014000101","sector":"763642001040140001","pcode":"CO76364","area_m2":94020}},{"type":"Polygon","arcs":[[265]],"properties":{"codigo":"76364200303015000101","sector":"763642003030150001","pcode":"CO76364","area_m2":426064}},{"type":"Polygon","arcs":[[266]],"properties":{"codigo":"76364200108018000101","sector":"763642001080180001","pcode":"CO76364","area_m2":17358}},{"type":"Polygon","arcs":[[267]],"properties":{"codigo":"76364200301019000101","sector":"763642003010190001","pcode":"CO76364","area_m2":16163}},{"type":"Polygon","arcs":[[268,269,270,-224]],"properties":{"codigo":"76364200403021000101","sector":"763642004030210001","pcode":"CO76364","area_m2":128129}},{"type":"Polygon","arcs":[[-191,-239,271,-270,272]],"properties":{"codigo":"76364200403023000101","sector":"763642004030230001","pcode":"CO76364","area_m2":35357}},{"type":"Polygon","arcs":[[273]],"properties":{"codigo":"76364200203024000101","sector":"763642002030240001","pcode":"CO76364","area_m2":53866}}]}},"arcs":[[[7058,8412],[-44,64]],[[7014,8476],[-25,35]],[[6989,8511],[73,105],[25,-38]],[[7087,8578],[45,-72]],[[7132,8506],[-48,-63]],[[7084,8443],[-26,-31]],[[7292,8847],[1,-184]],[[7293,8663],[-2,0]],[[7291,8663],[-51,8],[-50,20],[-15,3]],[[7175,8694],[7,20],[20,154]],[[7202,8868],[65,-21],[25,0]],[[7371,8849],[4,-57]],[[7375,8792],[1,-13]],[[7376,8779],[5,-105]],[[7381,8674],[-42,-7],[-46,-4]],[[7292,8847],[79,2]],[[7259,8513],[31,89],[1,61]],[[7381,8674],[9,-150],[-25,-16],[-41,-3],[-20,-12],[-45,20]],[[7259,8513],[-21,-27]],[[7238,8486],[-24,29],[-56,90],[-30,36]],[[7128,8641],[47,53]],[[7238,8486],[-46,-45]],[[7192,8441],[-13,-11],[-47,76]],[[7087,8578],[41,63]],[[7258,9098],[-26,-52]],[[7232,9046],[-7,-6],[-107,-173]],[[7118,8867],[-44,-71],[-93,69]],[[6981,8865],[15,90],[7,6],[12,56]],[[7015,9017],[23,-34],[-21,-33],[51,-77],[112,180]],[[7180,9053],[23,26],[47,38],[8,-19]],[[7015,9017],[20,89]],[[7035,9106],[32,-45],[39,62],[23,-34],[13,21],[38,-57]],[[6981,8865],[-32,-205]],[[6949,8660],[-60,-19],[-15,-18]],[[6874,8623],[-19,20],[30,70],[74,160]],[[6959,8873],[22,-8]],[[7014,8476],[-110,-159]],[[6904,8317],[11,88],[5,54],[16,116]],[[6936,8575],[11,-4],[42,-60]],[[7058,8412],[-53,-67],[23,-45],[3,-21]],[[7031,8279],[2,-33]],[[7033,8246],[-57,-4],[-16,5],[-30,25],[-18,23],[-9,-2]],[[6903,8293],[1,24]],[[8507,7238],[-27,-49]],[[8480,7189],[-35,36],[-16,10]],[[8429,7235],[-39,19],[-79,33]],[[8311,7287],[-95,39]],[[8216,7326],[10,59]],[[8226,7385],[216,-89],[65,-58]],[[7197,7559],[3,-14],[-82,-44],[-5,3],[-11,39]],[[7102,7543],[-4,22],[-9,122],[-25,-21]],[[7064,7666],[-23,62],[0,8]],[[7041,7736],[37,61],[73,-27],[8,-8],[24,-3],[0,-9],[-26,3],[11,-161],[4,-38],[25,5]],[[7029,7980],[15,-77],[51,24],[3,-20],[-17,-27],[20,7],[13,-39],[-54,-21],[3,-20],[-40,-18]],[[7023,7789],[-44,163],[1,5]],[[6980,7957],[-18,89],[49,25]],[[7011,8071],[18,-91]],[[6980,7957],[-8,0],[-33,27],[-24,3],[-35,33],[-23,11],[19,92]],[[6876,8123],[6,28],[120,-63],[9,-17]],[[6874,8163],[-7,-35],[9,-5]],[[7023,7789],[15,-58]],[[7038,7731],[-23,-39],[-61,-32],[-39,-11],[-4,-47],[-35,11],[1,33],[-29,-2],[-53,-20],[-24,15]],[[6771,7639],[15,69],[-35,17]],[[6751,7725],[-49,27],[-43,34]],[[6659,7786],[32,97],[20,52],[19,39]],[[6730,7974],[41,92],[23,62],[33,75]],[[6827,8203],[47,-40]],[[7826,9004],[66,-32],[104,-40],[95,-34]],[[8091,8898],[-42,-196],[-8,-28],[-42,-188]],[[7999,8486],[-56,24],[-165,83],[-69,34],[-192,99]],[[7517,8726],[33,81],[24,61],[73,171],[14,16],[35,20],[130,-71]],[[8414,7169],[-89,57],[-25,10]],[[8300,7236],[11,51]],[[8429,7235],[-15,-66]],[[8152,7222],[128,-67]],[[8280,7155],[73,-38],[17,-33]],[[8370,7084],[-16,-23],[8,-14],[-7,-10],[-9,16],[-43,-53],[-18,34]],[[8285,7034],[-6,6],[-27,55]],[[8252,7095],[-5,12],[4,28],[-87,45],[-36,20],[5,24],[19,-2]],[[8216,6649],[5,-17],[-11,-46],[-44,-228],[-17,-86],[-5,-34]],[[8144,6238],[-18,11],[-56,9]],[[8070,6258],[12,150],[5,19],[25,299]],[[8112,6726],[64,-23],[18,-14],[22,-40]],[[8152,7222],[8,35],[93,-48],[2,10],[26,-14],[7,-14],[-8,-36]],[[6699,7435],[-94,-45],[-19,-18]],[[6586,7372],[-19,73],[45,102]],[[6612,7547],[83,-96],[4,-16]],[[8260,6201],[15,84],[34,171],[-6,22],[0,90],[-16,30],[4,17]],[[8291,6615],[30,-44],[70,-108],[30,-60],[24,-63],[-50,-113],[-17,-4],[-29,-43],[-89,21]],[[6894,7279],[21,-37],[60,77],[16,-25],[40,53]],[[7031,7347],[19,-45],[-24,-39],[-43,-28],[-32,-54],[-9,-6],[-50,100],[2,4]],[[7692,7012],[-9,-164],[-3,-86]],[[7680,6762],[-60,8],[12,248],[60,-6]],[[7680,6762],[-12,-190],[-120,47],[17,51],[4,30],[10,131],[-24,11],[-3,89],[-4,63],[68,64],[29,22],[19,-5],[28,-63]],[[4149,9127],[1,-11],[24,-2],[2,-54],[-8,-27],[-4,-36],[-8,-7],[-16,25],[-16,7],[-4,56],[-16,15],[-2,-20],[-19,17],[10,35],[11,-8],[17,10],[28,0]],[[5149,6144],[32,-30],[0,-13],[16,10],[10,22],[11,8],[16,-5],[9,-21],[-8,-16],[-33,-41],[3,-19],[15,-12],[0,-14],[-12,-25],[-20,18],[-26,-29],[-20,-42],[-11,0],[-15,17],[-5,30],[-27,29],[-36,8],[-52,-5],[-21,-12],[-10,51],[16,1],[-3,21],[25,9],[7,-14],[33,3],[8,22],[31,39],[13,-18],[9,14],[32,14],[13,0]],[[3724,8898],[2,-18],[-19,12],[-2,-32],[21,-30],[5,-26],[-13,-8],[-2,-14],[-15,51],[-3,63],[26,2]],[[7177,6818],[-108,-168],[-33,51],[47,75]],[[7083,6776],[45,70],[49,-28]],[[7202,8868],[11,80]],[[7213,8948],[15,-5],[22,15],[9,37],[33,13]],[[7292,9008],[0,-161]],[[7364,8986],[7,-137]],[[7292,9008],[16,-3],[11,-16],[19,-5],[26,2]],[[6864,8552],[-50,-26],[-27,59],[24,56]],[[6811,8641],[111,242],[3,3],[34,-13]],[[6874,8623],[10,-24],[-7,-35],[-13,-12]],[[7566,7895],[-65,-33],[-5,1]],[[7496,7863],[-31,52],[-28,61],[-9,37],[-10,66],[-11,163],[-99,-33]],[[7308,8209],[-20,126],[1,35],[26,-6],[11,11],[-2,36],[31,17],[18,3],[43,24],[7,28]],[[7423,8483],[10,-49],[27,6],[-15,-37],[3,-32],[26,-17],[27,-7],[23,12],[30,39],[8,-15],[-2,-67],[-5,-54],[42,-7],[244,-35],[2,-204],[-15,-3],[-59,-26],[-203,-92]],[[7291,9144],[-33,-46]],[[7035,9106],[1,17],[15,43]],[[7051,9166],[22,-2],[37,18],[111,35],[18,-2],[7,12],[37,-53],[17,-17],[-9,-13]],[[7812,7591],[9,-23],[14,-2],[0,-28],[6,-13],[132,-1],[1,-69],[3,-23]],[[7977,7432],[-15,-68],[-14,-55],[-2,21],[7,50],[-42,4],[-11,10],[-53,-82]],[[7847,7312],[-91,145],[-61,0],[-60,5],[-47,27],[-29,-50],[-4,18],[-34,-2],[-46,-11],[-132,-17],[-141,-198],[2,-75],[24,-6],[154,-6],[-4,-158],[0,-41],[-9,-105],[-135,-68],[-36,-45],[-15,89],[-6,4]],[[7083,6776],[-14,100],[-9,49],[-62,-119],[-27,-7],[-66,113],[91,129],[29,39],[51,73],[51,86],[-16,54],[-42,88],[30,27],[36,21],[50,22],[68,58],[129,27],[124,-3],[36,23],[41,-17],[2,12],[-7,65],[-15,42],[-48,111],[-22,46],[-37,24]],[[7456,7839],[40,24]],[[7566,7895],[6,-41],[-7,-22],[37,-20],[1,16],[62,-9],[-8,-37],[-28,5],[0,-24],[30,-13],[-5,-65],[23,-5],[4,-39],[50,-19],[39,-26],[42,-5]],[[8023,7475],[-25,-24]],[[7998,7451],[-20,-18]],[[7978,7433],[-1,-1]],[[7812,7591],[-1,13],[10,196],[52,-6],[7,-5],[51,-4],[-5,-79],[9,7],[27,-2],[85,-17],[17,6],[2,-65],[-5,-97],[-12,-31],[-26,-32]],[[7213,8948],[-21,1],[-5,-10],[-6,-68],[6,-19],[-13,-27],[-15,-18]],[[7159,8807],[-41,60]],[[7232,9046],[-10,-39],[-9,-59]],[[7159,8807],[-28,-36],[-42,-61],[-18,-18],[-27,12],[-13,-6],[-3,-14],[-16,-13],[-15,8],[-36,-22],[-12,3]],[[8091,8898],[192,-72]],[[8283,8826],[-28,-92],[-27,-77],[-9,-43],[-80,41],[-31,-144],[-45,-36],[-20,-11],[-44,22]],[[6811,8641],[-6,10]],[[6805,8651],[69,152],[80,175],[27,63],[8,11],[8,59],[12,2],[1,65],[19,7],[22,-10]],[[7051,9175],[0,-9]],[[7192,8441],[41,-19],[-25,-37],[-27,-30],[2,-6]],[[7183,8349],[-26,-10]],[[7157,8339],[-51,70],[-22,34]],[[7471,8660],[-18,-83],[-10,-37],[-8,1],[-12,-58]],[[7308,8209],[-40,-15]],[[7268,8194],[-10,16]],[[7258,8210],[-7,31],[-11,25],[-57,83]],[[7376,8779],[7,2],[24,-130],[12,-50],[11,21],[41,38]],[[7490,8739],[-19,-79]],[[7375,8792],[11,-4],[104,-49]],[[7258,8210],[-80,38],[-21,-7]],[[7157,8241],[-15,92]],[[7142,8333],[15,6]],[[7069,8242],[-36,4]],[[7031,8279],[71,37],[40,17]],[[7157,8241],[-42,-6],[-46,7]],[[6936,8575],[13,85]],[[6903,8293],[-7,2]],[[6896,8295],[-34,35]],[[6862,8330],[1,20],[-8,48],[9,43],[20,14],[13,22],[-11,41],[-8,4],[-14,30]],[[6896,8295],[-22,-132]],[[6827,8203],[-35,10],[-66,9],[-19,12]],[[6707,8234],[-47,32],[-15,29]],[[6645,8295],[12,4],[35,79],[97,-51],[-13,-16],[10,-26],[28,-2],[18,6],[27,31],[3,10]],[[7069,8242],[5,-51],[31,-190],[-4,-2]],[[7101,7999],[-12,8],[-26,-8],[-34,-19]],[[7291,9144],[1,-136]],[[7880,9394],[-49,-68],[-15,-28],[-18,17],[-29,-7],[-28,13],[-43,28],[-31,-4],[-7,9],[-143,-4],[-13,5],[-53,42],[-66,-102],[-19,-43],[-8,-34],[-5,-41],[2,-48],[9,-143]],[[7051,9166],[51,114],[9,-4],[38,7],[51,14],[19,13],[47,71],[3,18],[20,28],[106,166],[52,79],[91,-134]],[[7538,9538],[-26,-44],[29,11],[36,-31],[23,-15],[23,-26],[31,-23],[48,-23],[36,-6],[54,13],[15,13],[36,54],[37,-67]],[[7966,9530],[-9,-25],[-77,-111]],[[7538,9538],[60,98],[11,24],[13,44],[39,235]],[[7661,9939],[18,-12],[54,-20],[33,-20],[26,-29],[15,-41],[-8,-47],[2,-10],[21,-15],[35,-67],[23,-31],[17,-12],[29,9],[14,-31],[12,-53],[14,-30]],[[7051,9175],[25,118]],[[7076,9293],[56,240],[22,108],[34,-36],[40,7],[13,16],[-4,26],[26,64],[33,26],[-15,19],[35,19],[9,0],[35,-23],[6,27],[-15,33],[1,28],[8,20],[-22,-3],[-13,9],[4,10],[41,45],[22,2],[45,-11],[11,4],[7,25],[-6,27],[28,8],[28,15],[16,-1],[17,-16],[-3,-50],[7,-33],[23,0],[5,24],[-12,19],[13,17],[31,-3],[-2,-24],[19,-11],[21,6],[21,13]],[[7268,8194],[20,-73]],[[7288,8121],[-67,-57],[-12,-16],[18,-27],[-24,-6],[8,-49],[-60,-23]],[[7151,7943],[-11,61],[-19,-22],[-12,2],[-8,15]],[[7288,8121],[17,-57],[16,-41],[-7,-6],[8,-22],[-67,-58]],[[7255,7937],[-12,-15],[-82,-34],[-10,55]],[[7456,7839],[-13,9],[-43,12],[-18,12],[2,-34],[-11,8],[-86,-43]],[[7287,7803],[-16,52],[10,10],[-26,72]],[[7287,7803],[-26,-12],[-39,-26],[-1,-80],[13,-59],[-18,-4],[2,-15],[-11,-37],[-10,-11]],[[7041,7736],[-3,-5]],[[8180,6791],[-40,63]],[[8140,6854],[13,16]],[[8153,6870],[15,6],[7,21],[110,137]],[[8370,7084],[20,-35]],[[8390,7049],[-17,-38],[-18,4],[-7,-12],[-155,-192],[-13,-20]],[[6730,7974],[-31,33],[-11,-16],[-11,20],[-14,71],[-13,-8],[-9,-28],[-13,0],[-3,25],[-16,-4],[-17,11],[2,-25],[-19,-32],[-2,-27],[-19,9],[-36,-12]],[[6518,7991],[32,71]],[[6550,8062],[39,84],[25,-27],[6,13],[29,-30],[2,21],[22,14],[3,22],[31,75]],[[6506,8370],[76,-52],[49,-29],[14,6]],[[6550,8062],[-27,28],[-31,20],[-19,6],[-72,8],[-87,15],[-30,14],[40,113],[12,21],[5,54],[20,20],[3,13]],[[6364,8374],[15,13],[65,-11],[50,-2],[12,-4]],[[8070,6258],[-61,8],[-19,19],[0,14],[10,123]],[[8000,6422],[4,-1],[11,113],[10,145],[3,26],[11,21],[17,17]],[[8056,6743],[7,1]],[[8063,6744],[49,-18]],[[7037,7467],[4,-28],[-7,-18],[-22,-27]],[[7012,7394],[-7,49]],[[7005,7443],[-13,53],[-14,-8],[-118,25],[-8,4],[3,46],[-43,-17],[-51,40]],[[6761,7586],[10,53]],[[7064,7666],[-50,-52],[-2,30],[-14,-7],[39,-170]],[[7102,7543],[-19,-6],[-15,-18],[-22,-48],[-9,-4]],[[7517,8726],[-27,13]],[[7966,9530],[55,-34]],[[8021,9496],[-3,-39],[-39,-220],[-24,9],[-42,3],[-32,9],[-14,-59],[-41,-195]],[[8153,6870],[-31,58],[101,128],[29,39]],[[8577,9350],[-26,-23],[-40,24],[-37,26],[4,26],[-51,21],[-21,0],[-16,-12],[11,-68],[2,-48],[-7,-75],[-20,-73],[12,-26]],[[8388,9122],[-54,-123],[-41,-121],[6,-2],[-16,-50]],[[8021,9496],[48,-25],[41,-35],[11,-5],[24,16],[9,14],[8,31],[18,5],[18,-10],[36,-32],[27,-12],[33,-1],[15,10],[53,47],[7,-16],[44,18],[34,-1],[36,-16],[54,-41],[23,32],[11,-2],[26,-44],[3,-34],[-28,-29],[5,-16]],[[8577,9350],[28,-80],[12,-64],[13,-27],[19,-22],[19,-8],[4,-13],[-10,-32],[-14,-27],[-42,-53],[-35,-35],[-33,-27],[-52,-35],[-23,-8],[-2,36],[-8,44],[-21,45],[-25,39],[-8,-6],[-11,45]],[[6364,8374],[-12,20]],[[6352,8394],[18,21],[4,42],[-202,135],[63,19],[90,48],[72,57],[20,233],[187,43]],[[6604,8992],[3,-7],[111,-22],[-45,-131],[-28,-60]],[[6645,8772],[-3,-41],[-58,-69],[-20,-71],[41,-25],[6,-11],[-86,-146],[-19,-39]],[[6518,7991],[-12,15],[-12,-34],[-7,-6],[-12,32],[-22,-12],[-3,-35],[-19,-6],[-6,-24],[-2,-81],[-11,-24],[-21,-29],[-3,-59],[-15,1],[-29,-22],[5,-19],[-13,-41],[-24,-17],[-10,1],[-24,30],[15,121],[7,-2],[7,83],[-2,11],[7,63],[5,7],[6,43],[-10,27],[14,53],[-66,19],[-27,-70],[-37,-107],[35,-21],[62,-8],[10,-18],[-2,-62],[-10,28],[-17,23],[-49,14],[-31,-5],[-42,40],[-7,11],[18,37],[-53,50],[26,70],[-22,22],[-30,-65],[-47,51],[-38,47]],[[6000,8123],[30,63],[47,94],[62,159]],[[6139,8439],[144,-32],[69,-13]],[[5893,7924],[10,16]],[[5903,7940],[30,-49],[-5,17],[9,15],[113,-166],[-26,-44],[-53,89],[-20,23],[-58,99]],[[9902,8965],[32,-1],[11,-9],[-6,-15],[60,-56],[-20,-20],[-11,16],[-35,-50],[35,-61],[-36,-40],[-17,47],[-13,2],[-22,27],[7,15],[-9,13],[-32,19],[5,17],[46,79],[-28,19],[4,14],[29,-16]],[[6000,8123],[-36,-75],[-61,-108]],[[5893,7924],[-186,-308],[65,-87],[21,7],[193,-155],[21,-19],[-5,-17],[-75,-51],[-17,-53],[-155,128],[-15,-63],[-166,-15],[-3,113],[-14,45],[-5,61],[10,15],[21,10],[-52,29],[-31,37],[43,65],[4,44],[-2,41],[-14,42],[0,15],[77,66],[28,40],[8,22],[38,81],[7,20],[41,222],[3,10],[27,36],[19,47],[-63,63],[7,21],[-31,41],[-8,47],[-26,-5],[-41,1],[-7,25],[-17,28],[-14,13],[-6,18],[4,22],[13,8],[11,33],[-3,23],[-14,19],[-4,26],[8,30],[-3,16],[-24,17],[-14,31],[-11,0],[-13,15],[-7,50],[13,65],[8,6],[29,-12],[25,15],[15,21],[-12,17],[-27,-25],[-15,2],[-14,17],[-15,-1],[-17,-59],[-16,-27],[-9,-39],[-38,-43],[-20,-9],[-34,0],[-12,-23],[-44,-47],[-23,-29],[-30,14],[-11,-36],[-10,-20],[-31,-18],[-21,-28],[-5,-24],[-1,-38],[-12,-84],[-9,-26],[-17,-31],[-41,-14],[-29,89],[3,35],[10,26],[27,29],[11,-5],[15,20],[5,18],[5,64],[8,27],[-8,12],[27,37],[39,18],[22,-3],[17,-18],[6,5],[-9,25],[-34,70],[-28,43],[11,15],[7,44],[16,22],[19,53],[4,25],[0,51],[7,20],[23,47],[2,51],[7,12],[20,0],[34,-12],[11,30],[12,17],[22,12],[27,42],[23,-2],[16,-13],[23,-48],[22,-58],[18,-29],[-5,-63],[48,-87],[8,59],[11,38],[43,173],[19,-50],[119,-335],[242,-172],[-20,-48],[-62,-131],[-7,-29],[35,-30],[-7,-39],[86,-18],[96,-18]],[[6645,8772],[57,-39],[55,-50],[48,-32]],[[6604,8992],[19,27],[33,59],[23,13],[39,3],[23,9],[24,26],[32,40],[63,48],[24,46],[19,27],[43,45],[24,19],[39,17],[17,1],[10,-17],[5,-41],[35,-21]],[[5055,3190],[8,-16],[10,6],[14,-34],[50,30],[3,-9],[-46,-33],[8,-20],[-5,-9],[3,-29],[9,-22],[-14,-20],[-8,-46],[-11,-4],[-3,39],[-19,2],[-11,31],[12,6],[18,-5],[12,7],[4,24],[-7,27],[-13,-17],[-10,25],[5,4],[-24,24],[-43,77],[12,13],[-5,11],[13,11],[38,-73]],[[8414,7169],[25,-19],[-49,-101]],[[8140,6854],[-60,96]],[[8080,6950],[-77,121]],[[8003,7071],[7,14]],[[8010,7085],[36,-18],[29,-3],[17,7],[1,-12],[34,-15],[53,23],[25,-9],[0,24],[14,7],[-2,37],[-20,1],[-15,17],[-36,18],[-6,-7],[-53,32],[-28,13],[-28,4],[-6,55]],[[8025,7259],[6,-4],[11,38],[84,-59],[20,63]],[[8146,7297],[7,-26],[75,-4],[72,-31]],[[8025,7259],[-91,21],[-60,11],[-12,-1]],[[7862,7290],[-15,22]],[[7978,7433],[3,-3],[121,-84],[22,-20],[22,-29]],[[8010,7085],[5,60],[6,35],[-2,64],[-79,25],[-68,16],[-10,5]],[[8540,7014],[-15,-27],[-14,-12],[-109,-50],[-14,-9],[-13,13],[-66,-32],[-55,-62],[-34,-100],[-3,-3],[-37,59]],[[8480,7189],[-20,-43]],[[8460,7146],[-36,-80],[-23,-37],[18,-13],[122,1],[-1,-3]],[[8260,6201],[-83,23],[-33,14]],[[8216,6649],[3,-5],[28,42],[44,-71]],[[8000,6422],[0,4],[-36,19],[-10,10],[3,16],[17,21],[31,0],[3,45],[-89,52],[-46,24],[21,25],[26,15],[65,29],[-11,52],[-18,12],[-16,61],[26,57],[14,-6],[7,32]],[[7987,6890],[11,-26],[58,-121]],[[6751,7725],[-2,-9],[-43,1],[-12,-49],[-16,13],[-17,-43],[-9,-8],[-23,-38],[-17,-45]],[[6586,7372],[-93,-91],[-53,-54],[-68,-116],[-25,-56],[-68,60],[8,89],[62,1],[21,79],[31,-38],[41,44],[35,76],[-52,25],[11,12],[51,-11],[9,10],[31,64],[33,52],[44,119],[38,97],[17,52]],[[6761,7586],[-25,-106],[-10,-28],[-27,-17]],[[8216,7326],[-48,23],[-31,24],[-118,75],[-21,3]],[[8023,7475],[203,-90]],[[8645,7032],[-56,11],[-17,32],[-35,33],[-28,34],[-49,4]],[[8507,7238],[109,-97],[15,-6],[85,28],[-1,-25],[-10,-22],[-50,-66],[-10,-18]],[[8645,7032],[-22,-20],[-83,2]],[[6894,7279],[28,44],[16,45],[26,28],[0,12],[38,28],[3,7]],[[7012,7394],[19,-47]],[[3630,4174],[-60,-44],[-29,-25],[2,-23],[-12,-4],[-1,17],[-31,-41],[-26,-28],[-6,51],[16,14],[10,-10],[29,33],[4,31],[28,35],[26,-6],[21,36],[8,35],[17,13],[1,-25],[13,-34],[-10,-25]],[[3707,6311],[26,-9],[13,-23],[-4,-31],[-7,6],[-13,-18],[-18,-8],[-6,-31],[14,-6],[15,39],[25,-33],[-21,-38],[-22,2],[1,-25],[-17,4],[-11,11],[-3,-19],[-15,-20],[15,6],[-3,-15],[-16,-23],[-16,3],[10,32],[-29,30],[-6,-8],[-44,1],[7,36],[-9,18],[1,17],[33,-15],[11,-24],[3,30],[12,0],[12,23],[4,53],[30,-7],[4,33],[12,-5],[12,14]],[[1207,1514],[8,-1],[16,-27],[2,8],[40,-7],[2,11],[29,-2],[9,7],[7,-17],[34,-9],[0,-11],[38,-26],[21,13],[-15,-27],[-18,3],[-5,-20],[-25,-4],[-8,10],[-17,0],[4,27],[44,-17],[5,14],[-41,34],[-29,4],[-32,-29],[-15,26],[-12,-39],[3,-30],[15,-6],[3,10],[29,-27],[-3,-16],[-19,7],[-10,-6],[-31,4],[-6,-53],[1,-24],[-8,-7],[-3,40],[8,23],[-1,28],[9,20],[-5,18],[6,30],[-2,17],[-29,24],[-7,-9],[-21,5],[12,27],[17,4]],[[3775,8967],[0,-7],[28,0],[2,-37],[12,-4],[14,-42],[13,-20],[-11,-7],[-29,61],[-3,-20],[-13,-3],[6,27],[-30,-14],[13,13],[-10,13],[0,40],[8,0]],[[8588,4861],[2,-28],[-19,-29],[-34,-22],[-20,16],[0,38],[-29,15],[-12,-3],[16,-30],[6,-43],[-10,-22],[-14,-5],[-19,10],[-5,36],[-15,8],[-25,-7],[-35,27],[-10,15],[-12,1],[-5,-16],[-18,-6],[-11,-20],[-23,16],[-11,36],[-19,4],[-1,40],[-31,31],[11,32],[-22,43],[-16,-24],[-19,35],[19,24],[3,-9],[28,4],[-2,-25],[21,-60],[9,-2],[11,29],[20,-19],[4,9],[13,-15],[-5,-28],[27,5],[3,-11],[33,14],[19,-12],[-8,-34],[30,-16],[20,-4],[51,30],[37,12],[39,18],[17,18],[18,52],[40,47],[39,49],[52,77],[18,23],[20,16],[9,-19],[-22,-27],[-13,-27],[-30,-111],[-41,-96],[-33,-28],[-42,-13],[-4,-19]],[[6348,797],[10,-18],[14,1],[-3,33],[12,0],[99,-18],[19,-13],[6,-15],[-3,-81],[36,6],[-5,-68],[102,-20],[2,-52],[-35,-4],[-37,21],[-1,31],[-32,5],[-10,-56],[-25,1],[5,-56],[-4,-23],[-20,9],[-1,9],[-19,6],[-2,28],[-34,9],[-1,50],[-77,10],[2,14],[-15,2],[-8,-23],[-6,-35],[-13,2],[7,46],[10,26],[8,3],[2,141],[-12,9],[11,6],[10,22],[-10,36],[4,30],[18,-2],[-8,-55],[4,-17]],[[5448,6718],[8,-11],[35,-68],[30,46],[24,57],[43,75]],[[5588,6817],[8,14],[12,-23],[40,-38],[-7,-36],[-25,-22],[-28,-5],[-7,40],[-21,-25],[-2,-12],[-19,-23],[-9,-36],[-17,-26],[-3,-28],[17,-39],[10,2],[14,-23],[-9,-8],[-21,-45],[7,-36],[-7,-22],[5,-24],[19,-43],[13,5],[28,-2],[32,19],[23,46],[23,35],[75,101],[71,58],[37,34],[1,-22],[-23,-9],[-71,-60],[-20,-20],[-52,-74],[-11,-10],[-38,-64],[7,-14],[-9,-17],[-9,-51],[15,-18],[-20,-17],[-17,-36],[-10,4],[-36,33],[35,55],[-8,13],[-32,-2],[-21,20],[-6,-6],[-22,7],[16,23],[-16,63],[-17,-2],[-6,14],[-27,11],[-47,39],[-24,-37],[-18,-64],[-18,-44],[-2,-58],[-6,-33],[-8,-8],[-23,-4],[-11,-23],[-20,-2],[-7,10],[-32,-60],[-26,-16],[-15,20],[9,8],[16,-3],[18,23],[12,26],[43,28],[-3,38],[22,16],[6,-17],[10,2],[1,27],[9,27],[-52,-9],[-13,18],[-7,27],[-1,37],[10,33],[29,46],[0,10],[-50,23],[1,28],[50,18],[27,43],[47,-57],[29,17],[25,36],[-9,50],[2,9],[24,18]],[[5448,6718],[-23,55],[-2,29],[20,4],[25,15],[6,-27],[-1,-25],[25,23],[-11,14],[-4,36],[4,47],[36,-35],[42,-32],[23,-5]],[[5115,715],[-51,-103],[-24,34],[-18,-30],[27,-32],[-3,-5],[-35,6],[-37,-7],[-25,-19]],[[4949,559],[-2,33],[-17,63],[-19,5],[6,22],[-3,33],[4,24],[26,33],[10,-16],[23,17],[25,7],[-15,34],[36,26],[8,13],[23,-53],[17,12],[4,-17],[18,9],[7,26],[10,1],[0,-34],[-9,0],[-14,-56],[12,5],[3,-16],[14,9],[10,23],[5,-5],[-16,-42]],[[5115,715],[16,-29],[18,-1],[2,-30],[26,-15],[-5,-28],[-7,2],[4,-28],[-11,-18],[3,-28],[44,-74],[-14,-58],[-33,38],[-18,6],[-37,29],[-19,21],[-38,74],[-3,-17],[-19,-24],[-36,-60],[-10,-38],[-29,27],[21,48],[4,18],[-25,29]],[[2611,5692],[11,-53],[8,-23],[24,-15],[32,-52],[23,-30],[11,4],[25,-39],[26,-8],[3,13],[13,-11],[7,-21],[18,-13],[8,-29],[-22,19],[-36,22],[-15,-3],[-5,-55],[16,1],[1,-14],[22,-40],[-10,7],[-13,25],[-17,-14],[4,-72],[4,-26],[17,5],[-10,-15],[1,-47],[11,-18],[-10,-14],[-8,47],[-10,-17],[-23,67],[11,41],[1,61],[-9,24],[-33,15],[-26,36],[-6,-10],[6,-24],[-18,28],[-11,6],[-2,-28],[-31,-15],[-31,-38],[-3,10],[12,15],[-1,16],[11,7],[6,21],[-6,16],[18,-7],[19,28],[1,21],[-8,19],[-13,-11],[-2,12],[17,11],[-7,18],[20,-2],[8,18],[-10,14],[4,15],[-18,-1],[-4,12],[-25,24],[-19,28],[11,22],[30,25],[2,-8]],[[3720,697],[21,-3],[-2,-20],[32,-61],[46,-50],[36,-5],[41,51],[7,45],[7,6],[17,-162],[1,-72],[12,-22],[-4,-36],[18,-5],[-1,-49],[-10,-76],[-16,-52],[67,-97],[-8,-13],[-16,7],[-23,21],[-11,20],[-13,0],[-22,22],[-20,11],[-20,-152],[-40,-5],[-3,38],[4,63],[-20,95],[-14,94],[-6,109],[-6,19],[-27,57],[-8,25],[39,73],[-29,41],[-53,110],[6,1],[18,-28]],[[8053,8010],[29,-8],[42,-2],[36,9],[0,-10],[-43,-10],[-17,0],[-9,-82],[-14,2],[-9,-83],[-28,7],[-8,-18],[2,32],[18,-2],[5,35],[-36,-5],[-6,24],[40,13],[4,58],[-13,3],[-1,14],[-16,6],[-9,-10],[0,30],[33,-3]],[[1986,4166],[-9,-2],[-14,-31],[7,-40],[24,-30],[21,-8],[24,14],[21,-3],[11,-14],[0,-39],[12,-27],[10,-8],[-14,-18],[-9,12],[-14,-3],[-29,-22],[-2,8],[19,11],[10,23],[4,24],[-8,39],[-20,-10],[-17,-22],[-8,-44],[-16,19],[-15,-1],[8,13],[-17,7],[-17,-21],[-2,-28],[-21,34],[-24,-16],[-16,13],[1,13],[-10,14],[-22,-4],[-25,-18],[-5,11],[40,18],[10,35],[30,1],[18,37],[8,2],[7,36],[19,-17],[16,40],[14,2]],[[6961,1191],[-2,-30],[21,2],[-3,-25],[13,-7],[10,14],[24,-18],[-5,-11],[22,-11],[4,31],[78,-27],[23,5],[8,-55],[-4,-48],[-13,-30],[1,-22],[-20,4],[-23,-19],[-22,-5],[-43,-2],[6,-43],[43,7],[1,-36],[-37,-13],[-24,-15],[-8,38],[-20,4],[1,11],[-55,7],[-7,-122],[-35,8],[-16,-25],[-7,28],[-48,18],[-9,30],[-6,63],[-21,10],[4,44],[59,-17],[4,32],[-14,1],[-4,35],[12,4],[10,16],[10,-8],[6,19],[25,-15],[22,109],[9,61],[13,11],[17,-8]],[[34,3698],[7,-35],[-3,-12],[6,-27],[-15,-20],[17,-34],[-13,-15],[-17,5],[1,18],[-16,31],[12,5],[2,38],[13,46],[6,0]],[[8223,2670],[-9,-11],[-16,2],[0,-45],[-13,-49],[-12,3],[-2,-22],[-10,-6],[17,103],[25,39],[22,5],[-2,-19]],[[8080,6950],[-8,-31],[-7,-1]],[[8065,6918],[-65,29]],[[8000,6947],[-61,32],[-40,4],[-7,-30],[-19,13],[-10,-3],[-52,12],[-50,20],[8,46],[18,-5],[7,18],[18,-8],[-2,-13],[25,-9],[18,1],[1,39],[26,12],[-1,-26],[31,-9],[-5,-30],[11,-11],[30,-14],[5,3],[15,126],[-8,25],[45,-69]],[[7987,6890],[13,57]],[[8065,6918],[-6,-26],[6,-28],[-15,2],[-19,-13],[-7,-25],[39,-84]],[[3554,5321],[14,2],[6,-19],[17,-2],[10,11],[18,-29],[15,6],[12,21],[16,-16],[2,-22],[-6,-20],[-26,-15],[-9,4],[13,-31],[-16,-14],[-14,36],[-9,-56],[-12,4],[-25,34],[9,20],[-15,34],[-10,-6],[-7,15],[8,7],[-16,34],[25,2]]]}
