{"type":"Topology","bbox":[-76.27382542798313,3.9273472011250017,-76.17186294266793,4.038967898571137],"transform":{"scale":[0.000010197268258345647,0.000011163186063219856],"translate":[-76.27382542798313,3.9273472011250017]},"objects":{"municipios":{"type":"GeometryCollection","geometries":[{"type":"Polygon","arcs":[[0]],"properties":{"codigo":"76670200203002000101","sector":"766702002030020001","pcode":"CO76670","area_m2":120156}},{"type":"Polygon","arcs":[[1,2,3,4]],"properties":{"codigo":"76670100000000000101","sector":"766701000000000001","pcode":"CO76670","area_m2":446030}},{"type":"Polygon","arcs":[[5,6,7]],"properties":{"codigo":"76670100000000000102","sector":"766701000000000001","pcode":"CO76670","area_m2":284676}},{"type":"Polygon","arcs":[[8,-8,9,10,-2]],"properties":{"codigo":"76670100000000000103","sector":"766701000000000001","pcode":"CO76670","area_m2":287679}},{"type":"Polygon","arcs":[[11,12,-10,-7,13]],"properties":{"codigo":"76670100000000000104","sector":"766701000000000001","pcode":"CO76670","area_m2":97762}},{"type":"Polygon","arcs":[[14]],"properties":{"codigo":"76670200105007000101","sector":"766702001050070001","pcode":"CO76670","area_m2":380719}},{"type":"Polygon","arcs":[[-12,15]],"properties":{"codigo":"76670200103011000101","sector":"766702001030110001","pcode":"CO76670","area_m2":240747}},{"type":"Polygon","arcs":[[16]],"properties":{"codigo":"76670200102008000101","sector":"766702001020080001","pcode":"CO76670","area_m2":533366}},{"type":"Polygon","arcs":[[17]],"properties":{"codigo":"76670200103009000101","sector":"766702001030090001","pcode":"CO76670","area_m2":318234}},{"type":"Polygon","arcs":[[-4,18]],"properties":{"codigo":"76670200103010000101","sector":"766702001030100001","pcode":"CO76670","area_m2":160981}}]}},"arcs":[[[9785,381],[35,-34],[111,-56],[10,-60],[58,-38],[-86,-114],[53,-28],[-29,-51],[-125,64],[-123,16],[13,31],[-38,15],[37,52],[-92,46],[50,81],[32,-15],[25,39],[-30,15],[50,57],[49,-20]],[[4917,6116],[-102,-11],[-65,18],[-53,-54],[-353,17],[-223,67]],[[4121,6153],[274,373]],[[4395,6526],[60,85]],[[4455,6611],[217,307],[41,-20],[-23,-90],[143,-58],[-2,-72],[-83,-127],[62,-59],[-53,-134],[-39,-58],[-79,-65],[134,-42],[144,-77]],[[5053,5907],[-23,-19],[-35,-96],[-94,25],[-26,-35],[-123,39],[-151,32],[-63,-1],[-40,-153],[-56,-30],[-18,-52],[-60,-7],[-111,76],[-42,-25],[-66,15],[-87,-104],[-69,-174],[-64,29]],[[3925,5427],[58,163],[90,119]],[[4073,5709],[186,159],[88,138],[357,-17],[152,-24],[93,-43],[104,-15]],[[4917,6116],[88,-32],[62,19],[7,-45],[-21,-151]],[[4073,5709],[-231,60]],[[3842,5769],[279,384]],[[3708,5583],[132,183]],[[3840,5766],[2,3]],[[3925,5427],[-7,-33],[-163,95],[42,58],[-89,36]],[[1643,3539],[-38,-9],[-48,-51],[-146,-112],[-46,-111],[-14,-59],[-40,17],[-15,-35],[37,-41],[81,-15],[-5,-35],[-49,-12],[-43,-62],[0,-30],[-79,-29],[-7,-51],[-34,-69],[-38,-27],[-135,3],[-57,53],[-64,5],[-79,-26],[-38,26],[-177,-114],[-111,3],[10,40],[-49,48],[66,89],[49,2],[15,48],[35,-2],[34,100],[34,-30],[176,-66],[39,59],[25,-37],[35,28],[16,59],[54,-25],[79,93],[-41,23],[44,119],[22,7],[80,-37],[87,91],[300,333],[-24,-66],[49,-24],[33,-51],[-23,-20]],[[3708,5583],[-42,-59],[-81,60],[-36,-10],[-70,18],[-67,-28],[-48,1],[2,25],[-88,-8],[-110,5],[12,84],[-26,117],[87,-1],[6,-18],[78,6],[32,94],[64,-14],[45,89],[0,39],[54,15],[122,-131],[47,-33],[151,-68]],[[393,9902],[5,-28],[54,-14],[-19,-71],[100,2],[72,-13],[25,47],[101,-63],[78,-66],[-11,-36],[65,-20],[36,87],[35,51],[68,-29],[-45,-139],[-39,12],[-47,-266],[-92,9],[36,215],[-38,8],[9,73],[-70,-206],[-93,28],[15,116],[-85,-3],[-66,13],[-15,-46],[-69,23],[-81,-104],[-53,-9],[-41,18],[10,-49],[92,-13],[-12,-90],[43,15],[52,-14],[2,53],[208,-14],[-118,-138],[114,-29],[142,-24],[79,49],[32,-28],[67,51],[41,79],[57,69],[49,-18],[-56,-112],[-13,-75],[-85,6],[-10,35],[-80,-58],[-192,-103],[23,-56],[89,-27],[-54,-92],[-39,17],[-26,59],[-38,28],[-36,-48],[-22,26],[-131,55],[44,112],[25,-5],[37,84],[-189,54],[-10,-34],[-35,3],[-10,-34],[-90,-2],[2,50],[-39,8],[2,57],[-47,16],[81,71],[57,95],[42,42],[-54,8],[-28,37],[19,46],[-87,40],[-22,-51],[-30,12],[19,51],[-102,0],[57,60],[26,53],[41,-21],[37,29],[63,173],[27,-42],[141,-55]],[[3892,4780],[48,23],[-58,62],[57,49],[130,-27],[6,38],[-35,122],[55,6],[84,-77],[50,31],[32,-29],[-32,-61],[-40,8],[-36,42],[-81,13],[4,-76],[92,-6],[15,-21],[-52,-78],[75,-20],[-14,-114],[24,-14],[132,38],[55,45],[104,44],[3,-57],[62,-98],[-1,-27],[-73,120],[-74,18],[-81,-55],[-161,-48],[-96,2],[-55,35],[-25,39],[-56,-8],[86,-120],[-70,-41],[-35,52],[-56,-53],[-71,14],[-17,55],[-60,8],[-27,-22],[-34,27],[-56,-23],[-9,36],[76,5],[-25,43],[59,16],[-4,46],[-61,61],[-62,92],[-65,6],[-257,67],[123,173],[124,-53],[81,-20],[20,-40],[-10,-49],[130,-11],[-17,-58],[23,-9],[-18,-53],[155,-47],[19,-21]],[[4395,6526],[-58,161],[-18,27],[-73,-18],[-120,114],[34,33],[-366,353],[70,57],[-23,30],[26,24],[31,-37],[25,113],[110,-52],[-30,-49],[-49,35],[-6,-109],[82,2],[-25,-65],[51,-37],[30,-56],[63,-29],[63,21],[-45,-55],[120,-54],[-15,-55],[22,0],[39,-99],[7,-50],[58,-39],[-13,-31],[70,-50]]]}
