{"type":"Topology","bbox":[-76.23976412124671,4.393374967429911,-76.0961055648674,4.499443516836907],"transform":{"scale":[0.000014367292367167453,0.000010607915732272822],"translate":[-76.23976412124671,4.393374967429911]},"objects":{"municipios":{"type":"GeometryCollection","geometries":[{"type":"Polygon","arcs":[[0,1,2,3,4]]},{"type":"Polygon","arcs":[[5,6,-2,7]]},{"type":"Polygon","arcs":[[8,9,10,11,-7]]},{"type":"Polygon","arcs":[[12,13,-8,-1,14,15]]},{"type":"Polygon","arcs":[[-15,-5,16,17]]},{"type":"Polygon","arcs":[[-17,-4,18,19,20,21,22]]},{"type":"Polygon","arcs":[[-21,23,24]]},{"type":"Polygon","arcs":[[25,26,-19,-3,-12]]},{"type":"Polygon","arcs":[[-27,27,28,29,-24,-20]]},{"type":"Polygon","arcs":[[30,31,-28,-26,-11]]},{"type":"Polygon","arcs":[[32,33,34,35]]},{"type":"Polygon","arcs":[[36,-18,-23,37,-35]]},{"type":"Polygon","arcs":[[38,-9,-6,-14,39,40]]},{"type":"Polygon","arcs":[[41,-31,-10,-39,42]]},{"type":"Polygon","arcs":[[-16,-37,-34,43]]},{"type":"Polygon","arcs":[[-40,-13,-44,-33,44]]},{"type":"Polygon","arcs":[[-42,45,-29,-32]]},{"type":"Polygon","arcs":[[46]]},{"type":"Polygon","arcs":[[47,48]]},{"type":"Polygon","arcs":[[-49,49]]},{"type":"Polygon","arcs":[[50,51]]},{"type":"Polygon","arcs":[[52,-51]]},{"type":"Polygon","arcs":[[53]]},{"type":"Polygon","arcs":[[54]]},{"type":"Polygon","arcs":[[55,56]]},{"type":"Polygon","arcs":[[57,-56]]}]}},"arcs":[[[6122,2158],[-30,-135]],[[6092,2023],[-24,-107]],[[6068,1916],[-251,33]],[[5817,1949],[12,87],[51,-8],[-17,66],[3,107]],[[5866,2201],[89,2],[2,20],[165,-65]],[[6373,2068],[-38,-194],[-115,19]],[[6220,1893],[-152,23]],[[6092,2023],[53,44],[43,9],[185,-8]],[[6220,1893],[-29,-161],[196,-74],[28,-43],[-14,-32],[71,-33],[-18,-77]],[[6454,1473],[-27,-84],[-201,36],[-212,57]],[[6014,1482],[11,88]],[[6025,1570],[25,264],[18,82]],[[6382,2225],[51,-45],[-43,-113]],[[6390,2067],[-17,1]],[[6122,2158],[67,195]],[[6189,2353],[172,-121],[21,-7]],[[5866,2201],[14,128],[-38,9],[3,34],[-37,8],[4,35]],[[5812,2415],[20,54],[57,-9],[3,74],[68,-25],[-5,-157],[97,-36],[23,136],[114,-99]],[[5817,1949],[-36,-262]],[[5781,1687],[-40,-2],[-85,-42],[-55,11]],[[5601,1654],[-3,87],[70,-1],[-5,177],[-58,39],[-15,84]],[[5590,2040],[7,173],[64,-63],[7,-43],[69,7],[4,81],[32,-54],[33,-4],[-10,60],[29,-5],[-49,136],[-85,10],[11,141],[91,44]],[[5793,2523],[-6,-103],[25,-5]],[[5601,1654],[-37,-28],[-122,-6],[11,45],[-51,1],[-76,-93],[-42,10]],[[5284,1583],[-31,50],[-7,53],[74,-20],[35,12],[19,61],[21,331],[75,-36],[63,-11],[57,17]],[[6025,1570],[-119,26],[-63,50],[-10,-36]],[[5833,1610],[-52,77]],[[5833,1610],[-20,-88],[-97,39],[-42,-177],[-95,-115]],[[5579,1269],[-104,-47]],[[5475,1222],[-13,-5],[-49,176],[-83,139],[-46,20],[0,31]],[[6014,1482],[-17,-126],[62,-100],[-3,-35]],[[6056,1221],[-54,-4],[-196,23],[6,24],[-172,74],[-18,-48],[17,-32],[-57,-36],[-3,47]],[[6368,2956],[-41,-196],[-76,-254]],[[6251,2506],[-12,-27]],[[6239,2479],[-70,67],[-43,-45],[-59,77],[-107,25],[-20,53],[-51,-17],[-10,86],[61,157],[-98,36],[-81,54],[-31,1]],[[5730,2973],[-53,7],[4,64],[-24,13],[16,47],[-60,41],[95,255],[34,-51],[9,-66],[123,-82],[28,-122],[35,-16],[11,-38],[49,-21],[59,181],[155,-107],[157,-122]],[[6239,2479],[-50,-126]],[[5793,2523],[-24,144],[84,158],[-24,17],[1,55],[-108,35],[8,41]],[[6603,1489],[-102,-19],[-47,3]],[[6390,2067],[220,-1],[18,-35]],[[6628,2031],[-5,-122],[23,-136],[0,-88],[-21,-139],[-22,-57]],[[6083,932],[-41,147],[61,30],[-47,112]],[[6603,1489],[217,1],[0,-169],[35,-19],[-6,-79],[-72,37],[-68,-38],[-43,4],[-36,-39],[-51,16],[-17,-42],[21,-31],[-14,-43],[-85,5],[-82,-257],[54,-115],[-31,-29],[-12,30],[-88,88],[-54,68],[-138,22],[-6,72],[-44,-39]],[[6251,2506],[112,-81],[28,-55],[-9,-145]],[[6368,2956],[22,87],[42,-220],[190,2],[-19,-118],[26,-16],[47,-110],[-11,-27],[49,-81],[56,-28],[49,-56],[28,95],[199,-140],[-49,-82],[-170,116],[-22,-77],[-91,-240],[-52,3],[-34,-33]],[[6083,932],[-26,-17],[-131,-23],[-61,22],[-12,36],[-45,-8],[-101,15],[-73,-6],[-127,-50],[-117,-79],[-95,155],[82,96],[27,17],[71,132]],[[385,322],[1,-54],[-21,7],[-61,-35],[-11,19],[-29,-75],[-73,-23],[0,103],[-41,2],[-39,-106],[-14,16],[-53,-90],[-26,-73],[-18,69],[63,133],[33,-39],[22,99],[125,-21],[-10,37],[69,5],[83,26]],[[9967,9442],[-16,-51],[-140,81],[-76,69],[-30,-145],[-113,-205],[-52,-50],[-31,46],[-86,-62],[-13,22],[-32,-32],[-26,46],[49,83],[24,-16],[7,85],[-66,22],[14,35],[-34,38],[-43,-2],[-46,54],[-19,-36],[-56,35],[19,51],[81,62],[27,35],[9,52]],[[9318,9659],[32,12],[71,-31],[52,6],[165,-43],[77,-30],[130,-39],[122,-92]],[[9318,9659],[38,119],[116,104],[70,117],[45,-55],[10,-69],[46,-59],[22,51],[40,-32],[17,54],[64,-47],[62,70],[53,-7],[32,43],[48,-62],[-51,-139],[-43,-40],[112,-111],[-32,-154]],[[8742,7905],[-45,38],[-59,7],[-225,146],[-18,51],[-55,-47],[-46,17]],[[8294,8117],[30,77],[-12,133],[76,-46],[82,-18],[32,10],[77,-37],[-4,-45],[83,-32],[125,70],[131,21],[-77,-110],[32,-10],[-26,-46],[153,-62],[-39,-58],[-86,55],[-78,-38],[-51,-76]],[[8742,7905],[-61,-90],[-56,-187],[25,-14],[-52,-69],[-69,55],[-117,124],[-24,35],[-134,94],[57,99],[-46,72],[29,93]],[[6979,6041],[21,-16],[-17,-125],[-31,-9],[13,-47],[9,-149],[88,0],[1,-192],[61,-109],[-20,-87],[45,-62],[-24,-41],[99,-139],[36,56],[64,54],[47,-56],[-71,-194],[-126,-232],[182,-175],[-105,1],[-90,42],[-39,-67],[28,-47],[-22,-37],[-66,76],[-92,-169],[-101,117],[63,183],[-290,99],[91,127],[37,163],[-1,29],[111,123],[-104,78],[69,179],[-53,63],[-38,-2],[2,95],[63,181],[-6,52],[80,208],[43,35],[43,-6]],[[8502,1377],[5,-10],[145,-34],[256,-70],[-9,-54],[214,-87],[133,215],[153,-66],[154,-105],[-14,-52],[-153,103],[-135,62],[-103,-192],[-96,50],[-9,-50],[-198,74],[-220,65],[-138,18],[-4,65],[-71,-16],[7,-41],[-37,-8],[0,94],[120,39]],[[7670,1726],[-13,-11],[24,-139]],[[7681,1576],[-38,-17],[-25,119],[-173,57],[-195,-50],[-8,50],[-46,-5],[70,134],[124,131],[119,24],[237,-90],[-76,-203]],[[7670,1726],[14,-83],[39,16],[15,-67],[101,-304],[33,-11],[-7,-35],[69,-19],[26,84],[68,-23],[0,43],[66,2],[4,-108],[-85,-21],[-34,-42],[-44,-148],[-72,-11],[-25,-76],[-40,26],[50,148],[-11,33],[-109,34],[-64,296],[38,19],[-21,97]]]}
