{"type":"Topology","bbox":[-76.48842307900685,3.6914863295405222,-76.40716179902444,3.8083762755544526],"transform":{"scale":[0.000008126940692310603,0.000011690163617754807],"translate":[-76.48842307900685,3.6914863295405222]},"objects":{"municipios":{"type":"GeometryCollection","geometries":[{"type":"Polygon","arcs":[[0,1,2,3]],"properties":{"codigo":"76869100000000000102","sector":"768691000000000001","pcode":"CO76869","area_m2":224773}},{"type":"Polygon","arcs":[[4]],"properties":{"codigo":"76869200101003000101","sector":"768692001010030001","pcode":"CO76869","area_m2":8539}},{"type":"Polygon","arcs":[[5]],"properties":{"codigo":"76869200102007000101","sector":"768692001020070001","pcode":"CO76869","area_m2":39998}},{"type":"Polygon","arcs":[[6,7,8,-3]],"properties":{"codigo":"76869100000000000101","sector":"768691000000000001","pcode":"CO76869","area_m2":105153}},{"type":"Polygon","arcs":[[9,10,11,-7,-2]],"properties":{"codigo":"76869100000000000103","sector":"768691000000000001","pcode":"CO76869","area_m2":71656}},{"type":"Polygon","arcs":[[12]],"properties":{"codigo":"76869200102004000101","sector":"768692001020040001","pcode":"CO76869","area_m2":77234}},{"type":"Polygon","arcs":[[13]],"properties":{"codigo":"76869200102008000101","sector":"768692001020080001","pcode":"CO76869","area_m2":44853}},{"type":"Polygon","arcs":[[14,-10,-1,15]],"properties":{"codigo":"76869100000000000104","sector":"768691000000000001","pcode":"CO76869","area_m2":424050}},{"type":"Polygon","arcs":[[-15,16,17,-11]],"properties":{"codigo":"76869100000000000105","sector":"768691000000000001","pcode":"CO76869","area_m2":141034}},{"type":"Polygon","arcs":[[-18,18,19]],"properties":{"codigo":"76869100000000000106","sector":"768691000000000001","pcode":"CO76869","area_m2":242525}},{"type":"Polygon","arcs":[[-8,-12,-20,20]],"properties":{"codigo":"76869100000000000107","sector":"768691000000000001","pcode":"CO76869","area_m2":223573}},{"type":"Polygon","arcs":[[21]],"properties":{"codigo":"76869200101001000101","sector":"768692001010010001","pcode":"CO76869","area_m2":28543}},{"type":"Polygon","arcs":[[22]],"properties":{"codigo":"76869200104010000101","sector":"768692001040100001","pcode":"CO76869","area_m2":45539}},{"type":"MultiPolygon","arcs":[[[23]],[[24]]],"properties":{"codigo":"76869200106011000101","sector":"768692001060110001","pcode":"CO76869","area_m2":28233}}]}},"arcs":[[[6495,470],[-93,32],[-231,65]],[[6171,567],[35,56],[-89,33],[-73,16],[-44,29],[-200,54],[34,62]],[[5834,817],[95,-26],[68,143]],[[5997,934],[184,-70],[142,-46],[347,-81],[93,-2],[-172,-156],[-96,-109]],[[2313,9970],[74,19],[2,-26],[95,6],[22,-21],[-58,-14],[-98,-4],[-37,40]],[[555,4861],[-51,-58],[15,-38],[87,-31],[-22,-60],[75,-14],[17,-34],[-118,-31],[-40,62],[-84,-5],[-14,62],[56,12],[-20,54],[-50,17],[51,43],[98,25],[6,57],[83,8],[2,-53],[-91,-16]],[[5834,817],[-182,37]],[[5652,854],[20,59],[64,24],[71,56]],[[5807,993],[82,21],[-12,76],[41,10],[-13,35],[100,33],[-21,71],[34,14],[162,-141],[-123,-74],[-60,-104]],[[6171,567],[-113,26],[-193,58]],[[5865,651],[-281,75]],[[5584,726],[68,128]],[[1456,5844],[23,-9],[325,40],[259,-10],[90,11],[46,-20],[-9,-44],[-131,-18],[-232,11],[-337,-51],[-246,119],[38,37],[174,-66]],[[139,6238],[44,-20],[205,-20],[0,-17],[63,-4],[0,-21],[-65,6],[68,-146],[-80,-19],[-50,97],[-33,-12],[-46,78],[-245,24],[43,28],[-1,23],[44,14],[53,-11]],[[5559,212],[31,112],[25,48],[117,-23],[25,57],[105,-23],[-21,82],[-56,12],[80,174]],[[6495,470],[135,-50],[4,-53],[-180,57],[-154,-257],[-17,-77],[-40,-15],[-48,16],[-12,-28],[-51,23],[-62,-11],[-50,21],[18,29],[-71,19],[-93,-144],[-65,44],[-143,3],[-43,10],[-21,92],[-43,63]],[[5559,212],[-38,54],[-36,86],[-43,35],[1,47]],[[5443,434],[68,139],[-4,9],[61,145],[16,-1]],[[5443,434],[-127,19],[-102,-26],[-37,-100],[-203,61],[42,26],[29,61],[-45,7],[47,70],[69,35],[11,72],[41,-10],[-10,54],[-114,10],[-21,24],[-190,43],[-22,39],[13,66]],[[4824,885],[73,50],[120,-43],[147,-75],[205,-39],[215,-52]],[[4824,885],[-87,14],[-34,41],[-82,56],[-43,-38],[-81,-31],[-35,5],[3,51],[52,56],[80,-3],[196,16],[134,2],[107,-39],[36,30],[108,56],[84,-46],[18,-39],[-17,-40],[137,-43],[31,-35],[97,-13],[3,82],[205,-27],[-2,32],[60,39],[13,-18]],[[2486,7616],[40,-50],[45,14],[47,-16],[72,22],[65,46],[19,-19],[-120,-87],[83,-22],[-7,-21],[-58,15],[-37,-38],[-55,14],[-105,89],[-77,-6],[31,50],[57,9]],[[9804,3470],[-40,-97],[-36,2],[-32,-102],[30,-5],[-7,-107],[19,-34],[-26,-15],[18,-87],[-61,-11],[-4,81],[30,183],[-46,8],[39,187],[64,-4],[46,74],[168,185],[33,-13],[-135,-138],[-60,-107]],[[3004,5848],[69,9],[8,-28],[-93,-33],[-61,-66],[-26,21],[29,47],[-70,-2],[-11,37],[65,10],[-31,30],[122,0],[-1,-25]],[[3259,5946],[15,-33],[-52,-22],[-111,-22],[-30,33],[158,51],[20,-7]]]}
