{"type":"Topology","bbox":[-76.00011883478953,4.678269499793875,-75.85701546824095,4.7733593547675],"transform":{"scale":[0.000014311767831641866,0.0000095099364910116],"translate":[-76.00011883478953,4.678269499793875]},"objects":{"municipios":{"type":"GeometryCollection","geometries":[{"type":"Polygon","arcs":[[0,1,2]]},{"type":"Polygon","arcs":[[3,4,5]]},{"type":"Polygon","arcs":[[6,7,8,-4,9,10]]},{"type":"Polygon","arcs":[[11,12,13,-5,-9]]},{"type":"Polygon","arcs":[[14,15,16,17,-13]]},{"type":"Polygon","arcs":[[18,19,-15,-12,-8]]},{"type":"Polygon","arcs":[[20,21,-19,22]]},{"type":"Polygon","arcs":[[23,24,-21,25]]},{"type":"Polygon","arcs":[[26,-24,27]]},{"type":"Polygon","arcs":[[28,29,30,-28,-26,31,32]]},{"type":"Polygon","arcs":[[33,34,35,36,37,-27,-31]]},{"type":"Polygon","arcs":[[38,39,-34,-30,40]]},{"type":"Polygon","arcs":[[41,42,43,-35,-40,44]]},{"type":"Polygon","arcs":[[45,46,47,48,-42]]},{"type":"Polygon","arcs":[[49,50,51,52]]},{"type":"Polygon","arcs":[[53,54,55]]},{"type":"Polygon","arcs":[[-44,56,57,-36]]},{"type":"Polygon","arcs":[[58,59,60,61,62,63]]},{"type":"Polygon","arcs":[[64,65,66,67,-62,68]]},{"type":"Polygon","arcs":[[69,70,71,72]]},{"type":"Polygon","arcs":[[73,74,75,76]]},{"type":"Polygon","arcs":[[77,78,79,80]]},{"type":"Polygon","arcs":[[81,82,83,84]]},{"type":"Polygon","arcs":[[-63,-68,85,-47,86,87,88]]},{"type":"Polygon","arcs":[[-32,-23,-7,89,90]]},{"type":"Polygon","arcs":[[-46,-45,-39,91,92,93,-87]]},{"type":"Polygon","arcs":[[94,95,-72,96,97,-69,-61]]},{"type":"Polygon","arcs":[[98,99,100,101,102]]},{"type":"Polygon","arcs":[[103,104,-59,105,106,107]]},{"type":"Polygon","arcs":[[108,-92,-41,-29,109,110]]},{"type":"Polygon","arcs":[[111,112,113,114,115,116,117,118]]},{"type":"Polygon","arcs":[[119,120,121,122,123,124]]},{"type":"Polygon","arcs":[[125,-52,126,127,-20,-22,128]]},{"type":"Polygon","arcs":[[-50,129,130,-56,131,132,133]]},{"type":"Polygon","arcs":[[134,-121,135,-111,136,137]]},{"type":"Polygon","arcs":[[138,-74,139,140,141,142,143,144]]},{"type":"Polygon","arcs":[[145,-145,146]]},{"type":"Polygon","arcs":[[-118,147,148,149]]},{"type":"Polygon","arcs":[[150,151]]},{"type":"Polygon","arcs":[[152,153,154,155]]},{"type":"Polygon","arcs":[[-73,-96,156,-104,157,158]]},{"type":"Polygon","arcs":[[159,-2,160,-99,161,162,163]]},{"type":"Polygon","arcs":[[-133,164,-100,-161,-1,165,166,167]]},{"type":"Polygon","arcs":[[168,169,-112,170,171]]},{"type":"Polygon","arcs":[[172,173]]},{"type":"Polygon","arcs":[[-98,174,-143,175,-65]]},{"type":"Polygon","arcs":[[-148,-117,176,-85,177,178]]},{"type":"Polygon","arcs":[[-25,-38,179,-129]]},{"type":"Polygon","arcs":[[-162,-103,180,181,182]]},{"type":"Polygon","arcs":[[-167,183,-16,-128,184]]},{"type":"Polygon","arcs":[[185,-141,186]]},{"type":"Polygon","arcs":[[187,188,189,190,-130,-53,-126,-180,-37,-58]]},{"type":"Polygon","arcs":[[-142,-186,191,192,-66,-176]]},{"type":"Polygon","arcs":[[-95,-60,-105,-157]]},{"type":"Polygon","arcs":[[193,194,-152,195,196,-48]]},{"type":"Polygon","arcs":[[-197,-188,-57,-43,-49]]},{"type":"Polygon","arcs":[[-17,-184,-166,-3,-160,197,-169,198]]},{"type":"Polygon","arcs":[[199,-138,200,201]]},{"type":"Polygon","arcs":[[202,203]]},{"type":"Polygon","arcs":[[204,205,-194,-86,-67,-193]]},{"type":"Polygon","arcs":[[206,207,208,-204,209,210,-190]]},{"type":"Polygon","arcs":[[-76,211,212,-78,213,214]]},{"type":"Polygon","arcs":[[215,216,217,-83]]},{"type":"Polygon","arcs":[[-156,218,-125,219]]},{"type":"Polygon","arcs":[[220,-93,-109,-136,-120,-219,-155]]},{"type":"Polygon","arcs":[[-154,221,-107,222,-88,-94,-221]]},{"type":"Polygon","arcs":[[-158,-108,-222,-153,-220,-124,223,224]]},{"type":"Polygon","arcs":[[-64,-89,-223,-106]]},{"type":"Polygon","arcs":[[-116,225,-114,226,-163,-183,227,-216,-82,-177]]},{"type":"Polygon","arcs":[[-192,-187,-140,-77,-215,228,229,-205]]},{"type":"Polygon","arcs":[[230,231,-208]]},{"type":"Polygon","arcs":[[232,233,234,235,236,-173]]},{"type":"Polygon","arcs":[[237,-10,-6,-14,-18,-199,-172,238]]},{"type":"Polygon","arcs":[[-149,-179,239]]},{"type":"Polygon","arcs":[[-198,-164,-227,-113,-170]]},{"type":"Polygon","arcs":[[-127,-51,-134,-168,-185]]},{"type":"Polygon","arcs":[[240,-235,241]]},{"type":"Polygon","arcs":[[-191,-211,242,-54,-131]]},{"type":"Polygon","arcs":[[243,-79,-213,244]]},{"type":"Polygon","arcs":[[-226,-115]]},{"type":"Polygon","arcs":[[-80,-244,245]]},{"type":"Polygon","arcs":[[-195,-206,-230,246,-231,-207,-189,-196,-151]]},{"type":"Polygon","arcs":[[-228,-182,-242,-234,247,-217]]},{"type":"Polygon","arcs":[[248,-236,-241,-181,-102]]},{"type":"Polygon","arcs":[[249,-147,-144,-175,-97,-71]]},{"type":"Polygon","arcs":[[250,251,-202,252]]},{"type":"Polygon","arcs":[[-11,-238,253,-90]]},{"type":"MultiPolygon","arcs":[[[254]],[[255]],[[256]]]},{"type":"Polygon","arcs":[[257]]},{"type":"Polygon","arcs":[[258,259]]},{"type":"Polygon","arcs":[[260,-122,-135,-200,-252,261,262]]},{"type":"Polygon","arcs":[[-224,-123,263,264,-262,-251,265]]},{"type":"MultiPolygon","arcs":[[[266]],[[267]],[[268]]]},{"type":"MultiPolygon","arcs":[[[269]],[[-259,270]],[[271]]]}]}},"arcs":[[[5344,7583],[-276,111]],[[5068,7694],[8,127],[15,61],[-23,22],[37,112]],[[5105,8016],[157,-163],[65,-207],[17,-63]],[[5494,8493],[-39,-112]],[[5455,8381],[-3,-10]],[[5452,8371],[-199,152],[22,58],[-10,12],[40,88],[2,-27],[23,-17],[-4,-15],[27,-47],[84,-66],[24,7],[33,-23]],[[5739,8456],[-66,-190]],[[5673,8266],[-73,61],[-17,-53]],[[5583,8274],[-62,48],[-3,9],[-63,50]],[[5494,8493],[12,34]],[[5506,8527],[7,-6],[38,30],[55,28],[-21,-58],[66,-51],[14,43],[74,-57]],[[5583,8274],[-32,-89],[-3,-133]],[[5548,8052],[-72,4],[-72,-3]],[[5404,8053],[-4,160],[52,158]],[[5548,8052],[-11,-302]],[[5537,7750],[-137,47]],[[5400,7797],[3,218]],[[5403,8015],[1,38]],[[5673,8266],[-49,-140],[-4,-22],[11,-367],[-1,-24]],[[5630,7713],[-93,37]],[[5830,8124],[-104,-460]],[[5726,7664],[-19,18],[-71,24],[-6,7]],[[5673,8266],[144,-112],[13,-30]],[[5885,8093],[49,-232],[26,-140],[0,-47]],[[5960,7674],[-74,-5],[-160,-5]],[[5830,8124],[27,-7],[28,-24]],[[6108,7685],[-148,-11]],[[5885,8093],[161,-134],[52,-177],[10,-97]],[[6539,7777],[1,-54],[-62,-4]],[[6478,7719],[-58,-13],[-3,-18],[-20,-3],[-135,-50],[-2,44],[-66,16]],[[6194,7695],[-86,-10]],[[5830,8124],[28,51]],[[5858,8175],[26,-33],[37,-32],[336,-236],[104,-76],[59,-32],[35,-7],[84,18]],[[6194,7695],[-1,-337]],[[6193,7358],[2,-109],[-73,-7]],[[6122,7242],[-57,-5],[-104,9]],[[5961,7246],[0,88]],[[5961,7334],[1,232],[-2,108]],[[6486,7391],[-138,-16]],[[6348,7375],[-155,-17]],[[6478,7719],[8,-328]],[[6356,6972],[-82,0],[-130,-11]],[[6144,6961],[-19,103]],[[6125,7064],[-3,178]],[[6348,7375],[8,-403]],[[6356,6972],[9,-293]],[[6365,6679],[-66,-227]],[[6299,6452],[-16,51],[-90,-15],[-9,233]],[[6184,6721],[-6,89],[-10,56],[-24,95]],[[5531,6814],[72,121],[9,85]],[[5612,7020],[23,144]],[[5635,7164],[44,73],[31,22]],[[5710,7259],[-3,-115],[35,-5],[45,6],[-12,-194],[-64,13],[-6,-112],[-43,37],[-50,-143],[-81,68]],[[5297,6904],[-79,-95]],[[5218,6809],[-16,32],[-19,-23],[-25,28],[-12,51],[-31,77],[-36,69],[30,38]],[[5109,7081],[35,-24],[13,-20],[25,-6],[23,-42],[53,-36],[39,-49]],[[6125,7064],[-66,19],[-21,-57],[-37,-37],[3,-146],[-94,-36],[-66,3]],[[5844,6810],[7,123],[30,-5],[31,100],[45,120],[4,98]],[[6743,6418],[25,-15]],[[6768,6403],[-45,-57],[-40,-15],[-45,-62],[-13,-31],[18,-46]],[[6643,6192],[-66,-30],[-22,66]],[[6555,6228],[-59,183]],[[6496,6411],[92,32],[12,73]],[[6600,6516],[92,-65],[51,-33]],[[6525,6125],[-102,19]],[[6423,6144],[-87,16]],[[6336,6160],[0,97],[-7,39]],[[6329,6296],[76,33],[91,82]],[[6555,6228],[-30,-103]],[[6890,5608],[19,-36],[-29,-53]],[[6880,5519],[-14,55],[-29,61],[-20,2],[-35,59],[-65,58],[-35,-3]],[[6682,5751],[17,78]],[[6699,5829],[12,-5],[79,-85],[60,-70],[11,-53],[29,-8]],[[5989,4637],[19,-1]],[[6008,4636],[13,-8],[93,-118],[18,-6],[35,10],[42,54],[34,-47],[26,-59],[44,-9],[1,-38],[-23,-32],[-3,-82],[-9,-48],[-43,-57],[-6,-17],[3,-90],[38,-42],[-5,-35],[10,-34],[-30,13],[-35,-131],[-38,-40],[-43,-28],[-14,-93],[-233,193],[-215,169]],[[5668,4061],[2,98],[5,53],[14,50],[29,73],[74,149],[9,27]],[[5801,4511],[42,127],[24,86],[12,-12],[-20,-104],[12,-3],[29,-46],[46,44],[25,2],[18,32]],[[4810,2304],[31,-7],[110,-68],[76,-40],[128,-51]],[[5155,2138],[-20,-116],[-58,23],[-20,-83]],[[5057,1962],[-131,120],[-52,75],[-60,56]],[[4814,2213],[-37,26],[-62,35],[60,23],[35,7]],[[4351,9092],[-21,-52],[33,-36],[-5,-15],[35,-34],[-3,-9],[37,-37],[-47,-40],[-72,-76],[-19,7],[-60,61],[9,43],[-31,17]],[[4207,8921],[-12,15],[61,146]],[[4256,9082],[33,-27],[31,42]],[[4320,9097],[31,-5]],[[6329,6296],[-30,156]],[[6365,6679],[4,-4],[21,66],[19,27],[21,-1],[-2,63]],[[6428,6830],[159,-28]],[[6587,6802],[-24,-44],[-4,-73],[-25,-124],[66,-45]],[[5739,8456],[107,296],[82,-67],[6,18],[48,-36],[47,86],[-15,7],[28,70]],[[6042,8830],[50,-84],[-4,-62],[-8,-26],[-24,-32],[-67,-72],[-34,-49],[-50,-104],[-12,-15],[-52,-27],[-21,-40],[-8,-46],[9,-42],[37,-56]],[[6486,7391],[61,7]],[[6547,7398],[4,-131],[-31,-147],[-24,-101]],[[6496,7019],[-18,-56],[-20,-44],[-30,-89]],[[6643,6192],[41,-86],[47,-10]],[[6731,6096],[-20,-184],[-12,-83]],[[6682,5751],[-23,-29],[-21,-10],[-155,-27],[-61,-6]],[[6422,5679],[9,81],[49,102],[18,24],[2,45],[25,194]],[[4791,7876],[81,-94],[33,-26],[99,-38]],[[5004,7718],[-74,-383],[-21,-69]],[[4909,7266],[-86,28],[-52,27],[-109,5],[-60,-35],[-62,9],[-65,46],[-53,12],[-26,-14],[-65,41],[-41,72],[-12,53],[-39,45],[-77,50],[-85,12]],[[4077,7617],[-20,36],[-1,20],[16,35],[-17,49],[10,48],[21,45],[21,9],[20,33],[19,80],[11,17],[15,56],[17,11],[5,37]],[[4194,8093],[165,-159],[55,-15],[221,-6],[109,-1],[23,-9],[24,-27]],[[6802,6406],[-8,-18]],[[6794,6388],[-26,15]],[[6743,6418],[14,67],[33,102],[-16,50],[-33,-32],[-2,-25],[20,-54],[-14,-21],[-10,11],[-31,83],[10,41],[-21,3],[-5,18],[9,41],[26,33]],[[6723,6735],[17,-36],[53,-47]],[[6793,6652],[21,-166],[-13,-41],[1,-39]],[[6680,7412],[-133,-14]],[[6539,7777],[72,17],[14,18]],[[6625,7812],[19,-48],[23,-125],[9,-126],[4,-101]],[[5000,8647],[-33,-80],[-40,38],[-88,-240]],[[4839,8365],[-11,2]],[[4828,8367],[-18,66],[-26,39]],[[4784,8472],[-53,57],[-47,73],[-47,87],[-42,51],[-14,35],[-8,75]],[[4573,8850],[-4,93]],[[4569,8943],[8,78]],[[4577,9021],[78,-35],[5,26],[18,-7],[-15,-71],[43,-19],[37,103],[15,76],[12,86]],[[4770,9180],[28,20],[50,148],[95,-164],[-56,-99],[-33,39],[-27,-178],[-27,-85],[-63,-131],[119,-114],[20,44],[-6,6],[19,45],[16,-15],[1,-23],[89,-29],[5,3]],[[6834,7426],[-70,-6]],[[6764,7420],[-6,98],[76,7],[6,77],[38,128]],[[6878,7730],[120,149],[17,-17]],[[7015,7862],[-25,-115],[-20,-50],[-63,-114],[-3,-66],[16,-77]],[[6920,7440],[-2,-59],[-19,-46]],[[6899,7335],[-26,94],[-39,-3]],[[5713,7320],[-3,-61]],[[5635,7164],[-114,32]],[[5521,7196],[8,253],[8,301]],[[5726,7664],[-5,-99],[-4,-206],[-4,-39]],[[5531,6814],[-27,-31],[-43,-70],[-53,-111]],[[5408,6602],[-7,73],[-30,32],[3,8],[-23,70],[-5,121],[-8,23],[-41,-25]],[[5109,7081],[-18,27]],[[5091,7108],[68,23],[33,69]],[[5192,7200],[79,-14],[-4,-40],[63,-11],[-2,-38],[133,-20],[56,-32],[95,-25]],[[6839,7990],[39,-260]],[[6764,7420],[-84,-8]],[[6625,7812],[68,154],[73,117],[28,30]],[[6794,8113],[9,-39],[20,-26],[16,-58]],[[6482,4773],[-72,-92],[-34,17],[-39,-12],[-30,112],[-52,6],[-62,21],[-9,-32],[-28,13],[-45,-2],[-26,-19],[-18,-27],[-59,-122]],[[5989,4637],[-114,89],[26,109],[99,341],[42,149]],[[6042,5325],[102,357]],[[6144,5682],[13,-10],[54,18],[135,1]],[[6346,5691],[65,-11]],[[6411,5680],[-6,-86],[72,2],[52,-124],[-20,-44]],[[6509,5428],[-17,-91],[-18,-38],[4,-49],[-11,-50],[-22,-59],[3,-56],[25,-55],[21,-67],[-12,-190]],[[6650,5213],[-2,-23],[-40,-235],[45,7],[26,-12],[12,-42],[29,-39],[56,-31],[-1,-29],[-45,-74],[-32,-4],[-10,-52],[37,-6],[-11,-32],[-20,20],[-41,4],[-27,17],[-30,44],[-24,6],[-42,35],[-35,18],[-13,-12]],[[6509,5428],[30,-16],[-7,-41],[-4,-129],[15,-13],[-7,-56],[20,-5],[94,45]],[[4577,9021],[28,108]],[[4605,9129],[58,-25],[12,62],[-14,10],[10,40]],[[4671,9216],[71,-29],[3,16],[25,-23]],[[5963,6268],[-125,-82],[6,-19],[-36,-25],[-20,64],[-55,-36],[-14,49],[130,79],[89,59]],[[5938,6357],[25,-89]],[[6814,7130],[-29,-97],[-12,-95]],[[6773,6938],[-132,53],[-3,-6]],[[6638,6985],[-12,227],[57,9]],[[6683,7221],[3,-85],[20,6],[36,30],[33,2],[6,-18],[33,-26]],[[6731,6096],[13,124],[13,67],[37,101]],[[6802,6406],[24,-13],[42,-119]],[[6868,6274],[-77,-530],[68,-78],[31,-58]],[[5033,8113],[72,-97]],[[5068,7694],[-64,24]],[[4791,7876],[24,120],[-2,35],[-16,148],[-22,119],[-59,-26],[-12,57]],[[4704,8329],[61,16]],[[4765,8345],[6,-30],[44,0],[1,-33],[17,-65],[14,11],[41,-1],[36,-50],[-20,-40],[-58,2],[3,-152],[-23,-94],[29,-17],[23,96],[22,-12],[8,30],[23,-12],[12,52],[53,-58],[32,60],[-15,20],[20,61]],[[5091,7108],[-14,54],[-112,48],[-22,43],[-34,13]],[[5344,7583],[1,-1]],[[5345,7582],[-3,-181],[-12,0],[-44,-63]],[[5286,7338],[-94,-138]],[[5056,8402],[-63,-93],[-34,-63]],[[4959,8246],[-33,57],[-48,43],[-39,19]],[[5000,8647],[28,22]],[[5028,8669],[-5,-91],[7,-107],[26,-69]],[[3541,9631],[-29,25],[-14,-31],[-87,77],[-18,88],[-27,49]],[[3366,9839],[-19,44],[-35,106],[11,10],[17,-40],[16,20],[37,-63],[11,-40],[18,-31],[45,19],[68,-100],[36,-31],[0,-18],[-30,-84]],[[6422,5679],[-11,1]],[[6346,5691],[29,40],[16,35],[-5,47],[15,27],[1,36],[-43,50],[13,15],[28,4],[2,-14],[40,15],[-18,16],[10,127],[-15,3],[4,52]],[[4569,8943],[-35,10],[-46,-18],[-40,67],[-97,90]],[[4320,9097],[-32,7],[4,51],[39,-1],[16,-13],[143,228],[39,-45]],[[4529,9324],[63,-80],[17,-54],[-4,-61]],[[5961,7334],[-248,-14]],[[4194,8093],[-96,89],[-57,36],[-116,59],[-21,22],[-13,46],[5,116],[76,167]],[[3972,8628],[86,-89],[25,-19],[56,-24],[84,-7]],[[4223,8489],[203,-26],[52,-13],[117,-72],[51,-35],[58,-14]],[[5345,7582],[55,-14],[0,229]],[[5521,7196],[-179,27],[0,77],[-32,2],[-24,36]],[[6139,5705],[5,-23]],[[6042,5325],[-31,13],[-3,105],[-71,79],[-30,14],[-75,6],[-13,41],[37,115],[48,0],[6,-15],[62,4],[1,-29],[81,8],[18,68],[67,-29]],[[5844,6810],[1,-99],[20,-84]],[[5865,6627],[-49,-22],[-43,-39],[-112,-88]],[[5661,6478],[-35,-3],[-141,-25],[-13,1],[-41,36],[-37,76]],[[5394,6563],[14,39]],[[6139,5705],[10,21],[19,6],[32,63],[77,171]],[[6277,5966],[36,78],[16,62],[7,54]],[[6299,6452],[-60,-133],[-39,-45],[-186,-193]],[[6014,6081],[-51,187]],[[5938,6357],[-37,133],[-36,137]],[[5865,6627],[27,9],[70,4],[21,-13],[61,-65],[17,-2],[7,86],[8,-2],[5,65],[103,12]],[[5033,8113],[-25,37],[-49,96]],[[5056,8402],[20,-42],[68,-88],[11,-34],[112,-112],[12,-8],[11,43],[31,-15],[16,-20],[66,-111]],[[7081,8091],[-17,14],[-18,56],[-58,-28],[-73,-68],[-70,-51],[9,-24],[-15,0]],[[6794,8113],[165,185],[100,105]],[[7059,8403],[38,-94],[9,-57],[-1,-61],[-24,-100]],[[5382,5723],[-54,-37],[-59,-84],[-31,33],[-44,14],[5,73],[19,183],[40,-9],[7,130],[96,7]],[[5361,6033],[-4,-85],[4,-120],[21,-105]],[[6277,5966],[-19,23],[9,21],[-63,59],[-15,-2],[-41,-77],[-46,57],[3,-44],[-84,-6],[-10,80]],[[6011,6077],[3,4]],[[5661,6478],[44,-144],[-10,-59],[-24,-74],[-13,-76]],[[5658,6125],[-3,-8],[-62,-12],[-3,-60],[26,-28],[-41,-3],[2,119],[-78,5],[-2,-123],[-38,-2],[0,-28],[63,-1],[1,-67],[100,1],[0,-102],[-67,-3],[0,-36],[12,-32],[24,-11]],[[5592,5734],[-84,-12],[-59,-1],[-35,6],[-32,-4]],[[5361,6033],[7,153],[1,82],[24,246]],[[5393,6514],[1,49]],[[5668,4061],[-5,-193],[-7,-175],[-25,-129],[-51,-211],[-51,-104],[-22,-53],[-78,-261]],[[5429,2935],[-32,-89],[-44,-82],[-2,-41],[-36,-82],[-12,-40],[-5,-106],[12,-206],[0,-22],[-122,44],[-33,-173]],[[4810,2304],[2,203],[51,-3],[0,-126],[125,-11],[37,152],[142,545],[79,207],[80,185],[46,121],[8,4],[70,231],[23,131],[20,162],[83,631]],[[5576,4736],[27,12],[59,-48],[33,-74],[106,-115]],[[4207,8921],[-13,-52]],[[4194,8869],[-67,-27],[29,84],[-65,58],[19,9],[30,38]],[[4140,9031],[27,30],[-4,31],[25,58],[50,-43],[18,-25]],[[6683,7221],[0,75],[23,2],[43,34],[20,6],[66,46],[-1,42]],[[6899,7335],[-63,-130],[-22,-75]],[[6638,6985],[-59,8],[-58,-1],[-25,27]],[[6773,6938],[-1,-20],[21,-266]],[[6723,6735],[-17,35],[-119,32]],[[6920,7440],[11,-49],[-3,-70],[66,-26]],[[6994,7295],[-80,-125],[-25,-89],[-14,-127],[5,-61],[20,-181],[14,-89],[19,-28],[11,-91],[-47,-117],[-29,-113]],[[4573,8850],[-32,32],[-21,35],[-61,-34],[38,-63],[-9,-8],[-21,30],[-109,-109],[-1,-58],[-8,-74],[61,-7],[23,-16],[-12,-26],[36,-38],[45,-39],[48,86],[56,-49],[29,52],[3,-10],[3,-183],[105,1],[8,36],[-11,55],[17,10],[17,-16],[7,15]],[[4828,8367],[-36,-5],[-27,-17]],[[4223,8489],[3,188],[82,-4],[3,73],[-147,4],[-2,58],[-8,30],[42,22],[-2,9]],[[5576,4736],[41,248],[78,275],[77,255],[0,9],[42,139],[-2,2]],[[5812,5664],[36,123],[35,137],[51,73],[77,80]],[[5658,6125],[-10,-26],[51,-51],[-22,-44],[15,-18],[-30,-65],[31,-32],[-12,-94]],[[5681,5795],[-15,-65],[-11,-11],[-63,15]],[[3541,9631],[-9,-41],[68,-117],[45,-46],[58,-31],[31,-27],[35,-58],[73,-20],[17,-32],[119,-91]],[[3978,9168],[-24,-56]],[[3954,9112],[-69,-169],[-52,48],[-15,-91],[36,-36],[6,15],[84,-25],[-4,-29],[-63,-89]],[[3877,8736],[-41,41],[-198,177],[-39,33],[-128,67],[-89,43],[-19,21],[-43,69],[-95,177],[-19,43],[-51,99]],[[3155,9506],[4,4],[122,213],[36,13],[49,103]],[[5509,8581],[-3,-54]],[[5028,8669],[4,2],[12,112],[15,70],[63,75],[29,23],[54,4],[17,33],[34,-20],[45,1],[-5,-49],[27,-105],[33,-162],[15,-32],[36,-36],[26,-11],[50,-3],[26,10]],[[4529,9324],[10,12],[59,3],[103,15],[-30,-138]],[[3972,8628],[-95,108]],[[3954,9112],[106,-100],[-31,-77],[36,-33],[-17,-45],[-5,-57],[-30,-79],[-41,-93]],[[5393,6514],[-33,15],[-58,46],[-10,-86],[-26,11],[-19,89],[-19,39],[-15,77],[8,63],[12,14],[-15,27]],[[5550,2358],[-43,-55],[-19,-63],[4,-73],[-14,-64],[-1,-34],[11,-57],[-41,-15],[-5,-32],[9,-70],[-22,-40],[-48,-25],[-45,-44],[-49,11],[-103,52],[-70,59],[-57,54]],[[5429,2935],[90,-39],[88,37],[32,-4],[20,-26],[-29,-84],[-46,-174],[-20,-52],[-32,-18],[-6,-69],[18,-134],[6,-14]],[[5550,2358],[86,-14],[97,-49],[30,4],[-6,62],[24,18],[41,-59],[2,-30],[-14,-62],[5,-20],[39,-38],[3,-13],[-29,-98],[-8,-16],[-104,-12],[-4,-6],[2,-139],[-17,-5],[18,-82],[8,-83],[-1,-41],[25,31],[20,-60],[11,-73],[13,-38],[-14,-21],[-74,-9],[37,-47],[37,-58],[-38,-77],[-32,43],[3,104],[-31,42],[-19,-71],[-22,20],[-104,53],[10,61],[-25,-10],[-56,14],[-16,-70],[0,-36],[-84,33],[2,95],[-52,24],[-3,-52],[-63,29],[2,15],[-37,15],[-5,-20],[-129,63],[-44,26],[-58,24],[-3,8],[-124,77],[37,153],[-202,117],[130,133]],[[5812,5664],[-59,35],[22,78],[-87,21],[-7,-3]],[[3978,9168],[5,6],[50,136],[105,-103],[-53,-131],[55,-45]],[[4077,7617],[-57,15],[-38,-4],[-86,23],[-34,23],[-90,39],[-42,-40],[-13,-21],[-93,-36],[-52,-3],[-72,13],[-29,-7],[-86,-47],[-52,-74],[-49,-42],[-79,-100],[-23,-20],[-32,-1],[-102,-27],[-92,3],[68,1180],[22,359],[21,377],[22,407],[66,-128]],[[6880,5519],[0,-43],[-25,-33],[-27,-171],[-56,8],[-6,-18],[-33,-17],[-10,-28],[-52,21],[-21,-25]],[[7236,8013],[-48,1],[-140,-31]],[[7048,7983],[33,108]],[[7059,8403],[69,58],[26,9],[30,-7],[34,-23],[26,-97],[-11,-37],[-29,-31],[-13,5],[-25,-35],[23,-114],[-40,-67],[8,-36],[31,7],[76,-2],[2,-11],[-30,-9]],[[5509,8581],[62,36],[104,89],[92,102],[70,118],[40,42],[60,20],[75,-100],[30,-58]],[[7754,521],[-15,-108],[23,-15],[23,3],[2,-45],[-27,-17],[-10,-20],[-6,-67],[-11,-2],[1,54],[-19,35],[1,53],[11,25],[8,65],[22,97],[15,-21],[-18,-37]],[[7659,0],[-11,1],[0,55],[-16,13],[22,52],[18,23],[36,-6],[-31,-32],[-10,-35],[-8,-71]],[[7725,152],[0,0]],[[9982,3269],[17,-71],[-47,-32],[-5,19],[-33,-29],[-32,51],[37,14],[-7,34],[-74,6],[-1,57],[54,57],[-12,11],[-13,73],[6,19],[52,30],[9,39],[66,-30],[-21,-114],[-2,-52],[6,-82]],[[465,4478],[-4,-60]],[[461,4418],[-91,3],[-23,5],[-95,43],[-44,-8],[-41,-27],[-31,-70],[-68,-74],[-52,63],[8,12],[-24,78],[93,80],[146,169],[2,-149],[46,-2],[58,-14],[-4,-36],[43,-4],[1,-8],[80,-1]],[[7032,7866],[-17,-4]],[[7048,7983],[-10,-30],[-3,-56]],[[7035,7897],[-3,-31]],[[7015,7862],[17,4]],[[7032,7866],[3,31]],[[7236,8013],[15,-59],[-11,-23],[12,-109],[-31,-20],[-20,-88],[20,-34],[26,7],[29,-24],[20,-4],[6,-22],[-28,-46],[-52,-44],[-10,-23],[-39,-33],[11,-123],[-27,-10],[3,-21],[-13,-38],[-35,11],[-28,-28],[-16,-2],[-63,35],[-11,-20]],[[2247,8970],[65,-3],[0,-35],[-32,11],[-50,2],[-38,-14],[-11,-34],[-48,23],[25,25],[42,82],[31,-1],[15,-22],[1,-34]],[[2429,9034],[-24,9],[3,15],[21,-24]],[[2389,9045],[-59,-67],[0,41],[26,15],[30,31],[3,-20]],[[816,4758],[-10,-19],[5,-62],[-12,-24],[-34,20],[-13,-33],[36,-30],[-10,-93],[-22,-83],[-23,-36],[-76,69],[14,17],[54,114],[2,18],[-20,28],[16,29],[14,-18],[12,28],[3,90],[65,-7],[-1,-8]],[[465,4478],[60,16],[27,39],[63,0],[20,-75],[-83,-27],[-91,-13]],[[791,4919],[108,0],[-12,-63],[-34,13],[-30,-3],[-19,-37],[-24,5],[-2,-29],[-35,11],[0,52],[34,3],[-6,48],[20,0]]]}
