{"type":"Topology","bbox":[-76.47591940243319,3.3172266845935323,-76.2966412053994,3.4675154957680583],"transform":{"scale":[0.00001792961266464602,0.000015030384155868185],"translate":[-76.47591940243319,3.3172266845935323]},"objects":{"municipios":{"type":"GeometryCollection","geometries":[{"type":"Polygon","arcs":[[0]]},{"type":"Polygon","arcs":[[1,2,3,4,5]]},{"type":"Polygon","arcs":[[6,7,8,9]]},{"type":"Polygon","arcs":[[10,11,12,13]]},{"type":"MultiPolygon","arcs":[[[14,15,16]],[[17]],[[18]]]},{"type":"Polygon","arcs":[[19,20,-8,21]]},{"type":"Polygon","arcs":[[22,23,-22,-7,24,25]]},{"type":"Polygon","arcs":[[26]]},{"type":"Polygon","arcs":[[27,28,29]]},{"type":"Polygon","arcs":[[-29,30,31,32,33]]},{"type":"Polygon","arcs":[[34,-33]]},{"type":"Polygon","arcs":[[35]]},{"type":"Polygon","arcs":[[36]]},{"type":"Polygon","arcs":[[37]]},{"type":"Polygon","arcs":[[38,-31,-28]]},{"type":"Polygon","arcs":[[39]]},{"type":"Polygon","arcs":[[40,41,-12,42,-5]]},{"type":"Polygon","arcs":[[43]]},{"type":"Polygon","arcs":[[44]]},{"type":"Polygon","arcs":[[45,-17,46]]},{"type":"Polygon","arcs":[[47,48,49,-47,-16,50]]},{"type":"Polygon","arcs":[[-48,51,52]]},{"type":"Polygon","arcs":[[-49,-53,53]]},{"type":"Polygon","arcs":[[54,55,56]]},{"type":"Polygon","arcs":[[57]]},{"type":"Polygon","arcs":[[58,59]]},{"type":"Polygon","arcs":[[-60,60]]},{"type":"Polygon","arcs":[[61]]},{"type":"Polygon","arcs":[[62]]},{"type":"MultiPolygon","arcs":[[[63]],[[-24,64,65,-20]]]},{"type":"Polygon","arcs":[[66]]},{"type":"Polygon","arcs":[[67]]},{"type":"Polygon","arcs":[[68]]},{"type":"Polygon","arcs":[[69]]},{"type":"Polygon","arcs":[[70]]},{"type":"Polygon","arcs":[[71,72]]},{"type":"Polygon","arcs":[[73]]},{"type":"Polygon","arcs":[[74,75,76,77]]},{"type":"Polygon","arcs":[[-78,78]]},{"type":"Polygon","arcs":[[79,80]]},{"type":"Polygon","arcs":[[81,82,83]]},{"type":"Polygon","arcs":[[84]]},{"type":"Polygon","arcs":[[85,86,87,88,-3]]},{"type":"Polygon","arcs":[[89,90,91,-9,-21,-66,92,93,94,95]]},{"type":"Polygon","arcs":[[-90,96]]},{"type":"Polygon","arcs":[[97,98,99,100,101,102]]},{"type":"Polygon","arcs":[[103,-95,104,105]]},{"type":"Polygon","arcs":[[106,107,-101,108]]},{"type":"Polygon","arcs":[[-56,109,110,111]]},{"type":"Polygon","arcs":[[112,-84,113,114]]},{"type":"Polygon","arcs":[[115,116,117]]},{"type":"Polygon","arcs":[[118,119,120]]},{"type":"Polygon","arcs":[[-87,121,122,123]]},{"type":"Polygon","arcs":[[124,125,126,127,128]]},{"type":"Polygon","arcs":[[129,-121,130,131]]},{"type":"Polygon","arcs":[[-117,132,133,134,135]]},{"type":"Polygon","arcs":[[-72,136,-111,137,138]]},{"type":"Polygon","arcs":[[-130,139,-99,140,141,142,-119]]},{"type":"Polygon","arcs":[[143,144,145,-133,-116]]},{"type":"Polygon","arcs":[[146,-82,-113,147,-127]]},{"type":"Polygon","arcs":[[148,149,150,-14,151]]},{"type":"Polygon","arcs":[[152,-41,-4,-89]]},{"type":"Polygon","arcs":[[-142,153,154,155]]},{"type":"Polygon","arcs":[[-131,-120,-143,-156,156,157]]},{"type":"Polygon","arcs":[[158,159,-25,-10,-92,160]]},{"type":"Polygon","arcs":[[161,162,163,164]]},{"type":"Polygon","arcs":[[165,-165,166]]},{"type":"Polygon","arcs":[[-86,-2,167,-122]]},{"type":"Polygon","arcs":[[168,-159,169]]},{"type":"Polygon","arcs":[[-135,170]]},{"type":"Polygon","arcs":[[-94,171,172,-105]]},{"type":"Polygon","arcs":[[-149,173]]},{"type":"Polygon","arcs":[[174,175,-163]]},{"type":"Polygon","arcs":[[-145,176]]},{"type":"Polygon","arcs":[[177,-107]]},{"type":"Polygon","arcs":[[-125,178]]},{"type":"Polygon","arcs":[[179,-138,-110,-55]]},{"type":"Polygon","arcs":[[-106,-173,180]]},{"type":"Polygon","arcs":[[-76,181,-167,-164,-176,182]]},{"type":"Polygon","arcs":[[-141,-98,183,-154]]},{"type":"Polygon","arcs":[[-184,-103,184,-157,-155]]},{"type":"Polygon","arcs":[[185,-81,186,-26,-160,-169]]},{"type":"Polygon","arcs":[[-123,-168,-6,-43,-11,-151,187]]},{"type":"Polygon","arcs":[[-128,-148,-115,188]]}]}},"arcs":[[[1028,8829],[-5,52],[35,46],[124,-76],[-40,-68],[-103,58],[-11,-12]],[[7268,6050],[3,-106],[-8,-15]],[[7263,5929],[-26,10],[-35,-102],[-60,27]],[[7142,5864],[-61,29]],[[7081,5893],[64,206]],[[7145,6099],[123,-49]],[[5019,5201],[-32,63],[-43,21]],[[4944,5285],[55,168]],[[4999,5453],[98,-54]],[[5097,5399],[-54,-159],[-24,-39]],[[7170,6362],[-71,-245]],[[7099,6117],[-132,56]],[[6967,6173],[78,290]],[[7045,6463],[125,-101]],[[7067,312],[39,-32],[-61,13],[-5,-17],[-44,5],[-51,84],[-20,-12],[-11,48],[30,15]],[[6944,416],[15,-15]],[[6959,401],[108,-89]],[[6752,312],[-27,18],[28,25],[76,-14],[3,-22],[-80,-7]],[[6901,339],[-18,-8],[-1,46],[19,-38]],[[4612,5103],[25,79],[-4,99],[43,146],[37,59],[14,119]],[[4727,5605],[233,-127],[39,-25]],[[4944,5285],[-20,-62],[-52,-70],[-83,-32],[-51,-67],[-57,38],[-69,11]],[[4816,4791],[-83,-46],[-29,47],[-44,-14],[-29,67],[-52,-53],[-49,-31],[-20,63],[-65,68],[24,113],[18,6]],[[4487,5011],[86,-18],[11,18],[6,93],[22,-1]],[[5019,5201],[20,-29]],[[5039,5172],[-64,-24],[-15,-118],[-22,-45],[12,-47],[-77,-122],[-57,-25]],[[9775,9992],[2,4],[202,-71],[-9,-76],[29,-16],[-32,-27],[2,40],[-56,26],[-27,-49],[-65,6],[-19,-51],[-28,10],[6,33],[-39,15],[26,58],[-19,10],[3,95],[24,-7]],[[3534,4449],[-15,-6]],[[3519,4443],[-5,100]],[[3514,4543],[64,-22],[-3,78],[-15,24],[8,46],[42,-23],[-2,-45],[29,-37],[-43,-31],[5,-63],[-65,-21]],[[3519,4443],[-47,-48]],[[3472,4395],[-7,-6]],[[3465,4389],[-47,78]],[[3418,4467],[13,11],[13,62],[70,3]],[[3465,4389],[-42,-44],[9,-19],[-28,-33],[-23,7],[-73,78],[9,45],[32,7],[69,37]],[[8854,5625],[-41,16],[12,99],[-53,6],[-5,24],[102,-49],[-15,-96]],[[7298,4364],[-15,-90],[-61,-226],[-13,-77],[-136,-212],[-43,-45],[15,41],[-8,37],[-31,29],[12,18],[39,-13],[29,-32],[108,188],[40,161],[51,178],[-69,23],[5,25],[-54,8],[29,88],[110,-45],[-8,-56]],[[2977,5249],[-2,-45],[-53,25],[-66,12],[-6,-58],[-23,-44],[-38,39],[-25,-59],[-35,11],[-9,38],[16,107],[56,4],[14,75],[-26,140],[38,22],[19,-42],[1,48],[39,45],[27,-57],[16,78],[19,-14],[49,48],[18,-25],[0,-37],[-26,-79],[11,-28],[-46,-48],[-1,-33],[64,3],[16,-83],[-41,-2],[-6,-41]],[[3534,4449],[4,-64],[-8,-57],[37,-6],[16,-85],[-24,-54],[-45,12],[-15,-18],[14,-53],[-14,-24],[-28,15],[9,32],[26,7],[-12,40],[-44,8],[13,30],[-21,37],[59,27],[-34,-1],[22,53],[-17,47]],[[909,9188],[38,0],[-11,-87],[-19,-2],[-16,89],[8,0]],[[7081,5893],[-135,84]],[[6946,5977],[5,106],[16,90]],[[7099,6117],[46,-18]],[[5328,4509],[-17,-91],[2,-32],[124,6],[42,14],[8,-25],[40,17],[17,-22],[12,-58],[27,-11],[33,-84],[41,-9],[0,-33],[-31,-113],[-46,-66],[-93,46],[6,41],[-97,20],[-3,-50],[-82,39],[32,74],[-93,34],[-4,-28],[-32,-8],[-15,21],[-35,-3],[-25,26],[6,33],[82,-21],[-2,47],[37,-1],[15,45],[-45,43],[-35,9],[1,37],[70,-16],[16,98],[21,-3],[5,34],[18,-10]],[[6712,4693],[30,-12],[-4,-35],[58,-44],[-2,23],[39,-10],[30,-28],[5,-82],[-31,-10],[-62,-75],[-19,25],[47,61],[1,21],[-37,-27],[-20,35],[-26,-8],[13,35],[-27,29],[-56,3],[-20,54],[-58,18],[11,26],[-16,48],[2,78],[-34,27],[19,44],[150,-97],[-35,-49],[5,-25],[37,-25]],[[7123,467],[-3,-69],[-35,-14],[-18,-72]],[[6959,401],[10,74],[154,-8]],[[6933,561],[24,-48],[168,-13]],[[7125,500],[-1,-20]],[[7124,480],[-1,-13]],[[6944,416],[-37,48],[-19,77],[2,83],[-31,16],[14,60],[25,-4],[0,-47],[35,-88]],[[6933,561],[33,34],[40,-31],[59,19],[-2,31],[27,-2],[12,101],[36,5]],[[7138,718],[-12,-47],[-7,-90],[9,-1],[-3,-80]],[[7138,718],[35,8],[7,28],[46,-28],[53,-10],[-10,-79],[-37,-30],[-3,-28],[39,-17],[-19,-68],[-23,-21],[-102,7]],[[3488,5888],[-34,-13],[-108,40],[-42,-154],[-5,-42]],[[3299,5719],[-109,16],[-35,37],[-37,-38],[-32,48],[-12,49]],[[3074,5831],[-3,31],[25,61],[37,58],[19,-9],[-7,-32],[77,-10],[1,30],[84,-31],[33,112],[35,84],[-24,17],[19,49],[174,-73],[-15,-49],[-12,-95],[-29,-86]],[[7543,8691],[-53,-156],[-166,41],[36,57],[50,-16],[25,-27],[15,41],[42,-14],[17,25],[-22,10],[5,37],[42,19],[9,-17]],[[2769,2074],[-27,-59],[-22,-10],[14,55],[-33,11],[-35,-9],[-1,45],[-32,-3],[4,-31],[-19,-14],[-57,-6],[-13,-38],[-5,62],[87,27],[-6,49],[38,29],[18,69],[-41,-12],[12,51],[32,-13],[32,-35],[38,62],[18,-14]],[[2771,2290],[47,-27],[-31,-131],[-16,7],[-2,-65]],[[2771,2290],[10,11],[126,-59],[-47,-136],[82,-42],[1,-15],[-55,34],[-78,9],[-41,-18]],[[2772,2423],[70,-35],[9,-21],[-53,-51],[-63,125],[37,-18]],[[181,8995],[-37,-77],[14,-6],[73,38],[31,-64],[6,-80],[139,-65],[46,-4],[17,-28],[-86,-63],[-44,-45],[-43,-1],[-24,-73],[-18,-145],[-25,-14],[13,52],[-48,48],[-56,-31],[-4,-23],[-69,-18],[-20,8],[-9,50],[14,115],[27,101],[-7,74],[-57,81],[-14,59],[6,76],[51,-6],[27,37],[97,4]],[[4400,5526],[-25,-57],[-19,7],[13,33],[-28,13],[-24,-17],[19,70],[64,-49]],[[4487,5011],[1,99],[-8,40],[-25,12],[14,44],[-16,3],[0,51],[41,-3],[10,36],[-93,43],[-13,-97],[-19,1],[4,-51],[-22,-49],[-52,37],[6,76],[38,8],[37,136],[14,14],[96,-60],[14,18],[46,-37],[20,15],[-24,17],[16,21],[49,-9],[24,33],[-89,23],[8,43],[-64,45],[-81,43],[58,105],[19,57],[56,-23]],[[4552,5702],[175,-97]],[[8120,4208],[48,-51],[53,30],[-8,-36],[48,-71],[49,46],[24,-6],[-14,-32],[61,-32],[-30,-55],[39,-31],[69,-17],[-26,-49],[-75,19],[-60,-85],[-21,-16],[-41,44],[-58,42],[81,139],[-93,74],[-42,56],[-34,66],[34,24],[16,-17],[-20,-42]],[[5592,7759],[39,-7],[11,33],[15,-26],[-18,-21],[-108,18],[-83,48],[-58,75],[-4,20],[74,-87],[33,-24],[99,-29]],[[874,8792],[26,-67],[-44,-41],[-22,-36],[42,-39],[3,-42],[-17,-76],[52,-15],[71,-117],[15,-74],[43,1],[66,-25],[22,-34],[-28,-26],[-39,-103],[10,-71],[20,-8],[-31,-151],[-20,12],[-27,-34],[-69,-55],[-11,10],[16,189],[1,60],[-15,87],[-29,67],[-143,224],[-75,-95],[-85,44],[28,63],[16,0],[80,41],[64,12],[0,27],[-92,31],[-14,-8],[-30,51],[26,47],[58,43],[28,32],[-14,27],[20,27],[28,-19],[37,45],[33,-4]],[[987,7260],[-2,-42],[-28,-238],[-114,-11],[45,108],[-49,44],[36,139],[112,0]],[[7237,157],[68,-56],[11,19],[28,-21],[-16,-17],[49,-69],[-16,-13],[-36,31],[-3,-18],[-88,79],[-18,9],[2,36],[-29,62],[48,-42]],[[3314,5257],[56,-13]],[[3370,5244],[1,-55],[-15,-108],[-18,-51],[2,-38],[80,-122],[-3,-43],[-27,-31],[-58,62],[-3,45],[19,31],[-43,14],[-3,32],[-81,12],[-5,75],[26,0],[-8,-37],[26,-10],[4,31],[31,-5],[9,34],[20,3],[4,48],[-15,2],[8,46],[-49,8],[3,30],[-33,-9],[-1,64],[73,-15]],[[7220,1066],[36,16],[37,-56],[72,63],[33,-4],[24,-44],[30,-23],[-4,-24],[27,-26],[-25,-19],[40,-18],[-30,-118],[-157,27],[-5,-44],[-40,4],[-20,-64],[-62,35],[4,48],[-44,10],[10,30],[-76,39],[8,28],[-56,34],[-17,-22],[-49,29],[6,48],[65,-6],[52,-24],[52,-44],[25,82],[-12,20],[11,81],[46,-17],[19,-41]],[[4463,5790],[26,-49],[-180,76],[-17,48],[-59,-13],[-89,33],[39,163],[-90,54],[11,161],[141,-10]],[[4245,6253],[75,-14]],[[4320,6239],[21,-1],[78,-45],[6,-14]],[[4425,6179],[-52,-120],[-17,-89],[-12,-25],[41,-84],[78,-71]],[[4425,6179],[62,-2],[22,-49],[23,-83],[-69,-255]],[[5192,4776],[27,-185],[-36,-3],[-50,15],[33,86],[-68,31],[26,65]],[[5124,4785],[23,-13],[45,4]],[[1953,5747],[-233,7]],[[1720,5754],[-62,3],[-31,17],[3,143],[323,-11]],[[1953,5906],[0,-159]],[[6885,4268],[-5,106],[42,1],[11,18],[57,-15],[-61,-112],[-44,2]],[[7263,5929],[46,-251]],[[7309,5678],[28,-127],[1,-71]],[[7338,5480],[-26,6],[-3,38],[-46,100],[-54,51],[-44,25],[-71,6]],[[7094,5706],[48,158]],[[5388,5827],[-142,-279],[77,-32],[108,-18]],[[5431,5498],[68,-15],[74,-40],[64,-19],[-32,-33],[-79,-133],[-42,-35]],[[5484,5223],[-180,67],[-207,109]],[[4552,5702],[1,14],[102,-16],[38,38],[11,45],[15,-1],[-38,-149],[176,-97],[27,40]],[[4884,5576],[62,-47],[108,-47]],[[5054,5482],[79,29],[184,357]],[[5317,5868],[51,-13],[20,-28]],[[5388,5827],[24,-1],[29,46],[61,-58],[-45,-73],[-49,46],[-47,-90],[144,-69],[-11,-59],[-69,27],[21,-25],[-15,-73]],[[846,6139],[0,-45],[123,-1],[39,-21],[-6,-19],[74,-34]],[[1076,6019],[63,-31]],[[1139,5988],[-152,-130]],[[987,5858],[-177,19]],[[810,5877],[29,109],[-65,1],[-1,51],[-105,45],[-16,39],[9,32]],[[661,6154],[43,-25],[-3,-13],[54,-24],[28,2],[13,46],[50,-1]],[[5147,5998],[22,-4],[3,-40],[68,-21],[43,-27],[34,-38]],[[5054,5482],[38,212]],[[5092,5694],[55,304]],[[951,5708],[-217,-16],[-18,4],[-78,78]],[[638,5774],[68,77],[93,1],[11,25]],[[987,5858],[-10,-21],[-26,-129]],[[3299,5719],[1,-46],[-17,-43],[22,-13],[-8,-82]],[[3297,5535],[-50,11],[-11,-93]],[[3236,5453],[-73,-16],[-110,-13],[28,88],[-25,-12],[58,81],[49,22],[14,24],[-26,35],[-21,-8],[-25,-65],[-17,-5],[-9,57],[-23,32],[-65,-48],[-30,145],[-60,5],[-10,83],[54,-18],[12,-22],[57,-2],[17,-19],[43,34]],[[2068,5742],[-115,5]],[[1953,5906],[116,-5]],[[2069,5901],[-1,-159]],[[1058,5457],[16,38],[172,84]],[[1246,5579],[30,-81]],[[1276,5498],[-196,-97],[-22,56]],[[1218,6141],[-70,1],[1,218]],[[1149,6360],[70,0]],[[1219,6360],[-1,-219]],[[7309,5678],[26,5],[99,288],[-113,58]],[[7321,6029],[14,128],[-12,65]],[[7323,6222],[26,6],[56,-35],[5,-45],[33,-30],[71,-11],[44,11],[-62,-178],[7,-3],[-134,-393],[-10,-69],[-21,5]],[[2155,5592],[-10,-48]],[[2145,5544],[-176,50]],[[1969,5594],[20,94],[101,-18],[0,71]],[[2090,5741],[94,-3]],[[2184,5738],[-29,-146]],[[1245,6141],[-27,0]],[[1219,6360],[78,-10]],[[1297,6350],[-46,-169],[-6,-40]],[[1246,5579],[-49,149]],[[1197,5728],[148,11]],[[1345,5739],[16,-116],[1,-86]],[[1362,5537],[-86,-39]],[[3314,5257],[2,42],[-14,102],[-42,9],[-29,-12],[5,55]],[[3297,5535],[57,-14],[22,43],[18,68],[95,-8]],[[3489,5624],[1,-104],[64,-49],[82,-81],[-41,-117],[-47,23],[-93,4],[-13,-65],[-72,9]],[[1245,6141],[-24,-77],[-75,-88],[-7,12]],[[1076,6019],[0,53],[-18,0],[1,50],[18,0],[1,93]],[[1078,6215],[-1,147]],[[1077,6362],[72,-2]],[[1058,5457],[-66,51],[-11,32],[73,111],[20,70]],[[1074,5721],[122,7]],[[1196,5728],[1,0]],[[1969,5594],[-249,73],[0,87]],[[2068,5742],[22,-1]],[[7189,6559],[28,-129],[65,-56]],[[7282,6374],[-4,-9]],[[7278,6365],[-19,-60],[-45,19],[-44,38]],[[7045,6463],[7,71],[-5,38],[129,17],[13,-30]],[[7094,5706],[-89,25],[-78,83],[19,163]],[[1078,6215],[-230,0]],[[848,6215],[2,150]],[[850,6365],[227,-3]],[[850,6365],[-52,0]],[[798,6365],[48,38],[61,35],[23,37],[59,2],[18,-41],[47,-26],[40,89],[188,-128],[15,-21]],[[5221,5107],[-43,11]],[[5178,5118],[-76,39],[-45,36],[-18,-21]],[[5484,5223],[9,-47],[-10,-62],[-142,-24],[-120,17]],[[3972,6554],[-101,69]],[[3871,6623],[79,170]],[[3950,6793],[29,-19],[40,-46],[18,-38]],[[4037,6690],[-65,-136]],[[4024,6525],[-52,29]],[[4037,6690],[52,-72],[54,-9],[-14,-27],[-19,-84],[-86,27]],[[7268,6050],[53,-21]],[[5190,4809],[-45,156],[33,153]],[[5221,5107],[-20,-81],[-43,-12],[-10,-71],[18,-48],[132,40],[10,-60],[-101,-34],[-17,-32]],[[1345,5739],[210,16],[-58,-268],[-135,50]],[[4884,5576],[-18,37],[18,68],[-11,4],[16,64]],[[4889,5749],[203,-55]],[[7189,6559],[90,-8],[136,-51],[-17,-94],[-18,-38],[-26,-96],[-41,18],[-4,70],[-21,39],[-6,-25]],[[3871,6623],[-41,28],[10,156],[-7,113],[65,18],[28,-50],[-6,-16]],[[3920,6872],[-17,-21],[47,-58]],[[1074,5721],[-16,101],[8,29],[43,35],[122,-54],[-35,-104]],[[951,5708],[-32,-164],[10,-60],[45,-56],[-19,-10],[-104,-2],[-56,-95],[-56,-31],[-71,163],[-41,64],[-46,131],[3,62],[54,64]],[[2155,5592],[362,-99],[-7,-50],[-365,101]],[[3488,5888],[7,-48],[-6,-76],[63,2],[-13,-69],[-30,-66],[-20,-7]],[[4889,5749],[35,132],[35,25],[14,-8],[7,41],[22,-5],[12,67],[35,-8],[33,47],[38,-9],[27,-33]],[[4245,6253],[10,144],[-257,22],[26,106]],[[3920,6872],[28,-19],[22,-41],[63,-39],[60,-117],[40,-18],[76,-15],[51,-38],[27,2],[11,-33],[-5,-96],[20,-38],[0,-48],[38,-53],[0,-29],[-31,-51]],[[846,6139],[2,76]],[[661,6154],[-38,27],[16,56],[96,58],[63,70]],[[5190,4809],[2,-33]],[[5124,4785],[-111,37],[-20,-48],[-17,6],[-47,-54],[-17,-40],[-71,6],[-25,99]],[[7278,6365],[12,-15],[0,-59],[33,-69]],[[2069,5901],[134,-4],[9,-11],[-28,-148]]]}
