{"type":"Topology","bbox":[-76.57098513223542,3.490506389108013,-76.45482243410515,3.6940873612976253],"transform":{"scale":[0.000011617431556182365,0.000020360133232284476],"translate":[-76.57098513223542,3.490506389108013]},"objects":{"municipios":{"type":"GeometryCollection","geometries":[{"type":"Polygon","arcs":[[0,1,2]]},{"type":"Polygon","arcs":[[3,4,5,6,7]]},{"type":"Polygon","arcs":[[8,9,10,-8,11,12]]},{"type":"Polygon","arcs":[[13,14,-13,15,16]]},{"type":"Polygon","arcs":[[17,18,-14,19,20]]},{"type":"Polygon","arcs":[[21,22,23,-21,24]]},{"type":"Polygon","arcs":[[-22,25]]},{"type":"Polygon","arcs":[[26,27,28,29,30,31]]},{"type":"Polygon","arcs":[[32,33,34,35,-29]]},{"type":"Polygon","arcs":[[36,37,38,39,-35]]},{"type":"Polygon","arcs":[[40,41,42,43,44,45,46]]},{"type":"Polygon","arcs":[[47,-45,48,49,50,51]]},{"type":"Polygon","arcs":[[-49,-44,52,53,54]]},{"type":"Polygon","arcs":[[55,-46,-48,56,57]]},{"type":"Polygon","arcs":[[58,59]]},{"type":"Polygon","arcs":[[60,-58,61,-28,62,-59,63,64]]},{"type":"Polygon","arcs":[[65,66,67,68]]},{"type":"Polygon","arcs":[[69,70,-66]]},{"type":"Polygon","arcs":[[71,72,73]]},{"type":"Polygon","arcs":[[74,75,-72,76]]},{"type":"Polygon","arcs":[[77,78,79,80]]},{"type":"Polygon","arcs":[[81,-1,82,-81]]},{"type":"Polygon","arcs":[[83]]},{"type":"Polygon","arcs":[[84]]},{"type":"Polygon","arcs":[[85]]},{"type":"Polygon","arcs":[[86]]},{"type":"Polygon","arcs":[[87,88,89]]},{"type":"Polygon","arcs":[[90,91,92,93]]},{"type":"Polygon","arcs":[[-73,-76,94,95,96,97]]},{"type":"Polygon","arcs":[[98,99,-5,100,101,102,103,-94,104,105]]},{"type":"Polygon","arcs":[[106,-39,107,108,109,-91,-104]]},{"type":"Polygon","arcs":[[-109,110,-88,111]]},{"type":"Polygon","arcs":[[-105,-93,112]]},{"type":"Polygon","arcs":[[-99,113]]},{"type":"Polygon","arcs":[[-16,-12,-7,114]]},{"type":"Polygon","arcs":[[-11,115,-101,-4]]},{"type":"Polygon","arcs":[[116,117,118,-9,-15,-19,119]]},{"type":"Polygon","arcs":[[-10,-119,120,121,-102,-116]]},{"type":"Polygon","arcs":[[-120,-18,-24,122,123]]},{"type":"Polygon","arcs":[[124,125,126,127,128]]},{"type":"Polygon","arcs":[[129,-32,130,-124,131]]},{"type":"Polygon","arcs":[[132,-40,-107,-103,-122]]},{"type":"Polygon","arcs":[[-30,-36,-133,-121,-118,133]]},{"type":"Polygon","arcs":[[-31,-134,-117,-131]]},{"type":"Polygon","arcs":[[-50,-55,134,-89,-111,-108,-38,135]]},{"type":"Polygon","arcs":[[136,-51,-136,-37,-34]]},{"type":"Polygon","arcs":[[-43,137,-128,138,-53]]},{"type":"Polygon","arcs":[[-57,-52,-137,-33,-62]]},{"type":"Polygon","arcs":[[-61,139,-47,-56]]},{"type":"Polygon","arcs":[[140,141,-68,142,143,144,-64,-60,-63,-27,-130,145]]},{"type":"Polygon","arcs":[[146,147,148,149]]},{"type":"Polygon","arcs":[[150,151,-150]]},{"type":"Polygon","arcs":[[-67,-71,152,153,-147,-152,154,155,156,157,-143]]},{"type":"Polygon","arcs":[[-158,158,-144]]},{"type":"Polygon","arcs":[[-153,-70,-69,-142,159]]},{"type":"Polygon","arcs":[[-148,-154,-160,-141,160]]},{"type":"Polygon","arcs":[[-129,-138,-42,161]]},{"type":"Polygon","arcs":[[-145,-159,-157,162,163,-77,-74,-98,164,-125,-162,-41,-140,-65]]},{"type":"Polygon","arcs":[[165,166,167,-79,168]]},{"type":"Polygon","arcs":[[-165,-97,169,-126]]},{"type":"Polygon","arcs":[[-80,-168,170,171,172,173]]},{"type":"Polygon","arcs":[[-174,174,175,176,177,-82]]},{"type":"Polygon","arcs":[[-178,178,-95,-75,-164,-2]]},{"type":"Polygon","arcs":[[-172,179,180]]},{"type":"Polygon","arcs":[[181,182,183,184]]},{"type":"Polygon","arcs":[[185,186,187,188,189,190,-180,-171,-167]]},{"type":"Polygon","arcs":[[191,192,193,-166]]},{"type":"Polygon","arcs":[[194,195,196,-186,-194]]},{"type":"Polygon","arcs":[[-184,197,-193,198,199]]},{"type":"Polygon","arcs":[[200,201,202,-183]]},{"type":"Polygon","arcs":[[-203,203,204,205,-195,-198]]},{"type":"Polygon","arcs":[[-202,206,-204]]},{"type":"Polygon","arcs":[[207,-199,-192,-169,-78,-83,-3,-163,-156,208]]},{"type":"Polygon","arcs":[[209]]},{"type":"Polygon","arcs":[[210,-185,-200,-208]]},{"type":"Polygon","arcs":[[-96,-179,-177,211,212]]},{"type":"Polygon","arcs":[[-176,213,-212]]},{"type":"Polygon","arcs":[[214]]},{"type":"Polygon","arcs":[[215]]},{"type":"Polygon","arcs":[[216]]},{"type":"Polygon","arcs":[[217]]},{"type":"Polygon","arcs":[[-206,218,-196]]},{"type":"Polygon","arcs":[[219]]},{"type":"Polygon","arcs":[[220]]},{"type":"MultiPolygon","arcs":[[[-190,221]],[[-188,222]]]}]}},"arcs":[[[6965,3120],[-426,91]],[[6539,3211],[78,126],[23,24],[65,42],[37,17]],[[6742,3420],[142,-90],[31,-30],[42,-72],[12,-35],[-4,-73]],[[6744,4920],[-97,3],[-119,10],[-43,-1],[-78,-6]],[[6407,4926],[-6,42]],[[6401,4968],[0,8]],[[6401,4976],[60,6],[88,3],[65,-4],[6,55],[140,-6]],[[6760,5030],[-16,-110]],[[7092,4821],[-36,-38],[-143,-1],[-131,-4]],[[6782,4778],[-62,-5]],[[6720,4773],[15,110],[9,37]],[[6760,5030],[57,-1],[-5,-73],[27,-27],[7,-24]],[[6846,4905],[48,-34],[-2,-24],[40,-8],[16,-28],[27,-11],[35,18],[46,-9],[10,17],[26,-5]],[[7112,4902],[-7,-28],[3,-39]],[[7108,4835],[-16,-14]],[[6846,4905],[69,31]],[[6915,4936],[34,-29],[52,-12],[-4,-16],[49,-5],[23,30],[43,-2]],[[7421,4993],[-41,-34],[-32,-15],[-209,-85],[-29,-29]],[[7110,4830],[-2,5]],[[7112,4902],[10,23],[23,35],[64,81],[32,48]],[[7241,5089],[91,-11],[-41,-54],[130,-31]],[[7457,5306],[-41,-43],[-56,-90],[15,-5],[163,-32]],[[7538,5136],[-57,-72],[-12,-21]],[[7469,5043],[-13,-2],[-35,-48]],[[7241,5089],[-3,15],[-27,36],[-9,21],[6,35],[28,72],[24,17],[36,13],[32,17],[129,-9]],[[7457,5306],[128,-1],[9,-37],[0,-28],[-13,-48],[-43,-56]],[[7235,4476],[15,-41],[-147,12]],[[7103,4447],[-136,12]],[[6967,4459],[23,82],[-136,13]],[[6854,4554],[12,41]],[[6866,4595],[194,-20],[146,-14]],[[7206,4561],[29,-85]],[[6967,4459],[-213,21]],[[6754,4480],[-68,7],[-146,11]],[[6540,4498],[14,67],[7,17]],[[6561,4582],[79,-6],[214,-22]],[[6540,4498],[-140,10],[-124,4],[-89,1]],[[6187,4513],[-1,24]],[[6186,4537],[-27,22],[-4,28],[13,21],[-17,6],[66,2]],[[6217,4616],[198,-19],[146,-15]],[[6514,4076],[-60,-7],[-19,-12],[-9,-40]],[[6426,4017],[-6,-11],[-41,11]],[[6379,4017],[15,17],[16,55],[12,24],[-35,17],[-36,55],[-9,43],[29,4]],[[6371,4232],[53,-1]],[[6424,4231],[88,-7]],[[6512,4224],[80,-12]],[[6592,4212],[-15,-51],[5,-1],[-8,-58],[-44,11],[-6,-26],[-10,-11]],[[6704,4318],[-77,8],[-67,9],[-28,-75],[-20,-36]],[[6424,4231],[5,60],[-48,-5],[2,39],[9,40]],[[6392,4365],[2,30],[-6,35]],[[6388,4430],[154,-16],[184,-21]],[[6726,4393],[-22,-75]],[[6371,4232],[7,31],[-77,-1],[-36,-4],[-4,13],[-25,21],[-1,-34],[-9,-13],[6,-19],[18,-16],[-64,-20],[-28,5]],[[6158,4195],[8,21],[-28,36],[8,16],[-8,13],[-5,37],[-14,7],[-15,28],[3,18],[-38,20]],[[6069,4391],[55,22],[32,21],[42,6],[5,-35],[16,-53],[23,3],[150,10]],[[6893,4172],[-18,9],[-43,-29],[-53,23],[-77,15],[-68,16],[-42,6]],[[6704,4318],[218,-22]],[[6922,4296],[-29,-112],[0,-12]],[[7038,4127],[-21,7],[5,12],[42,147],[21,84]],[[7085,4377],[118,-10],[-8,-19],[-54,-35],[-17,-39],[25,-2],[-3,-19],[-108,-126]],[[6892,4161],[1,11]],[[6922,4296],[45,163]],[[7103,4447],[-18,-70]],[[7038,4127],[17,-6],[-24,-12]],[[7031,4109],[-24,-15],[-33,10],[-7,-6],[-65,19],[1,21],[-11,23]],[[7564,4020],[-4,10],[-34,-4],[7,-23],[-100,-12]],[[7433,3991],[-29,81]],[[7404,4072],[157,18]],[[7561,4090],[24,-67],[-21,-3]],[[7564,4020],[5,-12],[21,3],[30,-85]],[[7620,3926],[-161,-10],[-26,75]],[[6888,3656],[-37,-5],[-44,-11],[-68,-36],[-58,-19],[-49,-27],[-12,-13],[-24,-5]],[[6596,3540],[-74,22],[87,56],[40,38],[45,32]],[[6694,3688],[65,11],[27,-2],[44,9],[35,-10],[41,-24],[-18,-16]],[[6625,3509],[-20,18]],[[6605,3527],[-9,13]],[[6888,3656],[35,0],[-6,-93],[-148,-1],[-37,-2],[-52,-12],[-3,-17],[-20,-18],[-32,-4]],[[6929,2742],[33,-4],[25,-16],[7,-14],[-5,-21],[-31,-16],[-37,-3],[-5,-20],[-57,-97]],[[6859,2551],[-180,79],[-447,97]],[[6232,2727],[86,138]],[[6318,2865],[355,-71],[32,-24],[44,-44],[69,-12],[46,10],[28,12],[37,6]],[[6318,2865],[142,227],[79,119]],[[6965,3120],[-12,-101],[-14,-75],[-8,-106],[-2,-96]],[[2872,6736],[47,8],[35,-40],[20,-32],[-64,6],[-8,-18],[-42,-16],[-13,-24],[20,-8],[-8,-10],[-29,-2],[-13,7],[-26,-9],[-46,-2],[-58,3],[-113,27],[16,23],[-7,23],[25,10],[34,-22],[42,1],[36,5],[21,19],[3,20],[43,33],[28,6],[21,17],[19,1],[17,-26]],[[368,3658],[11,-22],[-36,-22],[54,-16],[2,-16],[-24,-33],[-11,5],[-65,5],[-57,-2],[-19,11],[24,28],[19,6],[-39,13],[-62,31],[-13,-11],[-18,15],[-27,2],[7,11],[38,-11],[33,23],[40,-20],[13,9],[25,-6],[33,39],[45,29],[11,-9],[-17,-22],[30,-18],[3,-19]],[[8383,9998],[20,-9],[-1,-37],[-49,-12],[-28,-21],[-33,5],[32,28],[4,35],[55,11]],[[4565,6520],[3,-6],[-65,12],[-69,-39],[-168,28],[-40,50],[12,6],[36,-8],[7,9],[158,-19],[73,-13],[114,-13],[2,-11],[-63,4]],[[5988,4550],[45,-21],[7,-50],[-4,-22]],[[6036,4457],[-34,-10],[-1,23],[-42,-8]],[[5959,4462],[-22,-6],[14,14],[-8,18],[-45,-9],[9,11],[-18,22],[5,11],[63,18],[23,16],[8,-7]],[[5455,4748],[-10,-29]],[[5445,4719],[-8,-2],[-65,24],[-47,9],[-37,14],[-57,5],[-35,14],[-56,10],[-23,27],[-26,-7],[-22,15],[-42,8],[-34,13],[-30,-6],[-72,23],[-23,-16],[-21,-29],[-22,-12],[-27,-1],[15,34],[-30,21],[2,13],[22,24]],[[4807,4900],[56,-18],[25,-13],[68,6],[80,3],[47,-1],[28,-15],[35,31],[22,-7],[36,25],[29,-13],[6,25]],[[5239,4923],[44,-34],[-15,-12],[117,-61],[62,-47],[8,-21]],[[6605,3527],[-84,-7],[-40,-7],[-60,-23],[-126,-58],[-81,-35],[-44,-32]],[[6170,3365],[-137,58],[140,142],[-65,15],[-22,1],[-16,51],[5,29],[18,12],[6,19]],[[6099,3692],[18,-18],[21,-9],[78,-61],[25,-14],[113,-16],[35,77],[-30,30],[6,31],[-1,33],[30,-10],[34,22]],[[6428,3757],[58,-28],[47,-26],[28,-27],[49,-24],[11,21],[40,16],[33,-1]],[[5737,4847],[-2,-63],[135,1],[0,35],[31,0],[0,14],[23,-11],[65,-8],[18,10],[136,21],[99,-18],[6,16],[-12,9],[-5,60]],[[6231,4913],[-2,21],[21,42],[19,2],[132,-10]],[[6407,4926],[0,-104]],[[6407,4822],[-8,-24],[-6,-56],[-27,-37],[-26,-15],[43,-6],[-4,-8]],[[6379,4676],[-138,11],[-5,-3]],[[6236,4684],[-44,1],[-48,6],[-82,24],[-58,14],[-54,37],[-47,12],[-29,-3],[-50,-34],[-37,-7],[-75,15],[-93,-3],[-40,6],[-43,-1],[-34,-5],[-47,2]],[[5239,4923],[-15,8],[-77,30],[-8,62]],[[5139,5023],[38,-11],[2,-20],[46,-39],[33,-9],[45,-3],[33,-8],[49,-30],[65,-50],[47,-25],[29,-5],[60,-16],[45,4],[22,9],[26,26],[24,-5],[34,6]],[[6236,4684],[-19,-68]],[[6186,4537],[-10,-2]],[[6176,4535],[-67,-11],[-5,13],[-32,34]],[[6072,4571],[1,19],[-71,17],[-10,-10],[-16,5],[12,15],[-22,4],[-88,33],[19,9],[-77,28],[-43,-14],[-29,4],[-48,0],[-26,10],[30,23],[-69,-18],[-23,0],[-52,11],[-33,-11],[-56,11],[-26,12]],[[6176,4535],[-5,-25],[2,-28],[-39,-19],[-39,-33],[-27,34],[-32,-7]],[[5988,4550],[20,14],[64,7]],[[4807,4900],[-3,12],[-49,15],[19,5],[89,-17],[26,1],[52,-6],[28,4],[38,-8],[40,51],[-81,16],[3,23],[54,0],[55,-14],[22,21],[-71,17],[-33,10],[0,18],[-40,15],[13,12],[21,-10],[23,-2],[13,-16],[86,-23],[27,-1]],[[5737,4847],[27,0],[1,8],[25,0],[3,15],[31,4],[84,-1],[-2,10],[21,5],[97,2],[120,37],[39,7],[35,-23],[13,2]],[[6401,4976],[0,55],[-18,2],[9,10],[-3,37],[10,31],[-18,13],[50,25],[87,39],[14,-11],[26,7],[-5,-36],[20,4],[45,-8],[47,-28],[-4,-13],[31,-17],[39,2],[30,-9],[21,3],[8,-16],[21,-3],[-7,11],[81,22],[16,-68],[35,-37],[-34,-33],[-13,-1],[26,-21]],[[6720,4773],[-104,-8],[-60,14],[-67,31],[-82,12]],[[7139,4747],[-37,-23],[-23,-24],[-31,-8],[-26,4],[-42,19],[-48,-3],[-41,-27]],[[6891,4685],[-55,-9]],[[6836,4676],[-30,5],[-34,-4],[-10,28],[3,23],[17,50]],[[7110,4830],[29,-83]],[[6836,4676],[-71,-8],[-43,-11],[-37,-2],[-52,12],[-52,3]],[[6581,4670],[-28,-5],[-36,1],[-47,16],[-38,-7],[-53,1]],[[7469,5043],[79,14],[161,-15],[-4,-87]],[[7705,4955],[-158,-43],[5,-105],[-2,-17],[-19,-28],[-8,1],[-235,0],[-29,6],[4,-54],[-3,-21],[-49,-1],[-19,9],[-22,27],[-31,18]],[[6461,3843],[6,-40],[-5,-5]],[[6462,3798],[-67,3],[-35,5],[-69,-1],[2,-41],[-29,3],[-95,3],[-23,-2]],[[6146,3768],[-10,37],[3,66],[22,25],[30,13],[32,21],[77,56],[38,11]],[[6338,3997],[28,6]],[[6366,4003],[-33,-47],[-19,-19],[-43,-32],[-9,-28],[60,2],[2,-31],[38,0],[2,14],[83,-4],[-1,-14],[15,-1]],[[7563,4483],[-151,16],[-98,12],[-11,-41],[-68,6]],[[7206,4561],[-20,56],[-19,44],[-28,86]],[[7705,4955],[45,10],[26,1],[-27,-111],[-46,-203],[-27,-1],[-122,11],[-12,-54],[-17,-38],[-51,7],[-10,-15],[142,-22],[-43,-57]],[[6581,4670],[-20,-88]],[[6891,4685],[-25,-90]],[[6069,4391],[-48,28],[-17,24],[-11,-2],[-11,20],[-23,1]],[[6187,4513],[2,-27],[41,5],[7,-10],[42,0],[43,6],[-6,-50],[72,-7]],[[6754,4480],[-28,-87]],[[6379,4017],[-13,-14]],[[6338,3997],[-48,20],[23,17],[11,-6],[25,35],[25,-11],[4,13],[-31,50],[-54,29],[-29,8],[6,10],[-20,11],[-66,-8],[-26,30]],[[6892,4161],[-6,2],[-47,-34],[-20,-20],[-81,-65],[-40,13],[-24,-30],[-52,8],[5,6],[-113,35]],[[7726,4351],[-216,-23],[47,-139],[56,6],[34,-94],[-6,-1]],[[7641,4100],[-80,-10]],[[7404,4072],[-21,-3],[-42,129],[-14,0],[10,-62],[-27,12],[-36,-12],[10,-36]],[[7284,4100],[-44,3],[-26,-26]],[[7214,4077],[-63,-21],[-43,2],[-22,30],[-55,21]],[[7563,4483],[-57,-75],[220,-57]],[[7939,4007],[-46,122]],[[7893,4129],[131,13]],[[8024,4142],[58,-165],[36,-97]],[[8118,3880],[-128,-15],[-23,68],[-28,74]],[[8118,3880],[5,-12]],[[8123,3868],[-252,-31],[-56,154],[124,16]],[[7620,3926],[83,6]],[[7703,3932],[63,6],[-62,169],[189,22]],[[8123,3868],[36,-118],[6,-4],[79,9],[38,-140],[22,-43],[1,-12],[-68,3],[-141,-2],[-133,-20],[-150,-27],[-147,-14],[-150,-26],[-141,-15],[-84,-21]],[[7291,3438],[-57,59]],[[7234,3497],[90,13],[77,21],[-2,18],[13,14],[3,18],[-11,10],[31,5],[16,10],[20,41],[0,25],[-19,61],[-10,-1]],[[7442,3732],[-60,136],[-13,22],[-55,75],[-8,60],[-22,75]],[[7442,3732],[-44,-7],[10,-15],[-22,4],[-36,32],[-12,-11],[-29,-1],[-5,22],[-51,-9],[-13,38],[12,4],[-7,18],[-23,-8],[-13,25],[-10,1],[-15,35],[-19,16],[28,5],[-38,22],[-22,19],[36,20],[-32,-7],[7,16],[-16,1],[0,14],[26,0],[-1,17],[84,26],[-10,40],[-13,28]],[[7641,4100],[52,-146],[10,-22]],[[7726,4351],[9,-4],[138,-33],[97,-21],[54,-151]],[[6426,4017],[-2,-20],[24,23],[18,-13],[27,-37],[-6,-41],[10,-41],[-25,2],[6,-49],[-17,2]],[[7234,3497],[-126,-18],[-147,-16],[-166,-28],[-53,-15]],[[6742,3420],[-71,45],[-46,44]],[[6428,3757],[11,1],[4,21],[19,19]],[[6383,1792],[-98,14],[-88,0],[-49,11],[-143,38],[-58,-8],[-72,-1],[-36,-20],[-21,-5],[-39,6],[-24,13],[-13,23],[-37,10]],[[5705,1873],[11,15],[107,185],[93,148],[140,210],[97,170],[29,45]],[[6182,2646],[50,81]],[[6859,2551],[-68,-114],[-60,-97],[-58,-88],[-25,-42],[-115,-179],[-74,-123],[-76,-116]],[[6099,3692],[30,49],[4,20],[13,7]],[[6182,2646],[-249,50],[-242,54],[-56,-54],[-59,-62]],[[5576,2634],[-130,43],[79,83],[-77,11],[-47,20]],[[5401,2791],[-36,77],[-12,15],[-53,-1],[-36,22],[-26,2],[-64,15],[-23,-4],[-27,5],[-45,48],[11,16],[53,12],[57,16],[35,24],[31,2],[124,-15],[113,-10]],[[5503,3015],[53,-6],[127,-19],[179,-22],[456,-103]],[[5503,3015],[18,79],[99,-45],[22,25]],[[5642,3074],[276,-34],[91,124],[73,101]],[[6082,3265],[29,35]],[[6111,3300],[236,-49],[192,-40]],[[6111,3300],[59,65]],[[5576,2634],[-114,-111],[-29,-21],[-68,-32]],[[5365,2470],[-16,35],[-27,24],[6,-34],[-34,-20],[-55,-11],[-86,-30],[-26,-12],[-19,-25],[-21,-4],[-138,42],[-166,49],[3,37],[-15,30],[4,40],[40,52],[20,19],[3,26],[-8,16],[-64,38],[11,15],[41,18],[54,18],[29,3],[13,-20],[50,20],[9,25],[45,3],[61,-6],[34,2],[57,-10],[40,-15],[133,-20],[58,16]],[[5347,155],[-8,2],[-21,-34],[-72,-123],[-81,11],[-70,16],[-147,28],[-353,63]],[[4595,118],[91,144],[7,-1],[25,38],[71,124],[29,42]],[[4818,465],[303,-19],[160,-11],[246,-16]],[[5527,419],[-99,-133],[-81,-131]],[[5705,1873],[-41,-5],[-25,-16],[-58,-1],[-4,-21],[-23,-13],[-30,16],[8,24],[-16,8],[-34,-2],[12,-27],[-21,-26],[-76,-2],[-20,-20],[5,-21],[-13,-19],[36,-14],[33,-22],[36,-18],[17,-20],[-8,-7],[-62,4],[-67,19],[-40,-1],[-18,7],[-19,-9],[0,-22],[-43,-37],[-48,4],[-36,-3],[-19,-11],[21,-22],[-31,-22],[-26,-25],[-26,-3],[-7,8],[-2,45],[-22,5],[-35,-5],[-15,-35],[-22,-29],[-39,-32],[-27,-4],[-20,6],[-70,-1],[23,28],[-26,35],[-20,6],[-43,-8],[-22,-18],[-29,-3],[-35,6],[-47,-34],[-12,-16],[-1,-26],[21,-60],[-44,1],[-51,14],[-133,8],[-49,10],[-110,34],[-35,17],[-48,17],[-56,33],[-91,34],[-60,29],[-20,24],[9,38],[-4,21]],[[3927,1694],[-2,16]],[[3925,1710],[-26,67]],[[3899,1777],[-23,41],[-13,10]],[[3863,1828],[6,9],[-21,34],[-12,9]],[[3836,1880],[37,6],[27,22],[53,-17],[25,-26],[15,-6],[38,-39],[46,-27],[43,-15],[108,-11],[34,21],[36,11],[4,18],[-19,37],[54,9],[119,27],[82,32],[5,-7],[7,-61],[15,-10],[78,-35],[53,-16],[29,-4],[87,-20],[45,74],[35,44],[78,116],[81,111],[94,140],[16,34],[51,92],[41,36],[112,54]],[[6383,1792],[-61,-94],[-124,-204],[-101,-158],[-116,-185],[-68,-103]],[[5913,1048],[-363,-19],[-252,-13],[-139,-6]],[[5159,1010],[48,73],[93,150],[31,58],[102,158],[50,73],[41,67],[38,53],[113,190],[30,41]],[[5159,1010],[-8,-4],[-327,-17],[-331,-11]],[[4493,978],[54,64],[55,90],[50,71]],[[4652,1203],[16,22],[7,40],[-9,32],[-30,0],[-47,8],[-41,18],[-57,-10],[-43,5],[-88,26],[-66,-5],[-15,-21],[-106,-67],[-127,-75],[-44,-37],[-5,-24],[-58,11],[-63,-10],[-64,12],[-101,-14],[-31,4],[-50,-9],[-81,-20],[-1,8],[30,10],[29,17],[2,20],[-16,-6],[-58,2],[-8,5],[-48,61],[-8,14],[3,40],[-22,45],[-38,21],[-6,8],[31,52],[19,3],[59,-54],[16,-23],[33,13],[7,13],[-29,5],[-15,13],[-5,19],[45,10],[-33,37],[71,29],[-60,46],[-30,36],[-19,-13],[-18,12],[-25,3],[50,26],[-10,13],[42,14],[17,-12],[43,4],[23,-4],[23,-14],[23,7],[8,16],[-25,14],[-56,16],[15,28],[17,16],[48,23],[146,-3],[29,14],[47,-3],[32,4]],[[4818,465],[63,105],[115,176],[154,254],[9,10]],[[5913,1048],[-53,-86]],[[5860,962],[-42,-70],[-53,-80],[-72,-116],[-165,-256],[-1,-21]],[[4595,118],[-100,19],[-285,50],[-33,11],[-33,23]],[[4144,221],[65,72],[23,36],[74,157]],[[4306,486],[285,-10],[162,-7],[65,-4]],[[4306,486],[16,41],[-1,22]],[[4321,549],[-36,109],[-19,61],[0,43],[14,21],[55,50],[-18,10],[1,20],[35,30],[39,40],[48,-17],[39,44]],[[4479,960],[14,18]],[[4144,221],[-58,32],[-68,27],[-32,36],[-46,18],[-23,3],[-45,-9],[-46,0],[-76,20],[-68,0],[-63,12],[-49,-5],[-23,-25],[-19,-8],[-26,11],[-18,25],[-21,18],[-34,16],[-36,9],[-46,19],[-47,14],[-49,9],[1,24],[90,20],[-2,22],[45,0],[-9,-28],[152,-49],[2,47],[88,-28],[10,-14],[28,-16],[63,16],[56,10],[61,-29],[74,30],[20,23],[76,38],[48,-1],[47,3],[27,17],[17,3],[39,-14],[15,2],[4,21],[40,13],[78,-4]],[[6624,740],[-10,19],[-145,45],[-496,138],[-15,19],[-98,1]],[[7291,3438],[-61,-31],[-35,-34],[-58,-151],[-37,-130],[-7,-65],[25,-57],[137,-104],[183,-59],[280,-76],[97,-33],[152,-35],[297,-9],[77,9],[94,-18],[144,-37],[133,-53],[76,-61],[60,-61],[-1,-96],[-37,-87],[-122,-77],[-41,-16],[-92,-2],[-85,18],[-239,167],[-142,72],[-78,21],[-93,17],[-67,10],[-65,0],[-98,-5],[-241,-58],[-132,-57],[-175,-90],[-171,-134],[-26,-46],[23,-49],[146,-167],[28,-90],[-16,-84],[-33,-116],[-25,-61],[-118,-80],[-61,-50],[-31,-52],[-35,-40],[7,-36],[17,-37],[67,-60],[32,-40],[10,-50],[-6,-53],[-32,-96],[-13,-29],[-23,-90],[-14,-22],[-134,-29],[-108,1]],[[9708,8149],[55,11],[19,8],[39,-8],[66,11],[26,-17],[20,-7],[23,17],[25,6],[17,-14],[-1,-84],[-4,-68],[-70,-37],[48,-26],[-28,-6],[-34,10],[-29,-5],[1,18],[-34,14],[14,12],[-21,10],[6,13],[-31,1],[-46,-35],[-35,-32],[-55,16],[-8,-11],[-33,9],[-11,-15],[-41,12],[-20,-27],[-31,-14],[-13,-15],[-77,4],[67,102],[-31,6],[24,30],[-7,16],[-38,18],[-66,20],[100,56],[48,12],[-14,16],[38,11],[83,-17],[59,-21]],[[6624,740],[-31,-11],[6,-23],[29,-32],[3,-17],[-13,-23],[-31,-4],[-6,9],[9,23],[-19,4],[-52,-47],[-26,-10],[-4,-15],[51,0],[19,-5],[-25,-17],[-36,-14],[-46,-1],[-47,8],[-20,-7],[12,-20],[34,-19],[4,-11],[-23,-11],[-26,-1],[-23,-10],[-21,-22],[6,-80],[-13,0],[-176,-43],[2,-2],[-332,-81],[-238,-59],[-106,-23],[-107,-26],[-31,5]],[[6082,3265],[-35,-23],[8,33],[-131,46],[-143,57],[-69,23],[-49,5]],[[5663,3406],[0,15],[22,52],[17,20],[-35,11],[-49,6],[84,81],[59,0],[49,11],[23,-39],[67,17],[-61,138],[13,24],[124,4],[38,-3],[45,-10],[40,-41]],[[5642,3074],[-16,11],[22,21],[-2,21],[16,90],[-4,15],[-37,31],[-48,23],[-4,20],[21,34],[1,15],[-39,43],[30,9],[81,-1]],[[264,3365],[-5,-26],[-10,-13],[-50,-5],[-17,-36],[-18,4],[-7,25],[23,6],[-36,21],[-61,-2],[-18,13],[-41,-3],[1,-9],[-23,0],[-2,18],[13,9],[47,-3],[56,2],[40,-3],[16,6],[74,-5],[18,1]],[[3866,8468],[23,10],[31,-12],[-28,-13],[-8,-14],[-28,-10],[2,-24],[-22,-12],[-23,-28],[-31,-14],[17,-25],[-8,-19],[34,-31],[-37,-28],[-5,-19],[-39,5],[32,48],[-11,33],[-29,0],[-10,15],[4,32],[47,41],[15,31],[21,21],[-7,6],[24,9],[-3,10],[29,6],[10,-18]],[[7453,7290],[33,4],[16,-9],[61,-15],[37,25],[192,-45],[-44,-52],[2,-5],[105,-31],[65,-32],[79,-30],[44,-12],[-42,-32],[-30,-29],[-4,-11],[-68,17],[4,7],[-74,21],[-9,11],[-53,12],[-24,11],[-50,0],[-26,-7],[-20,1],[-42,-10],[-42,12],[-53,-8],[-67,-1],[-55,20],[-22,13],[49,85],[-3,16],[-15,4],[30,21],[-62,22],[-32,15],[17,17],[24,7],[79,-12]],[[2502,917],[6,-10],[-28,-39],[21,-29],[-2,-17],[55,-30],[-45,-27],[-32,8],[-23,20],[-32,11],[-13,-12],[-50,-20],[-4,-12],[64,-20],[67,-39],[-59,-34],[-24,-5],[-70,15],[-42,1],[-63,20],[-2,-18],[55,-21],[-25,-43],[25,-6],[-17,-22],[-24,-44],[-77,23],[-55,-65],[-28,-8],[-29,-33],[32,-37],[-54,-12],[-22,28],[-25,16],[-10,18],[13,54],[-3,53],[15,18],[44,-8],[51,64],[45,4],[44,49],[34,23],[-15,16],[-35,17],[27,26],[46,23],[-13,21],[-18,12],[-36,9],[12,9],[63,0],[59,-14],[41,-4],[0,-17],[40,-14],[14,8],[26,-14],[55,5],[-23,26],[-31,12],[-18,14],[39,27],[7,23],[-54,-2],[5,13],[-13,15],[-61,3],[6,14],[49,25],[34,-14],[25,-25],[0,-9],[29,-15],[27,-4]],[[4479,960],[-47,6],[-84,19],[-37,-14],[-83,1],[-18,-5],[-36,2],[37,47],[34,-7],[18,23],[-4,7],[25,49],[37,-5],[12,29],[69,3],[10,46],[45,-14],[37,-4],[60,3],[-3,21],[37,38],[64,-2]],[[8384,8589],[34,-2],[26,-22],[28,2],[56,-37],[34,5],[97,-34],[48,-11],[32,-14],[34,3],[63,-19],[0,-5],[-44,-29],[-57,-51],[-23,14],[-19,-17],[-77,35],[-60,16],[-12,12],[-32,8],[24,30],[-60,31],[-40,-5],[-35,11],[-32,21],[-19,22],[6,13],[28,23]],[[1530,3451],[6,-7],[-30,-9],[-21,-14],[3,-20],[83,-17],[-21,-18],[-29,2],[-52,-32],[-30,13],[-23,-18],[-12,5],[15,19],[-45,19],[23,14],[13,29],[23,-4],[8,54],[37,-19],[55,23],[14,-7],[-17,-13]],[[3863,1828],[-53,15],[-58,6],[-44,13],[-21,13],[-41,40],[-61,39],[-31,13],[-68,11],[-37,12],[-48,8],[-8,-10],[-99,15],[24,24],[31,-1],[23,7],[23,-9],[17,8],[35,-1],[37,-20],[67,7],[57,0],[53,-12],[21,-15],[15,-25],[-4,-46],[11,-19],[33,-15],[77,-1],[22,-5]],[[3925,1710],[-14,-3],[-120,6],[-4,15],[35,0],[44,20],[-10,18],[43,11]]]}