{"type":"Topology","bbox":[-76.09211390760288,4.783220353653958,-75.96691476765574,4.864058887022483],"transform":{"scale":[0.000012521166111325349,0.000008084661803032834],"translate":[-76.09211390760288,4.783220353653958]},"objects":{"municipios":{"type":"GeometryCollection","geometries":[{"type":"Polygon","arcs":[[0,1,2,3,4]]},{"type":"Polygon","arcs":[[5,6,7,-1,8]]},{"type":"Polygon","arcs":[[9,10,11,-3]]},{"type":"Polygon","arcs":[[12,-7,13]]},{"type":"MultiPolygon","arcs":[[[14]],[[15]],[[16]],[[17]]]},{"type":"Polygon","arcs":[[18]]},{"type":"Polygon","arcs":[[-9,-5,19,20]]},{"type":"Polygon","arcs":[[21,22,23]]},{"type":"Polygon","arcs":[[24,25,26,-23,27,28]]},{"type":"Polygon","arcs":[[-13,29,-29,30,-2,-8]]},{"type":"Polygon","arcs":[[31,-26]]},{"type":"Polygon","arcs":[[-28,-22,32,-10,-31]]},{"type":"Polygon","arcs":[[-20,-4,-12,33]]},{"type":"Polygon","arcs":[[34]]}]}},"arcs":[[[7974,1863],[-39,-9],[-31,-38],[-3,-42],[-56,31],[-21,-85]],[[7824,1720],[-13,-70],[-42,-113]],[[7769,1537],[-179,162]],[[7590,1699],[41,72],[18,84],[15,108],[31,82],[51,26],[27,-7],[92,24]],[[7865,2088],[-23,-54],[69,-53],[63,-100],[0,-18]],[[8036,1885],[110,-34],[6,-80]],[[8152,1771],[5,-78],[-56,-10],[-50,1],[-10,-42],[64,-56],[14,-43]],[[8119,1543],[-10,-15],[-83,91],[-44,25],[-158,76]],[[7974,1863],[24,-1],[22,29],[16,-6]],[[7769,1537],[-62,-169],[27,-27],[-43,-11],[-21,15],[-62,112]],[[7608,1457],[-35,50],[-6,-11],[-27,34],[8,20],[-32,38],[16,10]],[[7532,1598],[39,-27],[19,128]],[[8407,1537],[-41,-4],[-13,-37],[-22,-16],[-31,-50],[-82,9],[-19,26],[-36,21],[-44,57]],[[8152,1771],[59,13],[23,-8],[37,21],[40,94],[30,-10],[66,-40],[51,-2],[65,54],[99,20],[-20,-99],[-55,-135],[-68,-109],[-43,-34],[-29,1]],[[9672,375],[19,57],[29,-10],[-8,-29],[18,-14],[-15,-42],[57,-23],[26,-22],[34,30],[12,-26],[81,-26],[19,72],[16,-4],[-7,-54],[9,-15],[-37,-82],[-15,-55],[-91,66],[-71,43],[-52,13],[-79,4],[0,66],[24,71],[-12,18],[17,35],[14,-13],[-16,-42],[28,-18]],[[9977,363],[-19,9],[4,88],[37,-12],[-22,-85]],[[9600,503],[23,-65],[-11,-33],[-21,-7],[-14,33],[5,94],[18,-22]],[[9504,720],[1,-11],[-56,-12],[-20,-30],[20,-22],[54,-18],[30,-26],[35,-56],[-87,74],[-91,37],[14,11],[5,43],[-15,29],[14,8],[-31,50],[162,-49],[-35,-28]],[[410,4726],[21,-26],[-27,-66],[-96,-18],[4,-98],[-44,0],[-31,-16],[-41,3],[-28,-23],[-2,-37],[-34,-127],[-22,-42],[-29,12],[-30,-28],[-14,17],[-36,2],[6,39],[36,19],[49,125],[33,67],[44,4],[40,42],[11,-25],[55,56],[-3,15],[45,18],[82,6],[18,54],[-7,27]],[[7865,2088],[40,30]],[[7905,2118],[53,59],[51,35],[22,64],[19,-33],[-20,-38],[20,-122],[30,-20],[-25,-69],[-5,-72],[-14,-37]],[[7725,1034],[9,-19]],[[7734,1015],[22,-130]],[[7756,885],[-141,43],[-41,-35],[-16,-52],[-52,8],[-10,68],[-35,-28],[-23,-33],[-18,-55],[-84,-61],[-10,71],[-89,12],[-83,2],[-79,34],[-35,-16],[-1,36],[111,-41],[94,-4],[98,-18],[24,40],[-8,36],[-22,17],[-31,-8],[-28,11],[-17,42],[2,42],[33,86],[53,-24],[37,7],[18,21],[54,15],[49,-31],[1,-70],[114,6],[60,-30],[22,-1],[18,26],[4,33]],[[8465,1037],[-26,9],[-18,-36],[-21,-94],[2,-43],[-28,-78],[-34,-58],[-13,-43]],[[8327,694],[-20,-10],[-53,6],[-5,-9],[-45,48],[-76,113],[-4,-8],[-42,48],[-25,-43],[-8,-41]],[[8049,798],[-13,-99],[-56,-11],[-24,36],[-28,11],[-22,-14],[-35,2],[-45,-72],[-41,-45],[-25,-2],[10,63],[9,1],[-23,217]],[[7734,1015],[-9,110],[62,115],[19,69]],[[7806,1309],[74,-40],[-3,-49],[31,-2],[69,27],[65,-1],[14,17],[49,-12],[2,-15],[60,-19],[37,-38],[49,-32],[31,26],[19,-4],[43,36],[23,0],[30,-50],[31,-32],[46,-28],[-11,-56]],[[8407,1537],[-8,-61],[0,-63],[25,-15],[-4,-40],[22,-38],[-2,-76],[23,-63],[42,-52],[35,-25],[75,-26],[9,63],[46,-32],[91,-2],[-17,-19],[-180,-72],[-30,0],[-69,21]],[[7806,1309],[-7,82],[61,-33],[18,27],[50,23],[-36,35],[1,16],[-64,27],[-60,51]],[[8327,694],[9,-81],[-5,-169],[46,-54],[47,-34],[-52,-33],[-15,-117],[16,-35],[16,-81],[-31,-54],[-23,28],[-21,-8],[-16,-56],[-62,53],[35,62],[8,108],[66,-13],[9,97],[-31,99],[-3,52],[-34,-8],[-5,45],[35,9],[-32,124],[-89,67],[-15,-25],[-20,16],[10,30],[-37,72],[-45,55],[-14,-28],[-12,18],[-13,-35]],[[7725,1034],[-21,32],[-8,39],[-21,-12],[-52,55],[-31,83],[-4,75],[39,6],[20,45],[-27,34],[-26,60],[14,6]],[[7532,1598],[-20,66],[-63,-16],[-42,25],[-48,64],[-64,64],[29,52],[42,-10],[20,17],[12,44],[26,1],[26,-18],[3,-23],[28,39],[-5,58],[20,24],[44,25],[13,39],[37,-18],[29,49],[36,7],[16,31],[19,-3],[26,37],[39,4],[50,86],[3,32],[-7,110],[86,-3],[-6,-45],[-19,-60],[43,-158]],[[7351,9929],[37,-30],[5,14],[33,-37],[35,-22],[41,3],[-34,-30],[-48,26],[2,11],[-45,36],[-49,13],[-8,-14],[22,-67],[-20,-32],[-27,26],[-46,7],[49,-35],[22,-58],[20,0],[11,-43],[60,22],[-11,55],[17,27],[24,-7],[49,-64],[38,-33],[32,-13],[37,24],[7,-14],[54,42],[1,35],[31,45],[17,-26],[-65,-70],[-37,-29],[-14,-117],[25,-112],[2,-83],[46,13],[30,-16],[-29,-38],[8,-22],[-19,-14],[6,-29],[-20,-6],[-11,48],[-54,3],[19,58],[-36,157],[-45,72],[-14,50],[-25,28],[-82,10],[-5,-27],[50,-18],[-5,-24],[-32,6],[-11,-15],[-35,1],[-38,97],[-33,-5],[-36,12],[-5,64],[-27,51],[23,4],[25,65],[30,-21],[0,-24],[32,-50],[15,13],[-22,79],[10,15],[36,-10],[-47,62],[-30,16],[4,15],[31,-12],[25,-34],[4,-24]]]}