{"type":"Topology","bbox":[-76.46110237980133,3.8526430117002817,-76.32186939785726,4.0587726141796505],"transform":{"scale":[0.000013924690663473955,0.000020615021750111896],"translate":[-76.46110237980133,3.8526430117002817]},"objects":{"municipios":{"type":"GeometryCollection","geometries":[{"type":"MultiPolygon","arcs":[[[0]],[[1]]],"properties":{"codigo":"76890200108003000101","sector":"768902001080030001","pcode":"CO76890","area_m2":97350}},{"type":"Polygon","arcs":[[2]],"properties":{"codigo":"76890200104007000101","sector":"768902001040070001","pcode":"CO76890","area_m2":22184}},{"type":"Polygon","arcs":[[3]],"properties":{"codigo":"76890200104011000101","sector":"768902001040110001","pcode":"CO76890","area_m2":51098}},{"type":"Polygon","arcs":[[4]],"properties":{"codigo":"76890200201014000101","sector":"768902002010140001","pcode":"CO76890","area_m2":77507}},{"type":"Polygon","arcs":[[5,6,7]],"properties":{"codigo":"76890100000000000101","sector":"768901000000000001","pcode":"CO76890","area_m2":481599}},{"type":"Polygon","arcs":[[8,9,-7]],"properties":{"codigo":"76890100000000000102","sector":"768901000000000001","pcode":"CO76890","area_m2":130721}},{"type":"Polygon","arcs":[[-6,10,11,12,13,14,15,-9]],"properties":{"codigo":"76890100000000000103","sector":"768901000000000001","pcode":"CO76890","area_m2":329997}},{"type":"Polygon","arcs":[[16,17,-15]],"properties":{"codigo":"76890100000000000104","sector":"768901000000000001","pcode":"CO76890","area_m2":103034}},{"type":"Polygon","arcs":[[18,19,-17,-14]],"properties":{"codigo":"76890100000000000201","sector":"768901000000000002","pcode":"CO76890","area_m2":115365}},{"type":"Polygon","arcs":[[-13,20,21,22,-19]],"properties":{"codigo":"76890100000000000202","sector":"768901000000000002","pcode":"CO76890","area_m2":114333}},{"type":"Polygon","arcs":[[23,24,-22]],"properties":{"codigo":"76890100000000000203","sector":"768901000000000002","pcode":"CO76890","area_m2":86781}},{"type":"Polygon","arcs":[[-24,-21,-12,25]],"properties":{"codigo":"76890100000000000204","sector":"768901000000000002","pcode":"CO76890","area_m2":280988}},{"type":"Polygon","arcs":[[26]],"properties":{"codigo":"76890200106001000101","sector":"768902001060010001","pcode":"CO76890","area_m2":42417}},{"type":"Polygon","arcs":[[27]],"properties":{"codigo":"76890200102004000101","sector":"768902001020040001","pcode":"CO76890","area_m2":87864}},{"type":"Polygon","arcs":[[28]],"properties":{"codigo":"76890200106005000101","sector":"768902001060050001","pcode":"CO76890","area_m2":57126}},{"type":"Polygon","arcs":[[29]],"properties":{"codigo":"76890200107006000101","sector":"768902001070060001","pcode":"CO76890","area_m2":688626}},{"type":"Polygon","arcs":[[30]],"properties":{"codigo":"76890200203008000101","sector":"768902002030080001","pcode":"CO76890","area_m2":43651}},{"type":"MultiPolygon","arcs":[[[31]],[[32]],[[33]],[[34]]],"properties":{"codigo":"76890200101009000101","sector":"768902001010090001","pcode":"CO76890","area_m2":45367}},{"type":"MultiPolygon","arcs":[[[35]],[[36]]],"properties":{"codigo":"76890200107013000101","sector":"768902001070130001","pcode":"CO76890","area_m2":61092}}]}},"arcs":[[[1586,2505],[28,-13],[32,-30],[-172,-78],[-26,36],[-20,7],[-34,-13],[11,20],[-15,10],[6,29],[47,12],[21,15],[15,-8],[65,12],[-1,33],[50,-6],[-7,-26]],[[1500,2368],[21,-17],[-79,-44],[-20,-2],[-6,-30],[-30,20],[-34,-7],[-15,18],[-40,9],[24,17],[23,-5],[13,21],[31,-10],[10,13],[46,-17],[27,33],[29,1]],[[5706,6075],[-58,-30],[-22,-31],[8,-42],[25,-14],[-24,-14],[-30,24],[-47,-8],[-29,11],[32,2],[24,12],[27,69],[63,21],[17,19],[14,-19]],[[7189,6984],[-10,-11],[-32,4],[-41,-17],[-18,8],[-43,-25],[-57,30],[-38,-16],[-32,24],[-35,-3],[-5,-24],[-40,11],[-29,-3],[27,15],[11,33],[73,-23],[-2,17],[21,5],[65,-7],[20,-13],[21,16],[44,-4],[22,21],[30,3],[10,19],[3,-26],[28,2],[7,-36]],[[7819,1958],[33,-3],[51,-14],[38,-19],[113,-66],[-104,-42],[-21,21],[-15,-6],[-45,35],[-102,64],[-66,-3],[-22,-16],[-32,27],[119,18],[53,4]],[[5989,512],[-162,7],[-54,6],[-87,-16],[-29,6]],[[5657,515],[26,67],[-78,35],[-70,-58],[-7,-11],[-233,58],[-62,-40],[-20,-6]],[[5213,560],[-36,32],[-45,-12],[-21,33],[24,25],[-46,33],[-46,-1],[-22,8],[-5,33],[-23,37],[-76,9],[-40,11],[-71,-7],[8,25],[17,3],[8,38],[70,-24],[-13,-16],[52,-18],[42,2],[65,26],[32,-46],[35,-12],[63,-12],[53,-1],[-25,-57],[24,-9],[-9,-11],[64,-23],[99,2],[26,47],[72,-38],[42,71],[153,-37],[193,108],[50,4],[39,-18],[10,-29],[13,-224]],[[5657,515],[-55,14],[-17,-43],[-126,37],[-19,-40],[-66,17],[-17,-46],[-61,17]],[[5296,471],[23,20],[-13,16],[-53,7],[-16,12],[-32,-5],[-9,11],[17,28]],[[5989,512],[8,-123],[12,-129]],[[6009,260],[-97,6]],[[5912,266],[-57,5],[-1,12]],[[5854,283],[-15,86],[-43,8]],[[5796,377],[-289,48],[-81,7],[-14,-39],[-68,10],[-24,18]],[[5320,421],[-12,22],[-30,5],[-9,-14],[-22,6],[2,22],[47,9]],[[5796,377],[-22,-45],[-234,41],[-13,-38],[-67,12],[-117,5],[-26,-5]],[[5317,347],[-13,14],[-54,9],[-4,13],[37,10],[37,28]],[[5854,283],[-41,24],[-11,-26],[-132,27],[-18,-37],[-137,22],[-125,16],[-8,-43],[-40,4],[-22,11]],[[5320,281],[26,16],[-5,16],[-39,2],[15,32]],[[5912,266],[-12,-46]],[[5900,220],[-113,28],[-18,-39],[-145,25],[-180,24],[-9,-40],[-95,12],[-33,0]],[[5307,230],[27,28],[-30,9],[16,14]],[[5900,220],[-9,-33],[-64,12],[-13,-25],[-90,23],[-102,19],[-15,-20],[-117,15],[-22,-52]],[[5468,159],[-53,28],[-41,-16],[-50,5],[-12,9],[-5,45]],[[6009,260],[8,-116],[-3,-40],[-11,-23],[-52,4],[27,-35],[-18,-29],[-154,48],[-5,-69],[-42,14],[-34,24],[-59,22],[-44,10],[-65,36],[-38,10],[-51,43]],[[2389,3961],[2,-54],[32,-21],[26,5],[49,-6],[34,6],[24,-9],[-37,-27],[4,-31],[-55,-1],[-39,14],[-21,23],[-47,23],[19,13],[-18,24],[-1,37],[-19,-1],[1,43],[48,3],[-2,-41]],[[6683,7129],[-20,-5],[-6,-36],[-15,-32],[-78,-56],[-32,-32],[-61,-41],[-45,17],[34,18],[-2,25],[34,6],[40,48],[19,41],[21,8],[-39,17],[-77,-5],[-22,6],[22,16],[42,12],[7,15],[35,16],[91,-31],[-15,18],[27,31],[30,-30],[10,-26]],[[4193,4797],[-6,-20],[18,-9],[-4,-25],[18,-19],[26,-4],[-23,-10],[41,-11],[25,-39],[-15,-13],[3,-20],[-35,-9],[-49,29],[-22,27],[10,37],[-28,21],[-65,7],[-22,12],[-9,21],[17,15],[41,-10],[31,19],[48,1]],[[5863,2425],[60,17],[46,1],[65,11],[42,-16],[-32,-41],[89,-38],[115,-31],[50,-31],[59,-5],[-7,-41],[32,-19],[26,21],[74,16],[52,3],[-16,-55],[19,-19],[49,-16],[9,-33],[-23,-18],[40,-4],[44,-17],[13,-28],[70,1],[30,-28],[33,-14],[46,-10],[-7,-13],[-40,-13],[60,-25],[53,6],[21,-8],[14,-31],[42,-5],[11,-13],[-17,-13],[41,-29],[-40,-13],[-48,8],[-15,16],[-23,62],[-80,22],[-24,-26],[-47,-15],[-81,34],[-7,-24],[87,-65],[-29,-17],[-61,43],[-12,52],[6,23],[-33,-7],[-56,3],[-29,10],[-333,230],[-38,13],[-50,3],[-121,-14],[-29,13],[-65,3],[10,32],[-41,4],[16,38],[-67,14],[17,41],[-93,14],[12,23],[-43,11],[-3,-9],[-43,-15],[-4,23],[-33,7],[-43,-17],[-11,16],[38,45],[2,44],[-17,16],[50,4],[94,-24],[64,-34],[60,-49]],[[46,1116],[80,-43],[42,-12],[39,3],[-16,-18],[29,-28],[37,-17],[-19,-18],[24,-31],[23,-16],[-13,-14],[-25,7],[16,-34],[-38,-1],[-16,14],[13,34],[-21,45],[-37,24],[15,14],[-59,31],[-29,-10],[-35,18],[16,17],[-72,26],[27,24],[19,-15]],[[9951,9830],[13,-18],[35,0],[-4,-35],[-89,17],[-3,28],[-14,-1],[1,52],[-24,6],[1,20],[29,11],[57,9],[-2,-89]],[[9733,9823],[13,-13],[-30,-10],[5,20],[-26,2],[21,22],[17,-21]],[[9778,9814],[-23,-1],[2,42],[32,1],[6,-40],[-17,-2]],[[9952,9939],[-19,0],[1,49],[21,11],[-3,-60]],[[6031,3236],[7,-12],[-35,-29],[-26,-9],[38,-39],[9,-38],[-15,-4],[4,-59],[23,-22],[-6,-55],[-10,0],[-8,-74],[-9,0],[2,52],[12,71],[-16,27],[-2,60],[-23,42],[-45,24],[-33,1],[-43,42],[44,16],[16,17],[55,-11],[59,11],[2,-11]],[[5984,2850],[-42,-19],[-21,-30],[-19,-47],[10,-83],[-14,-12],[3,46],[-9,55],[32,71],[61,28],[-1,-9]]]}
