{"type":"Topology","bbox":[-76.08144815142919,4.312209024828831,-75.87776635943163,4.413402778918651],"transform":{"scale":[0.00002037021622137747,0.000010120387447726796],"translate":[-76.08144815142919,4.312209024828831]},"objects":{"municipios":{"type":"GeometryCollection","geometries":[{"type":"Polygon","arcs":[[0,1,2,3]]},{"type":"Polygon","arcs":[[4,5,6,7,8]]},{"type":"Polygon","arcs":[[9,10,11,12]]},{"type":"Polygon","arcs":[[13,14,15,16,17,-11,18]]},{"type":"Polygon","arcs":[[-2,19,-19,-10,20]]},{"type":"Polygon","arcs":[[21,-14,-20,-1,22,23]]},{"type":"Polygon","arcs":[[24,-24,-6,25]]},{"type":"Polygon","arcs":[[-25,26,27,-15,-22]]},{"type":"Polygon","arcs":[[28,-17]]},{"type":"Polygon","arcs":[[29,-3,-21,-13,30]]},{"type":"Polygon","arcs":[[-23,-4,-30,31,32,33,-7]]},{"type":"Polygon","arcs":[[-8,-34,34]]},{"type":"Polygon","arcs":[[35]]},{"type":"Polygon","arcs":[[36,37,-27,-26,-5]]},{"type":"Polygon","arcs":[[-37,-9,-35,-33,38]]},{"type":"Polygon","arcs":[[39,40]]},{"type":"Polygon","arcs":[[41,42,43,-40]]},{"type":"Polygon","arcs":[[44,-43]]},{"type":"Polygon","arcs":[[45]]},{"type":"Polygon","arcs":[[46]]},{"type":"Polygon","arcs":[[47,48]]},{"type":"Polygon","arcs":[[-49,49]]}]}},"arcs":[[[516,8256],[-34,58]],[[482,8314],[-32,50]],[[450,8364],[99,278],[32,-52],[21,58],[-34,53],[25,63],[85,-117]],[[678,8647],[-57,-142],[-105,-249]],[[752,7604],[-30,55],[-31,74],[-7,-9],[-27,55]],[[657,7779],[-36,65],[-43,254],[-10,35]],[[568,8133],[95,204]],[[663,8337],[32,-60],[56,-132],[27,-76],[42,-134]],[[820,7935],[-23,-20],[-62,-13],[-5,-109],[4,-65],[12,-49],[6,-75]],[[403,8500],[-128,42],[-2,-40]],[[273,8502],[-17,2],[-10,40],[-17,21],[-72,57],[-25,29]],[[132,8651],[22,120],[26,164],[15,55],[21,45],[-48,74],[15,39],[44,76],[35,74],[90,-93],[50,-40],[11,116],[7,42],[5,83],[9,53],[130,-25],[29,-10]],[[593,9424],[-88,-442],[-41,-191],[-9,-32],[-52,-259]],[[302,7981],[-24,-129]],[[278,7852],[-20,-145]],[[258,7707],[-21,15],[-30,-109],[-100,14],[59,229],[-89,73],[-77,99],[20,78],[8,12],[19,71],[11,-16]],[[58,8173],[17,-17],[60,-15],[53,-23],[27,148],[-43,34],[-75,50]],[[97,8350],[-5,32],[9,58],[34,68],[-37,26],[-19,32],[-16,45],[42,108],[27,-68]],[[273,8502],[0,-43],[23,-66],[26,-107],[-16,-15],[-38,-197],[42,-34],[-8,-59]],[[482,8314],[-25,-74],[-107,-297],[-48,38]],[[403,8500],[9,-7],[12,-68],[-5,-37],[31,-24]],[[412,7803],[-13,-32],[12,-47],[-99,86],[-34,42]],[[516,8256],[23,-40],[29,-83]],[[568,8133],[-23,-45],[-91,-198],[-42,-87]],[[506,7390],[-1,91],[-5,21],[-20,9],[-11,52],[4,40],[-31,56],[-20,82],[3,41],[-13,21]],[[657,7779],[-33,-113],[-35,-97],[-83,-179]],[[506,7390],[-31,-93],[3,125],[-8,68],[-23,-17],[-30,123],[-22,-49],[-11,25],[-10,-22],[-55,2],[-62,-6],[0,-98],[-9,0]],[[248,7448],[2,179],[8,80]],[[58,8173],[39,177]],[[802,8889],[-16,21],[-108,-263]],[[593,9424],[30,-28],[162,-186],[53,-66],[21,-33],[-43,-129],[-14,-93]],[[802,8889],[-6,-70],[7,-101]],[[803,8718],[10,-78]],[[813,8640],[-57,-112],[-93,-191]],[[813,8640],[43,-383],[-1,-105],[-5,-120],[-9,-56],[-21,-41]],[[6428,6008],[32,5],[3,-17],[18,44],[9,-5],[0,-45],[-17,-60],[-41,-46],[-21,36],[-9,-2],[-7,-53],[5,-42],[-72,-2],[-14,20],[35,20],[-29,10],[-22,89],[-26,15],[2,19],[54,-1],[17,50],[30,-7],[-1,-19],[54,-9]],[[752,7604],[20,-38],[18,-7],[13,17],[32,73],[22,8]],[[857,7657],[83,22],[73,15],[63,-38],[5,-206],[10,-150],[-14,-41],[-46,-27],[-20,-71],[-68,-85],[-32,-21],[-9,58],[-70,62],[-3,19],[-150,-202],[-70,-83],[-42,-65],[-66,-78],[15,-218],[29,-336],[22,-284],[0,-30],[-140,-72],[-25,205],[-32,243],[-18,119],[-54,444],[-14,125],[14,8],[-36,292],[-7,66],[-7,120]],[[803,8718],[6,11],[39,-24],[24,-33],[15,33],[13,-18],[-1,-43],[-31,-28],[2,-41],[13,-14],[-8,-24],[-11,12],[-18,-94],[20,-48],[0,-29],[19,-20],[25,38],[19,-44],[12,-67],[-7,-29],[-30,30],[10,-47],[-12,-13],[-1,-127],[-10,-115],[-14,-54],[-20,-45],[-34,-34],[31,-49],[-19,-28],[-36,-12],[-16,-48],[-24,-29],[7,-80],[31,-6],[22,55],[16,20],[21,2],[1,-19]],[[635,590],[-93,77],[13,66],[-104,67],[-10,-54],[-70,52],[-17,26]],[[354,824],[35,99],[68,182],[46,135],[70,-190],[22,-25],[38,146],[15,77],[91,302],[19,-36],[-47,-174],[-25,-81],[21,-19],[-46,-224],[-18,-131],[-20,-103],[17,-13],[-4,-18],[30,-26],[-31,-135]],[[635,590],[17,-17],[-7,-30],[-28,-4],[4,28],[-33,22],[-10,-58],[-45,-27]],[[533,504],[-20,-3],[11,80],[-13,19],[-3,-28],[-168,119],[-26,-76],[-10,8]],[[304,623],[6,15],[-21,15],[65,171]],[[533,504],[-12,-120],[3,-36],[-27,8],[-35,-356],[-21,34],[-241,360],[57,151],[36,87],[11,-9]],[[1737,7591],[-21,-106],[18,-10],[-5,-44],[8,-58],[-21,-7],[-5,-28],[-32,7],[1,29],[-46,16],[-17,15],[15,21],[19,74],[35,24],[8,52],[12,-5],[5,33],[-18,26],[17,47],[22,-31],[-6,-36],[11,-19]],[[9980,9698],[16,-42],[3,-36],[-18,-33],[-40,-4],[-11,-24],[-50,25],[-17,-8],[-59,-49],[-31,8],[-79,58],[-31,2],[-29,-18],[-7,40],[10,0],[-15,57],[-18,24],[14,42],[43,-52],[70,63],[50,98],[51,114],[20,26],[27,8],[49,-83],[17,-99],[17,-67],[18,-50]],[[4356,5579],[-29,-10],[-97,-60],[-21,-5],[4,-43],[-27,-6],[-24,-51],[-44,-9],[-10,-29],[-3,-98],[-15,-39],[-26,31],[-38,7],[-5,-69],[-68,43],[-10,-48],[-20,-29],[-10,-76],[12,-13],[-2,-40],[-46,-160],[-7,76],[8,51],[-10,19],[-55,22],[-7,49],[-16,46],[-25,-27],[-10,22],[40,45],[-3,34],[42,43],[7,-12],[47,51],[10,33],[25,137],[75,5],[74,-29],[58,11],[17,27],[33,113],[-10,12],[15,76],[16,-24],[10,33],[21,108],[30,56],[-24,102],[-18,129],[-16,78],[44,-11]],[[4248,6150],[1,-7],[65,-167],[22,-66],[24,-12],[19,-33],[21,-62],[4,-115],[12,-92],[-60,-17]],[[4248,6150],[104,-9],[64,-13],[19,-16],[20,-34],[89,-133],[37,-111],[-3,-21],[-46,-108],[-37,-60],[-39,-45],[-25,-18],[-60,-9],[-15,6]]]}
