{"type":"Topology","bbox":[-75.951300208401,4.194372868199148,-75.83032901336907,4.410313116258251],"transform":{"scale":[0.000012098329336126357,0.000021596184424352808],"translate":[-75.951300208401,4.194372868199148]},"objects":{"municipios":{"type":"GeometryCollection","geometries":[{"type":"Polygon","arcs":[[0,1,2,3,4,5]]},{"type":"Polygon","arcs":[[6,7,8,9]]},{"type":"Polygon","arcs":[[10,11,12,13,14,15,16]]},{"type":"Polygon","arcs":[[-15,17,18,19,20]]},{"type":"Polygon","arcs":[[21]]},{"type":"Polygon","arcs":[[22,23,24,-12,25,26]]},{"type":"Polygon","arcs":[[27,28,-24,29]]},{"type":"Polygon","arcs":[[30,31,-27,32,33]]},{"type":"Polygon","arcs":[[34,-10,35,36,-19]]},{"type":"Polygon","arcs":[[-14,37,38,39,40,41,-7,-35,-18]]},{"type":"Polygon","arcs":[[-25,-29,42,43,-38,-13]]},{"type":"Polygon","arcs":[[44,45,-39,-44]]},{"type":"Polygon","arcs":[[46,47,-6,48,-40,-46]]},{"type":"Polygon","arcs":[[49]]},{"type":"Polygon","arcs":[[50,51,52,-1,-48,53]]},{"type":"Polygon","arcs":[[-49,-5,54,55,-41]]},{"type":"Polygon","arcs":[[56,57,58,59,-3]]},{"type":"Polygon","arcs":[[60,61,-57,-2,-53]]},{"type":"Polygon","arcs":[[62,-61,-52]]},{"type":"Polygon","arcs":[[63]]},{"type":"Polygon","arcs":[[64,-16,-21,65,66,67,68]]},{"type":"Polygon","arcs":[[-67,69]]},{"type":"Polygon","arcs":[[70,71,-69,72,73,74]]},{"type":"Polygon","arcs":[[-74,75]]},{"type":"Polygon","arcs":[[76,-17,-65,-72]]},{"type":"Polygon","arcs":[[77,-33,-26,-11,-77,-71]]},{"type":"Polygon","arcs":[[-30,-23,-32,78]]},{"type":"Polygon","arcs":[[-54,-47,79,80]]},{"type":"Polygon","arcs":[[-36,-9,81,82]]},{"type":"Polygon","arcs":[[83,84,-82,-8,-42,-56]]},{"type":"Polygon","arcs":[[-4,-60,85,86,-84,-55]]},{"type":"Polygon","arcs":[[-59,87,-86]]},{"type":"Polygon","arcs":[[88]]},{"type":"Polygon","arcs":[[89,-80,-45,-43,-28,-79,-31]]},{"type":"MultiPolygon","arcs":[[[90]],[[91]]]},{"type":"Polygon","arcs":[[92]]}]}},"arcs":[[[1702,3251],[-8,-74]],[[1694,3177],[-8,-77]],[[1686,3100],[-69,4],[-133,3]],[[1484,3107],[4,38]],[[1488,3145],[13,113]],[[1501,3258],[201,-7]],[[1333,3452],[-10,-76],[-6,-37]],[[1317,3339],[-66,3]],[[1251,3342],[-67,2]],[[1184,3344],[4,17],[7,9],[-3,45],[9,5],[-21,11],[-13,14],[34,17],[65,-6],[67,-4]],[[1520,3641],[101,-5],[118,-6]],[[1739,3630],[-1,-38],[-4,-17],[12,-5],[58,-1],[-3,-20]],[[1801,3549],[-18,-3],[-19,-10],[-14,5],[11,11],[-22,6],[-22,13],[-29,3],[0,8],[-52,2],[-15,-15],[-10,0],[-2,-17],[-107,3],[-23,2]],[[1479,3557],[-54,2],[-13,3]],[[1412,3562],[5,34]],[[1417,3596],[6,47]],[[1423,3643],[23,-2],[74,0]],[[1412,3562],[-68,3]],[[1344,3565],[-87,2],[-8,6],[-7,20],[-94,-17]],[[1148,3576],[-5,12],[39,17],[-16,13],[-30,32],[-20,36],[4,7]],[[1120,3693],[67,4],[77,7],[31,-59],[17,-45],[36,2],[69,-6]],[[9805,80],[14,-1],[105,-21],[-14,-15],[7,-3],[82,-17],[-24,-23],[-43,9],[-9,-9],[-43,9],[2,4],[-35,6],[-6,-6],[-63,13],[-12,-14],[-70,15],[5,3],[-43,8],[15,16],[-80,15],[9,9],[21,-6],[15,14],[67,-14],[9,9],[33,-6],[15,14],[43,-9]],[[1949,3673],[-7,-12],[-77,3],[14,-18],[72,-2],[-2,-19],[-72,1],[-7,-9],[3,-13]],[[1873,3604],[0,-50],[-4,-8]],[[1869,3546],[-25,3],[-43,0]],[[1739,3630],[3,22],[-4,19],[-20,3],[-1,20],[8,3],[32,-2],[12,5]],[[1769,3700],[-1,-8],[58,-7],[33,8],[17,-3],[17,-10],[7,10],[16,3],[15,-14],[18,-6]],[[2079,3595],[-5,-37],[-9,-1],[-8,-16],[-19,-4],[19,-5],[-4,-27],[-11,-14]],[[2042,3491],[-43,16],[-37,16],[-40,8],[-39,9],[-14,6]],[[1873,3604],[49,0],[34,-4],[4,4],[35,-1],[4,-4],[80,-4]],[[2277,3703],[-12,-24],[-39,6],[-18,5],[-59,5],[-26,5],[-21,7],[-23,0],[-58,9],[-22,-18],[-23,-8]],[[1976,3690],[-11,-3],[-16,-14]],[[1769,3700],[-3,5]],[[1766,3705],[-21,5],[-1,8],[-20,19],[4,17],[-15,9],[-1,16],[13,5],[45,10],[-1,-14],[43,0],[44,-16],[46,5],[32,-4],[11,-15],[13,-4],[25,0],[61,-7],[74,-13],[20,52],[26,-2],[8,-6],[7,5],[18,-2],[-17,-48],[-12,-6],[109,-16]],[[1344,3565],[-2,-32],[-9,-81]],[[1184,3344],[-4,-16],[-105,-9],[-29,8],[-10,10]],[[1036,3337],[-7,15],[17,19],[-2,7],[-15,5],[-6,8],[-8,-4],[-12,7],[14,10],[10,0],[-25,25],[-37,10],[-25,-3],[50,48],[-15,5],[8,14],[-15,7],[26,20],[11,16],[23,4],[63,-6],[14,10],[11,15],[13,-1],[4,8],[15,0]],[[1479,3557],[-15,-110],[64,-2]],[[1528,3445],[-8,-75]],[[1520,3370],[-5,-37]],[[1515,3333],[-131,4]],[[1384,3337],[-67,2]],[[2042,3491],[2,-13],[-13,-40]],[[2031,3438],[-40,-8],[-18,4],[-36,29],[-23,8],[-30,-7],[-23,4],[-38,-22],[-25,-5],[-1,-7],[-121,5],[-76,1],[-6,2],[-66,3]],[[2031,3438],[-7,-23],[-10,-11],[-8,-26],[1,-37]],[[2007,3341],[-6,-3],[-85,14],[-54,12],[-50,7],[-156,-7],[-136,6]],[[2007,3341],[-10,-21],[-28,-10],[-50,-32],[-76,2],[-5,-33]],[[1838,3247],[-136,4]],[[1501,3258],[7,24],[7,51]],[[1726,7668],[6,-4],[15,8],[20,-11],[-9,-10],[-58,-20],[9,-34],[-24,-1],[15,-35],[30,-36],[-18,-12],[-19,11],[-24,24],[-23,39],[-20,3],[5,23],[12,20],[-7,12],[22,17],[9,-2],[50,15],[9,-7]],[[2290,3279],[19,3],[8,-18],[4,-27],[4,-2],[19,-77],[12,0],[8,-11]],[[2364,3147],[-41,3],[-39,-13],[-19,1],[-34,-14],[-15,8],[-13,-10],[-44,-8],[-39,21],[-17,6],[-4,14]],[[2099,3155],[1,10],[-25,-5],[-68,5],[-178,6],[-135,6]],[[1838,3247],[64,-2],[45,0],[47,-2],[5,-5],[104,-6],[3,-17],[14,14],[51,30],[7,28],[22,7],[41,-10],[30,0],[19,-5]],[[1488,3145],[-133,5]],[[1355,3150],[3,36],[6,38],[4,6],[3,46],[6,3],[7,58]],[[1686,3100],[-5,-38],[20,-1]],[[1701,3061],[-4,-56],[-19,4],[-32,1],[6,6],[5,32],[-32,2],[-1,15],[-11,13],[-13,2],[-49,-1],[-1,-10],[-25,-11],[9,-6],[-27,-10],[-1,-9],[-15,-4],[-10,-15],[-10,0],[-4,10],[-13,-1]],[[1454,3023],[17,8],[8,38]],[[1479,3069],[5,38]],[[2099,3155],[-9,-52],[-12,-53],[-66,8],[-9,-4],[-109,2]],[[1894,3056],[-29,5],[-164,0]],[[2364,3147],[-17,-14],[9,-39],[10,-8],[-19,-24],[-15,-3],[4,-13],[-2,-24],[3,-34],[-6,-7],[5,-11],[-7,-11],[-17,-1],[-32,8],[-15,-2],[-13,-11],[-16,-4],[-41,-2],[-9,5],[-24,1],[-2,-13],[-38,-8],[9,-5],[1,-12],[-22,5],[20,-10],[1,-11],[-24,-8],[-28,-3],[-5,20],[-24,-3],[-16,17],[-20,-5],[-12,2],[-15,-6],[-21,21],[2,14],[-18,13],[-13,-6],[0,11],[-11,5],[3,7],[-30,1],[12,9],[-19,5],[-30,1],[6,8],[-17,9],[7,10],[-18,12],[25,6],[19,-3],[10,20]],[[936,1072],[33,-2],[4,-27],[13,0],[3,-18],[27,-3],[2,-33],[-10,-10],[-27,-6],[3,-28],[-29,-2],[-13,7],[-13,-4],[-7,-41],[9,0],[-2,-30],[-28,-9],[3,44],[-34,-1],[-1,-9],[-36,-2],[-5,6],[1,17],[34,3],[6,16],[7,0],[2,20],[-17,-3],[-2,32],[-10,-1],[6,38],[38,-2],[2,36],[33,0],[-1,14],[9,-2]],[[1429,3734],[-39,-1],[-14,-16],[-15,-7],[14,-5],[21,0],[-2,-19],[32,-3],[-3,-40]],[[1120,3693],[0,24],[-14,4],[9,15],[12,-2]],[[1127,3734],[60,-11],[17,5],[0,17],[17,1],[-2,8],[10,7],[-91,52],[-14,-1]],[[1124,3812],[21,15],[1,11],[-11,4],[23,50],[25,19],[4,9],[-34,7],[7,11],[16,10]],[[1176,3948],[21,-5],[46,9],[46,-54],[14,-34],[-23,-12],[-13,-2],[3,-51],[40,-1],[62,-8],[22,-6],[29,-37],[6,-13]],[[1127,3734],[-12,4],[-38,-9],[-21,3],[-20,-6],[-16,1],[-8,7],[-24,3],[4,9],[-22,9],[-1,8],[-19,-3],[-14,-21],[-16,-10],[-21,10],[-28,21],[30,40],[-3,11],[37,9],[55,0],[46,10],[29,-3],[26,-18],[33,3]],[[1566,3759],[-30,0],[-10,-8]],[[1526,3751],[-10,4],[-31,-3],[-24,5],[-10,-15],[-22,-8]],[[1176,3948],[35,6],[-9,17],[-62,-6],[13,28],[-8,5],[6,11],[-7,16],[11,2],[-33,6],[4,9],[-31,11],[-2,10],[27,5],[2,8],[-20,6],[0,4],[-20,8],[38,-5],[20,-7]],[[1140,4082],[22,-7],[12,-15],[15,-31],[12,-4],[59,26],[81,29],[-8,11],[-28,12],[17,9],[55,9]],[[1377,4121],[-5,-16],[-15,-2],[-5,-12],[26,-11],[11,-11],[26,-12],[4,-7],[23,-10],[-5,-5],[19,-9],[37,0],[29,-10],[14,13],[57,7],[42,18],[19,4],[13,24],[71,13],[31,-14],[26,-8],[36,-22],[-47,-18],[-31,-10],[-20,-14],[-19,-10],[-11,-11],[-33,-15],[-26,-16],[-27,-48],[14,-3],[-9,-10],[-29,-10],[-24,-69],[-10,-8],[7,-50]],[[1140,4082],[-9,9],[3,13],[-31,6],[1,13],[29,0],[18,19],[-8,3],[25,41],[-31,4],[11,21],[17,-1],[4,13],[-23,4],[2,5],[20,-3],[14,13],[34,-6],[21,28],[12,24],[26,31],[35,28],[-33,5],[12,29],[23,28],[4,-1],[32,38],[-31,11],[17,7],[2,8],[19,19],[17,-7],[10,16],[-28,30],[-48,26],[41,25],[28,8],[2,13],[36,24],[5,22],[0,21],[9,5],[13,-3],[4,-20],[15,-14],[9,-18],[20,9],[22,-3],[14,-14],[-1,-24],[10,-32],[13,-7],[63,-10],[3,-15],[-10,-9],[-4,-16],[5,-7],[25,-7],[10,5],[20,-7],[-13,-17],[-18,-8],[-34,-1],[-14,-10],[-16,-3],[-18,-10],[-5,-21],[-8,-2],[17,-8],[23,6],[3,-4],[-15,-13],[-9,-23],[8,-12],[-27,-6],[-19,11],[-12,0],[-29,-10],[-10,-25],[-2,-59],[6,-7],[-12,-22],[-67,-20],[-33,-16],[-1,-18],[8,-1],[-17,-10],[18,-8],[-6,-15],[39,-20],[-18,-9]],[[1526,3751],[-1,-54],[-4,-18],[-1,-38]],[[1566,3759],[20,0],[10,-8],[-6,-8],[10,-9],[18,-3],[24,-15],[28,1],[20,11],[17,3],[25,-13],[1,-13],[33,0]],[[1976,3690],[22,-3],[-28,-17],[20,-3],[22,-16],[67,-12],[19,-8],[-15,-18],[-4,-18]],[[2007,3341],[26,2],[25,8],[50,28],[42,12]],[[2150,3391],[9,-10],[-7,-4],[-28,-3],[-21,-14],[-2,-11],[-37,-15],[34,-20],[19,-6],[22,-19],[29,15],[24,4],[25,-3],[32,-8],[27,-1],[0,-7],[14,-10]],[[1251,3342],[-2,-36],[64,-3],[-3,-23],[-7,-1],[-2,-13],[-62,0],[-4,-3],[-9,-73],[-36,1]],[[1190,3191],[-22,3],[-11,7],[-44,-5],[6,7],[-25,2],[-15,7],[-26,18],[-36,5],[-19,-11],[-23,9],[24,16],[14,3],[-11,9],[0,27],[36,0],[22,-6],[8,11],[-13,4],[-21,16],[1,21],[-33,13],[21,7],[13,-17]],[[1355,3150],[-68,2],[-116,4]],[[1171,3156],[3,13],[-21,4],[7,11],[24,-3],[6,10]],[[1479,3069],[-148,6],[-52,-10],[-26,1],[-85,17],[-21,-4]],[[1147,3079],[-18,10],[12,4],[-23,11],[8,7],[21,-8],[-2,-6],[49,9],[-5,9],[13,2],[1,27],[-36,4],[4,8]],[[1454,3023],[-21,-16],[-1,-11],[25,-14],[-17,-13],[8,-9],[-8,-12],[3,-11],[-13,1],[3,-18],[-4,-11],[4,-21],[-7,-51],[-13,-14],[-6,-21],[-40,0],[-32,11],[-27,0],[-2,13],[10,4],[-7,39],[-26,4],[12,15],[-2,23],[-8,6],[-23,-3],[-26,38],[-14,31],[-23,45],[-11,5],[5,17],[-16,10],[-34,2],[4,17]],[[252,8330],[36,-4],[-37,-51],[20,-10],[-15,-13],[-9,2],[-51,-30],[-14,8],[-56,-26],[8,-9],[-74,-16],[1,-40],[38,-12],[-7,-8],[-37,10],[-3,-8],[-24,-1],[-28,9],[14,7],[13,37],[0,17],[-17,13],[12,25],[14,0],[36,-16],[14,2],[32,13],[24,6],[28,29],[-6,16],[60,53],[8,4],[20,-7]],[[2277,3703],[27,4],[27,0],[15,-6],[5,-12],[26,-5],[5,-6],[19,3],[14,-20],[6,-19],[-4,-12],[-21,-34],[2,-17],[12,-40],[0,-15],[7,-38],[39,-19],[2,-14],[33,-12],[4,-6],[-83,9],[-36,-3],[-40,-6],[-74,-15],[-112,-29]],[[2730,9517],[2,-6],[31,1],[9,-21],[-16,-4],[7,-13],[17,4],[0,-13],[9,-19],[13,-12],[12,6],[19,-8],[-26,-12],[10,-5],[-29,3],[-13,17],[6,12],[-11,5],[-12,13],[-12,5],[-16,-13],[13,-2],[-14,-6],[-26,2],[1,6],[-16,12],[-11,-3],[-11,10],[-71,-14],[-26,-28],[-17,-9],[-4,-13],[-12,-11],[-9,3],[12,21],[32,35],[21,11],[38,12],[-5,7],[55,15],[32,3],[-5,9],[-64,-14],[-30,-12],[3,-3],[-50,-21],[-9,-7],[-15,10],[113,49],[29,8],[56,9],[-1,-14],[-9,-5]],[[2906,9326],[-16,-2],[-20,21],[-3,11],[-53,8],[0,11],[29,33],[-17,7],[28,-6],[17,-8],[12,-29],[-3,-26],[31,-18],[-5,-2]],[[5197,9988],[10,2],[17,-10],[44,-10],[-5,-5],[-42,4],[-44,-9],[31,-20],[-19,-4],[-35,14],[-52,-30],[-34,-15],[-30,-7],[-25,-2],[-163,2],[25,-14],[-15,-6],[-37,17],[-22,3],[6,-9],[-33,-2],[-1,9],[-73,-5],[-40,7],[11,30],[48,-4],[16,-15],[94,11],[36,3],[148,-10],[43,5],[15,5],[33,21],[56,55],[37,-11]]]}