{"type":"Topology","bbox":[-76.35312369167264,4.4752466198939445,-76.21107221004087,4.600223232590765],"transform":{"scale":[0.00001420656882005878,0.00001249891116079814],"translate":[-76.35312369167264,4.4752466198939445]},"objects":{"municipios":{"type":"GeometryCollection","geometries":[{"type":"Polygon","arcs":[[0]],"properties":{"codigo":"76250200101013000101","sector":"762502001010130001","pcode":"CO76250","area_m2":11759}},{"type":"Polygon","arcs":[[1,2,3]],"properties":{"codigo":"76250100000000000105","sector":"762501000000000001","pcode":"CO76250","area_m2":135749}},{"type":"MultiPolygon","arcs":[[[4]],[[5]],[[6]],[[7]]],"properties":{"codigo":"76250200206015000101","sector":"762502002060150001","pcode":"CO76250","area_m2":358808}},{"type":"Polygon","arcs":[[8,9,10]],"properties":{"codigo":"76250100000000000101","sector":"762501000000000001","pcode":"CO76250","area_m2":186295}},{"type":"Polygon","arcs":[[-10,11,12]],"properties":{"codigo":"76250100000000000102","sector":"762501000000000001","pcode":"CO76250","area_m2":269380}},{"type":"Polygon","arcs":[[13,14,-12,-9,15]],"properties":{"codigo":"76250100000000000103","sector":"762501000000000001","pcode":"CO76250","area_m2":131395}},{"type":"Polygon","arcs":[[16,-4,17,18,-14]],"properties":{"codigo":"76250100000000000104","sector":"762501000000000001","pcode":"CO76250","area_m2":95957}},{"type":"Polygon","arcs":[[19,-18,-3]],"properties":{"codigo":"76250100000000000106","sector":"762501000000000001","pcode":"CO76250","area_m2":155367}},{"type":"Polygon","arcs":[[20]],"properties":{"codigo":"76250200106003000101","sector":"762502001060030001","pcode":"CO76250","area_m2":39562}},{"type":"Polygon","arcs":[[21]],"properties":{"codigo":"76250200106007000101","sector":"762502001060070001","pcode":"CO76250","area_m2":21504}},{"type":"Polygon","arcs":[[22]],"properties":{"codigo":"76250200206016000101","sector":"762502002060160001","pcode":"CO76250","area_m2":778011}}]}},"arcs":[[[4274,9997],[38,-62],[-36,-28],[15,-27],[-15,-14],[-16,19],[-36,76],[42,21],[8,15]],[[8367,2597],[-13,-31],[7,-37],[21,-12],[27,10],[10,-24],[41,2],[1,-11],[59,-2],[45,-34],[-29,-58],[30,-24],[-26,-43],[-94,75],[-15,-35],[-32,21]],[[8399,2394],[7,47],[-145,-66],[9,102],[-169,21]],[[8101,2498],[11,128],[255,-29]],[[8983,2168],[-7,47],[170,-24],[1,-38],[83,3],[10,-60],[106,1],[37,-7],[-23,-60],[159,-90],[-45,-123],[77,-52],[19,-5],[-51,-68],[-89,39],[-27,17],[-19,23],[-42,34],[-31,5],[6,12],[-82,56],[-56,33],[-61,23],[-60,64],[-33,26],[-33,45],[-45,-20],[-219,84],[15,40],[51,-34],[26,82],[68,-27],[95,-26]],[[8691,2194],[-21,-42],[-49,38],[28,48],[-42,39],[28,45],[29,-21],[-4,-15],[41,-28],[-26,-41],[16,-23]],[[8591,2288],[-11,-20],[-45,43],[10,19],[46,-42]],[[8679,2372],[-16,-34],[-27,25],[15,32],[28,-23]],[[8369,2861],[-238,27]],[[8131,2888],[21,188],[9,17],[35,6],[-6,69],[-6,2],[-6,61],[-11,48]],[[8167,3279],[57,8],[-31,134],[-12,31],[-15,16],[-5,29],[85,-23],[42,-158],[49,36],[35,-29],[-41,-89],[5,-3],[58,-89],[-44,-47],[-21,5],[-34,-37],[-32,-14],[-20,-58],[-25,0],[8,-43],[55,-3],[22,18],[10,-14],[28,6],[17,-7],[-1,-25],[16,1],[-4,-63]],[[8131,2888],[-95,7],[-47,0]],[[7989,2895],[-17,-8],[-22,9],[6,12],[-31,60],[-24,-4],[-18,-33],[-55,66],[-22,8],[3,24],[-32,17],[-12,21],[5,32],[-36,30],[10,49],[43,-18],[31,21],[56,94],[38,-33],[-1,-12],[43,-1],[14,46],[29,50],[24,15],[47,-3],[47,32],[-33,-91],[-30,-48],[1,-67],[9,-37],[24,10],[48,104],[21,13],[12,26]],[[8338,2657],[-22,48],[-49,45],[-22,-6],[-177,19],[-45,1]],[[8023,2764],[-4,24],[-20,35],[-10,72]],[[8369,2861],[-2,-40],[34,-8],[40,-18],[6,-27],[-7,-48],[-18,-5],[3,-17],[-46,-23],[-24,3],[3,-15],[-20,-6]],[[8338,2657],[-4,-20],[33,-40]],[[8101,2498],[-48,4]],[[8053,2502],[7,16],[-11,34],[25,-7],[3,25],[-29,4],[-4,12],[33,4],[3,18],[-36,29],[24,40],[-31,25],[-16,24],[2,38]],[[8399,2394],[-7,-31],[-30,3],[-2,-55],[-33,-6],[-5,14],[-37,-8],[-2,-63],[-27,-70],[-27,1],[7,45],[-10,6],[-26,-20],[-21,16],[-10,-22],[-17,-94],[-22,-56],[-15,3],[-1,-38],[-21,-7],[16,137],[-6,25],[17,34],[-23,38],[5,21],[-44,36],[3,44],[42,-16],[-2,21],[-21,38],[22,-11],[10,10],[-4,33],[-27,16],[-12,20],[-26,15],[10,29]],[[174,1639],[63,-23],[33,9],[61,-10],[-6,-36],[-40,10],[6,-35],[-55,-8],[-24,15],[-28,-4],[-62,6],[-50,20],[-21,15],[9,39],[33,-9],[18,34],[63,-23]],[[92,3068],[18,-15],[17,-43],[-36,-27],[-4,6],[-50,-36],[-37,67],[27,17],[-13,28],[23,13],[6,-11],[35,22],[14,-21]],[[9875,1623],[-17,-44],[-22,-2],[-17,-32],[-3,-32],[-20,-33],[-25,-23],[23,-53],[13,-48],[-6,-60],[1,-65],[-7,-40],[-31,-37],[-5,-32],[-48,-125],[-23,-80],[-8,-83],[6,-52],[23,-51],[25,-25],[23,-71],[40,-72],[27,-35],[35,-29],[26,-41],[28,-27],[24,-35],[9,-38],[-18,-53],[-48,-43],[-31,-45],[64,-69],[77,-69],[-8,-37],[17,-9],[-6,-33],[-24,0],[-4,15],[-51,27],[-7,-19],[-14,23],[2,24],[-28,10],[-15,25],[-5,32],[-14,23],[-36,15],[1,-15],[-46,-8],[3,-33],[-46,-8],[1,70],[-30,-33],[-12,12],[-23,-6],[-43,95],[11,3],[-31,119],[49,13],[-45,116],[-21,-8],[-17,33],[-19,17],[4,44],[-20,98],[2,31],[43,137],[-6,3],[17,60],[-3,59],[-24,2],[1,17],[21,-2],[-5,103],[-59,4],[28,65],[22,-5],[-1,29],[13,48],[27,44],[11,50],[33,104],[19,37],[-3,83],[-23,69],[-26,-10],[-21,56],[-18,5],[47,79],[20,43],[34,-75],[218,-71],[-5,-26]]]}
