{"type":"Topology","bbox":[-76.32147893402805,3.70662638031726,-76.22848110519993,3.7564275443207755],"transform":{"scale":[0.00000930071295410718,0.000004980614461797744],"translate":[-76.32147893402805,3.70662638031726]},"objects":{"municipios":{"type":"GeometryCollection","geometries":[{"type":"Polygon","arcs":[[0,1,2,3,4]]},{"type":"Polygon","arcs":[[5,6,-5,7]]},{"type":"Polygon","arcs":[[-3,8,9,10]]},{"type":"Polygon","arcs":[[11,12,13,-9,-2]]},{"type":"Polygon","arcs":[[14,15,-13,16]]},{"type":"Polygon","arcs":[[17,-17,-12,-1,-7]]},{"type":"Polygon","arcs":[[18,-10,-14,-16,19,20]]},{"type":"Polygon","arcs":[[21,-4,-11,-19,22,23]]},{"type":"Polygon","arcs":[[-8,-22,24]]},{"type":"Polygon","arcs":[[-21,25,-23]]},{"type":"Polygon","arcs":[[26,27]]},{"type":"Polygon","arcs":[[-28,28]]},{"type":"Polygon","arcs":[[29]]},{"type":"Polygon","arcs":[[30]]},{"type":"Polygon","arcs":[[31]]}]}},"arcs":[[[6072,3608],[-205,-141]],[[5867,3467],[-70,-48],[-24,135]],[[5773,3554],[-45,259]],[[5728,3813],[279,185]],[[6007,3998],[65,-390]],[[6366,4163],[-10,-89],[14,-193],[59,33],[20,-126],[52,-42],[24,-80],[4,-140],[-28,-44],[-59,137],[-163,-125]],[[6279,3494],[-39,219],[-168,-105]],[[6007,3998],[203,133],[-25,131],[98,82],[71,34],[1,-146],[11,-69]],[[5773,3554],[-205,-140]],[[5568,3414],[-46,265],[66,46],[-24,125],[141,96]],[[5705,3946],[23,-133]],[[5867,3467],[44,-255]],[[5911,3212],[-269,-184]],[[5642,3028],[-74,386]],[[5969,2894],[-55,-25],[-12,-50],[37,-205],[16,-11],[69,-425],[-144,-151],[-72,527],[-68,-36],[-28,130],[-37,75],[-19,-3],[-45,-84],[-45,-37]],[[5566,2599],[-35,204],[137,97],[-26,128]],[[5911,3212],[58,-318]],[[6279,3494],[64,-357],[-159,-117],[-215,-126]],[[5683,4074],[22,-128]],[[5566,2599],[-124,-266],[-33,-82],[-47,-77],[-104,270],[-155,470],[-106,-62],[-72,-29],[-13,161],[82,27],[-34,276],[66,93],[95,169],[30,115],[219,206],[-2,70],[30,125],[202,94]],[[5600,4159],[18,-125],[65,40]],[[5928,4507],[10,-141],[69,-368]],[[5683,4074],[-32,218],[124,76],[-36,221],[-42,213]],[[5697,4802],[-3,16],[209,116],[25,-427]],[[5928,4507],[154,107],[-13,61],[55,44],[13,36],[62,-315],[42,-122],[105,71],[28,55],[38,215],[23,37],[60,12],[0,-117],[-75,-17],[-4,-149],[-16,-135],[-27,-50],[-7,-77]],[[5600,4159],[-66,349],[-33,153],[46,40],[150,101]],[[9603,8815],[-62,-181],[-26,0],[-114,-114],[-19,-49],[-90,-64],[-57,-81],[-42,38],[-58,-6],[-22,63],[-55,-34],[-16,72],[21,15],[-24,97],[53,39],[-167,504],[127,77],[103,-30],[79,-125],[54,274],[7,76],[-22,46],[47,-6]],[[9320,9426],[-10,-123],[-31,-159],[77,-30],[206,-188],[-10,-63],[51,-48]],[[9320,9426],[19,-4],[7,121],[67,-7],[5,50],[-29,119],[5,58],[47,225],[15,11],[122,-32],[-6,-366],[61,-48],[113,7],[-6,-93],[-30,-196],[47,-78],[-10,-134],[35,-53],[-23,-26],[90,-63],[46,36],[95,20],[9,-137],[-20,76],[-122,-33],[-76,9],[-46,23],[-44,64],[-77,-1],[-11,-159]],[[8679,4683],[13,61],[26,6],[30,-220],[17,-54],[-1,-100],[36,-143],[-16,-41],[-87,2],[22,-151],[36,-119],[-76,-92],[-152,-116],[-12,37],[-96,-46],[-35,46],[-32,-24],[1,135],[58,54],[-6,44],[119,108],[-36,132],[-23,41],[11,136],[-50,-33],[-7,101],[-60,-42],[-1,52],[-28,21],[-55,-16],[-6,-70],[-31,4],[-7,86],[-34,36],[-2,117],[57,-11],[2,-32],[59,0],[28,27],[139,70],[15,-62],[73,24],[-9,84],[102,58],[18,-110]],[[195,2040],[7,-140],[-6,-254],[2,-177],[-5,-281],[8,-457],[0,-265],[-23,-301],[-14,-51],[-2,-114],[-78,9],[8,370],[-13,185],[-79,1276],[46,-4],[23,94],[28,19],[32,121],[66,-30]],[[7416,3145],[41,-4],[-5,-37],[85,36],[-19,-136],[25,2],[-39,-157],[-93,7],[-12,-130],[-31,-60],[-11,-112],[-59,-79],[49,-73],[-3,-79],[-33,1],[-8,51],[-67,115],[-44,-90],[-31,-177],[-51,-128],[-109,306],[92,101],[-26,89],[47,56],[-13,56],[49,42],[10,67],[48,-7],[75,31],[74,110],[-20,169],[79,30]]]}
