{"type":"Topology","bbox":[-76.02972033765775,4.550814394625538,-75.87573338498362,4.651175624480876],"transform":{"scale":[0.000015400235290942225,0.0000100371266982036],"translate":[-76.02972033765775,4.550814394625538]},"objects":{"municipios":{"type":"GeometryCollection","geometries":[{"type":"Polygon","arcs":[[0,1,2,3]]},{"type":"Polygon","arcs":[[4]]},{"type":"Polygon","arcs":[[5]]},{"type":"Polygon","arcs":[[6]]},{"type":"Polygon","arcs":[[7]]},{"type":"Polygon","arcs":[[8]]},{"type":"Polygon","arcs":[[9,-4,10]]},{"type":"Polygon","arcs":[[11,-2,12]]},{"type":"Polygon","arcs":[[-13,-1,-10,13]]},{"type":"MultiPolygon","arcs":[[[14]],[[15]]]},{"type":"Polygon","arcs":[[16]]}]}},"arcs":[[[3688,2629],[-12,-80],[23,-151]],[[3699,2398],[-165,-83],[-102,54],[-47,-165],[-46,-146],[-80,-220]],[[3259,1838],[-193,90],[-14,16],[118,218],[4,149],[-3,109],[13,208],[20,239]],[[3204,2867],[66,-28],[104,-10],[60,-13],[4,-52],[20,-30],[58,-21],[26,110],[88,-54],[-25,-87],[83,-53]],[[7046,9402],[25,-10],[-23,-139],[-14,-137],[-39,9],[40,252],[11,25]],[[492,9998],[72,-6],[2,-94],[21,-29],[49,-6],[-4,-35],[-67,11],[-10,-56],[-28,14],[11,85],[-23,13],[-8,-35],[-24,9],[9,40],[-26,18],[16,72],[10,-1]],[[87,7260],[16,-28],[61,-15],[-6,-45],[-14,11],[-67,-244],[-56,61],[27,96],[-48,26],[30,113],[43,-36],[9,23],[-13,38],[18,0]],[[9965,483],[34,-42],[-18,-121],[-1,-120],[-8,-45],[-26,-60],[-28,-37],[-14,-51],[-19,-7],[-26,33],[43,67],[18,49],[23,-4],[-18,46],[-35,33],[22,15],[40,-10],[4,87],[-10,59],[6,82],[13,26]],[[9457,6532],[15,-23],[56,-16],[20,-52],[35,-138],[-33,-20],[11,-28],[-21,-10],[0,-30],[-35,-45],[-26,-51],[-21,-13],[-9,82],[15,21],[35,9],[-1,61],[-31,-11],[-31,107],[-22,-4],[-4,81],[22,21],[-3,50],[28,9]],[[3877,2872],[-123,-127],[-51,9],[-15,-125]],[[3204,2867],[-57,26],[39,316],[30,11],[174,-69],[102,-35],[-10,-78],[14,-55],[34,26],[64,8],[94,388],[28,-51],[99,-149],[15,-34],[27,-128],[-28,-30],[18,-37],[32,11],[23,-18],[-4,-47],[-20,0],[-1,-50]],[[3741,2021],[-26,-113],[2,-55],[-12,-71],[-127,34],[-2,-30],[-49,6],[-26,-46],[2,-92],[-8,-20],[-44,-23],[-39,38],[-3,40],[-41,72],[-23,73],[-16,-32],[-70,36]],[[3699,2398],[31,-148],[2,-81],[-7,-43],[21,-66],[-5,-39]],[[3877,2872],[12,-19],[56,-3],[10,-102],[23,-7],[36,50],[21,-53],[5,-58],[-25,-28],[-2,-51],[18,-18],[94,-33],[14,-36],[-18,-40],[21,-79],[-47,-48],[1,-80],[-27,-5],[-7,-38],[35,-129],[-28,-23],[2,-49],[-48,50],[1,35],[-64,45],[-61,-52],[-20,0],[-20,-39],[-12,-76],[-106,35]],[[6811,988],[15,39],[44,-21],[-16,-60],[-24,-4],[-12,-54],[-43,38],[18,89],[-29,61],[-2,62],[37,-71],[12,-79]],[[6935,1158],[37,-14],[-11,-33],[-18,14],[-26,-47],[-29,26],[3,22],[44,32]],[[8578,1238],[-15,-68],[7,-91],[-4,-51],[-33,12],[-10,-48],[-60,-41],[10,168],[19,104],[61,0],[31,43],[-6,-28]]]}