{"type":"Topology","bbox":[-76.31679992488625,3.394289109825153,-76.15314318976738,3.431180546745281],"transform":{"scale":[0.000016367310242912026,0.000003689512643277114],"translate":[-76.31679992488625,3.394289109825153]},"objects":{"municipios":{"type":"GeometryCollection","geometries":[{"type":"Polygon","arcs":[[0,1,2,3,4,5]],"properties":{"codigo":"76563100000000000103","sector":"765631000000000001","pcode":"CO76563","area_m2":86607}},{"type":"Polygon","arcs":[[6,7,-2,8]],"properties":{"codigo":"76563100000000000104","sector":"765631000000000001","pcode":"CO76563","area_m2":96247}},{"type":"Polygon","arcs":[[-3,-8,9,10,11,12]],"properties":{"codigo":"76563100000000000107","sector":"765631000000000001","pcode":"CO76563","area_m2":155036}},{"type":"Polygon","arcs":[[-11,13,14,15]],"properties":{"codigo":"76563100000000000108","sector":"765631000000000001","pcode":"CO76563","area_m2":167446}},{"type":"Polygon","arcs":[[16,17,-12,-16,18]],"properties":{"codigo":"76563100000000000109","sector":"765631000000000001","pcode":"CO76563","area_m2":112735}},{"type":"Polygon","arcs":[[19,20,21,-14,-10,-7]],"properties":{"codigo":"76563100000000000105","sector":"765631000000000001","pcode":"CO76563","area_m2":148898}},{"type":"Polygon","arcs":[[22,23,24,25]],"properties":{"codigo":"76563100000000000206","sector":"765631000000000002","pcode":"CO76563","area_m2":214268}},{"type":"Polygon","arcs":[[26,27]],"properties":{"codigo":"76563200104013000201","sector":"765632001040130002","pcode":"CO76563","area_m2":81343}},{"type":"Polygon","arcs":[[28]],"properties":{"codigo":"76563200202014000101","sector":"765632002020140001","pcode":"CO76563","area_m2":132727}},{"type":"Polygon","arcs":[[29]],"properties":{"codigo":"76563200202018000101","sector":"765632002020180001","pcode":"CO76563","area_m2":84313}},{"type":"Polygon","arcs":[[30]],"properties":{"codigo":"76563200104028000101","sector":"765632001040280001","pcode":"CO76563","area_m2":29155}},{"type":"Polygon","arcs":[[31]],"properties":{"codigo":"76563200203024000101","sector":"765632002030240001","pcode":"CO76563","area_m2":108128}},{"type":"Polygon","arcs":[[32]],"properties":{"codigo":"76563200203011000101","sector":"765632002030110001","pcode":"CO76563","area_m2":73986}},{"type":"Polygon","arcs":[[-27,33]],"properties":{"codigo":"76563200104013000101","sector":"765632001040130001","pcode":"CO76563","area_m2":117540}},{"type":"MultiPolygon","arcs":[[[34]],[[35]],[[36]],[[37]],[[38]]],"properties":{"codigo":"76563200302025000101","sector":"765632003020250001","pcode":"CO76563","area_m2":10908}},{"type":"Polygon","arcs":[[39,40,41]],"properties":{"codigo":"76563100000000000203","sector":"765631000000000002","pcode":"CO76563","area_m2":70527}},{"type":"Polygon","arcs":[[42,-42,43,44,45]],"properties":{"codigo":"76563100000000000201","sector":"765631000000000002","pcode":"CO76563","area_m2":151763}},{"type":"Polygon","arcs":[[46,47,48,-26,49,50,51,52]],"properties":{"codigo":"76563100000000000205","sector":"765631000000000002","pcode":"CO76563","area_m2":195844}},{"type":"Polygon","arcs":[[53,-6,54,55,-50]],"properties":{"codigo":"76563100000000000208","sector":"765631000000000002","pcode":"CO76563","area_m2":115357}},{"type":"Polygon","arcs":[[-41,56,-51,-56,57,-44]],"properties":{"codigo":"76563100000000000204","sector":"765631000000000002","pcode":"CO76563","area_m2":176575}},{"type":"Polygon","arcs":[[58,-52,-57,59,60]],"properties":{"codigo":"76563100000000000209","sector":"765631000000000002","pcode":"CO76563","area_m2":107627}},{"type":"Polygon","arcs":[[61,-20,-9,-1,-54,-25]],"properties":{"codigo":"76563100000000000207","sector":"765631000000000002","pcode":"CO76563","area_m2":154021}},{"type":"Polygon","arcs":[[62,-21,-62,-24]],"properties":{"codigo":"76563100000000000211","sector":"765631000000000002","pcode":"CO76563","area_m2":243045}},{"type":"Polygon","arcs":[[63,64,-17,65]],"properties":{"codigo":"76563100000000000110","sector":"765631000000000001","pcode":"CO76563","area_m2":85781}},{"type":"Polygon","arcs":[[66,67,68,-64,69]],"properties":{"codigo":"76563100000000000101","sector":"765631000000000001","pcode":"CO76563","area_m2":242304}},{"type":"Polygon","arcs":[[-60,-40,-43,70]],"properties":{"codigo":"76563100000000000202","sector":"765631000000000002","pcode":"CO76563","area_m2":127214}},{"type":"Polygon","arcs":[[71,72,-67]],"properties":{"codigo":"76563100000000000111","sector":"765631000000000001","pcode":"CO76563","area_m2":68602}},{"type":"Polygon","arcs":[[73,-45,-58,-55,-5,74,-68,-73]],"properties":{"codigo":"76563100000000000102","sector":"765631000000000001","pcode":"CO76563","area_m2":155071}},{"type":"Polygon","arcs":[[-13,-18,-65,-69,-75,-4]],"properties":{"codigo":"76563100000000000106","sector":"765631000000000001","pcode":"CO76563","area_m2":105406}},{"type":"Polygon","arcs":[[75,-48,76,-53,-59]],"properties":{"codigo":"76563100000000000210","sector":"765631000000000002","pcode":"CO76563","area_m2":109751}}]}},"arcs":[[[4543,6733],[-43,-165]],[[4500,6568],[-101,565]],[[4399,7133],[40,155]],[[4439,7288],[81,301]],[[4520,7589],[106,-548]],[[4626,7041],[-83,-308]],[[4416,6247],[-164,938]],[[4252,7185],[77,303],[70,-355]],[[4500,6568],[-84,-321]],[[4252,7185],[-79,-296]],[[4173,6889],[-30,198],[19,80],[-82,639],[96,95],[-9,203]],[[4167,8104],[126,-51]],[[4293,8053],[9,-87],[28,-130],[109,-548]],[[4173,6889],[-47,-184]],[[4126,6705],[0,349],[-8,99],[-52,410],[-37,90],[-17,150],[-50,93],[-41,103],[-107,134],[17,128],[19,34],[42,129],[-20,92],[16,-4],[27,-107],[57,-93],[14,259]],[[3986,8571],[172,-200],[24,-15],[-15,-252]],[[4115,8924],[84,-44],[-3,-81],[40,-20],[-9,-232],[70,-153]],[[4297,8394],[-4,-341]],[[3986,8571],[14,389],[59,-44],[1,31],[55,-23]],[[4416,6247],[-52,-200]],[[4364,6047],[-96,-356],[-7,-85],[-23,-11]],[[4238,5595],[0,397],[-21,371],[-30,237],[-55,-33],[-34,36],[28,102]],[[4822,4424],[-105,-4],[-5,207],[-4,-122],[-28,-113],[-57,319],[21,78],[-11,72]],[[4633,4861],[-51,234],[-60,307]],[[4522,5402],[154,600]],[[4676,6002],[145,-790],[7,-96],[-1,-285],[-5,-407]],[[564,2022],[-265,604],[16,331]],[[315,2957],[41,-12],[5,73],[23,-16],[-7,-326],[-29,74],[-6,-125],[58,-113],[-1,-96],[182,-409],[51,-131],[2,161],[52,-27],[15,-28],[-11,-111],[55,-108],[-3,-33],[109,-231],[-1,-135],[32,-65],[-28,-73],[-48,100],[-24,-2],[-12,-56],[-23,81],[18,90],[-34,89],[-5,-27],[-100,251],[-24,48],[11,109],[-49,113]],[[7257,4272],[22,12],[4,-117],[-94,-127],[-444,-521],[-7,-266],[-23,7],[6,229],[-168,-200],[-34,-52],[-6,119],[47,58],[-6,103],[194,227],[291,350],[77,97],[158,241],[2,-44],[-19,-116]],[[8013,8115],[17,-16],[-26,-299],[28,-342],[48,73],[0,-208],[-128,-204],[-128,-334],[-28,-108],[-178,-308],[-86,-135],[-12,109],[41,76],[121,188],[17,106],[31,70],[7,-87],[37,63],[30,118],[191,456],[-34,501],[32,314],[20,-33]],[[1150,2751],[30,-41],[-6,-87],[72,-99],[-1,-44],[-41,22],[-59,-59],[-11,-56],[-48,149],[-19,30],[28,305],[56,-95],[-1,-25]],[[7077,1713],[-3,-73],[39,-17],[-1,-118],[-13,-30],[-83,17],[-81,35],[11,-70],[1,-131],[9,-60],[15,27],[5,-55],[-34,-50],[31,-97],[-3,-84],[27,-31],[1,34],[32,-8],[19,60],[8,-51],[15,40],[4,-119],[21,-64],[-9,-51],[21,-44],[-4,-88],[52,-126],[-22,-31],[3,47],[-25,54],[1,-81],[-22,3],[3,75],[-15,47],[-23,-16],[-66,67],[5,96],[-33,-1],[0,85],[-36,-2],[-18,98],[8,79],[-6,116],[-42,-35],[3,117],[-6,120],[60,90],[5,196],[31,-13],[17,356],[56,-12],[-3,-55],[56,-18],[-11,-228]],[[4817,1945],[6,-63],[-1,-495],[0,-473],[13,-37],[-11,-103],[-18,-334],[-45,-358],[-14,3],[-15,-75],[-9,134],[31,21],[10,162],[8,409],[3,303],[12,830],[14,1093],[11,-22],[0,-212],[5,-263],[0,-520]],[[564,2022],[-14,-115],[-25,58],[-28,-206],[-33,80],[22,183],[-199,470],[-18,-185],[-13,30],[-1,119],[-21,-9],[20,181],[-52,97],[-4,-48],[-43,68],[3,41],[-43,91],[-5,-64],[-19,43],[10,106],[-47,113],[-20,-163],[-34,59],[23,291],[-8,26],[8,90],[49,-119],[8,186],[51,-178],[42,-103],[-7,-99],[42,-71],[-3,-34],[49,-115],[-8,-93],[29,-64],[30,283],[10,-14]],[[9990,8372],[-42,-173],[-28,46],[-61,-128],[-4,65],[54,83],[22,9],[-1,45],[30,10],[30,43]],[[9946,8448],[-9,69],[14,3],[-5,-72]],[[9962,8597],[0,0]],[[9999,8682],[-25,-45],[-4,81],[29,-36]],[[9959,8722],[-11,-62],[-24,-7],[-9,99],[44,-30]],[[5072,7009],[-72,-490]],[[5000,6519],[-69,129],[-50,274],[8,201],[-1,191]],[[4888,7314],[60,7],[35,-121],[89,-191]],[[5050,7830],[8,-62],[36,-36],[-4,-99],[9,-61],[30,-66],[-24,-349],[-20,-178],[-13,30]],[[4888,7314],[-28,50],[-67,316]],[[4793,7680],[38,156],[10,104],[57,77],[20,86],[0,61]],[[4918,8164],[26,48],[20,-239],[12,-52],[46,-78],[28,-13]],[[4966,5021],[0,-1]],[[4966,5020],[-38,-13]],[[4928,5007],[-45,-21],[-6,-363],[-41,13],[-4,-212],[-10,0]],[[4676,6002],[94,368],[35,123]],[[4805,6493],[43,-246],[70,-353]],[[4918,5894],[-16,-62],[33,-80],[36,-37]],[[4971,5715],[-8,-348],[3,-346]],[[4676,6002],[-65,364],[-68,367]],[[4626,7041],[41,162]],[[4667,7203],[138,-710]],[[5000,6519],[-41,-314],[-18,-103],[12,-69],[-35,-139]],[[4667,7203],[126,477]],[[5154,5685],[-73,10],[-78,-3],[-32,23]],[[5000,6519],[165,-345]],[[5165,6174],[-11,-489]],[[4522,5402],[-37,188],[-87,302],[-34,155]],[[4633,4861],[-26,-90],[-43,-37],[-85,56],[-129,72],[-10,-24],[-3,-334],[-93,221],[-1,403],[-5,467]],[[4327,9418],[-21,-705]],[[4306,8713],[-9,-319]],[[4115,8924],[6,157],[10,-5],[3,99],[70,-49],[14,296],[109,-4]],[[4575,8793],[-32,78],[-24,-24],[-19,21],[-9,-83],[-20,-313],[16,-85],[13,49],[23,-139],[56,224],[42,-200]],[[4621,8321],[-8,-22],[-17,-298],[11,-94],[-46,-162],[-38,191],[-39,-154]],[[4484,7782],[-52,283],[-22,73],[-25,157],[-21,50],[25,191],[-83,177]],[[4327,9418],[10,244],[9,337],[18,-57],[2,-120],[35,-5],[27,-77],[30,41],[18,-20],[-1,-120],[-24,-123],[-2,-74],[18,-90],[30,-231],[53,-218],[28,-65],[-3,-47]],[[5050,7830],[43,31],[36,-152],[55,-32],[37,-114],[-20,-156],[-37,-1215],[1,-18]],[[4575,8793],[3,-73],[18,-17],[25,46],[20,-20],[-11,-178],[1,-100],[16,5],[18,77],[18,-249],[15,-47],[29,40],[24,-72],[21,-152]],[[4772,8053],[-16,-93],[-25,92],[-15,-62],[-37,181],[-20,-56],[-38,206]],[[4772,8053],[34,-96],[18,2],[17,114],[36,11],[41,80]],[[4520,7589],[-36,193]],[[5154,5685],[71,-108],[-9,-112],[-23,56],[-49,-638],[-31,33],[3,110],[-48,54],[0,-20],[-74,-27],[-15,-64],[-51,38]],[[4966,5020],[0,1]]]}
