{"type":"Topology","bbox":[-76.16896292709146,4.518707543231592,-76.0796411636423,4.559968514939814],"transform":{"scale":[0.000008933069651881531,0.0000041265098218043545],"translate":[-76.16896292709146,4.518707543231592]},"objects":{"municipios":{"type":"GeometryCollection","geometries":[{"type":"MultiPolygon","arcs":[[[0]],[[1]]]},{"type":"Polygon","arcs":[[2,3,4]]},{"type":"Polygon","arcs":[[5,6]]},{"type":"Polygon","arcs":[[7,8,9,10,11,12]]},{"type":"Polygon","arcs":[[13,14,15,-11]]},{"type":"Polygon","arcs":[[16,17,18,19,-14,-10,20]]},{"type":"Polygon","arcs":[[21,-13,22]]},{"type":"Polygon","arcs":[[23,-4,24,25,26]]},{"type":"Polygon","arcs":[[-3,27,-8,-22,28,29,-25]]},{"type":"Polygon","arcs":[[30,31,-19,32,33]]},{"type":"Polygon","arcs":[[-15,-20,-32,34,35,36]]},{"type":"Polygon","arcs":[[37,38,-21,-9,-28,-5,-24,39]]},{"type":"Polygon","arcs":[[40,41,42,43,-17,-39]]},{"type":"Polygon","arcs":[[44,-6,45,46,-41,-38]]},{"type":"Polygon","arcs":[[47,-33,-18,-44]]},{"type":"Polygon","arcs":[[48,49,-34,-48,-43,50]]},{"type":"Polygon","arcs":[[51,52,53,-51,-42,-47]]},{"type":"Polygon","arcs":[[54,-36]]},{"type":"Polygon","arcs":[[-54,55,56,57,58,59,60,61,-49]]},{"type":"Polygon","arcs":[[-61,62]]},{"type":"Polygon","arcs":[[63,-56,-53,64]]},{"type":"MultiPolygon","arcs":[[[-59,65]],[[-64,66,-57]]]},{"type":"Polygon","arcs":[[-26,-30,67]]},{"type":"Polygon","arcs":[[68]]},{"type":"Polygon","arcs":[[69]]}]}},"arcs":[[[281,7587],[-61,-84],[33,-126],[-58,-96],[-55,-9],[-84,84],[-56,143],[80,95],[51,5],[30,102],[73,110],[11,-66],[41,-50],[-5,-108]],[[468,8385],[93,-59],[28,-60],[-51,17],[-8,-113],[-51,-22],[-39,-131],[-84,-94],[14,116],[32,107],[-5,87],[-28,79],[7,72],[97,66],[-5,-65]],[[7283,4891],[9,253],[12,39]],[[7304,5183],[112,53],[69,88],[85,43],[32,45],[111,88],[99,9],[106,66],[118,100],[14,-69]],[[8050,5606],[4,-20],[-404,-649],[-53,-2],[-314,-44]],[[9297,2332],[-65,334],[-26,205],[35,540]],[[9241,3411],[7,105],[67,-9],[31,-41],[283,-46],[24,-12],[168,42],[0,-450],[155,33],[23,-498],[-19,-12],[-17,-398],[-107,12],[-200,96],[-200,74],[-159,25]],[[6975,4725],[197,-13],[2,-85],[33,-63],[60,-217],[10,6]],[[7277,4353],[0,-82]],[[7277,4271],[-135,-24],[-7,-80]],[[7135,4167],[-120,7],[-30,69],[-49,0]],[[6936,4243],[-15,230],[-12,29],[-139,113],[-72,-36],[-95,95],[-66,12],[-24,92],[-99,91],[-80,53],[-44,78],[-66,55],[-15,61]],[[6209,5116],[147,-37],[79,-2],[89,-67],[61,-83],[76,-73],[178,-129],[136,0]],[[7135,4167],[-12,-164],[94,-32],[-61,-570]],[[7156,3401],[-117,72],[-168,87],[-151,107],[-21,87],[10,78]],[[6709,3832],[119,248],[78,98],[51,-71],[7,69],[-28,67]],[[7410,4296],[-23,-267]],[[7387,4029],[-73,-898]],[[7314,3131],[-177,94]],[[7137,3225],[19,176]],[[7277,4271],[-10,-81],[44,-21],[12,138],[87,-11]],[[6981,5088],[90,2],[2,-187],[-82,20],[-16,-198]],[[6209,5116],[-22,-54],[8,-140],[-36,-43],[-58,58],[28,144],[44,92],[-113,266],[-75,125],[-78,108],[-52,46],[-14,78],[14,102],[27,-17],[54,89],[19,-15],[54,-145],[73,-79],[40,14],[43,136],[111,26],[170,-160],[39,-96],[80,-74],[93,-56],[47,-114],[79,-59],[17,-109],[84,-39],[60,-179],[36,-1],[0,68]],[[8458,6166],[-181,-207],[-227,-353]],[[7304,5183],[-10,274]],[[7294,5457],[62,60]],[[7356,5517],[66,21],[24,86],[34,-13],[20,94],[3,115],[96,26],[27,142],[36,48],[46,-293],[74,25],[31,79],[60,93],[49,38],[-3,71],[25,167],[64,130],[16,119],[128,32],[22,86],[-21,208],[22,14],[27,-199],[23,-313],[45,53],[-15,120],[27,25],[-19,191],[56,28],[27,-185],[21,-9],[8,-124],[63,22],[20,-248]],[[7283,4891],[-7,-176],[1,-362]],[[6981,5088],[-10,117],[149,67]],[[7120,5272],[109,93],[65,92]],[[7237,2251],[-149,141],[-31,70],[-64,44],[-22,46],[-29,-170]],[[6942,2382],[-69,14],[83,923],[181,-94]],[[7314,3131],[-17,-210]],[[7297,2921],[-60,-670]],[[6942,2382],[-1,-47],[-39,4],[-2,-45],[-65,-11],[-16,120],[8,98],[-62,29],[34,355],[-79,-74],[-52,88],[-38,-29],[-18,-153],[-57,31],[-64,-168],[-23,-115],[-47,12],[-25,63],[-50,43],[-92,-110],[-4,129],[-32,15],[-56,-38],[-25,61],[6,104],[-22,22]],[[6121,2766],[-7,63],[-59,143],[-26,180]],[[6029,3152],[34,244],[153,-2],[159,-29],[5,130],[56,96],[60,62],[141,66],[72,113]],[[8338,3939],[-196,-48],[-22,-55],[-1,73],[-25,-38],[-36,89],[-75,66],[-12,56]],[[7971,4082],[10,48],[-122,145],[4,80],[-20,8],[-105,-52],[-34,-70],[-76,16],[-15,171],[-171,69],[-32,-201]],[[8458,6166],[48,52],[-4,-386],[-116,-12],[-1,-301],[16,-3],[32,-196],[-134,-78],[-13,-109],[7,-300],[-8,-271],[-9,-70],[62,-553]],[[7971,4082],[-95,-206],[-83,-265],[-57,-133],[-65,-583]],[[7671,2895],[-22,-183]],[[7649,2712],[-185,110]],[[7464,2822],[123,979],[-85,177],[-115,51]],[[8338,3939],[-11,-93],[-19,-571],[-11,-167],[85,-40],[78,-6],[203,9],[5,-44],[94,14],[68,-29],[131,-114],[17,176],[35,-19],[27,404],[128,-20],[73,-28]],[[9297,2332],[1,-160],[-83,11],[-4,57],[-60,2],[-42,-79],[-62,-4],[-63,-37],[-184,-40],[-235,50],[-116,-3],[-43,-99],[-65,-23],[-41,17],[-20,271],[4,112],[23,67],[-18,139],[-45,-11]],[[8244,2602],[-32,269],[-287,-105],[-182,83],[-72,46]],[[7464,2822],[-167,99]],[[7594,2196],[-52,13],[-85,-16],[-28,30],[-17,-44],[-118,5],[-60,48]],[[7234,2232],[3,19]],[[7649,2712],[-38,-306],[-17,-210]],[[8244,2602],[-115,0],[31,-287],[20,-357],[-53,-53],[-143,-83],[-20,-40],[5,164],[-56,34],[-4,-47],[-81,24],[106,-683],[-11,-1],[6,-191]],[[7929,1082],[-248,182],[-65,101],[-72,204]],[[7544,1569],[6,190],[28,223],[16,214]],[[6121,2766],[-53,-101],[-68,-47],[-40,11],[-211,164],[6,-122],[-20,6],[-5,114],[-94,-35],[-60,14],[-118,93],[-53,-13],[-93,59],[-102,-127],[36,127],[10,90],[123,70],[61,15],[9,-115],[168,-12],[113,10],[0,-83],[60,-16],[117,151],[-13,109],[77,-4],[58,28]],[[7544,1569],[-47,-367]],[[7497,1202],[-43,-5]],[[7454,1197],[-8,65],[-46,33],[-18,50]],[[7382,1345],[-128,115],[-74,47],[10,94],[-80,104]],[[7110,1705],[13,67]],[[7123,1772],[96,379]],[[7219,2151],[15,81]],[[7123,1772],[-32,61],[-19,128],[-116,69],[-12,85],[-56,65],[-101,75],[-62,109],[-35,-112],[-23,34],[-3,126],[-73,184],[61,-48],[-6,-75],[59,-39],[24,43],[13,-57],[59,-34],[-24,-100],[114,-94],[53,-63],[6,42],[94,-100],[13,123],[-30,134],[-12,-39],[-44,33],[41,112],[16,-4],[13,-114],[32,-72],[46,-22],[-1,79],[43,-96],[-53,-49],[-44,-4],[-14,-114],[21,-13],[46,-145],[50,194],[10,79],[42,-2]],[[7488,1115],[9,87]],[[7929,1082],[7,-71],[-90,61],[-44,-2],[-2,-88],[-42,-21],[-4,-84],[43,-14],[-3,-42],[69,-31],[-30,-88],[-97,36],[35,-59],[-32,-181],[-38,-312],[4,-72],[-58,-37],[-93,-14],[-28,-47],[-25,322],[16,261],[18,7],[11,162],[-17,6],[22,139],[-28,13],[8,166],[-43,23]],[[7382,1345],[-45,-53],[7,-50],[-103,-51],[30,-30],[12,-114],[-103,-37],[8,-74],[64,10],[-27,-34],[26,-52],[-16,-61],[-29,23],[-19,-114],[8,-160],[88,-79],[-12,-88],[-29,-56],[-72,-12],[-2,-76],[-52,7],[-21,60],[34,105],[-14,31],[22,82],[-38,16],[5,82],[33,25],[-19,120],[14,46],[-14,108],[-36,-8],[-19,149],[-32,18],[46,347],[20,78],[13,202]],[[7488,1115],[-30,-172],[11,-170],[-14,-114],[26,-25],[-8,-147],[-24,2],[-2,-74],[-45,-96],[-30,27],[-10,161],[20,90],[0,261],[12,112],[-51,80],[8,114],[43,92],[37,12],[23,-71]],[[7120,5272],[6,176],[-36,70],[-28,172],[-34,69],[-28,133],[-204,137],[13,144],[49,80],[131,-29],[8,227],[12,51],[-44,104],[-33,18],[-24,97],[66,-13],[31,43],[34,-152],[9,88],[40,41],[222,46],[76,-62],[2,-34],[57,-41],[43,86],[39,-5],[49,-60],[-4,-68],[33,-108],[-75,-98],[-62,-45],[-65,-241],[-37,-99],[-2,-94],[23,-97],[-100,28],[4,-235],[45,-17],[20,-67]],[[9323,9837],[66,-1],[28,96],[44,-18],[0,-79],[-43,-71],[8,-123],[-61,-38],[1,-107],[41,57],[24,-21],[-30,-59],[14,-31],[37,50],[30,-4],[1,-81],[86,-57],[-40,-187],[39,-36],[-19,-84],[30,-30],[-20,-107],[-69,-18],[45,-47],[-45,-18],[10,-153],[51,-15],[15,-77],[-35,1],[-2,-68],[-80,-251],[-3,73],[-39,-16],[-3,-53],[-44,-21],[-7,-115],[-49,31],[-23,103],[-18,-163],[40,-42],[-19,-95],[-35,29],[-24,-107],[-43,-24],[-16,-116],[36,-33],[-37,-140],[-58,-26],[-30,-183],[70,-7],[60,-75],[21,-118],[-6,-143],[23,-9],[-44,-433],[-86,58],[16,214],[-28,159],[-64,-178],[7,-64],[-50,-61],[11,-357],[-72,37],[-3,173],[-45,19],[4,-99],[-108,-45],[-7,87],[72,89],[-20,91],[143,335],[-17,82],[-22,-8],[-41,199],[6,111],[65,-26],[32,52],[55,17],[37,259],[50,-2],[24,141],[-33,-42],[-39,1],[7,106],[-41,43],[19,148],[23,74],[-69,35],[-103,-8],[-57,48],[-18,-68],[-26,-5],[2,106],[-24,73],[147,-14],[-1,69],[-56,23],[9,74],[28,15],[4,84],[69,-51],[61,19],[50,66],[73,-67],[69,5],[10,106],[42,-17],[-11,-186],[-24,-4],[7,-174],[27,-32],[37,42],[-12,160],[38,-8],[2,62],[-31,28],[36,173],[21,25],[13,97],[-75,80],[-39,85],[-15,173],[-46,12],[-49,-27],[-70,75],[-16,45],[22,134],[8,-122],[35,-16],[27,85],[43,-52],[35,47],[-35,40],[20,83],[-27,38],[-22,-38],[-54,54],[10,51],[40,-55],[37,34],[32,-37],[39,145],[-126,74],[-2,38],[72,30],[8,-79],[80,2],[-29,100],[90,134],[12,-31],[-91,-131]],[[2125,6120],[27,-60],[-95,-136],[-14,-53],[-106,-193],[-31,12],[-59,125],[-7,54],[109,3],[44,65],[-30,176],[25,2],[17,129],[-27,139],[9,179],[81,-47],[49,-128],[8,-267]]]}
