{"type":"Topology","bbox":[-76.37268974987347,3.7074048438948366,-76.22584486304885,3.8305096400340624],"transform":{"scale":[0.000014685957278190235,0.000012311710785001076],"translate":[-76.37268974987347,3.7074048438948366]},"objects":{"municipios":{"type":"GeometryCollection","geometries":[{"type":"Polygon","arcs":[[0]],"properties":{"codigo":"76318200102011000101","sector":"763182001020110001","pcode":"CO76318","area_m2":33707}},{"type":"Polygon","arcs":[[1]],"properties":{"codigo":"76318200202006000101","sector":"763182002020060001","pcode":"CO76318","area_m2":68791}},{"type":"Polygon","arcs":[[2]],"properties":{"codigo":"76318200201007000101","sector":"763182002010070001","pcode":"CO76318","area_m2":72647}},{"type":"Polygon","arcs":[[3,4]],"properties":{"codigo":"76318200202008000102","sector":"763182002020080001","pcode":"CO76318","area_m2":120948}},{"type":"Polygon","arcs":[[5]],"properties":{"codigo":"76318200201009000101","sector":"763182002010090001","pcode":"CO76318","area_m2":16769}},{"type":"Polygon","arcs":[[6]],"properties":{"codigo":"76318200104013000101","sector":"763182001040130001","pcode":"CO76318","area_m2":72622}},{"type":"Polygon","arcs":[[7]],"properties":{"codigo":"76318200204010000101","sector":"763182002040100001","pcode":"CO76318","area_m2":79752}},{"type":"Polygon","arcs":[[8,9,10,11,12]],"properties":{"codigo":"76318100000000000202","sector":"763181000000000002","pcode":"CO76318","area_m2":67398}},{"type":"Polygon","arcs":[[-11,13,14,15,16,17]],"properties":{"codigo":"76318100000000000102","sector":"763181000000000001","pcode":"CO76318","area_m2":100554}},{"type":"Polygon","arcs":[[18,19,-15]],"properties":{"codigo":"76318100000000000103","sector":"763181000000000001","pcode":"CO76318","area_m2":101319}},{"type":"Polygon","arcs":[[20,21,-19,-14,22]],"properties":{"codigo":"76318100000000000104","sector":"763181000000000001","pcode":"CO76318","area_m2":142142}},{"type":"Polygon","arcs":[[23,-12,-18,24,25]],"properties":{"codigo":"76318100000000000201","sector":"763181000000000002","pcode":"CO76318","area_m2":157701}},{"type":"Polygon","arcs":[[-17,26,-25]],"properties":{"codigo":"76318100000000000101","sector":"763181000000000001","pcode":"CO76318","area_m2":107118}},{"type":"Polygon","arcs":[[27,28,-13,-24,29,30]],"properties":{"codigo":"76318100000000000203","sector":"763181000000000002","pcode":"CO76318","area_m2":295671}},{"type":"Polygon","arcs":[[31]],"properties":{"codigo":"76318200103003000101","sector":"763182001030030001","pcode":"CO76318","area_m2":560505}},{"type":"Polygon","arcs":[[32,33]],"properties":{"codigo":"76318200102004000101","sector":"763182001020040001","pcode":"CO76318","area_m2":708270}},{"type":"Polygon","arcs":[[-4,34]],"properties":{"codigo":"76318200202008000101","sector":"763182002020080001","pcode":"CO76318","area_m2":146657}},{"type":"Polygon","arcs":[[35]],"properties":{"codigo":"76318200202012000101","sector":"763182002020120001","pcode":"CO76318","area_m2":64486}},{"type":"Polygon","arcs":[[36]],"properties":{"codigo":"76318200102014000101","sector":"763182001020140001","pcode":"CO76318","area_m2":122408}},{"type":"Polygon","arcs":[[37,38,39,-28,40]],"properties":{"codigo":"76318100000000000302","sector":"763181000000000003","pcode":"CO76318","area_m2":233117}},{"type":"Polygon","arcs":[[41,42,43,-21,44,-9,-29,-40]],"properties":{"codigo":"76318100000000000301","sector":"763181000000000003","pcode":"CO76318","area_m2":409781}},{"type":"Polygon","arcs":[[45,46,-42,-39]],"properties":{"codigo":"76318100000000000305","sector":"763181000000000003","pcode":"CO76318","area_m2":93313}},{"type":"Polygon","arcs":[[-23,-10,-45]],"properties":{"codigo":"76318100000000000304","sector":"763181000000000003","pcode":"CO76318","area_m2":78896}},{"type":"Polygon","arcs":[[47,48,49,50,-46,-38]],"properties":{"codigo":"76318100000000000307","sector":"763181000000000003","pcode":"CO76318","area_m2":170408}},{"type":"Polygon","arcs":[[-33,51,-48,-41,-31,52]],"properties":{"codigo":"76318100000000000303","sector":"763181000000000003","pcode":"CO76318","area_m2":467890}},{"type":"Polygon","arcs":[[-51,53,54,-43,-47]],"properties":{"codigo":"76318100000000000306","sector":"763181000000000003","pcode":"CO76318","area_m2":75949}},{"type":"Polygon","arcs":[[55,-54,-50]],"properties":{"codigo":"76318100000000000308","sector":"763181000000000003","pcode":"CO76318","area_m2":54650}}]}},"arcs":[[[1284,6179],[-26,24],[-65,12],[41,118],[39,-42],[20,151],[37,-41],[-6,-103],[-27,1],[-13,-120]],[[6557,5404],[0,-22],[34,-42],[46,-20],[-4,-39],[-185,32],[-60,23],[21,27],[3,39],[31,-2],[7,115],[101,-13],[6,-98]],[[8920,9256],[106,-12],[49,-27],[-15,-105],[-40,0],[-2,-22],[-144,32],[0,23],[-97,-10],[-48,4],[-5,66],[92,-5],[106,-33],[-2,89]],[[4406,7481],[48,1],[11,26],[53,10],[18,-59],[70,37],[41,-29],[40,-11],[-8,34]],[[4679,7490],[49,17],[28,25],[-9,-89],[26,-20],[8,33],[33,-8],[28,-48],[9,-49],[-40,-48],[-35,36],[30,49],[-84,60],[-22,5],[-11,-31],[33,-46],[-5,-17],[-132,20],[9,-79],[15,-2],[-11,-167],[-42,2],[-6,134],[-55,35],[10,63],[21,30],[-122,45],[2,41]],[[8478,9982],[26,-1],[12,-97],[-28,-56],[-45,-3],[37,27],[-33,147],[31,-17]],[[3455,504],[38,-1],[21,-194],[29,-300],[-5,-9],[-84,29],[-10,61],[10,39],[0,109],[16,40],[-3,59],[-41,4],[29,163]],[[9890,5009],[100,-8],[9,-58],[-24,-16],[7,-38],[-48,-20],[-31,11],[-37,35],[-57,-11],[-37,-47],[-112,-68],[-13,29],[-49,-20],[-31,28],[57,-5],[62,49],[28,82],[51,0],[82,47],[43,10]],[[2835,4571],[-65,17]],[[2770,4588],[-186,47]],[[2584,4635],[23,136]],[[2607,4771],[178,-48]],[[2785,4723],[-8,-66],[71,-18],[-13,-68]],[[2584,4635],[-128,32]],[[2456,4667],[-121,31]],[[2335,4698],[32,134]],[[2367,4832],[100,-24],[5,68],[147,-35]],[[2619,4841],[-12,-70]],[[2456,4667],[-21,-228],[-25,2],[-7,-31],[-32,3],[-5,-40]],[[2366,4373],[-132,60],[101,265]],[[2615,4402],[-15,-94],[-123,35],[-19,-131],[-87,20]],[[2371,4232],[22,131],[-27,10]],[[2584,4635],[-20,-153],[59,-11],[-8,-69]],[[2901,5022],[-13,-66],[-30,-32],[-11,-101],[-43,20],[-19,-120]],[[2619,4841],[21,121]],[[2640,4962],[12,35],[60,-25],[28,135],[40,0],[11,47],[45,-20],[35,63],[-36,28],[22,47],[43,-32],[-102,-195],[103,-23]],[[2367,4832],[4,21],[-36,162],[13,34],[41,-3],[175,-47],[76,-37]],[[3107,4495],[-201,57]],[[2906,4552],[-71,19]],[[2901,5022],[202,-39]],[[3103,4983],[4,-303],[44,-201],[-44,16]],[[240,4995],[147,-52],[37,-4],[-7,-117],[6,-28],[69,-4],[-15,-71],[74,-17],[-22,-83],[34,-9],[5,-34],[65,-23],[-3,-23],[74,-36],[9,-32],[-20,-94],[11,-71],[105,-22],[-10,-50],[-106,13],[-82,-1],[3,83],[-34,-12],[15,38],[-9,51],[-68,40],[-14,-79],[-66,29],[55,76],[-23,78],[-52,14],[-93,-216],[67,-12],[-13,-121],[-156,30],[26,77],[29,30],[38,78],[-3,48],[-33,23],[5,20],[-63,36],[-19,-43],[-118,37],[-17,-52],[-68,35],[153,337],[15,-2],[35,114],[28,-11],[9,32]],[[3511,4188],[2,53],[-91,-3],[-41,26],[13,32],[10,137],[-50,7],[16,89]],[[3370,4529],[104,-45],[132,-75],[140,-29],[185,-60],[5,37],[54,-14],[86,-4],[-1,-21],[67,23],[86,-6],[19,27],[100,-22],[32,11],[8,102],[34,90],[52,-9],[8,87],[52,-7],[-6,-90],[22,-3],[-3,-32],[112,-12],[120,-41],[38,56],[23,55],[6,91],[-89,20],[2,59],[146,24],[25,13],[6,-69],[78,-10],[36,-16],[-1,-44],[-107,5],[-7,-117],[23,0],[-1,-59],[-30,8],[-27,-63],[-40,-63],[-24,-4],[-24,-82],[-43,27],[-16,-173],[-76,24],[8,107],[27,-4],[16,126],[-62,15],[6,31],[-116,31],[-62,0],[-27,-24],[-10,-96],[-11,-12],[30,-46],[-49,1],[-4,32],[-53,-1],[-3,-21],[-82,9],[-28,-10],[-52,33],[-39,-31],[-28,1],[6,-51],[-123,-12],[-11,-30],[-45,8],[-80,-15],[-15,-90],[-29,5],[1,40],[-54,-2],[-26,23],[-7,-55],[-67,3],[9,94],[-30,10],[-6,-40],[-16,27],[-53,15],[-80,-1]],[[4406,7481],[-25,9],[22,28],[-56,-3],[-21,-60],[19,-15],[-31,-52],[-39,-26],[-38,23],[53,56],[62,153],[-47,17],[-24,-9],[46,189],[76,-24],[21,19],[23,-20],[16,-50],[37,-72],[56,-67],[29,6],[31,-77],[27,-20],[36,4]],[[6180,5201],[-3,-171],[-25,-15],[-46,2],[2,50],[-56,26],[1,16],[53,-8],[2,167],[18,0],[-2,123],[15,41],[-7,48],[42,-29],[9,-195],[-3,-55]],[[2881,7155],[17,-47],[32,24],[6,-17],[-36,-31],[26,-55],[18,26],[81,-102],[-13,-25],[54,-28],[29,6],[-19,-92],[-7,-78],[-40,25],[-149,65],[-2,83],[-45,-32],[-28,9],[43,143],[42,-5],[-23,78],[-42,86],[39,18],[17,-51]],[[3157,3972],[-83,-12],[-12,85],[-44,-7],[-19,83],[-9,101],[-87,34]],[[2903,4256],[-70,14]],[[2833,4270],[35,150],[38,132]],[[3107,4495],[12,-126],[18,-246],[20,-151]],[[2833,4270],[-33,-117],[-67,33],[-24,-78],[6,-40]],[[2715,4068],[40,-151]],[[2755,3917],[-148,14],[-273,74],[37,227]],[[2615,4402],[30,14],[42,-25],[49,-9],[34,206]],[[2903,4256],[60,-286]],[[2963,3970],[-248,98]],[[3157,3972],[11,0]],[[3168,3972],[36,-304],[-8,-3],[-187,52]],[[3009,3717],[-18,103]],[[2991,3820],[-28,150]],[[3511,4188],[-109,13],[-53,13],[-5,-80],[29,-5],[-27,-157],[-11,-26],[-44,-7],[-26,39],[-97,-6]],[[3103,4983],[160,-34],[-21,-162],[-42,8],[2,-30],[69,-12],[-15,-130],[114,-94]],[[2991,3820],[-141,55],[-91,29]],[[2759,3904],[-4,13]],[[3009,3717],[-213,58],[-37,129]]]}
