{"type":"Topology","bbox":[-71.22962971185564,6.274632906997381,-71.09048840305934,6.299332231180792],"transform":{"scale":[0.000013915522431872926,0.0000024701794362847983],"translate":[-71.22962971185564,6.274632906997381]},"objects":{"municipios":{"type":"GeometryCollection","geometries":[{"type":"Polygon","arcs":[[0,1,2,3]],"properties":{"codigo":"81591100000000000102","sector":"815911000000000001","pcode":"CO81591","area_m2":247261}},{"type":"Polygon","arcs":[[4,5]],"properties":{"codigo":"81591100000000000104","sector":"815911000000000001","pcode":"CO81591","area_m2":375716}},{"type":"MultiPolygon","arcs":[[[6]],[[7]]],"properties":{"codigo":"81591201002006000101","sector":"815912010020060001","pcode":"CO81591","area_m2":74289}},{"type":"Polygon","arcs":[[-2,8]],"properties":{"codigo":"81591100000000000101","sector":"815911000000000001","pcode":"CO81591","area_m2":801477}},{"type":"Polygon","arcs":[[-5,9,-4,10]],"properties":{"codigo":"81591100000000000103","sector":"815911000000000001","pcode":"CO81591","area_m2":890876}}]}},"arcs":[[[9300,926],[-79,-152],[-11,-266],[-60,52]],[[9150,560],[-10,145],[-68,-115],[-44,790],[-117,-209],[16,-392],[-37,69],[-59,265],[-59,134],[15,245],[13,649]],[[8800,2141],[19,139],[88,147]],[[8907,2427],[116,206],[9,-32],[75,130],[42,-731],[64,-1170],[70,120],[17,-24]],[[9435,1199],[-20,425],[71,122],[-94,1768],[426,986]],[[9818,4500],[27,-95],[15,-572],[139,-888],[-59,25],[-182,-300],[-21,-103],[-84,-186],[-57,-444],[-75,-485],[-86,-253]],[[308,8642],[-55,-443],[-76,171],[-49,-16],[-36,-218],[-39,27],[-48,147],[9,309],[58,-84],[93,207],[1,56],[85,256],[57,-412]],[[113,9407],[-21,-32],[-8,173],[35,42],[-10,199],[70,135],[93,75],[6,-163],[-157,-245],[-8,-184]],[[9150,560],[-21,9],[-44,-172],[-71,-198],[-111,-199],[-14,361],[-148,-225],[-10,65],[-240,196],[-47,98],[-10,681],[-148,-224],[-27,60],[-5,239],[10,457],[-120,-66],[-43,73],[-29,178],[-29,16],[19,434],[-137,377],[49,524],[-60,154],[26,299],[198,-526],[16,163],[29,-72],[15,209],[36,-97],[33,373],[47,-53],[-20,-339],[13,-171],[78,-205],[3,-81],[82,90],[-7,-316],[62,-117],[72,-34],[87,54],[49,-91],[43,-159],[24,-184]],[[9435,1199],[-135,-273]],[[8907,2427],[-17,580],[374,801],[-90,1409],[33,217],[13,214],[51,307],[59,226],[101,80],[60,-106],[121,-108],[23,-87],[2,-324],[65,-410],[132,-94],[51,-511],[-67,-121]]]}
