{"type":"Topology","bbox":[-71.89662820638421,6.844408646106034,-71.69246936187824,7.061544412623928],"transform":{"scale":[0.0000204179262432212,0.000021715748226612095],"translate":[-71.89662820638421,6.844408646106034]},"objects":{"municipios":{"type":"GeometryCollection","geometries":[{"type":"Polygon","arcs":[[0,1,2]],"properties":{"codigo":"81736100000000000509","sector":"817361000000000005","pcode":"CO81736","area_m2":138773}},{"type":"Polygon","arcs":[[3,4,5,6]],"properties":{"codigo":"81736100000000000305","sector":"817361000000000003","pcode":"CO81736","area_m2":84246}},{"type":"MultiPolygon","arcs":[[[7]],[[8]]],"properties":{"codigo":"81736200301002000101","sector":"817362003010020001","pcode":"CO81736","area_m2":82166}},{"type":"MultiPolygon","arcs":[[[9]],[[10]]],"properties":{"codigo":"81736201103007000101","sector":"817362011030070001","pcode":"CO81736","area_m2":32481}},{"type":"MultiPolygon","arcs":[[[11]],[[12]]],"properties":{"codigo":"81736201301009000101","sector":"817362013010090001","pcode":"CO81736","area_m2":179008}},{"type":"MultiPolygon","arcs":[[[13]],[[14]]],"properties":{"codigo":"81736201104012000101","sector":"817362011040120001","pcode":"CO81736","area_m2":67959}},{"type":"MultiPolygon","arcs":[[[15]],[[16]]],"properties":{"codigo":"81736201102013000101","sector":"817362011020130001","pcode":"CO81736","area_m2":161921}},{"type":"Polygon","arcs":[[17,18,19,20]],"properties":{"codigo":"81736100000000000109","sector":"817361000000000001","pcode":"CO81736","area_m2":100230}},{"type":"Polygon","arcs":[[21,22,23,-19]],"properties":{"codigo":"81736100000000000107","sector":"817361000000000001","pcode":"CO81736","area_m2":116000}},{"type":"Polygon","arcs":[[24,25,26,27]],"properties":{"codigo":"81736100000000000510","sector":"817361000000000005","pcode":"CO81736","area_m2":80488}},{"type":"Polygon","arcs":[[28,29,30,31]],"properties":{"codigo":"81736100000000000601","sector":"817361000000000006","pcode":"CO81736","area_m2":146714}},{"type":"Polygon","arcs":[[32,33,34,35]],"properties":{"codigo":"81736100000000000204","sector":"817361000000000002","pcode":"CO81736","area_m2":209370}},{"type":"Polygon","arcs":[[36,37,38,39,40]],"properties":{"codigo":"81736100000000000205","sector":"817361000000000002","pcode":"CO81736","area_m2":209267}},{"type":"Polygon","arcs":[[41,42,43,44,-39]],"properties":{"codigo":"81736100000000000206","sector":"817361000000000002","pcode":"CO81736","area_m2":202793}},{"type":"Polygon","arcs":[[45,-42,46,47]],"properties":{"codigo":"81736100000000000207","sector":"817361000000000002","pcode":"CO81736","area_m2":79326}},{"type":"Polygon","arcs":[[48,49,50,51,-43,-46,52,53]],"properties":{"codigo":"81736100000000000208","sector":"817361000000000002","pcode":"CO81736","area_m2":194733}},{"type":"Polygon","arcs":[[54,55,-54,56,57,58]],"properties":{"codigo":"81736100000000000209","sector":"817361000000000002","pcode":"CO81736","area_m2":180882}},{"type":"Polygon","arcs":[[-26,59,60,61,62,-22,-18,63]],"properties":{"codigo":"81736100000000000108","sector":"817361000000000001","pcode":"CO81736","area_m2":152899}},{"type":"Polygon","arcs":[[-50,64,65,66]],"properties":{"codigo":"81736100000000000101","sector":"817361000000000001","pcode":"CO81736","area_m2":418306}},{"type":"Polygon","arcs":[[-56,67,68,69,70,71,-65,-49]],"properties":{"codigo":"81736100000000000102","sector":"817361000000000001","pcode":"CO81736","area_m2":130626}},{"type":"Polygon","arcs":[[72,73,-71,74]],"properties":{"codigo":"81736100000000000103","sector":"817361000000000001","pcode":"CO81736","area_m2":136076}},{"type":"Polygon","arcs":[[-73,75,76,77,78,-29,79,80]],"properties":{"codigo":"81736100000000000104","sector":"817361000000000001","pcode":"CO81736","area_m2":269502}},{"type":"Polygon","arcs":[[81,-76,-75,-70]],"properties":{"codigo":"81736100000000000105","sector":"817361000000000001","pcode":"CO81736","area_m2":147283}},{"type":"Polygon","arcs":[[-63,82,-77,-82,-69,83,-23]],"properties":{"codigo":"81736100000000000106","sector":"817361000000000001","pcode":"CO81736","area_m2":105349}},{"type":"Polygon","arcs":[[84,85,86,-51,-67,87,88]],"properties":{"codigo":"81736100000000000201","sector":"817361000000000002","pcode":"CO81736","area_m2":335930}},{"type":"Polygon","arcs":[[-44,-52,-87,89,90]],"properties":{"codigo":"81736100000000000202","sector":"817361000000000002","pcode":"CO81736","area_m2":260096}},{"type":"Polygon","arcs":[[91,-40,-45,-91,92,-34]],"properties":{"codigo":"81736100000000000203","sector":"817361000000000002","pcode":"CO81736","area_m2":223770}},{"type":"Polygon","arcs":[[93,-41,-92,-33,94]],"properties":{"codigo":"81736100000000000210","sector":"817361000000000002","pcode":"CO81736","area_m2":205279}},{"type":"Polygon","arcs":[[95,96,97,-58,98,-6]],"properties":{"codigo":"81736100000000000309","sector":"817361000000000003","pcode":"CO81736","area_m2":236042}},{"type":"Polygon","arcs":[[-35,-93,-90,-86,99]],"properties":{"codigo":"81736100000000000211","sector":"817361000000000002","pcode":"CO81736","area_m2":306840}},{"type":"Polygon","arcs":[[-89,100]],"properties":{"codigo":"81736100000000000212","sector":"817361000000000002","pcode":"CO81736","area_m2":166744}},{"type":"Polygon","arcs":[[-27,-64,-21,101,102,103]],"properties":{"codigo":"81736100000000000301","sector":"817361000000000003","pcode":"CO81736","area_m2":329385}},{"type":"Polygon","arcs":[[-55,104,105,-102,-20,-24,-84,-68]],"properties":{"codigo":"81736100000000000302","sector":"817361000000000003","pcode":"CO81736","area_m2":134786}},{"type":"Polygon","arcs":[[-105,-59,-98,106,107]],"properties":{"codigo":"81736100000000000303","sector":"817361000000000003","pcode":"CO81736","area_m2":134286}},{"type":"Polygon","arcs":[[-99,-57,-53,-48,108,-7]],"properties":{"codigo":"81736100000000000304","sector":"817361000000000003","pcode":"CO81736","area_m2":101989}},{"type":"Polygon","arcs":[[-4,-109,-47,-38,109,110]],"properties":{"codigo":"81736100000000000306","sector":"817361000000000003","pcode":"CO81736","area_m2":144377}},{"type":"Polygon","arcs":[[111,-60,-25,112,-3,113,114,115]],"properties":{"codigo":"81736100000000000505","sector":"817361000000000005","pcode":"CO81736","area_m2":179636}},{"type":"Polygon","arcs":[[116,-110,-37,-94,117]],"properties":{"codigo":"81736100000000000307","sector":"817361000000000003","pcode":"CO81736","area_m2":1866088}},{"type":"Polygon","arcs":[[-96,-5,-111,-117,118]],"properties":{"codigo":"81736100000000000308","sector":"817361000000000003","pcode":"CO81736","area_m2":271136}},{"type":"Polygon","arcs":[[-103,-106,-108,119]],"properties":{"codigo":"81736100000000000401","sector":"817361000000000004","pcode":"CO81736","area_m2":611147}},{"type":"Polygon","arcs":[[120,-78,-83,-62,121]],"properties":{"codigo":"81736100000000000501","sector":"817361000000000005","pcode":"CO81736","area_m2":300360}},{"type":"Polygon","arcs":[[122,-116,123,124,125,-30,-79,-121]],"properties":{"codigo":"81736100000000000502","sector":"817361000000000005","pcode":"CO81736","area_m2":347529}},{"type":"Polygon","arcs":[[-112,-123,-122,-61]],"properties":{"codigo":"81736100000000000503","sector":"817361000000000005","pcode":"CO81736","area_m2":112139}},{"type":"Polygon","arcs":[[126,-31,-126,127,128]],"properties":{"codigo":"81736100000000000504","sector":"817361000000000005","pcode":"CO81736","area_m2":81383}},{"type":"Polygon","arcs":[[-128,-125,129,130]],"properties":{"codigo":"81736100000000000506","sector":"817361000000000005","pcode":"CO81736","area_m2":122166}},{"type":"Polygon","arcs":[[131,132,-130,-124,-115]],"properties":{"codigo":"81736100000000000507","sector":"817361000000000005","pcode":"CO81736","area_m2":110462}},{"type":"Polygon","arcs":[[-2,133,-132,-114]],"properties":{"codigo":"81736100000000000508","sector":"817361000000000005","pcode":"CO81736","area_m2":170962}},{"type":"Polygon","arcs":[[-80,-32,-127,134]],"properties":{"codigo":"81736100000000000602","sector":"817361000000000006","pcode":"CO81736","area_m2":424280}},{"type":"Polygon","arcs":[[135]],"properties":{"codigo":"81736200601006000101","sector":"817362006010060001","pcode":"CO81736","area_m2":326412}},{"type":"Polygon","arcs":[[136]],"properties":{"codigo":"81736200301008000101","sector":"817362003010080001","pcode":"CO81736","area_m2":321748}},{"type":"Polygon","arcs":[[137]],"properties":{"codigo":"81736200703010000101","sector":"817362007030100001","pcode":"CO81736","area_m2":37689}},{"type":"Polygon","arcs":[[138]],"properties":{"codigo":"81736200202011000101","sector":"817362002020110001","pcode":"CO81736","area_m2":66663}},{"type":"Polygon","arcs":[[139]],"properties":{"codigo":"81736200201014000101","sector":"817362002010140001","pcode":"CO81736","area_m2":41750}},{"type":"Polygon","arcs":[[140]],"properties":{"codigo":"81736200202017000101","sector":"817362002020170001","pcode":"CO81736","area_m2":37163}}]}},"arcs":[[[743,4453],[-75,-120],[-219,104]],[[449,4437],[137,67]],[[586,4504],[20,10],[23,-36],[20,10],[25,-38],[49,26],[20,-23]],[[1346,5151],[54,-97]],[[1400,5054],[22,-37]],[[1422,5017],[-37,-22],[-22,35],[-78,-48]],[[1285,4982],[-42,66],[48,30],[-19,29],[74,44]],[[4545,8629],[17,-19],[-6,-13],[-27,13],[-8,-23],[3,-32],[-55,5],[-2,-33],[-65,1],[-13,31],[-26,-17],[-8,13],[-61,-1],[-5,-20],[-19,17],[-21,3],[-11,21],[-36,2],[8,16],[144,-20],[4,17],[46,-9],[5,-7],[61,40],[28,6],[25,-7],[4,16],[18,0]],[[4326,8460],[-10,-9],[-37,31],[30,22],[5,-34],[12,-10]],[[9905,4811],[21,-22],[-24,-11],[5,-13],[-21,-16],[12,-27],[15,-13],[-22,-12],[-29,56],[-15,6],[-4,33],[62,19]],[[9859,4848],[-39,-37],[-11,-22],[-24,24],[47,37],[27,-2]],[[5035,413],[11,-17],[29,2],[7,-37],[14,-41],[12,-55],[-9,-28],[0,-42],[-18,-1],[-14,41],[-47,-15],[-25,66],[-10,45],[-25,-5],[-4,46],[59,13],[-14,39],[29,8],[5,-19]],[[5101,138],[9,-27],[26,7],[5,-11],[-26,-9],[35,-98],[-123,14],[-13,8],[20,47],[29,41],[-36,7],[44,32],[-10,22],[24,12],[16,-45]],[[9090,2523],[-19,-83],[-20,-27],[0,-33],[-37,-3],[-2,34],[-36,8],[36,37],[9,24],[-33,7],[-4,-11],[-26,10],[6,13],[-39,14],[7,16],[73,-31],[5,11],[22,-7],[8,21],[34,12],[16,-12]],[[9020,2331],[-5,42],[42,3],[1,-42],[-38,-3]],[[8019,6857],[111,-45],[75,-7],[0,-12],[-63,-24],[51,-22],[-32,-2],[-18,-9],[-73,4],[5,-22],[-19,-28],[-12,0],[-46,23],[-41,3],[49,88],[-65,23],[11,25],[64,-28],[3,33]],[[8284,6739],[47,-15],[11,4],[99,-40],[-12,-47],[-60,27],[-20,-39],[-20,8],[18,40],[-68,31],[5,31]],[[918,4675],[-42,73]],[[876,4748],[195,101]],[[1071,4849],[43,-72]],[[1114,4777],[-196,-102]],[[876,4748],[-51,83]],[[825,4831],[196,102]],[[1021,4933],[50,-84]],[[751,4460],[86,63]],[[837,4523],[4,-1]],[[841,4522],[20,-4]],[[861,4518],[73,-118],[-76,-33],[-107,93]],[[394,4908],[54,-30],[9,-24]],[[457,4854],[-55,-49],[-5,19],[-55,-30],[-77,-3]],[[265,4791],[-72,53]],[[193,4844],[103,118],[98,-54]],[[1548,5647],[-44,-60]],[[1504,5587],[-152,11],[4,36],[-38,21]],[[1318,5655],[37,53],[28,33],[40,8],[33,-5],[20,8],[44,50],[45,20]],[[1565,5822],[40,-4],[2,-19],[-59,-152]],[[1553,5317],[-38,-95],[-2,-17]],[[1513,5205],[-206,15]],[[1307,5220],[-37,55],[74,45],[-27,37]],[[1317,5357],[108,67]],[[1425,5424],[57,-75],[39,21],[32,-53]],[[1307,5220],[-228,17]],[[1079,5237],[-71,5],[-32,51]],[[976,5293],[35,23],[24,-36],[240,144]],[[1275,5424],[42,-67]],[[1155,5114],[-76,123]],[[1307,5220],[7,-10]],[[1314,5210],[-159,-96]],[[1037,5040],[-161,248]],[[876,5288],[16,17]],[[892,5305],[21,28],[10,41]],[[923,5374],[53,-81]],[[1155,5114],[1,-3]],[[1156,5111],[-119,-71]],[[1180,4818],[-107,162]],[[1073,4980],[-36,60]],[[1156,5111],[92,-150]],[[1248,4961],[2,-3]],[[1250,4958],[-30,-17],[48,-73],[-88,-50]],[[837,4523],[-82,21]],[[755,4544],[29,16],[-42,70],[-20,-10],[-22,37],[59,30],[-23,37]],[[736,4724],[79,39],[-28,48]],[[787,4811],[38,20]],[[918,4675],[-117,-61],[45,-70],[-5,-22]],[[876,5288],[-1,0]],[[875,5288],[-40,63],[-22,21],[-34,18],[-24,-3],[-76,-36],[-53,-21],[23,-54],[-82,-26],[-57,64],[3,17],[-93,11],[-33,18],[-3,16],[26,64],[-12,29],[15,21],[36,-20],[-3,-17],[75,-6],[-19,49],[27,12],[3,-19],[19,-3],[-2,19],[56,27],[87,47],[30,13],[17,-39]],[[739,5553],[-3,-2],[48,-88],[52,-83],[48,-70],[8,-5]],[[1073,4980],[-28,-17],[-11,16],[-31,-17]],[[1003,4962],[-24,41]],[[979,5003],[-85,139]],[[894,5142],[-71,111],[-20,19]],[[803,5272],[50,5],[22,11]],[[726,5044],[-26,26],[47,41],[-31,30],[-32,16],[-33,7]],[[651,5164],[49,17],[26,18],[33,49],[44,24]],[[894,5142],[-104,-63],[-64,-35]],[[726,5044],[61,-62],[18,11],[62,-59]],[[867,4934],[-118,-61]],[[749,4873],[-41,55],[-81,79],[-113,-101],[-50,-49]],[[464,4857],[-7,-3]],[[394,4908],[52,45],[22,14],[34,-38],[33,30],[5,15],[31,23],[-54,53],[26,7],[25,20],[20,6],[64,0],[-84,76]],[[568,5159],[24,7],[16,-11],[43,9]],[[979,5003],[-35,-27],[-77,-42]],[[787,4811],[-38,62]],[[1003,4962],[18,-29]],[[948,5645],[42,-87],[66,34]],[[1056,5592],[33,-45],[-73,-47],[38,-55]],[[1054,5445],[-58,-23],[-32,-6],[-34,-21],[-7,-21]],[[739,5553],[69,78]],[[808,5631],[36,16],[17,-37],[36,17],[4,-6],[47,24]],[[1054,5445],[42,25],[50,21],[39,41],[20,40],[64,21]],[[1269,5593],[20,-32],[-34,-21],[14,-24],[-39,-23],[45,-69]],[[1504,5587],[-41,-51],[16,-28],[-76,-49],[22,-35]],[[1269,5593],[39,42],[10,20]],[[1573,5354],[-20,-37]],[[1548,5647],[51,-79],[27,-19],[-15,-8],[30,-47],[-27,-20],[-41,-107],[0,-13]],[[1422,5017],[76,-120]],[[1498,4897],[70,-113],[-178,13],[-40,-3]],[[1350,4794],[-100,164]],[[1248,4961],[37,21]],[[1056,5592],[16,13],[36,-43],[34,33],[202,244],[65,7],[52,15],[12,18],[75,-50],[17,-7]],[[808,5631],[94,111],[145,169],[64,-67],[-23,-28],[10,-13],[-56,-51],[-4,4],[-43,-32],[6,-6],[-55,-44],[2,-29]],[[1114,4777],[64,-106]],[[1178,4671],[52,-86],[-189,-38]],[[1041,4547],[-128,-26],[-52,-3]],[[1180,4818],[68,-106]],[[1248,4712],[-70,-41]],[[1350,4794],[32,-52]],[[1382,4742],[-111,-67],[-23,37]],[[1314,5210],[32,-59]],[[1513,5205],[127,-8],[-71,-43]],[[1569,5154],[-137,-83],[-32,-17]],[[516,4610],[239,-66]],[[751,4460],[-8,-7]],[[586,4504],[-22,33],[-41,-20],[-34,47],[-17,-9],[-16,24],[-18,-8]],[[438,4571],[-22,31],[-18,-9],[-22,31],[-23,12],[-25,-11],[-23,34],[10,4]],[[315,4663],[201,-53]],[[1706,5026],[-75,66],[-62,62]],[[1573,5354],[100,-30],[84,-45],[-22,-28],[86,-40],[-12,-26],[174,-13],[33,5],[157,84],[98,55],[226,124],[73,-66],[100,-74],[-10,-42],[-120,-136],[2,-29],[-18,-21],[-12,2],[-43,-37],[43,-33],[-142,-3],[-45,-66],[-87,66],[-2,-29],[-13,-25],[-32,-18],[-54,-9],[-93,-97],[48,-71],[103,-166],[-46,-37],[-180,297],[-181,185],[-60,-27],[-22,22]],[[1706,5026],[-63,-30],[95,-90],[-240,-9]],[[1382,4742],[12,-19],[255,-14],[2,-59],[-92,-1],[-34,-21],[24,-41],[-63,-11],[40,-69],[-51,-25],[-24,0],[-75,-18],[-10,24],[-102,-23],[7,-17],[-55,-30],[59,-86],[-86,-36],[-45,80],[24,16],[-10,48],[-50,-12],[-67,119]],[[684,4696],[-98,69],[-122,92]],[[736,4724],[-52,-28]],[[684,4696],[-168,-86]],[[315,4663],[-44,2],[-48,-22]],[[223,4643],[15,77]],[[238,4720],[7,50],[20,21]],[[168,4861],[25,-17]],[[238,4720],[-14,-22],[-65,37],[-12,-17],[-35,21],[6,9],[-27,19]],[[91,4767],[30,21],[7,25],[40,48]],[[223,4643],[-44,-48]],[[179,4595],[-4,-1],[-86,51],[-18,-21],[-71,41],[79,107],[12,-5]],[[438,4571],[-112,-57]],[[326,4514],[-135,86],[-12,-5]],[[449,4437],[-14,6],[-122,-205],[-51,50],[103,145],[50,23],[-89,58]],[[168,4861],[-38,25],[4,12],[-1,82],[8,10],[71,39],[8,43],[17,16],[22,0],[33,-20],[47,12],[41,32],[33,41],[31,14],[52,5],[48,-21],[24,8]],[[9986,8763],[13,-69],[-47,-7],[-18,-12],[1,-27],[-31,0],[-1,-59],[-75,12],[-87,5],[2,-31],[-124,-4],[-41,-16],[-27,98],[5,70],[167,2],[72,13],[64,21],[35,5],[92,-1]],[[5586,7785],[29,-20],[33,36],[67,-43],[-11,-24],[-33,-36],[32,-25],[-8,-11],[27,-16],[-16,-7],[-27,-33],[-43,25],[-60,-71],[-44,30],[-11,-14],[-24,17],[-18,-21],[-12,10],[-72,-75],[-71,54],[-15,-5],[-20,25],[53,22],[41,39],[52,40],[47,41],[46,53],[17,53],[43,-24],[-2,-20]],[[4046,6300],[-125,-146],[-9,58],[15,16],[14,-10],[37,59],[-8,6],[41,44],[35,-27]],[[6352,9983],[17,-21],[31,-3],[48,-19],[3,-31],[-15,-6],[24,-50],[-24,-14],[34,-14],[-52,-45],[-28,36],[22,14],[-1,13],[-60,83],[-35,42],[36,15]],[[3550,9580],[95,-90],[-12,-17],[-17,1],[-22,20],[-21,-10],[-30,24],[-11,-1],[-31,-36],[5,-28],[-8,-7],[-5,36],[14,16],[1,44],[42,48]],[[5112,9947],[-37,-4],[24,-30],[5,-18],[-24,-1],[-13,25],[-38,-14],[-21,19],[-23,-5],[51,28],[18,27],[5,25],[46,-3],[32,-9],[-25,-40]]]}
