{"type":"Topology","bbox":[-70.21364938869976,6.296065225670614,-70.1927470135837,6.313445565160111],"transform":{"scale":[0.0000020904465562622,0.000001738207769726686],"translate":[-70.21364938869976,6.296065225670614]},"objects":{"municipios":{"type":"GeometryCollection","geometries":[{"type":"Polygon","arcs":[[0,1,2,3]],"properties":{"codigo":"81220100000000000106","sector":"812201000000000001","pcode":"CO81220","area_m2":137504}},{"type":"Polygon","arcs":[[4,5,6,7,8]],"properties":{"codigo":"81220100000000000103","sector":"812201000000000001","pcode":"CO81220","area_m2":212667}},{"type":"Polygon","arcs":[[-2,9,10,-6,11]],"properties":{"codigo":"81220100000000000104","sector":"812201000000000001","pcode":"CO81220","area_m2":119891}},{"type":"Polygon","arcs":[[12,13,-9,14]],"properties":{"codigo":"81220100000000000101","sector":"812201000000000001","pcode":"CO81220","area_m2":1295111}},{"type":"Polygon","arcs":[[15,-3,-12,-5,-14]],"properties":{"codigo":"81220100000000000102","sector":"812201000000000001","pcode":"CO81220","area_m2":198327}},{"type":"Polygon","arcs":[[16,17,-4,-16,-13]],"properties":{"codigo":"81220100000000000105","sector":"812201000000000001","pcode":"CO81220","area_m2":215897}},{"type":"Polygon","arcs":[[18,19,-7,-11]],"properties":{"codigo":"81220100000000000107","sector":"812201000000000001","pcode":"CO81220","area_m2":143176}},{"type":"Polygon","arcs":[[-18,20,-19,-10,-1]],"properties":{"codigo":"81220100000000000108","sector":"812201000000000001","pcode":"CO81220","area_m2":13929}}]}},"arcs":[[[6024,1495],[-738,173],[-807,-103],[-277,-162]],[[4202,1403],[-416,1306]],[[3786,2709],[1888,866]],[[5674,3575],[350,-2080]],[[4593,4827],[43,-531],[-613,-85],[31,-254],[-533,-247]],[[3521,3710],[-1264,-473]],[[2257,3237],[-1195,-456]],[[1062,2781],[-99,-48],[-493,793],[25,638],[344,447]],[[839,4611],[667,-658],[222,-129],[353,30],[-128,461],[753,303],[641,397],[688,286],[175,-608],[383,134]],[[4202,1403],[-795,-482]],[[3407,921],[-439,1429],[-400,-193],[-311,1080]],[[3521,3710],[265,-1001]],[[8418,308],[-222,289],[-526,265],[132,215],[-41,528],[-507,460],[-82,1185],[-196,285],[128,61],[-99,623],[-153,-61]],[[6852,4158],[-140,848],[-260,-51],[-189,485],[-211,-199],[-1459,-414]],[[839,4611],[324,514],[291,1061],[-441,517],[-351,602],[123,375],[276,374],[-274,47],[-540,263],[-32,342],[-215,51],[299,427],[824,-132],[184,111],[-50,631],[506,205],[402,-533],[103,72],[351,-301],[186,432],[226,-121],[-120,-282],[413,-148],[-135,-238],[-8,-621],[1629,-555],[482,-855],[453,-524],[480,-425],[-49,1083],[3803,-2928],[-745,-879],[-207,-151],[-376,-810],[-412,-739],[-417,-106],[21,-120],[934,-476],[-159,-465],[-200,-1]],[[6852,4158],[10,-70],[-1188,-513]],[[8418,308],[-123,-308],[-274,58],[-641,527],[-459,141],[-697,370],[36,163]],[[6260,1259],[-236,236]],[[3407,921],[28,-149]],[[3435,772],[-368,-194],[-467,217],[-311,17],[-496,421],[-299,934],[-79,-6],[-353,620]],[[6260,1259],[-795,296],[-489,26],[-474,-113],[-867,-506],[-200,-190]]]}
