{"type":"Topology","bbox":[-71.66850600194164,6.656089671988355,-71.04511821865685,7.037789046079803],"transform":{"scale":[0.00006234501282976136,0.000038173754784623246],"translate":[-71.66850600194164,6.656089671988355]},"objects":{"municipios":{"type":"GeometryCollection","geometries":[{"type":"Polygon","arcs":[[0,1,2]],"properties":{"codigo":"81065100000000000102","sector":"810651000000000001","pcode":"CO81065","area_m2":135673}},{"type":"Polygon","arcs":[[-3,3,4,5,6,7]],"properties":{"codigo":"81065100000000000103","sector":"810651000000000001","pcode":"CO81065","area_m2":67923}},{"type":"Polygon","arcs":[[8,9,10,11,-7]],"properties":{"codigo":"81065100000000000104","sector":"810651000000000001","pcode":"CO81065","area_m2":54686}},{"type":"MultiPolygon","arcs":[[[12]],[[13]]],"properties":{"codigo":"81065200211021000101","sector":"810652002110210001","pcode":"CO81065","area_m2":71307}},{"type":"Polygon","arcs":[[14,15,16]],"properties":{"codigo":"81065100000000000109","sector":"810651000000000001","pcode":"CO81065","area_m2":401820}},{"type":"MultiPolygon","arcs":[[[17]],[[18]]],"properties":{"codigo":"81065200307007000101","sector":"810652003070070001","pcode":"CO81065","area_m2":229551}},{"type":"Polygon","arcs":[[19,20,21]],"properties":{"codigo":"81065200105008000102","sector":"810652001050080001","pcode":"CO81065","area_m2":224439}},{"type":"Polygon","arcs":[[22]],"properties":{"codigo":"81065200402009000101","sector":"810652004020090001","pcode":"CO81065","area_m2":147981}},{"type":"Polygon","arcs":[[23]],"properties":{"codigo":"81065201202016000101","sector":"810652012020160001","pcode":"CO81065","area_m2":183929}},{"type":"Polygon","arcs":[[24]],"properties":{"codigo":"81065200611026000101","sector":"810652006110260001","pcode":"CO81065","area_m2":113763}},{"type":"Polygon","arcs":[[25]],"properties":{"codigo":"81065200501019000101","sector":"810652005010190001","pcode":"CO81065","area_m2":344156}},{"type":"Polygon","arcs":[[26]],"properties":{"codigo":"81065200201023000101","sector":"810652002010230001","pcode":"CO81065","area_m2":89076}},{"type":"Polygon","arcs":[[27]],"properties":{"codigo":"81065200802025000101","sector":"810652008020250001","pcode":"CO81065","area_m2":99875}},{"type":"Polygon","arcs":[[28]],"properties":{"codigo":"81065201205027000101","sector":"810652012050270001","pcode":"CO81065","area_m2":39063}},{"type":"Polygon","arcs":[[29]],"properties":{"codigo":"81065200604028000101","sector":"810652006040280001","pcode":"CO81065","area_m2":40928}},{"type":"Polygon","arcs":[[30]],"properties":{"codigo":"81065200804029000101","sector":"810652008040290001","pcode":"CO81065","area_m2":90354}},{"type":"MultiPolygon","arcs":[[[31]],[[32]]],"properties":{"codigo":"81065201206030000101","sector":"810652012060300001","pcode":"CO81065","area_m2":88958}},{"type":"MultiPolygon","arcs":[[[33]],[[34]]],"properties":{"codigo":"81065200620031000101","sector":"810652006200310001","pcode":"CO81065","area_m2":90819}},{"type":"Polygon","arcs":[[35,36]],"properties":{"codigo":"81065200801033000103","sector":"810652008010330001","pcode":"CO81065","area_m2":130679}},{"type":"Polygon","arcs":[[37]],"properties":{"codigo":"81065200602034000101","sector":"810652006020340001","pcode":"CO81065","area_m2":63143}},{"type":"Polygon","arcs":[[38]],"properties":{"codigo":"81065200208038000101","sector":"810652002080380001","pcode":"CO81065","area_m2":16032}},{"type":"Polygon","arcs":[[39]],"properties":{"codigo":"81065200406039000101","sector":"810652004060390001","pcode":"CO81065","area_m2":30674}},{"type":"Polygon","arcs":[[40,41,-9,-6,42]],"properties":{"codigo":"81065100000000000205","sector":"810651000000000002","pcode":"CO81065","area_m2":129465}},{"type":"Polygon","arcs":[[-43,-5,43,44]],"properties":{"codigo":"81065100000000000204","sector":"810651000000000002","pcode":"CO81065","area_m2":118077}},{"type":"Polygon","arcs":[[45,-21,46]],"properties":{"codigo":"81065200105008000101","sector":"810652001050080001","pcode":"CO81065","area_m2":387207}},{"type":"Polygon","arcs":[[-44,-4,-2,47,48,49]],"properties":{"codigo":"81065100000000000101","sector":"810651000000000001","pcode":"CO81065","area_m2":389375}},{"type":"Polygon","arcs":[[50,51,52,-11]],"properties":{"codigo":"81065100000000000105","sector":"810651000000000001","pcode":"CO81065","area_m2":201585}},{"type":"Polygon","arcs":[[53,54,-17,55,-49,56,-52]],"properties":{"codigo":"81065100000000000106","sector":"810651000000000001","pcode":"CO81065","area_m2":266312}},{"type":"Polygon","arcs":[[-53,-57,-48,-1,-8,-12]],"properties":{"codigo":"81065100000000000107","sector":"810651000000000001","pcode":"CO81065","area_m2":179521}},{"type":"Polygon","arcs":[[57,-54,-51,-10,-42,58]],"properties":{"codigo":"81065100000000000206","sector":"810651000000000002","pcode":"CO81065","area_m2":200962}},{"type":"Polygon","arcs":[[-15,-55,-58,59]],"properties":{"codigo":"81065100000000000207","sector":"810651000000000002","pcode":"CO81065","area_m2":178228}},{"type":"MultiPolygon","arcs":[[[60]],[[61]],[[62]]],"properties":{"codigo":"81065200205001000101","sector":"810652002050010001","pcode":"CO81065","area_m2":38716}},{"type":"MultiPolygon","arcs":[[[63]],[[64]]],"properties":{"codigo":"81065200203002000101","sector":"810652002030020001","pcode":"CO81065","area_m2":284905}},{"type":"MultiPolygon","arcs":[[[65]],[[66]],[[67]],[[68]]],"properties":{"codigo":"81065200201004000101","sector":"810652002010040001","pcode":"CO81065","area_m2":93533}},{"type":"MultiPolygon","arcs":[[[69]],[[70]]],"properties":{"codigo":"81065201201005000101","sector":"810652012010050001","pcode":"CO81065","area_m2":181197}},{"type":"Polygon","arcs":[[-22,-46,71]],"properties":{"codigo":"81065200105008000103","sector":"810652001050080001","pcode":"CO81065","area_m2":206679}},{"type":"Polygon","arcs":[[72]],"properties":{"codigo":"81065200304010000101","sector":"810652003040100001","pcode":"CO81065","area_m2":383393}},{"type":"Polygon","arcs":[[73]],"properties":{"codigo":"81065200505017000101","sector":"810652005050170001","pcode":"CO81065","area_m2":363083}},{"type":"Polygon","arcs":[[74]],"properties":{"codigo":"81065200406020000101","sector":"810652004060200001","pcode":"CO81065","area_m2":86260}},{"type":"Polygon","arcs":[[75]],"properties":{"codigo":"81065200504022000101","sector":"810652005040220001","pcode":"CO81065","area_m2":211988}},{"type":"Polygon","arcs":[[76]],"properties":{"codigo":"81065200602032000101","sector":"810652006020320001","pcode":"CO81065","area_m2":82310}},{"type":"Polygon","arcs":[[77,78,79,80,81,82]],"properties":{"codigo":"81065200801033000101","sector":"810652008010330001","pcode":"CO81065","area_m2":481929}},{"type":"Polygon","arcs":[[-80,83,-36,84]],"properties":{"codigo":"81065200801033000102","sector":"810652008010330001","pcode":"CO81065","area_m2":390335}},{"type":"MultiPolygon","arcs":[[[-78,85]],[[86]]],"properties":{"codigo":"81065200801033000104","sector":"810652008010330001","pcode":"CO81065","area_m2":121237}},{"type":"Polygon","arcs":[[87,-82]],"properties":{"codigo":"81065200801033000105","sector":"810652008010330001","pcode":"CO81065","area_m2":25233}}]}},"arcs":[[[3877,9832],[-10,15],[-56,-71],[-9,18]],[[3802,9794],[-3,5],[50,89],[36,14]],[[3885,9902],[9,-52],[-9,-4],[2,-10],[-10,-4]],[[3885,9902],[30,14]],[[3915,9916],[6,-44],[-9,0],[0,-10],[-11,0],[2,-19],[8,-1],[0,-10]],[[3911,9832],[-1,-11]],[[3910,9821],[-9,2],[-21,-9],[-1,10]],[[3879,9824],[-2,8]],[[3910,9821],[-3,-59]],[[3907,9762],[-4,2]],[[3903,9764],[-21,8]],[[3882,9772],[-19,41],[16,11]],[[1303,7056],[-16,-39],[5,-5],[-10,-26],[-31,34],[5,12],[6,-4],[17,36],[14,-12],[7,13],[3,-9]],[[1332,7101],[1,-26],[-25,8],[7,18],[17,0]],[[3914,9562],[26,-51],[21,-20]],[[3961,9491],[-15,-35],[-16,-30],[2,-17],[-18,-2],[-4,10],[-23,-21],[-14,75],[-27,118],[-7,26],[-9,17]],[[3830,9632],[16,25],[11,-20],[51,-81],[6,6]],[[7746,7832],[-9,-43],[-8,-24],[15,-9],[-8,-41],[27,-8],[16,18],[11,-17],[-37,-29],[-23,-8],[-12,0],[-11,7],[-10,22],[-4,25],[9,53],[1,36],[-2,17],[45,1]],[[7697,7857],[-3,-5],[-11,20],[8,13],[11,-18],[-5,-10]],[[820,7945],[-18,23],[-6,0],[-25,-36],[-14,24],[-14,-41],[-5,5],[-9,39],[-44,27]],[[685,7986],[8,15],[35,55],[16,9]],[[744,8065],[1,-35],[32,-53],[11,16],[10,-16],[9,14],[21,-32],[-8,-14]],[[2353,6034],[8,-1],[12,-14],[8,1],[20,-23],[-2,-16],[8,-9],[-37,-24],[5,-19],[-9,3],[-5,18],[-17,-9],[-7,17],[-12,6],[3,34],[13,17],[-3,26],[-5,12],[20,-19]],[[1527,6131],[6,0],[3,25],[8,7],[12,-34],[-9,-34],[-10,-5],[-1,-29],[-11,-1],[5,-28],[7,10],[12,-3],[-4,-8],[34,-66],[-12,-12],[-5,13],[-17,-16],[-10,41],[-4,-4],[-17,52],[-3,19],[-2,78],[-4,27],[7,8],[15,-40]],[[9924,1299],[17,-9],[28,-44],[7,10],[8,-19],[5,2],[10,-29],[-10,-13],[-14,-1],[-16,7],[-2,11],[-19,15],[-16,17],[0,24],[-3,14],[5,15]],[[5622,4356],[4,-13],[-55,-49],[-50,-50],[-30,-35],[3,-6],[-17,-19],[2,-6],[-18,-26],[10,-20],[-23,-31],[-29,57],[103,119],[-12,28],[61,66],[13,-22],[24,29],[-7,18],[13,13],[6,-17],[-7,-8],[9,-28]],[[2106,9164],[-36,-23],[0,-17],[-11,-1],[2,-11],[-7,-7],[1,-39],[-7,2],[0,15],[-11,-1],[-6,35],[12,7],[-3,14],[13,2],[2,10],[16,7],[-1,11],[16,23],[22,16],[-2,-43]],[[6062,96],[2,-19],[20,17],[19,-31],[-12,-31],[-21,-31],[-6,26],[-20,-27],[-3,40],[13,4],[-3,47],[11,5]],[[2311,3743],[-4,0],[4,-27],[6,-4],[-8,-14],[2,-12],[-16,-6],[-4,25],[14,3],[-18,6],[-6,28],[30,1]],[[3567,2433],[6,-5],[4,-22],[14,-6],[11,-15],[-4,-16],[-5,4],[-7,-21],[-12,0],[1,8],[-14,79],[6,-6]],[[7357,327],[38,-5],[-1,-15],[39,-15],[10,-15],[-3,-6],[-22,18],[0,-11],[-71,13],[-7,9],[4,12],[-9,14],[-6,-11],[-8,9],[6,11],[7,-8],[6,10],[17,-10]],[[3025,4286],[5,-5],[32,7],[2,-13],[-19,-3],[0,-16],[-31,-10],[-5,9],[-21,-19],[-12,32],[23,22],[18,7],[8,-11]],[[2957,4235],[-4,7],[6,14],[14,-4],[5,-8],[-21,-9]],[[6071,4522],[12,-14],[7,0],[9,15],[8,-13],[-10,-19],[9,-10],[-15,-26],[-16,18],[2,5],[-31,36],[11,25],[14,-17]],[[6125,4460],[20,14],[6,-3],[8,-23],[-10,-21],[-24,33]],[[5182,750],[14,-24],[13,-7],[11,-14],[8,-22],[-1,-43]],[[5227,640],[2,-15],[8,-17],[-20,-5],[-17,10],[-2,24],[-9,-1],[7,64],[-10,3],[3,10],[-21,24],[4,8],[-14,18],[4,6],[17,-20],[3,1]],[[2664,2204],[9,15],[-3,9],[18,25],[11,-13],[-4,-3],[10,-37],[-19,-30],[-2,4],[-9,-20],[-11,17],[5,11],[9,2],[-14,20]],[[0,5742],[0,10],[9,20],[11,14],[-2,-30],[5,-10],[-6,-9],[-7,12],[-10,-7]],[[3791,6017],[-7,24],[-7,4],[13,26],[6,-3],[7,17],[5,-6],[-10,-54],[-7,-8]],[[3973,9821],[-15,-79],[-4,1]],[[3954,9743],[-47,19]],[[3911,9832],[37,-5],[0,4],[25,-10]],[[3915,9916],[23,8]],[[3938,9924],[14,5],[-1,-41],[5,-35],[10,-9],[7,-23]],[[744,8080],[0,-15]],[[685,7986],[-21,-43],[-6,7],[6,7],[17,36],[-13,11],[-14,-31],[-8,-7],[-8,16],[-3,29],[12,15],[-18,19],[-1,40],[24,10],[1,36],[8,11],[9,-11],[1,-25],[-9,-11],[-18,-34],[8,-13],[-3,-10],[13,-8],[12,20],[12,26],[3,-5],[8,10],[-3,13],[-11,14],[10,14],[-2,16],[9,8],[-5,8],[18,15],[-2,10],[-12,-1],[-2,12],[8,19],[9,3],[1,-9],[19,7],[0,-12],[7,1],[3,-119]],[[3802,9794],[-12,-12],[-12,-26],[9,-12],[-9,-16],[-8,-34]],[[3770,9694],[-3,-9]],[[3767,9685],[-20,20],[16,42],[3,30],[17,69],[19,54],[21,40],[14,20],[17,20],[27,19],[13,-58],[16,5],[2,-21],[19,11],[0,16],[6,1],[1,-29]],[[3903,9764],[-1,-14],[5,-48],[-13,-8],[-1,-34],[-7,-11],[12,-20]],[[3898,9629],[-8,-17],[-35,70],[-26,55]],[[3829,9737],[25,31],[-9,18],[37,-14]],[[3898,9629],[15,-24],[15,-32]],[[3928,9573],[-14,-11]],[[3830,9632],[-12,24],[-29,-39],[-23,29],[-8,0],[9,39]],[[3770,9694],[16,21],[9,-17],[34,39]],[[3954,9658],[-31,9],[2,-32],[7,-20],[3,-32],[-7,-10]],[[3954,9743],[-2,-62],[2,-23]],[[3954,9658],[5,-74],[9,4],[15,-6],[-8,-34],[2,-7],[-16,-50]],[[5022,9485],[-7,-14],[-9,4],[-4,-17],[-7,15],[-14,0],[-2,24],[13,3],[32,-3],[-2,-12]],[[5047,9441],[-11,-8],[2,15],[9,-7]],[[4967,9456],[0,0]],[[4529,9672],[11,1],[13,-44],[11,11],[4,-50],[6,-27],[-12,-4],[1,-32],[8,-30],[-3,-2],[-11,33],[-3,4],[-4,-28],[-8,8],[0,23],[-8,-2],[-8,-13],[-4,-20],[-9,12],[12,7],[-1,15],[-8,8],[-13,-20],[-9,18],[26,30],[6,13],[-58,-44],[-49,-39],[-4,16],[22,18],[51,46],[15,28],[14,18],[-4,16],[17,14],[-1,16]],[[4535,9473],[-11,12],[7,7],[7,-10],[-3,-9]],[[2434,9457],[0,-8],[37,-5],[0,-11],[11,-1],[0,-21],[-8,1],[0,18],[-27,3],[-13,-21],[0,-11],[-9,4],[-1,-12],[-6,2],[1,18],[-24,6],[1,21],[16,-2],[1,14],[16,-2],[5,7]],[[2368,9374],[-6,-5],[-12,25],[7,10],[11,-30]],[[2372,9428],[5,4],[11,-27],[-7,-9],[-11,27],[-9,1],[7,12],[4,-8]],[[2516,9428],[-19,1],[0,18],[6,-10],[13,-1],[0,-8]],[[1152,4896],[18,-16],[10,-1],[-37,-90],[-19,19],[-46,51],[9,27],[19,-20],[5,14],[5,-4],[9,23],[14,6],[13,-9]],[[1223,4919],[-7,-7],[-9,14],[9,9],[7,-16]],[[744,8080],[16,3],[1,-7],[22,-13],[-4,-22],[20,-14],[-5,-20],[29,-22],[27,-29],[25,-21],[-1,-16],[8,-13],[-8,-20],[0,-15],[-11,5],[-41,61],[-2,8]],[[8278,9717],[26,-1],[0,-20],[-16,-7],[2,-26],[-20,-9],[-63,-21],[-31,-8],[2,20],[-24,-1],[-26,8],[-39,27],[5,32],[20,-3],[16,2],[25,-9],[61,13],[34,10],[28,-7]],[[7108,4443],[3,-9],[7,10],[15,-16],[0,-11],[7,-10],[0,-32],[16,0],[1,-57],[32,-18],[-2,-12],[-52,33],[-4,-54],[-9,14],[-2,45],[-20,11],[-3,-9],[-15,7],[-15,-12],[-9,-38],[3,-13],[-9,6],[-7,-9],[-13,21],[-1,11],[-9,15],[23,32],[-3,7],[3,33],[21,16],[2,17],[22,-6],[4,-7],[10,11],[4,24]],[[2918,5390],[6,-14],[6,7],[18,-28],[-6,-7],[12,-15],[4,-14],[13,-14],[2,-10],[-6,-13],[-8,11],[-11,-24],[-20,27],[-4,-5],[-15,27],[4,9],[8,-11],[11,17],[8,3],[-29,59],[7,-5]],[[7239,7600],[39,-5],[-6,-23],[19,-13],[-4,-18],[-6,7],[-2,-22],[9,-16],[-12,1],[-7,-51],[9,-4],[-4,-7],[-37,6],[-2,15],[-18,6],[5,72],[2,12],[16,-1],[-1,41]],[[3332,808],[0,-15],[-8,-16],[1,-11],[-9,-1],[-3,13],[-28,-38],[5,-17],[-5,-6],[-9,8],[-15,-9],[-2,-7],[-10,5],[-1,11],[30,18],[17,38],[18,24],[-6,28],[19,4],[8,16],[5,-25],[-8,-11],[1,-9]],[[5274,986],[-3,-50],[-21,-1],[-5,-41],[21,-10]],[[5266,884],[-1,-12],[8,-3],[-5,-48]],[[5268,821],[-79,26],[-1,-6],[-19,3],[0,5]],[[5169,849],[3,15],[9,-3],[2,38],[7,19],[-21,9],[-2,8],[-31,16]],[[5136,951],[4,48]],[[5140,999],[26,-3],[0,5],[21,-1],[-2,17],[16,13],[3,-20],[6,8],[5,-20],[17,-1],[1,-25],[11,2],[-1,9],[10,6],[0,8],[21,-1],[0,-10]],[[5268,821],[-4,-41],[-14,-123],[7,-13],[-7,-8],[-1,-29],[-6,1],[1,22],[-9,0],[3,10],[-11,0]],[[5182,750],[-22,47],[2,19],[-7,22],[7,11],[7,0]],[[5274,986],[3,7],[21,-1],[-6,-36],[-10,-76],[-16,4]],[[5319,1021],[5,6],[21,-36],[-13,-5],[-25,20],[-10,-1],[19,28],[3,-12]],[[5136,951],[-11,2],[3,26],[-15,9],[2,19],[25,-8]]]}
