{"type":"Topology","bbox":[-71.81310005472187,6.226889390589049,-71.3427256058743,6.652498017770714],"transform":{"scale":[0.000047042149099666466,0.000042565119230089536],"translate":[-71.81310005472187,6.226889390589049]},"objects":{"municipios":{"type":"GeometryCollection","geometries":[{"type":"Polygon","arcs":[[0,1,2,3,4,5,6]],"properties":{"codigo":"81794100000000000103","sector":"817941000000000001","pcode":"CO81794","area_m2":116121}},{"type":"Polygon","arcs":[[7,-3,8,9]],"properties":{"codigo":"81794100000000000204","sector":"817941000000000002","pcode":"CO81794","area_m2":97139}},{"type":"Polygon","arcs":[[10,11,12,13,14]],"properties":{"codigo":"81794100000000000206","sector":"817941000000000002","pcode":"CO81794","area_m2":172065}},{"type":"Polygon","arcs":[[15,16,-12,17,18]],"properties":{"codigo":"81794100000000000301","sector":"817941000000000003","pcode":"CO81794","area_m2":185515}},{"type":"Polygon","arcs":[[-11,19,20,21,22,23,-18]],"properties":{"codigo":"81794100000000000302","sector":"817941000000000003","pcode":"CO81794","area_m2":132544}},{"type":"Polygon","arcs":[[24,-22,25,26]],"properties":{"codigo":"81794100000000000304","sector":"817941000000000003","pcode":"CO81794","area_m2":103480}},{"type":"Polygon","arcs":[[27,28,29]],"properties":{"codigo":"81794100000000000307","sector":"817941000000000003","pcode":"CO81794","area_m2":70232}},{"type":"Polygon","arcs":[[-7,30,31,32,33,34,35]],"properties":{"codigo":"81794100000000000401","sector":"817941000000000004","pcode":"CO81794","area_m2":777255}},{"type":"Polygon","arcs":[[36,37,38]],"properties":{"codigo":"81794100000000000405","sector":"817941000000000004","pcode":"CO81794","area_m2":111143}},{"type":"Polygon","arcs":[[39,40,41,42]],"properties":{"codigo":"81794100000000000406","sector":"817941000000000004","pcode":"CO81794","area_m2":109868}},{"type":"Polygon","arcs":[[43,44,45,46]],"properties":{"codigo":"81794100000000000605","sector":"817941000000000006","pcode":"CO81794","area_m2":94855}},{"type":"Polygon","arcs":[[47,48,-47,49]],"properties":{"codigo":"81794100000000000606","sector":"817941000000000006","pcode":"CO81794","area_m2":124016}},{"type":"Polygon","arcs":[[50,51]],"properties":{"codigo":"81794100000000000607","sector":"817941000000000006","pcode":"CO81794","area_m2":84921}},{"type":"Polygon","arcs":[[52]],"properties":{"codigo":"81794202804014000101","sector":"817942028040140001","pcode":"CO81794","area_m2":48311}},{"type":"Polygon","arcs":[[53]],"properties":{"codigo":"81794202501021000101","sector":"817942025010210001","pcode":"CO81794","area_m2":57827}},{"type":"MultiPolygon","arcs":[[[54]],[[55]]],"properties":{"codigo":"81794200607022000101","sector":"817942006070220001","pcode":"CO81794","area_m2":101464}},{"type":"Polygon","arcs":[[56]],"properties":{"codigo":"81794200614027000101","sector":"817942006140270001","pcode":"CO81794","area_m2":79117}},{"type":"Polygon","arcs":[[57,58,59,60]],"properties":{"codigo":"81794100000000000502","sector":"817941000000000005","pcode":"CO81794","area_m2":85881}},{"type":"Polygon","arcs":[[61,62,63]],"properties":{"codigo":"81794100000000000309","sector":"817941000000000003","pcode":"CO81794","area_m2":64577}},{"type":"Polygon","arcs":[[64,65,66,67,68,-9]],"properties":{"codigo":"81794100000000000202","sector":"817941000000000002","pcode":"CO81794","area_m2":121029}},{"type":"Polygon","arcs":[[69,-61,70]],"properties":{"codigo":"81794100000000000503","sector":"817941000000000005","pcode":"CO81794","area_m2":140772}},{"type":"Polygon","arcs":[[-20,-15,-4,-8,71,72,73]],"properties":{"codigo":"81794100000000000205","sector":"817941000000000002","pcode":"CO81794","area_m2":211833}},{"type":"Polygon","arcs":[[-26,-21,-74,74,-58,-70,75]],"properties":{"codigo":"81794100000000000303","sector":"817941000000000003","pcode":"CO81794","area_m2":201384}},{"type":"Polygon","arcs":[[-19,-24,76,77,-29,78]],"properties":{"codigo":"81794100000000000305","sector":"817941000000000003","pcode":"CO81794","area_m2":99937}},{"type":"Polygon","arcs":[[79,-66,80,-1,-36,81]],"properties":{"codigo":"81794100000000000101","sector":"817941000000000001","pcode":"CO81794","area_m2":292782}},{"type":"Polygon","arcs":[[-81,-65,-2]],"properties":{"codigo":"81794100000000000102","sector":"817941000000000001","pcode":"CO81794","area_m2":78420}},{"type":"Polygon","arcs":[[-31,-6,82,83]],"properties":{"codigo":"81794100000000000104","sector":"817941000000000001","pcode":"CO81794","area_m2":153837}},{"type":"Polygon","arcs":[[84,-83,-5,-14,85,86]],"properties":{"codigo":"81794100000000000105","sector":"817941000000000001","pcode":"CO81794","area_m2":225896}},{"type":"Polygon","arcs":[[87,-86,-13,-17]],"properties":{"codigo":"81794100000000000106","sector":"817941000000000001","pcode":"CO81794","area_m2":167723}},{"type":"Polygon","arcs":[[-80,88,-67]],"properties":{"codigo":"81794100000000000201","sector":"817941000000000002","pcode":"CO81794","area_m2":104088}},{"type":"Polygon","arcs":[[89,-72,-10,-69,90]],"properties":{"codigo":"81794100000000000203","sector":"817941000000000002","pcode":"CO81794","area_m2":219658}},{"type":"Polygon","arcs":[[-63,91,-77,-23,-25,92]],"properties":{"codigo":"81794100000000000306","sector":"817941000000000003","pcode":"CO81794","area_m2":196406}},{"type":"Polygon","arcs":[[93,-30,-78,-92,-62]],"properties":{"codigo":"81794100000000000308","sector":"817941000000000003","pcode":"CO81794","area_m2":55379}},{"type":"Polygon","arcs":[[94,95,96,-33,97,98]],"properties":{"codigo":"81794100000000000402","sector":"817941000000000004","pcode":"CO81794","area_m2":202735}},{"type":"Polygon","arcs":[[-97,99,-39,100,101,102,-40,103,104,105,-34]],"properties":{"codigo":"81794100000000000403","sector":"817941000000000004","pcode":"CO81794","area_m2":1214984}},{"type":"Polygon","arcs":[[106,-37,-100,-96]],"properties":{"codigo":"81794100000000000404","sector":"817941000000000004","pcode":"CO81794","area_m2":62454}},{"type":"Polygon","arcs":[[107,-98,-32,-84,-85]],"properties":{"codigo":"81794100000000000407","sector":"817941000000000004","pcode":"CO81794","area_m2":165555}},{"type":"Polygon","arcs":[[108,-101,-38,-107,-95,109]],"properties":{"codigo":"81794100000000000408","sector":"817941000000000004","pcode":"CO81794","area_m2":203976}},{"type":"Polygon","arcs":[[-104,-43,110,111,112]],"properties":{"codigo":"81794100000000000409","sector":"817941000000000004","pcode":"CO81794","area_m2":168359}},{"type":"Polygon","arcs":[[-105,-113,113]],"properties":{"codigo":"81794100000000000410","sector":"817941000000000004","pcode":"CO81794","area_m2":52816}},{"type":"Polygon","arcs":[[-75,-73,-90,114,-59]],"properties":{"codigo":"81794100000000000501","sector":"817941000000000005","pcode":"CO81794","area_m2":159725}},{"type":"Polygon","arcs":[[-111,-42,115,116]],"properties":{"codigo":"81794100000000000601","sector":"817941000000000006","pcode":"CO81794","area_m2":235128}},{"type":"Polygon","arcs":[[-116,-41,-103,117,-50,-46,118,119]],"properties":{"codigo":"81794100000000000602","sector":"817941000000000006","pcode":"CO81794","area_m2":1516405}},{"type":"Polygon","arcs":[[-119,-45,120,-52,121]],"properties":{"codigo":"81794100000000000603","sector":"817941000000000006","pcode":"CO81794","area_m2":849015}},{"type":"Polygon","arcs":[[-48,-118,-102,-109,122]],"properties":{"codigo":"81794100000000000604","sector":"817941000000000006","pcode":"CO81794","area_m2":272793}},{"type":"MultiPolygon","arcs":[[[123]],[[124]]],"properties":{"codigo":"81794202801001000101","sector":"817942028010010001","pcode":"CO81794","area_m2":329409}},{"type":"Polygon","arcs":[[125,126]],"properties":{"codigo":"81794200618004000101","sector":"817942006180040001","pcode":"CO81794","area_m2":487592}},{"type":"Polygon","arcs":[[-126,127]],"properties":{"codigo":"81794200618004000102","sector":"817942006180040001","pcode":"CO81794","area_m2":377970}},{"type":"Polygon","arcs":[[128]],"properties":{"codigo":"81794202206006000101","sector":"817942022060060001","pcode":"CO81794","area_m2":393777}},{"type":"Polygon","arcs":[[129]],"properties":{"codigo":"81794202106009000101","sector":"817942021060090001","pcode":"CO81794","area_m2":97724}},{"type":"Polygon","arcs":[[130]],"properties":{"codigo":"81794202502015000101","sector":"817942025020150001","pcode":"CO81794","area_m2":112008}},{"type":"Polygon","arcs":[[131]],"properties":{"codigo":"81794202502019000101","sector":"817942025020190001","pcode":"CO81794","area_m2":76341}},{"type":"Polygon","arcs":[[132]],"properties":{"codigo":"81794202604020000101","sector":"817942026040200001","pcode":"CO81794","area_m2":52213}},{"type":"Polygon","arcs":[[133]],"properties":{"codigo":"81794200406024000101","sector":"817942004060240001","pcode":"CO81794","area_m2":74840}},{"type":"Polygon","arcs":[[134]],"properties":{"codigo":"81794202503026000101","sector":"817942025030260001","pcode":"CO81794","area_m2":97731}},{"type":"Polygon","arcs":[[135]],"properties":{"codigo":"81794202606028000101","sector":"817942026060280001","pcode":"CO81794","area_m2":26063}},{"type":"Polygon","arcs":[[136]],"properties":{"codigo":"81794200618029000101","sector":"817942006180290001","pcode":"CO81794","area_m2":28963}}]}},"arcs":[[[1555,5467],[19,11]],[[1574,5478],[19,11],[9,-19],[73,45]],[[1675,5515],[9,-22]],[[1684,5493],[12,-26]],[[1696,5467],[-16,-11]],[[1680,5456],[-13,26],[-66,-43],[-27,-15]],[[1574,5424],[-19,43]],[[1764,5575],[9,-17],[-60,-46],[-29,-19]],[[1675,5515],[15,10],[-9,18],[19,10],[57,35]],[[1757,5588],[7,-13]],[[1805,5505],[20,-40]],[[1825,5465],[-34,-24],[-13,20],[-59,-42]],[[1719,5419],[-10,23]],[[1709,5442],[-13,25]],[[1696,5467],[19,12],[74,52],[16,-26]],[[1847,5399],[2,-8],[-8,-6],[-13,15],[-29,-23],[-43,-18]],[[1756,5359],[-13,10],[-24,50]],[[1825,5465],[12,-19]],[[1837,5446],[-18,-13],[22,-37],[6,3]],[[1805,5505],[51,33]],[[1856,5538],[20,11]],[[1876,5549],[16,-37]],[[1892,5512],[11,-21]],[[1903,5491],[-35,-25],[-31,-20]],[[1988,5577],[-64,-42],[-32,-23]],[[1876,5549],[-6,19],[17,-2],[49,18],[23,6],[3,-6],[22,13]],[[1984,5597],[4,-20]],[[1918,5410],[10,-17],[-27,-20],[-16,-2],[-8,-10],[-8,11],[-14,31]],[[1855,5403],[38,27],[4,1]],[[1897,5431],[21,-21]],[[1574,5424],[-96,-61],[-10,-11]],[[1468,5352],[-24,-30],[-26,-16]],[[1418,5306],[-33,-18]],[[1385,5288],[0,12],[-8,18],[-28,-13],[-21,44],[-23,40],[-21,1],[-9,-6]],[[1275,5384],[-1,4],[31,31],[100,44],[36,12],[89,27],[6,4]],[[1536,5506],[19,-39]],[[1151,5211],[13,-35]],[[1164,5176],[-114,-54],[-27,-13],[-30,-6]],[[993,5103],[44,35],[68,45],[46,28]],[[1059,5238],[-38,-24],[-70,-46],[-4,8],[-23,-15]],[[924,5161],[-11,18],[39,25]],[[952,5204],[64,43],[28,18]],[[1044,5265],[15,-27]],[[672,4973],[-3,-6],[-58,-23],[0,5],[-25,95]],[[586,5044],[2,0]],[[588,5044],[38,7]],[[626,5051],[2,-20],[6,-26],[13,-41],[24,12],[1,-3]],[[689,5059],[9,-73]],[[698,4986],[-11,-9],[-15,-4]],[[626,5051],[63,9],[0,-1]],[[528,5247],[-11,73],[9,-5],[19,6],[22,1],[10,-67],[-11,-2]],[[566,5253],[-38,-6]],[[7428,5179],[16,-7],[-8,-18],[2,-13],[20,-16],[-5,-7],[-6,10],[-19,7],[-5,-15],[-17,6],[-5,-10],[2,28],[-4,13],[9,0],[12,26],[8,-4]],[[7277,9994],[6,1],[8,-47],[17,-17],[7,1],[-4,-16],[15,-5],[-1,-11],[-22,2],[-7,20],[-10,3],[-8,-8],[-14,13],[6,26],[-32,16],[5,5],[26,-9],[3,-13],[5,5],[-12,36],[12,-2]],[[6646,7030],[6,-11],[-19,-21],[-32,-19],[-22,-4],[-4,9],[7,5],[-8,18],[8,24],[20,12],[6,-13],[11,8],[18,-13],[7,5],[-3,19],[20,13],[11,-14],[-26,-18]],[[6681,6988],[-3,-12],[-22,7],[9,18],[16,-13]],[[9916,7385],[35,-16],[27,-11],[15,2],[6,-12],[-25,1],[-9,-10],[-11,4],[-11,-22],[-11,1],[-23,23],[-6,2],[-11,-10],[-6,5],[0,15],[9,-1],[9,10],[12,19]],[[1981,5674],[-39,-23]],[[1942,5651],[-33,70],[-4,0]],[[1905,5721],[0,5],[42,9],[1,6],[19,10]],[[1967,5751],[1,-5],[-17,-10],[30,-62]],[[1983,5384],[-10,17],[-13,-9],[-26,37]],[[1934,5429],[18,16],[26,-7]],[[1978,5438],[32,-2],[-15,-39],[-12,-13]],[[1675,5515],[-18,35]],[[1657,5550],[0,1]],[[1657,5551],[44,30],[-8,16],[18,18],[-21,37],[-4,3]],[[1686,5655],[12,18]],[[1698,5673],[12,-10],[13,-27],[34,-48]],[[1997,5663],[-4,19],[-12,-8]],[[1967,5751],[2,5],[42,24],[-1,-23],[14,-37],[4,-16],[12,9],[10,-20],[-53,-30]],[[1764,5575],[36,24],[9,-19],[49,26]],[[1858,5606],[7,-21]],[[1865,5585],[-24,-16],[15,-31]],[[1865,5585],[26,19],[23,30],[28,17]],[[1997,5663],[-2,-47],[-12,-8],[1,-11]],[[1903,5491],[11,-23],[-16,-13],[10,-17]],[[1908,5438],[-11,-7]],[[1855,5403],[-8,-4]],[[1634,5600],[23,-49]],[[1657,5550],[-37,-29],[-50,-33],[4,-10]],[[1536,5506],[-13,33],[14,18],[12,32],[24,19],[-19,37],[11,8],[10,-14],[5,1],[16,-28],[8,7],[4,-12],[11,-15],[15,8]],[[1680,5456],[-147,-93]],[[1533,5363],[-37,-9],[-28,-2]],[[1543,5310],[-11,39],[-9,8],[10,6]],[[1709,5442],[-92,-56],[11,-23]],[[1628,5363],[14,-30],[-74,-16],[-25,-7]],[[1756,5359],[-58,3],[-23,-24],[-3,20],[-24,-8],[-16,15],[-4,-2]],[[1634,5600],[15,8],[-8,17],[11,7],[5,-11],[29,34]],[[1841,5645],[17,-39]],[[1698,5673],[27,32],[14,-27],[17,15],[10,21],[4,-2],[-3,-20],[3,-20],[9,-7],[13,-26],[19,-17],[30,23]],[[1934,5429],[-12,19],[-14,-10]],[[1988,5577],[9,-8],[3,-14],[-19,3],[-2,-8],[15,2],[13,-9],[-7,-4],[-5,-17],[-16,-19],[-22,-16],[7,-20],[-14,-10],[0,-7],[23,-6],[5,-6]],[[1983,5384],[-15,-19],[-14,6],[-21,28],[-15,11]],[[1218,5155],[-14,39]],[[1204,5194],[16,8]],[[1220,5202],[16,9],[67,30],[82,47]],[[1418,5306],[20,-42]],[[1438,5264],[-56,-18],[-6,3],[-49,-28],[-13,-10],[-5,4],[-26,-16],[-4,-6],[-19,-10],[-5,6],[-29,-34],[-8,0]],[[1220,5202],[-18,42],[-51,-33]],[[993,5103],[-47,-7]],[[946,5096],[-116,-16]],[[830,5080],[-5,14],[84,56],[4,-8],[14,10],[-3,9]],[[1059,5238],[38,27],[-2,7],[71,48],[-3,9]],[[1163,5329],[60,26]],[[1223,5355],[15,6],[37,23]],[[1204,5194],[-40,-18]],[[1543,5310],[-14,-9],[-45,-20],[4,13],[-50,-30]],[[943,5074],[3,22]],[[1218,5155],[-13,-28],[-17,-1],[-31,-8],[-8,13],[-18,-8],[-67,-13],[-37,-15],[-32,-5],[-22,-7],[-27,-15],[-3,6]],[[1044,5265],[31,20],[-19,8]],[[1056,5293],[8,18],[42,17],[-4,19],[47,24]],[[1149,5371],[14,4],[11,-27],[-16,-8],[5,-11]],[[1149,5371],[-1,6],[42,19],[8,-27],[7,-9],[15,6],[3,-11]],[[1841,5645],[17,13],[1,8],[39,38],[7,17]],[[952,5204],[-39,74]],[[913,5278],[7,3],[-6,22],[27,2],[5,-16],[21,5],[-3,6],[29,19],[4,15],[13,-5],[0,-15],[30,-16],[16,-5]],[[830,5080],[-141,-21]],[[588,5044],[5,107],[-5,25],[-9,9],[-4,23]],[[575,5208],[38,7],[78,42],[-12,15],[14,7],[7,-17],[6,1],[80,0],[-5,70],[41,-18],[-2,-52],[46,1],[47,14]],[[586,5044],[-95,-15],[-175,-25],[-63,60],[7,7],[18,4],[12,-3],[10,12],[47,30],[6,-18],[36,11],[8,-25],[10,-8],[55,8],[3,15],[11,1],[-2,-14],[22,3],[1,128],[-1,26],[32,6]],[[566,5253],[6,-44],[3,-1]],[[943,5074],[-35,-12],[-1,3],[-105,-32],[-4,-7],[-100,-40]],[[5475,6297],[-9,-10],[-1,-21],[14,-26],[-3,-15],[6,-79],[-7,-6],[-9,19],[8,4],[-4,25],[-46,2],[0,-21],[-5,-24],[-13,-2],[-4,10],[-23,14],[-41,2],[0,43],[-34,2],[22,14],[-2,16],[8,24],[5,-6],[42,3],[-1,-20],[45,-2],[23,6],[15,49],[16,5],[-2,-6]],[[5313,6281],[-4,-8],[-29,15],[3,7],[30,-14]],[[2404,7963],[-14,-19],[22,-24],[-21,-36]],[[2391,7884],[-14,13],[-5,18],[-14,15],[-12,-3],[-17,21],[3,4],[-16,13],[-7,-12],[-15,11],[8,14],[-16,17],[-5,16],[-37,14],[-29,18],[-60,23],[2,4],[28,-10],[3,12],[11,2],[23,-6],[5,19],[-8,3],[3,12],[27,-5],[0,4],[21,-3],[91,-20],[-3,-41],[16,-24],[17,-33],[13,-17]],[[2404,7963],[16,-18],[8,11],[14,-16],[0,-11],[39,-37],[14,-7],[15,18],[16,-7],[5,6],[37,11],[1,-21],[14,-5],[5,-17],[-32,-9],[-4,-37],[-41,23],[-16,4],[-1,-19],[-15,11],[-25,-27],[-5,-31],[8,-9],[-5,-30],[-30,-1],[-3,32],[12,3],[0,27],[-8,25],[-16,32],[-16,20]],[[7722,481],[13,-30],[-18,-20],[-12,-37],[3,-33],[-2,-9],[3,-24],[-2,-17],[-18,-9],[-8,-9],[7,-8],[-16,-11],[-6,5],[-20,-29],[15,-13],[-15,-12],[-10,9],[-8,-15],[-22,-26],[-8,11],[35,40],[-13,18],[-25,-9],[-13,0],[2,14],[20,8],[6,22],[-9,-2],[-8,8],[3,14],[16,5],[10,13],[6,26],[8,12],[4,25],[31,20],[13,23],[20,40],[14,8],[4,-8]],[[4266,123],[-3,-17],[-13,-26],[-5,2],[-17,-33],[17,-2],[15,-16],[-5,-18],[-9,-13],[-27,21],[-33,32],[-13,21],[5,8],[21,-14],[3,9],[12,-5],[7,20],[21,-7],[19,38],[5,0]],[[5745,9658],[1,-14],[13,-16],[-12,-8],[-7,8],[-9,-6],[-25,0],[2,-7],[-14,-6],[-5,-26],[0,-10],[-12,4],[1,9],[-18,2],[1,10],[-26,11],[0,7],[21,1],[2,20],[16,5],[15,-2],[12,19],[19,-6],[22,27],[3,-22]],[[5011,9627],[4,0],[6,-32],[23,0],[-5,-13],[-16,-2],[-22,-8],[0,-15],[-13,-5],[-3,16],[-17,-2],[7,7],[-3,15],[11,3],[-1,17],[5,1],[-4,31],[26,3],[2,-16]],[[3292,9778],[13,0],[-14,-7],[-13,3],[10,-17],[26,-15],[-4,-9],[-17,-1],[-1,-7],[-35,-3],[-3,15],[14,3],[0,11],[-21,8],[1,5],[18,-6],[-1,8],[13,4],[-6,33],[15,-6],[5,-19]],[[29,9923],[4,-6],[10,13],[14,-24],[-15,-3],[8,-14],[8,5],[-3,-13],[14,-24],[22,13],[5,-8],[28,18],[12,-7],[-13,-21],[-13,-3],[-4,7],[-16,-6],[7,-13],[-18,-11],[-27,52],[-11,18],[-32,-10],[-9,7],[23,14],[-10,19],[11,5],[5,-8]],[[8204,9755],[30,-1],[2,-7],[1,-43],[-58,-1],[-2,22],[-28,0],[-2,31],[21,-2],[21,4],[15,-3]],[[6238,9228],[10,-4],[7,-11],[-7,-6],[8,-17],[8,3],[11,-38],[-13,-6],[-10,29],[5,11],[-10,-6],[-19,39],[10,6]],[[2413,7233],[2,11],[7,-8],[13,6],[14,-9],[-4,-12],[14,4],[-5,-8],[-24,-9],[0,-9],[-9,1],[-12,27],[4,6]]]}
