{"type":"Topology","bbox":[-72.00442481214787,5.57340480715077,-71.9096310609894,5.7344367347777245],"transform":{"scale":[0.000009480323148162504,0.00001610480324301973],"translate":[-72.00442481214787,5.57340480715077]},"objects":{"municipios":{"type":"GeometryCollection","geometries":[{"type":"Polygon","arcs":[[0,1]],"properties":{"codigo":"85263100000000000101","sector":"852631000000000001","pcode":"CO85263","area_m2":214503}},{"type":"Polygon","arcs":[[2,3,-1,4]],"properties":{"codigo":"85263100000000000102","sector":"852631000000000001","pcode":"CO85263","area_m2":215150}},{"type":"Polygon","arcs":[[5,6,7,8,-3,9]],"properties":{"codigo":"85263100000000000103","sector":"852631000000000001","pcode":"CO85263","area_m2":277615}},{"type":"Polygon","arcs":[[10,11,12,-8]],"properties":{"codigo":"85263100000000000104","sector":"852631000000000001","pcode":"CO85263","area_m2":173765}},{"type":"Polygon","arcs":[[13,14,-11,-7,15]],"properties":{"codigo":"85263100000000000105","sector":"852631000000000001","pcode":"CO85263","area_m2":158955}},{"type":"Polygon","arcs":[[16,-12,-15]],"properties":{"codigo":"85263100000000000106","sector":"852631000000000001","pcode":"CO85263","area_m2":241770}},{"type":"Polygon","arcs":[[-16,-6,17]],"properties":{"codigo":"85263100000000000107","sector":"852631000000000001","pcode":"CO85263","area_m2":515031}},{"type":"Polygon","arcs":[[18]],"properties":{"codigo":"85263200206001000101","sector":"852632002060010001","pcode":"CO85263","area_m2":83654}},{"type":"Polygon","arcs":[[19]],"properties":{"codigo":"85263200305002000101","sector":"852632003050020001","pcode":"CO85263","area_m2":88082}}]}},"arcs":[[[1077,9934],[-102,-43],[-101,-84],[-333,-262],[-114,-49]],[[427,9496],[-43,35],[-14,83],[-51,49],[3,41],[368,138],[353,139],[34,-47]],[[1233,9937],[-162,-133],[-242,-210],[-103,-98],[-40,-24],[-19,-68]],[[667,9404],[-133,24],[-107,68]],[[1077,9934],[66,40],[90,-37]],[[1393,9873],[-179,-159]],[[1214,9714],[-155,-140],[236,-90]],[[1295,9484],[-50,-48],[-160,64],[-51,-47],[-80,31],[-73,-71],[-103,-33]],[[778,9380],[-111,24]],[[1233,9937],[76,50],[34,-12],[-21,-72],[71,-30]],[[1295,9484],[80,-32]],[[1375,9452],[-52,-47],[80,-32],[-105,-89],[-92,33],[-90,-63]],[[1116,9254],[-105,41],[-79,12],[-93,-9],[-48,13],[-13,69]],[[1751,9369],[-54,-46]],[[1697,9323],[-322,129]],[[1214,9714],[318,-123],[-110,-92],[329,-130]],[[1697,9323],[-65,-57],[37,-4],[-101,-88],[-35,8],[-138,-135],[-9,-38],[-47,11],[-97,93],[-51,-20],[-77,9],[-27,35],[35,53],[44,27],[-50,37]],[[1393,9873],[152,126],[318,-125],[153,9],[23,-58],[-51,-65],[-85,-56],[-95,-83],[159,-63],[-216,-189]],[[116,3845],[192,-118],[62,-22],[-28,-76],[-36,-13],[-62,51],[-179,-7],[-41,23],[37,46],[-61,36],[73,57],[-21,61],[64,-38]],[[9813,190],[35,-3],[5,-72],[21,-35],[125,-12],[-23,-34],[-177,-7],[-159,-26],[-135,30],[78,22],[-12,35],[86,2],[72,65],[39,86],[42,-4],[3,-47]]]}
