{"type":"Topology","bbox":[-72.33946848200867,6.125468328415204,-72.33110397786481,6.130749074529442],"transform":{"scale":[8.365340677923603e-7,5.281274241662066e-7],"translate":[-72.33946848200867,6.125468328415204]},"objects":{"municipios":{"type":"GeometryCollection","geometries":[{"type":"Polygon","arcs":[[0]],"properties":{"codigo":"85136100000000000102","sector":"851361000000000001","pcode":"CO85136","area_m2":8765}},{"type":"Polygon","arcs":[[1]],"properties":{"codigo":"85136100000000000101","sector":"851361000000000001","pcode":"CO85136","area_m2":95261}},{"type":"Polygon","arcs":[[2]],"properties":{"codigo":"85136100000000000103","sector":"851361000000000001","pcode":"CO85136","area_m2":26715}}]}},"arcs":[[[6776,9999],[253,-51],[225,-187],[740,-404],[-118,-464],[-177,85],[-63,-180],[-120,136],[-142,-97],[-58,-244],[-130,90],[-75,-231],[-312,-238],[-364,173],[107,1229],[50,264],[146,-69],[38,188]],[[5511,6642],[99,-194],[124,244],[302,-245],[164,-237],[295,20],[219,-128],[561,484],[161,84],[752,2],[140,-46],[-11,-243],[-254,54],[-234,-140],[323,-560],[711,464],[253,-90],[488,117],[395,-57],[-141,-509],[-717,-65],[-152,-443],[38,-484],[-60,-322],[-193,-343],[-895,-648],[-840,-506],[-498,-580],[-925,-719],[-328,-328],[-65,76],[-291,879],[-173,233],[-253,522],[-523,-135],[-89,263],[261,465],[129,18],[161,423],[-263,335],[196,146],[8,198],[-417,-50],[263,616],[516,300],[92,-144],[432,322],[-106,320],[52,151],[-270,1059],[363,281],[114,-379],[-73,-293],[159,-188]],[[1873,2801],[-40,-1153],[-193,-476],[-181,175],[-200,-176],[-419,409],[-73,-61],[-284,-639],[125,-402],[-522,-478],[-65,993],[276,277],[-278,16],[40,163],[87,1130],[-117,17],[-29,298],[94,903],[200,779],[514,-496],[124,-241],[763,-740],[178,-298]]]}
