{"type":"Topology","bbox":[-73.07307171444796,4.745212171605173,-72.99504177233905,4.862171332866894],"transform":{"scale":[0.000007803774588350092,0.000011697085834755566],"translate":[-73.07307171444796,4.745212171605173]},"objects":{"municipios":{"type":"GeometryCollection","geometries":[{"type":"Polygon","arcs":[[0]],"properties":{"codigo":"85300200205003000101","sector":"853002002050030001","pcode":"CO85300","area_m2":22596}},{"type":"Polygon","arcs":[[1,2]],"properties":{"codigo":"85300100000000000101","sector":"853001000000000001","pcode":"CO85300","area_m2":474048}},{"type":"Polygon","arcs":[[-2,3]],"properties":{"codigo":"85300100000000000102","sector":"853001000000000001","pcode":"CO85300","area_m2":391368}},{"type":"Polygon","arcs":[[4,5]],"properties":{"codigo":"85300200302001000101","sector":"853002003020010001","pcode":"CO85300","area_m2":153105}},{"type":"Polygon","arcs":[[-5,6]],"properties":{"codigo":"85300200302001000102","sector":"853002003020010001","pcode":"CO85300","area_m2":172665}}]}},"arcs":[[[210,6237],[-142,-1],[-9,-48],[-59,51],[33,101],[38,48],[18,-46],[99,-47],[-8,-36],[30,-22]],[[4674,9217],[-461,135],[-171,52]],[[4042,9404],[172,201],[46,73],[68,228],[213,93],[173,-11],[-10,-59],[270,-17],[-31,-69],[-155,-395],[-101,-221],[-13,-10]],[[4674,9217],[16,-84],[-62,-14],[-86,43],[-32,-47],[77,-27],[-3,-28],[-55,-52],[-33,-165],[20,-53],[-6,-59],[-93,-35],[-267,134],[-31,34],[-87,-9],[-78,17],[-192,22],[121,96],[49,16],[45,60],[-74,31],[54,65],[-67,20],[66,82],[38,81],[48,59]],[[9317,138],[72,30],[131,70],[331,190]],[[9851,428],[28,12],[80,-64],[-52,-26],[81,-62],[-32,-23],[43,-30],[-126,-9],[-52,-29],[-11,-33],[-83,-80],[-42,-2],[-59,-35],[-18,-31],[-88,-2],[-69,-14],[-129,28],[-5,110]],[[9317,138],[-44,104],[18,33],[-7,59],[-114,-46],[-16,-33],[-78,29],[-154,-17],[19,92],[154,15],[8,-12],[183,31],[135,62],[47,55],[-56,40],[52,32],[48,-34],[55,40],[70,-23],[-2,-45],[115,-91],[52,33],[49,-34]]]}
