{"type":"Topology","bbox":[-71.95489137415859,5.053174378174249,-70.99241776760954,5.4280466279209705],"transform":{"scale":[0.00009625698635354074,0.00003749097407207939],"translate":[-71.95489137415859,5.053174378174249]},"objects":{"municipios":{"type":"GeometryCollection","geometries":[{"type":"Polygon","arcs":[[0,1,2,3,4]],"properties":{"codigo":"85325100000000000101","sector":"853251000000000001","pcode":"CO85325","area_m2":292007}},{"type":"Polygon","arcs":[[5,6,-2]],"properties":{"codigo":"85325100000000000104","sector":"853251000000000001","pcode":"CO85325","area_m2":117110}},{"type":"Polygon","arcs":[[7]],"properties":{"codigo":"85325201402002000101","sector":"853252014020020001","pcode":"CO85325","area_m2":72932}},{"type":"Polygon","arcs":[[8]],"properties":{"codigo":"85325202104005000101","sector":"853252021040050001","pcode":"CO85325","area_m2":65270}},{"type":"Polygon","arcs":[[-6,-1,9]],"properties":{"codigo":"85325100000000000102","sector":"853251000000000001","pcode":"CO85325","area_m2":391358}},{"type":"Polygon","arcs":[[-4,10]],"properties":{"codigo":"85325100000000000103","sector":"853251000000000001","pcode":"CO85325","area_m2":63171}},{"type":"Polygon","arcs":[[11]],"properties":{"codigo":"85325202001004000101","sector":"853252020010040001","pcode":"CO85325","area_m2":71622}}]}},"arcs":[[[2326,9887],[4,-12],[-16,-11],[2,-59],[9,3],[1,-22]],[[2326,9786],[-31,-5],[-1,37],[-23,-7],[-8,8]],[[2263,9819],[-3,10]],[[2260,9829],[1,23],[17,12],[-18,8],[0,26],[-8,33]],[[2252,9931],[13,44],[2,24],[7,-6],[5,-68],[6,-26],[12,-21],[10,-7],[19,16]],[[2326,9786],[0,-22]],[[2326,9764],[-1,-13],[-27,-9],[-18,18],[-17,59]],[[9976,77],[23,-13],[-4,-52],[-9,-12],[-21,14],[0,17],[8,1],[5,25],[-2,20]],[[17,5216],[29,-27],[-3,-21],[-12,14],[-7,-38],[-24,64],[2,10],[7,-11],[8,9]],[[2326,9887],[12,35],[1,43],[16,-21],[42,-40],[-3,-18],[-27,27],[2,-43],[-2,-2],[8,-123],[-8,6],[4,-19],[-6,-30],[-6,8],[8,19],[-10,23],[0,15],[-9,7],[-17,1],[-5,-11]],[[2260,9829],[-10,37],[-13,14],[3,23],[12,28]],[[1319,8588],[-3,-28],[-32,60],[1,25],[37,-28],[-3,-29]]]}
