{"type":"Topology","bbox":[-72.9588128713155,4.687647856849732,-72.74814064920918,4.927788918509636],"transform":{"scale":[0.000021069329143546864,0.0000240165078167721],"translate":[-72.9588128713155,4.687647856849732]},"objects":{"municipios":{"type":"GeometryCollection","geometries":[{"type":"Polygon","arcs":[[0]],"properties":{"codigo":"85162200302008000101","sector":"851622003020080001","pcode":"CO85162","area_m2":196357}},{"type":"Polygon","arcs":[[1]],"properties":{"codigo":"85162200605007000101","sector":"851622006050070001","pcode":"CO85162","area_m2":104257}},{"type":"Polygon","arcs":[[2]],"properties":{"codigo":"85162200705002000101","sector":"851622007050020001","pcode":"CO85162","area_m2":138522}},{"type":"Polygon","arcs":[[3]],"properties":{"codigo":"85162200204006000101","sector":"851622002040060001","pcode":"CO85162","area_m2":160146}},{"type":"Polygon","arcs":[[4,5,6,7]],"properties":{"codigo":"85162100000000000201","sector":"851621000000000002","pcode":"CO85162","area_m2":282620}},{"type":"Polygon","arcs":[[8,9,10,11,12]],"properties":{"codigo":"85162100000000000106","sector":"851621000000000001","pcode":"CO85162","area_m2":180767}},{"type":"Polygon","arcs":[[13,14,15,-10,16]],"properties":{"codigo":"85162100000000000105","sector":"851621000000000001","pcode":"CO85162","area_m2":156717}},{"type":"Polygon","arcs":[[17,-6,18,19]],"properties":{"codigo":"85162100000000000202","sector":"851621000000000002","pcode":"CO85162","area_m2":107196}},{"type":"Polygon","arcs":[[20,21]],"properties":{"codigo":"85162100000000000303","sector":"851621000000000003","pcode":"CO85162","area_m2":140308}},{"type":"Polygon","arcs":[[-15,22,-8,23,24]],"properties":{"codigo":"85162100000000000109","sector":"851621000000000001","pcode":"CO85162","area_m2":132054}},{"type":"Polygon","arcs":[[-21,25,26,27,28]],"properties":{"codigo":"85162100000000000301","sector":"851621000000000003","pcode":"CO85162","area_m2":464639}},{"type":"Polygon","arcs":[[29,30,31,-27]],"properties":{"codigo":"85162100000000000302","sector":"851621000000000003","pcode":"CO85162","area_m2":193862}},{"type":"Polygon","arcs":[[32,-13,33]],"properties":{"codigo":"85162100000000000107","sector":"851621000000000001","pcode":"CO85162","area_m2":55229}},{"type":"Polygon","arcs":[[-11,-16,-25,34]],"properties":{"codigo":"85162100000000000108","sector":"851621000000000001","pcode":"CO85162","area_m2":431749}},{"type":"Polygon","arcs":[[-19,-5,-23,-14,35]],"properties":{"codigo":"85162100000000000104","sector":"851621000000000001","pcode":"CO85162","area_m2":138014}},{"type":"Polygon","arcs":[[36]],"properties":{"codigo":"85162200707001000101","sector":"851622007070010001","pcode":"CO85162","area_m2":33362}},{"type":"Polygon","arcs":[[37]],"properties":{"codigo":"85162200201004000101","sector":"851622002010040001","pcode":"CO85162","area_m2":73904}},{"type":"Polygon","arcs":[[38,39,40,-20,-36,-17,-9,-33,41]],"properties":{"codigo":"85162100000000000102","sector":"851621000000000001","pcode":"CO85162","area_m2":365825}},{"type":"Polygon","arcs":[[-32,42,-39,43,-28]],"properties":{"codigo":"85162100000000000101","sector":"851621000000000001","pcode":"CO85162","area_m2":199457}},{"type":"Polygon","arcs":[[44,-40,-43,-31]],"properties":{"codigo":"85162100000000000103","sector":"851621000000000001","pcode":"CO85162","area_m2":238975}},{"type":"Polygon","arcs":[[45]],"properties":{"codigo":"85162200201009000101","sector":"851622002010090001","pcode":"CO85162","area_m2":28238}}]}},"arcs":[[[3647,8474],[9,-13],[25,20],[32,-20],[39,-34],[-66,-45],[-31,-14],[-43,-11],[-119,-55],[-15,-5],[-7,52],[-13,79],[11,-1],[11,9],[12,-1],[12,18],[17,8],[20,4],[2,8],[22,12],[27,3],[55,-14]],[[9974,5649],[8,4],[17,-17],[-17,-15],[6,-8],[-9,-18],[-17,-22],[-58,-40],[-17,0],[-2,6],[-15,-8],[-14,3],[-1,15],[-39,-5],[-160,-1],[34,36],[86,-23],[31,6],[65,35],[23,20],[-17,19],[18,18],[56,18],[22,-23]],[[4882,2692],[14,-16],[18,-33],[40,18],[23,-37],[-38,-21],[28,-44],[25,-33],[20,-33],[-38,-14],[-18,32],[-38,-20],[-25,40],[-41,-16],[-14,23],[8,13],[-7,16],[-18,10],[-16,36],[26,9],[0,21],[-5,9],[54,42],[2,-2]],[[190,6255],[-7,-33],[-31,-19],[9,-12],[-5,-44],[-4,-13],[-80,0],[-35,27],[8,54],[-45,4],[2,38],[19,0],[-5,9],[6,17],[11,8],[21,37],[35,-1],[20,-17],[20,-5],[47,-7],[29,-11],[-15,-32]],[[2761,7561],[20,-7],[61,3],[1,-21]],[[2843,7536],[7,-91],[23,1],[36,-23],[4,2]],[[2913,7425],[28,-22],[-27,-18],[-12,2],[-19,-7],[-28,0],[-1,-11],[-27,-1],[-30,-8],[-13,-14],[-32,-18],[-21,-22],[-75,39],[7,14],[-10,3],[-7,-12],[-48,25],[13,33],[22,16],[9,19],[49,-17],[26,50],[-86,34],[20,8],[24,19],[10,17]],[[2685,7554],[41,10],[-4,-9],[29,-12],[10,18]],[[3112,8224],[-82,-153],[-78,-152],[-21,-39]],[[2931,7880],[-55,24]],[[2876,7904],[26,41],[7,7],[-32,13],[12,19],[12,-5],[9,21],[-17,9],[12,17],[12,-4],[14,23],[24,-9],[17,36],[67,125],[21,-7],[4,5],[-18,11],[-7,9],[-14,71],[-5,11]],[[3020,8297],[4,4],[29,2],[5,14],[9,0]],[[3067,8317],[14,3],[15,-12],[25,-10],[-33,-63],[24,-11]],[[2874,7772],[-28,-55],[-65,-121],[-11,-18]],[[2770,7578],[-27,9],[-1,16],[8,25],[-10,4],[5,61],[5,17],[40,63],[19,25],[-1,6],[-23,13]],[[2785,7817],[42,67],[29,-14],[20,34]],[[2931,7880],[-57,-108]],[[2974,7635],[4,-34],[17,-1],[3,-29],[-10,-37],[-35,-1],[-5,-28],[1,-16],[-10,-2],[-16,-21],[2,-33],[-12,-8]],[[2843,7536],[44,3],[-2,21],[16,-1],[0,18],[18,1],[-6,53],[7,1]],[[2920,7632],[54,3]],[[3464,7933],[55,37],[-8,15],[19,13],[-11,26],[-19,37],[-13,32]],[[3487,8093],[78,26],[73,34],[29,-56],[27,-45],[-26,-15],[-2,-11],[-30,-13],[-28,58],[-8,0],[-18,-19],[8,-11],[6,-20],[-14,-7],[-21,-29],[-12,6],[-5,-8],[9,-13],[-8,-6],[1,-25],[-19,-33],[-24,-18],[-39,45]],[[2770,7578],[-9,-17]],[[2685,7554],[-1,10],[5,35],[13,56],[4,58],[-13,-4],[-14,4],[-15,27],[8,8],[9,28],[25,44],[-1,15],[29,35],[26,5]],[[2760,7875],[35,-10],[-60,-83],[19,-11],[31,46]],[[3464,7933],[-22,-34],[32,-41],[9,1],[51,-30],[-94,-45],[-42,-19]],[[3398,7765],[-30,29],[17,70],[-76,13],[-29,7]],[[3280,7884],[13,19],[17,9],[-63,12],[-32,8],[67,63]],[[3282,7995],[40,54],[-27,41],[-20,16],[-53,24],[2,8],[45,11],[15,-6],[23,5],[10,13],[18,0],[22,7],[13,-5],[16,7],[20,16],[26,4],[62,-7],[21,1],[-9,-28],[-27,-5],[-5,-35],[13,-23]],[[3398,7765],[35,-45],[33,-31],[19,-11],[75,-33],[-19,-12],[-36,-9],[-20,-10],[-18,12],[-74,-53],[-6,5],[-25,-16],[-14,15],[-5,-4],[-18,24],[11,53],[17,39]],[[3353,7689],[8,27],[11,8],[-7,45],[-30,11],[-57,24],[11,33],[-30,15]],[[3259,7852],[1,10],[20,22]],[[3183,8395],[-28,-72],[3,-7],[-26,-54],[-20,-38]],[[3067,8317],[34,72],[31,-11],[7,5],[14,-5],[13,27],[17,-10]],[[2760,7875],[2,20],[18,0],[2,13],[18,22],[8,15],[-8,13],[29,19],[13,4],[1,15],[11,17],[3,33],[5,4],[-22,8],[-32,48],[-10,22],[-8,6],[-9,24],[-12,49],[4,11],[25,35],[18,19],[63,17],[17,13],[14,-2],[27,12],[5,7],[43,-22],[22,6],[13,-6]],[[2874,7772],[56,-13],[-9,-41],[-3,-41],[2,-45]],[[8749,107],[7,-15],[8,4],[21,-7],[4,-28],[37,-8],[-17,-23],[-23,9],[-2,-34],[-38,-5],[-7,32],[1,24],[6,27],[-25,49],[11,6],[17,-31]],[[1709,9909],[1,-21],[-37,-19],[10,-5],[26,6],[37,4],[3,-12],[-77,-9],[2,-41],[21,-22],[3,-12],[-18,-53],[-33,-11],[5,-19],[-19,2],[-4,25],[-13,1],[10,32],[-5,15],[-49,-16],[4,12],[24,31],[-1,24],[22,7],[27,16],[11,10],[15,32],[25,23],[10,0]],[[3109,8050],[-7,-6],[-13,-25],[-5,-18],[-46,-29],[13,-32],[0,-18],[-6,-11],[-16,-12],[-11,-17]],[[3018,7882],[-17,-26],[-30,-27],[-5,-13],[0,-22],[4,-13],[32,-32]],[[3002,7749],[3,-13],[-9,-16],[-3,-26],[7,-35],[9,-14],[-7,-7],[-29,3],[1,-6]],[[3183,8395],[16,-8],[1,-11],[81,-30],[-15,-32],[-40,15],[-32,-62],[-31,-49],[-27,-53],[76,-31],[-22,-11],[-23,-3],[-9,-7],[-30,-3],[-4,-26],[-12,-10],[-3,-24]],[[3259,7852],[-55,8],[-138,18],[-48,4]],[[3109,8050],[21,-19],[0,-9],[127,-21],[25,-6]],[[3353,7689],[-52,12],[-25,73],[-16,-11],[-12,14],[-14,-3],[-41,10],[-10,-10],[-40,-26],[-35,0],[5,25],[-30,4],[-2,-17],[-24,-2],[-14,-15],[-11,-1],[-9,11],[-21,-4]],[[1384,9989],[-7,-17],[-19,-6],[-14,10],[-59,-24],[-11,-11],[-18,-55],[1,-22],[11,-6],[-46,-42],[-6,5],[14,17],[17,59],[10,25],[21,39],[9,5],[0,21],[37,1],[0,8],[44,3],[16,-10]]]}
