{"type":"Topology","bbox":[-72.16678918585171,5.730943685114149,-72.06956761982042,5.9441491915712845],"transform":{"scale":[0.000009723128916021008,0.00002132268291400492],"translate":[-72.16678918585171,5.730943685114149]},"objects":{"municipios":{"type":"GeometryCollection","geometries":[{"type":"Polygon","arcs":[[0]],"properties":{"codigo":"85400200804002000101","sector":"854002008040020001","pcode":"CO85400","area_m2":200560}},{"type":"Polygon","arcs":[[1]],"properties":{"codigo":"85400200505004000101","sector":"854002005050040001","pcode":"CO85400","area_m2":48509}},{"type":"Polygon","arcs":[[2,3,4,5]],"properties":{"codigo":"85400100000000000101","sector":"854001000000000001","pcode":"CO85400","area_m2":81967}},{"type":"Polygon","arcs":[[6,7,-6,8]],"properties":{"codigo":"85400100000000000102","sector":"854001000000000001","pcode":"CO85400","area_m2":71119}},{"type":"Polygon","arcs":[[-3,-8,9,10]],"properties":{"codigo":"85400100000000000103","sector":"854001000000000001","pcode":"CO85400","area_m2":48946}},{"type":"Polygon","arcs":[[-11,11,12,-4]],"properties":{"codigo":"85400100000000000104","sector":"854001000000000001","pcode":"CO85400","area_m2":76928}},{"type":"Polygon","arcs":[[-12,-10,-7,13]],"properties":{"codigo":"85400100000000000105","sector":"854001000000000001","pcode":"CO85400","area_m2":187476}}]}},"arcs":[[[6538,344],[3,-5],[69,8],[19,-17],[-42,-7],[9,-33],[100,-114],[71,-50],[21,-7],[-45,-21],[-128,-4],[3,-47],[66,0],[2,-37],[-68,-1],[0,-9],[-49,1],[-3,59],[-44,9],[-28,49],[-90,-7],[-14,30],[41,10],[-62,119],[40,17],[0,65],[53,26],[2,14],[69,13],[5,-61]],[[9825,9989],[26,-6],[11,16],[60,-2],[2,-40],[42,-13],[28,-52],[-12,-12],[-46,-6],[49,-88],[14,-37],[-29,-2],[-21,61],[-24,-2],[-29,51],[-15,6],[-19,42],[-46,-2],[-2,12],[42,1],[-22,49],[25,2],[-83,25],[49,-3]],[[368,4648],[22,-46]],[[390,4602],[-163,-15],[-12,21],[-36,-4],[-18,-15]],[[161,4589],[-47,21],[27,19],[70,69],[-23,5],[16,16],[24,-5],[24,25],[-14,16],[35,4],[4,25],[32,-4],[30,22],[-30,16],[35,51],[25,-3],[-17,-61]],[[352,4805],[5,-16],[-28,-21],[8,-52],[31,-68]],[[654,4691],[-21,-7]],[[633,4684],[-133,-21],[-132,-15]],[[352,4805],[68,6],[83,-90],[105,6],[38,10],[-6,-24],[14,-22]],[[633,4684],[15,-21],[-15,-11],[-42,-5],[-3,-24],[-35,-6],[23,-18],[-34,-7],[11,-11],[-55,-9]],[[498,4572],[-20,-10],[-59,-8],[-29,48]],[[498,4572],[26,-24]],[[524,4548],[5,-11],[-49,-9],[-43,7],[-57,-6],[-18,-11],[-58,17],[-77,2],[-39,-15],[-27,-22],[-62,-9],[-54,0],[-45,9],[85,75],[76,14]],[[654,4691],[46,17],[78,4],[68,-13],[99,-49],[-13,-13],[28,-14],[66,-51],[38,-58],[-42,8],[19,-45],[-105,26],[-71,9],[-69,3],[-113,-17],[-13,55],[-23,5],[-123,-10]]]}
