{"type":"Topology","bbox":[-71.88774113026358,4.7810411836669084,-71.3233422777243,5.003227828014362],"transform":{"scale":[0.00005644552980690911,0.000022220886523397678],"translate":[-71.88774113026358,4.7810411836669084]},"objects":{"municipios":{"type":"GeometryCollection","geometries":[{"type":"Polygon","arcs":[[0,1,2,3]],"properties":{"codigo":"85230100000000000101","sector":"852301000000000001","pcode":"CO85230","area_m2":396611}},{"type":"Polygon","arcs":[[4,5,6,-3,7,8,9,10]],"properties":{"codigo":"85230100000000000102","sector":"852301000000000001","pcode":"CO85230","area_m2":536744}},{"type":"Polygon","arcs":[[11,12,-5]],"properties":{"codigo":"85230100000000000103","sector":"852301000000000001","pcode":"CO85230","area_m2":79646}},{"type":"Polygon","arcs":[[-6,-13,13]],"properties":{"codigo":"85230100000000000104","sector":"852301000000000001","pcode":"CO85230","area_m2":711168}},{"type":"Polygon","arcs":[[14,-9]],"properties":{"codigo":"85230100000000000106","sector":"852301000000000001","pcode":"CO85230","area_m2":74154}},{"type":"Polygon","arcs":[[15]],"properties":{"codigo":"85230202801011000101","sector":"852302028010110001","pcode":"CO85230","area_m2":109454}},{"type":"Polygon","arcs":[[16,17,18,-1]],"properties":{"codigo":"85230100000000000107","sector":"852301000000000001","pcode":"CO85230","area_m2":303410}},{"type":"Polygon","arcs":[[19,-18,20]],"properties":{"codigo":"85230100000000000108","sector":"852301000000000001","pcode":"CO85230","area_m2":169049}},{"type":"Polygon","arcs":[[-10,-15,-8,-2,-19,-20,21]],"properties":{"codigo":"85230100000000000105","sector":"852301000000000001","pcode":"CO85230","area_m2":369181}},{"type":"Polygon","arcs":[[22]],"properties":{"codigo":"85230204603003000101","sector":"852302046030030001","pcode":"CO85230","area_m2":319082}},{"type":"Polygon","arcs":[[23]],"properties":{"codigo":"85230201806012000101","sector":"852302018060120001","pcode":"CO85230","area_m2":1158230}}]}},"arcs":[[[9663,77],[-24,123],[17,16],[-7,51],[13,35],[-15,42]],[[9647,344],[18,20]],[[9665,364],[53,62],[57,-148]],[[9775,278],[-46,-98],[-66,-103]],[[9776,615],[1,-50],[4,-132],[18,2],[10,11]],[[9809,446],[6,-95]],[[9815,351],[-13,-7],[-27,-66]],[[9665,364],[1,22]],[[9666,386],[12,113],[-36,23]],[[9642,522],[-6,4],[14,137],[5,16]],[[9655,679],[11,-44],[41,-3],[2,14],[11,-18],[18,-13],[22,-28],[16,28]],[[9776,615],[48,-81]],[[9824,534],[-11,-29],[-4,-59]],[[9824,534],[20,16],[2,21],[9,-3],[26,33],[8,20],[15,78],[33,10],[6,14],[-2,57],[10,10],[28,-51],[20,10],[-9,-137],[-8,-92],[-16,-50],[-24,-49],[-48,-61],[-58,4],[-21,-13]],[[9666,386],[-46,25],[5,51],[14,-9],[3,69]],[[1293,7089],[63,-80],[8,41],[36,-43],[-12,-64],[-6,8],[-7,-36],[-56,67],[7,36],[-38,47],[5,24]],[[9663,77],[-52,-77],[-18,102],[-7,-8],[-6,76],[-16,81]],[[9564,251],[5,6]],[[9569,257],[78,87]],[[9483,159],[2,8],[96,307],[17,-12],[-12,-120],[1,-22],[-24,-26],[6,-37]],[[9564,251],[-81,-92]],[[9483,159],[-8,-10],[-4,19],[20,66],[93,294],[9,34],[40,123],[19,43],[9,0],[-6,-49]],[[112,9926],[36,-45],[-34,-116],[-21,33],[-12,-25],[-24,-30],[-49,-29],[-8,7],[9,29],[32,120],[-3,26],[-12,17],[22,86],[19,-27],[45,-46]],[[8201,6531],[3,2],[18,-66],[-45,-84],[10,-67],[50,-163],[41,-233],[-27,26],[-58,31],[-17,-89],[-19,37],[-38,57],[-6,21],[-13,143],[-26,10],[-5,23],[0,106],[3,31],[-4,29],[11,9],[11,-16],[22,-12],[1,27],[-9,66],[24,122],[25,7],[33,56],[15,-73]]]}
