{"type":"Topology","bbox":[-71.6733879002436,5.16308783324903,-70.91528984256252,5.4222469039922805],"transform":{"scale":[0.00007581738750685885,0.000025918498924217494],"translate":[-71.6733879002436,5.16308783324903]},"objects":{"municipios":{"type":"GeometryCollection","geometries":[{"type":"Polygon","arcs":[[0,1,2,3,4,5]],"properties":{"codigo":"85430100000000000105","sector":"854301000000000001","pcode":"CO85430","area_m2":183086}},{"type":"Polygon","arcs":[[6]],"properties":{"codigo":"85430201804008000101","sector":"854302018040080001","pcode":"CO85430","area_m2":27903}},{"type":"Polygon","arcs":[[7,8,-4,9,10]],"properties":{"codigo":"85430100000000000103","sector":"854301000000000001","pcode":"CO85430","area_m2":99727}},{"type":"Polygon","arcs":[[-5,-9,11,12]],"properties":{"codigo":"85430100000000000104","sector":"854301000000000001","pcode":"CO85430","area_m2":150372}},{"type":"Polygon","arcs":[[13,-10,-3,14]],"properties":{"codigo":"85430100000000000101","sector":"854301000000000001","pcode":"CO85430","area_m2":279273}},{"type":"Polygon","arcs":[[15,-11,-14]],"properties":{"codigo":"85430100000000000102","sector":"854301000000000001","pcode":"CO85430","area_m2":99318}},{"type":"Polygon","arcs":[[16,-6,-13,17]],"properties":{"codigo":"85430100000000000106","sector":"854301000000000001","pcode":"CO85430","area_m2":838131}},{"type":"Polygon","arcs":[[-1,-17,18]],"properties":{"codigo":"85430100000000000107","sector":"854301000000000001","pcode":"CO85430","area_m2":210307}},{"type":"Polygon","arcs":[[19]],"properties":{"codigo":"85430202108001000101","sector":"854302021080010001","pcode":"CO85430","area_m2":381738}},{"type":"Polygon","arcs":[[20]],"properties":{"codigo":"85430201306007000101","sector":"854302013060070001","pcode":"CO85430","area_m2":63409}}]}},"arcs":[[[168,9606],[22,-114]],[[190,9492],[4,-24]],[[194,9468],[-31,-49]],[[163,9419],[-10,51]],[[153,9470],[-23,115]],[[130,9585],[-4,32],[10,20],[5,-29],[8,11],[11,33],[8,-46]],[[7664,1288],[10,45],[11,-9],[-2,-43],[5,-6],[-4,-23],[-21,28],[1,8]],[[121,9337],[-5,13],[-12,47]],[[104,9397],[12,7],[37,66]],[[163,9419],[4,-24]],[[167,9395],[-29,-49],[-9,19],[-8,-28]],[[104,9397],[-3,73],[4,108]],[[105,9578],[8,-13],[17,20]],[[169,9272],[-11,35],[20,29],[-11,59]],[[194,9468],[21,-115],[-6,-9],[8,-41],[7,12],[10,-54],[-4,-22],[-18,-20],[2,-12],[-22,-44],[-13,78],[-10,31]],[[169,9272],[-10,-46],[-13,-3],[2,39],[-6,46],[-21,29]],[[182,9667],[-14,-61]],[[105,9578],[-2,48],[-13,44],[-25,20],[6,48],[5,83],[-7,26],[-9,9],[-8,-10],[-7,26],[-18,15],[2,13],[-29,32],[10,59],[14,-33],[4,38],[16,-27],[1,6],[15,-34],[9,-4],[-1,60],[27,2],[22,-12],[24,-29],[-23,-82],[14,-20],[-4,-25],[17,-21],[15,-31],[13,-37],[-8,-28],[17,-47]],[[182,9667],[4,-11],[9,22],[12,-22],[9,-1],[13,71],[21,-43],[5,-37],[-11,-6],[-19,-29],[-5,-20],[-10,-62],[-20,-37]],[[9998,208],[-2,-116],[-21,-4],[1,-26],[-21,-4],[0,-30],[-12,0],[-4,-14],[-5,15],[-11,-3],[-3,-17],[-13,-9],[-16,4],[-11,25],[13,38],[8,51],[1,47],[10,0],[13,38],[9,-29],[16,50],[16,-10],[0,-43],[28,22],[-6,48],[11,8],[-1,-41]],[[4877,3878],[-7,-34],[5,-14],[-17,-21],[-5,21],[-18,16],[-14,-3],[0,8],[-15,-5],[-7,18],[12,-4],[22,10],[17,-7],[3,13],[13,1],[6,27],[8,-11],[-3,-15]]]}
