{"type":"Topology","bbox":[-72.75815286791646,4.354554489426347,-72.42699042533434,5.0289149000471545],"transform":{"scale":[0.00003311955621383403,0.00006744278534061483],"translate":[-72.75815286791646,4.354554489426347]},"objects":{"municipios":{"type":"GeometryCollection","geometries":[{"type":"Polygon","arcs":[[0,1,2]],"properties":{"codigo":"85410100000000000201","sector":"854101000000000002","pcode":"CO85410","area_m2":189186}},{"type":"Polygon","arcs":[[3,4,5,6,7,8,9,10,-1,11]],"properties":{"codigo":"85410100000000000104","sector":"854101000000000001","pcode":"CO85410","area_m2":297652}},{"type":"Polygon","arcs":[[12,13,14,15,16,-7]],"properties":{"codigo":"85410100000000000105","sector":"854101000000000001","pcode":"CO85410","area_m2":271498}},{"type":"Polygon","arcs":[[17,18,-16,19]],"properties":{"codigo":"85410100000000000106","sector":"854101000000000001","pcode":"CO85410","area_m2":47822}},{"type":"Polygon","arcs":[[20,21,-13,-6]],"properties":{"codigo":"85410100000000000107","sector":"854101000000000001","pcode":"CO85410","area_m2":161511}},{"type":"Polygon","arcs":[[22,23,24,-4,25]],"properties":{"codigo":"85410100000000000203","sector":"854101000000000002","pcode":"CO85410","area_m2":79400}},{"type":"Polygon","arcs":[[26,27,-24,28]],"properties":{"codigo":"85410100000000000205","sector":"854101000000000002","pcode":"CO85410","area_m2":43558}},{"type":"Polygon","arcs":[[29]],"properties":{"codigo":"85410200606006000101","sector":"854102006060060001","pcode":"CO85410","area_m2":162188}},{"type":"MultiPolygon","arcs":[[[30]],[[31]]],"properties":{"codigo":"85410200401007000101","sector":"854102004010070001","pcode":"CO85410","area_m2":127377}},{"type":"Polygon","arcs":[[-19,32,-8,-17]],"properties":{"codigo":"85410100000000000101","sector":"854101000000000001","pcode":"CO85410","area_m2":92530}},{"type":"Polygon","arcs":[[-18,33,34,-9,-33]],"properties":{"codigo":"85410100000000000102","sector":"854101000000000001","pcode":"CO85410","area_m2":141819}},{"type":"Polygon","arcs":[[-10,-35,35,36]],"properties":{"codigo":"85410100000000000103","sector":"854101000000000001","pcode":"CO85410","area_m2":620291}},{"type":"Polygon","arcs":[[37,-14,-22,38]],"properties":{"codigo":"85410100000000000108","sector":"854101000000000001","pcode":"CO85410","area_m2":416621}},{"type":"Polygon","arcs":[[39,-2,-11,-37,40]],"properties":{"codigo":"85410100000000000109","sector":"854101000000000001","pcode":"CO85410","area_m2":409445}},{"type":"Polygon","arcs":[[41,-39,-21,-5,-25,-28]],"properties":{"codigo":"85410100000000000110","sector":"854101000000000001","pcode":"CO85410","area_m2":384124}},{"type":"Polygon","arcs":[[42,-26,-12,-3,-40,43]],"properties":{"codigo":"85410100000000000202","sector":"854101000000000002","pcode":"CO85410","area_m2":550549}},{"type":"Polygon","arcs":[[-29,-23,-43,44]],"properties":{"codigo":"85410100000000000204","sector":"854101000000000002","pcode":"CO85410","area_m2":197442}},{"type":"Polygon","arcs":[[45]],"properties":{"codigo":"85410201603003000101","sector":"854102016030030001","pcode":"CO85410","area_m2":46285}},{"type":"Polygon","arcs":[[46]],"properties":{"codigo":"85410201407004000101","sector":"854102014070040001","pcode":"CO85410","area_m2":99318}},{"type":"Polygon","arcs":[[47]],"properties":{"codigo":"85410200402005000101","sector":"854102004020050001","pcode":"CO85410","area_m2":211255}}]}},"arcs":[[[403,9885],[-120,0]],[[283,9885],[0,4],[25,0],[-1,41],[28,0],[1,7],[24,0],[0,5],[10,12],[37,-8]],[[407,9946],[-8,-9],[-7,0],[1,-14],[11,0],[23,-7],[30,-1],[-2,-30],[-52,0]],[[457,9861],[9,0],[-28,-19]],[[438,9842],[-37,-27]],[[401,9815],[-66,18]],[[335,9833],[-50,12],[-16,-11]],[[269,9834],[-35,12]],[[234,9846],[-50,15]],[[184,9861],[17,13],[4,11]],[[205,9885],[78,0]],[[403,9885],[-39,-28],[93,4]],[[335,9833],[-52,-38],[-24,-18],[-23,-15],[41,-17]],[[277,9745],[17,-8],[-13,-7],[-22,-9]],[[259,9721],[-12,-6],[-23,-22],[-38,9],[7,8],[-6,2],[5,12],[17,12],[-12,11],[-12,4],[-21,4]],[[164,9755],[-13,6]],[[151,9761],[32,13],[12,6],[74,54]],[[133,9772],[4,-4]],[[137,9768],[14,-7]],[[164,9755],[-13,0],[-12,-8],[33,-15],[-24,-11],[-19,20],[-5,-1],[-11,6],[-21,-9],[-11,6],[25,11],[-7,5],[34,13]],[[401,9815],[-66,-49]],[[335,9766],[-22,7],[-36,-28]],[[556,9878],[1,-7],[14,2],[0,-35]],[[571,9838],[-3,-2]],[[568,9836],[-16,23],[-12,9],[-28,-5],[-17,0],[-15,-11],[11,-5],[-22,-16],[-31,11]],[[457,9861],[0,17],[99,0]],[[632,9838],[-5,-4],[4,-12],[-28,0],[-13,-13]],[[590,9809],[-49,8],[27,19]],[[571,9838],[61,0]],[[1526,7654],[8,-3],[7,-8],[9,-1],[11,6],[17,-1],[15,7],[11,0],[-3,-11],[-12,-10],[-27,-10],[25,-13],[-20,-7],[-15,5],[-13,0],[-8,5],[-7,-3],[5,-3],[-9,-4],[4,-2],[-10,-4],[9,-6],[-14,-5],[-14,14],[-8,-1],[-31,18],[-16,8],[30,17],[-1,2],[30,9],[19,3],[8,-2]],[[858,9695],[-1,-4],[-18,1],[-1,-5],[21,-2],[5,-5],[-42,1],[6,-5],[3,-11],[-17,-1],[1,-5],[-7,-1],[-4,6],[-27,-1],[8,20],[-38,6],[22,19],[15,7],[16,-3],[8,-4],[-3,-6],[53,-7]],[[779,9633],[1,-4],[14,1],[-2,-3],[3,-16],[25,1],[-4,-3],[-1,-16],[-30,5],[-4,24],[-29,-1],[-1,9],[-13,1],[6,14],[32,5],[3,-17]],[[137,9768],[10,5],[37,25],[-13,4],[30,21],[33,23]],[[133,9772],[-7,12],[-21,14],[-18,14]],[[87,9812],[17,4],[25,2],[55,43]],[[87,9812],[-24,11],[17,7],[16,13],[-24,8],[-10,6],[-13,23],[-49,31],[45,16],[39,20],[30,18],[-18,10],[-27,10],[21,7],[19,-15],[86,18],[15,1]],[[210,9996],[0,-31],[5,-39],[-6,-30],[-4,-11]],[[457,9765],[-3,-3],[18,-8],[-9,-9],[16,-3],[9,-4],[8,-9],[-14,0],[-29,9],[-32,-23],[7,-2],[-15,-9],[11,-5],[-23,-14],[27,-9],[-2,-2],[29,-9],[24,-10],[-21,-14],[-5,3],[-7,-3],[-18,12],[-20,-4],[-39,26],[-21,-9],[-3,14],[-34,-9],[-2,15],[-5,6],[-21,11],[-2,11],[-6,4],[-16,3]],[[335,9766],[38,-12],[9,6],[23,-7],[16,10],[6,-2],[14,9],[16,-5]],[[461,9965],[-25,-18],[-27,3],[-2,-4]],[[210,9996],[0,3],[107,-15],[41,-7],[68,-4],[35,-8]],[[590,9809],[-17,-25],[-5,2],[-5,-8],[-62,14],[-44,-27]],[[706,9895],[0,-13],[-51,0],[-8,-2],[-32,0],[-17,-2],[-42,0]],[[461,9965],[2,2],[33,-9],[3,0],[58,-7],[63,-12],[34,3],[-7,-9],[60,-22],[-1,-16]],[[706,9895],[12,-1],[-2,-13],[20,-2],[44,-20],[-54,-13],[-80,-2],[-14,0],[0,-6]],[[9943,88],[12,-1],[19,-8],[11,5],[10,-4],[3,-14],[-12,-5],[8,-9],[-15,-3],[-6,-4],[-8,10],[-6,-3],[-13,10],[8,5],[-9,4],[-9,-4],[-16,9],[8,4],[5,-3],[10,5],[-6,3],[6,3]],[[5999,27],[-2,-5],[8,-1],[-1,-7],[-9,1],[-1,-7],[8,0],[-1,-8],[-8,0],[0,4],[-9,3],[-3,-3],[-10,2],[5,5],[-10,1],[-11,4],[5,3],[-38,15],[5,41],[53,-1],[-4,-35],[1,-2],[25,0],[-3,-10]],[[2077,9695],[3,-1],[38,18],[12,-10],[7,-9],[-8,-4],[-16,-1],[-11,-4],[10,-8],[-4,-6],[10,-3],[7,1],[7,-7],[-11,-3],[-16,-10],[17,-5],[-3,-2],[19,-7],[4,-5],[21,-8],[4,0],[14,-7],[8,4],[18,-7],[-16,-9],[6,-3],[-36,6],[-20,5],[-19,-15],[-15,4],[27,-21],[39,-32],[-18,7],[-22,5],[-33,18],[-18,17],[-2,5],[-17,2],[9,7],[-9,2],[15,12],[-3,6],[7,-1],[3,-4],[8,1],[5,17],[1,7],[-5,16],[3,6],[-36,8],[5,7],[-16,1],[-16,4],[3,5],[24,18],[0,-5],[16,-12]]]}
