{"type":"Topology","bbox":[-77.02929185187418,0.34920323574273876,-76.81722312029069,0.4913219868651524],"transform":{"scale":[0.00002120899405775435,0.000014213296441885551],"translate":[-77.02929185187418,0.34920323574273876]},"objects":{"municipios":{"type":"GeometryCollection","geometries":[{"type":"Polygon","arcs":[[0]],"properties":{"codigo":"86865200804008000101","sector":"868652008040080001","pcode":"CO86865","area_m2":106027}},{"type":"Polygon","arcs":[[1,2,3,4,5,6,7]],"properties":{"codigo":"86865100000000000103","sector":"868651000000000001","pcode":"CO86865","area_m2":371806}},{"type":"Polygon","arcs":[[8,9,10,-4]],"properties":{"codigo":"86865100000000000104","sector":"868651000000000001","pcode":"CO86865","area_m2":314127}},{"type":"Polygon","arcs":[[11,-7,12,13]],"properties":{"codigo":"86865100000000000201","sector":"868651000000000002","pcode":"CO86865","area_m2":226423}},{"type":"Polygon","arcs":[[14]],"properties":{"codigo":"86865200502012000101","sector":"868652005020120001","pcode":"CO86865","area_m2":43208}},{"type":"Polygon","arcs":[[15]],"properties":{"codigo":"86865200101005000101","sector":"868652001010050001","pcode":"CO86865","area_m2":44622}},{"type":"Polygon","arcs":[[16]],"properties":{"codigo":"86865200104010000101","sector":"868652001040100001","pcode":"CO86865","area_m2":121430}},{"type":"MultiPolygon","arcs":[[[17]],[[18]]],"properties":{"codigo":"86865200604011000101","sector":"868652006040110001","pcode":"CO86865","area_m2":60572}},{"type":"Polygon","arcs":[[19]],"properties":{"codigo":"86865200502018000101","sector":"868652005020180001","pcode":"CO86865","area_m2":48440}},{"type":"Polygon","arcs":[[20]],"properties":{"codigo":"86865200201021000101","sector":"868652002010210001","pcode":"CO86865","area_m2":36323}},{"type":"Polygon","arcs":[[21]],"properties":{"codigo":"86865200101022000101","sector":"868652001010220001","pcode":"CO86865","area_m2":44949}},{"type":"Polygon","arcs":[[22]],"properties":{"codigo":"86865200601019000101","sector":"868652006010190001","pcode":"CO86865","area_m2":66874}},{"type":"Polygon","arcs":[[23]],"properties":{"codigo":"86865200603016000101","sector":"868652006030160001","pcode":"CO86865","area_m2":63752}},{"type":"Polygon","arcs":[[24]],"properties":{"codigo":"86865200703015000101","sector":"868652007030150001","pcode":"CO86865","area_m2":65985}},{"type":"Polygon","arcs":[[25,26,27,28]],"properties":{"codigo":"86865100000000000101","sector":"868651000000000001","pcode":"CO86865","area_m2":332713}},{"type":"Polygon","arcs":[[-26,29,-8,-12,30]],"properties":{"codigo":"86865100000000000102","sector":"868651000000000001","pcode":"CO86865","area_m2":242681}},{"type":"Polygon","arcs":[[31,32,33,34,-5,-11]],"properties":{"codigo":"86865100000000000105","sector":"868651000000000001","pcode":"CO86865","area_m2":366646}},{"type":"Polygon","arcs":[[-28,35]],"properties":{"codigo":"86865100000000000106","sector":"868651000000000001","pcode":"CO86865","area_m2":229551}},{"type":"Polygon","arcs":[[-9,-3,36]],"properties":{"codigo":"86865100000000000107","sector":"868651000000000001","pcode":"CO86865","area_m2":99635}},{"type":"Polygon","arcs":[[37,-33]],"properties":{"codigo":"86865100000000000108","sector":"868651000000000001","pcode":"CO86865","area_m2":258736}},{"type":"Polygon","arcs":[[38,-13,-6,-35]],"properties":{"codigo":"86865100000000000202","sector":"868651000000000002","pcode":"CO86865","area_m2":302640}},{"type":"MultiPolygon","arcs":[[[39]],[[40]]],"properties":{"codigo":"86865200203003000101","sector":"868652002030030001","pcode":"CO86865","area_m2":375244}},{"type":"Polygon","arcs":[[41]],"properties":{"codigo":"86865200104004000101","sector":"868652001040040001","pcode":"CO86865","area_m2":362204}},{"type":"Polygon","arcs":[[42]],"properties":{"codigo":"86865200101014000101","sector":"868652001010140001","pcode":"CO86865","area_m2":134177}}]}},"arcs":[[[62,289],[10,-21],[26,28],[34,-82],[28,-45],[6,-44],[-74,-125],[-50,66],[-19,-22],[-23,36],[57,71],[-50,108],[46,49],[9,-19]],[[6106,5167],[-17,-55],[28,-6],[-4,-43]],[[6113,5063],[-24,-26],[-9,-64],[-18,2]],[[6062,4975],[-3,45],[-23,21],[-20,60],[-1,-57],[-35,-3],[-78,92],[21,56],[-71,44],[-43,-178]],[[5809,5055],[-91,97]],[[5718,5152],[28,57],[-99,108]],[[5647,5317],[64,167],[-53,41]],[[5658,5525],[29,25],[100,-78],[-14,-37],[181,-148],[152,-120]],[[6062,4975],[-2,-128],[165,-94]],[[6225,4753],[81,-43],[-23,-22],[-18,27],[-102,6],[-57,25],[-46,-4],[-45,35],[-40,1],[-72,44],[-45,82],[-32,39]],[[5826,4943],[16,42],[-33,70]],[[5582,5611],[17,-69],[29,-48],[30,31]],[[5647,5317],[-77,77],[-163,172]],[[5407,5566],[44,130],[6,-7],[61,114],[1,-20],[67,-60],[-25,-51],[21,-61]],[[9976,2215],[-10,-28],[33,-113],[-58,-29],[-31,117],[-22,-7],[-10,43],[93,38],[5,-21]],[[6311,9574],[17,-71],[-58,-61],[-42,-3],[-39,73],[80,67],[42,-5]],[[1424,9999],[-49,-103],[-7,10],[-53,-115],[50,-140],[-21,-14],[35,-101],[-41,-7],[-38,27],[31,45],[-15,57],[-44,25],[-20,97],[-72,83],[-30,20],[6,27],[52,-7],[45,23],[11,-58],[28,-29],[57,92],[7,-14],[68,82]],[[7022,3284],[54,-20],[-19,-94],[9,-17],[-33,-42],[29,13],[64,-30],[-28,-42],[-120,67],[16,26],[28,139]],[[7051,3391],[-14,-9],[12,157],[11,-65],[-12,-1],[3,-82]],[[8903,1778],[10,-19],[40,32],[9,-28],[-23,-65],[-35,-18],[15,-97],[-46,-12],[3,35],[-20,127],[30,43],[-13,64],[13,14],[17,-76]],[[7009,7206],[4,-15],[-50,-33],[6,-67],[-49,-10],[-3,57],[-59,53],[18,24],[62,-20],[66,33],[5,-22]],[[5638,8362],[-8,-43],[12,-68],[27,-53],[1,-62],[-28,-14],[-11,47],[-26,-1],[-9,104],[-40,53],[82,37]],[[2619,2206],[42,-23],[4,-111],[-25,-29],[21,-48],[-55,-58],[19,-46],[-35,-1],[0,41],[-38,55],[-4,63],[47,-18],[23,32],[0,118],[-13,36],[-42,15],[5,21],[51,-25],[0,-22]],[[6036,2361],[23,-57],[29,-36],[115,8],[0,-20],[-91,-12],[31,-69],[12,-69],[-14,-96],[-12,4],[7,93],[-5,40],[-18,-10],[-21,51],[-60,-16],[-18,39],[34,43],[-18,45],[6,62]],[[1738,6415],[2,-47],[19,-63],[25,27],[3,-30],[-34,-24],[0,-43],[-46,-50],[-9,11],[36,62],[-10,63],[-24,-23],[1,65],[-71,1],[-27,21],[15,52],[28,-32],[27,2],[2,54],[26,8],[2,47],[18,-1],[17,-100]],[[5989,5424],[-11,-29],[-51,37],[-200,161],[-7,31]],[[5720,5624],[39,148],[7,-3]],[[5766,5769],[141,-114],[50,159]],[[5957,5814],[40,-33],[29,85],[15,-13],[-35,84],[-2,102],[32,-51],[68,-44],[-12,-81],[71,-11],[0,-28],[-73,19],[-10,-71],[-27,-41],[-38,-24],[4,-65],[-24,-66],[21,-61],[-27,-91]],[[5989,5424],[11,-25],[107,-77],[-13,-50],[19,-20],[-7,-85]],[[5582,5611],[45,69],[43,-38],[29,31],[21,-49]],[[5826,4943],[-49,-62],[-1,-56],[15,-87],[49,-160],[32,-18],[13,-62],[-8,-32],[-43,-18],[4,-22],[-50,-18],[-8,40],[-42,53],[48,81],[-53,83],[-70,46],[-58,-145],[-76,-75],[-30,78]],[[5499,4569],[116,127],[-26,32],[70,128],[-19,31],[30,50],[-102,14],[-29,19]],[[5539,4970],[16,20],[22,-26],[90,-13],[37,-17],[46,26],[-50,24]],[[5700,4984],[-27,66],[45,102]],[[5766,5769],[20,3],[33,122],[-100,105],[30,86],[-32,54],[43,23],[32,-30],[9,22],[31,-30],[13,16],[42,-34],[-10,-23],[4,-72],[23,-35],[-22,-34],[22,-51],[53,-77]],[[6113,5063],[40,-25],[8,-68],[38,-13],[-19,-45],[-28,-13],[44,-23],[-16,-50],[49,-48],[-4,-25]],[[5499,4569],[-37,-42],[11,-17],[-30,-40],[32,-49],[-36,-51],[-13,22],[-22,-40],[10,-42],[-29,-22],[-27,56],[14,14],[-47,112],[7,51],[-32,-8],[-4,49],[36,6],[29,29],[106,74],[18,-71],[23,2],[43,51],[-32,50],[-8,49],[53,73],[-68,90],[43,55]],[[5700,4984],[-68,7],[-134,250],[-58,70],[-57,203],[24,52]],[[8990,9181],[-5,-18],[45,-55],[-11,-21],[44,-88],[-61,31],[-12,-32],[26,-20],[-40,-72],[5,-82],[22,14],[9,-99],[-29,-11],[-6,-70],[-16,-14],[-9,-77],[-27,18],[41,213],[-20,49],[-31,-14],[-48,-71],[-22,25],[-38,-35],[1,-49],[-20,16],[-41,-82],[-43,50],[9,20],[-50,54],[49,98],[-3,38],[23,-4],[39,76],[46,51],[23,57],[44,-57],[23,18],[64,134],[21,68],[-2,-59]],[[9065,9381],[-7,-53],[-35,47],[-9,-49],[-19,-1],[2,52],[28,3],[32,98],[15,-8],[-24,-49],[17,-40]],[[2252,8765],[39,-178],[-25,-19],[2,-73],[97,-6],[169,7],[-1,-115],[39,3],[4,-115],[-55,-1],[-2,83],[-26,-1],[-11,61],[-54,-3],[-3,39],[-82,-5],[29,-59],[-2,-42],[-43,-28],[3,-30],[-74,10],[0,37],[-22,0],[1,-37],[-54,12],[0,43],[-58,-4],[-35,-17],[-3,94],[-23,31],[5,34],[106,3],[-88,87],[17,33],[40,-41],[12,20],[31,-38],[6,178],[17,31],[44,6]],[[6276,7672],[33,-12],[2,-32],[68,-19],[79,0],[1,-21],[46,20],[48,-2],[59,16],[40,-47],[-11,-24],[51,-78],[-12,-35],[-79,116],[-46,-13],[-1,24],[-91,-13],[-329,36],[-17,-15],[-31,-75],[-69,-85],[7,42],[48,55],[-20,32],[20,35],[22,-18],[19,42],[90,5],[2,31],[39,-1],[-2,68],[29,7],[5,-39]]]}
