{"type":"Topology","bbox":[-76.6445452308966,0.25187015456309997,-76.18481216062139,0.5996702170398349],"transform":{"scale":[0.00004597790481800241,0.00003478348459613311],"translate":[-76.6445452308966,0.25187015456309997]},"objects":{"municipios":{"type":"GeometryCollection","geometries":[{"type":"Polygon","arcs":[[0,1,2,3,4,5]],"properties":{"codigo":"86568100000000000403","sector":"865681000000000004","pcode":"CO86568","area_m2":79735}},{"type":"Polygon","arcs":[[6,7,8,9,-1,10]],"properties":{"codigo":"86568100000000000404","sector":"865681000000000004","pcode":"CO86568","area_m2":103867}},{"type":"Polygon","arcs":[[11]],"properties":{"codigo":"86568200405020000101","sector":"865682004050200001","pcode":"CO86568","area_m2":119394}},{"type":"Polygon","arcs":[[12]],"properties":{"codigo":"86568200214026000101","sector":"865682002140260001","pcode":"CO86568","area_m2":141763}},{"type":"Polygon","arcs":[[13]],"properties":{"codigo":"86568200214027000101","sector":"865682002140270001","pcode":"CO86568","area_m2":40806}},{"type":"Polygon","arcs":[[14]],"properties":{"codigo":"86568200403031000101","sector":"865682004030310001","pcode":"CO86568","area_m2":40644}},{"type":"Polygon","arcs":[[15]],"properties":{"codigo":"86568200203033000101","sector":"865682002030330001","pcode":"CO86568","area_m2":36105}},{"type":"Polygon","arcs":[[16]],"properties":{"codigo":"86568200102034000101","sector":"865682001020340001","pcode":"CO86568","area_m2":62610}},{"type":"Polygon","arcs":[[17]],"properties":{"codigo":"86568200503006000101","sector":"865682005030060001","pcode":"CO86568","area_m2":22617}},{"type":"Polygon","arcs":[[18]],"properties":{"codigo":"86568200202021000101","sector":"865682002020210001","pcode":"CO86568","area_m2":76369}},{"type":"Polygon","arcs":[[19]],"properties":{"codigo":"86568200103035000101","sector":"865682001030350001","pcode":"CO86568","area_m2":156154}},{"type":"Polygon","arcs":[[20,21,22]],"properties":{"codigo":"86568100000000000103","sector":"865681000000000001","pcode":"CO86568","area_m2":71095}},{"type":"Polygon","arcs":[[23]],"properties":{"codigo":"86568200101023000101","sector":"865682001010230001","pcode":"CO86568","area_m2":57048}},{"type":"Polygon","arcs":[[24,25,26,27,28,29]],"properties":{"codigo":"86568100000000000101","sector":"865681000000000001","pcode":"CO86568","area_m2":354903}},{"type":"Polygon","arcs":[[30,-22,31,-25,32]],"properties":{"codigo":"86568100000000000102","sector":"865681000000000001","pcode":"CO86568","area_m2":337919}},{"type":"Polygon","arcs":[[-27,33]],"properties":{"codigo":"86568100000000000104","sector":"865681000000000001","pcode":"CO86568","area_m2":74015}},{"type":"Polygon","arcs":[[-29,34,35,36]],"properties":{"codigo":"86568100000000000105","sector":"865681000000000001","pcode":"CO86568","area_m2":167502}},{"type":"Polygon","arcs":[[37,38,39,-36,40,41,42]],"properties":{"codigo":"86568100000000000201","sector":"865681000000000002","pcode":"CO86568","area_m2":359611}},{"type":"Polygon","arcs":[[43,44,45,46,47,-3,48,49]],"properties":{"codigo":"86568100000000000202","sector":"865681000000000002","pcode":"CO86568","area_m2":224875}},{"type":"Polygon","arcs":[[50,51,-45,52]],"properties":{"codigo":"86568100000000000203","sector":"865681000000000002","pcode":"CO86568","area_m2":140831}},{"type":"Polygon","arcs":[[53,54,55,56,57,58,59,-53,-44,60]],"properties":{"codigo":"86568100000000000204","sector":"865681000000000002","pcode":"CO86568","area_m2":213437}},{"type":"Polygon","arcs":[[-60,61,62,63,-51]],"properties":{"codigo":"86568100000000000205","sector":"865681000000000002","pcode":"CO86568","area_m2":112434}},{"type":"Polygon","arcs":[[64,65,66,67,68]],"properties":{"codigo":"86568100000000000305","sector":"865681000000000003","pcode":"CO86568","area_m2":107458}},{"type":"Polygon","arcs":[[69,-33,-30,-37,-40,70,-46,-52,-64]],"properties":{"codigo":"86568100000000000206","sector":"865681000000000002","pcode":"CO86568","area_m2":340312}},{"type":"Polygon","arcs":[[-61,-50,71]],"properties":{"codigo":"86568100000000000207","sector":"865681000000000002","pcode":"CO86568","area_m2":205513}},{"type":"Polygon","arcs":[[72,-54,-72,-49,-2,-10,73]],"properties":{"codigo":"86568100000000000208","sector":"865681000000000002","pcode":"CO86568","area_m2":98270}},{"type":"Polygon","arcs":[[74,-67,75,-23,-31,-70,-63]],"properties":{"codigo":"86568100000000000301","sector":"865681000000000003","pcode":"CO86568","area_m2":153716}},{"type":"Polygon","arcs":[[76,-68,-75,-62,-59]],"properties":{"codigo":"86568100000000000302","sector":"865681000000000003","pcode":"CO86568","area_m2":152008}},{"type":"Polygon","arcs":[[77,-69,-77,-58,78]],"properties":{"codigo":"86568100000000000303","sector":"865681000000000003","pcode":"CO86568","area_m2":154691}},{"type":"Polygon","arcs":[[-65,-78,79,80]],"properties":{"codigo":"86568100000000000304","sector":"865681000000000003","pcode":"CO86568","area_m2":163252}},{"type":"Polygon","arcs":[[-80,-79,-57,81,82]],"properties":{"codigo":"86568100000000000306","sector":"865681000000000003","pcode":"CO86568","area_m2":120998}},{"type":"Polygon","arcs":[[-82,-56,83]],"properties":{"codigo":"86568100000000000307","sector":"865681000000000003","pcode":"CO86568","area_m2":53712}},{"type":"Polygon","arcs":[[-4,-48,84,-38,85]],"properties":{"codigo":"86568100000000000401","sector":"865681000000000004","pcode":"CO86568","area_m2":176377}},{"type":"Polygon","arcs":[[-47,-71,-39,-85]],"properties":{"codigo":"86568100000000000402","sector":"865681000000000004","pcode":"CO86568","area_m2":126193}},{"type":"Polygon","arcs":[[86,87,-7,88,89]],"properties":{"codigo":"86568100000000000405","sector":"865681000000000004","pcode":"CO86568","area_m2":112080}},{"type":"Polygon","arcs":[[90,91,-8,-88]],"properties":{"codigo":"86568100000000000406","sector":"865681000000000004","pcode":"CO86568","area_m2":137647}},{"type":"Polygon","arcs":[[92,-74,-9,-92,93,94]],"properties":{"codigo":"86568100000000000407","sector":"865681000000000004","pcode":"CO86568","area_m2":138799}},{"type":"Polygon","arcs":[[95,96,-95,97]],"properties":{"codigo":"86568100000000000408","sector":"865681000000000004","pcode":"CO86568","area_m2":252128}},{"type":"Polygon","arcs":[[-96,98]],"properties":{"codigo":"86568100000000000409","sector":"865681000000000004","pcode":"CO86568","area_m2":95843}},{"type":"Polygon","arcs":[[99,-89,-11,-6,100]],"properties":{"codigo":"86568100000000000410","sector":"865681000000000004","pcode":"CO86568","area_m2":366962}},{"type":"Polygon","arcs":[[-90,-100,101]],"properties":{"codigo":"86568100000000000411","sector":"865681000000000004","pcode":"CO86568","area_m2":348879}},{"type":"Polygon","arcs":[[-42,102]],"properties":{"codigo":"86568100000000000501","sector":"865681000000000005","pcode":"CO86568","area_m2":93831}},{"type":"Polygon","arcs":[[103]],"properties":{"codigo":"86568200102019000101","sector":"865682001020190001","pcode":"CO86568","area_m2":385882}},{"type":"Polygon","arcs":[[104]],"properties":{"codigo":"86568200106029000101","sector":"865682001060290001","pcode":"CO86568","area_m2":41494}},{"type":"Polygon","arcs":[[105]],"properties":{"codigo":"86568200102032000101","sector":"865682001020320001","pcode":"CO86568","area_m2":207523}}]}},"arcs":[[[3290,7466],[-15,-131]],[[3275,7335],[-17,4],[1,13],[-50,11]],[[3209,7363],[2,26]],[[3211,7389],[20,-4],[0,-5],[13,-2],[3,29],[18,-4],[5,45]],[[3270,7448],[4,19],[5,1]],[[3279,7468],[11,-2]],[[3326,7462],[-3,-28]],[[3323,7434],[-8,-65]],[[3315,7369],[-7,-66]],[[3308,7303],[-17,3],[2,26],[-18,3]],[[3290,7466],[20,0],[16,-4]],[[2602,6729],[13,-20],[-18,-19],[-5,-25],[-7,4],[-8,-19],[8,-11],[-2,-11],[-20,-10],[-2,-23],[-4,-11],[-7,2],[-2,-8],[-13,6],[2,10],[-9,4],[10,35],[9,23],[-4,1],[2,20],[6,-2],[7,42],[5,7],[19,7],[10,12],[10,-14]],[[2173,4335],[8,-11],[-17,-23],[10,-12],[0,-7],[9,-3],[29,-19],[1,-24],[17,12],[2,-4],[-19,-13],[1,-13],[22,-37],[3,4],[31,-47],[10,16],[9,-9],[-6,-12],[18,-17],[-7,-16],[28,-42],[-9,-8],[-7,13],[-6,-5],[-20,32],[-18,36],[4,4],[-8,14],[-5,-5],[-33,55],[5,5],[-12,20],[-14,-19],[-4,4],[-7,-8],[9,-16],[-3,-8],[-22,-19],[-8,14],[-8,27],[21,14],[22,19],[4,16],[-13,18],[-12,7],[3,7],[-8,7],[-13,-12],[-16,26],[-8,5],[10,10],[-7,12],[7,7],[5,-9],[18,19],[4,-5]],[[1233,3416],[-14,8],[-8,-30],[-8,-7],[-4,12],[3,40],[-7,4],[1,7],[18,-8],[3,-10],[4,9],[15,4],[16,-5],[10,-7],[-1,-11],[-9,-23],[-19,17]],[[6017,6752],[-24,-41],[-10,-6],[-22,-5],[-11,-15],[-8,2],[-2,23],[4,9],[32,15],[27,16],[2,-4],[12,6]],[[2641,3550],[3,-1],[16,-27],[-5,-11],[9,-13],[13,4],[5,-25],[-13,-5],[1,-10],[-22,28],[-19,42],[5,5],[-5,12],[8,8],[4,-7]],[[1083,9363],[10,-2],[22,8],[21,13],[1,-12],[8,4],[2,-9],[-7,-3],[-12,-17],[-16,-14],[1,-5],[-25,-6],[-12,9],[-23,-2],[0,8],[18,2],[4,20],[-10,5],[1,31],[17,0],[0,-30]],[[9980,5620],[12,-26],[5,-1],[0,-15],[-22,-1],[-3,9],[-8,-5],[-4,14],[-7,0],[1,15],[13,-2],[13,12]],[[2022,106],[7,-2],[7,-19],[8,15],[3,-10],[6,4],[5,-8],[-10,-8],[4,-8],[-23,-20],[-5,-8],[5,-30],[-10,-7],[-18,-5],[-7,11],[3,11],[-6,1],[1,14],[-28,3],[20,30],[-6,8],[8,13],[31,-33],[16,21],[-14,24],[3,3]],[[3606,6346],[7,2],[15,29],[-7,2],[8,11],[-2,9],[9,-8],[13,27],[7,-4],[-8,-15],[8,-5],[-5,-15],[6,-7],[10,0],[1,-13],[-8,1],[0,-15],[7,-5],[-2,-13],[10,-13],[6,4],[-11,-33],[-37,19],[-59,16],[-21,52],[-6,6],[-8,18],[15,29],[8,-7],[-5,-10],[8,-3],[13,-15],[-15,-11],[43,-33]],[[3077,6951],[-14,-9],[-12,-2],[3,-23],[-6,0],[0,21],[-9,-14],[-9,11],[8,15],[1,15],[-14,5],[-16,11]],[[3009,6981],[4,8],[1,23],[31,-7],[32,-2]],[[3077,7003],[-4,-45],[4,-7]],[[39,8782],[5,-10],[5,3],[4,-28],[10,-3],[-9,-23],[5,-2],[-5,-21],[-23,6],[-4,-25],[-8,1],[4,19],[0,17],[15,12],[1,13],[-7,5],[3,13],[-15,-8],[-5,5],[3,10],[-6,16],[-12,9],[14,13],[20,-14],[5,-8]],[[3081,7066],[-61,9],[-79,9],[-9,2]],[[2932,7086],[0,6],[20,-1],[-2,32],[-34,2],[-12,28],[29,28],[13,3],[14,-1],[0,8],[14,8],[3,-4],[47,-24]],[[3024,7171],[14,-9],[4,13],[13,-8],[12,31],[16,-5],[10,34]],[[3093,7227],[2,-1],[4,32],[12,43],[6,42],[3,39],[-2,0]],[[3118,7382],[2,31],[6,1]],[[3126,7414],[-1,-43],[-5,-42],[-5,-25],[-17,-75],[-5,-30],[-5,-49],[-5,-59],[-2,-25]],[[3080,7036],[-3,-33]],[[3009,6981],[-21,4],[-6,-16],[-8,6],[1,11],[-9,-1],[-41,5],[0,-60],[-10,-2],[-6,15],[-32,5],[-8,-23],[-7,4],[10,32],[1,37],[42,-5],[1,10],[14,-1],[2,27],[-11,3],[-13,-3],[2,24],[31,-2],[0,6],[-58,6],[3,27],[46,-4]],[[3081,7066],[-1,-30]],[[3024,7171],[8,23],[-19,9],[-7,-4],[4,13],[6,-2],[8,18],[18,-10],[9,26],[7,6],[13,-8],[4,7],[8,-5],[-3,-7],[13,-10]],[[3118,7382],[-14,0],[-15,-6],[-38,-8],[-9,15],[-8,-4],[-6,5],[-8,18],[3,8],[12,9],[-6,20],[18,15],[10,12],[17,12]],[[3074,7478],[1,-3],[27,16]],[[3102,7491],[19,-46],[5,-31]],[[3181,7632],[-4,-11],[12,-9],[15,-19],[-6,-54]],[[3198,7539],[-29,7],[-5,-30]],[[3164,7516],[-21,43],[-9,15],[-46,-53],[14,-30]],[[3074,7478],[-5,21],[-16,37],[-5,15],[-17,29],[7,20],[11,12],[-11,20],[-11,6],[5,10],[8,5],[26,-2],[10,-4],[4,5],[4,23]],[[3084,7675],[4,-1]],[[3088,7674],[-2,-15],[10,-3],[4,8],[8,-8],[6,10],[5,-6],[4,7],[13,-17],[17,-17],[9,-3],[19,2]],[[3200,7191],[-9,1]],[[3191,7192],[-50,9],[9,74],[-16,1]],[[3134,7276],[17,138]],[[3151,7414],[45,-8],[0,-6],[12,-8]],[[3208,7392],[3,-3]],[[3209,7363],[-1,-11],[-15,-8]],[[3193,7344],[-12,-7],[10,-52],[9,-15],[-7,-65],[9,-2],[-2,-12]],[[3181,7100],[-14,5],[-50,9]],[[3117,7114],[17,162]],[[3191,7192],[-5,-57],[-5,-35]],[[3264,7207],[14,-2]],[[3278,7205],[16,3],[0,-9],[17,-13],[18,-2],[-7,-14]],[[3322,7170],[-8,-23],[-4,-25]],[[3310,7122],[-3,-11]],[[3307,7111],[-19,6]],[[3288,7117],[-33,3],[-31,-3],[-25,-19],[-5,-9]],[[3194,7089],[-13,11]],[[3200,7191],[42,-6],[2,25],[20,-3]],[[3194,7089],[-23,-53]],[[3171,7036],[-3,-8],[-72,6]],[[3096,7034],[9,24],[9,32],[3,24]],[[3283,6975],[17,-3],[-10,-49]],[[3290,6923],[-13,5],[-11,-23],[-17,11],[2,8],[-39,19],[-10,3],[-20,18]],[[3182,6964],[2,23]],[[3184,6987],[40,-4]],[[3224,6983],[59,-8]],[[3096,7034],[-16,2]],[[3164,7516],[-13,-102]],[[3193,7344],[4,-5],[28,-5],[50,-12],[-9,-75],[-2,-40]],[[3281,7216],[-3,-11]],[[3308,7303],[-3,-27],[18,-3],[-2,-12],[-18,3],[-1,-13],[-17,3],[-4,-38]],[[3171,7036],[12,-8],[2,-21],[-1,-20]],[[3182,6964],[-3,-7],[-14,6],[-3,-5],[-22,0],[-11,6],[-12,-6],[-11,3],[-21,-3],[-8,-7]],[[3288,7117],[-19,-39],[-11,-3],[-20,3],[-10,-53],[-4,-42]],[[3306,7063],[-23,-88]],[[3307,7111],[11,-6],[-12,-42]],[[3306,7063],[23,-12],[19,-7],[-5,-31],[17,-3],[-9,-47],[13,-3]],[[3364,6960],[-4,-21],[-5,-3],[-6,-23],[-8,-5],[-5,23],[-16,2],[1,-25],[-20,2],[-5,-10],[-8,9],[2,14]],[[3310,7122],[11,-7],[-3,-10],[15,-13],[3,6],[29,29]],[[3365,7127],[7,5],[29,2],[11,-17],[-46,-16],[-9,-12],[12,-22],[-8,-6],[20,-34],[-14,-67],[-3,0]],[[3322,7170],[5,-4],[7,7],[11,-7],[20,-20],[-5,-14],[5,-5]],[[3208,7392],[7,14],[6,44],[-28,4],[5,40],[8,5],[0,24],[-8,16]],[[3181,7632],[8,6],[-6,-15],[14,-11],[10,-14],[6,-21],[21,-16],[15,-32],[-1,-11],[5,-1],[0,-21],[-3,-14],[-1,-20],[-7,-10],[28,-4]],[[3381,7493],[-1,-20],[-6,-3],[0,-26],[3,-17]],[[3377,7427],[-54,7]],[[3326,7462],[5,63]],[[3331,7525],[21,-2],[3,29],[33,-5],[-7,-54]],[[3377,7427],[53,-11],[-4,-23],[-30,7],[10,-22],[-8,-10],[6,-1],[-3,-19],[-13,0],[-19,4],[0,-8]],[[3369,7344],[-37,8],[2,15],[-19,2]],[[3358,7233],[-1,-4],[-31,4],[-24,7],[-15,2],[3,-21],[-9,-5]],[[3369,7344],[1,0]],[[3370,7344],[-4,-30],[-8,-81]],[[3478,7309],[-1,1],[-21,-47],[-24,-45],[-16,-48],[-2,-14]],[[3414,7156],[-8,6],[1,14],[-17,18],[1,12],[-14,6],[-1,14],[-18,7]],[[3370,7344],[8,-1],[-3,-26],[4,-2],[2,14],[18,-7],[4,5],[2,16],[5,2],[2,-11],[9,-2],[1,9],[9,-10],[10,-1],[1,14],[8,-5],[36,-5],[-8,-25]],[[3478,7309],[0,-2],[31,-21],[-23,-47],[-24,21],[-11,-28],[-10,-1],[-13,-31],[29,-21],[-12,-65],[-26,16],[-10,17],[5,9]],[[3344,7667],[-13,-142]],[[3279,7468],[7,20],[-2,22],[2,25],[-3,0],[-3,25],[-5,0],[1,18],[-9,1],[-2,14],[-8,17],[-5,3],[7,77],[-3,25],[-27,2],[8,59],[18,-1],[8,5],[10,-8],[2,-13],[19,-2],[-9,-19],[24,6],[3,-23],[-26,-8],[-7,1],[4,-28],[62,-11],[-1,-8]],[[3344,7667],[17,-2],[0,-6],[33,-7],[-1,-12],[36,-5],[36,-3],[-1,-14],[32,-4],[-1,-18],[-14,5],[-1,-11],[-18,3],[-10,-121],[-17,3],[3,26],[-18,3],[-3,-35],[-19,16],[-4,7],[-13,1]],[[3084,7675],[5,31],[-4,2],[4,27],[-1,22],[6,-1],[1,20],[0,26],[9,30],[4,31],[0,20],[-5,22],[5,25],[12,7],[5,-46],[18,-4],[-1,-31],[-18,2],[-1,-23],[-7,-53],[-6,2],[-8,-25],[-2,-29],[5,-6],[-4,-24],[-4,1],[-6,-27],[-3,0]],[[1616,9999],[3,-8],[8,6],[7,-7],[4,4],[15,-32],[6,7],[10,-21],[23,-17],[7,-14],[0,-10],[-10,-13],[7,-8],[31,38],[27,-32],[-16,-23],[23,-37],[3,-19],[5,9],[8,-27],[-9,-21],[1,-11],[-16,21],[-16,-29],[-18,25],[-19,-25],[-13,22],[-9,20],[-5,-9],[-4,13],[-9,7],[5,6],[-18,26],[-2,8],[5,8],[-22,38],[-15,4],[0,11],[-9,10],[2,10],[8,6],[-5,19],[21,13],[-9,19],[-13,-6],[-9,3],[17,16]],[[1391,4702],[5,-18],[4,1],[5,-14],[7,7],[6,-10],[6,-32],[6,-13],[7,-6],[-15,-9],[-7,-8],[-18,57],[-6,-9],[6,-3],[-3,-9],[-12,13],[9,0],[7,9],[-4,14],[-8,8],[-3,32],[10,4],[4,-11],[-6,-3]],[[2949,6692],[-8,-11],[5,-9],[-9,-7],[6,-15],[44,-15],[-4,-17],[-33,-48],[-14,-3],[-8,-6],[-28,16],[-2,7],[-19,5],[-18,38],[-3,13],[-8,14],[53,-1],[18,42],[7,-6],[5,21],[21,17],[14,20],[11,-20],[-30,-35]]]}
