{"type":"Topology","bbox":[-77.01016356911134,0.25182071484368007,-76.86254684917958,0.37700571708952146],"transform":{"scale":[0.000014763148308006952,0.00001251975219980412],"translate":[-77.01016356911134,0.25182071484368007]},"objects":{"municipios":{"type":"GeometryCollection","geometries":[{"type":"Polygon","arcs":[[0]],"properties":{"codigo":"86757200101028000101","sector":"867572001010280001","pcode":"CO86757","area_m2":52032}},{"type":"Polygon","arcs":[[1]],"properties":{"codigo":"86757200203032000101","sector":"867572002030320001","pcode":"CO86757","area_m2":40670}},{"type":"Polygon","arcs":[[2]],"properties":{"codigo":"86757200201004000101","sector":"867572002010040001","pcode":"CO86757","area_m2":78158}},{"type":"Polygon","arcs":[[3]],"properties":{"codigo":"86757200301013000101","sector":"867572003010130001","pcode":"CO86757","area_m2":17717}},{"type":"Polygon","arcs":[[4]],"properties":{"codigo":"86757200105025000101","sector":"867572001050250001","pcode":"CO86757","area_m2":29867}},{"type":"MultiPolygon","arcs":[[[5]],[[6]]],"properties":{"codigo":"86757200301043000101","sector":"867572003010430001","pcode":"CO86757","area_m2":24994}},{"type":"Polygon","arcs":[[7]],"properties":{"codigo":"86757200201051000101","sector":"867572002010510001","pcode":"CO86757","area_m2":38826}},{"type":"Polygon","arcs":[[8]],"properties":{"codigo":"86757200105019000101","sector":"867572001050190001","pcode":"CO86757","area_m2":46257}},{"type":"Polygon","arcs":[[9]],"properties":{"codigo":"86757200101015000101","sector":"867572001010150001","pcode":"CO86757","area_m2":40407}},{"type":"Polygon","arcs":[[10]],"properties":{"codigo":"86757200101001000101","sector":"867572001010010001","pcode":"CO86757","area_m2":383792}},{"type":"Polygon","arcs":[[11]],"properties":{"codigo":"86757200105018000101","sector":"867572001050180001","pcode":"CO86757","area_m2":76261}},{"type":"Polygon","arcs":[[12]],"properties":{"codigo":"86757200101049000101","sector":"867572001010490001","pcode":"CO86757","area_m2":39422}},{"type":"Polygon","arcs":[[13]],"properties":{"codigo":"86757200205050000101","sector":"867572002050500001","pcode":"CO86757","area_m2":23587}},{"type":"Polygon","arcs":[[14,15,16,17,18]],"properties":{"codigo":"86757100000000000103","sector":"867571000000000001","pcode":"CO86757","area_m2":300326}},{"type":"Polygon","arcs":[[19,20,-16]],"properties":{"codigo":"86757100000000000104","sector":"867571000000000001","pcode":"CO86757","area_m2":121458}},{"type":"Polygon","arcs":[[21,-18,22,23]],"properties":{"codigo":"86757100000000000101","sector":"867571000000000001","pcode":"CO86757","area_m2":219948}},{"type":"Polygon","arcs":[[-23,-17,-21,24]],"properties":{"codigo":"86757100000000000105","sector":"867571000000000001","pcode":"CO86757","area_m2":133175}},{"type":"Polygon","arcs":[[-19,-22,25]],"properties":{"codigo":"86757100000000000102","sector":"867571000000000001","pcode":"CO86757","area_m2":299627}}]}},"arcs":[[[4300,3904],[14,7],[64,-41],[130,-114],[-40,-46],[-41,-12],[-46,47],[-91,68],[12,20],[-40,54],[38,17]],[[7089,6024],[95,-14],[41,7],[48,-43],[-46,-21],[-6,-64],[12,-56],[-21,-3],[-17,124],[-60,-4],[-40,32],[-59,-2],[-139,21],[2,23],[146,-19],[44,19]],[[4871,9870],[14,-31],[88,-8],[55,-43],[59,-89],[-13,-14],[-94,118],[-32,14],[-65,-11],[-21,-26],[4,-42],[-36,-7],[-55,53],[-106,-92],[-14,22],[122,97],[-40,90],[-38,47],[19,51],[64,-38],[89,-91]],[[9984,5364],[15,-19],[-15,-49],[-115,30],[8,38],[48,28],[59,-28]],[[92,8032],[20,-44],[-33,-101],[-24,9],[-16,-46],[-30,11],[-9,41],[41,137],[51,-7]],[[8946,117],[25,2],[-27,-50],[-54,14],[-11,-46],[-20,8],[22,159],[26,-18],[-4,-56],[43,-13]],[[9053,87],[34,-46],[4,-41],[-27,3],[-42,52],[-32,1],[12,34],[51,-3]],[[5602,9626],[16,-21],[22,-103],[17,-23],[55,-9],[15,-47],[-40,8],[-95,59],[8,-88],[-30,-7],[-10,92],[9,48],[-28,116],[29,19],[32,-44]],[[655,5495],[25,-5],[-6,-46],[38,-9],[10,-47],[70,104],[12,-18],[58,19],[3,-19],[-57,-15],[11,-85],[-37,-9],[-3,42],[-35,-62],[-6,-58],[-86,5],[22,85],[-11,59],[-25,22],[17,37]],[[4258,7421],[34,20],[93,0],[3,-83],[47,-4],[-14,-61],[-33,-1],[-73,80],[-107,23],[-3,71],[53,-45]],[[5787,2356],[33,28],[37,-43],[11,-50],[-3,-86],[-93,-45],[5,-56],[56,-55],[-54,-50],[-87,-17],[-80,-28],[-80,8],[-18,-38],[34,-29],[28,-89],[-92,-93],[-101,127],[-102,85],[82,102],[-10,75],[21,9],[-60,66],[40,-8],[61,22],[45,-30],[5,-63],[69,37],[66,73],[24,3],[81,66],[-24,40],[31,57],[40,40],[35,-58]],[[2054,7637],[26,-59],[-7,-35],[-232,-10],[-41,17],[-11,86],[67,36],[37,2],[2,-55],[23,48],[73,18],[63,-48]],[[5915,2530],[-40,-75],[-48,-60],[-32,35],[-27,95],[-4,63],[38,1],[46,-85],[45,52],[6,48],[-31,39],[83,-53],[-36,-60]],[[5957,2104],[38,-42],[55,-14],[6,-35],[27,56],[53,28],[-36,-46],[-14,-109],[-46,47],[-13,39],[-78,0],[8,76]],[[7134,7116],[-9,-29],[-43,13],[-18,-52],[-45,44],[-55,1],[-47,69],[-17,-37],[-46,32],[-27,-43],[36,-10],[-11,-58],[57,-27],[-33,-71],[-44,3],[1,26],[-40,2],[0,-27],[-93,10],[2,28],[-54,11],[-17,-154],[-22,1],[7,59],[-23,3],[-7,56],[-76,5]],[[6510,6971],[-39,5],[13,170],[-23,4],[14,116]],[[6475,7266],[3,30]],[[6478,7296],[195,-34]],[[6673,7262],[60,-23],[197,-55],[125,-47],[79,-21]],[[6510,6971],[-10,-74],[-51,1],[-23,39],[9,52],[-113,-12],[7,73],[-37,-12],[3,58],[-28,73]],[[6267,7169],[9,61],[121,-22],[8,69],[70,-11]],[[6748,7963],[-19,-190],[-18,-113],[-38,-398]],[[6478,7296],[-53,8],[-2,70],[16,141]],[[6439,7515],[8,42],[34,17],[85,-10],[-3,-21],[79,-14],[14,42],[15,171],[-18,95],[-35,21],[54,45],[20,68],[56,-8]],[[6267,7169],[-56,30],[5,38],[-26,105],[45,-20],[9,60],[-24,128],[-38,-6],[-2,37],[60,-21],[0,-61],[76,-11],[8,65],[90,-12],[25,14]],[[6748,7963],[10,96],[-23,21],[-7,64],[20,34],[79,-42],[-43,-31],[25,-38],[-30,-68],[-9,-128],[35,-5],[-20,-187],[-18,-66],[37,-38],[13,-81],[72,-32],[15,-56],[-10,-31],[40,-13],[-11,-37],[87,-35],[40,-37],[-26,-67],[47,-21],[51,8],[24,-35],[-2,58],[24,11],[72,-14],[6,-81],[-112,4]]]}
