{"type":"Topology","bbox":[-76.4905303280184,0.7325687605364851,-75.42196038085677,1.0387702039650093],"transform":{"scale":[0.00010686768148431046,0.00003062320666351877],"translate":[-76.4905303280184,0.7325687605364851]},"objects":{"municipios":{"type":"GeometryCollection","geometries":[{"type":"Polygon","arcs":[[0]],"properties":{"codigo":"86571200405006000101","sector":"865712004050060001","pcode":"CO86571","area_m2":29996}},{"type":"Polygon","arcs":[[1,2]],"properties":{"codigo":"86571200201002000101","sector":"865712002010020001","pcode":"CO86571","area_m2":99121}},{"type":"Polygon","arcs":[[-2,3]],"properties":{"codigo":"86571200201002000102","sector":"865712002010020001","pcode":"CO86571","area_m2":52987}},{"type":"Polygon","arcs":[[4]],"properties":{"codigo":"86571200801003000101","sector":"865712008010030001","pcode":"CO86571","area_m2":86264}},{"type":"Polygon","arcs":[[5]],"properties":{"codigo":"86571200201012000101","sector":"865712002010120001","pcode":"CO86571","area_m2":42981}},{"type":"Polygon","arcs":[[6]],"properties":{"codigo":"86571200805005000101","sector":"865712008050050001","pcode":"CO86571","area_m2":40919}},{"type":"Polygon","arcs":[[7]],"properties":{"codigo":"86571200401014000101","sector":"865712004010140001","pcode":"CO86571","area_m2":20797}},{"type":"Polygon","arcs":[[8]],"properties":{"codigo":"86571200301001000101","sector":"865712003010010001","pcode":"CO86571","area_m2":95646}},{"type":"Polygon","arcs":[[9]],"properties":{"codigo":"86571200201007000101","sector":"865712002010070001","pcode":"CO86571","area_m2":61744}},{"type":"Polygon","arcs":[[10]],"properties":{"codigo":"86571200302009000101","sector":"865712003020090001","pcode":"CO86571","area_m2":25572}},{"type":"Polygon","arcs":[[11]],"properties":{"codigo":"86571200201011000101","sector":"865712002010110001","pcode":"CO86571","area_m2":58671}},{"type":"Polygon","arcs":[[12,13]],"properties":{"codigo":"86571200201015000102","sector":"865712002010150001","pcode":"CO86571","area_m2":113463}},{"type":"Polygon","arcs":[[-13,14]],"properties":{"codigo":"86571200201015000101","sector":"865712002010150001","pcode":"CO86571","area_m2":165761}},{"type":"Polygon","arcs":[[15,16]],"properties":{"codigo":"86571100000000000103","sector":"865711000000000001","pcode":"CO86571","area_m2":73644}},{"type":"Polygon","arcs":[[17,18,19]],"properties":{"codigo":"86571100000000000104","sector":"865711000000000001","pcode":"CO86571","area_m2":138248}},{"type":"Polygon","arcs":[[20]],"properties":{"codigo":"86571200201013000101","sector":"865712002010130001","pcode":"CO86571","area_m2":26291}},{"type":"Polygon","arcs":[[21]],"properties":{"codigo":"86571200101004000101","sector":"865712001010040001","pcode":"CO86571","area_m2":99880}},{"type":"Polygon","arcs":[[22,-19,23,24,-16]],"properties":{"codigo":"86571100000000000101","sector":"865711000000000001","pcode":"CO86571","area_m2":154876}},{"type":"Polygon","arcs":[[25,26,-24,-18,27]],"properties":{"codigo":"86571100000000000102","sector":"865711000000000001","pcode":"CO86571","area_m2":149728}},{"type":"Polygon","arcs":[[28,-26]],"properties":{"codigo":"86571100000000000105","sector":"865711000000000001","pcode":"CO86571","area_m2":280985}},{"type":"Polygon","arcs":[[29]],"properties":{"codigo":"86571200301008000101","sector":"865712003010080001","pcode":"CO86571","area_m2":88655}},{"type":"Polygon","arcs":[[30]],"properties":{"codigo":"86571200404010000101","sector":"865712004040100001","pcode":"CO86571","area_m2":19405}}]}},"arcs":[[[4712,9999],[18,-28],[-2,-19],[-4,5],[-4,-17],[-12,16],[4,43]],[[470,7533],[11,-67],[4,9],[6,-15]],[[491,7460],[-6,-15],[-1,-37],[-3,-14],[-8,37],[-1,-3],[-9,36],[-1,19],[-3,-3],[-11,76],[3,-3],[7,12],[6,-37],[6,5]],[[470,7533],[4,8],[6,-33],[6,-8],[4,11],[0,35],[-5,11],[10,9],[2,-52],[-3,-44],[-3,-10]],[[5617,6408],[-16,-10],[-10,13],[-1,56],[30,21],[9,4],[0,-16],[-8,-5],[-6,-38],[2,-25]],[[229,8596],[6,-10],[2,10],[6,-17],[-2,-10],[0,-59],[-6,-4],[0,44],[-5,5],[-9,18],[3,7],[-8,16],[6,18],[7,-18]],[[7760,4121],[1,9],[7,-3],[6,-12],[-1,-8],[-6,6],[1,-51],[-6,1],[3,-29],[-6,-10],[5,26],[-4,15],[1,18],[-8,-2],[-4,26],[5,26],[6,-12]],[[4816,7919],[3,-51],[-4,-3],[-11,7],[10,52],[2,-5]],[[2534,8025],[-4,-14],[-4,-1],[-1,-13],[-4,3],[-1,-26],[-4,3],[1,24],[-12,8],[-3,-16],[-4,5],[0,14],[-3,16],[1,46],[39,-19],[-1,-30]],[[219,8407],[8,-2],[5,-41],[8,-17],[-1,-33],[-13,7],[-1,-54],[-5,-23],[-2,14],[1,30],[3,22],[0,21],[-2,17],[2,29],[-4,10],[1,20]],[[3195,6273],[4,-12],[15,3],[0,-27],[-8,6],[-5,-4],[-13,12],[0,15],[3,15],[4,-8]],[[1476,6858],[9,-79],[-7,-6],[-3,23],[-16,-20],[-2,22],[14,13],[-3,46],[-7,-4],[-1,19],[2,8],[10,12],[4,-34]],[[682,7106],[23,-26]],[[705,7080],[-14,-96],[-20,18],[2,20],[0,69],[4,18],[5,-3]],[[682,7106],[1,9],[-4,35],[2,28],[5,-5],[3,40],[-3,2],[4,17],[9,-8],[21,-24],[3,13],[3,-17],[-5,-16],[-10,-59],[-3,5],[-3,-28],[0,-18]],[[796,7634],[-15,-2],[-1,53],[-5,3],[0,31]],[[775,7719],[14,28],[5,-37],[4,1],[0,-49],[-3,-1],[1,-27]],[[792,7526],[-1,54]],[[791,7580],[-1,26],[18,4]],[[808,7610],[5,3],[1,-54],[11,1],[1,-29],[-2,-20],[-4,-1],[0,-17],[-11,-44],[-8,36],[-2,43],[-7,-2]],[[16,8874],[4,6],[1,-18],[-4,-21],[-11,-5],[-4,4],[-2,26],[6,6],[4,-5],[0,20],[6,-13]],[[9975,94],[7,-1],[14,12],[1,-16],[-2,-29],[3,-4],[1,-29],[-14,0],[-1,-19],[-7,-8],[-2,42],[3,10],[-14,-10],[-5,28],[0,37],[16,-13]],[[796,7634],[3,-1],[3,14],[4,-16],[2,-21]],[[791,7580],[-34,-10]],[[757,7570],[0,59],[3,64],[6,2],[9,24]],[[786,7459],[-5,16],[-12,-19],[-3,20],[-21,-34],[-3,24]],[[742,7466],[6,17],[10,18],[2,31],[-3,38]],[[792,7526],[-8,-3],[2,-64]],[[786,7459],[32,-74],[3,13],[2,-11],[3,16],[10,3],[-6,-17],[7,-31],[-1,-17],[-4,-16],[-14,27],[-15,34],[1,7],[-26,62],[-1,-9],[-13,-23],[2,-16],[-5,-9],[-2,17],[-8,-11],[2,-20],[-7,-12],[-2,17],[-14,-18],[3,-19],[3,-7],[-4,-7],[-2,11],[-10,-16],[-3,19],[-3,-6],[-3,29],[4,18],[-6,66],[1,13],[13,-19],[9,-4],[10,17]],[[2111,7657],[-3,-14],[-7,5],[2,-15],[-2,-35],[-6,0],[-5,-20],[0,-18],[-8,-12],[-12,-24],[1,16],[14,27],[-1,9],[9,126],[16,-2],[-1,-18],[3,-5],[0,-20]],[[4637,8033],[-10,5],[4,38],[6,6],[5,-41],[-5,-8]]]}
