{"type":"Topology","bbox":[-76.69689592620261,1.0226410111525188,-76.53474782566906,1.3860196346664162],"transform":{"scale":[0.00001621643169652533,0.00003634149650103984],"translate":[-76.69689592620261,1.0226410111525188]},"objects":{"municipios":{"type":"GeometryCollection","geometries":[{"type":"Polygon","arcs":[[0,1]],"properties":{"codigo":"86001200201004000102","sector":"860012002010040001","pcode":"CO86001","area_m2":168448}},{"type":"Polygon","arcs":[[2]],"properties":{"codigo":"86001200101016000101","sector":"860012001010160001","pcode":"CO86001","area_m2":57331}},{"type":"Polygon","arcs":[[3]],"properties":{"codigo":"86001200101017000101","sector":"860012001010170001","pcode":"CO86001","area_m2":14918}},{"type":"Polygon","arcs":[[-1,4]],"properties":{"codigo":"86001200201004000101","sector":"860012002010040001","pcode":"CO86001","area_m2":164051}},{"type":"Polygon","arcs":[[5]],"properties":{"codigo":"86001200101003000101","sector":"860012001010030001","pcode":"CO86001","area_m2":80091}},{"type":"Polygon","arcs":[[6]],"properties":{"codigo":"86001200101006000101","sector":"860012001010060001","pcode":"CO86001","area_m2":36039}},{"type":"Polygon","arcs":[[7]],"properties":{"codigo":"86001200101014000101","sector":"860012001010140001","pcode":"CO86001","area_m2":21338}},{"type":"Polygon","arcs":[[8]],"properties":{"codigo":"86001200101019000101","sector":"860012001010190001","pcode":"CO86001","area_m2":222780}},{"type":"Polygon","arcs":[[9,10]],"properties":{"codigo":"86001200101022000101","sector":"860012001010220001","pcode":"CO86001","area_m2":188074}},{"type":"Polygon","arcs":[[-10,11]],"properties":{"codigo":"86001200101022000102","sector":"860012001010220001","pcode":"CO86001","area_m2":212725}},{"type":"Polygon","arcs":[[12]],"properties":{"codigo":"86001200101002000101","sector":"860012001010020001","pcode":"CO86001","area_m2":177855}},{"type":"Polygon","arcs":[[13]],"properties":{"codigo":"86001200101018000101","sector":"860012001010180001","pcode":"CO86001","area_m2":266408}},{"type":"MultiPolygon","arcs":[[[14]],[[15]]],"properties":{"codigo":"86001200304009000101","sector":"860012003040090001","pcode":"CO86001","area_m2":81614}},{"type":"Polygon","arcs":[[16]],"properties":{"codigo":"86001200101020000101","sector":"860012001010200001","pcode":"CO86001","area_m2":79914}},{"type":"Polygon","arcs":[[17,18,19,20]],"properties":{"codigo":"86001100000000000202","sector":"860011000000000002","pcode":"CO86001","area_m2":180070}},{"type":"Polygon","arcs":[[21,22,23,24,25,26]],"properties":{"codigo":"86001100000000000206","sector":"860011000000000002","pcode":"CO86001","area_m2":158974}},{"type":"Polygon","arcs":[[-27,27,28]],"properties":{"codigo":"86001100000000000209","sector":"860011000000000002","pcode":"CO86001","area_m2":301062}},{"type":"Polygon","arcs":[[29,30,31,32,33,34,35]],"properties":{"codigo":"86001100000000000301","sector":"860011000000000003","pcode":"CO86001","area_m2":758870}},{"type":"Polygon","arcs":[[36,37,38,39,-21,40,-24]],"properties":{"codigo":"86001100000000000205","sector":"860011000000000002","pcode":"CO86001","area_m2":147463}},{"type":"Polygon","arcs":[[41,-36,42,43]],"properties":{"codigo":"86001100000000000109","sector":"860011000000000001","pcode":"CO86001","area_m2":134730}},{"type":"Polygon","arcs":[[44,45,-30,-42,46]],"properties":{"codigo":"86001100000000000101","sector":"860011000000000001","pcode":"CO86001","area_m2":427575}},{"type":"Polygon","arcs":[[47,48,-37,-23,49]],"properties":{"codigo":"86001100000000000104","sector":"860011000000000001","pcode":"CO86001","area_m2":159678}},{"type":"Polygon","arcs":[[50,51]],"properties":{"codigo":"86001100000000000112","sector":"860011000000000001","pcode":"CO86001","area_m2":434969}},{"type":"Polygon","arcs":[[52,53,54]],"properties":{"codigo":"86001100000000000207","sector":"860011000000000002","pcode":"CO86001","area_m2":205116}},{"type":"Polygon","arcs":[[-39,55,56,57,58,-32,59]],"properties":{"codigo":"86001100000000000106","sector":"860011000000000001","pcode":"CO86001","area_m2":435588}},{"type":"Polygon","arcs":[[-41,-20,60,-25]],"properties":{"codigo":"86001100000000000204","sector":"860011000000000002","pcode":"CO86001","area_m2":77938}},{"type":"Polygon","arcs":[[-55,61,62,63]],"properties":{"codigo":"86001100000000000208","sector":"860011000000000002","pcode":"CO86001","area_m2":314832}},{"type":"Polygon","arcs":[[64,65,66,-52,67,-57,68,69]],"properties":{"codigo":"86001100000000000105","sector":"860011000000000001","pcode":"CO86001","area_m2":522179}},{"type":"Polygon","arcs":[[-33,-59,70]],"properties":{"codigo":"86001100000000000111","sector":"860011000000000001","pcode":"CO86001","area_m2":238051}},{"type":"MultiPolygon","arcs":[[[71,72,73,-70,74,-48]],[[75]]],"properties":{"codigo":"86001100000000000107","sector":"860011000000000001","pcode":"CO86001","area_m2":360909}},{"type":"Polygon","arcs":[[-62,-54,76,-19,77,-45,78]],"properties":{"codigo":"86001100000000000201","sector":"860011000000000002","pcode":"CO86001","area_m2":419268}},{"type":"Polygon","arcs":[[-35,79,-43]],"properties":{"codigo":"86001100000000000110","sector":"860011000000000001","pcode":"CO86001","area_m2":358741}},{"type":"Polygon","arcs":[[80,81]],"properties":{"codigo":"86001200204021000101","sector":"860012002040210001","pcode":"CO86001","area_m2":150467}},{"type":"Polygon","arcs":[[-75,-69,-56,-38,-49]],"properties":{"codigo":"86001100000000000103","sector":"860011000000000001","pcode":"CO86001","area_m2":124147}},{"type":"Polygon","arcs":[[-18,-40,-60,-31,-46,-78]],"properties":{"codigo":"86001100000000000102","sector":"860011000000000001","pcode":"CO86001","area_m2":81150}},{"type":"Polygon","arcs":[[82,-66]],"properties":{"codigo":"86001100000000000401","sector":"860011000000000004","pcode":"CO86001","area_m2":142118}},{"type":"Polygon","arcs":[[-73,83]],"properties":{"codigo":"86001100000000000108","sector":"860011000000000001","pcode":"CO86001","area_m2":167109}},{"type":"Polygon","arcs":[[84]],"properties":{"codigo":"86001100000000000113","sector":"860011000000000001","pcode":"CO86001","area_m2":63548}},{"type":"Polygon","arcs":[[85,-28,-26,-61,-77,-53,-64,86,-81]],"properties":{"codigo":"86001100000000000203","sector":"860011000000000002","pcode":"CO86001","area_m2":680465}}]}},"arcs":[[[9679,38],[16,36],[49,-7],[10,19],[51,-5],[20,30],[21,8],[7,32]],[[9853,151],[29,-13],[38,-46],[79,-68],[-94,-22],[-47,0],[-101,11],[7,11],[-17,5],[5,12],[-23,3],[-8,-17],[-44,4],[2,7]],[[3333,4886],[14,-75],[-22,-26],[-23,9],[-11,13],[-26,-7],[-45,17],[-4,11],[-39,-1],[-1,30],[69,4],[5,-21],[11,5],[24,-14],[29,3],[1,13],[-15,3],[8,34],[25,2]],[[2067,1605],[117,-15],[-10,-14],[-76,9],[3,7],[-103,11],[4,7],[65,-5]],[[9679,38],[-60,2],[16,31],[-5,13],[-40,5],[7,7],[-91,10],[-14,-24],[-32,1],[10,27],[-39,3],[61,12],[43,-3],[3,12],[107,-5],[48,8],[50,23],[61,2],[49,-11]],[[2942,4885],[18,-8],[2,-15],[30,-32],[11,-37],[17,-16],[-36,-15],[-15,45],[12,5],[-48,-7],[-48,24],[-55,31],[-34,8],[22,22],[48,-15],[62,-24],[-7,46],[-22,33],[56,4],[6,-22],[-21,-2],[2,-25]],[[1306,4484],[26,-15],[1,-55],[-22,14],[-62,-14],[-16,20],[12,17],[43,-1],[-18,20],[-25,14],[12,4],[49,-4]],[[71,1736],[10,0],[-2,-15],[20,-18],[-50,-11],[-18,14],[-16,-1],[-15,26],[67,11],[4,-6]],[[2621,2828],[47,-6],[36,-18],[43,-7],[-44,-26],[-27,-3],[35,-12],[13,-23],[-134,-13],[12,-32],[-25,-25],[-17,-9],[-48,4],[-3,-31],[9,-14],[-62,-13],[-9,29],[-12,19],[12,6],[-5,26],[-51,-10],[-13,7],[36,13],[12,13],[45,26],[-2,10],[21,3],[41,-10],[13,5],[-18,19],[38,5],[-18,34],[45,18],[17,17],[13,-2]],[[4066,2260],[14,-22],[-2,-10],[-60,-1],[-272,0]],[[3746,2227],[15,9],[0,13],[-15,0],[-1,21],[24,1],[-3,22],[-32,-1],[-2,7],[41,1],[0,10],[-18,0],[50,14],[119,-13],[41,-3],[41,3],[60,-51]],[[4066,2260],[45,4],[7,-22],[-11,0],[-1,-21],[-14,-22],[-2,-20],[17,-1],[-6,-13],[-27,2],[4,-19],[-9,-9],[40,-1],[-8,-7],[-8,-45],[-14,-1],[-6,-21],[-15,0],[-1,-16],[15,0],[31,-18],[15,-19],[-5,-9],[15,-29],[-23,-2],[-17,30],[-29,-4],[-11,16],[-12,38],[-17,-1],[-2,13],[11,32],[-4,9],[20,8],[-6,22],[16,1],[-10,36],[-24,-1],[-2,8],[-49,-1],[1,-6],[-109,-1],[-10,-12],[-35,0],[-3,32],[-60,13],[-7,24]],[[2586,1834],[16,-1],[-6,-21],[-33,-22],[34,-5],[-4,-21],[-23,4],[-44,-29],[29,-5],[-25,-17],[-33,-9],[42,-11],[15,4],[29,27],[28,-4],[-18,-26],[36,2],[-48,-11],[-16,-21],[-18,-2],[2,-13],[90,-5],[22,1],[-6,9],[23,6],[18,-4],[-24,-14],[94,-8],[0,-6],[36,-2],[1,-5],[-79,6],[-32,6],[-21,-6],[-57,6],[3,6],[-33,1],[-2,-7],[-39,2],[-67,-16],[-8,6],[-58,-12],[-13,-10],[-33,-8],[-7,23],[46,5],[-17,12],[-16,-4],[-29,4],[-73,19],[33,-4],[60,-1],[17,11],[13,-5],[27,11],[19,-6],[29,10],[-3,13],[60,-6],[-6,12],[-31,2],[-47,10],[-1,11],[17,10],[-28,15],[-2,11],[23,-4],[27,5],[17,-4],[20,12],[-11,10],[29,10],[-21,9],[21,10],[23,-3],[1,8],[32,29]],[[2877,2268],[20,-38],[-7,-19],[-57,5],[-9,-21],[17,-7],[44,-8],[-5,-10],[-93,13],[-14,-28],[63,-12],[20,-24],[-33,-8],[7,-24],[-20,-2],[-1,-24],[24,0],[-10,-32],[8,-15],[14,4],[4,-17],[-14,-11],[-38,-6],[-33,8],[-69,7],[-38,15],[-20,27],[22,28],[21,0],[11,36],[29,-7],[60,-7],[-6,45],[-73,4],[6,18],[53,73],[3,13],[-36,-1],[-5,25],[53,6],[-8,8],[49,11],[61,-25]],[[6696,9998],[22,-1],[-4,-15],[24,-14],[52,-13],[-9,-10],[5,-21],[31,-11],[-2,-9],[-48,0],[-19,-9],[-96,10],[4,44],[-8,11],[-38,6],[18,12],[2,-9],[25,2],[26,23],[15,4]],[[6571,9964],[0,0]],[[2121,4219],[-61,-30],[-3,-8],[28,-17],[74,-22],[7,-6],[-37,-7],[-40,-20],[-44,25],[-3,12],[-44,9],[-22,16],[-10,17],[-25,6],[13,25],[17,6],[49,-33],[113,60],[17,-5],[-20,-13],[12,-5],[-21,-10]],[[2996,3483],[-106,31],[-73,15],[-25,13]],[[2792,3542],[52,19],[28,24],[-162,34],[34,33],[95,-18],[159,-3]],[[2998,3631],[-4,-28],[1,-57]],[[2995,3546],[1,-63]],[[3272,3569],[0,-32],[10,0],[5,-23],[28,-34],[1,-20],[36,-34],[15,-38]],[[3367,3388],[-177,37]],[[3190,3425],[43,37],[-41,7],[28,39],[-23,4],[2,12],[-12,11],[-57,3]],[[3130,3538],[-2,55]],[[3128,3593],[5,11],[29,5],[30,-8]],[[3192,3601],[11,-32],[69,0]],[[3192,3601],[3,12],[-21,2],[-6,19],[1,43],[-5,34],[-25,19],[-2,41],[-11,16],[8,15],[-9,4],[-18,25],[0,41],[-20,3],[5,9],[1,45],[-35,42],[-37,-5],[-18,30],[44,-12]],[[3047,3984],[99,-25],[28,-22],[9,-49],[8,-15],[69,-76],[6,-14],[-5,-21],[0,-49],[11,-144]],[[2475,3592],[40,-6],[31,-11],[34,-20]],[[2580,3555],[42,-16],[63,-8],[45,-12],[33,-4],[57,0]],[[2820,3515],[6,-10],[42,-19],[-65,4],[-56,-11],[-26,-13],[-40,1],[-30,-10],[6,-12],[-51,-6],[8,34],[-35,-4],[-46,0],[-3,-14],[-55,-3],[-53,1],[-24,-3],[-18,7],[-78,0],[-46,-7],[-2,-17],[25,0],[3,-10],[37,3],[61,-7],[12,-14]],[[2392,3405],[-33,6],[-6,-5],[-67,3],[-20,-6],[-43,1],[-3,-16],[-51,11],[-54,-5],[-55,9],[-10,7],[-52,-3],[-56,7],[-63,-1],[-5,8]],[[1874,3421],[-25,40],[7,1]],[[1856,3462],[16,-15],[69,3],[10,-2],[112,-9],[-12,12],[5,16],[28,14],[7,16],[27,1],[41,12],[12,20],[-26,8],[-35,-2],[-16,6],[9,8],[45,13],[9,12],[46,24],[8,20],[-27,16]],[[2184,3635],[-1,4],[41,4],[33,-14],[109,8],[29,-5],[8,-33],[19,-12],[53,5]],[[3190,3425],[-36,10]],[[3154,3435],[-156,27]],[[2998,3462],[-2,13]],[[2996,3475],[0,8]],[[2995,3546],[135,-8]],[[2354,3713],[1,-13],[41,-36],[41,-11],[34,-45],[4,-16]],[[2184,3635],[-8,12],[-25,-5],[-12,10],[36,14],[14,-5],[19,7]],[[2208,3668],[10,14],[-10,14],[13,3],[3,27],[39,-1],[4,-22],[71,13],[16,-3]],[[2493,3822],[-5,-21],[-35,-9],[-21,-16],[52,-45],[54,-31],[107,-66],[77,-49]],[[2722,3585],[-64,-21],[-11,6],[-25,-9],[-42,-6]],[[2354,3713],[-23,23],[4,47],[-8,12],[-53,27],[-10,29],[-36,39],[-15,21],[37,5],[3,-5],[95,28],[40,-25],[-41,-14],[44,-31],[-38,-10],[18,-1],[55,-28],[9,11],[37,-8],[21,-11]],[[3362,3329],[-41,-5],[-36,1],[-49,8],[-63,-2],[-49,5],[-57,32]],[[3067,3368],[87,67]],[[3367,3388],[9,-1],[-17,-37],[3,-21]],[[2141,3288],[-73,-2],[-21,-29],[-36,-31],[70,-31],[-59,-23],[-23,16],[14,6],[-44,12],[-91,4],[-31,-1],[7,-17],[-20,-4],[22,-17],[-24,-1],[-19,7],[-23,23],[-3,15],[-23,-33],[-25,-9],[-46,12],[-13,-4],[-50,14],[0,16],[-89,19],[-59,25],[4,5],[-52,9],[5,3],[84,2],[47,6],[113,-8],[7,14],[-37,2],[37,5],[54,-1],[96,8],[47,25],[16,-3],[44,6],[61,6]],[[2008,3334],[51,1],[33,-3],[37,-8],[11,-8],[1,-28]],[[2906,3795],[2,-11],[31,1],[-7,-6],[-8,-47],[18,-5],[-3,-10],[24,-1]],[[2963,3716],[-13,-10],[-58,2],[-72,22],[-30,14],[-18,-11],[4,-26],[-9,-11],[-57,-8],[-25,-12],[-2,9],[19,12],[-6,18],[-21,7],[-8,29],[-43,19],[-12,-4],[-49,8],[-16,-6],[-36,20],[22,49]],[[2533,3837],[30,6],[42,-22],[-8,-3],[83,-48],[93,29],[133,-4]],[[2998,3462],[1,-9],[-41,-1],[-60,-52],[43,-4],[-45,-1],[-44,-10],[-91,-7],[-3,-9]],[[2758,3369],[-75,-4],[-66,-8],[-48,-2]],[[2569,3355],[-85,21],[-42,-6],[-86,0],[8,6],[-65,14]],[[2299,3390],[41,1],[52,14]],[[2820,3515],[34,-4],[63,-29],[33,-8],[46,1]],[[2998,3631],[101,-2],[0,-35],[29,-1]],[[2533,3837],[12,27],[-1,35]],[[2544,3899],[-4,15],[116,-8],[92,4],[94,7]],[[2842,3917],[-4,-5],[10,-31],[35,-1],[-25,-21],[187,-43],[-8,-36],[-74,12],[-57,3]],[[2815,3165],[26,-18],[-9,-4],[-35,16],[-53,0],[3,18],[-106,3],[-44,-2],[-16,9]],[[2581,3187],[21,32],[46,-5],[-19,36],[-47,6],[1,14],[-30,6],[23,9],[-1,13],[-60,4],[-44,0],[1,-10]],[[2472,3292],[-22,2],[-1,8],[-103,1],[-59,8],[-146,-23]],[[2008,3334],[-2,14],[30,-4],[325,-1],[59,6],[86,-1],[63,7]],[[2758,3369],[78,-3],[42,2],[42,10]],[[2920,3378],[2,-2],[-14,-87],[-157,5],[9,-22],[73,-17],[8,-6],[-4,-24],[-33,-46],[11,-14]],[[2299,3390],[-68,-3],[-14,-5],[-74,-1],[-68,8],[-29,-3],[-58,-19],[-92,1],[-60,-2],[-25,-5],[-22,-12],[-37,1],[-53,-9],[-40,-11],[-40,2],[-25,-7],[-25,-15],[-71,-24],[-56,2],[-54,25],[66,-2],[10,31],[29,3],[10,-19],[56,29],[106,24],[68,10],[-6,7],[42,6],[3,-7],[47,10],[23,21],[32,-5]],[[3362,3329],[7,-32],[-32,-4],[-1,-20],[-12,2],[-11,-23],[1,-14],[-40,-5],[-14,21],[-25,-2],[6,25],[-24,6],[-77,0]],[[3140,3283],[-55,-2],[-55,-6],[-62,-23],[-25,-3],[11,-48],[-24,-1]],[[2930,3200],[-38,-1],[-18,15],[-25,-32],[-2,-11],[-32,-6]],[[2920,3378],[81,0],[66,-10]],[[2975,3131],[-5,-13],[-41,7],[-29,15],[4,10],[66,-7],[5,-12]],[[2963,3716],[57,1],[-22,-86]],[[2792,3542],[-70,43]],[[2493,3822],[18,29],[-26,6],[13,42],[46,0]],[[1856,3462],[-14,9],[2,10],[56,-1],[21,7],[-37,4],[1,7],[27,3],[-20,6],[40,18],[32,-7],[25,26],[-15,-4],[-71,12],[-26,-3],[-34,4],[-35,12],[-3,12],[36,2],[45,12],[18,17],[25,-13],[35,7],[22,15],[6,16],[44,1],[15,4],[0,15],[14,10],[92,22],[51,-17]],[[2997,4157],[-58,4]],[[2939,4161],[7,54],[-26,3],[6,41],[-21,1],[2,30],[-8,10],[43,4],[1,20],[18,48],[25,77],[23,-5],[52,-21],[-18,-32],[-64,-43],[-9,-10],[5,-23],[26,-54],[28,-40],[14,-34],[-2,-30],[-44,0]],[[2581,3187],[-45,6],[-26,16],[-190,36],[9,17],[63,12],[30,14],[39,-10],[24,5],[-13,9]],[[3140,3283],[0,-24],[-11,0],[4,-28],[26,-7],[-23,-17],[-30,-10],[-44,14],[3,-25],[62,-18],[53,-27],[34,-9],[-6,-7],[24,-5],[-87,-4],[-36,-8],[-14,53],[-71,-7],[-8,28],[-17,-9],[-44,-2],[-32,21],[7,8]],[[2327,3166],[8,3],[66,-8],[-3,-5],[62,-10],[110,-14],[-8,-24],[-114,15],[-30,0],[-23,13],[0,-38],[-9,9],[-34,6],[-1,16],[-16,12],[-47,9],[-7,22],[46,-6]],[[2997,4157],[-5,-51],[6,-23],[15,-24],[-3,-14],[12,-8],[-1,-22],[26,-31]],[[2842,3917],[31,3],[-14,27],[2,13],[-18,-1],[-19,38],[8,8],[-25,-2],[9,8],[-8,22],[83,21],[-13,27],[15,81],[46,-1]]]}
