{"type":"Topology","bbox":[-76.01554203297331,-0.3483757832388404,-74.60917742111735,0.4755356938462752],"transform":{"scale":[0.00014065052623822013,0.00008239938764727628],"translate":[-76.01554203297331,-0.3483757832388404]},"objects":{"municipios":{"type":"GeometryCollection","geometries":[{"type":"Polygon","arcs":[[0]],"properties":{"codigo":"86573201205010000101","sector":"865732012050100001","pcode":"CO86573","area_m2":109424}},{"type":"Polygon","arcs":[[1]],"properties":{"codigo":"86573200101009000101","sector":"865732001010090001","pcode":"CO86573","area_m2":124201}},{"type":"Polygon","arcs":[[2,3,4]],"properties":{"codigo":"86573100000000000202","sector":"865731000000000002","pcode":"CO86573","area_m2":129703}},{"type":"Polygon","arcs":[[5,6,7,8,9,10,11]],"properties":{"codigo":"86573100000000000101","sector":"865731000000000001","pcode":"CO86573","area_m2":351890}},{"type":"Polygon","arcs":[[12,-9,13,14,15,-4]],"properties":{"codigo":"86573100000000000102","sector":"865731000000000001","pcode":"CO86573","area_m2":223052}},{"type":"Polygon","arcs":[[-11,16,17]],"properties":{"codigo":"86573100000000000103","sector":"865731000000000001","pcode":"CO86573","area_m2":451116}},{"type":"Polygon","arcs":[[-5,-16,18]],"properties":{"codigo":"86573100000000000201","sector":"865731000000000002","pcode":"CO86573","area_m2":427198}},{"type":"Polygon","arcs":[[19,-12,-18,20]],"properties":{"codigo":"86573100000000000301","sector":"865731000000000003","pcode":"CO86573","area_m2":408225}},{"type":"Polygon","arcs":[[21,-6,-20,22]],"properties":{"codigo":"86573100000000000302","sector":"865731000000000003","pcode":"CO86573","area_m2":143188}},{"type":"Polygon","arcs":[[23]],"properties":{"codigo":"86573200505005000101","sector":"865732005050050001","pcode":"CO86573","area_m2":73102}},{"type":"Polygon","arcs":[[24,-7,-22,25]],"properties":{"codigo":"86573100000000000303","sector":"865731000000000003","pcode":"CO86573","area_m2":201470}},{"type":"Polygon","arcs":[[-14,-8,-25,26]],"properties":{"codigo":"86573100000000000304","sector":"865731000000000003","pcode":"CO86573","area_m2":208615}},{"type":"MultiPolygon","arcs":[[[27]],[[28]]],"properties":{"codigo":"86573200401001000101","sector":"865732004010010001","pcode":"CO86573","area_m2":623938}},{"type":"Polygon","arcs":[[29]],"properties":{"codigo":"86573201601002000101","sector":"865732016010020001","pcode":"CO86573","area_m2":338155}},{"type":"Polygon","arcs":[[30]],"properties":{"codigo":"86573200604003000101","sector":"865732006040030001","pcode":"CO86573","area_m2":19022}},{"type":"Polygon","arcs":[[31]],"properties":{"codigo":"86573201706011000101","sector":"865732017060110001","pcode":"CO86573","area_m2":100511}}]}},"arcs":[[[5851,3773],[-20,-18],[-12,-4],[-12,1],[1,11],[-2,0],[0,7],[3,7],[2,-5],[7,-2],[0,-5],[7,1],[22,14],[12,11],[3,-9],[-11,-9]],[[8,7974],[5,-2],[3,-7],[7,8],[7,-20],[-3,-5],[7,-15],[-10,-13],[-14,32],[-4,13],[-6,24],[6,0],[2,-9],[0,-6]],[[8771,1784],[-8,25]],[[8763,1809],[29,30]],[[8792,1839],[5,-28],[-26,-27]],[[8763,1930],[5,-8]],[[8768,1922],[4,-8],[5,-21]],[[8777,1893],[-1,-6],[9,-17]],[[8785,1870],[-14,-12],[-18,-19]],[[8753,1839],[-11,24],[-7,10]],[[8735,1873],[12,19],[-4,11],[7,4],[10,17],[-7,8],[-4,10]],[[8749,1942],[3,-1],[6,8],[4,-7],[-3,-5],[4,-7]],[[8763,1809],[-10,30]],[[8785,1870],[11,9],[1,-6]],[[8797,1873],[-3,-7],[3,-8],[3,-12]],[[8800,1846],[-8,-7]],[[8735,1873],[-18,24],[-7,13],[-4,11],[8,10],[6,4],[-5,10],[-3,-2],[-3,8],[6,9],[3,-7],[10,10],[-3,13],[6,6],[-1,6],[5,4]],[[8735,1992],[14,-50]],[[8800,1846],[3,-13],[11,4],[-1,3],[6,12],[0,6],[6,0],[3,-6],[-10,-11],[1,-3],[-5,-9],[3,-7],[-1,-11],[-3,6],[-4,-4],[2,-6],[-4,-7],[4,-9],[-2,-3],[5,-10],[-4,-11],[-1,-6],[4,-5],[6,-1],[-7,-12],[-18,-19],[-16,40],[-7,20]],[[8794,1979],[-4,-7],[-6,5],[-5,0],[-11,-9],[-2,-4],[4,-9],[-2,-11],[-5,-14]],[[8735,1992],[1,4],[7,0],[7,-2],[4,9],[-4,11],[13,11],[8,-1],[6,-6],[13,1],[-2,-10],[5,-23],[1,-7]],[[8802,1969],[-12,-16],[-13,-15],[-9,-16]],[[8794,1979],[1,-6],[6,4],[1,-8]],[[5987,9986],[5,1],[-2,-7],[4,-6],[-1,-4],[-4,4],[-4,-2],[1,-6],[-7,-1],[-2,-4],[-3,21],[-3,0],[0,17],[16,-4],[0,-9]],[[8802,1939],[-2,-11],[1,-6],[-8,-4],[-2,-5],[-4,-1],[-5,-15],[-5,-4]],[[8802,1969],[10,9],[3,-5],[-7,-11],[3,-3],[-4,-6],[-2,3],[-4,-5],[1,-4],[-2,-5],[2,-3]],[[8802,1939],[4,-6],[5,7],[3,-7],[-3,-4],[4,-12],[2,3],[4,-6],[-19,-34],[-5,-7]],[[9608,3578],[4,1],[5,-12],[4,15],[5,5],[4,-2],[-1,-12],[0,-10],[-4,-10],[11,1],[1,-15],[-9,-2],[-3,-3],[0,-14],[2,-19],[-5,0],[0,6],[-3,4],[-8,0],[-9,6],[1,21],[-5,-3],[1,-7],[-4,-17],[4,-2],[3,-8],[-2,-7],[0,-8],[-3,-1],[3,-10],[1,-7],[3,1],[2,-7],[-4,-8],[0,-9],[3,-11],[-3,-1],[-3,8],[-4,2],[4,9],[-3,1],[0,16],[-1,-1],[-6,24],[-2,9],[-8,3],[0,-4],[2,-20],[-2,-1],[1,-7],[8,1],[2,-9],[1,-9],[-6,0],[-2,-3],[-5,12],[1,9],[-6,6],[-5,9],[-5,18],[5,7],[15,30],[21,46],[4,-11]],[[9613,3472],[-2,-6],[-3,0],[0,7],[5,-1]],[[1183,5934],[1,-7],[-1,-9],[6,7],[4,-7],[-7,-10],[5,-5],[-1,-9],[-2,1],[-1,-10],[-3,1],[-3,-16],[-3,-6],[-2,3],[-2,-6],[2,-2],[-4,-8],[11,-11],[4,4],[0,-14],[3,0],[2,-11],[2,-19],[-1,-16],[-2,-1],[1,-17],[4,-15],[3,-1],[-4,-6],[-4,10],[-3,13],[0,16],[2,10],[-3,11],[-4,7],[-13,14],[-18,14],[-11,9],[-7,16],[2,6],[4,-4],[3,3],[11,-8],[8,0],[2,-9],[17,29],[2,9],[-6,8],[5,7],[-10,21],[4,8],[3,3],[4,-3]],[[7042,8228],[-8,20],[3,6],[9,-15],[-4,-11]],[[9974,53],[4,-3],[3,-12],[10,9],[1,-4],[4,5],[2,-4],[-2,-12],[3,-7],[-3,-4],[-4,5],[-2,6],[-1,-13],[-3,-4],[-5,-15],[-6,10],[-2,13],[1,18],[-2,14],[2,-2]]]}
