{"type":"Topology","bbox":[-76.98058706637738,1.182096180400232,-76.93985743600541,1.213529628069416],"transform":{"scale":[0.000004073370374234465,0.0000031436591328317042],"translate":[-76.98058706637738,1.182096180400232]},"objects":{"municipios":{"type":"GeometryCollection","geometries":[{"type":"Polygon","arcs":[[0,1,2]],"properties":{"codigo":"86219100000000000202","sector":"862191000000000002","pcode":"CO86219","area_m2":118480}},{"type":"Polygon","arcs":[[3,4,5]],"properties":{"codigo":"86219100000000000101","sector":"862191000000000001","pcode":"CO86219","area_m2":382438}},{"type":"Polygon","arcs":[[6,-4,7,8,9]],"properties":{"codigo":"86219100000000000103","sector":"862191000000000001","pcode":"CO86219","area_m2":293259}},{"type":"Polygon","arcs":[[10,-3,11]],"properties":{"codigo":"86219100000000000203","sector":"862191000000000002","pcode":"CO86219","area_m2":394132}},{"type":"Polygon","arcs":[[-6,12,-8]],"properties":{"codigo":"86219100000000000102","sector":"862191000000000001","pcode":"CO86219","area_m2":161337}},{"type":"Polygon","arcs":[[13]],"properties":{"codigo":"86219200101001000101","sector":"862192001010010001","pcode":"CO86219","area_m2":228501}},{"type":"Polygon","arcs":[[14]],"properties":{"codigo":"86219200101002000101","sector":"862192001010020001","pcode":"CO86219","area_m2":52188}},{"type":"Polygon","arcs":[[15]],"properties":{"codigo":"86219200101003000101","sector":"862192001010030001","pcode":"CO86219","area_m2":49966}},{"type":"Polygon","arcs":[[-11,16,-10,17,-1]],"properties":{"codigo":"86219100000000000201","sector":"862191000000000002","pcode":"CO86219","area_m2":406751}}]}},"arcs":[[[2462,3175],[-123,140],[-433,544],[-14,43],[-244,321]],[[1648,4223],[182,214]],[[1830,4437],[46,-59],[184,233],[385,-471],[380,-477],[-335,-475],[-28,-13]],[[1745,1196],[176,-259]],[[1921,937],[186,-274],[-10,-32],[-219,-308],[-198,-173],[-134,173],[-60,-125],[-108,-101],[-119,-9],[-647,-88],[-78,158],[-320,455],[-214,264],[252,260],[176,239],[33,8],[150,293],[-184,221],[-396,496],[164,243]],[[195,2637],[594,-735],[213,-255],[516,-659],[50,-28],[177,236]],[[3127,1731],[-31,-38],[-852,-492],[-180,-120],[-143,-144]],[[1745,1196],[-194,231],[178,255],[-370,476],[-383,476],[-189,-244],[-385,484],[-37,26]],[[365,2900],[-36,68],[56,61],[44,-41],[83,120],[112,-104],[71,-148],[75,33],[79,-86],[259,22],[174,454]],[[1282,3279],[62,-79],[-13,-60],[174,-226],[176,-200],[548,-701],[246,-294],[187,253],[75,-64],[118,160],[272,-337]],[[3530,2903],[-57,-10],[-194,-230],[-84,71],[-272,352],[-139,-112],[-130,35],[-56,-32],[-178,123],[42,75]],[[1830,4437],[412,547],[183,287],[140,157],[340,-411],[164,220],[97,-119],[-165,-225],[201,-245],[179,204],[156,-181],[204,-266],[-154,-193],[160,-182],[-156,-178],[-57,-346],[-5,-328],[25,-75],[-24,-200]],[[195,2637],[172,239],[-2,24]],[[9470,9786],[127,-39],[141,5],[80,-193],[-50,-400],[65,-11],[39,170],[127,94],[-6,-169],[-30,-153],[-117,-360],[-174,113],[-224,39],[-105,-4],[-368,-182],[-87,-102],[-89,-168],[-259,-258],[-53,-102],[-87,138],[-46,160],[60,181],[170,266],[102,197],[26,173],[61,96],[43,290],[60,43],[12,97],[-55,95],[-6,136],[238,27],[435,32],[-30,-211]],[[5158,5633],[6,-15],[232,132],[136,-341],[38,-329],[-20,-102],[-46,-23],[10,-127],[90,-133],[83,-200],[-14,-138],[91,-341],[-19,-45],[-98,27],[-5,104],[42,0],[-22,106],[-77,-10],[-14,101],[-163,-35],[-10,55],[150,36],[-23,93],[-205,-75],[-2,111],[257,107],[-112,215],[-27,3],[-13,230],[-50,144],[-121,-73],[-46,106],[138,79],[-51,136],[-39,-28],[-49,112],[-104,-68],[-41,113],[60,35],[-61,184],[43,21],[56,-167]],[[4716,5249],[39,-163],[-199,-101],[13,-134],[-36,-18],[79,-566],[43,9],[23,-139],[-123,-21],[-22,163],[-144,13],[-23,448],[-194,-70],[4,117],[210,58],[-20,253],[-344,-127],[-19,-104],[-64,-3],[30,102],[-15,75],[506,184],[228,127],[28,-103]],[[3530,2903],[-10,-44],[95,-94],[-37,-460],[-58,-199],[-250,-229],[-143,-146]],[[1282,3279],[83,209],[-8,224],[80,14],[79,117],[15,138],[116,117],[-46,63],[47,62]]]}
