{"type":"Topology","bbox":[-71.22719056562482,0.050279655694895654,-71.21991768160945,0.05838897790733705],"transform":{"scale":[7.273611376516274e-7,8.110133225763969e-7],"translate":[-71.22719056562482,0.050279655694895654]},"objects":{"municipios":{"type":"GeometryCollection","geometries":[{"type":"Polygon","arcs":[[0]],"properties":{"codigo":"91430200102000000101","sector":"914302001020000001","pcode":"CO91430","area_m2":225886}}]}},"arcs":[[[7689,8925],[623,634],[1687,-1244],[-848,-1626],[-2009,-1822],[-6186,-4424],[-956,629],[3819,3563],[-925,791],[3008,4573],[1787,-1074]]]}
