{"type":"Topology","bbox":[-70.30531858031611,-4.229406466197081,-69.92515091314596,-3.772970435744198],"transform":{"scale":[0.00003802056877389296,0.0000456481678620745],"translate":[-70.30531858031611,-4.229406466197081]},"objects":{"municipios":{"type":"GeometryCollection","geometries":[{"type":"Polygon","arcs":[[0]],"properties":{"codigo":"91001200101035000101","sector":"910012001010350001","pcode":"CO91001","area_m2":22988}},{"type":"Polygon","arcs":[[1,2,3,4]],"properties":{"codigo":"91001100000000000303","sector":"910011000000000003","pcode":"CO91001","area_m2":117637}},{"type":"MultiPolygon","arcs":[[[5]],[[6,7,8]]],"properties":{"codigo":"91001100000000000106","sector":"910011000000000001","pcode":"CO91001","area_m2":440885}},{"type":"Polygon","arcs":[[9,-8,10]],"properties":{"codigo":"91001100000000000107","sector":"910011000000000001","pcode":"CO91001","area_m2":375016}},{"type":"Polygon","arcs":[[11,12,13,14]],"properties":{"codigo":"91001100000000000201","sector":"910011000000000002","pcode":"CO91001","area_m2":276286}},{"type":"Polygon","arcs":[[-15,15,16,17]],"properties":{"codigo":"91001100000000000202","sector":"910011000000000002","pcode":"CO91001","area_m2":262677}},{"type":"Polygon","arcs":[[18,19,-3,-17]],"properties":{"codigo":"91001100000000000203","sector":"910011000000000002","pcode":"CO91001","area_m2":481437}},{"type":"Polygon","arcs":[[20,-12,21,22,23,24,25]],"properties":{"codigo":"91001100000000000301","sector":"910011000000000003","pcode":"CO91001","area_m2":2498985}},{"type":"Polygon","arcs":[[26,27,28,29]],"properties":{"codigo":"91001100000000000104","sector":"910011000000000001","pcode":"CO91001","area_m2":403616}},{"type":"Polygon","arcs":[[30,31,-28,32]],"properties":{"codigo":"91001100000000000105","sector":"910011000000000001","pcode":"CO91001","area_m2":549355}},{"type":"Polygon","arcs":[[-33,-27,33,-13,-21,34,-9,-10,35]],"properties":{"codigo":"91001100000000000101","sector":"910011000000000001","pcode":"CO91001","area_m2":6434372}},{"type":"Polygon","arcs":[[-16,-14,-34,-30,36]],"properties":{"codigo":"91001100000000000102","sector":"910011000000000001","pcode":"CO91001","area_m2":271358}},{"type":"Polygon","arcs":[[-19,-37,-29,-32,37]],"properties":{"codigo":"91001100000000000103","sector":"910011000000000001","pcode":"CO91001","area_m2":537676}},{"type":"Polygon","arcs":[[-18,-2,38,-22]],"properties":{"codigo":"91001100000000000302","sector":"910011000000000003","pcode":"CO91001","area_m2":125854}},{"type":"Polygon","arcs":[[39,-23,-39,-5]],"properties":{"codigo":"91001100000000000304","sector":"910011000000000003","pcode":"CO91001","area_m2":65730}},{"type":"Polygon","arcs":[[40,41]],"properties":{"codigo":"91001200101001000101","sector":"910012001010010001","pcode":"CO91001","area_m2":77623}},{"type":"MultiPolygon","arcs":[[[42]],[[43]]],"properties":{"codigo":"91001200107002000101","sector":"910012001070020001","pcode":"CO91001","area_m2":96908}},{"type":"Polygon","arcs":[[44]],"properties":{"codigo":"91001200102013000101","sector":"910012001020130001","pcode":"CO91001","area_m2":124011}},{"type":"MultiPolygon","arcs":[[[45]],[[46]]],"properties":{"codigo":"91001200101014000101","sector":"910012001010140001","pcode":"CO91001","area_m2":357768}},{"type":"Polygon","arcs":[[47]],"properties":{"codigo":"91001200101005000101","sector":"910012001010050001","pcode":"CO91001","area_m2":669384}},{"type":"Polygon","arcs":[[48]],"properties":{"codigo":"91001200101011000101","sector":"910012001010110001","pcode":"CO91001","area_m2":87138}},{"type":"Polygon","arcs":[[49]],"properties":{"codigo":"91001200101016000101","sector":"910012001010160001","pcode":"CO91001","area_m2":75650}},{"type":"Polygon","arcs":[[-25,50]],"properties":{"codigo":"91001200101017000101","sector":"910012001010170001","pcode":"CO91001","area_m2":977021}},{"type":"Polygon","arcs":[[51]],"properties":{"codigo":"91001200101018000101","sector":"910012001010180001","pcode":"CO91001","area_m2":54706}},{"type":"Polygon","arcs":[[52]],"properties":{"codigo":"91001200101019000101","sector":"910012001010190001","pcode":"CO91001","area_m2":49841}},{"type":"Polygon","arcs":[[53]],"properties":{"codigo":"91001200101028000101","sector":"910012001010280001","pcode":"CO91001","area_m2":98868}},{"type":"Polygon","arcs":[[54]],"properties":{"codigo":"91001200101034000101","sector":"910012001010340001","pcode":"CO91001","area_m2":22731}},{"type":"MultiPolygon","arcs":[[[55]],[[56]],[[57]]],"properties":{"codigo":"91001200103022000101","sector":"910012001030220001","pcode":"CO91001","area_m2":227338}},{"type":"Polygon","arcs":[[58]],"properties":{"codigo":"91001200102023000101","sector":"910012001020230001","pcode":"CO91001","area_m2":445056}},{"type":"Polygon","arcs":[[59,-42]],"properties":{"codigo":"91001200101024000101","sector":"910012001010240001","pcode":"CO91001","area_m2":47423}},{"type":"Polygon","arcs":[[60]],"properties":{"codigo":"91001200101027000101","sector":"910012001010270001","pcode":"CO91001","area_m2":147451}},{"type":"Polygon","arcs":[[61]],"properties":{"codigo":"91001200101029000101","sector":"910012001010290001","pcode":"CO91001","area_m2":85754}},{"type":"Polygon","arcs":[[62]],"properties":{"codigo":"91001200101030000101","sector":"910012001010300001","pcode":"CO91001","area_m2":292708}},{"type":"Polygon","arcs":[[63,64]],"properties":{"codigo":"91001200101031000101","sector":"910012001010310001","pcode":"CO91001","area_m2":53768}},{"type":"Polygon","arcs":[[65]],"properties":{"codigo":"91001200101032000101","sector":"910012001010320001","pcode":"CO91001","area_m2":46269}},{"type":"Polygon","arcs":[[-64,66]],"properties":{"codigo":"91001200101033000101","sector":"910012001010330001","pcode":"CO91001","area_m2":97978}},{"type":"Polygon","arcs":[[67]],"properties":{"codigo":"91001200401007000101","sector":"910012004010070001","pcode":"CO91001","area_m2":184966}},{"type":"Polygon","arcs":[[68]],"properties":{"codigo":"91001200404009000101","sector":"910012004040090001","pcode":"CO91001","area_m2":238582}},{"type":"Polygon","arcs":[[69]],"properties":{"codigo":"91001200404012000101","sector":"910012004040120001","pcode":"CO91001","area_m2":71111}},{"type":"Polygon","arcs":[[70]],"properties":{"codigo":"91001200404015000101","sector":"910012004040150001","pcode":"CO91001","area_m2":84657}},{"type":"Polygon","arcs":[[71]],"properties":{"codigo":"91001200404020000101","sector":"910012004040200001","pcode":"CO91001","area_m2":385394}},{"type":"Polygon","arcs":[[72]],"properties":{"codigo":"91001200404021000101","sector":"910012004040210001","pcode":"CO91001","area_m2":235394}},{"type":"Polygon","arcs":[[73]],"properties":{"codigo":"91001200401025000101","sector":"910012004010250001","pcode":"CO91001","area_m2":37046}},{"type":"Polygon","arcs":[[74]],"properties":{"codigo":"91001200404026000101","sector":"910012004040260001","pcode":"CO91001","area_m2":65514}}]}},"arcs":[[[9177,1879],[13,-12],[18,-16],[6,-2],[-8,-8],[-14,-8],[-4,0],[-21,23],[4,3],[2,14],[-5,1],[5,9],[4,-4]],[[9720,222],[-27,47],[-3,6]],[[9690,275],[84,14],[27,4]],[[9801,293],[-9,-42],[2,0],[-7,-36],[-1,-2],[-11,0]],[[9775,213],[-4,18],[-51,-9]],[[9300,1255],[1,-1],[10,3],[4,-3],[-8,-8],[40,-58],[9,-13],[-38,-16],[6,-14],[-10,-9],[-25,-1],[3,-6],[-4,-1],[-6,10],[-14,-8],[-5,3],[-24,30],[-6,3],[2,6],[-5,5],[-7,4],[-6,0],[11,6],[-7,4],[-12,-1],[-22,36],[-10,-4],[-15,27],[18,11],[18,-31],[96,36],[6,-10]],[[9302,1083],[0,1],[-32,4],[-7,8],[-2,8],[1,7],[-2,8],[29,8],[6,-15],[26,5],[14,0],[4,-20],[66,6],[-5,32],[-6,26],[17,9],[20,2]],[[9431,1172],[38,5],[8,-36],[5,-30]],[[9482,1111],[-42,-4],[-34,-4],[-85,-8],[-7,-1],[-12,-11]],[[9592,1189],[-7,-18],[-16,-37],[-4,-6],[-13,-10],[-15,-3],[-55,-4]],[[9431,1172],[16,42],[4,15],[3,0],[2,8],[12,27],[22,-3],[-12,-34],[25,-3],[9,-2],[5,15],[16,-5],[4,10],[19,-5],[5,13],[14,-3],[8,36],[24,-4],[15,-4],[-30,-86]],[[9605,260],[-61,-9],[-5,27],[-53,-9],[-15,-4],[-13,53],[-4,6]],[[9454,324],[15,9],[-3,7],[27,5],[8,-1],[18,6],[-10,25],[31,8]],[[9540,383],[29,9]],[[9569,392],[16,-54],[20,-78]],[[9569,392],[36,10],[47,14]],[[9652,416],[21,-79],[12,-39],[5,-23]],[[9690,275],[-16,-2],[-35,-16],[-5,8],[-29,-5]],[[9652,416],[68,14],[18,4],[88,19],[12,2]],[[9838,455],[-12,-57],[-13,-47],[-7,-30],[-5,-28]],[[9380,467],[10,-13],[15,-16],[25,-41],[6,-18],[5,-10],[5,-14],[6,-26],[2,-5]],[[9605,260],[5,-19],[7,-15],[8,-12],[15,-25]],[[9640,189],[-46,-19],[10,-21]],[[9604,149],[-4,-10],[-6,-7],[-14,1],[-7,-8],[4,-5],[-8,-2],[-5,-21],[-9,3],[-4,-5],[-2,4],[-5,-1],[0,-13],[-9,4],[-1,-6],[-6,-4],[-9,-1],[-1,-5],[-168,-73],[-16,136],[-171,273],[-25,39],[86,30],[96,57]],[[9320,535],[19,-19]],[[9339,516],[30,-38],[11,-11]],[[9626,500],[-5,28],[-2,16],[-1,22],[-16,-1],[1,16],[7,23],[5,7],[9,-6],[11,6],[8,-13],[17,-14],[6,5],[3,8],[-2,21],[3,6],[11,7],[13,1],[0,21],[2,1],[26,0]],[[9722,654],[14,-1],[1,3],[0,22],[17,0],[1,22],[26,0],[0,-44],[-16,0],[1,-24],[47,1],[26,-48]],[[9839,585],[-73,-13],[-20,-8],[-37,-23],[-8,10],[-6,5],[-9,4],[-6,4],[-9,4],[-22,-1],[4,-33],[6,-28]],[[9659,506],[8,-32],[-24,-2],[-10,7],[-7,21]],[[9920,859],[2,-2],[-7,-40],[-14,-64],[1,-1],[-11,-50],[-9,-46],[-4,-6],[-7,-38],[-1,-18],[-1,-3]],[[9869,591],[-30,-6]],[[9722,654],[-1,14],[3,2],[1,7],[6,16],[7,12],[8,19],[22,-2],[0,1],[22,0],[5,10],[10,11],[-10,7],[10,18],[9,27],[17,-2],[12,52],[8,12],[30,-4],[6,3],[24,-4],[2,6],[7,0]],[[9626,500],[-15,-4],[-10,5],[-21,-4],[-13,-6],[-1,2],[-52,-9],[14,-50],[12,-51]],[[9380,467],[13,8],[32,5],[-5,80],[-3,20],[-7,7],[-7,28],[-10,4],[30,35],[-1,37],[4,7],[-13,27],[7,2],[4,-11],[25,-2],[15,32],[-49,-2],[-21,12],[-17,-1],[-7,5],[-11,-2],[-9,8],[-32,6],[-2,-4],[-8,-3],[-14,18],[6,13],[19,6],[7,10],[0,14],[-4,23],[1,12],[-4,10],[-6,19],[-2,15],[-5,22],[-15,47],[-6,11],[-2,11],[-8,11],[-8,16],[-9,11],[-10,17],[10,8],[7,13],[37,11]],[[9592,1189],[94,-22],[1,-1],[106,-38],[112,-36],[-13,-71],[-13,-62],[32,-56],[20,-3],[-11,-41]],[[9659,506],[26,5],[5,-12],[-20,-33],[2,-12],[-28,-9],[8,-29]],[[9869,591],[-8,-46],[-6,-23],[-11,-51],[-3,-4],[-3,-12]],[[9720,222],[-44,-17],[-36,-16]],[[9775,213],[-52,5],[-4,-1],[-25,-20],[-10,-7],[-6,-8],[-7,-6],[-13,-2],[-24,-14],[-7,1],[-13,-5],[-10,-7]],[[4541,4928],[-1,1],[17,14],[9,-13],[1,-6],[9,8],[17,3],[8,0],[-11,-12],[-2,3],[-13,-12],[3,-4],[7,1],[9,-2],[-7,-7],[-11,-15],[6,-4],[-9,-9],[9,-6],[-9,-11],[-2,-7],[-11,4],[-3,4],[-29,7],[-8,-1],[-11,3]],[[4509,4867],[4,10],[8,-2],[1,5],[5,1],[9,10],[7,13],[9,7],[2,4],[-13,13]],[[6979,2814],[10,-3],[9,6],[4,-7],[4,-3],[0,-7],[-6,-2],[0,-17],[-8,-7],[-7,2],[-3,4],[-12,2],[-4,-1],[6,-10],[9,3],[3,-11],[-20,-15],[-6,4],[-11,12],[-8,11],[-6,5],[5,2],[-8,6],[-4,8],[-16,18],[3,5],[11,-8],[8,2],[16,1],[9,7],[17,2],[5,-9]],[[7086,2859],[12,-2],[12,1],[4,-3],[-13,-3],[-2,-4],[-5,1],[-8,-5],[1,-1],[-13,-11],[-5,3],[-21,-11],[-7,-2],[4,8],[16,8],[2,5],[-7,10],[14,-4],[3,5],[7,0],[6,5]],[[9417,2453],[20,-14],[-10,-9],[0,-12],[26,15],[10,4],[7,-8],[-20,-11],[4,-9],[-1,-6],[5,-7],[-16,-9],[-73,-34],[-12,-4],[-20,40],[48,21],[16,15],[10,16],[6,12]],[[9626,1575],[5,0],[2,7],[26,-7],[29,-10],[31,-6],[-2,-8],[7,0],[1,-6],[5,-7],[11,-7],[9,-4],[-2,-3],[26,-10],[29,-7],[-8,-26],[-17,2],[-15,4],[-13,-1],[-55,1],[-10,-26],[54,-7],[-2,-11],[-8,1],[-8,-5],[-2,-13],[-42,9],[-26,5],[2,8],[-7,8],[-14,2],[3,10],[9,19],[11,-4],[20,-6],[2,7],[4,0],[5,17],[12,-3],[5,16],[-80,21],[-54,11],[4,13],[-2,3],[6,18],[5,7],[0,6],[8,-1],[28,-6],[-2,-8],[10,-3]],[[9670,1417],[-26,-78],[-21,9],[1,2],[-31,7],[-4,9],[2,11],[11,2],[9,11],[15,-5],[4,6],[21,-9],[9,29],[-24,4],[2,7],[32,-5]],[[6662,3923],[0,-3],[10,-7],[4,0],[1,-7],[4,-7],[11,-1],[5,4],[-2,7],[-4,1],[0,8],[9,8],[13,4],[4,-1],[15,-1],[8,2],[8,-7],[9,-3],[10,-1],[-3,-6],[4,-6],[6,-3],[-1,-7],[8,-5],[1,-7],[-18,-12],[-12,-1],[-11,-10],[-13,0],[-5,-5],[2,-4],[7,-3],[-2,-8],[4,-5],[1,-15],[-7,-1],[-8,-5],[-14,0],[0,4],[-8,-6],[-18,3],[0,-2],[-11,3],[-11,-1],[-17,-5],[-4,6],[-7,5],[-10,3],[-3,3],[-22,-2],[-4,6],[-11,1],[-2,12],[-11,7],[-8,-6],[-13,-3],[8,-12],[0,-5],[6,-13],[-7,-2],[-6,-5],[-3,-7],[2,-15],[-3,-3],[1,-7],[-3,-12],[-19,-3],[-21,-9],[-26,-7],[2,14],[-6,13],[3,7],[-6,14],[1,6],[-7,12],[-1,6],[19,4],[10,9],[-2,5],[-11,2],[1,6],[0,15],[3,6],[8,4],[19,2],[16,0],[9,8],[1,4],[-10,10],[-14,5],[-2,8],[3,4],[11,0],[8,-8],[5,-1],[8,2],[5,19],[4,7],[12,4],[9,-10],[13,-4],[8,1],[5,14],[-4,12],[-6,8],[-1,6],[13,1],[21,-4],[10,0],[4,-4],[16,5],[8,-4],[3,-21],[-1,-8]],[[5077,4727],[4,-6],[3,1],[7,-9],[0,-8],[-8,-13],[-6,-6],[-1,-5],[6,-14],[3,-10],[2,-21],[-1,-5],[-10,-2],[-7,-16],[-22,4],[0,9],[3,10],[7,5],[18,-2],[-1,12],[-5,2],[-6,12],[-24,15],[-6,3],[-17,1],[-10,5],[0,5],[6,5],[12,1],[8,3],[2,6],[15,8],[26,12],[2,-2]],[[8717,1184],[-8,-7],[-6,4],[-6,-8],[19,-20],[-17,-13],[0,-6],[-14,-14],[8,-3],[-5,-7],[-12,-10],[-5,4],[-8,-7],[-15,-5],[-11,-6],[-6,3],[1,6],[10,13],[14,13],[-12,9],[8,6],[8,3],[8,7],[10,17],[1,10],[15,12],[2,11],[7,-1],[14,-8],[0,-3]],[[9320,535],[-7,7],[-24,21],[-14,10],[-20,12],[-19,16],[-11,13],[-3,2],[-10,14],[-6,4],[-6,8],[-18,15],[-9,6],[-8,1],[-7,7],[-7,2],[-7,7],[-13,6],[-11,9],[-11,4],[-38,4],[-58,24],[-109,62],[-29,15],[27,39],[15,16],[12,4],[5,-1],[18,-10],[13,-6],[11,-8],[14,10],[13,-1],[24,-12],[24,-15],[21,1],[21,12],[9,-3],[41,-26],[50,-51],[-2,-13],[6,-22],[50,-28],[62,-54],[38,-50],[5,-15],[0,-7],[-8,-11],[-6,-14],[1,-23]],[[5189,4641],[18,-5],[7,-12],[9,-9],[5,-9],[15,-20],[-3,-16],[-16,1],[-3,2],[-1,10],[-13,18],[-20,6],[-9,11],[-6,3],[-15,1],[-8,5],[1,8],[18,5],[21,1]],[[4340,4973],[-16,-1],[1,-14],[7,-2],[14,0],[8,-5],[-4,-4],[-7,4],[-12,0],[1,-6],[-4,-5],[-8,-1],[-12,-12],[-2,-4],[-9,5],[5,6],[-19,12],[8,10],[1,8],[14,6],[1,9],[6,13],[5,12],[8,2],[3,-6],[6,-1],[0,-5],[4,-8],[-2,-6],[3,-7]],[[8919,1713],[0,-5],[8,-16],[5,-5],[-12,-7],[-1,-4],[-8,-3],[-1,-4],[-10,-12],[-7,-2],[-7,-7],[-8,-3],[-2,4],[-15,-6],[-10,3],[-4,4],[-9,1],[-5,3],[-6,13],[-5,6],[4,1],[-4,8],[8,2],[26,4],[4,3],[11,19],[13,0],[28,4],[7,-1]],[[9127,1679],[0,-4],[17,-16],[13,3],[2,-4],[-7,-1],[-6,-6],[9,-2],[6,3],[2,-6],[-10,-4],[-7,-1],[-4,3],[-8,2],[-9,0],[-11,5],[-5,5],[-12,6],[4,5],[13,0],[3,4],[6,-2],[2,11],[2,-1]],[[9967,2548],[-7,-1],[-4,-5],[-3,-18],[-9,-17],[8,-7],[5,-3],[3,-6],[-6,-10],[-23,-10],[-11,5],[-6,-1],[-22,-9],[-24,-7],[-7,14],[-30,-9],[-10,-7],[-13,-7],[-17,-16],[-8,-8],[-9,8],[-1,4],[15,17],[25,17],[12,7],[28,9],[53,12],[10,4],[-3,6],[5,14],[10,2],[5,3],[4,16],[3,4],[11,8],[14,4],[2,-13]],[[9692,2323],[-21,-13],[-3,0],[-12,12],[-11,-5],[-9,-9],[-10,13],[3,6],[23,15],[27,15],[30,17],[12,13],[10,1],[10,-5],[-14,-14],[8,-8],[3,-7],[-18,-13],[-28,-18]],[[9686,2253],[10,-7],[6,-13],[-18,-5],[-20,-4],[-17,24],[8,-1],[8,5],[2,-2],[17,7],[4,-4]],[[9661,2902],[2,-1],[12,13],[24,-5],[4,-2],[1,-5],[-3,-8],[22,-7],[1,-8],[-18,1],[-1,-13],[-8,-3],[-11,1],[-31,-4],[-1,-14],[-5,-10],[-33,-35],[-6,-7],[-4,-13],[2,-12],[10,-18],[-2,-19],[-3,-12],[-9,-16],[-7,-8],[-15,-13],[-20,-14],[-7,-1],[-11,9],[-7,10],[20,9],[11,8],[9,9],[10,23],[-10,3],[-10,6],[-5,8],[-5,21],[1,10],[5,13],[10,15],[-1,6],[-17,8],[-9,13],[2,10],[-18,22],[-4,8],[-14,10],[-2,3],[8,15],[11,-7],[25,-8],[3,3],[16,23],[18,19],[15,5],[14,0],[23,-9],[-6,-11],[-7,-8],[19,-10],[12,-3]],[[4509,4867],[-4,1],[-11,6],[-2,-2],[-8,4],[-22,10],[5,4],[13,4],[5,4],[10,3],[13,-3],[4,6],[12,-8],[6,7],[-16,10],[2,10],[8,3],[9,-3],[8,5]],[[8482,2179],[24,-9],[-1,-3],[13,-17],[4,-9],[-2,-5],[9,-19],[9,-6],[-1,-5],[-11,-2],[-7,-15],[-13,-13],[-1,-5],[-8,-7],[-6,7],[-26,-18],[-12,9],[-5,13],[-5,5],[0,8],[10,23],[1,17],[7,16],[4,-1],[17,36]],[[9986,1921],[-7,-11],[10,-7],[-5,-12],[15,-4],[-3,-4],[-9,1],[-11,-19],[-3,-14],[24,-6],[-3,-11],[-32,5],[3,13],[-26,4],[-3,-4],[-5,2],[-8,-15],[-9,-3],[-11,-1],[-9,5],[4,18],[8,9],[22,7],[-1,3],[7,5],[24,21],[6,-5],[7,5],[-4,16],[10,7],[9,-5]],[[9967,1157],[20,-6],[-5,-19],[-8,-4],[-12,0],[3,-7],[-20,-2],[-17,0],[-24,-3],[-1,2],[-17,-1],[-24,7],[-6,3],[-8,8],[-8,11],[-24,-9],[1,11],[9,8],[11,6],[6,7],[24,19],[35,22],[-4,16],[-4,7],[-6,17],[-8,28],[0,8],[4,5],[12,3],[14,0],[5,-15],[3,-3],[2,-8],[-17,-6],[19,-16],[22,-15],[18,-19],[-3,-16],[1,-4],[-3,-6],[-7,-6],[-10,0],[35,-9],[-8,-14]],[[7224,2583],[-1,-4]],[[7223,2579],[-13,2],[1,2],[-51,6],[-7,-5],[-18,-5],[-2,4],[3,15],[-18,2],[1,4],[6,-1],[2,10],[12,-2],[2,6],[23,-4],[8,15],[4,4],[11,-4],[-2,-7],[-10,4],[-6,-10],[19,-5],[11,1],[2,-6],[6,1],[4,-12],[3,-2],[14,-2],[-4,-7]],[[7957,3380],[8,-2],[41,-3],[4,4],[13,-1],[0,3],[20,-2],[-1,-12],[-20,2],[-2,-17],[-4,1],[-29,-12],[1,17],[-10,2],[-45,6],[2,18],[22,-4]],[[7224,2583],[14,28],[13,-4],[-1,-3],[8,-6],[8,9],[8,1],[11,-7],[13,-11],[11,-4],[0,-10],[-4,-8],[8,-2],[7,-7],[13,-5],[12,-8],[-5,-15],[-4,0],[-38,14],[-2,-1],[-73,27],[0,8]],[[85,9989],[8,-10],[9,0],[23,7],[5,-7],[9,2],[3,-9],[-11,-4],[-3,-7],[10,-5],[-3,-6],[16,0],[-1,-9],[-25,-1],[-23,-12],[2,-5],[13,-6],[13,-13],[0,-4],[11,-9],[-16,-11],[-15,7],[-11,-3],[-15,9],[-12,2],[-22,2],[-9,-1],[1,11],[1,27],[-4,13],[7,7],[-12,8],[-13,13],[-6,-4],[-15,8],[4,10],[17,-4],[14,-12],[7,-1],[14,5],[13,7],[7,15],[11,0],[-2,-10]],[[3275,6861],[29,4],[20,-5],[6,-5],[4,-18],[6,-6],[13,-4],[2,-9],[10,-3],[0,-11],[9,-8],[15,0],[3,-8],[8,-5],[-2,-8],[-5,-5],[-17,-4],[-5,-3],[-4,-9],[-10,-10],[-6,0],[-14,12],[-9,-1],[-16,-4],[-15,2],[-7,-1],[-9,22],[-14,37],[-18,38],[-16,28],[13,4],[5,5],[5,-3],[10,-15],[9,-7]],[[2551,8088],[7,2],[3,-8],[10,6],[5,-6],[-5,-5],[8,-13],[-1,-6],[12,-7],[0,-5],[-7,-5],[-4,-7],[10,-15],[-6,-6],[-7,12],[-9,3],[1,-9],[-8,2],[-8,7],[-3,6],[-10,4],[-8,6],[-5,14],[-5,6],[-11,5],[-2,5],[4,4],[12,-4],[10,9],[-5,3],[5,4],[11,4],[6,-6]],[[3600,6172],[8,-9],[9,-21],[3,-1],[20,15],[12,3],[8,-7],[0,-8],[-18,-14],[-2,-14],[9,-2],[-8,-7],[0,-4],[9,-8],[-6,-7],[-7,10],[-13,11],[-7,-3],[-7,-8],[3,-11],[-4,-4],[-6,14],[-7,6],[-2,12],[3,12],[-6,1],[-14,13],[-4,5],[7,7],[-4,7],[-6,3],[4,7],[8,3],[10,13],[12,-6],[-4,-8]],[[2160,8471],[9,1],[7,-4],[11,-2],[5,-4],[0,-9],[-5,-7],[1,-5],[-2,-8],[25,0],[9,-1],[-8,-9],[19,-4],[7,23],[-3,11],[-8,4],[-16,-1],[-7,16],[1,3],[12,4],[4,3],[8,0],[10,-15],[9,-9],[4,-11],[-1,-9],[-8,-24],[20,-18],[5,-6],[7,5],[6,0],[9,-11],[1,-15],[-3,-9],[-9,-8],[-22,-6],[-5,-4],[0,-7],[-6,-5],[0,-7],[-35,-18],[-38,22],[-46,41],[-14,16],[35,10],[5,6],[-1,10],[-12,19],[-16,13],[-7,2],[-7,7],[4,11],[6,-4],[9,9],[-4,9],[8,9],[-8,9],[8,6],[8,-6],[14,-15],[5,-8]],[[1356,8941],[15,0],[0,-8],[12,3],[6,-5],[-2,-2],[5,-9],[10,-4],[6,-7],[-3,-8],[8,-11],[-7,-3],[10,-8],[5,-7],[3,-11],[22,-14],[1,-3],[-6,-6],[-21,11],[-8,-11],[-15,-12],[-130,55],[-8,4],[12,7],[14,13],[7,5],[17,-1],[8,-2],[4,7],[5,4],[-6,4],[5,9],[8,8],[13,2],[0,7],[5,13],[6,5],[7,-3],[-8,-16],[0,-6]],[[231,9184],[11,9],[3,-4],[-8,-4],[-2,-8],[-10,-10],[4,-5],[-2,-4],[7,-5],[-4,-8],[-12,3],[-14,1],[-35,15],[5,6],[9,0],[5,4],[8,-2],[6,6],[-6,9],[5,1],[6,-6],[6,6],[9,5],[9,-9]],[[3724,6033],[-15,-5],[-4,-8],[12,-6],[-11,-12],[-9,-4],[-4,-4],[-5,-19],[7,-3],[10,8],[20,4],[3,-12],[-2,-3],[-21,-11],[-15,7],[-11,7],[-7,-5],[-6,0],[-3,4],[-5,17],[-5,9],[8,3],[12,12],[-9,16],[18,7],[4,0],[4,-10],[-6,-4],[4,-6],[5,3],[9,16],[8,-1],[-1,9],[8,1],[11,-9],[-4,-1]]]}
