{"type":"Topology","bbox":[-71.75968221390684,-2.1532263109732477,-71.74559017001627,-2.1405638983695314],"transform":{"scale":[0.0000014093453235894538,0.0000012663678971613417],"translate":[-71.75968221390684,-2.1532263109732477]},"objects":{"municipios":{"type":"GeometryCollection","geometries":[{"type":"Polygon","arcs":[[0]],"properties":{"codigo":"91536200404000000101","sector":"915362004040000001","pcode":"CO91536","area_m2":587519}}]}},"arcs":[[[9068,8660],[-201,-95],[-17,-146],[205,-158],[376,24],[127,-29],[441,-1104],[-6289,-5565],[-3043,-1587],[-369,700],[-124,-52],[-95,258],[-79,484],[39,349],[63,158],[223,274],[24,-115],[204,-78],[57,156],[251,55],[54,-310],[391,-121],[355,-187],[218,-43],[365,200],[-65,247],[83,256],[-58,179],[81,285],[-157,284],[-320,289],[-114,39],[-317,-20],[-367,151],[606,1109],[801,-573],[243,219],[169,-202],[326,260],[151,-123],[240,252],[121,-167],[141,322],[88,344],[182,-19],[317,375],[244,92],[79,-99],[15,-427],[98,-68],[432,203],[131,16],[136,148],[145,506],[244,275],[436,297],[175,150],[342,45],[97,-136],[385,196],[82,170],[-555,1396],[-102,347],[-154,378],[-138,239],[154,407],[453,420],[454,143],[329,56],[319,10],[201,-128],[86,-301],[247,-207],[198,-271],[139,-79],[99,-145],[-98,-208]]]}
