{"type":"Topology","bbox":[-70.99259037902897,-0.8927737818355631,-70.98479050601696,-0.8840894628229468],"transform":{"scale":[7.800653077312086e-7,8.685187531369486e-7],"translate":[-70.99259037902897,-0.8927737818355631]},"objects":{"municipios":{"type":"GeometryCollection","geometries":[{"type":"Polygon","arcs":[[0]],"properties":{"codigo":"91460202203000000101","sector":"914602022030000001","pcode":"CO91460","area_m2":403210}}]}},"arcs":[[[4052,7371],[686,81],[642,219],[322,-46],[878,-379],[615,42],[-4,422],[125,280],[590,-201],[225,-174],[655,-205],[151,-261],[-78,-390],[-474,-1173],[308,-302],[341,-119],[-257,-584],[415,-119],[354,-329],[453,-302],[-281,-516],[24,-174],[-293,-668],[-679,-524],[-469,559],[-738,484],[-138,272],[-618,307],[322,586],[-646,91],[-538,-167],[35,-345],[542,-1103],[-164,-240],[-94,-514],[-444,-454],[-604,-315],[-755,-474],[-371,-503],[-199,-110],[-327,14],[-314,551],[-589,104],[-553,-94],[-349,-309],[-176,-54],[-800,794],[-31,133],[518,454],[-732,304],[-94,97],[96,518],[285,504],[-29,410],[300,394],[943,384],[378,411],[373,143],[427,539],[-276,281],[-191,399],[-349,496],[-154,405],[-239,390],[-534,585],[-642,553],[-332,127],[-483,425],[-7,215],[178,480],[399,320],[407,-66],[474,-322],[406,-388],[456,-324],[549,-580],[317,-399],[510,-467],[346,-79]]]}
