{"type":"Topology","bbox":[-70.67629799026543,-3.8684008405167787,-70.32089044800131,-3.695782820296456],"transform":{"scale":[0.00003554430865727749,0.000017263528374869757],"translate":[-70.67629799026543,-3.8684008405167787]},"objects":{"municipios":{"type":"GeometryCollection","geometries":[{"type":"Polygon","arcs":[[0]],"properties":{"codigo":"91540200101017000101","sector":"915402001010170001","pcode":"CO91540","area_m2":46383}},{"type":"Polygon","arcs":[[1]],"properties":{"codigo":"91540200205002000101","sector":"915402002050020001","pcode":"CO91540","area_m2":26391}},{"type":"Polygon","arcs":[[2]],"properties":{"codigo":"91540200205009000101","sector":"915402002050090001","pcode":"CO91540","area_m2":254206}},{"type":"Polygon","arcs":[[3]],"properties":{"codigo":"91540200103003000101","sector":"915402001030030001","pcode":"CO91540","area_m2":253666}},{"type":"Polygon","arcs":[[4]],"properties":{"codigo":"91540200205001000101","sector":"915402002050010001","pcode":"CO91540","area_m2":209022}},{"type":"Polygon","arcs":[[5,6]],"properties":{"codigo":"91540100000000000101","sector":"915401000000000001","pcode":"CO91540","area_m2":381550}},{"type":"Polygon","arcs":[[-6,7]],"properties":{"codigo":"91540100000000000102","sector":"915401000000000001","pcode":"CO91540","area_m2":345472}},{"type":"Polygon","arcs":[[8]],"properties":{"codigo":"91540200105004000101","sector":"915402001050040001","pcode":"CO91540","area_m2":91549}},{"type":"Polygon","arcs":[[9]],"properties":{"codigo":"91540200101005000101","sector":"915402001010050001","pcode":"CO91540","area_m2":116572}},{"type":"Polygon","arcs":[[10]],"properties":{"codigo":"91540200203006000101","sector":"915402002030060001","pcode":"CO91540","area_m2":142556}},{"type":"Polygon","arcs":[[11]],"properties":{"codigo":"91540200101007000101","sector":"915402001010070001","pcode":"CO91540","area_m2":155973}},{"type":"Polygon","arcs":[[12]],"properties":{"codigo":"91540200101008000101","sector":"915402001010080001","pcode":"CO91540","area_m2":76072}},{"type":"Polygon","arcs":[[13]],"properties":{"codigo":"91540200203010000101","sector":"915402002030100001","pcode":"CO91540","area_m2":44736}},{"type":"Polygon","arcs":[[14,15]],"properties":{"codigo":"91540200101011000101","sector":"915402001010110001","pcode":"CO91540","area_m2":61455}},{"type":"Polygon","arcs":[[16]],"properties":{"codigo":"91540200101012000101","sector":"915402001010120001","pcode":"CO91540","area_m2":18874}},{"type":"Polygon","arcs":[[-15,17]],"properties":{"codigo":"91540200101013000101","sector":"915402001010130001","pcode":"CO91540","area_m2":199920}},{"type":"Polygon","arcs":[[18]],"properties":{"codigo":"91540200101014000101","sector":"915402001010140001","pcode":"CO91540","area_m2":19632}},{"type":"Polygon","arcs":[[19]],"properties":{"codigo":"91540200101015000101","sector":"915402001010150001","pcode":"CO91540","area_m2":11686}}]}},"arcs":[[[9972,3924],[19,-8],[8,-19],[-6,-24],[-12,2],[-11,14],[-8,-27],[7,-30],[-5,-40],[-14,2],[-28,15],[-10,17],[-1,27],[9,-3],[9,21],[8,34],[13,-1],[13,19],[9,1]],[[1484,4008],[18,-1],[-4,-20],[5,-111],[6,-117],[-4,-1],[-6,82],[-8,-2],[-2,35],[-3,0],[-4,94],[2,13],[-11,10],[0,25],[11,-7]],[[1315,2222],[22,-11],[-3,-28],[51,-27],[1,7],[31,-24],[35,-61],[23,-62],[24,-67],[36,-113],[8,-42],[-10,-7],[22,-54],[9,-11],[-19,-41],[-15,13],[-17,32],[-22,76],[-13,66],[-22,86],[-17,48],[-26,49],[-38,38],[-39,29],[-81,29],[-22,10],[3,44],[7,38],[23,-23],[7,49],[20,-20],[-2,-15],[24,-8]],[[4730,7870],[53,-42],[24,-24],[22,1],[14,13],[20,-12],[25,-51],[9,-8],[-10,-49],[5,-27],[19,-38],[2,-37],[-8,-25],[-15,17],[-15,-24],[-22,24],[-23,87],[-9,25],[-20,41],[-12,14],[-15,5],[-19,-4],[-43,4],[-43,-12],[-12,2],[-30,16],[1,56],[26,33],[0,12],[35,0],[9,7],[32,-4]],[[168,3699],[13,-28],[3,4],[20,-68],[-8,-17],[35,-82],[5,14],[4,-11],[-16,-44],[-13,-20],[-57,147],[-40,81],[-46,108],[-36,74],[-32,56],[26,89],[18,-22],[-4,-17],[49,-101],[16,-34],[63,-129]],[[8754,5236],[-34,-60],[26,-48],[43,-59],[18,-17],[19,-33],[-31,-62],[4,-8]],[[8799,4949],[13,-24],[1,-30],[-7,-26],[-18,-39],[-37,45],[-68,124],[-36,49],[-56,77],[-16,43],[34,40],[-5,65],[-8,46],[-7,23],[-10,5],[8,22],[11,-4],[10,-27],[18,23],[24,-71],[-9,-16],[-26,-19],[1,-30],[9,-23],[6,9],[-2,20],[9,3],[7,26],[10,-9],[-6,-38],[4,0],[-2,-42],[21,-17],[-3,17],[13,-26],[13,3],[-6,55],[0,29],[12,28],[19,19],[11,-36],[11,3],[12,-10]],[[8754,5236],[0,33],[-9,68],[-17,2],[-8,14],[-36,-12],[-13,2],[-4,19],[17,47],[12,-35],[36,38],[7,-3],[15,-35],[-4,-46],[15,-36],[-8,-18],[-1,-37],[25,36],[20,49],[4,-25],[16,12],[3,-22],[33,35],[-3,14],[13,-4],[-3,-13],[16,-94],[-7,-28],[2,-15],[16,-14],[27,-57],[-9,-23],[9,-2],[16,-19],[-7,-23],[10,-10],[-2,-14],[-8,8],[-36,-39],[-3,4],[-8,-28],[-17,24],[0,10],[-20,9],[-9,-3],[-17,-35],[-18,-21]],[[4420,118],[10,8],[10,-21],[36,-17],[18,-3],[1,13],[23,-4],[-5,-49],[33,-15],[14,1],[-1,-31],[-50,9],[-53,19],[-39,9],[-12,-1],[-30,12],[3,49],[16,2],[2,43],[11,-6],[13,-18]],[[9304,4408],[6,-11],[4,-29],[15,-28],[-6,-14],[12,-15],[14,-30],[-12,-15],[-7,-32],[-11,-8],[-10,8],[-9,-20],[-8,-6],[-14,21],[4,4],[-3,28],[-8,-5],[-13,10],[-5,-6],[-21,21],[6,16],[-12,15],[9,12],[12,46],[-9,23],[3,15],[15,-7],[-3,15],[16,12],[35,-20]],[[4038,8124],[5,0],[16,-45],[25,-41],[11,3],[13,-21],[2,-23],[11,-7],[7,11],[17,-17],[5,8],[23,-24],[4,-11],[13,-13],[2,-23],[22,-29],[-8,-14],[-12,3],[-16,-34],[-9,14],[-25,3],[-12,-4],[-27,12],[-11,31],[-8,38],[-11,26],[-23,18],[-6,43],[-13,43],[-19,3],[4,14],[20,36]],[[8035,6128],[8,0],[17,28],[10,-4],[-27,-57],[26,-54],[-8,-24],[19,-30],[23,-23],[-11,-19],[-7,6],[-22,-35],[-20,12],[-30,43],[-11,-22],[-22,29],[9,27],[-24,29],[-5,-13],[-9,2],[-12,24],[7,35],[13,9],[8,29],[3,32],[15,9],[50,-33]],[[6253,7338],[14,-16],[31,-22],[20,-5],[7,-14],[-9,-21],[-5,19],[-20,4],[-9,-35],[-35,25],[-28,6],[-16,-6],[-14,-29],[-17,21],[-1,61],[10,35],[17,4],[6,-26],[12,6],[13,30],[24,-37]],[[2558,9982],[23,-6],[25,5],[18,-74],[-21,-31],[-9,-22],[-3,26],[-15,14],[2,7],[-27,34],[-1,12],[-12,19],[11,31],[9,2],[0,-17]],[[9005,4616],[11,21]],[[9016,4637],[9,-14],[18,-13],[9,-21],[17,-10],[10,21],[20,-17],[15,50],[14,7],[6,-9],[-1,-21],[-10,-46],[8,-12],[8,8],[15,-19],[-4,-14],[-10,12],[-8,-16],[-1,-25],[6,-18],[-4,-11],[-19,21],[-14,1],[-4,55],[-23,14],[-3,-11],[-12,4],[0,14],[-17,14],[-3,-8],[-27,31],[-6,12]],[[7730,6399],[9,-3],[-15,-26],[9,-29],[1,-22],[-6,-8],[-13,21],[-17,39],[-10,5],[15,17],[0,18],[12,19],[15,-31]],[[9005,4616],[-15,-33],[-5,-18],[-18,6],[-50,49],[-53,70],[-16,41],[-11,44],[8,15],[32,34],[11,-22],[16,-5],[30,-27],[4,7],[37,-6],[17,-24],[13,-57],[19,-6],[5,-37],[-13,-10]],[[6716,7177],[1,-5],[52,-38],[-10,-7],[2,-14],[-23,-1],[-26,16],[0,11],[-24,6],[6,21],[13,-9],[9,20]],[[7083,6920],[34,-1],[5,10],[10,-28],[13,-11],[-38,7],[-17,-7],[-3,20],[-26,18],[1,6],[21,-14]]]}
