{"type":"Topology","bbox":[-73.21206577667539,-1.7563000243381257,-73.19969812041552,-1.7399874726535864],"transform":{"scale":[0.0000012368893149183827,0.0000016314183102849551],"translate":[-73.21206577667539,-1.7563000243381257]},"objects":{"municipios":{"type":"GeometryCollection","geometries":[{"type":"Polygon","arcs":[[0]],"properties":{"codigo":"91263200601000000101","sector":"912632006010000001","pcode":"CO91263","area_m2":714479}}]}},"arcs":[[[1385,9226],[1567,51],[1341,-647],[287,-2378],[-1334,-1043],[1187,-55],[1196,-814],[651,-205],[-779,-1332],[4498,-1687],[-290,-1116],[-7026,2632],[-647,1405],[91,433],[-434,1750],[-1149,1794],[-540,1865],[650,120],[731,-773]]]}
