{"type":"Topology","bbox":[-68.28460600466053,2.2982883685800166,-67.56461381730116,2.728392665793954],"transform":{"scale":[0.00007200641937787446,0.0000430147311945132],"translate":[-68.28460600466053,2.2982883685800166]},"objects":{"municipios":{"type":"GeometryCollection","geometries":[{"type":"Polygon","arcs":[[0]],"properties":{"codigo":"94884202505000000101","sector":"948842025050000001","pcode":"CO94884","area_m2":97519}},{"type":"Polygon","arcs":[[1]],"properties":{"codigo":"94884202005002000101","sector":"948842020050020001","pcode":"CO94884","area_m2":33258}},{"type":"Polygon","arcs":[[2]],"properties":{"codigo":"94884201304003000101","sector":"948842013040030001","pcode":"CO94884","area_m2":87019}}]}},"arcs":[[[9955,9996],[6,2],[9,-9],[3,-10],[5,-13],[6,-7],[14,-48],[1,-13],[-6,0],[-1,7],[-10,12],[-7,-8],[-5,-2],[-2,4],[1,13],[-5,16],[-1,8],[-5,1],[1,7],[-13,3],[0,11],[-5,4],[0,18],[2,7],[12,-3]],[[0,19],[9,8],[5,9],[4,19],[8,2],[6,-2],[1,-8],[-3,-7],[-7,0],[4,-5],[-2,-14],[-6,-1],[2,-5],[0,-15],[-13,1],[-5,3],[1,12],[-4,3]],[[3590,9272],[1,18],[14,-1],[0,-5],[22,1],[10,1],[4,-4],[-4,-8],[1,-10],[-5,-17],[-3,-4],[-1,-8],[-7,-3],[-7,1],[-3,3],[-20,3],[-2,33]]]}
