{"type":"Topology","bbox":[-69.08999759519907,2.8680683180952977,-67.57458773361083,3.9602242695556638],"transform":{"scale":[0.0001515561417730012,0.00010922651779781638],"translate":[-69.08999759519907,2.8680683180952977]},"objects":{"municipios":{"type":"GeometryCollection","geometries":[{"type":"Polygon","arcs":[[0,1,2,3]],"properties":{"codigo":"94001100000000000102","sector":"940011000000000001","pcode":"CO94001","area_m2":150778}},{"type":"MultiPolygon","arcs":[[[4]],[[5]],[[6]]],"properties":{"codigo":"94001200501003000101","sector":"940012005010030001","pcode":"CO94001","area_m2":20841}},{"type":"Polygon","arcs":[[7]],"properties":{"codigo":"94001200501010000101","sector":"940012005010100001","pcode":"CO94001","area_m2":243122}},{"type":"Polygon","arcs":[[8,9,10,-3]],"properties":{"codigo":"94001100000000000103","sector":"940011000000000001","pcode":"CO94001","area_m2":105238}},{"type":"Polygon","arcs":[[11,12,13]],"properties":{"codigo":"94001100000000000106","sector":"940011000000000001","pcode":"CO94001","area_m2":310080}},{"type":"Polygon","arcs":[[14,15]],"properties":{"codigo":"94001100000000000207","sector":"940011000000000002","pcode":"CO94001","area_m2":153592}},{"type":"Polygon","arcs":[[16,17,-1,18]],"properties":{"codigo":"94001100000000000203","sector":"940011000000000002","pcode":"CO94001","area_m2":584333}},{"type":"Polygon","arcs":[[19]],"properties":{"codigo":"94001201302009000101","sector":"940012013020090001","pcode":"CO94001","area_m2":102858}},{"type":"Polygon","arcs":[[20]],"properties":{"codigo":"94001201106014000101","sector":"940012011060140001","pcode":"CO94001","area_m2":23150}},{"type":"Polygon","arcs":[[21]],"properties":{"codigo":"94001200501015000101","sector":"940012005010150001","pcode":"CO94001","area_m2":65317}},{"type":"Polygon","arcs":[[-12,22,23,-19,-4,-11,24,25,26]],"properties":{"codigo":"94001100000000000101","sector":"940011000000000001","pcode":"CO94001","area_m2":1719373}},{"type":"Polygon","arcs":[[-10,27,28,-25]],"properties":{"codigo":"94001100000000000104","sector":"940011000000000001","pcode":"CO94001","area_m2":306885}},{"type":"Polygon","arcs":[[29,-13,-27,30]],"properties":{"codigo":"94001100000000000105","sector":"940011000000000001","pcode":"CO94001","area_m2":802243}},{"type":"Polygon","arcs":[[31,32,-23,-14,-30,33]],"properties":{"codigo":"94001100000000000107","sector":"940011000000000001","pcode":"CO94001","area_m2":315910}},{"type":"Polygon","arcs":[[34,-32,35,36,37]],"properties":{"codigo":"94001100000000000108","sector":"940011000000000001","pcode":"CO94001","area_m2":134485}},{"type":"Polygon","arcs":[[38]],"properties":{"codigo":"94001201702011000101","sector":"940012017020110001","pcode":"CO94001","area_m2":54791}},{"type":"Polygon","arcs":[[-18,39,40,41,-9,-2]],"properties":{"codigo":"94001100000000000201","sector":"940011000000000002","pcode":"CO94001","area_m2":805691}},{"type":"Polygon","arcs":[[42,-28,-42]],"properties":{"codigo":"94001100000000000202","sector":"940011000000000002","pcode":"CO94001","area_m2":235658}},{"type":"Polygon","arcs":[[43]],"properties":{"codigo":"94001200501012000101","sector":"940012005010120001","pcode":"CO94001","area_m2":181981}},{"type":"Polygon","arcs":[[44,-40,-17,-24,-33,-35]],"properties":{"codigo":"94001100000000000204","sector":"940011000000000002","pcode":"CO94001","area_m2":2779907}},{"type":"Polygon","arcs":[[45]],"properties":{"codigo":"94001100000000000205","sector":"940011000000000002","pcode":"CO94001","area_m2":190543}},{"type":"MultiPolygon","arcs":[[[-15,46,-37,47]],[[48]]],"properties":{"codigo":"94001100000000000206","sector":"940011000000000002","pcode":"CO94001","area_m2":138946}},{"type":"MultiPolygon","arcs":[[[49]],[[50]],[[51]]],"properties":{"codigo":"94001201104013000101","sector":"940012011040130001","pcode":"CO94001","area_m2":66611}},{"type":"Polygon","arcs":[[52]],"properties":{"codigo":"94001202303016000101","sector":"940012023030160001","pcode":"CO94001","area_m2":44945}},{"type":"MultiPolygon","arcs":[[[53]],[[54]]],"properties":{"codigo":"94001202701017000101","sector":"940012027010170001","pcode":"CO94001","area_m2":96483}},{"type":"Polygon","arcs":[[55]],"properties":{"codigo":"94001203205018000101","sector":"940012032050180001","pcode":"CO94001","area_m2":167404}},{"type":"MultiPolygon","arcs":[[[56]],[[57]]],"properties":{"codigo":"94001201405019000101","sector":"940012014050190001","pcode":"CO94001","area_m2":81107}},{"type":"Polygon","arcs":[[58]],"properties":{"codigo":"94001201005020000101","sector":"940012010050200001","pcode":"CO94001","area_m2":50856}}]}},"arcs":[[[7702,9155],[0,-19],[-4,-10],[8,-3],[11,-7]],[[7717,9116],[0,-1],[-10,3],[-23,6]],[[7684,9124],[4,28],[3,23]],[[7691,9175],[11,-15],[0,-5]],[[7796,9495],[-1,-6],[1,-3],[-7,1],[1,6],[3,-1],[3,3]],[[7794,9480],[-2,-12],[-3,1],[3,11],[2,0]],[[7797,9509],[-3,-2],[-2,6],[3,3],[2,-7]],[[7860,9516],[2,-22],[-13,1],[-1,11],[-2,6],[-5,-1],[0,7],[-7,38],[21,7],[5,-47]],[[7684,9124],[-12,3]],[[7672,9127],[7,40]],[[7679,9167],[12,8]],[[7725,9225],[-3,-13],[-1,-2],[-20,-23],[-6,11],[6,9],[-7,7],[-1,-2],[-8,12],[-4,5],[0,6],[-1,6]],[[7680,9241],[9,6]],[[7689,9247],[7,-11],[6,8],[-2,4],[3,4],[10,-16],[4,4],[8,-15]],[[7736,9287],[15,19]],[[7751,9306],[5,6],[14,-30],[1,-4],[-10,-4],[-5,2],[-6,-2],[-1,2],[-4,-2],[-9,13]],[[7744,9140],[11,-8],[3,-1],[8,-6],[17,-10],[-7,-16],[-4,-14]],[[7772,9085],[-14,8],[-41,23]],[[7702,9155],[7,-2],[0,-3],[6,-2],[2,16],[6,-9],[4,-5],[13,-7],[4,-3]],[[9973,8005],[6,4],[2,-6],[3,6],[2,-3],[-1,-5],[5,4],[2,-3],[-3,-3],[0,-2],[4,-1],[4,3],[1,-9],[-8,-3],[0,-5],[-3,3],[0,-4],[-3,1],[-2,-5],[2,-1],[-3,-6],[-6,3],[1,3],[-1,4],[3,0],[2,5],[-2,0],[-4,8],[-2,9],[1,3]],[[6949,7390],[0,-1],[7,0],[-7,-7],[-2,1],[-2,-5],[-4,3],[-3,-1],[2,9],[9,1]],[[7970,9272],[3,-1],[0,3],[3,0],[7,-4],[8,-8],[-1,-2],[-7,5],[-2,-3],[2,-5],[-1,-2],[-5,1],[-3,-1],[2,-5],[3,1],[1,-4],[-6,-2],[-3,1],[-1,-3],[-1,10],[4,3],[-2,2],[-1,7],[-4,2],[1,7],[3,-2]],[[7725,9225],[4,14]],[[7729,9239],[10,-1],[15,-25],[-8,-45],[8,-2],[8,-1],[-2,-10],[-2,-10],[-3,-3],[-11,-2]],[[7679,9167],[-9,-5],[-5,0],[-2,2],[0,4],[-3,6],[-1,1],[1,-6],[-7,-11],[-7,3],[-19,0]],[[7627,9161],[5,12],[0,6],[-3,23],[-7,21]],[[7622,9223],[16,7],[8,7],[6,5],[8,1],[8,-4],[6,1],[4,6],[2,-5]],[[7672,9127],[-17,3],[-11,8],[-18,-2]],[[7626,9136],[-1,15],[2,10]],[[7705,9307],[-4,-10],[5,-6],[-5,-8],[0,-5],[-7,1],[-6,-12],[9,-14],[-8,-6]],[[7622,9223],[-6,18],[11,5],[9,6],[0,3],[-2,9],[2,3],[8,1],[0,11],[4,13],[8,-1],[6,10],[1,13],[7,1],[0,3],[8,4],[3,0],[0,3],[3,-1],[1,-4],[-4,-10],[2,-8],[-1,-8],[2,-6],[6,1],[3,5],[-1,7],[2,1],[0,6],[1,1],[8,0],[2,-2]],[[7725,9284],[-1,-2],[-5,2],[-8,7],[-2,-4],[2,-2],[1,-7],[0,-15],[5,-8],[14,-5]],[[7731,9250],[-2,-11]],[[7705,9307],[0,3],[2,13],[2,-2],[7,2],[-1,-17],[0,-7],[-2,-3],[1,-4],[2,-3],[9,-5]],[[7730,9277],[0,-7],[1,-20]],[[7725,9284],[2,4],[-5,4],[1,3]],[[7723,9295],[12,-9]],[[7735,9286],[-5,-9]],[[4128,5905],[-3,2],[-12,24],[2,2],[1,6],[6,1],[3,-6],[0,-10],[5,-17],[-2,-2]],[[7772,9085],[8,-8],[6,-11],[-6,-4]],[[7780,9062],[-1,4],[-5,-3],[-13,12],[-3,3],[-13,9],[-2,-1],[-13,2],[-4,-3],[-5,-2],[-8,-1],[-7,-5],[-3,1],[-4,-12],[-8,0],[2,-6],[-2,-2],[-10,-2],[0,3],[-8,4],[-1,-3],[-1,4],[1,3],[-9,-1],[0,4],[3,0],[0,5],[-2,5],[-3,-2],[1,5],[-4,5]],[[7658,9088],[9,0],[2,11],[2,17],[1,11]],[[7658,9088],[-3,1],[-1,6],[-3,6],[2,1],[-4,7],[-1,4],[-3,4],[-4,-1],[-1,6],[-7,0],[-4,5],[-3,9]],[[8318,9986],[-7,-1],[1,-3],[7,1],[0,-2],[-10,-2],[0,-1],[10,2],[0,-1],[-7,-2],[0,-1],[8,1],[2,-6],[-14,-2],[-4,-3],[-1,2],[-4,-1],[5,-8],[-6,-5],[-15,17],[3,3],[-1,5],[3,0],[1,6],[3,1],[6,5],[0,2],[7,6],[10,-3],[1,-5],[2,-5]],[[7730,9277],[3,-3],[2,0],[8,-24],[7,-23],[15,-26],[4,0],[1,-5],[5,-8],[-2,-6],[3,1],[3,-6],[2,1],[-2,11],[3,-5],[15,-23],[2,1],[3,-5],[-1,-3],[5,-35],[19,-122],[8,-66],[-5,-2],[-2,-8],[5,-6],[0,-5],[-8,-6],[-3,-8],[-4,-5],[-3,-7],[-3,-6],[-1,-1],[-7,8],[-3,5],[-5,3],[-12,-3],[-7,10],[-9,4],[4,7],[0,3],[5,20],[4,6],[-3,10],[2,1],[0,19],[-1,2],[-2,14],[1,5],[4,9],[3,1],[8,-2],[3,5],[-5,13],[-2,1],[-4,13],[-2,11],[-1,20]],[[7813,9314],[2,0],[8,-20],[-4,0],[-3,4],[-6,-2],[-2,5],[-9,-5],[-14,38],[13,9],[3,4],[12,-33]],[[7736,9287],[-1,-1]],[[7723,9295],[-3,3],[-1,4],[3,5],[-1,2],[4,5],[3,1],[6,-3],[1,5],[-2,2],[1,4],[3,2],[4,-6],[10,-13]],[[7762,9320],[-2,-3],[-2,3],[7,6],[1,-3],[-4,-3]],[[6141,7146],[2,-6],[5,-5],[-1,-4],[-8,3],[-4,0],[-10,3],[3,5],[-2,7],[4,1],[1,-4],[6,3],[-3,7],[2,3],[-2,5],[3,0],[1,-6],[-1,-3],[4,-9]],[[6151,7151],[0,0]],[[6154,7164],[-2,-10],[-2,0],[2,7],[-4,-1],[2,5],[4,-1]],[[5,30],[0,-8],[6,2],[-1,-3],[2,-5],[-2,-7],[3,-1],[-1,-4],[-5,1],[-2,-5],[-1,4],[-4,4],[1,10],[3,14],[1,-2]],[[2039,862],[0,0]],[[2053,915],[1,1],[5,-7],[-2,-9],[-5,-3],[-6,5],[0,3],[-4,-3],[4,-10],[3,1],[3,-4],[-1,-3],[-7,-6],[-1,-8],[0,-8],[-3,2],[-3,0],[0,8],[1,9],[3,3],[-3,11],[0,6],[7,4],[7,10],[1,-2]],[[5737,3139],[1,2],[4,-4],[5,1],[1,-10],[4,-1],[1,-9],[-5,-6],[-3,6],[-5,-6],[0,-4],[-10,-2],[-1,3],[-3,2],[-2,6],[5,5],[-4,11],[-2,-2],[3,9],[-3,6],[2,5],[6,4],[3,-4],[-2,-2],[2,-9],[3,-1]],[[7437,5568],[3,-10],[2,2],[5,-34],[-5,0],[0,4],[-5,-1],[-2,3],[1,8],[-5,22],[4,2],[0,3],[2,1]],[[7433,5570],[-3,-2],[-2,8],[3,2],[2,-8]],[[5052,7541],[5,-3],[1,2],[4,-3],[0,-3],[5,-3],[-1,-2],[4,-4],[-2,-7],[-8,3],[-3,5],[-3,-2],[-2,7],[-3,4],[3,6]]]}
