{"type":"Topology","bbox":[-66.96506363330627,1.6311079345406418,-66.96208692669626,1.6339052672082912],"transform":{"scale":[2.9770043104445245e-7,2.7976124288922553e-7],"translate":[-66.96506363330627,1.6311079345406418]},"objects":{"municipios":{"type":"GeometryCollection","geometries":[{"type":"Polygon","arcs":[[0]],"properties":{"codigo":"94885200101000000101","sector":"948852001010000001","pcode":"CO94885","area_m2":44404}}]}},"arcs":[[[4027,8834],[681,409],[4986,-4293],[-474,-2070],[-1054,2458],[-2502,-2522],[416,-1244],[-1660,-1572],[-4420,3952],[2249,2126],[-451,489],[2229,2267]]]}
