{"type":"Topology","bbox":[-72.27698338264634,1.132398187989349,-71.56611118588177,1.5495429797353713],"transform":{"scale":[0.00007109432910936786,0.0000417186510397062],"translate":[-72.27698338264634,1.132398187989349]},"objects":{"municipios":{"type":"GeometryCollection","geometries":[{"type":"Polygon","arcs":[[0]],"properties":{"codigo":"95200201202015000101","sector":"952002012020150001","pcode":"CO95200","area_m2":47728}},{"type":"Polygon","arcs":[[1]],"properties":{"codigo":"95200201205016000101","sector":"952002012050160001","pcode":"CO95200","area_m2":42376}},{"type":"Polygon","arcs":[[2]],"properties":{"codigo":"95200201808006000101","sector":"952002018080060001","pcode":"CO95200","area_m2":111654}},{"type":"Polygon","arcs":[[3]],"properties":{"codigo":"95200201104005000101","sector":"952002011040050001","pcode":"CO95200","area_m2":23516}},{"type":"Polygon","arcs":[[4]],"properties":{"codigo":"95200201002004000101","sector":"952002010020040001","pcode":"CO95200","area_m2":88411}},{"type":"Polygon","arcs":[[5,6,7]],"properties":{"codigo":"95200100000000000101","sector":"952001000000000001","pcode":"CO95200","area_m2":330655}},{"type":"Polygon","arcs":[[8,-7,9]],"properties":{"codigo":"95200100000000000102","sector":"952001000000000001","pcode":"CO95200","area_m2":260636}},{"type":"Polygon","arcs":[[-10,-6,10]],"properties":{"codigo":"95200100000000000103","sector":"952001000000000001","pcode":"CO95200","area_m2":286836}},{"type":"Polygon","arcs":[[11]],"properties":{"codigo":"95200201201001000101","sector":"952002012010010001","pcode":"CO95200","area_m2":157008}},{"type":"Polygon","arcs":[[12]],"properties":{"codigo":"95200201805002000101","sector":"952002018050020001","pcode":"CO95200","area_m2":191432}},{"type":"Polygon","arcs":[[13]],"properties":{"codigo":"95200201204003000101","sector":"952002012040030001","pcode":"CO95200","area_m2":22810}},{"type":"Polygon","arcs":[[14]],"properties":{"codigo":"95200201805009000101","sector":"952002018050090001","pcode":"CO95200","area_m2":33593}},{"type":"Polygon","arcs":[[15]],"properties":{"codigo":"95200202002010000101","sector":"952002020020100001","pcode":"CO95200","area_m2":26798}},{"type":"Polygon","arcs":[[16]],"properties":{"codigo":"95200201001014000101","sector":"952002010010140001","pcode":"CO95200","area_m2":20362}}]}},"arcs":[[[13,6541],[14,-12],[1,-14],[14,-23],[-5,-13],[-6,8],[-9,-10],[-9,13],[-7,22],[4,30],[3,-1]],[[1207,6006],[1,-25],[13,-7],[-8,-24],[-9,6],[-9,-1],[4,44],[-12,7],[14,11],[19,9],[5,-7],[-18,-13]],[[6180,1669],[5,-1],[18,-44],[4,5],[7,-19],[2,-16],[-21,-18],[-10,35],[-26,61],[-15,21],[10,26],[18,-26],[-3,-6],[11,-18]],[[3605,9999],[11,-18],[-6,-20],[-18,14],[-2,19],[15,5]],[[5373,7386],[21,-7],[-9,-24],[-4,3],[-5,-33],[-20,-10],[-4,-19],[6,-4],[-3,-13],[-14,11],[6,28],[1,26],[6,11],[10,36],[9,-5]],[[4590,5059],[-6,-35],[-6,-56],[-10,-75]],[[4568,4893],[-5,-38],[-9,-51],[-5,3],[-5,-29]],[[4544,4778],[-6,2],[0,30],[-13,0],[9,53],[2,26],[10,56],[-9,24],[14,12],[8,-1],[7,52],[-7,9],[2,27],[16,-6],[5,14],[12,9],[5,33],[30,-6],[-3,-40],[-33,9],[-3,-22]],[[4664,4881],[0,-34],[-27,2],[-8,-21],[11,-5],[-12,-13],[-9,-17],[-16,8],[2,21],[6,-1],[8,21],[-4,7],[-12,2],[-9,-29],[-16,-11],[-11,-12],[-1,-16],[-14,2],[-8,-7]],[[4568,4893],[31,-2],[64,-3],[1,-7]],[[4590,5059],[23,-10],[-6,-43],[-18,15],[4,-20],[-4,-6],[4,-13],[-5,-10],[21,-4],[16,-10],[5,-36],[-1,-17],[14,3],[1,-6],[10,-1],[7,16],[-10,24],[3,11],[6,0],[5,10],[0,-14],[8,0],[-1,-24],[6,-1],[5,-14],[2,-30],[-4,-12],[-17,14]],[[420,9563],[-2,-59],[14,-4],[-2,-42],[-14,11],[-1,-31],[-9,-1],[0,-22],[-14,22],[5,24],[-1,24],[-10,-1],[-1,69],[13,8],[13,-1],[0,18],[9,-1],[0,-14]],[[4383,1937],[33,-30],[20,-10],[-2,-25],[-26,15],[-4,-16],[-15,22],[-5,-8],[-5,7],[-7,-8],[0,-9],[16,-24],[-4,-12],[-9,17],[3,7],[-9,9],[-18,-44],[-5,0],[0,21],[-7,12],[-7,25],[13,-33],[12,40],[-24,34],[-3,24],[6,0],[2,-15],[21,7],[3,13],[21,-19]],[[1410,6805],[1,-9],[-4,-25],[-18,10],[-2,7],[6,19],[8,5],[9,-7]],[[4061,2572],[9,-8],[11,3],[5,-13],[0,-14],[-9,-4],[3,-11],[-15,-3],[4,20],[-16,13],[2,14],[6,3]],[[9978,51],[6,-1],[15,-21],[-1,-15],[-6,-14],[-19,19],[6,13],[-5,11],[4,8]],[[5510,9390],[3,-10],[7,2],[1,-25],[-11,-2],[-6,14],[-3,29],[6,4],[3,-12]]]}
