{"type":"Topology","bbox":[-71.00945328401139,-0.0035594513048531106,-70.508488557671,0.023302253339611015],"transform":{"scale":[0.00005010148278231672,0.0000026864391083572482],"translate":[-71.00945328401139,-0.0035594513048531106]},"objects":{"municipios":{"type":"GeometryCollection","geometries":[{"type":"Polygon","arcs":[[0]],"properties":{"codigo":"97511202005001000101","sector":"975112020050010001","pcode":"CO97511","area_m2":45400}},{"type":"Polygon","arcs":[[1]],"properties":{"codigo":"97511201502000000101","sector":"975112015020000001","pcode":"CO97511","area_m2":195773}}]}},"arcs":[[[9962,1194],[-1,-174],[14,-98],[-4,-538],[-5,363],[-13,17],[-3,-319],[-24,197],[15,207],[-21,1],[4,246],[32,-58],[6,156]],[[146,9999],[8,-239],[3,-431],[-5,-730],[-22,-209],[-35,-39],[-18,216],[-12,352],[-13,96],[-48,-799],[-4,74],[47,768],[6,433],[20,363],[15,-475],[16,-3],[44,213],[-2,410]]]}
