{"type":"Topology","bbox":[-71.3186688498198,1.0099166111514886,-71.29083473337585,1.0232456928049198],"transform":{"scale":[0.0000027836900133968678,0.0000013330414694900765],"translate":[-71.3186688498198,1.0099166111514886]},"objects":{"municipios":{"type":"GeometryCollection","geometries":[{"type":"Polygon","arcs":[[0]],"properties":{"codigo":"97161100000000000101","sector":"971611000000000001","pcode":"CO97161","area_m2":887092}}]}},"arcs":[[[997,8304],[172,-100],[247,35],[355,121],[273,-133],[252,-217],[337,-431],[-146,611],[109,108],[179,18],[163,-119],[254,72],[301,564],[379,97],[198,-173],[133,-316],[219,-732],[14,-222],[-159,-790],[-304,-151],[-195,-341],[-128,-36],[-148,166],[-86,-66],[419,-563],[538,-622],[189,-188],[343,-267],[514,-480],[72,110],[209,-58],[670,-428],[127,920],[424,-65],[167,219],[56,346],[250,46],[230,-46],[282,-119],[346,-322],[118,-166],[317,43],[123,-146],[137,-343],[116,-128],[94,-193],[204,-260],[40,-276],[-54,-222],[21,-250],[267,-442],[-102,-916],[235,-126],[225,-221],[-63,-645],[69,-249],[-15,-212],[-200,129],[-65,112],[-497,287],[-149,136],[-321,198],[-100,145],[4,203],[-135,-176],[-238,276],[-81,-15],[-207,143],[-246,252],[-93,-27],[-70,132],[-182,74],[-48,110],[-243,78],[-98,169],[-131,-47],[-135,197],[-130,83],[-132,-9],[-748,555],[-120,5],[-297,280],[-341,205],[-149,253],[-120,11],[-20,156],[-182,156],[-31,172],[-131,199],[-271,103],[-77,183],[-287,398],[-77,237],[-146,248],[-253,215],[-251,359],[-449,443],[-254,394],[-100,242],[-182,199],[-399,372],[-210,70],[-108,193],[-336,59],[-309,-93],[-263,-22],[-139,-93],[-63,194],[-174,1281],[277,80],[-29,294],[468,201],[8,-1213],[268,-4],[5,-478]]]}
