{"type":"Topology","bbox":[-69.64344387004559,-0.571108619883869,-69.63121384028847,-0.5589923546620329],"transform":{"scale":[0.0000012231252882408306,0.0000012117476969533017],"translate":[-69.64344387004559,-0.571108619883869]},"objects":{"municipios":{"type":"GeometryCollection","geometries":[{"type":"Polygon","arcs":[[0]],"properties":{"codigo":"97666100000000000101","sector":"976661000000000001","pcode":"CO97666","area_m2":404142}}]}},"arcs":[[[8488,7591],[23,-259],[114,-92],[327,-119],[56,24],[123,179],[-27,154],[17,298],[148,234],[41,221],[363,-88],[-27,-342],[-196,-640],[-46,-216],[-227,66],[-198,95],[-250,-522],[274,88],[-49,-300],[3,-164],[50,-209],[241,-167],[296,-70],[11,-521],[399,-162],[45,-162],[-629,-571],[-125,-191],[-84,-227],[-16,-249],[-360,87],[-65,-120],[-113,-55],[-813,-607],[-476,757],[-6857,-3741],[-461,831],[7816,3939],[-55,189],[-399,-54],[-208,71],[-126,178],[-204,-80],[-308,-232],[-178,-38],[-322,74],[-511,-67],[-255,315],[-22,138],[-42,784],[994,258],[-436,225],[806,15],[-4,952],[139,-6],[27,161],[222,1706],[1375,640],[179,-2408]]]}
