{"type":"Topology","bbox":[-69.20532981995024,0.6078371572404727,-69.20185005009199,0.6100826561860231],"transform":{"scale":[3.4801178700321664e-7,2.245723517902163e-7],"translate":[-69.20532981995024,0.6078371572404727]},"objects":{"municipios":{"type":"GeometryCollection","geometries":[{"type":"Polygon","arcs":[[0]],"properties":{"codigo":"97889200603000000101","sector":"978892006030000001","pcode":"CO97889","area_m2":55239}}]}},"arcs":[[[6970,9889],[2012,-101],[1017,-2908],[-1066,-2821],[-213,-2027],[-596,-693],[-990,1136],[-273,-2475],[-1655,184],[8,2174],[-5214,3827],[825,2929],[2591,-1388],[1993,2103],[1561,60]]]}
