{"type":"Topology","bbox":[-71.04188583514355,4.848369917558985,-70.84745255491259,5.146057724710001],"transform":{"scale":[0.000019445272550350355,0.000029771757890890695],"translate":[-71.04188583514355,4.848369917558985]},"objects":{"municipios":{"type":"GeometryCollection","geometries":[{"type":"Polygon","arcs":[[0,1,2]],"properties":{"codigo":"99624100000000000101","sector":"996241000000000001","pcode":"CO99624","area_m2":480463}},{"type":"Polygon","arcs":[[3,4,-2]],"properties":{"codigo":"99624100000000000102","sector":"996241000000000001","pcode":"CO99624","area_m2":592937}},{"type":"Polygon","arcs":[[-4,-1,5]],"properties":{"codigo":"99624100000000000103","sector":"996241000000000001","pcode":"CO99624","area_m2":577702}},{"type":"Polygon","arcs":[[6]],"properties":{"codigo":"99624200401001000101","sector":"996242004010010001","pcode":"CO99624","area_m2":200982}}]}},"arcs":[[[9577,9815],[-170,-75]],[[9407,9740],[-34,31],[-28,-13],[-22,23]],[[9323,9781],[-3,6],[-101,98],[-11,13],[30,20],[54,18],[39,3],[38,28],[10,-31],[151,42],[45,21],[8,-6],[-35,-24],[35,-32],[62,19],[32,-34],[31,-38],[-118,-49],[10,-11],[-23,-9]],[[9407,9740],[-106,-44],[-48,-22],[-12,-21],[37,-16],[98,-26],[117,-14],[4,-36],[-27,-35]],[[9470,9526],[-50,-10],[-99,-11],[-148,33],[-15,-17],[-52,-28],[-81,-48],[-37,28],[-203,-115],[-21,-6],[-34,23],[28,21],[-43,26],[17,10],[-14,12],[23,10],[39,-26],[269,144],[-19,19],[52,12],[15,-11],[30,20],[29,11],[0,18],[81,66],[-5,2],[91,72]],[[9577,9815],[112,-142],[-64,-88],[-19,-42],[60,-9],[49,-18],[114,-36],[11,28],[49,-11],[-9,-27],[38,-8],[-12,-23],[44,-16],[49,-52],[-14,-4],[-46,52],[-68,18],[-210,61],[-68,8],[-106,22],[-17,-2]],[[336,284],[-69,-74],[24,-10],[-34,-37],[-25,10],[-80,-90],[-76,-78],[-32,13],[-44,-16],[90,90],[59,70],[-43,25],[-4,13],[23,6],[26,25],[45,25],[6,11],[27,13],[59,18],[12,8],[43,-10],[-7,-12]]]}
