{"type":"Topology","bbox":[-68.78307292563363,5.479810774081276,-67.47074615537844,6.202580301164201],"transform":{"scale":[0.00013124580160568027,0.00007228418112640518],"translate":[-68.78307292563363,5.479810774081276]},"objects":{"municipios":{"type":"GeometryCollection","geometries":[{"type":"Polygon","arcs":[[0,1,2,3]],"properties":{"codigo":"99001100000000000303","sector":"990011000000000003","pcode":"CO99001","area_m2":187532}},{"type":"Polygon","arcs":[[4,5,6,7,8,9]],"properties":{"codigo":"99001100000000000104","sector":"990011000000000001","pcode":"CO99001","area_m2":567998}},{"type":"Polygon","arcs":[[10,11,-4,12,13,14]],"properties":{"codigo":"99001100000000000207","sector":"990011000000000002","pcode":"CO99001","area_m2":266939}},{"type":"Polygon","arcs":[[15,-8,16]],"properties":{"codigo":"99001100000000000106","sector":"990011000000000001","pcode":"CO99001","area_m2":66272}},{"type":"Polygon","arcs":[[17,18,19,20,-17]],"properties":{"codigo":"99001100000000000107","sector":"990011000000000001","pcode":"CO99001","area_m2":86204}},{"type":"Polygon","arcs":[[21,22,23,-14]],"properties":{"codigo":"99001100000000000302","sector":"990011000000000003","pcode":"CO99001","area_m2":90005}},{"type":"Polygon","arcs":[[24,25,26]],"properties":{"codigo":"99001100000000000202","sector":"990011000000000002","pcode":"CO99001","area_m2":134672}},{"type":"Polygon","arcs":[[-26,27,28,29]],"properties":{"codigo":"99001100000000000203","sector":"990011000000000002","pcode":"CO99001","area_m2":50931}},{"type":"Polygon","arcs":[[30,-29,31,32,33,34,35,-11,36,-19]],"properties":{"codigo":"99001100000000000204","sector":"990011000000000002","pcode":"CO99001","area_m2":1177502}},{"type":"Polygon","arcs":[[37,38,-33]],"properties":{"codigo":"99001100000000000205","sector":"990011000000000002","pcode":"CO99001","area_m2":240555}},{"type":"Polygon","arcs":[[-15,-24,39,-20,-37]],"properties":{"codigo":"99001100000000000208","sector":"990011000000000002","pcode":"CO99001","area_m2":107340}},{"type":"Polygon","arcs":[[40,41]],"properties":{"codigo":"99001201801002000101","sector":"990012018010020001","pcode":"CO99001","area_m2":220524}},{"type":"Polygon","arcs":[[-41,42]],"properties":{"codigo":"99001201801002000102","sector":"990012018010020001","pcode":"CO99001","area_m2":139037}},{"type":"Polygon","arcs":[[43]],"properties":{"codigo":"99001201802005000101","sector":"990012018020050001","pcode":"CO99001","area_m2":22527}},{"type":"Polygon","arcs":[[44]],"properties":{"codigo":"99001200201007000101","sector":"990012002010070001","pcode":"CO99001","area_m2":27582}},{"type":"Polygon","arcs":[[45,-22,-13,-3,46]],"properties":{"codigo":"99001100000000000301","sector":"990011000000000003","pcode":"CO99001","area_m2":304123}},{"type":"Polygon","arcs":[[-9,-16,47,48,49]],"properties":{"codigo":"99001100000000000105","sector":"990011000000000001","pcode":"CO99001","area_m2":213001}},{"type":"Polygon","arcs":[[50,51,-27,52,53,-6]],"properties":{"codigo":"99001100000000000101","sector":"990011000000000001","pcode":"CO99001","area_m2":535805}},{"type":"Polygon","arcs":[[-53,-30,-31,54]],"properties":{"codigo":"99001100000000000102","sector":"990011000000000001","pcode":"CO99001","area_m2":107952}},{"type":"Polygon","arcs":[[-55,-18,-7,-54]],"properties":{"codigo":"99001100000000000103","sector":"990011000000000001","pcode":"CO99001","area_m2":108400}},{"type":"Polygon","arcs":[[-48,-21,-40,-23,-46,55]],"properties":{"codigo":"99001100000000000108","sector":"990011000000000001","pcode":"CO99001","area_m2":177538}},{"type":"Polygon","arcs":[[-10,-50,56]],"properties":{"codigo":"99001100000000000110","sector":"990011000000000001","pcode":"CO99001","area_m2":517013}},{"type":"Polygon","arcs":[[57,58,-38,-32,-28,-25,-52]],"properties":{"codigo":"99001100000000000201","sector":"990011000000000002","pcode":"CO99001","area_m2":855806}},{"type":"Polygon","arcs":[[-59,59,-34,-39]],"properties":{"codigo":"99001100000000000206","sector":"990011000000000002","pcode":"CO99001","area_m2":929753}},{"type":"Polygon","arcs":[[-36,60,-1,-12]],"properties":{"codigo":"99001100000000000304","sector":"990011000000000003","pcode":"CO99001","area_m2":423049}},{"type":"Polygon","arcs":[[61]],"properties":{"codigo":"99001200101001000101","sector":"990012001010010001","pcode":"CO99001","area_m2":401612}},{"type":"Polygon","arcs":[[62]],"properties":{"codigo":"99001200201003000101","sector":"990012002010030001","pcode":"CO99001","area_m2":197175}},{"type":"Polygon","arcs":[[63]],"properties":{"codigo":"99001200201004000101","sector":"990012002010040001","pcode":"CO99001","area_m2":401393}},{"type":"Polygon","arcs":[[64]],"properties":{"codigo":"99001200405006000101","sector":"990012004050060001","pcode":"CO99001","area_m2":16487}}]}},"arcs":[[[9790,9774],[-20,-5],[-1,0],[-3,-1],[-3,-2],[-4,-1],[-1,0],[-8,-2]],[[9750,9763],[-1,13],[28,5],[0,5],[2,0],[-2,26],[-4,0],[0,-7],[-3,0],[-1,-1],[-2,0],[0,15],[11,1]],[[9778,9820],[9,1],[16,2]],[[9803,9823],[-1,-31],[-1,-14],[-11,-4]],[[9958,9922],[2,-11],[17,-73],[8,-22]],[[9985,9816],[-3,-1],[-2,0],[-3,2],[-2,0],[-1,1],[-5,2],[-2,0],[-5,4],[-3,3],[-1,0],[1,4],[0,1],[-10,8],[-6,5],[-1,1],[-2,2],[-3,1],[-5,1],[-1,2],[0,8],[0,1],[-1,0],[-5,0],[-3,0],[0,-2]],[[9922,9859],[-12,6],[-10,2]],[[9900,9867],[1,27]],[[9901,9894],[0,12],[18,-5],[1,0],[1,15]],[[9921,9916],[1,12],[16,-5],[2,1],[2,0],[4,-1],[4,1],[3,-2],[3,-1],[2,1]],[[9836,9786],[-45,-46]],[[9791,9740],[-1,34]],[[9803,9823],[13,1]],[[9816,9824],[21,3]],[[9837,9827],[-1,-41]],[[9879,9868],[1,27],[14,-1],[1,0],[6,0]],[[9900,9867],[0,-1],[-6,0],[0,1],[-15,1]],[[9900,9867],[-1,-36]],[[9899,9831],[-19,2],[-1,0]],[[9879,9833],[-1,0]],[[9878,9833],[0,1],[1,34]],[[9816,9824],[0,13],[1,14],[6,0],[1,-1],[17,-2],[10,-1]],[[9851,9847],[-1,-18]],[[9850,9829],[-13,-2]],[[9954,9760],[0,-1],[-11,-11],[1,-4],[-2,-5],[-1,-7],[-1,1],[-7,3],[-5,4],[-2,5],[-3,2],[-12,7]],[[9911,9754],[5,30]],[[9916,9784],[10,-7],[1,-1],[9,-6],[3,0],[3,0],[8,-5],[3,-1],[1,-4]],[[9911,9754],[-13,8]],[[9898,9762],[5,30]],[[9903,9792],[13,-8]],[[9899,9831],[-1,-13],[-1,-5],[-5,-14],[11,-7]],[[9898,9762],[-3,-16]],[[9895,9746],[-16,9],[-8,5],[-14,-16],[-2,-3]],[[9855,9741],[-34,-38],[-15,-16],[2,-5],[-1,-18],[-2,-28],[0,-6],[0,-1]],[[9805,9629],[0,-2],[0,-5],[0,-1],[-3,-2],[-3,-1],[-4,-3],[0,-1],[-2,-1],[-2,-5],[0,-2],[-3,1],[-1,3],[0,3],[-3,-2],[-2,-3],[-6,3],[1,1],[0,6],[0,1],[2,2],[0,1],[2,2],[-1,4],[2,2],[2,1],[1,-2],[0,2],[-1,13],[-1,0],[-1,10],[-1,16],[-1,9],[-1,3],[-3,6],[-2,7]],[[9774,9695],[-8,20],[25,25]],[[9836,9786],[35,36],[8,8],[0,3]],[[9895,9746],[-8,-44],[-1,-3]],[[9886,9699],[0,-2],[-6,-32],[-2,0],[-2,-2],[-3,2],[1,9],[0,2],[-2,-4],[-1,-2],[-3,-4],[-1,-2],[-5,-2],[-1,-2],[-2,-1],[-1,3],[0,4],[1,3],[1,5],[0,2],[-1,4],[8,10],[1,5],[2,11],[1,8],[1,5],[-6,4],[1,4],[1,6],[-11,7],[-2,1]],[[9850,9829],[13,2],[2,0],[13,2]],[[8665,2771],[7,11],[3,3],[4,5],[3,5],[4,7],[3,2],[-3,5],[-4,4],[-2,2],[0,2],[2,4],[1,3],[2,3],[1,0],[3,3],[2,4],[4,-3],[2,-1],[2,1],[3,0],[3,3],[4,0]],[[8709,2834],[1,-5],[1,-3],[0,-5],[1,0],[1,-2],[0,-8],[-1,-4],[-1,-9],[0,-5],[-1,-7],[0,-3],[-1,-1],[-2,-7],[-1,-2],[-2,-3],[-1,2],[-1,-1],[-1,0],[-4,-10],[-2,-4],[-4,4],[-1,4],[-1,1],[-1,4],[-3,-1],[-1,0],[-5,0],[0,6],[5,0],[-1,3],[-2,4],[-3,3],[-2,-4],[-3,-2],[-3,-3],[-3,-8],[-2,3]],[[8665,2771],[-1,5],[-1,1],[3,6],[2,3],[4,0],[2,3],[1,6],[1,3],[0,1],[1,5],[-4,-1],[-1,2],[-2,6],[-5,0],[-1,11],[1,6],[1,-1],[2,3],[1,-2],[-1,-3],[4,-4],[1,2],[1,7],[0,5],[5,2],[3,-2],[2,-2],[2,3],[-1,1],[1,8],[0,6],[1,3],[4,-2],[3,-1],[1,2],[4,2],[2,0],[3,-1],[2,-2],[2,-4],[1,-3],[0,-4],[0,-7]],[[8757,18],[1,-7],[5,5],[1,-2],[1,1],[1,-3],[-1,-4],[1,-2],[-3,-2],[0,-1],[-2,-2],[-1,1],[-2,-2],[-1,4],[-3,0],[-1,0],[-3,9],[4,4],[-3,4],[2,4],[2,-4],[2,-3]],[[2980,9358],[2,9],[11,-8],[-5,-19],[-10,8],[2,10]],[[9851,9871],[0,-24]],[[9778,9820],[3,13],[1,6],[2,23],[0,4],[8,4],[-1,11],[2,-2],[1,-3],[1,0],[3,1],[7,-2],[1,-5],[5,0],[1,-2],[3,-1],[0,11],[2,0],[1,13],[4,-5],[0,-13],[2,0],[1,2],[1,0],[0,-3],[25,-1]],[[9879,9868],[-8,1],[-5,14],[-1,2],[-3,11],[-2,4],[0,3]],[[9860,9903],[1,0],[2,15],[1,8],[1,0],[2,3],[1,1],[1,3],[0,5],[1,0]],[[9870,9938],[2,-2],[1,1],[2,2],[2,0],[1,-6],[1,-1],[4,-1],[-1,-16],[3,1],[16,-2],[2,3],[11,6],[7,-7]],[[9985,9816],[1,1],[1,1],[2,-2],[1,-3],[2,-5],[3,-4],[4,-6],[-4,-10],[-2,-3],[-1,-2],[-2,-6],[-2,-4],[-3,-7],[-1,-2],[-2,-5]],[[9982,9759],[-2,0],[-1,4],[-1,7],[0,4],[0,3],[-2,2],[-2,-1],[-1,-3],[-2,-2],[-1,-2],[-2,-2],[-4,-1],[-2,-1],[-2,-1],[-3,-2],[-3,-4]],[[9916,9784],[8,40],[1,2],[0,7]],[[9925,9833],[-1,13],[-2,13]],[[9899,9831],[1,0],[8,-6],[4,-5],[3,-6],[3,12],[3,7],[4,0]],[[9851,9871],[1,0],[0,13],[0,4],[1,5],[0,5],[-1,3],[1,1],[4,2],[3,0],[0,-1]],[[9870,9938],[0,5],[0,3],[2,3],[2,5],[-1,2],[12,8],[0,-2],[0,1],[5,2],[1,2],[3,1],[1,2],[3,1],[1,1],[20,15],[8,9],[0,3],[6,-8],[1,-1],[3,4],[2,0],[1,-1],[4,-13],[5,-21],[9,-37]],[[9982,9759],[-1,-2],[-3,-9],[-5,-13],[-1,-2],[-6,-16],[-3,-11],[-3,-10],[-1,-4],[-2,-13],[-1,-3],[-2,-2],[-1,2],[0,-5],[0,-6],[-2,-4],[0,-2],[-1,-3],[-1,-1],[-2,1],[-1,4],[-1,0],[1,-5],[0,-3],[-2,-3],[-2,-2],[-1,-1],[-2,-2],[-2,-3],[-2,-1],[-2,-3],[-6,-9],[-2,-2],[-3,-1],[-4,-4],[-1,-2]],[[9917,9619],[1,5],[3,8],[3,4],[4,8],[3,5],[2,3],[1,5],[2,4],[-3,-2],[-2,-2],[-1,0],[-2,-1],[-1,-4],[0,-2],[-5,-7],[-2,-1],[-6,-7],[-3,-1],[-4,0],[-2,4],[-3,-1],[0,1],[0,6],[1,5],[6,7],[0,2],[1,6],[0,2],[2,2],[7,7],[0,1],[0,2],[-1,2],[-9,-1],[-5,0],[-3,2],[-1,3],[-1,5],[-2,6],[-2,2],[-6,0],[-1,0],[-2,2]],[[9917,9619],[-3,-4],[-4,-3],[0,1],[-2,-3],[-3,-3],[-3,-1],[-5,-5],[-4,-6],[-9,-8],[-2,-1],[-3,-2],[-2,-1],[-1,-2],[-8,64],[-5,7],[-3,-1],[0,4],[-3,0],[1,3],[-1,0],[-2,-1],[-2,0],[-3,2],[-1,1],[0,6],[1,2],[-1,1],[-2,0],[0,-2],[-1,0],[-3,1],[0,2],[1,3],[0,1],[-1,0],[-3,-2],[-2,-3],[1,-4],[-3,0],[0,-1],[0,-3],[-1,-4],[-1,0],[-1,-3],[-2,-3],[0,-3],[0,-1],[-3,-3],[-2,0],[-3,-3],[-1,-4],[-2,-6],[-1,-1],[-2,0],[-2,-2],[-2,-3],[-4,1],[-4,3]],[[9774,9695],[-3,0],[-11,-8],[-5,-3],[0,-2],[-3,-2],[-2,-6],[-2,-2],[-2,0],[-1,-2],[-2,1],[-14,12],[-1,-1],[-2,0],[0,-7],[-5,-1],[-1,1],[-1,10],[1,1],[-1,5],[4,1],[-1,11],[5,6],[15,16],[3,3],[10,14],[-5,14],[0,2],[0,5]],[[47,9235],[2,-1],[4,-3],[4,-3],[6,-1],[-1,-4],[-1,-11],[-1,-6],[-2,-6],[-2,-4],[-2,-6],[-4,-4],[-2,-2],[-2,-7],[-1,-2],[-2,-6],[-1,-4],[-2,-1],[0,-2],[-1,-3],[-2,0],[-1,-3],[-3,-2],[-1,-5],[-2,-4],[-3,-2],[-5,-6],[-3,-7],[-3,-5],[-3,-8],[-3,-4],[0,-3],[-2,-5],[-2,0],[-2,4],[-1,3],[0,3],[0,4],[0,2],[6,27],[2,6],[-3,4],[3,6],[-4,-2],[-4,3],[-3,0],[4,2],[-1,3],[1,2],[-2,5],[4,7],[3,-3],[4,7],[3,7],[2,8],[-1,7],[11,0],[9,0],[0,3],[1,2],[-1,8],[-3,14],[1,0],[2,-2],[1,1],[6,2],[2,0],[1,-3]],[[2232,9514],[0,-4],[3,-3],[2,0],[1,4],[1,-2],[0,-4],[1,-1],[1,-1],[4,-6],[-3,-13],[-2,-2],[0,-1],[0,-6],[0,-3],[0,-6],[0,-3],[1,-5],[-1,-6],[1,-2],[-1,-3],[-2,-2],[-1,-5],[0,-4],[1,-4],[1,-6],[-1,-10],[-2,6],[0,-4],[-3,-3],[-3,12],[0,4],[-2,3],[-4,2],[-1,3],[-2,5],[2,2],[2,3],[0,2],[-1,3],[-1,6],[-1,18],[-1,2],[0,7],[-1,5],[-3,0],[-4,-1],[-1,4],[1,1],[1,2],[-1,2],[0,3],[1,1],[0,2],[3,0],[-1,2],[4,1],[0,4],[7,0],[0,1],[5,0]],[[2980,9616],[1,0],[6,0],[6,2],[2,-5],[2,0],[2,-1],[1,1],[1,-2],[2,0],[-1,-12],[-1,-5],[-2,1],[-1,-20],[-8,2],[-2,1],[-5,1],[-1,2],[-4,-1],[-3,0],[1,-1],[-2,-11],[-4,0],[-4,-2],[-2,-7],[-1,-2],[-1,0],[-2,-4],[-1,-10],[-2,2],[-1,-2],[-8,0],[-9,-9],[-2,0],[2,35],[0,2],[1,14],[1,19],[3,-1],[2,4],[0,6],[1,19],[8,-6],[10,-4],[2,-1],[2,-1],[10,-4],[1,0]],[[9920,6707],[1,-2],[-1,-2],[1,-4],[-1,-4],[1,-4],[0,-2],[-2,-2],[-2,-2],[-1,1],[-4,-1],[-1,0],[0,4],[2,0],[2,0],[1,0],[0,1],[0,3],[-1,2],[-1,0],[-2,2],[0,2],[3,4],[-2,2],[0,1],[5,-1],[0,1],[2,2],[0,-1]]]}
