{"type":"Topology","bbox":[-71.07422035844053,3.360470422071829,-67.7137849760528,4.9568542515908955],"transform":{"scale":[0.0003360771459533674,0.00015965434838674533],"translate":[-71.07422035844053,3.360470422071829]},"objects":{"municipios":{"type":"GeometryCollection","geometries":[{"type":"Polygon","arcs":[[0]],"properties":{"codigo":"99773204105021000101","sector":"997732041050210001","pcode":"CO99773","area_m2":233039}},{"type":"Polygon","arcs":[[1]],"properties":{"codigo":"99773202501001000101","sector":"997732025010010001","pcode":"CO99773","area_m2":203856}},{"type":"Polygon","arcs":[[2,3]],"properties":{"codigo":"99773212701002000102","sector":"997732127010020001","pcode":"CO99773","area_m2":200878}},{"type":"Polygon","arcs":[[-3,4]],"properties":{"codigo":"99773212701002000101","sector":"997732127010020001","pcode":"CO99773","area_m2":252627}},{"type":"Polygon","arcs":[[5]],"properties":{"codigo":"99773207503004000101","sector":"997732075030040001","pcode":"CO99773","area_m2":23571}},{"type":"Polygon","arcs":[[6,7,8]],"properties":{"codigo":"99773100000000000101","sector":"997731000000000001","pcode":"CO99773","area_m2":118170}},{"type":"Polygon","arcs":[[9,-8,10,11]],"properties":{"codigo":"99773100000000000102","sector":"997731000000000001","pcode":"CO99773","area_m2":125523}},{"type":"Polygon","arcs":[[12,13,-12,14]],"properties":{"codigo":"99773100000000000103","sector":"997731000000000001","pcode":"CO99773","area_m2":229724}},{"type":"Polygon","arcs":[[15,-13,16]],"properties":{"codigo":"99773100000000000104","sector":"997731000000000001","pcode":"CO99773","area_m2":258746}},{"type":"Polygon","arcs":[[-9,-10,-14,-16,17]],"properties":{"codigo":"99773100000000000105","sector":"997731000000000001","pcode":"CO99773","area_m2":226201}},{"type":"Polygon","arcs":[[18]],"properties":{"codigo":"99773200201003000101","sector":"997732002010030001","pcode":"CO99773","area_m2":218203}},{"type":"Polygon","arcs":[[19]],"properties":{"codigo":"99773200701005000101","sector":"997732007010050001","pcode":"CO99773","area_m2":131067}},{"type":"Polygon","arcs":[[20]],"properties":{"codigo":"99773212703008000101","sector":"997732127030080001","pcode":"CO99773","area_m2":61660}},{"type":"Polygon","arcs":[[21]],"properties":{"codigo":"99773211305010000101","sector":"997732113050100001","pcode":"CO99773","area_m2":211256}},{"type":"MultiPolygon","arcs":[[[22]],[[23]]],"properties":{"codigo":"99773200501013000101","sector":"997732005010130001","pcode":"CO99773","area_m2":19209}},{"type":"Polygon","arcs":[[24]],"properties":{"codigo":"99773205603015000101","sector":"997732056030150001","pcode":"CO99773","area_m2":179694}},{"type":"Polygon","arcs":[[25]],"properties":{"codigo":"99773200401017000101","sector":"997732004010170001","pcode":"CO99773","area_m2":102972}},{"type":"Polygon","arcs":[[26]],"properties":{"codigo":"99773200101020000101","sector":"997732001010200001","pcode":"CO99773","area_m2":161715}},{"type":"Polygon","arcs":[[27]],"properties":{"codigo":"99773200301024000101","sector":"997732003010240001","pcode":"CO99773","area_m2":59593}},{"type":"MultiPolygon","arcs":[[[28]],[[29]]],"properties":{"codigo":"99773200301025000101","sector":"997732003010250001","pcode":"CO99773","area_m2":61814}},{"type":"MultiPolygon","arcs":[[[30]],[[31]]],"properties":{"codigo":"99773200301026000101","sector":"997732003010260001","pcode":"CO99773","area_m2":49682}},{"type":"Polygon","arcs":[[32]],"properties":{"codigo":"99773200301027000101","sector":"997732003010270001","pcode":"CO99773","area_m2":39766}},{"type":"MultiPolygon","arcs":[[[33]],[[34]],[[35]]],"properties":{"codigo":"99773209404028000101","sector":"997732094040280001","pcode":"CO99773","area_m2":30146}},{"type":"Polygon","arcs":[[36]],"properties":{"codigo":"99773209303029000101","sector":"997732093030290001","pcode":"CO99773","area_m2":97726}},{"type":"MultiPolygon","arcs":[[[37]],[[38]]],"properties":{"codigo":"99773208002030000101","sector":"997732080020300001","pcode":"CO99773","area_m2":82949}},{"type":"Polygon","arcs":[[39]],"properties":{"codigo":"99773203302031000101","sector":"997732033020310001","pcode":"CO99773","area_m2":52464}},{"type":"Polygon","arcs":[[40]],"properties":{"codigo":"99773207703032000101","sector":"997732077030320001","pcode":"CO99773","area_m2":89514}}]}},"arcs":[[[5976,9578],[1,2],[4,-1],[3,-1],[0,-8],[6,-1],[-1,-3],[-1,-2],[-1,0],[-1,-6],[-1,0],[0,-2],[-2,-1],[-1,-12],[-5,1],[0,11],[-3,0],[1,3],[-2,1],[0,4],[2,18],[1,-1],[0,-2]],[[5315,7901],[3,-1],[-2,-7],[2,-3],[0,-2],[-3,-12],[-1,0],[1,-2],[-2,-7],[-2,-6],[-1,3],[-1,-2],[-5,7],[1,5],[-2,3],[2,3],[1,-1],[7,18],[-1,3],[2,5],[1,-4]],[[18,7668],[-1,1],[1,13],[-9,2]],[[9,7684],[1,4],[1,8],[1,-4],[0,8],[6,-1],[0,-3],[7,-1],[-1,-19],[0,-9],[-6,1]],[[18,7668],[0,-9],[-10,1],[0,-2],[-8,2],[1,17],[1,1],[3,0],[1,7],[3,-1]],[[9997,4308],[2,-7],[-2,-13],[-1,3],[1,9],[-1,6],[1,2]],[[3802,6776],[0,-3],[-1,0],[0,4],[-2,0],[-8,0],[-3,-1],[-1,3],[0,7]],[[3787,6786],[2,-2],[5,-1],[0,9],[8,1]],[[3802,6793],[0,-17]],[[3802,6800],[0,-7]],[[3787,6786],[0,13]],[[3787,6799],[5,0],[0,6],[5,0],[0,-6],[5,1]],[[3807,6829],[0,-29]],[[3807,6800],[-5,0]],[[3787,6799],[0,12],[2,0],[7,5],[5,0],[0,9],[1,0],[0,4],[5,0]],[[3820,6800],[-5,0],[-8,0]],[[3807,6829],[2,0],[11,0],[1,-2],[0,-2],[-1,-2],[2,1],[0,-5],[-2,-1],[0,-14],[0,-4]],[[3820,6800],[0,-13],[2,-1],[0,-2],[-3,1],[-1,-3],[-1,4],[-6,-2],[-2,0],[0,-3],[-2,0],[0,-7],[-2,0],[-3,2]],[[1192,7114],[1,0],[0,-2],[3,-1],[3,1],[2,0],[0,-2],[3,1],[2,0],[2,2],[0,-9],[2,1],[1,-8],[-1,0],[1,-11],[-2,-6],[-4,6],[1,1],[-2,2],[0,2],[-3,3],[0,3],[-4,4],[-1,-3],[-2,2],[-1,5],[-1,0],[1,3],[-3,2],[2,4]],[[2529,4440],[2,-1],[0,-4],[4,-4],[4,-4],[0,-1],[5,-7],[0,-1],[5,-6],[0,-3],[-1,1],[-6,7],[1,-4],[-5,6],[-3,-1],[-1,3],[-3,1],[1,1],[-5,7],[-2,-1],[3,12],[1,-1]],[[238,6288],[1,-5],[-2,-3],[0,-3],[-3,-4],[-3,8],[2,4],[-2,4],[2,-1],[1,2],[2,0],[2,-2]],[[1449,2915],[1,0],[1,-3],[3,3],[-1,-4],[-2,-2],[0,-2],[2,-3],[-2,-7],[-1,-1],[-2,-5],[-2,0],[-1,-3],[-1,2],[-2,0],[0,12],[-3,2],[2,4],[-2,1],[0,3],[-2,3],[2,10],[2,-3],[8,-7]],[[9641,9997],[-1,-4],[-4,-2],[-3,-1],[-1,2],[5,2],[1,5],[1,-2],[2,2],[0,-2]],[[9635,9998],[0,0]],[[8048,9432],[1,-3],[2,3],[2,-4],[1,3],[3,-3],[2,3],[2,2],[3,0],[1,1],[3,-7],[-3,-5],[-7,-10],[-2,-1],[-3,4],[0,2],[-2,1],[-1,-4],[-2,4],[2,6],[-3,7],[-1,1],[1,2],[1,-2]],[[6327,8541],[0,-2],[5,-2],[-2,-2],[1,-4],[-2,-8],[-2,-4],[0,5],[-1,0],[0,3],[-5,5],[-2,0],[0,2],[-1,1],[0,4],[3,-1],[0,3],[2,-1],[3,2],[1,-1]],[[408,7363],[6,-4],[8,0],[-1,-14],[3,-6],[-1,-3],[-2,-3],[-4,11],[-1,-4],[0,-8],[1,-6],[-1,0],[-1,8],[-1,1],[-1,6],[-1,8],[-2,-1],[1,3],[-2,3],[1,3],[-3,4],[1,2]],[[3869,6165],[2,-2],[1,-4],[5,3],[-1,-4],[1,-3],[-2,-1],[0,4],[-4,-2],[1,-4],[-4,-2],[0,3],[-4,-1],[0,2],[3,2],[0,6],[1,3],[1,0]],[[3631,6160],[-5,-1],[0,7],[0,5],[0,5],[3,1],[2,-2],[1,-15],[-1,0]],[[3624,6160],[0,0]],[[3798,6157],[3,-4],[1,1],[1,-3],[-3,-5],[-5,0],[0,-1],[-1,5],[-1,1],[1,3],[3,1],[0,2],[1,0]],[[3796,6157],[-2,2],[2,0],[0,-2]],[[3638,6099],[1,0],[0,-5],[-1,-1],[-5,1],[0,-2],[-3,0],[0,6],[1,1],[4,0],[0,4],[3,-1],[0,-3]],[[2701,1],[0,0]],[[2718,32],[0,0]],[[2710,33],[0,-4],[-3,1],[1,-1],[-1,-7],[-1,-10],[-2,0],[1,7],[2,16],[3,-2]],[[2805,263],[1,1],[4,-1],[3,-2],[-1,-4],[-4,-12],[0,1],[0,5],[-5,7],[0,-3],[-3,1],[0,2],[-2,3],[2,9],[5,-7]],[[7189,3806],[0,-3],[1,1],[2,-8],[1,-1],[2,1],[1,-5],[-2,-1],[-1,-5],[0,-1],[0,-8],[-2,0],[-2,14],[-1,5],[-1,0],[0,5],[1,0],[1,6]],[[7188,3815],[0,-6],[-2,1],[0,4],[2,1]],[[5992,6303],[-1,3],[0,2],[3,0],[1,-5],[3,-1],[1,1],[2,-5],[-1,-2],[-5,-6],[-1,6],[-2,7]],[[8614,4217],[-4,7],[-1,-3],[-1,1],[1,5],[2,4],[0,2],[2,4],[5,-3],[1,1],[4,-6],[-3,-1],[-2,-2],[-4,-9]]]}
